<?xml version="1.0" encoding="UTF-8"?>
<gpx version="1.1" creator="compostel-brouter" xmlns="http://www.topografix.com/GPX/1/1">
  <metadata><name>BE-08-Givet</name></metadata>
  <trk><name>BE-08-Givet</name><trkseg>
<trkpt lon="4.827854" lat="50.218472"><ele>179.5</ele></trkpt>
<trkpt lon="4.830170" lat="50.218787"><ele>177.25</ele></trkpt>
<trkpt lon="4.830462" lat="50.218859"><ele>177.5</ele></trkpt>
<trkpt lon="4.830399" lat="50.219363"><ele>182.0</ele></trkpt>
<trkpt lon="4.830381" lat="50.219669"><ele>181.75</ele></trkpt>
<trkpt lon="4.830184" lat="50.219720"><ele>180.25</ele></trkpt>
<trkpt lon="4.828980" lat="50.219962"><ele>173.25</ele></trkpt>
<trkpt lon="4.827524" lat="50.219912"><ele>163.75</ele></trkpt>
<trkpt lon="4.827306" lat="50.219880"><ele>161.75</ele></trkpt>
<trkpt lon="4.826894" lat="50.219818"><ele>158.0</ele></trkpt>
<trkpt lon="4.826369" lat="50.219724"><ele>151.75</ele></trkpt>
<trkpt lon="4.826172" lat="50.219715"><ele>150.5</ele></trkpt>
<trkpt lon="4.825996" lat="50.219706"><ele>149.25</ele></trkpt>
<trkpt lon="4.825496" lat="50.219593"><ele>146.75</ele></trkpt>
<trkpt lon="4.825258" lat="50.219515"><ele>146.5</ele></trkpt>
<trkpt lon="4.824965" lat="50.219431"><ele>144.75</ele></trkpt>
<trkpt lon="4.824827" lat="50.219374"><ele>140.5</ele></trkpt>
<trkpt lon="4.824746" lat="50.219234"><ele>135.75</ele></trkpt>
<trkpt lon="4.824778" lat="50.218994"><ele>129.0</ele></trkpt>
<trkpt lon="4.824957" lat="50.218536"><ele>119.0</ele></trkpt>
<trkpt lon="4.825059" lat="50.218186"><ele>111.5</ele></trkpt>
<trkpt lon="4.825118" lat="50.217929"><ele>107.75</ele></trkpt>
<trkpt lon="4.825107" lat="50.217700"><ele>104.5</ele></trkpt>
<trkpt lon="4.824953" lat="50.217450"><ele>101.0</ele></trkpt>
<trkpt lon="4.824849" lat="50.217440"><ele>101.0</ele></trkpt>
<trkpt lon="4.824773" lat="50.217434"><ele>101.0</ele></trkpt>
<trkpt lon="4.824806" lat="50.217269"><ele>101.0</ele></trkpt>
<trkpt lon="4.824781" lat="50.217051"><ele>101.0</ele></trkpt>
<trkpt lon="4.824738" lat="50.216811"><ele>100.5</ele></trkpt>
<trkpt lon="4.824781" lat="50.216809"><ele>100.5</ele></trkpt>
<trkpt lon="4.824842" lat="50.216805"><ele>100.75</ele></trkpt>
<trkpt lon="4.824907" lat="50.216771"><ele>101.0</ele></trkpt>
<trkpt lon="4.824990" lat="50.216729"><ele>101.0</ele></trkpt>
<trkpt lon="4.824936" lat="50.216709"><ele>100.75</ele></trkpt>
<trkpt lon="4.824899" lat="50.216680"><ele>100.5</ele></trkpt>
<trkpt lon="4.824875" lat="50.216582"><ele>100.0</ele></trkpt>
<trkpt lon="4.824761" lat="50.216564"><ele>99.5</ele></trkpt>
<trkpt lon="4.824760" lat="50.216492"><ele>99.25</ele></trkpt>
<trkpt lon="4.824787" lat="50.216413"><ele>99.0</ele></trkpt>
<trkpt lon="4.824907" lat="50.216384"><ele>99.0</ele></trkpt>
<trkpt lon="4.825143" lat="50.216259"><ele>99.0</ele></trkpt>
<trkpt lon="4.825475" lat="50.216032"><ele>100.0</ele></trkpt>
<trkpt lon="4.825566" lat="50.215964"><ele>100.5</ele></trkpt>
<trkpt lon="4.825603" lat="50.215937"><ele>100.5</ele></trkpt>
<trkpt lon="4.825641" lat="50.215901"><ele>100.5</ele></trkpt>
<trkpt lon="4.825345" lat="50.215671"><ele>100.5</ele></trkpt>
<trkpt lon="4.825002" lat="50.215387"><ele>100.0</ele></trkpt>
<trkpt lon="4.824611" lat="50.214976"><ele>100.0</ele></trkpt>
<trkpt lon="4.824106" lat="50.214399"><ele>100.0</ele></trkpt>
<trkpt lon="4.824020" lat="50.214301"><ele>100.0</ele></trkpt>
<trkpt lon="4.824007" lat="50.214254"><ele>100.0</ele></trkpt>
<trkpt lon="4.823924" lat="50.213946"><ele>99.5</ele></trkpt>
<trkpt lon="4.822770" lat="50.212615"><ele>100.0</ele></trkpt>
<trkpt lon="4.822468" lat="50.212284"><ele>100.0</ele></trkpt>
<trkpt lon="4.822283" lat="50.212098"><ele>100.0</ele></trkpt>
<trkpt lon="4.822198" lat="50.212032"><ele>100.25</ele></trkpt>
<trkpt lon="4.822252" lat="50.211915"><ele>99.5</ele></trkpt>
<trkpt lon="4.822274" lat="50.211854"><ele>99.0</ele></trkpt>
<trkpt lon="4.821534" lat="50.210622"><ele>98.5</ele></trkpt>
<trkpt lon="4.821593" lat="50.210535"><ele>97.5</ele></trkpt>
<trkpt lon="4.821425" lat="50.210213"><ele>97.5</ele></trkpt>
<trkpt lon="4.821298" lat="50.209968"><ele>97.0</ele></trkpt>
<trkpt lon="4.820479" lat="50.208397"><ele>97.25</ele></trkpt>
<trkpt lon="4.820230" lat="50.207931"><ele>97.25</ele></trkpt>
<trkpt lon="4.819554" lat="50.206675"><ele>97.0</ele></trkpt>
<trkpt lon="4.819477" lat="50.206533"><ele>96.75</ele></trkpt>
<trkpt lon="4.819380" lat="50.206346"><ele>96.0</ele></trkpt>
<trkpt lon="4.819206" lat="50.206021"><ele>98.25</ele></trkpt>
<trkpt lon="4.819000" lat="50.205517"><ele>98.75</ele></trkpt>
<trkpt lon="4.818827" lat="50.205003"><ele>98.25</ele></trkpt>
<trkpt lon="4.818714" lat="50.204616"><ele>98.75</ele></trkpt>
<trkpt lon="4.818491" lat="50.203557"><ele>99.25</ele></trkpt>
<trkpt lon="4.818470" lat="50.203431"><ele>99.0</ele></trkpt>
<trkpt lon="4.818427" lat="50.203239"><ele>99.0</ele></trkpt>
<trkpt lon="4.818383" lat="50.202701"><ele>99.0</ele></trkpt>
<trkpt lon="4.818367" lat="50.202124"><ele>99.0</ele></trkpt>
<trkpt lon="4.818363" lat="50.201143"><ele>99.0</ele></trkpt>
<trkpt lon="4.818347" lat="50.200734"><ele>99.0</ele></trkpt>
<trkpt lon="4.818465" lat="50.199916"><ele>99.0</ele></trkpt>
<trkpt lon="4.818544" lat="50.199515"><ele>98.75</ele></trkpt>
<trkpt lon="4.818669" lat="50.199113"><ele>98.75</ele></trkpt>
<trkpt lon="4.818822" lat="50.198662"><ele>98.75</ele></trkpt>
<trkpt lon="4.818991" lat="50.198359"><ele>98.5</ele></trkpt>
<trkpt lon="4.819053" lat="50.198264"><ele>98.5</ele></trkpt>
<trkpt lon="4.819097" lat="50.198208"><ele>98.5</ele></trkpt>
<trkpt lon="4.819005" lat="50.198168"><ele>99.0</ele></trkpt>
<trkpt lon="4.818968" lat="50.198152"><ele>99.25</ele></trkpt>
<trkpt lon="4.818873" lat="50.198230"><ele>99.25</ele></trkpt>
<trkpt lon="4.818830" lat="50.198212"><ele>99.5</ele></trkpt>
<trkpt lon="4.818787" lat="50.198192"><ele>99.5</ele></trkpt>
<trkpt lon="4.818918" lat="50.198089"><ele>99.75</ele></trkpt>
<trkpt lon="4.818929" lat="50.198069"><ele>99.75</ele></trkpt>
<trkpt lon="4.818929" lat="50.198046"><ele>99.75</ele></trkpt>
<trkpt lon="4.818907" lat="50.198004"><ele>99.75</ele></trkpt>
<trkpt lon="4.818850" lat="50.197973"><ele>100.0</ele></trkpt>
<trkpt lon="4.818884" lat="50.197938"><ele>100.0</ele></trkpt>
<trkpt lon="4.818784" lat="50.197894"><ele>100.0</ele></trkpt>
<trkpt lon="4.818285" lat="50.197705"><ele>101.5</ele></trkpt>
<trkpt lon="4.818008" lat="50.197578"><ele>102.5</ele></trkpt>
<trkpt lon="4.817935" lat="50.197520"><ele>103.25</ele></trkpt>
<trkpt lon="4.817908" lat="50.197454"><ele>103.5</ele></trkpt>
<trkpt lon="4.817935" lat="50.197394"><ele>103.5</ele></trkpt>
<trkpt lon="4.818153" lat="50.197114"><ele>104.25</ele></trkpt>
<trkpt lon="4.818175" lat="50.197088"><ele>104.25</ele></trkpt>
<trkpt lon="4.818142" lat="50.196992"><ele>104.25</ele></trkpt>
<trkpt lon="4.818053" lat="50.197027"><ele>104.0</ele></trkpt>
<trkpt lon="4.817856" lat="50.197055"><ele>104.75</ele></trkpt>
<trkpt lon="4.817868" lat="50.196951"><ele>105.25</ele></trkpt>
<trkpt lon="4.817905" lat="50.196849"><ele>105.75</ele></trkpt>
<trkpt lon="4.817916" lat="50.196743"><ele>106.25</ele></trkpt>
<trkpt lon="4.818023" lat="50.196653"><ele>106.25</ele></trkpt>
<trkpt lon="4.818272" lat="50.196294"><ele>107.25</ele></trkpt>
<trkpt lon="4.818520" lat="50.195984"><ele>107.5</ele></trkpt>
<trkpt lon="4.819292" lat="50.194935"><ele>107.5</ele></trkpt>
<trkpt lon="4.820188" lat="50.193671"><ele>107.25</ele></trkpt>
<trkpt lon="4.820236" lat="50.193590"><ele>107.25</ele></trkpt>
<trkpt lon="4.820713" lat="50.192899"><ele>106.5</ele></trkpt>
<trkpt lon="4.821527" lat="50.191817"><ele>107.0</ele></trkpt>
<trkpt lon="4.821851" lat="50.191387"><ele>106.5</ele></trkpt>
<trkpt lon="4.822559" lat="50.190380"><ele>105.75</ele></trkpt>
<trkpt lon="4.823033" lat="50.189409"><ele>105.75</ele></trkpt>
<trkpt lon="4.823210" lat="50.188911"><ele>106.0</ele></trkpt>
<trkpt lon="4.823280" lat="50.188611"><ele>106.0</ele></trkpt>
<trkpt lon="4.823317" lat="50.188263"><ele>106.0</ele></trkpt>
<trkpt lon="4.823327" lat="50.188134"><ele>106.0</ele></trkpt>
<trkpt lon="4.823421" lat="50.187113"><ele>106.0</ele></trkpt>
<trkpt lon="4.823349" lat="50.186370"><ele>106.75</ele></trkpt>
<trkpt lon="4.823227" lat="50.185705"><ele>106.5</ele></trkpt>
<trkpt lon="4.823088" lat="50.185410"><ele>106.75</ele></trkpt>
<trkpt lon="4.822994" lat="50.185098"><ele>107.25</ele></trkpt>
<trkpt lon="4.823109" lat="50.185082"><ele>107.0</ele></trkpt>
<trkpt lon="4.823003" lat="50.184693"><ele>107.25</ele></trkpt>
<trkpt lon="4.822869" lat="50.184312"><ele>108.0</ele></trkpt>
<trkpt lon="4.822664" lat="50.183623"><ele>108.5</ele></trkpt>
<trkpt lon="4.820987" lat="50.180140"><ele>110.5</ele></trkpt>
<trkpt lon="4.820792" lat="50.179268"><ele>110.25</ele></trkpt>
<trkpt lon="4.820731" lat="50.178852"><ele>109.75</ele></trkpt>
<trkpt lon="4.820729" lat="50.178464"><ele>110.25</ele></trkpt>
<trkpt lon="4.820701" lat="50.177730"><ele>113.25</ele></trkpt>
<trkpt lon="4.820779" lat="50.176995"><ele>115.25</ele></trkpt>
<trkpt lon="4.820994" lat="50.175541"><ele>120.25</ele></trkpt>
<trkpt lon="4.821528" lat="50.172631"><ele>119.75</ele></trkpt>
<trkpt lon="4.821455" lat="50.170903"><ele>121.0</ele></trkpt>
<trkpt lon="4.820828" lat="50.168670"><ele>124.0</ele></trkpt>
<trkpt lon="4.820284" lat="50.167196"><ele>124.75</ele></trkpt>
<trkpt lon="4.819438" lat="50.165690"><ele>130.0</ele></trkpt>
<trkpt lon="4.818920" lat="50.165056"><ele>130.75</ele></trkpt>
<trkpt lon="4.817800" lat="50.163911"><ele>131.5</ele></trkpt>
<trkpt lon="4.815988" lat="50.162184"><ele>134.25</ele></trkpt>
<trkpt lon="4.815537" lat="50.161851"><ele>134.0</ele></trkpt>
<trkpt lon="4.814603" lat="50.161308"><ele>133.5</ele></trkpt>
<trkpt lon="4.813246" lat="50.160682"><ele>131.75</ele></trkpt>
<trkpt lon="4.812160" lat="50.160358"><ele>132.0</ele></trkpt>
<trkpt lon="4.811061" lat="50.160121"><ele>133.0</ele></trkpt>
<trkpt lon="4.810704" lat="50.160034"><ele>134.0</ele></trkpt>
<trkpt lon="4.809566" lat="50.159892"><ele>135.0</ele></trkpt>
<trkpt lon="4.809501" lat="50.159800"><ele>135.0</ele></trkpt>
<trkpt lon="4.809316" lat="50.159728"><ele>135.0</ele></trkpt>
<trkpt lon="4.809130" lat="50.159669"><ele>135.25</ele></trkpt>
<trkpt lon="4.808960" lat="50.159596"><ele>135.75</ele></trkpt>
<trkpt lon="4.808804" lat="50.159504"><ele>136.0</ele></trkpt>
<trkpt lon="4.808741" lat="50.159424"><ele>136.0</ele></trkpt>
<trkpt lon="4.808722" lat="50.159405"><ele>136.0</ele></trkpt>
<trkpt lon="4.808715" lat="50.159362"><ele>136.0</ele></trkpt>
<trkpt lon="4.808748" lat="50.159320"><ele>136.0</ele></trkpt>
<trkpt lon="4.808824" lat="50.159303"><ele>136.0</ele></trkpt>
<trkpt lon="4.808903" lat="50.159315"><ele>135.75</ele></trkpt>
<trkpt lon="4.809324" lat="50.159033"><ele>134.5</ele></trkpt>
<trkpt lon="4.809778" lat="50.158709"><ele>133.25</ele></trkpt>
<trkpt lon="4.809909" lat="50.158505"><ele>132.25</ele></trkpt>
<trkpt lon="4.809755" lat="50.157767"><ele>128.75</ele></trkpt>
<trkpt lon="4.809671" lat="50.157278"><ele>126.0</ele></trkpt>
<trkpt lon="4.809482" lat="50.157023"><ele>123.75</ele></trkpt>
<trkpt lon="4.809404" lat="50.156954"><ele>123.0</ele></trkpt>
<trkpt lon="4.809513" lat="50.156864"><ele>121.75</ele></trkpt>
<trkpt lon="4.810220" lat="50.156482"><ele>117.5</ele></trkpt>
<trkpt lon="4.810253" lat="50.156464"><ele>117.5</ele></trkpt>
<trkpt lon="4.810352" lat="50.156558"><ele>118.0</ele></trkpt>
<trkpt lon="4.810564" lat="50.156474"><ele>117.5</ele></trkpt>
<trkpt lon="4.810610" lat="50.156422"><ele>117.0</ele></trkpt>
<trkpt lon="4.810598" lat="50.156383"><ele>116.5</ele></trkpt>
<trkpt lon="4.810492" lat="50.156275"><ele>115.0</ele></trkpt>
<trkpt lon="4.810431" lat="50.156219"><ele>114.0</ele></trkpt>
<trkpt lon="4.810402" lat="50.156182"><ele>113.5</ele></trkpt>
<trkpt lon="4.810419" lat="50.156142"><ele>112.75</ele></trkpt>
<trkpt lon="4.810463" lat="50.156118"><ele>112.25</ele></trkpt>
<trkpt lon="4.810817" lat="50.156004"><ele>109.75</ele></trkpt>
<trkpt lon="4.811210" lat="50.155938"><ele>108.0</ele></trkpt>
<trkpt lon="4.811548" lat="50.155893"><ele>106.5</ele></trkpt>
<trkpt lon="4.811875" lat="50.155834"><ele>106.0</ele></trkpt>
<trkpt lon="4.811990" lat="50.155797"><ele>106.0</ele></trkpt>
<trkpt lon="4.812048" lat="50.155768"><ele>106.0</ele></trkpt>
<trkpt lon="4.812075" lat="50.155736"><ele>106.0</ele></trkpt>
<trkpt lon="4.812075" lat="50.155671"><ele>106.0</ele></trkpt>
<trkpt lon="4.812071" lat="50.155408"><ele>106.75</ele></trkpt>
<trkpt lon="4.812052" lat="50.155255"><ele>107.75</ele></trkpt>
<trkpt lon="4.812006" lat="50.155085"><ele>109.0</ele></trkpt>
<trkpt lon="4.811910" lat="50.154908"><ele>110.75</ele></trkpt>
<trkpt lon="4.811827" lat="50.154793"><ele>112.0</ele></trkpt>
<trkpt lon="4.811486" lat="50.154403"><ele>114.5</ele></trkpt>
<trkpt lon="4.811373" lat="50.154119"><ele>116.0</ele></trkpt>
<trkpt lon="4.811349" lat="50.153834"><ele>116.0</ele></trkpt>
<trkpt lon="4.811293" lat="50.153502"><ele>115.75</ele></trkpt>
<trkpt lon="4.811130" lat="50.153412"><ele>116.0</ele></trkpt>
<trkpt lon="4.811159" lat="50.153369"><ele>115.75</ele></trkpt>
<trkpt lon="4.811174" lat="50.153326"><ele>115.75</ele></trkpt>
<trkpt lon="4.811184" lat="50.153270"><ele>115.75</ele></trkpt>
<trkpt lon="4.811184" lat="50.153161"><ele>115.75</ele></trkpt>
<trkpt lon="4.811170" lat="50.152725"><ele>115.75</ele></trkpt>
<trkpt lon="4.811140" lat="50.152445"><ele>114.75</ele></trkpt>
<trkpt lon="4.810972" lat="50.151647"><ele>112.25</ele></trkpt>
<trkpt lon="4.810959" lat="50.151567"><ele>112.0</ele></trkpt>
<trkpt lon="4.810964" lat="50.151454"><ele>111.75</ele></trkpt>
<trkpt lon="4.810982" lat="50.151409"><ele>111.5</ele></trkpt>
<trkpt lon="4.811030" lat="50.151338"><ele>111.0</ele></trkpt>
<trkpt lon="4.811140" lat="50.151251"><ele>109.75</ele></trkpt>
<trkpt lon="4.811890" lat="50.150823"><ele>108.5</ele></trkpt>
<trkpt lon="4.811970" lat="50.150758"><ele>109.5</ele></trkpt>
<trkpt lon="4.812033" lat="50.150699"><ele>110.0</ele></trkpt>
<trkpt lon="4.812073" lat="50.150648"><ele>110.25</ele></trkpt>
<trkpt lon="4.812301" lat="50.150208"><ele>111.0</ele></trkpt>
<trkpt lon="4.812382" lat="50.150112"><ele>111.25</ele></trkpt>
<trkpt lon="4.812496" lat="50.150054"><ele>111.0</ele></trkpt>
<trkpt lon="4.812936" lat="50.149921"><ele>107.0</ele></trkpt>
<trkpt lon="4.813113" lat="50.149887"><ele>105.5</ele></trkpt>
<trkpt lon="4.813250" lat="50.149877"><ele>104.75</ele></trkpt>
<trkpt lon="4.813396" lat="50.149877"><ele>104.0</ele></trkpt>
<trkpt lon="4.814188" lat="50.149942"><ele>103.0</ele></trkpt>
<trkpt lon="4.814489" lat="50.149919"><ele>103.0</ele></trkpt>
<trkpt lon="4.815424" lat="50.149716"><ele>102.75</ele></trkpt>
<trkpt lon="4.815957" lat="50.149661"><ele>102.75</ele></trkpt>
<trkpt lon="4.816871" lat="50.149609"><ele>105.25</ele></trkpt>
<trkpt lon="4.817024" lat="50.149599"><ele>105.0</ele></trkpt>
<trkpt lon="4.817271" lat="50.149580"><ele>103.5</ele></trkpt>
<trkpt lon="4.817590" lat="50.149539"><ele>104.25</ele></trkpt>
<trkpt lon="4.817695" lat="50.149524"><ele>104.5</ele></trkpt>
<trkpt lon="4.817971" lat="50.149468"><ele>104.25</ele></trkpt>
<trkpt lon="4.818110" lat="50.149435"><ele>103.75</ele></trkpt>
<trkpt lon="4.818226" lat="50.149403"><ele>103.75</ele></trkpt>
<trkpt lon="4.818484" lat="50.149321"><ele>103.0</ele></trkpt>
<trkpt lon="4.818673" lat="50.149250"><ele>103.0</ele></trkpt>
<trkpt lon="4.818831" lat="50.149177"><ele>103.0</ele></trkpt>
<trkpt lon="4.819058" lat="50.149036"><ele>102.5</ele></trkpt>
<trkpt lon="4.819238" lat="50.148927"><ele>102.25</ele></trkpt>
<trkpt lon="4.819298" lat="50.148868"><ele>102.25</ele></trkpt>
<trkpt lon="4.819388" lat="50.148790"><ele>102.5</ele></trkpt>
<trkpt lon="4.819815" lat="50.148400"><ele>102.0</ele></trkpt>
<trkpt lon="4.819872" lat="50.148344"><ele>102.0</ele></trkpt>
<trkpt lon="4.820227" lat="50.148002"><ele>102.75</ele></trkpt>
<trkpt lon="4.820247" lat="50.147983"><ele>102.75</ele></trkpt>
<trkpt lon="4.820397" lat="50.147835"><ele>103.0</ele></trkpt>
<trkpt lon="4.820440" lat="50.147849"><ele>102.75</ele></trkpt>
<trkpt lon="4.820467" lat="50.147851"><ele>103.0</ele></trkpt>
<trkpt lon="4.820585" lat="50.147846"><ele>103.0</ele></trkpt>
<trkpt lon="4.821115" lat="50.147824"><ele>103.0</ele></trkpt>
<trkpt lon="4.821660" lat="50.147801"><ele>103.0</ele></trkpt>
<trkpt lon="4.822187" lat="50.147776"><ele>103.0</ele></trkpt>
<trkpt lon="4.822733" lat="50.147750"><ele>103.0</ele></trkpt>
<trkpt lon="4.823796" lat="50.147704"><ele>103.25</ele></trkpt>
<trkpt lon="4.823842" lat="50.147699"><ele>103.0</ele></trkpt>
<trkpt lon="4.823797" lat="50.147548"><ele>103.25</ele></trkpt>
<trkpt lon="4.823924" lat="50.147529"><ele>103.0</ele></trkpt>
<trkpt lon="4.824207" lat="50.147461"><ele>102.75</ele></trkpt>
<trkpt lon="4.824466" lat="50.147331"><ele>101.75</ele></trkpt>
<trkpt lon="4.824360" lat="50.147002"><ele>102.75</ele></trkpt>
<trkpt lon="4.824366" lat="50.146976"><ele>102.75</ele></trkpt>
<trkpt lon="4.824403" lat="50.146962"><ele>102.75</ele></trkpt>
<trkpt lon="4.825216" lat="50.146862"><ele>102.0</ele></trkpt>
<trkpt lon="4.825236" lat="50.146840"><ele>102.0</ele></trkpt>
<trkpt lon="4.825011" lat="50.146033"><ele>102.5</ele></trkpt>
<trkpt lon="4.825017" lat="50.145930"><ele>102.0</ele></trkpt>
<trkpt lon="4.825113" lat="50.145768"><ele>101.25</ele></trkpt>
<trkpt lon="4.825376" lat="50.145607"><ele>101.25</ele></trkpt>
<trkpt lon="4.825561" lat="50.145478"><ele>101.25</ele></trkpt>
<trkpt lon="4.825565" lat="50.145403"><ele>101.5</ele></trkpt>
<trkpt lon="4.825640" lat="50.145194"><ele>102.0</ele></trkpt>
<trkpt lon="4.825727" lat="50.145076"><ele>102.5</ele></trkpt>
<trkpt lon="4.825827" lat="50.145009"><ele>102.75</ele></trkpt>
<trkpt lon="4.826085" lat="50.144955"><ele>103.0</ele></trkpt>
<trkpt lon="4.826158" lat="50.144905"><ele>103.0</ele></trkpt>
<trkpt lon="4.826171" lat="50.143661"><ele>103.0</ele></trkpt>
<trkpt lon="4.826344" lat="50.143660"><ele>103.0</ele></trkpt>
<trkpt lon="4.826277" lat="50.143602"><ele>103.0</ele></trkpt>
<trkpt lon="4.826260" lat="50.143463"><ele>103.0</ele></trkpt>
<trkpt lon="4.826292" lat="50.143402"><ele>103.0</ele></trkpt>
<trkpt lon="4.826279" lat="50.143326"><ele>103.0</ele></trkpt>
<trkpt lon="4.826265" lat="50.143247"><ele>103.0</ele></trkpt>
<trkpt lon="4.826228" lat="50.143027"><ele>103.0</ele></trkpt>
<trkpt lon="4.826197" lat="50.142859"><ele>103.0</ele></trkpt>
<trkpt lon="4.826167" lat="50.142709"><ele>103.0</ele></trkpt>
<trkpt lon="4.826144" lat="50.142587"><ele>103.5</ele></trkpt>
<trkpt lon="4.825899" lat="50.141362"><ele>104.0</ele></trkpt>
<trkpt lon="4.825778" lat="50.140828"><ele>104.0</ele></trkpt>
<trkpt lon="4.825534" lat="50.139612"><ele>105.0</ele></trkpt>
<trkpt lon="4.825511" lat="50.139475"><ele>104.75</ele></trkpt>
<trkpt lon="4.825507" lat="50.139458"><ele>105.0</ele></trkpt>
<trkpt lon="4.825501" lat="50.139431"><ele>105.0</ele></trkpt>
<trkpt lon="4.825492" lat="50.139399"><ele>105.0</ele></trkpt>
<trkpt lon="4.825430" lat="50.139282"><ele>105.0</ele></trkpt>
<trkpt lon="4.825166" lat="50.138958"><ele>105.0</ele></trkpt>
<trkpt lon="4.825147" lat="50.138936"><ele>105.0</ele></trkpt>
<trkpt lon="4.825122" lat="50.138907"><ele>105.0</ele></trkpt>
<trkpt lon="4.825095" lat="50.138877"><ele>105.0</ele></trkpt>
<trkpt lon="4.825078" lat="50.138856"><ele>105.0</ele></trkpt>
<trkpt lon="4.824558" lat="50.138186"><ele>103.75</ele></trkpt>
<trkpt lon="4.824263" lat="50.137817"><ele>103.75</ele></trkpt>
<trkpt lon="4.824228" lat="50.137771"><ele>104.0</ele></trkpt>
<trkpt lon="4.824209" lat="50.137750"><ele>104.0</ele></trkpt>
<trkpt lon="4.824259" lat="50.137721"><ele>104.0</ele></trkpt>
<trkpt lon="4.825340" lat="50.137112"><ele>103.0</ele></trkpt>
<trkpt lon="4.825413" lat="50.137079"><ele>103.0</ele></trkpt>
<trkpt lon="4.825585" lat="50.136987"><ele>103.0</ele></trkpt>
<trkpt lon="4.825985" lat="50.136772"><ele>102.5</ele></trkpt>
<trkpt lon="4.826267" lat="50.136582"><ele>102.5</ele></trkpt>
<trkpt lon="4.826510" lat="50.136398"><ele>103.75</ele></trkpt>
<trkpt lon="4.826551" lat="50.136368"><ele>103.75</ele></trkpt>
<trkpt lon="4.826630" lat="50.136308"><ele>103.75</ele></trkpt>
<trkpt lon="4.826704" lat="50.136253"><ele>103.75</ele></trkpt>
<trkpt lon="4.826764" lat="50.136283"><ele>103.5</ele></trkpt>
<trkpt lon="4.826847" lat="50.136224"><ele>102.75</ele></trkpt>
<trkpt lon="4.826882" lat="50.136199"><ele>102.5</ele></trkpt>
<trkpt lon="4.826903" lat="50.136160"><ele>102.25</ele></trkpt>
<trkpt lon="4.826920" lat="50.136148"><ele>102.25</ele></trkpt>
<trkpt lon="4.827935" lat="50.135365"><ele>101.5</ele></trkpt>
<trkpt lon="4.827949" lat="50.135355"><ele>101.75</ele></trkpt>
<trkpt lon="4.827899" lat="50.135328"><ele>101.25</ele></trkpt>
<trkpt lon="4.827838" lat="50.135293"><ele>100.75</ele></trkpt>
<trkpt lon="4.827896" lat="50.135246"><ele>101.75</ele></trkpt>
<trkpt lon="4.827891" lat="50.135226"><ele>101.75</ele></trkpt>
<trkpt lon="4.827851" lat="50.135202"><ele>101.5</ele></trkpt>
<trkpt lon="4.827914" lat="50.135152"><ele>102.0</ele></trkpt>
<trkpt lon="4.827664" lat="50.135023"><ele>102.25</ele></trkpt>
<trkpt lon="4.827510" lat="50.134920"><ele>102.0</ele></trkpt>
<trkpt lon="4.827310" lat="50.134947"><ele>100.75</ele></trkpt>
<trkpt lon="4.827324" lat="50.134973"><ele>100.75</ele></trkpt>
<trkpt lon="4.827763" lat="50.135200"><ele>100.75</ele></trkpt>
<trkpt lon="4.827845" lat="50.135262"><ele>101.0</ele></trkpt>
<trkpt lon="4.828002" lat="50.135344"><ele>102.25</ele></trkpt>
<trkpt lon="4.828093" lat="50.135389"><ele>102.25</ele></trkpt>
<trkpt lon="4.828381" lat="50.135565"><ele>101.0</ele></trkpt>
<trkpt lon="4.828528" lat="50.135679"><ele>100.75</ele></trkpt>
<trkpt lon="4.828678" lat="50.135793"><ele>101.0</ele></trkpt>
  </trkseg></trk></gpx>
