<?xml version="1.0" encoding="UTF-8"?>
<gpx version="1.1" creator="compostel-brouter" xmlns="http://www.topografix.com/GPX/1/1">
  <metadata><name>BE-09-Doische</name></metadata>
  <trk><name>BE-09-Doische</name><trkseg>
<trkpt lon="4.828678" lat="50.135793"><ele>100.75</ele></trkpt>
<trkpt lon="4.828528" lat="50.135679"><ele>100.75</ele></trkpt>
<trkpt lon="4.828381" lat="50.135565"><ele>101.0</ele></trkpt>
<trkpt lon="4.828093" lat="50.135389"><ele>102.25</ele></trkpt>
<trkpt lon="4.828002" lat="50.135344"><ele>102.25</ele></trkpt>
<trkpt lon="4.827845" lat="50.135262"><ele>101.0</ele></trkpt>
<trkpt lon="4.827763" lat="50.135200"><ele>100.75</ele></trkpt>
<trkpt lon="4.827324" lat="50.134973"><ele>100.75</ele></trkpt>
<trkpt lon="4.827310" lat="50.134947"><ele>100.75</ele></trkpt>
<trkpt lon="4.827510" lat="50.134920"><ele>102.0</ele></trkpt>
<trkpt lon="4.827664" lat="50.135023"><ele>102.25</ele></trkpt>
<trkpt lon="4.827914" lat="50.135152"><ele>102.0</ele></trkpt>
<trkpt lon="4.827851" lat="50.135202"><ele>101.5</ele></trkpt>
<trkpt lon="4.827891" lat="50.135226"><ele>101.75</ele></trkpt>
<trkpt lon="4.827896" lat="50.135246"><ele>101.75</ele></trkpt>
<trkpt lon="4.827838" lat="50.135293"><ele>100.75</ele></trkpt>
<trkpt lon="4.827899" lat="50.135328"><ele>101.25</ele></trkpt>
<trkpt lon="4.827949" lat="50.135355"><ele>101.75</ele></trkpt>
<trkpt lon="4.827935" lat="50.135365"><ele>101.5</ele></trkpt>
<trkpt lon="4.826920" lat="50.136148"><ele>102.25</ele></trkpt>
<trkpt lon="4.826903" lat="50.136160"><ele>102.25</ele></trkpt>
<trkpt lon="4.826882" lat="50.136199"><ele>102.5</ele></trkpt>
<trkpt lon="4.826847" lat="50.136224"><ele>102.75</ele></trkpt>
<trkpt lon="4.826764" lat="50.136283"><ele>103.5</ele></trkpt>
<trkpt lon="4.826704" lat="50.136253"><ele>103.75</ele></trkpt>
<trkpt lon="4.826630" lat="50.136308"><ele>103.75</ele></trkpt>
<trkpt lon="4.826551" lat="50.136368"><ele>103.75</ele></trkpt>
<trkpt lon="4.826510" lat="50.136398"><ele>103.75</ele></trkpt>
<trkpt lon="4.826267" lat="50.136582"><ele>102.5</ele></trkpt>
<trkpt lon="4.825985" lat="50.136772"><ele>102.5</ele></trkpt>
<trkpt lon="4.825585" lat="50.136987"><ele>103.0</ele></trkpt>
<trkpt lon="4.825413" lat="50.137079"><ele>103.0</ele></trkpt>
<trkpt lon="4.825340" lat="50.137112"><ele>103.0</ele></trkpt>
<trkpt lon="4.824259" lat="50.137721"><ele>104.0</ele></trkpt>
<trkpt lon="4.824209" lat="50.137750"><ele>104.0</ele></trkpt>
<trkpt lon="4.824228" lat="50.137771"><ele>104.0</ele></trkpt>
<trkpt lon="4.824263" lat="50.137817"><ele>103.75</ele></trkpt>
<trkpt lon="4.824558" lat="50.138186"><ele>103.75</ele></trkpt>
<trkpt lon="4.825078" lat="50.138856"><ele>105.0</ele></trkpt>
<trkpt lon="4.825095" lat="50.138877"><ele>105.0</ele></trkpt>
<trkpt lon="4.825122" lat="50.138907"><ele>105.0</ele></trkpt>
<trkpt lon="4.825147" lat="50.138936"><ele>105.0</ele></trkpt>
<trkpt lon="4.825166" lat="50.138958"><ele>105.0</ele></trkpt>
<trkpt lon="4.825430" lat="50.139282"><ele>105.0</ele></trkpt>
<trkpt lon="4.825492" lat="50.139399"><ele>105.0</ele></trkpt>
<trkpt lon="4.825501" lat="50.139431"><ele>105.0</ele></trkpt>
<trkpt lon="4.825507" lat="50.139458"><ele>105.0</ele></trkpt>
<trkpt lon="4.825511" lat="50.139475"><ele>104.75</ele></trkpt>
<trkpt lon="4.825534" lat="50.139612"><ele>105.0</ele></trkpt>
<trkpt lon="4.825778" lat="50.140828"><ele>104.0</ele></trkpt>
<trkpt lon="4.825899" lat="50.141362"><ele>104.0</ele></trkpt>
<trkpt lon="4.826144" lat="50.142587"><ele>103.5</ele></trkpt>
<trkpt lon="4.826167" lat="50.142709"><ele>103.0</ele></trkpt>
<trkpt lon="4.826197" lat="50.142859"><ele>103.0</ele></trkpt>
<trkpt lon="4.826228" lat="50.143027"><ele>103.0</ele></trkpt>
<trkpt lon="4.826265" lat="50.143247"><ele>103.0</ele></trkpt>
<trkpt lon="4.826279" lat="50.143326"><ele>103.0</ele></trkpt>
<trkpt lon="4.826292" lat="50.143402"><ele>103.0</ele></trkpt>
<trkpt lon="4.826260" lat="50.143463"><ele>103.0</ele></trkpt>
<trkpt lon="4.826277" lat="50.143602"><ele>103.0</ele></trkpt>
<trkpt lon="4.826344" lat="50.143660"><ele>103.0</ele></trkpt>
<trkpt lon="4.826171" lat="50.143661"><ele>103.0</ele></trkpt>
<trkpt lon="4.826158" lat="50.144905"><ele>103.0</ele></trkpt>
<trkpt lon="4.826085" lat="50.144955"><ele>103.0</ele></trkpt>
<trkpt lon="4.825827" lat="50.145009"><ele>102.75</ele></trkpt>
<trkpt lon="4.825727" lat="50.145076"><ele>102.5</ele></trkpt>
<trkpt lon="4.825640" lat="50.145194"><ele>102.0</ele></trkpt>
<trkpt lon="4.825565" lat="50.145403"><ele>101.5</ele></trkpt>
<trkpt lon="4.825561" lat="50.145478"><ele>101.25</ele></trkpt>
<trkpt lon="4.825376" lat="50.145607"><ele>101.25</ele></trkpt>
<trkpt lon="4.825113" lat="50.145768"><ele>101.25</ele></trkpt>
<trkpt lon="4.825017" lat="50.145930"><ele>102.0</ele></trkpt>
<trkpt lon="4.825011" lat="50.146033"><ele>102.5</ele></trkpt>
<trkpt lon="4.825236" lat="50.146840"><ele>102.0</ele></trkpt>
<trkpt lon="4.825216" lat="50.146862"><ele>102.0</ele></trkpt>
<trkpt lon="4.824403" lat="50.146962"><ele>102.75</ele></trkpt>
<trkpt lon="4.824366" lat="50.146976"><ele>102.75</ele></trkpt>
<trkpt lon="4.824360" lat="50.147002"><ele>102.75</ele></trkpt>
<trkpt lon="4.824466" lat="50.147331"><ele>101.75</ele></trkpt>
<trkpt lon="4.824207" lat="50.147461"><ele>102.75</ele></trkpt>
<trkpt lon="4.823924" lat="50.147529"><ele>103.0</ele></trkpt>
<trkpt lon="4.823797" lat="50.147548"><ele>103.25</ele></trkpt>
<trkpt lon="4.823842" lat="50.147699"><ele>103.0</ele></trkpt>
<trkpt lon="4.823796" lat="50.147704"><ele>103.25</ele></trkpt>
<trkpt lon="4.822733" lat="50.147750"><ele>103.0</ele></trkpt>
<trkpt lon="4.822187" lat="50.147776"><ele>103.0</ele></trkpt>
<trkpt lon="4.821660" lat="50.147801"><ele>103.0</ele></trkpt>
<trkpt lon="4.821115" lat="50.147824"><ele>103.0</ele></trkpt>
<trkpt lon="4.820585" lat="50.147846"><ele>103.0</ele></trkpt>
<trkpt lon="4.820467" lat="50.147851"><ele>103.0</ele></trkpt>
<trkpt lon="4.820440" lat="50.147849"><ele>102.75</ele></trkpt>
<trkpt lon="4.820397" lat="50.147835"><ele>103.0</ele></trkpt>
<trkpt lon="4.820247" lat="50.147983"><ele>102.75</ele></trkpt>
<trkpt lon="4.820227" lat="50.148002"><ele>102.75</ele></trkpt>
<trkpt lon="4.819872" lat="50.148344"><ele>102.0</ele></trkpt>
<trkpt lon="4.819815" lat="50.148400"><ele>102.0</ele></trkpt>
<trkpt lon="4.819388" lat="50.148790"><ele>102.5</ele></trkpt>
<trkpt lon="4.819298" lat="50.148868"><ele>102.25</ele></trkpt>
<trkpt lon="4.819238" lat="50.148927"><ele>102.25</ele></trkpt>
<trkpt lon="4.819058" lat="50.149036"><ele>102.5</ele></trkpt>
<trkpt lon="4.818831" lat="50.149177"><ele>103.0</ele></trkpt>
<trkpt lon="4.818673" lat="50.149250"><ele>103.0</ele></trkpt>
<trkpt lon="4.818484" lat="50.149321"><ele>103.0</ele></trkpt>
<trkpt lon="4.818226" lat="50.149403"><ele>103.75</ele></trkpt>
<trkpt lon="4.818110" lat="50.149435"><ele>103.75</ele></trkpt>
<trkpt lon="4.817971" lat="50.149468"><ele>104.25</ele></trkpt>
<trkpt lon="4.817695" lat="50.149524"><ele>104.5</ele></trkpt>
<trkpt lon="4.817590" lat="50.149539"><ele>104.25</ele></trkpt>
<trkpt lon="4.817271" lat="50.149580"><ele>103.5</ele></trkpt>
<trkpt lon="4.817024" lat="50.149599"><ele>105.0</ele></trkpt>
<trkpt lon="4.816871" lat="50.149609"><ele>105.25</ele></trkpt>
<trkpt lon="4.815957" lat="50.149661"><ele>102.75</ele></trkpt>
<trkpt lon="4.815424" lat="50.149716"><ele>102.75</ele></trkpt>
<trkpt lon="4.814489" lat="50.149919"><ele>103.0</ele></trkpt>
<trkpt lon="4.814188" lat="50.149942"><ele>103.0</ele></trkpt>
<trkpt lon="4.813396" lat="50.149877"><ele>104.0</ele></trkpt>
<trkpt lon="4.813250" lat="50.149877"><ele>104.75</ele></trkpt>
<trkpt lon="4.813113" lat="50.149887"><ele>105.5</ele></trkpt>
<trkpt lon="4.812936" lat="50.149921"><ele>107.0</ele></trkpt>
<trkpt lon="4.812496" lat="50.150054"><ele>111.0</ele></trkpt>
<trkpt lon="4.812382" lat="50.150112"><ele>111.25</ele></trkpt>
<trkpt lon="4.812301" lat="50.150208"><ele>111.0</ele></trkpt>
<trkpt lon="4.812073" lat="50.150648"><ele>110.25</ele></trkpt>
<trkpt lon="4.812033" lat="50.150699"><ele>110.0</ele></trkpt>
<trkpt lon="4.811970" lat="50.150758"><ele>109.5</ele></trkpt>
<trkpt lon="4.811890" lat="50.150823"><ele>108.5</ele></trkpt>
<trkpt lon="4.811140" lat="50.151251"><ele>109.75</ele></trkpt>
<trkpt lon="4.811030" lat="50.151338"><ele>111.0</ele></trkpt>
<trkpt lon="4.810982" lat="50.151409"><ele>111.5</ele></trkpt>
<trkpt lon="4.810964" lat="50.151454"><ele>111.75</ele></trkpt>
<trkpt lon="4.810959" lat="50.151567"><ele>112.0</ele></trkpt>
<trkpt lon="4.810972" lat="50.151647"><ele>112.25</ele></trkpt>
<trkpt lon="4.811140" lat="50.152445"><ele>114.75</ele></trkpt>
<trkpt lon="4.811170" lat="50.152725"><ele>115.75</ele></trkpt>
<trkpt lon="4.811184" lat="50.153161"><ele>115.75</ele></trkpt>
<trkpt lon="4.811184" lat="50.153270"><ele>115.75</ele></trkpt>
<trkpt lon="4.811174" lat="50.153326"><ele>115.75</ele></trkpt>
<trkpt lon="4.811159" lat="50.153369"><ele>115.75</ele></trkpt>
<trkpt lon="4.811130" lat="50.153412"><ele>116.0</ele></trkpt>
<trkpt lon="4.811293" lat="50.153502"><ele>115.75</ele></trkpt>
<trkpt lon="4.811349" lat="50.153834"><ele>116.0</ele></trkpt>
<trkpt lon="4.811373" lat="50.154119"><ele>116.0</ele></trkpt>
<trkpt lon="4.811486" lat="50.154403"><ele>114.5</ele></trkpt>
<trkpt lon="4.811827" lat="50.154793"><ele>112.0</ele></trkpt>
<trkpt lon="4.811910" lat="50.154908"><ele>110.75</ele></trkpt>
<trkpt lon="4.812006" lat="50.155085"><ele>109.0</ele></trkpt>
<trkpt lon="4.812052" lat="50.155255"><ele>107.75</ele></trkpt>
<trkpt lon="4.812071" lat="50.155408"><ele>106.75</ele></trkpt>
<trkpt lon="4.812075" lat="50.155671"><ele>106.0</ele></trkpt>
<trkpt lon="4.812075" lat="50.155736"><ele>106.0</ele></trkpt>
<trkpt lon="4.812048" lat="50.155768"><ele>106.0</ele></trkpt>
<trkpt lon="4.811990" lat="50.155797"><ele>106.0</ele></trkpt>
<trkpt lon="4.811875" lat="50.155834"><ele>106.0</ele></trkpt>
<trkpt lon="4.811548" lat="50.155893"><ele>106.5</ele></trkpt>
<trkpt lon="4.811210" lat="50.155938"><ele>108.0</ele></trkpt>
<trkpt lon="4.810817" lat="50.156004"><ele>109.75</ele></trkpt>
<trkpt lon="4.810463" lat="50.156118"><ele>112.25</ele></trkpt>
<trkpt lon="4.810419" lat="50.156142"><ele>112.75</ele></trkpt>
<trkpt lon="4.810402" lat="50.156182"><ele>113.5</ele></trkpt>
<trkpt lon="4.810431" lat="50.156219"><ele>114.0</ele></trkpt>
<trkpt lon="4.810492" lat="50.156275"><ele>115.0</ele></trkpt>
<trkpt lon="4.810598" lat="50.156383"><ele>116.5</ele></trkpt>
<trkpt lon="4.810610" lat="50.156422"><ele>117.0</ele></trkpt>
<trkpt lon="4.810564" lat="50.156474"><ele>117.5</ele></trkpt>
<trkpt lon="4.810352" lat="50.156558"><ele>118.0</ele></trkpt>
<trkpt lon="4.810253" lat="50.156464"><ele>117.5</ele></trkpt>
<trkpt lon="4.810220" lat="50.156482"><ele>117.5</ele></trkpt>
<trkpt lon="4.809513" lat="50.156864"><ele>121.75</ele></trkpt>
<trkpt lon="4.809404" lat="50.156954"><ele>123.0</ele></trkpt>
<trkpt lon="4.809482" lat="50.157023"><ele>123.75</ele></trkpt>
<trkpt lon="4.809671" lat="50.157278"><ele>126.0</ele></trkpt>
<trkpt lon="4.809755" lat="50.157767"><ele>128.75</ele></trkpt>
<trkpt lon="4.809909" lat="50.158505"><ele>132.25</ele></trkpt>
<trkpt lon="4.809778" lat="50.158709"><ele>133.25</ele></trkpt>
<trkpt lon="4.809324" lat="50.159033"><ele>134.5</ele></trkpt>
<trkpt lon="4.808903" lat="50.159315"><ele>135.75</ele></trkpt>
<trkpt lon="4.808824" lat="50.159303"><ele>136.0</ele></trkpt>
<trkpt lon="4.808748" lat="50.159320"><ele>136.0</ele></trkpt>
<trkpt lon="4.808715" lat="50.159362"><ele>136.0</ele></trkpt>
<trkpt lon="4.808722" lat="50.159405"><ele>136.0</ele></trkpt>
<trkpt lon="4.808741" lat="50.159424"><ele>136.0</ele></trkpt>
<trkpt lon="4.808804" lat="50.159504"><ele>136.0</ele></trkpt>
<trkpt lon="4.808960" lat="50.159596"><ele>135.75</ele></trkpt>
<trkpt lon="4.809130" lat="50.159669"><ele>135.25</ele></trkpt>
<trkpt lon="4.809316" lat="50.159728"><ele>135.0</ele></trkpt>
<trkpt lon="4.809501" lat="50.159800"><ele>135.0</ele></trkpt>
<trkpt lon="4.809566" lat="50.159892"><ele>135.0</ele></trkpt>
<trkpt lon="4.808184" lat="50.159842"><ele>137.5</ele></trkpt>
<trkpt lon="4.806644" lat="50.159866"><ele>140.25</ele></trkpt>
<trkpt lon="4.801901" lat="50.159904"><ele>139.25</ele></trkpt>
<trkpt lon="4.801578" lat="50.159869"><ele>137.25</ele></trkpt>
<trkpt lon="4.800346" lat="50.159733"><ele>137.25</ele></trkpt>
<trkpt lon="4.798679" lat="50.159283"><ele>135.0</ele></trkpt>
<trkpt lon="4.797385" lat="50.158758"><ele>132.0</ele></trkpt>
<trkpt lon="4.794739" lat="50.157405"><ele>140.0</ele></trkpt>
<trkpt lon="4.785893" lat="50.152781"><ele>147.5</ele></trkpt>
<trkpt lon="4.780719" lat="50.150091"><ele>153.5</ele></trkpt>
<trkpt lon="4.780510" lat="50.149978"><ele>154.0</ele></trkpt>
<trkpt lon="4.780413" lat="50.149927"><ele>154.25</ele></trkpt>
<trkpt lon="4.777979" lat="50.148607"><ele>154.25</ele></trkpt>
<trkpt lon="4.774720" lat="50.147023"><ele>156.0</ele></trkpt>
<trkpt lon="4.772961" lat="50.146465"><ele>158.5</ele></trkpt>
<trkpt lon="4.772313" lat="50.146260"><ele>158.5</ele></trkpt>
<trkpt lon="4.770545" lat="50.145980"><ele>163.5</ele></trkpt>
<trkpt lon="4.769910" lat="50.145929"><ele>164.75</ele></trkpt>
<trkpt lon="4.769917" lat="50.146018"><ele>165.5</ele></trkpt>
<trkpt lon="4.769484" lat="50.145994"><ele>166.0</ele></trkpt>
<trkpt lon="4.769139" lat="50.145991"><ele>166.25</ele></trkpt>
<trkpt lon="4.768668" lat="50.146005"><ele>167.75</ele></trkpt>
<trkpt lon="4.768032" lat="50.145998"><ele>168.75</ele></trkpt>
<trkpt lon="4.767458" lat="50.146002"><ele>169.5</ele></trkpt>
<trkpt lon="4.766566" lat="50.146067"><ele>173.0</ele></trkpt>
<trkpt lon="4.766158" lat="50.146055"><ele>173.0</ele></trkpt>
<trkpt lon="4.764821" lat="50.146087"><ele>174.5</ele></trkpt>
<trkpt lon="4.764466" lat="50.146129"><ele>174.0</ele></trkpt>
<trkpt lon="4.764460" lat="50.146112"><ele>174.0</ele></trkpt>
<trkpt lon="4.764535" lat="50.146033"><ele>172.5</ele></trkpt>
<trkpt lon="4.764532" lat="50.145952"><ele>171.0</ele></trkpt>
<trkpt lon="4.764513" lat="50.145799"><ele>169.25</ele></trkpt>
<trkpt lon="4.764510" lat="50.145714"><ele>171.0</ele></trkpt>
<trkpt lon="4.764496" lat="50.145383"><ele>170.25</ele></trkpt>
<trkpt lon="4.764492" lat="50.145287"><ele>168.0</ele></trkpt>
<trkpt lon="4.764489" lat="50.145210"><ele>169.25</ele></trkpt>
<trkpt lon="4.764542" lat="50.144968"><ele>174.25</ele></trkpt>
<trkpt lon="4.764907" lat="50.144137"><ele>174.5</ele></trkpt>
<trkpt lon="4.765395" lat="50.143748"><ele>175.5</ele></trkpt>
<trkpt lon="4.765561" lat="50.143473"><ele>176.25</ele></trkpt>
<trkpt lon="4.764778" lat="50.142514"><ele>182.5</ele></trkpt>
<trkpt lon="4.764703" lat="50.142366"><ele>183.0</ele></trkpt>
<trkpt lon="4.764783" lat="50.141111"><ele>183.5</ele></trkpt>
<trkpt lon="4.765009" lat="50.140582"><ele>186.0</ele></trkpt>
<trkpt lon="4.765502" lat="50.139856"><ele>184.75</ele></trkpt>
<trkpt lon="4.766076" lat="50.139358"><ele>184.75</ele></trkpt>
<trkpt lon="4.766227" lat="50.139281"><ele>185.25</ele></trkpt>
<trkpt lon="4.766922" lat="50.138926"><ele>188.5</ele></trkpt>
<trkpt lon="4.766462" lat="50.138678"><ele>188.75</ele></trkpt>
<trkpt lon="4.765653" lat="50.138437"><ele>187.25</ele></trkpt>
<trkpt lon="4.765290" lat="50.138410"><ele>186.75</ele></trkpt>
<trkpt lon="4.764951" lat="50.138444"><ele>186.25</ele></trkpt>
<trkpt lon="4.764561" lat="50.138536"><ele>185.25</ele></trkpt>
<trkpt lon="4.763456" lat="50.138826"><ele>182.0</ele></trkpt>
<trkpt lon="4.763130" lat="50.138897"><ele>181.0</ele></trkpt>
<trkpt lon="4.762494" lat="50.138913"><ele>179.75</ele></trkpt>
<trkpt lon="4.761269" lat="50.138714"><ele>179.25</ele></trkpt>
<trkpt lon="4.757635" lat="50.138276"><ele>180.5</ele></trkpt>
<trkpt lon="4.756903" lat="50.138199"><ele>180.75</ele></trkpt>
<trkpt lon="4.756601" lat="50.138158"><ele>180.75</ele></trkpt>
<trkpt lon="4.754025" lat="50.138199"><ele>181.25</ele></trkpt>
<trkpt lon="4.753361" lat="50.138185"><ele>182.0</ele></trkpt>
<trkpt lon="4.753055" lat="50.138179"><ele>182.0</ele></trkpt>
<trkpt lon="4.752091" lat="50.138103"><ele>181.5</ele></trkpt>
<trkpt lon="4.752471" lat="50.137918"><ele>181.0</ele></trkpt>
<trkpt lon="4.752621" lat="50.137845"><ele>181.0</ele></trkpt>
<trkpt lon="4.752780" lat="50.137726"><ele>181.25</ele></trkpt>
<trkpt lon="4.752987" lat="50.137456"><ele>180.25</ele></trkpt>
<trkpt lon="4.753342" lat="50.137309"><ele>180.75</ele></trkpt>
<trkpt lon="4.753667" lat="50.136966"><ele>181.75</ele></trkpt>
<trkpt lon="4.754085" lat="50.135661"><ele>203.5</ele></trkpt>
<trkpt lon="4.753880" lat="50.135245"><ele>211.0</ele></trkpt>
<trkpt lon="4.754041" lat="50.135212"><ele>211.5</ele></trkpt>
<trkpt lon="4.754454" lat="50.135031"><ele>212.0</ele></trkpt>
<trkpt lon="4.754620" lat="50.134878"><ele>212.25</ele></trkpt>
<trkpt lon="4.754794" lat="50.134504"><ele>213.75</ele></trkpt>
<trkpt lon="4.754600" lat="50.134359"><ele>214.25</ele></trkpt>
<trkpt lon="4.753145" lat="50.132867"><ele>218.75</ele></trkpt>
<trkpt lon="4.752865" lat="50.132602"><ele>219.25</ele></trkpt>
<trkpt lon="4.752258" lat="50.132328"><ele>219.5</ele></trkpt>
<trkpt lon="4.750740" lat="50.132203"><ele>221.75</ele></trkpt>
<trkpt lon="4.750335" lat="50.132238"><ele>222.5</ele></trkpt>
<trkpt lon="4.749985" lat="50.132243"><ele>222.75</ele></trkpt>
<trkpt lon="4.748273" lat="50.132049"><ele>224.0</ele></trkpt>
<trkpt lon="4.747549" lat="50.131934"><ele>223.75</ele></trkpt>
<trkpt lon="4.746576" lat="50.131824"><ele>221.75</ele></trkpt>
<trkpt lon="4.745572" lat="50.131894"><ele>219.75</ele></trkpt>
<trkpt lon="4.745323" lat="50.131959"><ele>219.0</ele></trkpt>
<trkpt lon="4.745370" lat="50.131650"><ele>219.0</ele></trkpt>
<trkpt lon="4.745346" lat="50.131345"><ele>219.0</ele></trkpt>
<trkpt lon="4.745206" lat="50.130911"><ele>219.0</ele></trkpt>
<trkpt lon="4.745206" lat="50.130767"><ele>219.0</ele></trkpt>
<trkpt lon="4.745230" lat="50.130632"><ele>219.0</ele></trkpt>
<trkpt lon="4.745588" lat="50.130088"><ele>219.0</ele></trkpt>
<trkpt lon="4.745994" lat="50.129600"><ele>216.5</ele></trkpt>
<trkpt lon="4.746023" lat="50.129564"><ele>216.5</ele></trkpt>
<trkpt lon="4.746295" lat="50.129331"><ele>215.75</ele></trkpt>
<trkpt lon="4.746545" lat="50.129115"><ele>215.0</ele></trkpt>
<trkpt lon="4.746792" lat="50.128742"><ele>212.75</ele></trkpt>
<trkpt lon="4.746992" lat="50.128365"><ele>209.5</ele></trkpt>
<trkpt lon="4.747040" lat="50.128200"><ele>207.5</ele></trkpt>
<trkpt lon="4.745590" lat="50.128000"><ele>199.25</ele></trkpt>
<trkpt lon="4.744957" lat="50.127457"><ele>190.75</ele></trkpt>
<trkpt lon="4.743969" lat="50.127154"><ele>183.5</ele></trkpt>
<trkpt lon="4.742371" lat="50.127216"><ele>172.5</ele></trkpt>
<trkpt lon="4.741807" lat="50.127310"><ele>173.25</ele></trkpt>
<trkpt lon="4.741395" lat="50.127327"><ele>171.75</ele></trkpt>
<trkpt lon="4.741054" lat="50.127294"><ele>168.5</ele></trkpt>
<trkpt lon="4.740000" lat="50.127010"><ele>162.5</ele></trkpt>
<trkpt lon="4.739410" lat="50.126769"><ele>158.75</ele></trkpt>
<trkpt lon="4.739109" lat="50.126067"><ele>153.0</ele></trkpt>
<trkpt lon="4.738970" lat="50.125854"><ele>153.75</ele></trkpt>
<trkpt lon="4.738166" lat="50.125556"><ele>151.75</ele></trkpt>
<trkpt lon="4.737782" lat="50.125206"><ele>154.5</ele></trkpt>
<trkpt lon="4.737622" lat="50.125181"><ele>151.75</ele></trkpt>
<trkpt lon="4.737540" lat="50.124246"><ele>152.5</ele></trkpt>
<trkpt lon="4.737424" lat="50.123402"><ele>151.5</ele></trkpt>
<trkpt lon="4.737393" lat="50.122699"><ele>150.75</ele></trkpt>
<trkpt lon="4.737299" lat="50.122292"><ele>150.0</ele></trkpt>
<trkpt lon="4.737094" lat="50.121883"><ele>148.0</ele></trkpt>
<trkpt lon="4.737177" lat="50.121584"><ele>148.75</ele></trkpt>
<trkpt lon="4.737005" lat="50.120256"><ele>147.25</ele></trkpt>
<trkpt lon="4.736738" lat="50.119977"><ele>146.25</ele></trkpt>
<trkpt lon="4.736229" lat="50.119557"><ele>147.0</ele></trkpt>
<trkpt lon="4.735839" lat="50.119322"><ele>148.75</ele></trkpt>
<trkpt lon="4.735585" lat="50.119282"><ele>146.75</ele></trkpt>
<trkpt lon="4.735008" lat="50.118730"><ele>147.5</ele></trkpt>
<trkpt lon="4.734769" lat="50.118430"><ele>148.0</ele></trkpt>
<trkpt lon="4.734501" lat="50.118167"><ele>146.0</ele></trkpt>
<trkpt lon="4.734421" lat="50.117934"><ele>146.0</ele></trkpt>
<trkpt lon="4.734409" lat="50.117807"><ele>146.25</ele></trkpt>
<trkpt lon="4.734320" lat="50.117741"><ele>145.0</ele></trkpt>
<trkpt lon="4.734411" lat="50.117674"><ele>146.5</ele></trkpt>
<trkpt lon="4.734241" lat="50.117522"><ele>144.0</ele></trkpt>
<trkpt lon="4.734161" lat="50.117583"><ele>143.0</ele></trkpt>
<trkpt lon="4.734087" lat="50.117617"><ele>143.0</ele></trkpt>
<trkpt lon="4.733873" lat="50.117643"><ele>143.0</ele></trkpt>
<trkpt lon="4.733622" lat="50.117636"><ele>143.25</ele></trkpt>
<trkpt lon="4.733232" lat="50.117569"><ele>145.75</ele></trkpt>
<trkpt lon="4.733407" lat="50.117005"><ele>144.25</ele></trkpt>
<trkpt lon="4.733569" lat="50.116610"><ele>144.25</ele></trkpt>
<trkpt lon="4.733557" lat="50.116095"><ele>144.25</ele></trkpt>
<trkpt lon="4.732569" lat="50.115883"><ele>147.25</ele></trkpt>
<trkpt lon="4.732028" lat="50.115812"><ele>147.0</ele></trkpt>
<trkpt lon="4.731109" lat="50.115788"><ele>148.75</ele></trkpt>
<trkpt lon="4.730013" lat="50.115591"><ele>151.75</ele></trkpt>
<trkpt lon="4.728376" lat="50.115264"><ele>154.75</ele></trkpt>
<trkpt lon="4.727482" lat="50.114963"><ele>157.25</ele></trkpt>
<trkpt lon="4.727007" lat="50.114774"><ele>158.75</ele></trkpt>
<trkpt lon="4.726233" lat="50.114456"><ele>160.75</ele></trkpt>
<trkpt lon="4.725760" lat="50.114241"><ele>162.75</ele></trkpt>
<trkpt lon="4.725306" lat="50.113983"><ele>163.75</ele></trkpt>
<trkpt lon="4.725194" lat="50.113941"><ele>164.0</ele></trkpt>
<trkpt lon="4.725038" lat="50.113922"><ele>164.5</ele></trkpt>
<trkpt lon="4.724712" lat="50.113724"><ele>166.25</ele></trkpt>
<trkpt lon="4.724141" lat="50.113442"><ele>167.0</ele></trkpt>
<trkpt lon="4.723941" lat="50.113293"><ele>166.75</ele></trkpt>
<trkpt lon="4.723680" lat="50.113159"><ele>168.25</ele></trkpt>
<trkpt lon="4.723233" lat="50.112976"><ele>169.25</ele></trkpt>
<trkpt lon="4.722856" lat="50.112788"><ele>169.75</ele></trkpt>
<trkpt lon="4.722577" lat="50.112644"><ele>171.25</ele></trkpt>
<trkpt lon="4.722321" lat="50.112469"><ele>171.0</ele></trkpt>
<trkpt lon="4.721996" lat="50.112361"><ele>173.0</ele></trkpt>
<trkpt lon="4.721667" lat="50.112225"><ele>172.0</ele></trkpt>
<trkpt lon="4.721424" lat="50.112141"><ele>173.75</ele></trkpt>
<trkpt lon="4.721115" lat="50.112115"><ele>175.5</ele></trkpt>
<trkpt lon="4.720452" lat="50.112018"><ele>177.25</ele></trkpt>
<trkpt lon="4.719989" lat="50.111964"><ele>177.25</ele></trkpt>
<trkpt lon="4.719873" lat="50.112130"><ele>180.0</ele></trkpt>
<trkpt lon="4.718993" lat="50.113355"><ele>194.25</ele></trkpt>
<trkpt lon="4.717780" lat="50.113988"><ele>203.5</ele></trkpt>
<trkpt lon="4.716622" lat="50.113747"><ele>207.5</ele></trkpt>
<trkpt lon="4.716418" lat="50.113857"><ele>207.75</ele></trkpt>
<trkpt lon="4.713897" lat="50.116457"><ele>224.25</ele></trkpt>
<trkpt lon="4.714459" lat="50.116805"><ele>223.75</ele></trkpt>
<trkpt lon="4.715334" lat="50.117375"><ele>222.25</ele></trkpt>
<trkpt lon="4.718827" lat="50.119561"><ele>218.5</ele></trkpt>
<trkpt lon="4.716746" lat="50.120941"><ele>230.25</ele></trkpt>
<trkpt lon="4.716461" lat="50.121136"><ele>239.0</ele></trkpt>
  </trkseg></trk></gpx>
