<?xml version="1.0" encoding="UTF-8"?>
<gpx version="1.1" creator="compostel-brouter" xmlns="http://www.topografix.com/GPX/1/1">
  <metadata><name>BE-01-Ombret (via Villers-le-Temple)</name></metadata>
  <trk><name>BE-01-Ombret</name><trkseg>
<trkpt lon="5.579704" lat="50.632806"><ele>63.75</ele></trkpt>
<trkpt lon="5.579124" lat="50.632812"><ele>63.75</ele></trkpt>
<trkpt lon="5.579051" lat="50.632812"><ele>63.5</ele></trkpt>
<trkpt lon="5.578389" lat="50.632815"><ele>63.75</ele></trkpt>
<trkpt lon="5.578307" lat="50.632812"><ele>64.0</ele></trkpt>
<trkpt lon="5.578245" lat="50.632792"><ele>64.0</ele></trkpt>
<trkpt lon="5.578194" lat="50.632821"><ele>63.75</ele></trkpt>
<trkpt lon="5.578132" lat="50.632850"><ele>64.0</ele></trkpt>
<trkpt lon="5.578075" lat="50.632811"><ele>64.0</ele></trkpt>
<trkpt lon="5.578000" lat="50.632804"><ele>64.0</ele></trkpt>
<trkpt lon="5.577929" lat="50.632786"><ele>64.25</ele></trkpt>
<trkpt lon="5.577891" lat="50.632804"><ele>64.5</ele></trkpt>
<trkpt lon="5.577849" lat="50.632812"><ele>64.5</ele></trkpt>
<trkpt lon="5.577143" lat="50.632767"><ele>64.75</ele></trkpt>
<trkpt lon="5.577116" lat="50.632761"><ele>64.75</ele></trkpt>
<trkpt lon="5.577085" lat="50.632732"><ele>64.75</ele></trkpt>
<trkpt lon="5.577077" lat="50.632706"><ele>64.5</ele></trkpt>
<trkpt lon="5.577785" lat="50.629701"><ele>64.75</ele></trkpt>
<trkpt lon="5.577828" lat="50.629673"><ele>64.75</ele></trkpt>
<trkpt lon="5.577768" lat="50.629631"><ele>65.0</ele></trkpt>
<trkpt lon="5.577703" lat="50.629591"><ele>65.0</ele></trkpt>
<trkpt lon="5.577692" lat="50.629570"><ele>65.0</ele></trkpt>
<trkpt lon="5.577695" lat="50.629543"><ele>65.0</ele></trkpt>
<trkpt lon="5.577702" lat="50.629506"><ele>65.0</ele></trkpt>
<trkpt lon="5.577710" lat="50.629460"><ele>65.0</ele></trkpt>
<trkpt lon="5.577458" lat="50.629427"><ele>65.0</ele></trkpt>
<trkpt lon="5.577434" lat="50.629343"><ele>65.0</ele></trkpt>
<trkpt lon="5.577485" lat="50.629274"><ele>65.0</ele></trkpt>
<trkpt lon="5.577389" lat="50.629289"><ele>65.0</ele></trkpt>
<trkpt lon="5.577267" lat="50.629254"><ele>65.0</ele></trkpt>
<trkpt lon="5.576930" lat="50.629090"><ele>64.5</ele></trkpt>
<trkpt lon="5.576494" lat="50.629130"><ele>62.75</ele></trkpt>
<trkpt lon="5.576336" lat="50.629130"><ele>62.5</ele></trkpt>
<trkpt lon="5.576197" lat="50.629123"><ele>61.75</ele></trkpt>
<trkpt lon="5.576076" lat="50.629098"><ele>61.25</ele></trkpt>
<trkpt lon="5.575945" lat="50.629041"><ele>61.25</ele></trkpt>
<trkpt lon="5.575786" lat="50.628972"><ele>61.75</ele></trkpt>
<trkpt lon="5.575709" lat="50.628932"><ele>62.25</ele></trkpt>
<trkpt lon="5.575644" lat="50.628869"><ele>62.5</ele></trkpt>
<trkpt lon="5.575590" lat="50.628733"><ele>62.75</ele></trkpt>
<trkpt lon="5.575399" lat="50.628645"><ele>62.75</ele></trkpt>
<trkpt lon="5.574758" lat="50.628332"><ele>63.0</ele></trkpt>
<trkpt lon="5.574715" lat="50.628297"><ele>63.0</ele></trkpt>
<trkpt lon="5.573697" lat="50.627819"><ele>63.5</ele></trkpt>
<trkpt lon="5.573158" lat="50.627626"><ele>63.5</ele></trkpt>
<trkpt lon="5.573112" lat="50.627610"><ele>63.75</ele></trkpt>
<trkpt lon="5.573030" lat="50.627679"><ele>64.0</ele></trkpt>
<trkpt lon="5.572960" lat="50.627647"><ele>64.0</ele></trkpt>
<trkpt lon="5.572767" lat="50.627568"><ele>63.75</ele></trkpt>
<trkpt lon="5.572681" lat="50.627532"><ele>63.5</ele></trkpt>
<trkpt lon="5.572712" lat="50.627477"><ele>63.75</ele></trkpt>
<trkpt lon="5.572668" lat="50.627444"><ele>63.5</ele></trkpt>
<trkpt lon="5.572571" lat="50.627406"><ele>63.25</ele></trkpt>
<trkpt lon="5.572434" lat="50.627337"><ele>63.0</ele></trkpt>
<trkpt lon="5.572123" lat="50.627015"><ele>63.0</ele></trkpt>
<trkpt lon="5.572029" lat="50.626917"><ele>62.75</ele></trkpt>
<trkpt lon="5.570789" lat="50.626207"><ele>64.0</ele></trkpt>
<trkpt lon="5.569444" lat="50.625455"><ele>64.75</ele></trkpt>
<trkpt lon="5.569274" lat="50.625360"><ele>64.25</ele></trkpt>
<trkpt lon="5.569029" lat="50.625214"><ele>64.0</ele></trkpt>
<trkpt lon="5.568927" lat="50.625105"><ele>64.5</ele></trkpt>
<trkpt lon="5.568460" lat="50.624588"><ele>65.5</ele></trkpt>
<trkpt lon="5.568356" lat="50.624528"><ele>65.5</ele></trkpt>
<trkpt lon="5.568195" lat="50.624306"><ele>66.25</ele></trkpt>
<trkpt lon="5.568184" lat="50.624265"><ele>66.25</ele></trkpt>
<trkpt lon="5.568138" lat="50.624257"><ele>66.0</ele></trkpt>
<trkpt lon="5.568090" lat="50.624250"><ele>66.0</ele></trkpt>
<trkpt lon="5.567716" lat="50.624193"><ele>65.5</ele></trkpt>
<trkpt lon="5.567641" lat="50.624214"><ele>66.5</ele></trkpt>
<trkpt lon="5.567618" lat="50.624225"><ele>66.75</ele></trkpt>
<trkpt lon="5.567483" lat="50.624329"><ele>68.0</ele></trkpt>
<trkpt lon="5.567471" lat="50.624346"><ele>68.0</ele></trkpt>
<trkpt lon="5.567363" lat="50.624329"><ele>68.75</ele></trkpt>
<trkpt lon="5.567421" lat="50.624285"><ele>68.25</ele></trkpt>
<trkpt lon="5.567432" lat="50.624268"><ele>68.25</ele></trkpt>
<trkpt lon="5.567567" lat="50.624164"><ele>67.25</ele></trkpt>
<trkpt lon="5.567414" lat="50.624083"><ele>68.5</ele></trkpt>
<trkpt lon="5.567401" lat="50.624077"><ele>68.5</ele></trkpt>
<trkpt lon="5.567235" lat="50.623990"><ele>68.75</ele></trkpt>
<trkpt lon="5.567082" lat="50.623910"><ele>69.0</ele></trkpt>
<trkpt lon="5.566916" lat="50.623823"><ele>70.5</ele></trkpt>
<trkpt lon="5.566903" lat="50.623816"><ele>70.75</ele></trkpt>
<trkpt lon="5.566827" lat="50.623777"><ele>71.75</ele></trkpt>
<trkpt lon="5.566899" lat="50.623721"><ele>72.75</ele></trkpt>
<trkpt lon="5.566793" lat="50.623666"><ele>74.0</ele></trkpt>
<trkpt lon="5.567148" lat="50.623407"><ele>73.25</ele></trkpt>
<trkpt lon="5.567181" lat="50.623384"><ele>73.25</ele></trkpt>
<trkpt lon="5.567202" lat="50.623365"><ele>73.5</ele></trkpt>
<trkpt lon="5.567203" lat="50.623328"><ele>74.0</ele></trkpt>
<trkpt lon="5.567115" lat="50.623318"><ele>74.5</ele></trkpt>
<trkpt lon="5.567064" lat="50.623315"><ele>74.5</ele></trkpt>
<trkpt lon="5.567017" lat="50.623304"><ele>75.0</ele></trkpt>
<trkpt lon="5.566966" lat="50.623275"><ele>75.5</ele></trkpt>
<trkpt lon="5.566713" lat="50.622908"><ele>82.25</ele></trkpt>
<trkpt lon="5.566716" lat="50.622862"><ele>83.25</ele></trkpt>
<trkpt lon="5.566736" lat="50.622820"><ele>83.75</ele></trkpt>
<trkpt lon="5.566926" lat="50.622603"><ele>88.5</ele></trkpt>
<trkpt lon="5.566975" lat="50.622503"><ele>90.5</ele></trkpt>
<trkpt lon="5.567011" lat="50.622404"><ele>92.0</ele></trkpt>
<trkpt lon="5.567038" lat="50.622238"><ele>94.0</ele></trkpt>
<trkpt lon="5.567031" lat="50.622182"><ele>94.75</ele></trkpt>
<trkpt lon="5.566997" lat="50.622114"><ele>96.0</ele></trkpt>
<trkpt lon="5.566918" lat="50.622017"><ele>98.5</ele></trkpt>
<trkpt lon="5.566740" lat="50.621845"><ele>101.75</ele></trkpt>
<trkpt lon="5.566662" lat="50.621782"><ele>103.0</ele></trkpt>
<trkpt lon="5.566577" lat="50.621717"><ele>104.75</ele></trkpt>
<trkpt lon="5.566510" lat="50.621677"><ele>105.5</ele></trkpt>
<trkpt lon="5.566233" lat="50.621552"><ele>109.75</ele></trkpt>
<trkpt lon="5.566144" lat="50.621472"><ele>111.25</ele></trkpt>
<trkpt lon="5.565924" lat="50.621161"><ele>114.0</ele></trkpt>
<trkpt lon="5.565362" lat="50.620395"><ele>122.0</ele></trkpt>
<trkpt lon="5.565236" lat="50.620248"><ele>123.25</ele></trkpt>
<trkpt lon="5.564996" lat="50.620044"><ele>124.75</ele></trkpt>
<trkpt lon="5.564659" lat="50.619693"><ele>126.0</ele></trkpt>
<trkpt lon="5.564634" lat="50.619656"><ele>126.25</ele></trkpt>
<trkpt lon="5.564619" lat="50.619624"><ele>126.25</ele></trkpt>
<trkpt lon="5.564663" lat="50.619603"><ele>126.0</ele></trkpt>
<trkpt lon="5.564696" lat="50.619573"><ele>126.0</ele></trkpt>
<trkpt lon="5.564711" lat="50.619520"><ele>126.0</ele></trkpt>
<trkpt lon="5.564682" lat="50.619466"><ele>126.0</ele></trkpt>
<trkpt lon="5.564640" lat="50.619439"><ele>126.25</ele></trkpt>
<trkpt lon="5.564588" lat="50.619423"><ele>126.25</ele></trkpt>
<trkpt lon="5.564529" lat="50.619420"><ele>126.5</ele></trkpt>
<trkpt lon="5.564453" lat="50.619435"><ele>126.75</ele></trkpt>
<trkpt lon="5.564408" lat="50.619395"><ele>127.0</ele></trkpt>
<trkpt lon="5.564329" lat="50.619335"><ele>127.0</ele></trkpt>
<trkpt lon="5.564236" lat="50.619292"><ele>126.75</ele></trkpt>
<trkpt lon="5.563760" lat="50.619133"><ele>128.25</ele></trkpt>
<trkpt lon="5.562530" lat="50.618746"><ele>130.25</ele></trkpt>
<trkpt lon="5.561937" lat="50.618560"><ele>130.75</ele></trkpt>
<trkpt lon="5.561912" lat="50.618553"><ele>130.75</ele></trkpt>
<trkpt lon="5.560283" lat="50.618047"><ele>127.75</ele></trkpt>
<trkpt lon="5.560338" lat="50.618002"><ele>127.75</ele></trkpt>
<trkpt lon="5.560415" lat="50.617891"><ele>127.5</ele></trkpt>
<trkpt lon="5.560431" lat="50.617849"><ele>127.25</ele></trkpt>
<trkpt lon="5.560432" lat="50.617776"><ele>126.75</ele></trkpt>
<trkpt lon="5.560401" lat="50.617746"><ele>126.75</ele></trkpt>
<trkpt lon="5.559891" lat="50.617326"><ele>125.0</ele></trkpt>
<trkpt lon="5.559201" lat="50.616775"><ele>124.0</ele></trkpt>
<trkpt lon="5.558440" lat="50.616158"><ele>122.0</ele></trkpt>
<trkpt lon="5.558352" lat="50.616102"><ele>121.75</ele></trkpt>
<trkpt lon="5.558307" lat="50.616035"><ele>121.5</ele></trkpt>
<trkpt lon="5.558255" lat="50.615934"><ele>121.25</ele></trkpt>
<trkpt lon="5.557430" lat="50.615884"><ele>118.0</ele></trkpt>
<trkpt lon="5.557309" lat="50.615887"><ele>117.0</ele></trkpt>
<trkpt lon="5.557247" lat="50.615899"><ele>116.5</ele></trkpt>
<trkpt lon="5.557214" lat="50.615907"><ele>116.0</ele></trkpt>
<trkpt lon="5.556963" lat="50.616034"><ele>111.75</ele></trkpt>
<trkpt lon="5.556909" lat="50.616056"><ele>110.75</ele></trkpt>
<trkpt lon="5.556814" lat="50.616093"><ele>108.75</ele></trkpt>
<trkpt lon="5.556332" lat="50.616269"><ele>100.25</ele></trkpt>
<trkpt lon="5.556308" lat="50.616281"><ele>99.75</ele></trkpt>
<trkpt lon="5.556193" lat="50.616354"><ele>96.75</ele></trkpt>
<trkpt lon="5.556041" lat="50.616434"><ele>94.0</ele></trkpt>
<trkpt lon="5.555932" lat="50.616359"><ele>93.25</ele></trkpt>
<trkpt lon="5.555871" lat="50.616348"><ele>92.5</ele></trkpt>
<trkpt lon="5.555659" lat="50.616154"><ele>89.75</ele></trkpt>
<trkpt lon="5.553974" lat="50.614722"><ele>71.5</ele></trkpt>
<trkpt lon="5.553590" lat="50.614539"><ele>70.5</ele></trkpt>
<trkpt lon="5.553213" lat="50.614825"><ele>71.75</ele></trkpt>
<trkpt lon="5.552983" lat="50.614708"><ele>77.0</ele></trkpt>
<trkpt lon="5.552640" lat="50.614547"><ele>78.0</ele></trkpt>
<trkpt lon="5.552471" lat="50.614456"><ele>68.5</ele></trkpt>
<trkpt lon="5.552374" lat="50.614246"><ele>67.25</ele></trkpt>
<trkpt lon="5.551880" lat="50.613538"><ele>65.5</ele></trkpt>
<trkpt lon="5.551655" lat="50.613172"><ele>64.75</ele></trkpt>
<trkpt lon="5.551617" lat="50.613102"><ele>64.75</ele></trkpt>
<trkpt lon="5.551574" lat="50.613041"><ele>64.5</ele></trkpt>
<trkpt lon="5.551343" lat="50.612336"><ele>65.0</ele></trkpt>
<trkpt lon="5.551322" lat="50.612297"><ele>65.0</ele></trkpt>
<trkpt lon="5.551425" lat="50.612262"><ele>64.75</ele></trkpt>
<trkpt lon="5.551384" lat="50.612211"><ele>65.0</ele></trkpt>
<trkpt lon="5.551755" lat="50.612085"><ele>65.0</ele></trkpt>
<trkpt lon="5.551669" lat="50.611982"><ele>65.0</ele></trkpt>
<trkpt lon="5.551350" lat="50.612087"><ele>65.0</ele></trkpt>
<trkpt lon="5.551278" lat="50.612099"><ele>65.0</ele></trkpt>
<trkpt lon="5.551235" lat="50.611978"><ele>65.0</ele></trkpt>
<trkpt lon="5.551055" lat="50.611417"><ele>65.0</ele></trkpt>
<trkpt lon="5.550688" lat="50.610213"><ele>64.25</ele></trkpt>
<trkpt lon="5.550652" lat="50.610095"><ele>64.0</ele></trkpt>
<trkpt lon="5.550613" lat="50.609970"><ele>64.0</ele></trkpt>
<trkpt lon="5.550597" lat="50.609922"><ele>64.0</ele></trkpt>
<trkpt lon="5.550541" lat="50.609928"><ele>64.0</ele></trkpt>
<trkpt lon="5.550518" lat="50.609856"><ele>64.0</ele></trkpt>
<trkpt lon="5.550456" lat="50.609832"><ele>64.0</ele></trkpt>
<trkpt lon="5.550338" lat="50.609850"><ele>64.25</ele></trkpt>
<trkpt lon="5.548973" lat="50.610084"><ele>64.25</ele></trkpt>
<trkpt lon="5.547407" lat="50.610356"><ele>66.0</ele></trkpt>
<trkpt lon="5.547105" lat="50.610409"><ele>66.0</ele></trkpt>
<trkpt lon="5.546414" lat="50.610529"><ele>66.0</ele></trkpt>
<trkpt lon="5.545551" lat="50.610682"><ele>65.5</ele></trkpt>
<trkpt lon="5.545545" lat="50.610669"><ele>65.5</ele></trkpt>
<trkpt lon="5.545534" lat="50.610641"><ele>65.5</ele></trkpt>
<trkpt lon="5.545506" lat="50.610574"><ele>65.75</ele></trkpt>
<trkpt lon="5.545429" lat="50.610549"><ele>66.0</ele></trkpt>
<trkpt lon="5.545340" lat="50.610518"><ele>66.0</ele></trkpt>
<trkpt lon="5.545285" lat="50.610499"><ele>66.0</ele></trkpt>
<trkpt lon="5.545315" lat="50.610476"><ele>66.0</ele></trkpt>
<trkpt lon="5.545330" lat="50.610399"><ele>66.25</ele></trkpt>
<trkpt lon="5.545318" lat="50.610326"><ele>66.5</ele></trkpt>
<trkpt lon="5.545223" lat="50.610112"><ele>67.25</ele></trkpt>
<trkpt lon="5.545103" lat="50.609934"><ele>67.75</ele></trkpt>
<trkpt lon="5.544811" lat="50.609644"><ele>68.5</ele></trkpt>
<trkpt lon="5.544631" lat="50.609512"><ele>68.75</ele></trkpt>
<trkpt lon="5.544532" lat="50.609449"><ele>69.25</ele></trkpt>
<trkpt lon="5.544390" lat="50.609371"><ele>68.5</ele></trkpt>
<trkpt lon="5.542999" lat="50.608681"><ele>65.0</ele></trkpt>
<trkpt lon="5.542841" lat="50.608609"><ele>64.75</ele></trkpt>
<trkpt lon="5.542628" lat="50.608557"><ele>64.75</ele></trkpt>
<trkpt lon="5.542441" lat="50.608537"><ele>64.5</ele></trkpt>
<trkpt lon="5.541084" lat="50.608592"><ele>63.75</ele></trkpt>
<trkpt lon="5.540900" lat="50.608619"><ele>64.0</ele></trkpt>
<trkpt lon="5.540870" lat="50.608528"><ele>63.0</ele></trkpt>
<trkpt lon="5.540707" lat="50.608539"><ele>63.0</ele></trkpt>
<trkpt lon="5.540290" lat="50.608574"><ele>63.5</ele></trkpt>
<trkpt lon="5.540441" lat="50.608492"><ele>62.5</ele></trkpt>
<trkpt lon="5.540752" lat="50.608456"><ele>62.25</ele></trkpt>
<trkpt lon="5.541595" lat="50.608362"><ele>63.0</ele></trkpt>
<trkpt lon="5.543851" lat="50.608174"><ele>62.75</ele></trkpt>
<trkpt lon="5.543924" lat="50.608158"><ele>62.5</ele></trkpt>
<trkpt lon="5.543992" lat="50.608124"><ele>62.0</ele></trkpt>
<trkpt lon="5.544022" lat="50.608048"><ele>62.5</ele></trkpt>
<trkpt lon="5.544003" lat="50.608002"><ele>62.75</ele></trkpt>
<trkpt lon="5.543053" lat="50.606784"><ele>71.25</ele></trkpt>
<trkpt lon="5.542759" lat="50.606416"><ele>74.0</ele></trkpt>
<trkpt lon="5.542721" lat="50.606364"><ele>74.0</ele></trkpt>
<trkpt lon="5.542562" lat="50.606199"><ele>74.25</ele></trkpt>
<trkpt lon="5.542407" lat="50.606061"><ele>75.0</ele></trkpt>
<trkpt lon="5.542264" lat="50.605947"><ele>75.0</ele></trkpt>
<trkpt lon="5.542130" lat="50.605881"><ele>75.5</ele></trkpt>
<trkpt lon="5.542155" lat="50.605855"><ele>76.0</ele></trkpt>
<trkpt lon="5.542176" lat="50.605830"><ele>76.5</ele></trkpt>
<trkpt lon="5.542194" lat="50.605810"><ele>76.75</ele></trkpt>
<trkpt lon="5.542189" lat="50.605795"><ele>76.75</ele></trkpt>
<trkpt lon="5.542021" lat="50.605574"><ele>77.0</ele></trkpt>
<trkpt lon="5.541987" lat="50.605562"><ele>77.0</ele></trkpt>
<trkpt lon="5.541947" lat="50.605547"><ele>77.0</ele></trkpt>
<trkpt lon="5.541984" lat="50.605469"><ele>77.5</ele></trkpt>
<trkpt lon="5.541978" lat="50.605400"><ele>78.0</ele></trkpt>
<trkpt lon="5.541831" lat="50.605150"><ele>78.25</ele></trkpt>
<trkpt lon="5.541704" lat="50.604917"><ele>78.75</ele></trkpt>
<trkpt lon="5.541572" lat="50.604632"><ele>79.25</ele></trkpt>
<trkpt lon="5.541469" lat="50.604365"><ele>79.5</ele></trkpt>
<trkpt lon="5.541358" lat="50.604017"><ele>80.25</ele></trkpt>
<trkpt lon="5.541317" lat="50.603957"><ele>80.25</ele></trkpt>
<trkpt lon="5.541279" lat="50.603924"><ele>80.25</ele></trkpt>
<trkpt lon="5.541231" lat="50.603894"><ele>80.25</ele></trkpt>
<trkpt lon="5.541151" lat="50.603861"><ele>80.5</ele></trkpt>
<trkpt lon="5.541048" lat="50.603840"><ele>80.5</ele></trkpt>
<trkpt lon="5.540940" lat="50.603836"><ele>80.75</ele></trkpt>
<trkpt lon="5.540836" lat="50.603850"><ele>80.75</ele></trkpt>
<trkpt lon="5.540296" lat="50.603974"><ele>81.25</ele></trkpt>
<trkpt lon="5.540196" lat="50.603994"><ele>81.5</ele></trkpt>
<trkpt lon="5.540124" lat="50.603995"><ele>81.25</ele></trkpt>
<trkpt lon="5.540041" lat="50.603986"><ele>81.0</ele></trkpt>
<trkpt lon="5.539986" lat="50.603969"><ele>81.0</ele></trkpt>
<trkpt lon="5.539936" lat="50.603953"><ele>80.75</ele></trkpt>
<trkpt lon="5.539869" lat="50.603908"><ele>80.75</ele></trkpt>
<trkpt lon="5.539811" lat="50.603856"><ele>80.5</ele></trkpt>
<trkpt lon="5.539778" lat="50.603783"><ele>80.0</ele></trkpt>
<trkpt lon="5.539674" lat="50.603371"><ele>81.75</ele></trkpt>
<trkpt lon="5.539478" lat="50.603368"><ele>81.75</ele></trkpt>
<trkpt lon="5.539069" lat="50.603403"><ele>81.5</ele></trkpt>
<trkpt lon="5.539057" lat="50.603350"><ele>81.75</ele></trkpt>
<trkpt lon="5.539042" lat="50.603286"><ele>82.0</ele></trkpt>
<trkpt lon="5.539029" lat="50.603233"><ele>82.25</ele></trkpt>
<trkpt lon="5.538955" lat="50.603240"><ele>82.25</ele></trkpt>
<trkpt lon="5.538917" lat="50.603244"><ele>82.25</ele></trkpt>
<trkpt lon="5.538861" lat="50.603249"><ele>82.25</ele></trkpt>
<trkpt lon="5.538788" lat="50.602926"><ele>83.25</ele></trkpt>
<trkpt lon="5.538740" lat="50.602890"><ele>83.25</ele></trkpt>
<trkpt lon="5.538718" lat="50.602885"><ele>83.25</ele></trkpt>
<trkpt lon="5.538718" lat="50.602849"><ele>83.5</ele></trkpt>
<trkpt lon="5.538718" lat="50.602811"><ele>83.75</ele></trkpt>
<trkpt lon="5.538740" lat="50.602803"><ele>83.75</ele></trkpt>
<trkpt lon="5.538760" lat="50.602782"><ele>83.75</ele></trkpt>
<trkpt lon="5.538581" lat="50.601981"><ele>88.5</ele></trkpt>
<trkpt lon="5.538545" lat="50.601959"><ele>88.75</ele></trkpt>
<trkpt lon="5.538526" lat="50.601956"><ele>88.75</ele></trkpt>
<trkpt lon="5.537828" lat="50.601892"><ele>89.0</ele></trkpt>
<trkpt lon="5.536214" lat="50.601740"><ele>90.0</ele></trkpt>
<trkpt lon="5.536196" lat="50.601740"><ele>90.0</ele></trkpt>
<trkpt lon="5.536162" lat="50.601753"><ele>90.0</ele></trkpt>
<trkpt lon="5.536144" lat="50.601780"><ele>89.75</ele></trkpt>
<trkpt lon="5.536092" lat="50.601773"><ele>89.75</ele></trkpt>
<trkpt lon="5.536036" lat="50.601765"><ele>89.75</ele></trkpt>
<trkpt lon="5.536036" lat="50.601745"><ele>89.75</ele></trkpt>
<trkpt lon="5.536005" lat="50.601721"><ele>90.0</ele></trkpt>
<trkpt lon="5.534394" lat="50.601570"><ele>89.25</ele></trkpt>
<trkpt lon="5.534286" lat="50.601562"><ele>89.25</ele></trkpt>
<trkpt lon="5.534203" lat="50.601565"><ele>89.25</ele></trkpt>
<trkpt lon="5.534196" lat="50.601528"><ele>89.25</ele></trkpt>
<trkpt lon="5.534050" lat="50.601536"><ele>89.25</ele></trkpt>
<trkpt lon="5.533911" lat="50.601553"><ele>89.25</ele></trkpt>
<trkpt lon="5.533892" lat="50.601510"><ele>89.5</ele></trkpt>
<trkpt lon="5.532705" lat="50.601704"><ele>88.75</ele></trkpt>
<trkpt lon="5.532421" lat="50.601752"><ele>87.75</ele></trkpt>
<trkpt lon="5.532383" lat="50.601765"><ele>87.75</ele></trkpt>
<trkpt lon="5.532321" lat="50.601774"><ele>87.5</ele></trkpt>
<trkpt lon="5.532147" lat="50.601766"><ele>87.5</ele></trkpt>
<trkpt lon="5.531382" lat="50.601703"><ele>87.5</ele></trkpt>
<trkpt lon="5.530902" lat="50.601662"><ele>88.0</ele></trkpt>
<trkpt lon="5.530090" lat="50.601594"><ele>87.25</ele></trkpt>
<trkpt lon="5.529038" lat="50.601563"><ele>86.5</ele></trkpt>
<trkpt lon="5.529036" lat="50.601606"><ele>86.25</ele></trkpt>
<trkpt lon="5.528900" lat="50.601603"><ele>86.25</ele></trkpt>
<trkpt lon="5.528686" lat="50.601574"><ele>86.25</ele></trkpt>
<trkpt lon="5.527030" lat="50.601190"><ele>88.5</ele></trkpt>
<trkpt lon="5.526921" lat="50.601161"><ele>88.75</ele></trkpt>
<trkpt lon="5.526852" lat="50.601134"><ele>88.75</ele></trkpt>
<trkpt lon="5.525664" lat="50.600623"><ele>91.75</ele></trkpt>
<trkpt lon="5.525424" lat="50.600522"><ele>92.0</ele></trkpt>
<trkpt lon="5.525003" lat="50.600340"><ele>93.5</ele></trkpt>
<trkpt lon="5.523972" lat="50.599895"><ele>97.25</ele></trkpt>
<trkpt lon="5.523939" lat="50.599880"><ele>97.5</ele></trkpt>
<trkpt lon="5.523679" lat="50.599768"><ele>98.0</ele></trkpt>
<trkpt lon="5.523072" lat="50.599507"><ele>100.5</ele></trkpt>
<trkpt lon="5.522961" lat="50.599459"><ele>100.75</ele></trkpt>
<trkpt lon="5.522864" lat="50.599420"><ele>101.0</ele></trkpt>
<trkpt lon="5.522761" lat="50.599369"><ele>101.5</ele></trkpt>
<trkpt lon="5.522081" lat="50.599029"><ele>103.75</ele></trkpt>
<trkpt lon="5.522042" lat="50.598985"><ele>104.25</ele></trkpt>
<trkpt lon="5.521995" lat="50.598912"><ele>104.75</ele></trkpt>
<trkpt lon="5.522052" lat="50.598577"><ele>107.0</ele></trkpt>
<trkpt lon="5.522061" lat="50.598485"><ele>107.75</ele></trkpt>
<trkpt lon="5.521936" lat="50.598488"><ele>107.75</ele></trkpt>
<trkpt lon="5.520636" lat="50.598526"><ele>106.5</ele></trkpt>
<trkpt lon="5.520482" lat="50.598531"><ele>106.5</ele></trkpt>
<trkpt lon="5.520367" lat="50.598506"><ele>107.0</ele></trkpt>
<trkpt lon="5.519608" lat="50.598347"><ele>107.75</ele></trkpt>
<trkpt lon="5.519490" lat="50.598323"><ele>108.0</ele></trkpt>
<trkpt lon="5.519358" lat="50.598297"><ele>108.5</ele></trkpt>
<trkpt lon="5.519287" lat="50.598284"><ele>109.0</ele></trkpt>
<trkpt lon="5.519026" lat="50.598208"><ele>109.75</ele></trkpt>
<trkpt lon="5.516810" lat="50.597429"><ele>114.75</ele></trkpt>
<trkpt lon="5.516516" lat="50.597312"><ele>114.25</ele></trkpt>
<trkpt lon="5.516170" lat="50.597152"><ele>114.75</ele></trkpt>
<trkpt lon="5.516080" lat="50.597108"><ele>114.5</ele></trkpt>
<trkpt lon="5.515944" lat="50.597029"><ele>114.0</ele></trkpt>
<trkpt lon="5.515573" lat="50.596738"><ele>114.5</ele></trkpt>
<trkpt lon="5.515329" lat="50.596533"><ele>113.75</ele></trkpt>
<trkpt lon="5.515260" lat="50.596473"><ele>113.5</ele></trkpt>
<trkpt lon="5.515223" lat="50.596411"><ele>113.25</ele></trkpt>
<trkpt lon="5.515129" lat="50.596311"><ele>113.25</ele></trkpt>
<trkpt lon="5.514873" lat="50.596145"><ele>113.5</ele></trkpt>
<trkpt lon="5.514843" lat="50.596117"><ele>113.75</ele></trkpt>
<trkpt lon="5.514821" lat="50.596078"><ele>114.25</ele></trkpt>
<trkpt lon="5.514746" lat="50.596029"><ele>114.75</ele></trkpt>
<trkpt lon="5.514431" lat="50.595762"><ele>116.25</ele></trkpt>
<trkpt lon="5.514278" lat="50.595631"><ele>116.75</ele></trkpt>
<trkpt lon="5.513993" lat="50.595407"><ele>117.25</ele></trkpt>
<trkpt lon="5.513820" lat="50.595282"><ele>117.5</ele></trkpt>
<trkpt lon="5.513581" lat="50.595139"><ele>117.75</ele></trkpt>
<trkpt lon="5.512830" lat="50.594711"><ele>117.25</ele></trkpt>
<trkpt lon="5.512706" lat="50.594628"><ele>118.75</ele></trkpt>
<trkpt lon="5.512523" lat="50.594459"><ele>119.0</ele></trkpt>
<trkpt lon="5.512420" lat="50.594331"><ele>121.25</ele></trkpt>
<trkpt lon="5.512374" lat="50.594259"><ele>122.0</ele></trkpt>
<trkpt lon="5.512245" lat="50.593997"><ele>122.0</ele></trkpt>
<trkpt lon="5.512220" lat="50.593930"><ele>121.75</ele></trkpt>
<trkpt lon="5.512189" lat="50.593774"><ele>123.25</ele></trkpt>
<trkpt lon="5.512170" lat="50.593631"><ele>124.75</ele></trkpt>
<trkpt lon="5.512145" lat="50.592841"><ele>127.5</ele></trkpt>
<trkpt lon="5.512116" lat="50.592757"><ele>127.0</ele></trkpt>
<trkpt lon="5.512056" lat="50.592675"><ele>125.75</ele></trkpt>
<trkpt lon="5.511962" lat="50.592609"><ele>126.0</ele></trkpt>
<trkpt lon="5.511840" lat="50.592532"><ele>126.5</ele></trkpt>
<trkpt lon="5.511437" lat="50.592361"><ele>127.5</ele></trkpt>
<trkpt lon="5.511263" lat="50.592297"><ele>129.75</ele></trkpt>
<trkpt lon="5.511197" lat="50.592265"><ele>131.0</ele></trkpt>
<trkpt lon="5.511138" lat="50.592239"><ele>132.25</ele></trkpt>
<trkpt lon="5.511010" lat="50.592221"><ele>134.75</ele></trkpt>
<trkpt lon="5.510960" lat="50.592205"><ele>136.0</ele></trkpt>
<trkpt lon="5.510612" lat="50.592047"><ele>145.75</ele></trkpt>
<trkpt lon="5.510537" lat="50.591963"><ele>148.75</ele></trkpt>
<trkpt lon="5.510503" lat="50.591944"><ele>149.75</ele></trkpt>
<trkpt lon="5.510374" lat="50.591904"><ele>152.0</ele></trkpt>
<trkpt lon="5.510308" lat="50.591883"><ele>153.25</ele></trkpt>
<trkpt lon="5.510390" lat="50.591699"><ele>155.25</ele></trkpt>
<trkpt lon="5.510321" lat="50.591687"><ele>156.0</ele></trkpt>
<trkpt lon="5.510380" lat="50.591553"><ele>156.5</ele></trkpt>
<trkpt lon="5.510369" lat="50.591519"><ele>156.75</ele></trkpt>
<trkpt lon="5.510377" lat="50.591465"><ele>157.0</ele></trkpt>
<trkpt lon="5.510384" lat="50.591419"><ele>157.25</ele></trkpt>
<trkpt lon="5.510406" lat="50.591408"><ele>157.25</ele></trkpt>
<trkpt lon="5.510411" lat="50.591360"><ele>157.5</ele></trkpt>
<trkpt lon="5.510369" lat="50.591225"><ele>158.25</ele></trkpt>
<trkpt lon="5.510303" lat="50.591111"><ele>159.5</ele></trkpt>
<trkpt lon="5.510220" lat="50.591026"><ele>160.0</ele></trkpt>
<trkpt lon="5.510145" lat="50.590966"><ele>160.5</ele></trkpt>
<trkpt lon="5.510094" lat="50.590929"><ele>161.0</ele></trkpt>
<trkpt lon="5.509962" lat="50.590852"><ele>162.25</ele></trkpt>
<trkpt lon="5.509507" lat="50.590708"><ele>164.0</ele></trkpt>
<trkpt lon="5.509435" lat="50.590692"><ele>164.5</ele></trkpt>
<trkpt lon="5.508418" lat="50.590400"><ele>170.5</ele></trkpt>
<trkpt lon="5.508211" lat="50.590329"><ele>171.5</ele></trkpt>
<trkpt lon="5.508162" lat="50.590333"><ele>171.75</ele></trkpt>
<trkpt lon="5.508039" lat="50.590265"><ele>172.0</ele></trkpt>
<trkpt lon="5.507940" lat="50.590208"><ele>173.25</ele></trkpt>
<trkpt lon="5.507883" lat="50.590106"><ele>173.5</ele></trkpt>
<trkpt lon="5.507831" lat="50.590044"><ele>173.75</ele></trkpt>
<trkpt lon="5.507754" lat="50.589931"><ele>174.5</ele></trkpt>
<trkpt lon="5.507698" lat="50.589819"><ele>175.5</ele></trkpt>
<trkpt lon="5.507664" lat="50.589686"><ele>176.5</ele></trkpt>
<trkpt lon="5.507653" lat="50.589426"><ele>178.5</ele></trkpt>
<trkpt lon="5.507645" lat="50.589144"><ele>180.5</ele></trkpt>
<trkpt lon="5.507634" lat="50.589106"><ele>180.75</ele></trkpt>
<trkpt lon="5.507596" lat="50.589081"><ele>181.25</ele></trkpt>
<trkpt lon="5.507568" lat="50.589076"><ele>181.25</ele></trkpt>
<trkpt lon="5.507468" lat="50.589078"><ele>181.75</ele></trkpt>
<trkpt lon="5.507287" lat="50.589086"><ele>182.25</ele></trkpt>
<trkpt lon="5.506789" lat="50.589125"><ele>183.5</ele></trkpt>
<trkpt lon="5.506781" lat="50.589088"><ele>183.75</ele></trkpt>
<trkpt lon="5.506773" lat="50.589051"><ele>184.0</ele></trkpt>
<trkpt lon="5.506616" lat="50.589063"><ele>184.5</ele></trkpt>
<trkpt lon="5.506575" lat="50.589059"><ele>184.5</ele></trkpt>
<trkpt lon="5.506506" lat="50.588959"><ele>185.25</ele></trkpt>
<trkpt lon="5.506452" lat="50.588973"><ele>185.25</ele></trkpt>
<trkpt lon="5.506399" lat="50.588987"><ele>185.5</ele></trkpt>
<trkpt lon="5.505823" lat="50.588098"><ele>189.75</ele></trkpt>
<trkpt lon="5.505795" lat="50.588080"><ele>189.75</ele></trkpt>
<trkpt lon="5.505750" lat="50.588077"><ele>189.75</ele></trkpt>
<trkpt lon="5.505715" lat="50.588094"><ele>189.75</ele></trkpt>
<trkpt lon="5.505704" lat="50.588127"><ele>189.5</ele></trkpt>
<trkpt lon="5.505638" lat="50.588126"><ele>189.5</ele></trkpt>
<trkpt lon="5.505562" lat="50.588124"><ele>189.75</ele></trkpt>
<trkpt lon="5.505546" lat="50.588021"><ele>190.0</ele></trkpt>
<trkpt lon="5.505470" lat="50.587766"><ele>191.0</ele></trkpt>
<trkpt lon="5.505401" lat="50.587541"><ele>191.75</ele></trkpt>
<trkpt lon="5.505320" lat="50.587282"><ele>192.0</ele></trkpt>
<trkpt lon="5.505290" lat="50.587183"><ele>192.0</ele></trkpt>
<trkpt lon="5.505274" lat="50.587132"><ele>192.0</ele></trkpt>
<trkpt lon="5.505053" lat="50.586425"><ele>192.75</ele></trkpt>
<trkpt lon="5.504802" lat="50.585614"><ele>193.0</ele></trkpt>
<trkpt lon="5.504784" lat="50.585597"><ele>193.0</ele></trkpt>
<trkpt lon="5.504675" lat="50.585584"><ele>193.0</ele></trkpt>
<trkpt lon="5.504637" lat="50.585586"><ele>193.0</ele></trkpt>
<trkpt lon="5.504620" lat="50.585598"><ele>193.0</ele></trkpt>
<trkpt lon="5.504575" lat="50.585578"><ele>193.0</ele></trkpt>
<trkpt lon="5.504525" lat="50.585556"><ele>193.0</ele></trkpt>
<trkpt lon="5.504681" lat="50.585404"><ele>193.5</ele></trkpt>
<trkpt lon="5.504700" lat="50.585337"><ele>193.75</ele></trkpt>
<trkpt lon="5.504669" lat="50.585202"><ele>194.0</ele></trkpt>
<trkpt lon="5.504354" lat="50.584213"><ele>194.5</ele></trkpt>
<trkpt lon="5.504051" lat="50.583273"><ele>195.0</ele></trkpt>
<trkpt lon="5.504040" lat="50.583258"><ele>195.0</ele></trkpt>
<trkpt lon="5.504019" lat="50.583247"><ele>195.0</ele></trkpt>
<trkpt lon="5.503990" lat="50.583243"><ele>195.0</ele></trkpt>
<trkpt lon="5.503956" lat="50.583247"><ele>195.0</ele></trkpt>
<trkpt lon="5.503944" lat="50.583212"><ele>195.0</ele></trkpt>
<trkpt lon="5.503932" lat="50.583177"><ele>195.0</ele></trkpt>
<trkpt lon="5.503984" lat="50.583165"><ele>195.0</ele></trkpt>
<trkpt lon="5.504008" lat="50.583141"><ele>195.25</ele></trkpt>
<trkpt lon="5.504008" lat="50.583126"><ele>195.25</ele></trkpt>
<trkpt lon="5.503899" lat="50.582764"><ele>196.0</ele></trkpt>
<trkpt lon="5.503870" lat="50.582667"><ele>195.75</ele></trkpt>
<trkpt lon="5.503921" lat="50.582660"><ele>196.0</ele></trkpt>
<trkpt lon="5.503977" lat="50.582654"><ele>196.25</ele></trkpt>
<trkpt lon="5.503738" lat="50.581874"><ele>198.25</ele></trkpt>
<trkpt lon="5.503685" lat="50.581702"><ele>198.75</ele></trkpt>
<trkpt lon="5.503456" lat="50.580968"><ele>205.0</ele></trkpt>
<trkpt lon="5.503396" lat="50.580777"><ele>206.5</ele></trkpt>
<trkpt lon="5.503157" lat="50.580007"><ele>213.5</ele></trkpt>
<trkpt lon="5.503165" lat="50.579959"><ele>213.75</ele></trkpt>
<trkpt lon="5.503149" lat="50.579861"><ele>214.25</ele></trkpt>
<trkpt lon="5.503143" lat="50.579819"><ele>214.5</ele></trkpt>
<trkpt lon="5.503110" lat="50.579802"><ele>214.5</ele></trkpt>
<trkpt lon="5.503100" lat="50.579789"><ele>214.5</ele></trkpt>
<trkpt lon="5.503070" lat="50.579690"><ele>215.0</ele></trkpt>
<trkpt lon="5.502655" lat="50.578365"><ele>223.25</ele></trkpt>
<trkpt lon="5.502633" lat="50.578263"><ele>224.0</ele></trkpt>
<trkpt lon="5.502629" lat="50.578181"><ele>224.5</ele></trkpt>
<trkpt lon="5.502484" lat="50.577710"><ele>227.25</ele></trkpt>
<trkpt lon="5.502436" lat="50.577610"><ele>227.75</ele></trkpt>
<trkpt lon="5.502392" lat="50.577569"><ele>228.0</ele></trkpt>
<trkpt lon="5.502375" lat="50.577507"><ele>228.25</ele></trkpt>
<trkpt lon="5.502330" lat="50.577355"><ele>229.0</ele></trkpt>
<trkpt lon="5.502307" lat="50.577258"><ele>229.75</ele></trkpt>
<trkpt lon="5.502308" lat="50.577231"><ele>229.75</ele></trkpt>
<trkpt lon="5.502314" lat="50.577109"><ele>230.25</ele></trkpt>
<trkpt lon="5.502382" lat="50.576869"><ele>231.25</ele></trkpt>
<trkpt lon="5.502371" lat="50.576827"><ele>231.5</ele></trkpt>
<trkpt lon="5.502296" lat="50.576798"><ele>231.75</ele></trkpt>
<trkpt lon="5.502160" lat="50.576780"><ele>232.0</ele></trkpt>
<trkpt lon="5.502105" lat="50.576768"><ele>232.0</ele></trkpt>
<trkpt lon="5.502047" lat="50.576743"><ele>232.0</ele></trkpt>
<trkpt lon="5.502005" lat="50.576708"><ele>232.0</ele></trkpt>
<trkpt lon="5.501676" lat="50.576014"><ele>233.25</ele></trkpt>
<trkpt lon="5.501609" lat="50.575873"><ele>233.75</ele></trkpt>
<trkpt lon="5.501586" lat="50.575809"><ele>234.0</ele></trkpt>
<trkpt lon="5.501552" lat="50.575718"><ele>234.0</ele></trkpt>
<trkpt lon="5.501514" lat="50.575617"><ele>234.25</ele></trkpt>
<trkpt lon="5.501387" lat="50.575338"><ele>234.0</ele></trkpt>
<trkpt lon="5.501249" lat="50.575079"><ele>233.5</ele></trkpt>
<trkpt lon="5.501190" lat="50.574969"><ele>233.25</ele></trkpt>
<trkpt lon="5.500962" lat="50.574589"><ele>233.25</ele></trkpt>
<trkpt lon="5.500890" lat="50.574430"><ele>233.25</ele></trkpt>
<trkpt lon="5.499751" lat="50.572321"><ele>238.5</ele></trkpt>
<trkpt lon="5.499155" lat="50.571235"><ele>237.75</ele></trkpt>
<trkpt lon="5.498732" lat="50.570450"><ele>237.25</ele></trkpt>
<trkpt lon="5.498321" lat="50.569723"><ele>235.0</ele></trkpt>
<trkpt lon="5.498244" lat="50.569492"><ele>235.0</ele></trkpt>
<trkpt lon="5.498215" lat="50.569092"><ele>233.25</ele></trkpt>
<trkpt lon="5.498022" lat="50.567748"><ele>227.75</ele></trkpt>
<trkpt lon="5.497923" lat="50.567241"><ele>226.0</ele></trkpt>
<trkpt lon="5.497831" lat="50.566984"><ele>224.25</ele></trkpt>
<trkpt lon="5.497572" lat="50.566378"><ele>221.0</ele></trkpt>
<trkpt lon="5.497137" lat="50.566299"><ele>218.5</ele></trkpt>
<trkpt lon="5.497275" lat="50.566174"><ele>218.0</ele></trkpt>
<trkpt lon="5.497150" lat="50.566110"><ele>216.5</ele></trkpt>
<trkpt lon="5.496970" lat="50.566002"><ele>214.75</ele></trkpt>
<trkpt lon="5.496736" lat="50.565850"><ele>210.25</ele></trkpt>
<trkpt lon="5.496583" lat="50.565764"><ele>206.75</ele></trkpt>
<trkpt lon="5.496419" lat="50.565651"><ele>201.5</ele></trkpt>
<trkpt lon="5.496530" lat="50.565525"><ele>200.0</ele></trkpt>
<trkpt lon="5.496639" lat="50.565453"><ele>199.5</ele></trkpt>
<trkpt lon="5.496769" lat="50.565386"><ele>199.5</ele></trkpt>
<trkpt lon="5.496959" lat="50.565320"><ele>201.5</ele></trkpt>
<trkpt lon="5.497028" lat="50.565249"><ele>200.75</ele></trkpt>
<trkpt lon="5.497025" lat="50.565099"><ele>199.5</ele></trkpt>
<trkpt lon="5.497065" lat="50.564991"><ele>199.0</ele></trkpt>
<trkpt lon="5.497140" lat="50.564924"><ele>199.0</ele></trkpt>
<trkpt lon="5.496929" lat="50.564743"><ele>196.25</ele></trkpt>
<trkpt lon="5.496662" lat="50.564571"><ele>202.25</ele></trkpt>
<trkpt lon="5.496109" lat="50.564373"><ele>212.5</ele></trkpt>
<trkpt lon="5.495780" lat="50.564278"><ele>217.0</ele></trkpt>
<trkpt lon="5.495068" lat="50.564121"><ele>223.0</ele></trkpt>
<trkpt lon="5.494515" lat="50.563956"><ele>227.0</ele></trkpt>
<trkpt lon="5.493696" lat="50.563695"><ele>231.5</ele></trkpt>
<trkpt lon="5.492984" lat="50.563446"><ele>234.5</ele></trkpt>
<trkpt lon="5.491536" lat="50.562897"><ele>236.5</ele></trkpt>
<trkpt lon="5.490052" lat="50.562352"><ele>235.5</ele></trkpt>
<trkpt lon="5.488796" lat="50.561889"><ele>235.0</ele></trkpt>
<trkpt lon="5.486225" lat="50.560964"><ele>236.0</ele></trkpt>
<trkpt lon="5.483803" lat="50.560091"><ele>238.25</ele></trkpt>
<trkpt lon="5.482327" lat="50.559557"><ele>242.0</ele></trkpt>
<trkpt lon="5.481240" lat="50.559154"><ele>242.75</ele></trkpt>
<trkpt lon="5.478173" lat="50.558045"><ele>240.75</ele></trkpt>
<trkpt lon="5.477969" lat="50.557972"><ele>240.75</ele></trkpt>
<trkpt lon="5.477937" lat="50.557970"><ele>240.75</ele></trkpt>
<trkpt lon="5.477886" lat="50.557955"><ele>240.75</ele></trkpt>
<trkpt lon="5.477841" lat="50.557942"><ele>240.75</ele></trkpt>
<trkpt lon="5.477804" lat="50.557928"><ele>240.75</ele></trkpt>
<trkpt lon="5.477798" lat="50.557915"><ele>240.75</ele></trkpt>
<trkpt lon="5.477160" lat="50.557721"><ele>240.75</ele></trkpt>
<trkpt lon="5.476973" lat="50.557658"><ele>240.5</ele></trkpt>
<trkpt lon="5.476292" lat="50.557476"><ele>241.75</ele></trkpt>
<trkpt lon="5.475829" lat="50.557342"><ele>241.25</ele></trkpt>
<trkpt lon="5.474587" lat="50.556965"><ele>242.5</ele></trkpt>
<trkpt lon="5.469420" lat="50.555423"><ele>238.0</ele></trkpt>
<trkpt lon="5.468137" lat="50.555029"><ele>237.0</ele></trkpt>
<trkpt lon="5.467597" lat="50.554872"><ele>236.5</ele></trkpt>
<trkpt lon="5.467422" lat="50.554821"><ele>236.25</ele></trkpt>
<trkpt lon="5.466383" lat="50.554505"><ele>235.0</ele></trkpt>
<trkpt lon="5.464775" lat="50.554029"><ele>232.5</ele></trkpt>
<trkpt lon="5.464722" lat="50.554013"><ele>232.25</ele></trkpt>
<trkpt lon="5.463139" lat="50.553528"><ele>230.0</ele></trkpt>
<trkpt lon="5.460799" lat="50.552796"><ele>220.0</ele></trkpt>
<trkpt lon="5.459127" lat="50.552270"><ele>212.0</ele></trkpt>
<trkpt lon="5.459071" lat="50.552253"><ele>212.0</ele></trkpt>
<trkpt lon="5.456905" lat="50.551571"><ele>211.5</ele></trkpt>
<trkpt lon="5.455825" lat="50.551738"><ele>211.0</ele></trkpt>
<trkpt lon="5.455468" lat="50.551793"><ele>211.75</ele></trkpt>
<trkpt lon="5.454967" lat="50.551548"><ele>212.5</ele></trkpt>
<trkpt lon="5.453428" lat="50.550775"><ele>213.5</ele></trkpt>
<trkpt lon="5.453120" lat="50.550643"><ele>214.5</ele></trkpt>
<trkpt lon="5.452465" lat="50.550416"><ele>216.0</ele></trkpt>
<trkpt lon="5.452419" lat="50.550400"><ele>216.0</ele></trkpt>
<trkpt lon="5.452337" lat="50.550397"><ele>216.0</ele></trkpt>
<trkpt lon="5.452030" lat="50.550388"><ele>216.75</ele></trkpt>
<trkpt lon="5.451920" lat="50.550384"><ele>217.25</ele></trkpt>
<trkpt lon="5.451644" lat="50.550382"><ele>218.75</ele></trkpt>
<trkpt lon="5.450486" lat="50.550373"><ele>221.25</ele></trkpt>
<trkpt lon="5.450289" lat="50.550357"><ele>221.75</ele></trkpt>
<trkpt lon="5.449819" lat="50.550305"><ele>222.25</ele></trkpt>
<trkpt lon="5.449523" lat="50.550274"><ele>221.75</ele></trkpt>
<trkpt lon="5.449304" lat="50.550250"><ele>222.25</ele></trkpt>
<trkpt lon="5.449112" lat="50.550253"><ele>223.0</ele></trkpt>
<trkpt lon="5.449007" lat="50.550271"><ele>223.5</ele></trkpt>
<trkpt lon="5.448866" lat="50.550310"><ele>224.0</ele></trkpt>
<trkpt lon="5.448829" lat="50.550317"><ele>224.0</ele></trkpt>
<trkpt lon="5.448763" lat="50.550370"><ele>224.5</ele></trkpt>
<trkpt lon="5.448603" lat="50.550446"><ele>225.75</ele></trkpt>
<trkpt lon="5.448198" lat="50.550606"><ele>225.25</ele></trkpt>
<trkpt lon="5.448059" lat="50.550674"><ele>225.75</ele></trkpt>
<trkpt lon="5.447951" lat="50.550736"><ele>226.0</ele></trkpt>
<trkpt lon="5.447286" lat="50.551125"><ele>227.25</ele></trkpt>
<trkpt lon="5.446870" lat="50.551379"><ele>229.25</ele></trkpt>
<trkpt lon="5.446704" lat="50.551470"><ele>230.25</ele></trkpt>
<trkpt lon="5.446492" lat="50.551562"><ele>231.0</ele></trkpt>
<trkpt lon="5.446322" lat="50.551618"><ele>230.75</ele></trkpt>
<trkpt lon="5.445758" lat="50.551766"><ele>233.5</ele></trkpt>
<trkpt lon="5.445608" lat="50.551799"><ele>233.75</ele></trkpt>
<trkpt lon="5.445476" lat="50.551818"><ele>234.0</ele></trkpt>
<trkpt lon="5.445299" lat="50.551832"><ele>234.5</ele></trkpt>
<trkpt lon="5.445147" lat="50.551832"><ele>234.5</ele></trkpt>
<trkpt lon="5.444729" lat="50.551809"><ele>235.25</ele></trkpt>
<trkpt lon="5.444672" lat="50.551806"><ele>235.25</ele></trkpt>
<trkpt lon="5.444599" lat="50.551802"><ele>235.25</ele></trkpt>
<trkpt lon="5.444440" lat="50.551794"><ele>235.0</ele></trkpt>
<trkpt lon="5.444321" lat="50.551795"><ele>235.0</ele></trkpt>
<trkpt lon="5.444042" lat="50.551813"><ele>235.5</ele></trkpt>
<trkpt lon="5.443809" lat="50.551860"><ele>235.75</ele></trkpt>
<trkpt lon="5.443401" lat="50.552013"><ele>236.75</ele></trkpt>
<trkpt lon="5.443326" lat="50.552024"><ele>237.0</ele></trkpt>
<trkpt lon="5.443248" lat="50.552027"><ele>237.0</ele></trkpt>
<trkpt lon="5.443188" lat="50.552023"><ele>237.0</ele></trkpt>
<trkpt lon="5.443120" lat="50.552009"><ele>237.0</ele></trkpt>
<trkpt lon="5.443054" lat="50.551986"><ele>236.75</ele></trkpt>
<trkpt lon="5.442781" lat="50.551857"><ele>236.5</ele></trkpt>
<trkpt lon="5.441605" lat="50.551275"><ele>238.0</ele></trkpt>
<trkpt lon="5.441365" lat="50.551148"><ele>238.0</ele></trkpt>
<trkpt lon="5.441083" lat="50.550979"><ele>238.5</ele></trkpt>
<trkpt lon="5.440440" lat="50.550549"><ele>239.25</ele></trkpt>
<trkpt lon="5.440073" lat="50.550326"><ele>240.0</ele></trkpt>
<trkpt lon="5.439700" lat="50.550141"><ele>240.5</ele></trkpt>
<trkpt lon="5.438757" lat="50.549747"><ele>242.25</ele></trkpt>
<trkpt lon="5.438049" lat="50.549382"><ele>243.75</ele></trkpt>
<trkpt lon="5.437359" lat="50.548908"><ele>244.0</ele></trkpt>
<trkpt lon="5.437082" lat="50.548699"><ele>243.25</ele></trkpt>
<trkpt lon="5.436476" lat="50.548270"><ele>243.0</ele></trkpt>
<trkpt lon="5.435801" lat="50.547880"><ele>242.25</ele></trkpt>
<trkpt lon="5.434924" lat="50.547443"><ele>241.0</ele></trkpt>
<trkpt lon="5.434530" lat="50.547280"><ele>241.0</ele></trkpt>
<trkpt lon="5.432451" lat="50.546159"><ele>241.5</ele></trkpt>
<trkpt lon="5.432018" lat="50.545943"><ele>241.5</ele></trkpt>
<trkpt lon="5.431576" lat="50.545749"><ele>241.5</ele></trkpt>
<trkpt lon="5.430447" lat="50.545295"><ele>241.25</ele></trkpt>
<trkpt lon="5.430121" lat="50.545136"><ele>241.25</ele></trkpt>
<trkpt lon="5.429691" lat="50.544885"><ele>240.5</ele></trkpt>
<trkpt lon="5.428919" lat="50.544453"><ele>240.0</ele></trkpt>
<trkpt lon="5.428601" lat="50.544268"><ele>240.25</ele></trkpt>
<trkpt lon="5.428456" lat="50.544207"><ele>240.5</ele></trkpt>
<trkpt lon="5.428397" lat="50.544148"><ele>240.5</ele></trkpt>
<trkpt lon="5.427655" lat="50.543699"><ele>240.25</ele></trkpt>
<trkpt lon="5.427242" lat="50.543430"><ele>240.25</ele></trkpt>
<trkpt lon="5.426905" lat="50.543171"><ele>240.0</ele></trkpt>
<trkpt lon="5.426625" lat="50.542920"><ele>239.5</ele></trkpt>
<trkpt lon="5.426475" lat="50.542763"><ele>239.5</ele></trkpt>
<trkpt lon="5.426361" lat="50.542638"><ele>239.5</ele></trkpt>
<trkpt lon="5.426192" lat="50.542432"><ele>239.25</ele></trkpt>
<trkpt lon="5.426027" lat="50.542252"><ele>239.25</ele></trkpt>
<trkpt lon="5.425727" lat="50.541959"><ele>239.25</ele></trkpt>
<trkpt lon="5.425671" lat="50.541865"><ele>239.25</ele></trkpt>
<trkpt lon="5.425657" lat="50.541773"><ele>239.0</ele></trkpt>
<trkpt lon="5.425675" lat="50.541685"><ele>238.5</ele></trkpt>
<trkpt lon="5.425717" lat="50.541605"><ele>238.25</ele></trkpt>
<trkpt lon="5.425864" lat="50.541491"><ele>237.75</ele></trkpt>
<trkpt lon="5.425318" lat="50.540971"><ele>238.25</ele></trkpt>
<trkpt lon="5.424702" lat="50.540405"><ele>238.25</ele></trkpt>
<trkpt lon="5.423891" lat="50.539678"><ele>237.75</ele></trkpt>
<trkpt lon="5.423509" lat="50.539405"><ele>237.75</ele></trkpt>
<trkpt lon="5.422910" lat="50.539224"><ele>238.0</ele></trkpt>
<trkpt lon="5.422238" lat="50.539074"><ele>239.0</ele></trkpt>
<trkpt lon="5.421567" lat="50.538882"><ele>240.25</ele></trkpt>
<trkpt lon="5.420877" lat="50.538609"><ele>240.75</ele></trkpt>
<trkpt lon="5.420332" lat="50.538359"><ele>241.75</ele></trkpt>
<trkpt lon="5.419714" lat="50.538139"><ele>241.25</ele></trkpt>
<trkpt lon="5.418867" lat="50.537932"><ele>241.5</ele></trkpt>
<trkpt lon="5.418577" lat="50.537847"><ele>241.0</ele></trkpt>
<trkpt lon="5.418342" lat="50.537722"><ele>240.75</ele></trkpt>
<trkpt lon="5.418283" lat="50.537660"><ele>240.5</ele></trkpt>
<trkpt lon="5.417699" lat="50.537380"><ele>240.5</ele></trkpt>
<trkpt lon="5.417542" lat="50.537305"><ele>240.25</ele></trkpt>
<trkpt lon="5.417451" lat="50.537204"><ele>239.75</ele></trkpt>
<trkpt lon="5.417236" lat="50.536781"><ele>238.25</ele></trkpt>
<trkpt lon="5.416989" lat="50.536672"><ele>238.0</ele></trkpt>
<trkpt lon="5.416388" lat="50.536440"><ele>238.0</ele></trkpt>
<trkpt lon="5.415713" lat="50.536229"><ele>237.25</ele></trkpt>
<trkpt lon="5.414854" lat="50.535935"><ele>237.0</ele></trkpt>
<trkpt lon="5.413996" lat="50.535629"><ele>235.75</ele></trkpt>
<trkpt lon="5.413075" lat="50.535423"><ele>235.0</ele></trkpt>
<trkpt lon="5.412986" lat="50.535405"><ele>234.75</ele></trkpt>
<trkpt lon="5.412345" lat="50.535273"><ele>233.75</ele></trkpt>
<trkpt lon="5.411685" lat="50.535136"><ele>232.5</ele></trkpt>
<trkpt lon="5.411049" lat="50.534942"><ele>230.75</ele></trkpt>
<trkpt lon="5.410541" lat="50.534756"><ele>228.0</ele></trkpt>
<trkpt lon="5.410313" lat="50.534655"><ele>226.75</ele></trkpt>
<trkpt lon="5.410077" lat="50.534571"><ele>226.75</ele></trkpt>
<trkpt lon="5.409623" lat="50.534444"><ele>226.0</ele></trkpt>
<trkpt lon="5.408893" lat="50.534285"><ele>228.0</ele></trkpt>
<trkpt lon="5.408756" lat="50.534436"><ele>227.5</ele></trkpt>
<trkpt lon="5.408336" lat="50.534313"><ele>229.75</ele></trkpt>
<trkpt lon="5.408155" lat="50.534214"><ele>230.0</ele></trkpt>
<trkpt lon="5.407795" lat="50.533977"><ele>230.5</ele></trkpt>
<trkpt lon="5.407713" lat="50.533836"><ele>230.75</ele></trkpt>
<trkpt lon="5.407508" lat="50.533314"><ele>232.0</ele></trkpt>
<trkpt lon="5.406739" lat="50.532523"><ele>233.75</ele></trkpt>
<trkpt lon="5.405452" lat="50.531322"><ele>236.0</ele></trkpt>
<trkpt lon="5.404759" lat="50.530677"><ele>237.75</ele></trkpt>
<trkpt lon="5.404186" lat="50.530303"><ele>238.75</ele></trkpt>
<trkpt lon="5.403125" lat="50.529556"><ele>239.5</ele></trkpt>
<trkpt lon="5.402739" lat="50.529563"><ele>240.0</ele></trkpt>
<trkpt lon="5.401340" lat="50.529674"><ele>241.0</ele></trkpt>
<trkpt lon="5.400483" lat="50.529724"><ele>240.5</ele></trkpt>
<trkpt lon="5.400075" lat="50.529723"><ele>240.0</ele></trkpt>
<trkpt lon="5.399594" lat="50.529673"><ele>240.0</ele></trkpt>
<trkpt lon="5.399003" lat="50.529596"><ele>240.0</ele></trkpt>
<trkpt lon="5.398924" lat="50.529555"><ele>240.0</ele></trkpt>
<trkpt lon="5.398602" lat="50.529435"><ele>240.0</ele></trkpt>
<trkpt lon="5.398043" lat="50.529242"><ele>239.75</ele></trkpt>
<trkpt lon="5.397721" lat="50.529120"><ele>239.75</ele></trkpt>
<trkpt lon="5.397176" lat="50.528821"><ele>239.0</ele></trkpt>
<trkpt lon="5.396988" lat="50.528707"><ele>239.5</ele></trkpt>
<trkpt lon="5.396673" lat="50.528512"><ele>239.25</ele></trkpt>
<trkpt lon="5.396373" lat="50.528295"><ele>239.75</ele></trkpt>
<trkpt lon="5.396027" lat="50.527889"><ele>239.75</ele></trkpt>
<trkpt lon="5.395646" lat="50.527390"><ele>240.5</ele></trkpt>
<trkpt lon="5.395377" lat="50.527014"><ele>240.75</ele></trkpt>
<trkpt lon="5.394937" lat="50.526618"><ele>241.0</ele></trkpt>
<trkpt lon="5.394464" lat="50.526222"><ele>242.0</ele></trkpt>
<trkpt lon="5.394069" lat="50.525846"><ele>242.0</ele></trkpt>
<trkpt lon="5.393659" lat="50.525421"><ele>243.0</ele></trkpt>
<trkpt lon="5.391702" lat="50.523926"><ele>246.75</ele></trkpt>
<trkpt lon="5.391155" lat="50.523614"><ele>248.75</ele></trkpt>
<trkpt lon="5.387566" lat="50.521515"><ele>248.0</ele></trkpt>
<trkpt lon="5.386284" lat="50.520766"><ele>246.75</ele></trkpt>
<trkpt lon="5.385254" lat="50.520002"><ele>245.0</ele></trkpt>
<trkpt lon="5.384528" lat="50.519426"><ele>243.75</ele></trkpt>
<trkpt lon="5.383965" lat="50.518652"><ele>241.75</ele></trkpt>
<trkpt lon="5.383833" lat="50.518613"><ele>242.0</ele></trkpt>
<trkpt lon="5.381820" lat="50.518011"><ele>240.0</ele></trkpt>
<trkpt lon="5.380983" lat="50.517862"><ele>239.0</ele></trkpt>
<trkpt lon="5.379617" lat="50.517644"><ele>239.5</ele></trkpt>
<trkpt lon="5.378160" lat="50.517324"><ele>239.25</ele></trkpt>
<trkpt lon="5.377443" lat="50.517042"><ele>239.5</ele></trkpt>
<trkpt lon="5.376626" lat="50.516802"><ele>238.0</ele></trkpt>
<trkpt lon="5.376757" lat="50.516163"><ele>233.25</ele></trkpt>
<trkpt lon="5.376749" lat="50.515992"><ele>232.0</ele></trkpt>
<trkpt lon="5.376694" lat="50.515852"><ele>231.0</ele></trkpt>
<trkpt lon="5.376437" lat="50.515615"><ele>229.25</ele></trkpt>
<trkpt lon="5.376080" lat="50.515321"><ele>227.5</ele></trkpt>
<trkpt lon="5.375607" lat="50.515060"><ele>224.5</ele></trkpt>
<trkpt lon="5.374144" lat="50.514344"><ele>218.5</ele></trkpt>
<trkpt lon="5.373856" lat="50.514191"><ele>218.25</ele></trkpt>
<trkpt lon="5.373793" lat="50.514121"><ele>217.75</ele></trkpt>
<trkpt lon="5.373801" lat="50.514046"><ele>217.25</ele></trkpt>
<trkpt lon="5.373869" lat="50.513932"><ele>216.75</ele></trkpt>
<trkpt lon="5.373836" lat="50.513832"><ele>216.0</ele></trkpt>
<trkpt lon="5.373756" lat="50.513728"><ele>214.5</ele></trkpt>
<trkpt lon="5.373614" lat="50.513624"><ele>213.0</ele></trkpt>
<trkpt lon="5.373439" lat="50.513530"><ele>213.5</ele></trkpt>
<trkpt lon="5.373029" lat="50.513389"><ele>213.5</ele></trkpt>
<trkpt lon="5.372820" lat="50.513353"><ele>212.25</ele></trkpt>
<trkpt lon="5.372493" lat="50.513242"><ele>212.5</ele></trkpt>
<trkpt lon="5.372208" lat="50.513119"><ele>212.5</ele></trkpt>
<trkpt lon="5.372058" lat="50.513068"><ele>211.75</ele></trkpt>
<trkpt lon="5.371613" lat="50.512955"><ele>211.75</ele></trkpt>
<trkpt lon="5.370634" lat="50.512599"><ele>210.75</ele></trkpt>
<trkpt lon="5.370162" lat="50.512415"><ele>210.5</ele></trkpt>
<trkpt lon="5.369955" lat="50.512360"><ele>210.25</ele></trkpt>
<trkpt lon="5.369790" lat="50.512325"><ele>209.75</ele></trkpt>
<trkpt lon="5.368991" lat="50.512095"><ele>209.0</ele></trkpt>
<trkpt lon="5.368545" lat="50.511963"><ele>208.0</ele></trkpt>
<trkpt lon="5.368132" lat="50.511857"><ele>209.0</ele></trkpt>
<trkpt lon="5.367785" lat="50.511813"><ele>208.75</ele></trkpt>
<trkpt lon="5.367582" lat="50.511792"><ele>208.0</ele></trkpt>
<trkpt lon="5.367377" lat="50.511779"><ele>207.25</ele></trkpt>
<trkpt lon="5.367331" lat="50.511695"><ele>207.25</ele></trkpt>
<trkpt lon="5.365733" lat="50.511164"><ele>208.5</ele></trkpt>
<trkpt lon="5.364655" lat="50.510874"><ele>204.75</ele></trkpt>
<trkpt lon="5.364505" lat="50.510842"><ele>204.0</ele></trkpt>
<trkpt lon="5.364653" lat="50.510649"><ele>206.0</ele></trkpt>
<trkpt lon="5.365088" lat="50.510151"><ele>212.25</ele></trkpt>
<trkpt lon="5.365380" lat="50.509858"><ele>214.0</ele></trkpt>
<trkpt lon="5.364347" lat="50.509593"><ele>217.5</ele></trkpt>
<trkpt lon="5.363884" lat="50.509448"><ele>218.0</ele></trkpt>
<trkpt lon="5.363112" lat="50.509115"><ele>216.75</ele></trkpt>
<trkpt lon="5.362246" lat="50.508881"><ele>214.0</ele></trkpt>
<trkpt lon="5.361806" lat="50.508771"><ele>214.5</ele></trkpt>
<trkpt lon="5.361628" lat="50.508711"><ele>214.0</ele></trkpt>
<trkpt lon="5.361516" lat="50.508657"><ele>213.25</ele></trkpt>
<trkpt lon="5.361455" lat="50.508592"><ele>212.25</ele></trkpt>
<trkpt lon="5.360935" lat="50.507639"><ele>209.75</ele></trkpt>
<trkpt lon="5.360908" lat="50.507633"><ele>209.75</ele></trkpt>
<trkpt lon="5.360778" lat="50.507608"><ele>209.25</ele></trkpt>
<trkpt lon="5.360085" lat="50.507512"><ele>208.0</ele></trkpt>
<trkpt lon="5.359722" lat="50.507472"><ele>206.75</ele></trkpt>
<trkpt lon="5.359462" lat="50.507470"><ele>206.75</ele></trkpt>
<trkpt lon="5.358495" lat="50.507496"><ele>204.75</ele></trkpt>
<trkpt lon="5.358043" lat="50.507503"><ele>204.0</ele></trkpt>
<trkpt lon="5.357634" lat="50.507500"><ele>203.25</ele></trkpt>
<trkpt lon="5.357516" lat="50.507481"><ele>202.75</ele></trkpt>
<trkpt lon="5.356317" lat="50.507282"><ele>200.0</ele></trkpt>
<trkpt lon="5.355545" lat="50.507045"><ele>197.0</ele></trkpt>
<trkpt lon="5.355118" lat="50.506875"><ele>195.25</ele></trkpt>
<trkpt lon="5.354758" lat="50.506810"><ele>194.0</ele></trkpt>
<trkpt lon="5.354410" lat="50.506802"><ele>191.75</ele></trkpt>
<trkpt lon="5.354071" lat="50.506794"><ele>191.25</ele></trkpt>
<trkpt lon="5.353833" lat="50.506798"><ele>191.0</ele></trkpt>
<trkpt lon="5.353812" lat="50.506562"><ele>191.25</ele></trkpt>
<trkpt lon="5.353787" lat="50.506078"><ele>193.5</ele></trkpt>
<trkpt lon="5.353920" lat="50.505649"><ele>198.0</ele></trkpt>
<trkpt lon="5.353975" lat="50.505354"><ele>201.75</ele></trkpt>
<trkpt lon="5.353999" lat="50.505225"><ele>204.0</ele></trkpt>
<trkpt lon="5.353073" lat="50.505186"><ele>207.5</ele></trkpt>
<trkpt lon="5.352764" lat="50.505167"><ele>209.0</ele></trkpt>
<trkpt lon="5.352316" lat="50.505135"><ele>211.5</ele></trkpt>
<trkpt lon="5.351807" lat="50.505090"><ele>213.5</ele></trkpt>
<trkpt lon="5.351362" lat="50.505017"><ele>215.5</ele></trkpt>
<trkpt lon="5.350978" lat="50.504939"><ele>215.75</ele></trkpt>
<trkpt lon="5.350560" lat="50.504829"><ele>217.25</ele></trkpt>
<trkpt lon="5.350181" lat="50.504671"><ele>219.25</ele></trkpt>
<trkpt lon="5.349825" lat="50.504475"><ele>221.75</ele></trkpt>
<trkpt lon="5.349615" lat="50.504338"><ele>223.5</ele></trkpt>
<trkpt lon="5.349479" lat="50.504236"><ele>224.5</ele></trkpt>
<trkpt lon="5.349248" lat="50.504055"><ele>226.5</ele></trkpt>
<trkpt lon="5.349117" lat="50.503929"><ele>227.5</ele></trkpt>
<trkpt lon="5.348859" lat="50.503745"><ele>229.5</ele></trkpt>
<trkpt lon="5.348392" lat="50.503465"><ele>231.75</ele></trkpt>
<trkpt lon="5.347907" lat="50.503200"><ele>232.25</ele></trkpt>
<trkpt lon="5.347478" lat="50.503006"><ele>233.0</ele></trkpt>
<trkpt lon="5.346941" lat="50.502818"><ele>232.75</ele></trkpt>
<trkpt lon="5.346196" lat="50.502571"><ele>232.5</ele></trkpt>
<trkpt lon="5.345151" lat="50.502194"><ele>232.0</ele></trkpt>
<trkpt lon="5.344771" lat="50.502042"><ele>232.25</ele></trkpt>
<trkpt lon="5.344672" lat="50.501996"><ele>232.25</ele></trkpt>
<trkpt lon="5.344591" lat="50.501957"><ele>232.25</ele></trkpt>
<trkpt lon="5.342620" lat="50.501075"><ele>236.75</ele></trkpt>
<trkpt lon="5.342544" lat="50.501039"><ele>236.75</ele></trkpt>
<trkpt lon="5.342373" lat="50.500945"><ele>237.5</ele></trkpt>
<trkpt lon="5.342168" lat="50.500777"><ele>238.0</ele></trkpt>
<trkpt lon="5.340345" lat="50.498923"><ele>245.0</ele></trkpt>
<trkpt lon="5.340037" lat="50.498599"><ele>246.0</ele></trkpt>
<trkpt lon="5.339215" lat="50.497827"><ele>248.75</ele></trkpt>
<trkpt lon="5.338803" lat="50.497387"><ele>251.5</ele></trkpt>
<trkpt lon="5.338470" lat="50.496983"><ele>254.0</ele></trkpt>
<trkpt lon="5.337534" lat="50.496405"><ele>257.0</ele></trkpt>
<trkpt lon="5.336673" lat="50.495850"><ele>262.75</ele></trkpt>
<trkpt lon="5.336424" lat="50.495634"><ele>263.75</ele></trkpt>
<trkpt lon="5.335600" lat="50.495053"><ele>264.75</ele></trkpt>
<trkpt lon="5.334970" lat="50.494695"><ele>265.75</ele></trkpt>
<trkpt lon="5.334716" lat="50.494571"><ele>266.0</ele></trkpt>
<trkpt lon="5.334139" lat="50.494357"><ele>266.0</ele></trkpt>
<trkpt lon="5.334252" lat="50.494238"><ele>265.75</ele></trkpt>
<trkpt lon="5.334636" lat="50.493908"><ele>264.0</ele></trkpt>
<trkpt lon="5.334957" lat="50.493611"><ele>261.75</ele></trkpt>
<trkpt lon="5.335265" lat="50.493293"><ele>258.75</ele></trkpt>
<trkpt lon="5.335521" lat="50.493021"><ele>255.75</ele></trkpt>
<trkpt lon="5.335870" lat="50.492609"><ele>251.5</ele></trkpt>
<trkpt lon="5.336173" lat="50.492211"><ele>245.75</ele></trkpt>
<trkpt lon="5.336320" lat="50.492022"><ele>241.75</ele></trkpt>
<trkpt lon="5.336628" lat="50.491553"><ele>235.5</ele></trkpt>
<trkpt lon="5.336842" lat="50.491125"><ele>234.0</ele></trkpt>
<trkpt lon="5.336980" lat="50.490815"><ele>233.0</ele></trkpt>
<trkpt lon="5.337222" lat="50.490310"><ele>233.75</ele></trkpt>
<trkpt lon="5.337301" lat="50.490117"><ele>235.25</ele></trkpt>
<trkpt lon="5.337495" lat="50.489692"><ele>240.0</ele></trkpt>
<trkpt lon="5.337529" lat="50.489588"><ele>241.0</ele></trkpt>
<trkpt lon="5.337526" lat="50.489523"><ele>241.25</ele></trkpt>
<trkpt lon="5.337479" lat="50.489446"><ele>241.75</ele></trkpt>
<trkpt lon="5.337387" lat="50.489398"><ele>241.75</ele></trkpt>
<trkpt lon="5.337862" lat="50.489344"><ele>242.75</ele></trkpt>
<trkpt lon="5.338213" lat="50.489320"><ele>244.0</ele></trkpt>
<trkpt lon="5.338827" lat="50.489210"><ele>244.75</ele></trkpt>
<trkpt lon="5.340120" lat="50.489020"><ele>247.5</ele></trkpt>
<trkpt lon="5.340533" lat="50.488981"><ele>248.0</ele></trkpt>
<trkpt lon="5.341406" lat="50.488829"><ele>248.0</ele></trkpt>
<trkpt lon="5.342259" lat="50.488713"><ele>247.75</ele></trkpt>
<trkpt lon="5.342674" lat="50.488661"><ele>247.0</ele></trkpt>
<trkpt lon="5.342978" lat="50.488644"><ele>247.0</ele></trkpt>
<trkpt lon="5.343347" lat="50.488594"><ele>245.75</ele></trkpt>
<trkpt lon="5.343818" lat="50.488502"><ele>243.25</ele></trkpt>
<trkpt lon="5.344254" lat="50.488398"><ele>241.0</ele></trkpt>
<trkpt lon="5.344519" lat="50.488376"><ele>240.0</ele></trkpt>
<trkpt lon="5.344895" lat="50.488325"><ele>239.0</ele></trkpt>
<trkpt lon="5.346172" lat="50.488125"><ele>237.75</ele></trkpt>
<trkpt lon="5.346617" lat="50.488085"><ele>237.75</ele></trkpt>
<trkpt lon="5.346927" lat="50.488065"><ele>237.75</ele></trkpt>
<trkpt lon="5.348004" lat="50.487942"><ele>240.0</ele></trkpt>
<trkpt lon="5.348419" lat="50.487887"><ele>241.5</ele></trkpt>
<trkpt lon="5.348842" lat="50.487808"><ele>242.0</ele></trkpt>
<trkpt lon="5.350744" lat="50.487398"><ele>240.0</ele></trkpt>
<trkpt lon="5.351321" lat="50.487289"><ele>237.25</ele></trkpt>
<trkpt lon="5.351505" lat="50.487243"><ele>236.5</ele></trkpt>
<trkpt lon="5.352231" lat="50.487320"><ele>235.0</ele></trkpt>
<trkpt lon="5.352642" lat="50.487365"><ele>233.25</ele></trkpt>
<trkpt lon="5.352881" lat="50.487371"><ele>232.0</ele></trkpt>
<trkpt lon="5.353048" lat="50.487338"><ele>230.75</ele></trkpt>
<trkpt lon="5.353244" lat="50.487261"><ele>228.0</ele></trkpt>
<trkpt lon="5.353048" lat="50.487338"><ele>230.75</ele></trkpt>
<trkpt lon="5.352881" lat="50.487371"><ele>232.0</ele></trkpt>
<trkpt lon="5.352642" lat="50.487365"><ele>233.25</ele></trkpt>
<trkpt lon="5.352231" lat="50.487320"><ele>235.0</ele></trkpt>
<trkpt lon="5.351505" lat="50.487243"><ele>236.5</ele></trkpt>
<trkpt lon="5.351321" lat="50.487289"><ele>237.25</ele></trkpt>
<trkpt lon="5.350744" lat="50.487398"><ele>240.0</ele></trkpt>
<trkpt lon="5.348842" lat="50.487808"><ele>242.0</ele></trkpt>
<trkpt lon="5.348419" lat="50.487887"><ele>241.5</ele></trkpt>
<trkpt lon="5.348004" lat="50.487942"><ele>240.0</ele></trkpt>
<trkpt lon="5.346927" lat="50.488065"><ele>237.75</ele></trkpt>
<trkpt lon="5.346617" lat="50.488085"><ele>237.75</ele></trkpt>
<trkpt lon="5.346172" lat="50.488125"><ele>237.75</ele></trkpt>
<trkpt lon="5.344895" lat="50.488325"><ele>239.0</ele></trkpt>
<trkpt lon="5.344519" lat="50.488376"><ele>240.0</ele></trkpt>
<trkpt lon="5.344254" lat="50.488398"><ele>241.0</ele></trkpt>
<trkpt lon="5.343818" lat="50.488502"><ele>243.25</ele></trkpt>
<trkpt lon="5.343347" lat="50.488594"><ele>245.75</ele></trkpt>
<trkpt lon="5.342978" lat="50.488644"><ele>247.0</ele></trkpt>
<trkpt lon="5.342674" lat="50.488661"><ele>247.0</ele></trkpt>
<trkpt lon="5.342259" lat="50.488713"><ele>247.75</ele></trkpt>
<trkpt lon="5.341406" lat="50.488829"><ele>248.0</ele></trkpt>
<trkpt lon="5.340533" lat="50.488981"><ele>248.0</ele></trkpt>
<trkpt lon="5.340120" lat="50.489020"><ele>247.5</ele></trkpt>
<trkpt lon="5.338827" lat="50.489210"><ele>244.75</ele></trkpt>
<trkpt lon="5.338213" lat="50.489320"><ele>244.0</ele></trkpt>
<trkpt lon="5.337862" lat="50.489344"><ele>242.75</ele></trkpt>
<trkpt lon="5.337387" lat="50.489398"><ele>241.75</ele></trkpt>
<trkpt lon="5.337479" lat="50.489446"><ele>241.75</ele></trkpt>
<trkpt lon="5.337526" lat="50.489523"><ele>241.25</ele></trkpt>
<trkpt lon="5.337529" lat="50.489588"><ele>241.0</ele></trkpt>
<trkpt lon="5.337495" lat="50.489692"><ele>240.0</ele></trkpt>
<trkpt lon="5.337301" lat="50.490117"><ele>235.25</ele></trkpt>
<trkpt lon="5.337222" lat="50.490310"><ele>233.75</ele></trkpt>
<trkpt lon="5.336980" lat="50.490815"><ele>233.0</ele></trkpt>
<trkpt lon="5.336842" lat="50.491125"><ele>234.0</ele></trkpt>
<trkpt lon="5.336628" lat="50.491553"><ele>235.5</ele></trkpt>
<trkpt lon="5.336320" lat="50.492022"><ele>241.75</ele></trkpt>
<trkpt lon="5.336173" lat="50.492211"><ele>245.75</ele></trkpt>
<trkpt lon="5.335870" lat="50.492609"><ele>251.5</ele></trkpt>
<trkpt lon="5.335521" lat="50.493021"><ele>255.75</ele></trkpt>
<trkpt lon="5.335265" lat="50.493293"><ele>258.75</ele></trkpt>
<trkpt lon="5.334957" lat="50.493611"><ele>261.75</ele></trkpt>
<trkpt lon="5.334636" lat="50.493908"><ele>264.0</ele></trkpt>
<trkpt lon="5.334252" lat="50.494238"><ele>265.75</ele></trkpt>
<trkpt lon="5.334139" lat="50.494357"><ele>266.0</ele></trkpt>
<trkpt lon="5.334716" lat="50.494571"><ele>266.0</ele></trkpt>
<trkpt lon="5.334970" lat="50.494695"><ele>265.75</ele></trkpt>
<trkpt lon="5.335600" lat="50.495053"><ele>264.75</ele></trkpt>
<trkpt lon="5.336424" lat="50.495634"><ele>263.75</ele></trkpt>
<trkpt lon="5.336673" lat="50.495850"><ele>262.75</ele></trkpt>
<trkpt lon="5.337534" lat="50.496405"><ele>257.0</ele></trkpt>
<trkpt lon="5.338470" lat="50.496983"><ele>254.0</ele></trkpt>
<trkpt lon="5.338803" lat="50.497387"><ele>251.5</ele></trkpt>
<trkpt lon="5.339215" lat="50.497827"><ele>248.75</ele></trkpt>
<trkpt lon="5.340037" lat="50.498599"><ele>246.0</ele></trkpt>
<trkpt lon="5.340345" lat="50.498923"><ele>245.0</ele></trkpt>
<trkpt lon="5.342168" lat="50.500777"><ele>238.0</ele></trkpt>
<trkpt lon="5.342373" lat="50.500945"><ele>237.5</ele></trkpt>
<trkpt lon="5.342544" lat="50.501039"><ele>236.75</ele></trkpt>
<trkpt lon="5.342620" lat="50.501075"><ele>236.75</ele></trkpt>
<trkpt lon="5.344591" lat="50.501957"><ele>232.25</ele></trkpt>
<trkpt lon="5.344672" lat="50.501996"><ele>232.25</ele></trkpt>
<trkpt lon="5.344061" lat="50.502799"><ele>222.0</ele></trkpt>
<trkpt lon="5.343613" lat="50.503173"><ele>215.5</ele></trkpt>
<trkpt lon="5.343368" lat="50.503447"><ele>212.25</ele></trkpt>
<trkpt lon="5.343268" lat="50.503573"><ele>211.0</ele></trkpt>
<trkpt lon="5.343159" lat="50.503828"><ele>210.5</ele></trkpt>
<trkpt lon="5.343106" lat="50.504008"><ele>210.25</ele></trkpt>
<trkpt lon="5.343080" lat="50.504428"><ele>210.75</ele></trkpt>
<trkpt lon="5.343091" lat="50.504484"><ele>211.25</ele></trkpt>
<trkpt lon="5.343132" lat="50.504540"><ele>211.75</ele></trkpt>
<trkpt lon="5.343217" lat="50.504609"><ele>212.0</ele></trkpt>
<trkpt lon="5.343446" lat="50.504774"><ele>212.25</ele></trkpt>
<trkpt lon="5.343707" lat="50.504986"><ele>214.5</ele></trkpt>
<trkpt lon="5.343814" lat="50.505141"><ele>217.75</ele></trkpt>
<trkpt lon="5.343890" lat="50.505274"><ele>220.75</ele></trkpt>
<trkpt lon="5.344205" lat="50.505518"><ele>222.75</ele></trkpt>
<trkpt lon="5.344395" lat="50.505658"><ele>224.5</ele></trkpt>
<trkpt lon="5.344562" lat="50.505809"><ele>225.75</ele></trkpt>
<trkpt lon="5.344607" lat="50.505880"><ele>226.25</ele></trkpt>
<trkpt lon="5.344637" lat="50.505959"><ele>226.75</ele></trkpt>
<trkpt lon="5.344663" lat="50.506102"><ele>228.25</ele></trkpt>
<trkpt lon="5.344666" lat="50.506248"><ele>229.25</ele></trkpt>
<trkpt lon="5.344614" lat="50.506533"><ele>231.5</ele></trkpt>
<trkpt lon="5.344685" lat="50.506700"><ele>232.25</ele></trkpt>
<trkpt lon="5.344684" lat="50.506882"><ele>233.0</ele></trkpt>
<trkpt lon="5.344646" lat="50.506963"><ele>233.5</ele></trkpt>
<trkpt lon="5.344617" lat="50.507126"><ele>234.75</ele></trkpt>
<trkpt lon="5.344573" lat="50.507523"><ele>236.75</ele></trkpt>
<trkpt lon="5.344420" lat="50.508208"><ele>234.75</ele></trkpt>
<trkpt lon="5.344416" lat="50.508354"><ele>233.75</ele></trkpt>
<trkpt lon="5.344497" lat="50.508874"><ele>229.25</ele></trkpt>
<trkpt lon="5.344514" lat="50.509230"><ele>225.75</ele></trkpt>
<trkpt lon="5.344471" lat="50.509700"><ele>224.0</ele></trkpt>
<trkpt lon="5.344531" lat="50.509744"><ele>223.75</ele></trkpt>
<trkpt lon="5.345151" lat="50.510048"><ele>219.75</ele></trkpt>
<trkpt lon="5.345866" lat="50.510341"><ele>213.75</ele></trkpt>
<trkpt lon="5.346731" lat="50.510730"><ele>209.5</ele></trkpt>
<trkpt lon="5.346944" lat="50.510769"><ele>208.5</ele></trkpt>
<trkpt lon="5.347496" lat="50.510854"><ele>205.0</ele></trkpt>
<trkpt lon="5.348109" lat="50.510959"><ele>200.25</ele></trkpt>
<trkpt lon="5.348517" lat="50.511000"><ele>195.5</ele></trkpt>
<trkpt lon="5.348656" lat="50.510946"><ele>193.25</ele></trkpt>
<trkpt lon="5.349075" lat="50.511003"><ele>190.25</ele></trkpt>
<trkpt lon="5.349334" lat="50.511095"><ele>186.75</ele></trkpt>
<trkpt lon="5.349483" lat="50.511165"><ele>184.5</ele></trkpt>
<trkpt lon="5.349625" lat="50.511296"><ele>183.25</ele></trkpt>
<trkpt lon="5.349691" lat="50.511439"><ele>182.75</ele></trkpt>
<trkpt lon="5.349728" lat="50.511644"><ele>181.0</ele></trkpt>
<trkpt lon="5.349761" lat="50.511705"><ele>181.25</ele></trkpt>
<trkpt lon="5.349770" lat="50.511717"><ele>181.25</ele></trkpt>
<trkpt lon="5.349571" lat="50.511843"><ele>181.75</ele></trkpt>
<trkpt lon="5.349405" lat="50.511896"><ele>181.75</ele></trkpt>
<trkpt lon="5.349198" lat="50.512212"><ele>181.0</ele></trkpt>
<trkpt lon="5.349146" lat="50.512368"><ele>180.75</ele></trkpt>
<trkpt lon="5.349120" lat="50.512409"><ele>180.75</ele></trkpt>
<trkpt lon="5.349072" lat="50.512485"><ele>180.5</ele></trkpt>
<trkpt lon="5.348843" lat="50.512844"><ele>180.75</ele></trkpt>
<trkpt lon="5.348838" lat="50.512928"><ele>180.75</ele></trkpt>
<trkpt lon="5.348777" lat="50.513121"><ele>180.75</ele></trkpt>
<trkpt lon="5.348463" lat="50.513269"><ele>180.75</ele></trkpt>
<trkpt lon="5.347886" lat="50.513463"><ele>185.5</ele></trkpt>
<trkpt lon="5.347647" lat="50.513457"><ele>183.5</ele></trkpt>
<trkpt lon="5.347522" lat="50.513489"><ele>182.5</ele></trkpt>
<trkpt lon="5.347386" lat="50.513595"><ele>182.5</ele></trkpt>
<trkpt lon="5.347416" lat="50.513709"><ele>184.75</ele></trkpt>
<trkpt lon="5.347588" lat="50.513919"><ele>193.25</ele></trkpt>
<trkpt lon="5.347590" lat="50.513966"><ele>193.75</ele></trkpt>
<trkpt lon="5.347587" lat="50.514167"><ele>196.5</ele></trkpt>
<trkpt lon="5.347656" lat="50.514573"><ele>203.0</ele></trkpt>
<trkpt lon="5.347768" lat="50.514932"><ele>211.0</ele></trkpt>
<trkpt lon="5.347731" lat="50.515243"><ele>215.5</ele></trkpt>
<trkpt lon="5.347869" lat="50.515555"><ele>222.25</ele></trkpt>
<trkpt lon="5.347949" lat="50.515713"><ele>224.25</ele></trkpt>
<trkpt lon="5.347967" lat="50.516270"><ele>228.25</ele></trkpt>
<trkpt lon="5.347792" lat="50.516776"><ele>230.75</ele></trkpt>
<trkpt lon="5.347426" lat="50.517637"><ele>233.0</ele></trkpt>
<trkpt lon="5.347275" lat="50.518259"><ele>233.0</ele></trkpt>
<trkpt lon="5.347150" lat="50.518674"><ele>231.75</ele></trkpt>
<trkpt lon="5.347203" lat="50.519398"><ele>230.0</ele></trkpt>
<trkpt lon="5.347134" lat="50.519675"><ele>228.75</ele></trkpt>
<trkpt lon="5.347687" lat="50.519898"><ele>229.0</ele></trkpt>
<trkpt lon="5.348059" lat="50.520102"><ele>228.5</ele></trkpt>
<trkpt lon="5.347939" lat="50.520349"><ele>227.0</ele></trkpt>
<trkpt lon="5.347677" lat="50.520814"><ele>223.25</ele></trkpt>
<trkpt lon="5.347539" lat="50.521411"><ele>218.0</ele></trkpt>
<trkpt lon="5.347432" lat="50.522066"><ele>213.5</ele></trkpt>
<trkpt lon="5.347440" lat="50.522116"><ele>213.25</ele></trkpt>
<trkpt lon="5.347453" lat="50.522202"><ele>212.75</ele></trkpt>
<trkpt lon="5.347665" lat="50.522872"><ele>212.25</ele></trkpt>
<trkpt lon="5.347886" lat="50.523252"><ele>213.5</ele></trkpt>
<trkpt lon="5.347080" lat="50.524307"><ele>213.25</ele></trkpt>
<trkpt lon="5.346883" lat="50.524553"><ele>212.25</ele></trkpt>
<trkpt lon="5.346638" lat="50.525123"><ele>209.5</ele></trkpt>
<trkpt lon="5.346705" lat="50.525604"><ele>207.5</ele></trkpt>
<trkpt lon="5.346699" lat="50.526056"><ele>206.75</ele></trkpt>
<trkpt lon="5.346595" lat="50.526227"><ele>208.25</ele></trkpt>
<trkpt lon="5.346546" lat="50.526393"><ele>210.5</ele></trkpt>
<trkpt lon="5.345988" lat="50.526780"><ele>212.75</ele></trkpt>
<trkpt lon="5.345710" lat="50.526958"><ele>212.5</ele></trkpt>
<trkpt lon="5.345205" lat="50.527352"><ele>213.0</ele></trkpt>
<trkpt lon="5.345122" lat="50.527493"><ele>212.75</ele></trkpt>
<trkpt lon="5.344658" lat="50.528123"><ele>214.25</ele></trkpt>
<trkpt lon="5.344545" lat="50.528405"><ele>216.25</ele></trkpt>
<trkpt lon="5.344424" lat="50.528813"><ele>217.5</ele></trkpt>
<trkpt lon="5.344428" lat="50.529039"><ele>217.25</ele></trkpt>
<trkpt lon="5.344514" lat="50.529688"><ele>212.25</ele></trkpt>
<trkpt lon="5.344518" lat="50.529997"><ele>210.25</ele></trkpt>
<trkpt lon="5.344487" lat="50.530109"><ele>208.75</ele></trkpt>
<trkpt lon="5.344393" lat="50.530240"><ele>207.0</ele></trkpt>
<trkpt lon="5.344343" lat="50.530383"><ele>204.5</ele></trkpt>
<trkpt lon="5.344343" lat="50.530469"><ele>203.0</ele></trkpt>
<trkpt lon="5.344415" lat="50.530712"><ele>200.0</ele></trkpt>
<trkpt lon="5.344478" lat="50.530829"><ele>199.0</ele></trkpt>
<trkpt lon="5.344491" lat="50.531066"><ele>195.0</ele></trkpt>
<trkpt lon="5.344559" lat="50.531215"><ele>193.0</ele></trkpt>
<trkpt lon="5.344604" lat="50.531332"><ele>191.5</ele></trkpt>
<trkpt lon="5.344604" lat="50.531478"><ele>189.25</ele></trkpt>
<trkpt lon="5.344661" lat="50.531640"><ele>187.0</ele></trkpt>
<trkpt lon="5.344730" lat="50.531748"><ele>186.0</ele></trkpt>
<trkpt lon="5.345074" lat="50.532049"><ele>184.0</ele></trkpt>
<trkpt lon="5.345206" lat="50.532244"><ele>182.5</ele></trkpt>
<trkpt lon="5.345346" lat="50.532424"><ele>181.0</ele></trkpt>
<trkpt lon="5.345414" lat="50.532556"><ele>180.0</ele></trkpt>
<trkpt lon="5.345490" lat="50.532810"><ele>178.75</ele></trkpt>
<trkpt lon="5.345573" lat="50.532922"><ele>178.5</ele></trkpt>
<trkpt lon="5.345692" lat="50.533053"><ele>178.0</ele></trkpt>
<trkpt lon="5.346429" lat="50.533767"><ele>162.75</ele></trkpt>
<trkpt lon="5.346730" lat="50.533953"><ele>156.5</ele></trkpt>
<trkpt lon="5.347045" lat="50.534098"><ele>151.5</ele></trkpt>
<trkpt lon="5.347391" lat="50.534190"><ele>149.0</ele></trkpt>
<trkpt lon="5.348129" lat="50.534244"><ele>142.0</ele></trkpt>
<trkpt lon="5.348520" lat="50.534290"><ele>139.25</ele></trkpt>
<trkpt lon="5.348997" lat="50.534391"><ele>133.5</ele></trkpt>
<trkpt lon="5.349088" lat="50.534497"><ele>129.5</ele></trkpt>
<trkpt lon="5.349170" lat="50.534687"><ele>124.75</ele></trkpt>
<trkpt lon="5.349172" lat="50.534893"><ele>121.5</ele></trkpt>
<trkpt lon="5.349170" lat="50.535108"><ele>118.25</ele></trkpt>
<trkpt lon="5.349129" lat="50.535234"><ele>116.25</ele></trkpt>
<trkpt lon="5.349087" lat="50.535299"><ele>115.25</ele></trkpt>
<trkpt lon="5.349279" lat="50.535827"><ele>108.25</ele></trkpt>
<trkpt lon="5.349251" lat="50.535894"><ele>107.5</ele></trkpt>
<trkpt lon="5.349392" lat="50.536126"><ele>105.5</ele></trkpt>
<trkpt lon="5.349842" lat="50.536784"><ele>101.25</ele></trkpt>
<trkpt lon="5.349876" lat="50.536835"><ele>101.0</ele></trkpt>
<trkpt lon="5.349993" lat="50.537014"><ele>101.0</ele></trkpt>
<trkpt lon="5.350050" lat="50.537100"><ele>101.5</ele></trkpt>
<trkpt lon="5.350125" lat="50.537218"><ele>102.25</ele></trkpt>
<trkpt lon="5.350191" lat="50.537323"><ele>102.75</ele></trkpt>
<trkpt lon="5.350270" lat="50.537457"><ele>103.75</ele></trkpt>
<trkpt lon="5.350081" lat="50.537593"><ele>104.0</ele></trkpt>
<trkpt lon="5.350131" lat="50.537636"><ele>105.75</ele></trkpt>
<trkpt lon="5.350191" lat="50.537636"><ele>106.75</ele></trkpt>
<trkpt lon="5.350321" lat="50.537562"><ele>106.5</ele></trkpt>
<trkpt lon="5.350583" lat="50.537520"><ele>109.0</ele></trkpt>
<trkpt lon="5.350917" lat="50.537603"><ele>116.25</ele></trkpt>
<trkpt lon="5.351469" lat="50.537779"><ele>121.25</ele></trkpt>
<trkpt lon="5.352029" lat="50.537991"><ele>132.75</ele></trkpt>
<trkpt lon="5.352360" lat="50.538054"><ele>138.0</ele></trkpt>
<trkpt lon="5.352651" lat="50.538070"><ele>143.75</ele></trkpt>
<trkpt lon="5.353174" lat="50.537995"><ele>151.75</ele></trkpt>
<trkpt lon="5.353544" lat="50.537969"><ele>155.25</ele></trkpt>
<trkpt lon="5.353723" lat="50.538046"><ele>158.0</ele></trkpt>
<trkpt lon="5.353866" lat="50.538096"><ele>160.25</ele></trkpt>
<trkpt lon="5.353973" lat="50.538165"><ele>162.5</ele></trkpt>
<trkpt lon="5.354095" lat="50.538292"><ele>166.25</ele></trkpt>
<trkpt lon="5.354274" lat="50.538379"><ele>170.25</ele></trkpt>
<trkpt lon="5.354367" lat="50.538447"><ele>172.5</ele></trkpt>
<trkpt lon="5.354489" lat="50.538456"><ele>174.0</ele></trkpt>
<trkpt lon="5.354668" lat="50.538424"><ele>175.0</ele></trkpt>
<trkpt lon="5.354816" lat="50.538455"><ele>176.75</ele></trkpt>
<trkpt lon="5.355284" lat="50.538638"><ele>182.25</ele></trkpt>
<trkpt lon="5.355594" lat="50.538784"><ele>183.75</ele></trkpt>
<trkpt lon="5.356135" lat="50.538971"><ele>185.75</ele></trkpt>
<trkpt lon="5.356661" lat="50.539196"><ele>187.25</ele></trkpt>
<trkpt lon="5.357573" lat="50.539544"><ele>190.75</ele></trkpt>
<trkpt lon="5.358049" lat="50.539698"><ele>191.5</ele></trkpt>
<trkpt lon="5.359290" lat="50.540242"><ele>198.0</ele></trkpt>
<trkpt lon="5.360216" lat="50.540649"><ele>199.75</ele></trkpt>
<trkpt lon="5.362681" lat="50.541567"><ele>200.5</ele></trkpt>
<trkpt lon="5.363252" lat="50.541772"><ele>201.75</ele></trkpt>
<trkpt lon="5.364281" lat="50.542082"><ele>203.5</ele></trkpt>
<trkpt lon="5.365071" lat="50.542455"><ele>204.5</ele></trkpt>
<trkpt lon="5.365921" lat="50.542764"><ele>204.5</ele></trkpt>
<trkpt lon="5.366671" lat="50.542944"><ele>201.75</ele></trkpt>
<trkpt lon="5.367181" lat="50.543215"><ele>203.0</ele></trkpt>
<trkpt lon="5.367095" lat="50.543276"><ele>203.75</ele></trkpt>
<trkpt lon="5.366948" lat="50.543411"><ele>205.25</ele></trkpt>
<trkpt lon="5.366760" lat="50.543569"><ele>206.5</ele></trkpt>
<trkpt lon="5.366527" lat="50.543693"><ele>207.25</ele></trkpt>
<trkpt lon="5.365585" lat="50.544703"><ele>209.75</ele></trkpt>
<trkpt lon="5.365346" lat="50.545007"><ele>209.75</ele></trkpt>
<trkpt lon="5.364600" lat="50.545771"><ele>205.25</ele></trkpt>
<trkpt lon="5.364469" lat="50.545862"><ele>204.75</ele></trkpt>
<trkpt lon="5.364231" lat="50.546112"><ele>203.0</ele></trkpt>
<trkpt lon="5.363581" lat="50.546746"><ele>200.25</ele></trkpt>
<trkpt lon="5.363313" lat="50.547048"><ele>197.0</ele></trkpt>
<trkpt lon="5.362857" lat="50.547486"><ele>191.25</ele></trkpt>
<trkpt lon="5.362675" lat="50.547628"><ele>188.75</ele></trkpt>
<trkpt lon="5.362487" lat="50.547698"><ele>187.25</ele></trkpt>
<trkpt lon="5.362082" lat="50.547769"><ele>185.5</ele></trkpt>
<trkpt lon="5.361991" lat="50.547872"><ele>185.25</ele></trkpt>
<trkpt lon="5.361895" lat="50.548116"><ele>185.0</ele></trkpt>
<trkpt lon="5.361887" lat="50.548178"><ele>184.75</ele></trkpt>
<trkpt lon="5.361875" lat="50.548264"><ele>184.25</ele></trkpt>
<trkpt lon="5.361885" lat="50.548389"><ele>183.25</ele></trkpt>
<trkpt lon="5.361951" lat="50.548585"><ele>181.25</ele></trkpt>
<trkpt lon="5.361976" lat="50.548759"><ele>179.75</ele></trkpt>
<trkpt lon="5.361961" lat="50.548898"><ele>178.75</ele></trkpt>
<trkpt lon="5.361840" lat="50.549180"><ele>175.75</ele></trkpt>
<trkpt lon="5.361885" lat="50.549345"><ele>174.5</ele></trkpt>
<trkpt lon="5.361961" lat="50.549512"><ele>173.25</ele></trkpt>
<trkpt lon="5.362047" lat="50.549837"><ele>169.5</ele></trkpt>
<trkpt lon="5.362139" lat="50.549946"><ele>168.0</ele></trkpt>
<trkpt lon="5.362184" lat="50.550155"><ele>164.75</ele></trkpt>
<trkpt lon="5.362184" lat="50.550435"><ele>160.25</ele></trkpt>
<trkpt lon="5.362108" lat="50.550712"><ele>155.0</ele></trkpt>
<trkpt lon="5.361992" lat="50.550899"><ele>152.25</ele></trkpt>
<trkpt lon="5.361880" lat="50.550976"><ele>150.75</ele></trkpt>
<trkpt lon="5.361784" lat="50.551030"><ele>149.25</ele></trkpt>
<trkpt lon="5.361749" lat="50.551130"><ele>146.5</ele></trkpt>
<trkpt lon="5.361745" lat="50.551148"><ele>145.0</ele></trkpt>
  </trkseg></trk></gpx>
