<?xml version="1.0" encoding="UTF-8"?>
<gpx version="1.1" creator="compostel-brouter" xmlns="http://www.topografix.com/GPX/1/1">
  <metadata><name>BE-06-Dinant</name></metadata>
  <trk><name>BE-06-Dinant</name><trkseg>
<trkpt lon="4.878135" lat="50.326253"><ele>89.5</ele></trkpt>
<trkpt lon="4.878039" lat="50.326226"><ele>89.75</ele></trkpt>
<trkpt lon="4.877462" lat="50.326062"><ele>89.5</ele></trkpt>
<trkpt lon="4.877527" lat="50.325967"><ele>89.5</ele></trkpt>
<trkpt lon="4.877627" lat="50.325903"><ele>89.5</ele></trkpt>
<trkpt lon="4.877616" lat="50.325881"><ele>89.5</ele></trkpt>
<trkpt lon="4.877609" lat="50.325865"><ele>89.25</ele></trkpt>
<trkpt lon="4.877569" lat="50.325773"><ele>89.0</ele></trkpt>
<trkpt lon="4.877525" lat="50.325682"><ele>88.75</ele></trkpt>
<trkpt lon="4.877286" lat="50.325157"><ele>88.0</ele></trkpt>
<trkpt lon="4.877317" lat="50.325071"><ele>88.0</ele></trkpt>
<trkpt lon="4.877326" lat="50.325047"><ele>88.0</ele></trkpt>
<trkpt lon="4.877430" lat="50.324969"><ele>87.75</ele></trkpt>
<trkpt lon="4.877447" lat="50.324956"><ele>87.75</ele></trkpt>
<trkpt lon="4.877237" lat="50.324788"><ele>90.5</ele></trkpt>
<trkpt lon="4.877037" lat="50.324750"><ele>89.0</ele></trkpt>
<trkpt lon="4.877006" lat="50.324728"><ele>88.5</ele></trkpt>
<trkpt lon="4.876999" lat="50.324697"><ele>88.5</ele></trkpt>
<trkpt lon="4.877465" lat="50.323691"><ele>89.75</ele></trkpt>
<trkpt lon="4.877532" lat="50.323610"><ele>89.75</ele></trkpt>
<trkpt lon="4.877567" lat="50.323601"><ele>89.75</ele></trkpt>
<trkpt lon="4.877605" lat="50.323542"><ele>89.75</ele></trkpt>
<trkpt lon="4.877850" lat="50.323606"><ele>89.75</ele></trkpt>
<trkpt lon="4.877996" lat="50.323636"><ele>89.25</ele></trkpt>
<trkpt lon="4.878137" lat="50.323096"><ele>90.25</ele></trkpt>
<trkpt lon="4.878142" lat="50.323008"><ele>90.25</ele></trkpt>
<trkpt lon="4.878122" lat="50.322961"><ele>90.25</ele></trkpt>
<trkpt lon="4.877990" lat="50.322845"><ele>90.5</ele></trkpt>
<trkpt lon="4.877945" lat="50.322823"><ele>90.5</ele></trkpt>
<trkpt lon="4.877802" lat="50.322776"><ele>90.0</ele></trkpt>
<trkpt lon="4.878132" lat="50.321879"><ele>89.25</ele></trkpt>
<trkpt lon="4.878139" lat="50.321840"><ele>89.25</ele></trkpt>
<trkpt lon="4.878160" lat="50.321727"><ele>89.25</ele></trkpt>
<trkpt lon="4.877986" lat="50.321274"><ele>88.5</ele></trkpt>
<trkpt lon="4.877838" lat="50.320941"><ele>88.75</ele></trkpt>
<trkpt lon="4.877797" lat="50.320836"><ele>89.0</ele></trkpt>
<trkpt lon="4.877753" lat="50.320759"><ele>88.75</ele></trkpt>
<trkpt lon="4.877599" lat="50.320415"><ele>88.5</ele></trkpt>
<trkpt lon="4.877510" lat="50.320095"><ele>90.75</ele></trkpt>
<trkpt lon="4.877561" lat="50.319241"><ele>91.5</ele></trkpt>
<trkpt lon="4.877609" lat="50.318799"><ele>90.0</ele></trkpt>
<trkpt lon="4.877728" lat="50.317980"><ele>88.5</ele></trkpt>
<trkpt lon="4.877759" lat="50.317710"><ele>88.75</ele></trkpt>
<trkpt lon="4.877852" lat="50.317283"><ele>88.25</ele></trkpt>
<trkpt lon="4.877885" lat="50.317182"><ele>88.25</ele></trkpt>
<trkpt lon="4.878047" lat="50.317168"><ele>88.75</ele></trkpt>
<trkpt lon="4.878195" lat="50.316832"><ele>89.0</ele></trkpt>
<trkpt lon="4.878438" lat="50.316318"><ele>89.0</ele></trkpt>
<trkpt lon="4.878632" lat="50.315904"><ele>89.0</ele></trkpt>
<trkpt lon="4.878780" lat="50.315665"><ele>89.0</ele></trkpt>
<trkpt lon="4.878952" lat="50.315411"><ele>89.0</ele></trkpt>
<trkpt lon="4.879274" lat="50.315045"><ele>89.0</ele></trkpt>
<trkpt lon="4.879549" lat="50.314754"><ele>88.75</ele></trkpt>
<trkpt lon="4.880329" lat="50.313930"><ele>88.75</ele></trkpt>
<trkpt lon="4.880335" lat="50.313894"><ele>88.75</ele></trkpt>
<trkpt lon="4.880208" lat="50.313830"><ele>89.0</ele></trkpt>
<trkpt lon="4.880181" lat="50.313771"><ele>89.0</ele></trkpt>
<trkpt lon="4.880189" lat="50.313673"><ele>89.0</ele></trkpt>
<trkpt lon="4.880541" lat="50.313363"><ele>88.75</ele></trkpt>
<trkpt lon="4.881017" lat="50.312978"><ele>88.0</ele></trkpt>
<trkpt lon="4.881316" lat="50.312762"><ele>88.25</ele></trkpt>
<trkpt lon="4.881687" lat="50.312513"><ele>89.0</ele></trkpt>
<trkpt lon="4.882415" lat="50.312065"><ele>88.25</ele></trkpt>
<trkpt lon="4.882856" lat="50.311825"><ele>88.25</ele></trkpt>
<trkpt lon="4.883604" lat="50.311442"><ele>88.0</ele></trkpt>
<trkpt lon="4.883901" lat="50.311280"><ele>88.25</ele></trkpt>
<trkpt lon="4.884273" lat="50.311053"><ele>88.5</ele></trkpt>
<trkpt lon="4.884326" lat="50.311028"><ele>88.5</ele></trkpt>
<trkpt lon="4.884956" lat="50.310625"><ele>88.0</ele></trkpt>
<trkpt lon="4.885190" lat="50.310484"><ele>88.25</ele></trkpt>
<trkpt lon="4.885553" lat="50.310295"><ele>88.0</ele></trkpt>
<trkpt lon="4.886136" lat="50.310027"><ele>88.0</ele></trkpt>
<trkpt lon="4.886753" lat="50.309765"><ele>89.0</ele></trkpt>
<trkpt lon="4.887200" lat="50.309551"><ele>88.75</ele></trkpt>
<trkpt lon="4.887498" lat="50.309394"><ele>88.75</ele></trkpt>
<trkpt lon="4.887749" lat="50.309255"><ele>88.75</ele></trkpt>
<trkpt lon="4.887976" lat="50.309107"><ele>88.5</ele></trkpt>
<trkpt lon="4.888331" lat="50.308859"><ele>88.75</ele></trkpt>
<trkpt lon="4.888481" lat="50.308768"><ele>88.25</ele></trkpt>
<trkpt lon="4.888694" lat="50.308655"><ele>88.25</ele></trkpt>
<trkpt lon="4.889349" lat="50.308338"><ele>89.0</ele></trkpt>
<trkpt lon="4.889883" lat="50.308045"><ele>88.75</ele></trkpt>
<trkpt lon="4.890107" lat="50.307899"><ele>89.0</ele></trkpt>
<trkpt lon="4.890396" lat="50.307695"><ele>88.75</ele></trkpt>
<trkpt lon="4.890737" lat="50.307424"><ele>88.5</ele></trkpt>
<trkpt lon="4.890996" lat="50.307201"><ele>88.5</ele></trkpt>
<trkpt lon="4.891166" lat="50.307288"><ele>89.25</ele></trkpt>
<trkpt lon="4.891271" lat="50.307342"><ele>89.75</ele></trkpt>
<trkpt lon="4.891423" lat="50.307319"><ele>90.0</ele></trkpt>
<trkpt lon="4.891524" lat="50.307268"><ele>90.25</ele></trkpt>
<trkpt lon="4.891693" lat="50.306974"><ele>90.25</ele></trkpt>
<trkpt lon="4.891764" lat="50.306914"><ele>90.75</ele></trkpt>
<trkpt lon="4.891979" lat="50.306723"><ele>90.0</ele></trkpt>
<trkpt lon="4.892099" lat="50.306664"><ele>90.0</ele></trkpt>
<trkpt lon="4.892267" lat="50.306583"><ele>91.5</ele></trkpt>
<trkpt lon="4.892591" lat="50.306410"><ele>93.0</ele></trkpt>
<trkpt lon="4.892910" lat="50.306087"><ele>91.0</ele></trkpt>
<trkpt lon="4.893165" lat="50.305849"><ele>90.75</ele></trkpt>
<trkpt lon="4.893495" lat="50.305623"><ele>92.0</ele></trkpt>
<trkpt lon="4.894138" lat="50.305372"><ele>95.25</ele></trkpt>
<trkpt lon="4.894422" lat="50.305279"><ele>90.0</ele></trkpt>
<trkpt lon="4.895188" lat="50.304975"><ele>89.75</ele></trkpt>
<trkpt lon="4.895627" lat="50.304767"><ele>90.5</ele></trkpt>
<trkpt lon="4.895846" lat="50.304640"><ele>90.25</ele></trkpt>
<trkpt lon="4.896378" lat="50.304294"><ele>89.75</ele></trkpt>
<trkpt lon="4.896777" lat="50.304016"><ele>89.75</ele></trkpt>
<trkpt lon="4.896912" lat="50.303917"><ele>89.75</ele></trkpt>
<trkpt lon="4.896995" lat="50.303845"><ele>89.75</ele></trkpt>
<trkpt lon="4.897017" lat="50.303825"><ele>89.75</ele></trkpt>
<trkpt lon="4.897166" lat="50.303698"><ele>89.75</ele></trkpt>
<trkpt lon="4.897344" lat="50.303519"><ele>90.0</ele></trkpt>
<trkpt lon="4.897439" lat="50.303420"><ele>90.0</ele></trkpt>
<trkpt lon="4.897598" lat="50.303255"><ele>90.0</ele></trkpt>
<trkpt lon="4.897607" lat="50.303247"><ele>90.0</ele></trkpt>
<trkpt lon="4.897913" lat="50.302928"><ele>91.0</ele></trkpt>
<trkpt lon="4.898036" lat="50.302821"><ele>91.0</ele></trkpt>
<trkpt lon="4.898084" lat="50.302772"><ele>91.0</ele></trkpt>
<trkpt lon="4.898561" lat="50.302245"><ele>90.0</ele></trkpt>
<trkpt lon="4.898846" lat="50.301928"><ele>90.0</ele></trkpt>
<trkpt lon="4.899316" lat="50.301282"><ele>90.5</ele></trkpt>
<trkpt lon="4.899877" lat="50.299942"><ele>90.25</ele></trkpt>
<trkpt lon="4.899879" lat="50.299898"><ele>90.25</ele></trkpt>
<trkpt lon="4.899524" lat="50.299868"><ele>88.75</ele></trkpt>
<trkpt lon="4.899427" lat="50.299858"><ele>88.25</ele></trkpt>
<trkpt lon="4.899478" lat="50.299631"><ele>88.0</ele></trkpt>
<trkpt lon="4.899506" lat="50.299402"><ele>88.25</ele></trkpt>
<trkpt lon="4.899519" lat="50.299126"><ele>88.5</ele></trkpt>
<trkpt lon="4.899506" lat="50.298876"><ele>88.25</ele></trkpt>
<trkpt lon="4.899473" lat="50.298639"><ele>89.0</ele></trkpt>
<trkpt lon="4.899422" lat="50.298387"><ele>88.75</ele></trkpt>
<trkpt lon="4.899322" lat="50.298074"><ele>89.0</ele></trkpt>
<trkpt lon="4.899231" lat="50.297863"><ele>89.0</ele></trkpt>
<trkpt lon="4.898977" lat="50.297376"><ele>89.0</ele></trkpt>
<trkpt lon="4.898858" lat="50.297205"><ele>88.75</ele></trkpt>
<trkpt lon="4.898791" lat="50.297085"><ele>89.25</ele></trkpt>
<trkpt lon="4.898522" lat="50.296707"><ele>88.75</ele></trkpt>
<trkpt lon="4.898342" lat="50.296483"><ele>89.0</ele></trkpt>
<trkpt lon="4.898267" lat="50.296373"><ele>89.5</ele></trkpt>
<trkpt lon="4.898224" lat="50.296261"><ele>89.5</ele></trkpt>
<trkpt lon="4.898222" lat="50.296030"><ele>90.75</ele></trkpt>
<trkpt lon="4.898201" lat="50.295965"><ele>91.0</ele></trkpt>
<trkpt lon="4.898137" lat="50.295869"><ele>91.25</ele></trkpt>
<trkpt lon="4.898048" lat="50.295757"><ele>91.0</ele></trkpt>
<trkpt lon="4.897973" lat="50.295682"><ele>91.0</ele></trkpt>
<trkpt lon="4.897750" lat="50.295523"><ele>90.75</ele></trkpt>
<trkpt lon="4.897647" lat="50.295410"><ele>90.5</ele></trkpt>
<trkpt lon="4.897354" lat="50.294883"><ele>90.5</ele></trkpt>
<trkpt lon="4.897192" lat="50.294631"><ele>90.5</ele></trkpt>
<trkpt lon="4.896447" lat="50.293436"><ele>89.75</ele></trkpt>
<trkpt lon="4.896318" lat="50.293226"><ele>90.0</ele></trkpt>
<trkpt lon="4.896313" lat="50.293212"><ele>90.0</ele></trkpt>
<trkpt lon="4.896331" lat="50.293177"><ele>90.0</ele></trkpt>
<trkpt lon="4.896249" lat="50.293085"><ele>89.75</ele></trkpt>
<trkpt lon="4.896086" lat="50.292863"><ele>89.5</ele></trkpt>
<trkpt lon="4.895372" lat="50.291671"><ele>89.75</ele></trkpt>
<trkpt lon="4.894095" lat="50.289757"><ele>89.5</ele></trkpt>
<trkpt lon="4.893870" lat="50.289137"><ele>90.0</ele></trkpt>
<trkpt lon="4.893718" lat="50.288684"><ele>90.25</ele></trkpt>
<trkpt lon="4.893630" lat="50.288104"><ele>91.0</ele></trkpt>
<trkpt lon="4.893538" lat="50.286893"><ele>91.5</ele></trkpt>
<trkpt lon="4.893541" lat="50.286492"><ele>91.5</ele></trkpt>
<trkpt lon="4.893631" lat="50.285681"><ele>91.5</ele></trkpt>
<trkpt lon="4.893778" lat="50.284932"><ele>91.0</ele></trkpt>
<trkpt lon="4.893767" lat="50.284695"><ele>91.5</ele></trkpt>
<trkpt lon="4.894136" lat="50.282765"><ele>90.75</ele></trkpt>
<trkpt lon="4.894294" lat="50.282241"><ele>91.0</ele></trkpt>
<trkpt lon="4.894426" lat="50.281733"><ele>90.75</ele></trkpt>
<trkpt lon="4.894468" lat="50.281654"><ele>90.75</ele></trkpt>
<trkpt lon="4.894651" lat="50.281421"><ele>90.75</ele></trkpt>
<trkpt lon="4.895048" lat="50.280406"><ele>91.0</ele></trkpt>
<trkpt lon="4.895197" lat="50.280125"><ele>90.75</ele></trkpt>
<trkpt lon="4.895437" lat="50.279895"><ele>90.5</ele></trkpt>
<trkpt lon="4.895623" lat="50.279762"><ele>91.0</ele></trkpt>
<trkpt lon="4.895775" lat="50.279595"><ele>90.5</ele></trkpt>
<trkpt lon="4.896028" lat="50.279268"><ele>90.75</ele></trkpt>
<trkpt lon="4.896416" lat="50.278717"><ele>90.5</ele></trkpt>
<trkpt lon="4.896595" lat="50.278482"><ele>91.0</ele></trkpt>
<trkpt lon="4.897039" lat="50.277865"><ele>92.75</ele></trkpt>
<trkpt lon="4.897177" lat="50.277663"><ele>92.75</ele></trkpt>
<trkpt lon="4.897250" lat="50.277601"><ele>93.0</ele></trkpt>
<trkpt lon="4.897344" lat="50.277545"><ele>93.5</ele></trkpt>
<trkpt lon="4.897451" lat="50.277535"><ele>94.0</ele></trkpt>
<trkpt lon="4.897468" lat="50.277135"><ele>92.5</ele></trkpt>
<trkpt lon="4.897514" lat="50.277107"><ele>92.5</ele></trkpt>
<trkpt lon="4.897549" lat="50.276916"><ele>92.0</ele></trkpt>
<trkpt lon="4.897602" lat="50.276728"><ele>91.75</ele></trkpt>
<trkpt lon="4.897580" lat="50.276697"><ele>91.75</ele></trkpt>
<trkpt lon="4.897681" lat="50.276435"><ele>91.5</ele></trkpt>
<trkpt lon="4.897726" lat="50.276418"><ele>91.5</ele></trkpt>
<trkpt lon="4.897879" lat="50.276145"><ele>91.25</ele></trkpt>
<trkpt lon="4.897872" lat="50.276103"><ele>90.75</ele></trkpt>
<trkpt lon="4.898129" lat="50.275808"><ele>91.0</ele></trkpt>
<trkpt lon="4.898369" lat="50.275556"><ele>90.5</ele></trkpt>
<trkpt lon="4.899117" lat="50.274844"><ele>92.75</ele></trkpt>
<trkpt lon="4.900291" lat="50.273877"><ele>91.25</ele></trkpt>
<trkpt lon="4.900915" lat="50.273430"><ele>91.0</ele></trkpt>
<trkpt lon="4.901251" lat="50.273130"><ele>91.25</ele></trkpt>
<trkpt lon="4.901726" lat="50.272674"><ele>90.75</ele></trkpt>
<trkpt lon="4.902373" lat="50.272018"><ele>91.25</ele></trkpt>
<trkpt lon="4.902949" lat="50.271399"><ele>92.25</ele></trkpt>
<trkpt lon="4.904510" lat="50.269552"><ele>91.0</ele></trkpt>
<trkpt lon="4.904856" lat="50.269200"><ele>91.5</ele></trkpt>
<trkpt lon="4.905492" lat="50.268510"><ele>91.25</ele></trkpt>
<trkpt lon="4.905758" lat="50.268189"><ele>91.5</ele></trkpt>
<trkpt lon="4.905733" lat="50.268159"><ele>91.25</ele></trkpt>
<trkpt lon="4.905910" lat="50.267881"><ele>91.5</ele></trkpt>
<trkpt lon="4.905951" lat="50.267831"><ele>91.25</ele></trkpt>
<trkpt lon="4.906138" lat="50.267530"><ele>91.25</ele></trkpt>
<trkpt lon="4.906168" lat="50.267486"><ele>91.25</ele></trkpt>
<trkpt lon="4.906187" lat="50.267456"><ele>91.25</ele></trkpt>
<trkpt lon="4.906203" lat="50.267431"><ele>91.25</ele></trkpt>
<trkpt lon="4.906232" lat="50.267437"><ele>91.5</ele></trkpt>
<trkpt lon="4.906513" lat="50.266825"><ele>92.0</ele></trkpt>
<trkpt lon="4.906530" lat="50.266749"><ele>91.75</ele></trkpt>
<trkpt lon="4.907054" lat="50.265591"><ele>91.75</ele></trkpt>
<trkpt lon="4.907279" lat="50.265097"><ele>91.5</ele></trkpt>
<trkpt lon="4.907836" lat="50.264015"><ele>91.5</ele></trkpt>
<trkpt lon="4.908034" lat="50.263663"><ele>91.75</ele></trkpt>
<trkpt lon="4.908169" lat="50.263469"><ele>91.5</ele></trkpt>
<trkpt lon="4.908688" lat="50.262884"><ele>91.5</ele></trkpt>
<trkpt lon="4.908812" lat="50.262758"><ele>91.5</ele></trkpt>
<trkpt lon="4.908940" lat="50.262647"><ele>91.5</ele></trkpt>
<trkpt lon="4.909197" lat="50.262468"><ele>91.75</ele></trkpt>
<trkpt lon="4.909501" lat="50.262249"><ele>91.25</ele></trkpt>
<trkpt lon="4.910374" lat="50.261741"><ele>91.25</ele></trkpt>
<trkpt lon="4.910809" lat="50.261452"><ele>91.0</ele></trkpt>
<trkpt lon="4.911472" lat="50.260943"><ele>92.0</ele></trkpt>
<trkpt lon="4.911610" lat="50.260813"><ele>91.75</ele></trkpt>
<trkpt lon="4.911675" lat="50.260845"><ele>92.0</ele></trkpt>
<trkpt lon="4.911714" lat="50.260861"><ele>92.25</ele></trkpt>
<trkpt lon="4.911795" lat="50.260895"><ele>92.75</ele></trkpt>
<trkpt lon="4.911892" lat="50.260936"><ele>93.25</ele></trkpt>
<trkpt lon="4.911904" lat="50.260942"><ele>93.25</ele></trkpt>
<trkpt lon="4.911966" lat="50.260877"><ele>93.25</ele></trkpt>
<trkpt lon="4.912052" lat="50.260785"><ele>93.75</ele></trkpt>
<trkpt lon="4.912076" lat="50.260738"><ele>94.0</ele></trkpt>
<trkpt lon="4.912069" lat="50.260676"><ele>94.0</ele></trkpt>
<trkpt lon="4.912047" lat="50.260630"><ele>93.75</ele></trkpt>
<trkpt lon="4.912001" lat="50.260590"><ele>93.75</ele></trkpt>
<trkpt lon="4.911940" lat="50.260559"><ele>93.75</ele></trkpt>
<trkpt lon="4.911809" lat="50.260527"><ele>93.75</ele></trkpt>
<trkpt lon="4.911818" lat="50.260509"><ele>93.75</ele></trkpt>
<trkpt lon="4.911838" lat="50.260472"><ele>93.75</ele></trkpt>
<trkpt lon="4.911857" lat="50.260435"><ele>93.75</ele></trkpt>
<trkpt lon="4.911863" lat="50.260416"><ele>93.75</ele></trkpt>
<trkpt lon="4.912022" lat="50.260450"><ele>93.75</ele></trkpt>
<trkpt lon="4.912073" lat="50.260442"><ele>93.75</ele></trkpt>
<trkpt lon="4.912118" lat="50.260426"><ele>93.75</ele></trkpt>
<trkpt lon="4.912139" lat="50.260396"><ele>93.75</ele></trkpt>
<trkpt lon="4.912253" lat="50.260088"><ele>92.5</ele></trkpt>
<trkpt lon="4.912269" lat="50.260090"><ele>92.75</ele></trkpt>
<trkpt lon="4.912306" lat="50.260096"><ele>92.75</ele></trkpt>
<trkpt lon="4.912332" lat="50.260019"><ele>92.5</ele></trkpt>
<trkpt lon="4.913035" lat="50.260149"><ele>94.0</ele></trkpt>
<trkpt lon="4.913056" lat="50.260100"><ele>94.0</ele></trkpt>
<trkpt lon="4.913105" lat="50.259979"><ele>94.0</ele></trkpt>
<trkpt lon="4.913187" lat="50.259760"><ele>94.0</ele></trkpt>
  </trkseg></trk></gpx>
