<?xml version="1.0" encoding="UTF-8"?>
<gpx version="1.1" creator="compostel-brouter" xmlns="http://www.topografix.com/GPX/1/1">
  <metadata><name>BE-05-Yvoir</name></metadata>
  <trk><name>BE-05-Yvoir</name><trkseg>
<trkpt lon="4.872010" lat="50.467410"><ele>83.25</ele></trkpt>
<trkpt lon="4.871815" lat="50.467494"><ele>83.75</ele></trkpt>
<trkpt lon="4.871708" lat="50.467430"><ele>83.5</ele></trkpt>
<trkpt lon="4.871573" lat="50.467349"><ele>83.25</ele></trkpt>
<trkpt lon="4.871493" lat="50.467300"><ele>83.25</ele></trkpt>
<trkpt lon="4.871365" lat="50.467222"><ele>82.75</ele></trkpt>
<trkpt lon="4.871233" lat="50.467143"><ele>83.0</ele></trkpt>
<trkpt lon="4.870951" lat="50.466972"><ele>83.0</ele></trkpt>
<trkpt lon="4.870749" lat="50.466850"><ele>83.0</ele></trkpt>
<trkpt lon="4.870615" lat="50.466769"><ele>83.0</ele></trkpt>
<trkpt lon="4.870506" lat="50.466713"><ele>83.0</ele></trkpt>
<trkpt lon="4.869864" lat="50.466323"><ele>83.0</ele></trkpt>
<trkpt lon="4.869113" lat="50.465872"><ele>84.0</ele></trkpt>
<trkpt lon="4.868984" lat="50.465794"><ele>84.5</ele></trkpt>
<trkpt lon="4.868879" lat="50.465732"><ele>85.0</ele></trkpt>
<trkpt lon="4.867496" lat="50.464901"><ele>85.0</ele></trkpt>
<trkpt lon="4.867440" lat="50.464867"><ele>85.0</ele></trkpt>
<trkpt lon="4.866765" lat="50.464469"><ele>84.0</ele></trkpt>
<trkpt lon="4.866695" lat="50.464426"><ele>84.0</ele></trkpt>
<trkpt lon="4.867119" lat="50.464218"><ele>84.0</ele></trkpt>
<trkpt lon="4.867071" lat="50.464178"><ele>84.0</ele></trkpt>
<trkpt lon="4.866988" lat="50.464110"><ele>84.0</ele></trkpt>
<trkpt lon="4.866764" lat="50.463925"><ele>83.75</ele></trkpt>
<trkpt lon="4.866849" lat="50.463832"><ele>84.0</ele></trkpt>
<trkpt lon="4.867097" lat="50.463608"><ele>84.0</ele></trkpt>
<trkpt lon="4.867125" lat="50.463504"><ele>84.0</ele></trkpt>
<trkpt lon="4.867143" lat="50.463452"><ele>84.0</ele></trkpt>
<trkpt lon="4.867155" lat="50.463411"><ele>84.0</ele></trkpt>
<trkpt lon="4.867362" lat="50.462794"><ele>84.0</ele></trkpt>
<trkpt lon="4.867370" lat="50.462768"><ele>83.75</ele></trkpt>
<trkpt lon="4.867569" lat="50.462796"><ele>83.75</ele></trkpt>
<trkpt lon="4.867718" lat="50.462364"><ele>82.75</ele></trkpt>
<trkpt lon="4.867758" lat="50.462235"><ele>82.75</ele></trkpt>
<trkpt lon="4.867802" lat="50.462087"><ele>80.75</ele></trkpt>
<trkpt lon="4.867923" lat="50.461735"><ele>82.0</ele></trkpt>
<trkpt lon="4.867937" lat="50.461683"><ele>82.75</ele></trkpt>
<trkpt lon="4.867939" lat="50.461664"><ele>83.0</ele></trkpt>
<trkpt lon="4.867921" lat="50.461635"><ele>83.0</ele></trkpt>
<trkpt lon="4.867893" lat="50.461589"><ele>83.0</ele></trkpt>
<trkpt lon="4.867846" lat="50.461601"><ele>83.0</ele></trkpt>
<trkpt lon="4.867760" lat="50.461619"><ele>82.75</ele></trkpt>
<trkpt lon="4.867491" lat="50.461550"><ele>82.25</ele></trkpt>
<trkpt lon="4.867468" lat="50.461498"><ele>82.5</ele></trkpt>
<trkpt lon="4.867451" lat="50.461469"><ele>82.5</ele></trkpt>
<trkpt lon="4.867408" lat="50.461394"><ele>82.75</ele></trkpt>
<trkpt lon="4.867373" lat="50.461341"><ele>83.25</ele></trkpt>
<trkpt lon="4.867365" lat="50.461317"><ele>83.5</ele></trkpt>
<trkpt lon="4.867346" lat="50.461255"><ele>84.25</ele></trkpt>
<trkpt lon="4.867379" lat="50.461156"><ele>84.75</ele></trkpt>
<trkpt lon="4.867423" lat="50.461070"><ele>84.5</ele></trkpt>
<trkpt lon="4.867488" lat="50.461069"><ele>84.0</ele></trkpt>
<trkpt lon="4.867477" lat="50.460952"><ele>84.0</ele></trkpt>
<trkpt lon="4.867422" lat="50.460839"><ele>84.25</ele></trkpt>
<trkpt lon="4.867505" lat="50.460745"><ele>84.0</ele></trkpt>
<trkpt lon="4.866403" lat="50.460003"><ele>84.0</ele></trkpt>
<trkpt lon="4.866197" lat="50.459869"><ele>84.0</ele></trkpt>
<trkpt lon="4.865810" lat="50.459642"><ele>83.75</ele></trkpt>
<trkpt lon="4.865445" lat="50.459386"><ele>85.0</ele></trkpt>
<trkpt lon="4.865184" lat="50.459172"><ele>84.75</ele></trkpt>
<trkpt lon="4.865454" lat="50.459014"><ele>82.75</ele></trkpt>
<trkpt lon="4.865501" lat="50.458977"><ele>82.25</ele></trkpt>
<trkpt lon="4.865486" lat="50.458936"><ele>82.0</ele></trkpt>
<trkpt lon="4.865500" lat="50.458924"><ele>81.75</ele></trkpt>
<trkpt lon="4.865296" lat="50.458793"><ele>82.0</ele></trkpt>
<trkpt lon="4.865275" lat="50.458748"><ele>81.25</ele></trkpt>
<trkpt lon="4.865083" lat="50.458604"><ele>83.0</ele></trkpt>
<trkpt lon="4.864887" lat="50.458437"><ele>82.25</ele></trkpt>
<trkpt lon="4.863916" lat="50.457276"><ele>80.25</ele></trkpt>
<trkpt lon="4.863439" lat="50.456704"><ele>80.25</ele></trkpt>
<trkpt lon="4.862351" lat="50.455354"><ele>80.25</ele></trkpt>
<trkpt lon="4.862075" lat="50.454889"><ele>80.75</ele></trkpt>
<trkpt lon="4.861962" lat="50.454703"><ele>81.5</ele></trkpt>
<trkpt lon="4.861903" lat="50.454673"><ele>81.75</ele></trkpt>
<trkpt lon="4.861866" lat="50.454654"><ele>81.75</ele></trkpt>
<trkpt lon="4.861462" lat="50.453978"><ele>81.25</ele></trkpt>
<trkpt lon="4.861140" lat="50.453446"><ele>81.0</ele></trkpt>
<trkpt lon="4.860857" lat="50.453000"><ele>81.25</ele></trkpt>
<trkpt lon="4.860797" lat="50.452886"><ele>81.0</ele></trkpt>
<trkpt lon="4.860784" lat="50.452815"><ele>80.75</ele></trkpt>
<trkpt lon="4.860666" lat="50.452513"><ele>80.75</ele></trkpt>
<trkpt lon="4.860626" lat="50.452348"><ele>80.75</ele></trkpt>
<trkpt lon="4.860544" lat="50.451990"><ele>81.0</ele></trkpt>
<trkpt lon="4.860514" lat="50.451820"><ele>81.0</ele></trkpt>
<trkpt lon="4.860527" lat="50.451622"><ele>81.0</ele></trkpt>
<trkpt lon="4.860518" lat="50.451572"><ele>81.0</ele></trkpt>
<trkpt lon="4.860492" lat="50.451530"><ele>81.0</ele></trkpt>
<trkpt lon="4.860458" lat="50.451495"><ele>81.25</ele></trkpt>
<trkpt lon="4.860435" lat="50.451453"><ele>81.25</ele></trkpt>
<trkpt lon="4.860404" lat="50.451270"><ele>81.5</ele></trkpt>
<trkpt lon="4.860410" lat="50.451231"><ele>81.5</ele></trkpt>
<trkpt lon="4.860442" lat="50.451149"><ele>81.25</ele></trkpt>
<trkpt lon="4.860446" lat="50.451103"><ele>81.25</ele></trkpt>
<trkpt lon="4.860334" lat="50.450628"><ele>81.75</ele></trkpt>
<trkpt lon="4.860131" lat="50.449827"><ele>80.5</ele></trkpt>
<trkpt lon="4.859951" lat="50.449103"><ele>81.0</ele></trkpt>
<trkpt lon="4.859743" lat="50.448296"><ele>80.75</ele></trkpt>
<trkpt lon="4.859630" lat="50.447947"><ele>81.0</ele></trkpt>
<trkpt lon="4.859402" lat="50.446565"><ele>81.0</ele></trkpt>
<trkpt lon="4.859302" lat="50.445897"><ele>81.5</ele></trkpt>
<trkpt lon="4.859218" lat="50.445559"><ele>81.5</ele></trkpt>
<trkpt lon="4.859162" lat="50.445381"><ele>81.25</ele></trkpt>
<trkpt lon="4.859156" lat="50.445329"><ele>81.0</ele></trkpt>
<trkpt lon="4.859091" lat="50.444775"><ele>81.25</ele></trkpt>
<trkpt lon="4.858981" lat="50.443654"><ele>80.75</ele></trkpt>
<trkpt lon="4.858944" lat="50.443208"><ele>81.25</ele></trkpt>
<trkpt lon="4.859035" lat="50.442799"><ele>80.75</ele></trkpt>
<trkpt lon="4.859059" lat="50.442690"><ele>80.75</ele></trkpt>
<trkpt lon="4.859188" lat="50.442241"><ele>80.75</ele></trkpt>
<trkpt lon="4.859455" lat="50.441631"><ele>80.75</ele></trkpt>
<trkpt lon="4.859532" lat="50.441496"><ele>80.5</ele></trkpt>
<trkpt lon="4.859580" lat="50.441414"><ele>80.5</ele></trkpt>
<trkpt lon="4.860495" lat="50.440178"><ele>80.5</ele></trkpt>
<trkpt lon="4.862084" lat="50.437422"><ele>81.25</ele></trkpt>
<trkpt lon="4.862308" lat="50.436695"><ele>81.5</ele></trkpt>
<trkpt lon="4.862391" lat="50.436263"><ele>81.25</ele></trkpt>
<trkpt lon="4.862450" lat="50.436209"><ele>81.0</ele></trkpt>
<trkpt lon="4.862489" lat="50.436174"><ele>80.75</ele></trkpt>
<trkpt lon="4.862744" lat="50.434827"><ele>82.25</ele></trkpt>
<trkpt lon="4.863084" lat="50.433403"><ele>81.75</ele></trkpt>
<trkpt lon="4.863263" lat="50.433027"><ele>80.75</ele></trkpt>
<trkpt lon="4.863646" lat="50.432521"><ele>81.5</ele></trkpt>
<trkpt lon="4.864094" lat="50.432043"><ele>81.25</ele></trkpt>
<trkpt lon="4.866374" lat="50.430192"><ele>80.5</ele></trkpt>
<trkpt lon="4.866869" lat="50.429756"><ele>81.0</ele></trkpt>
<trkpt lon="4.866930" lat="50.429722"><ele>81.0</ele></trkpt>
<trkpt lon="4.866972" lat="50.429673"><ele>80.75</ele></trkpt>
<trkpt lon="4.867010" lat="50.429626"><ele>80.75</ele></trkpt>
<trkpt lon="4.867040" lat="50.429588"><ele>80.75</ele></trkpt>
<trkpt lon="4.868219" lat="50.428153"><ele>81.0</ele></trkpt>
<trkpt lon="4.869239" lat="50.426886"><ele>81.5</ele></trkpt>
<trkpt lon="4.869427" lat="50.426709"><ele>81.5</ele></trkpt>
<trkpt lon="4.869839" lat="50.426415"><ele>81.0</ele></trkpt>
<trkpt lon="4.870195" lat="50.426167"><ele>81.75</ele></trkpt>
<trkpt lon="4.870401" lat="50.426052"><ele>81.5</ele></trkpt>
<trkpt lon="4.870587" lat="50.425903"><ele>81.75</ele></trkpt>
<trkpt lon="4.870699" lat="50.425776"><ele>81.75</ele></trkpt>
<trkpt lon="4.871866" lat="50.424847"><ele>82.0</ele></trkpt>
<trkpt lon="4.872309" lat="50.424589"><ele>81.5</ele></trkpt>
<trkpt lon="4.872666" lat="50.424403"><ele>81.5</ele></trkpt>
<trkpt lon="4.873177" lat="50.424162"><ele>81.0</ele></trkpt>
<trkpt lon="4.873468" lat="50.423978"><ele>81.5</ele></trkpt>
<trkpt lon="4.873547" lat="50.423953"><ele>81.5</ele></trkpt>
<trkpt lon="4.873691" lat="50.423909"><ele>81.5</ele></trkpt>
<trkpt lon="4.874143" lat="50.423674"><ele>82.25</ele></trkpt>
<trkpt lon="4.874250" lat="50.423614"><ele>82.25</ele></trkpt>
<trkpt lon="4.875489" lat="50.423124"><ele>81.5</ele></trkpt>
<trkpt lon="4.876905" lat="50.422546"><ele>81.5</ele></trkpt>
<trkpt lon="4.877058" lat="50.422448"><ele>81.25</ele></trkpt>
<trkpt lon="4.877910" lat="50.421269"><ele>81.25</ele></trkpt>
<trkpt lon="4.877988" lat="50.421102"><ele>81.25</ele></trkpt>
<trkpt lon="4.878057" lat="50.420476"><ele>81.75</ele></trkpt>
<trkpt lon="4.878058" lat="50.420366"><ele>81.75</ele></trkpt>
<trkpt lon="4.878086" lat="50.420322"><ele>81.75</ele></trkpt>
<trkpt lon="4.878101" lat="50.420298"><ele>81.5</ele></trkpt>
<trkpt lon="4.878279" lat="50.419627"><ele>81.25</ele></trkpt>
<trkpt lon="4.878539" lat="50.418809"><ele>81.5</ele></trkpt>
<trkpt lon="4.878779" lat="50.418392"><ele>81.0</ele></trkpt>
<trkpt lon="4.878950" lat="50.418164"><ele>81.25</ele></trkpt>
<trkpt lon="4.879131" lat="50.417988"><ele>80.75</ele></trkpt>
<trkpt lon="4.879856" lat="50.417283"><ele>81.5</ele></trkpt>
<trkpt lon="4.880059" lat="50.417107"><ele>81.5</ele></trkpt>
<trkpt lon="4.880574" lat="50.416651"><ele>81.0</ele></trkpt>
<trkpt lon="4.880805" lat="50.416417"><ele>81.75</ele></trkpt>
<trkpt lon="4.881663" lat="50.415396"><ele>81.0</ele></trkpt>
<trkpt lon="4.882253" lat="50.414567"><ele>81.25</ele></trkpt>
<trkpt lon="4.882395" lat="50.414290"><ele>81.5</ele></trkpt>
<trkpt lon="4.882484" lat="50.414105"><ele>81.25</ele></trkpt>
<trkpt lon="4.882554" lat="50.413923"><ele>81.5</ele></trkpt>
<trkpt lon="4.882587" lat="50.413828"><ele>81.5</ele></trkpt>
<trkpt lon="4.882789" lat="50.412601"><ele>81.75</ele></trkpt>
<trkpt lon="4.883034" lat="50.411748"><ele>81.5</ele></trkpt>
<trkpt lon="4.883044" lat="50.411715"><ele>81.5</ele></trkpt>
<trkpt lon="4.883120" lat="50.411361"><ele>81.5</ele></trkpt>
<trkpt lon="4.883177" lat="50.411005"><ele>81.0</ele></trkpt>
<trkpt lon="4.883202" lat="50.410230"><ele>81.25</ele></trkpt>
<trkpt lon="4.883059" lat="50.409006"><ele>81.75</ele></trkpt>
<trkpt lon="4.882824" lat="50.407829"><ele>81.75</ele></trkpt>
<trkpt lon="4.882627" lat="50.407051"><ele>82.0</ele></trkpt>
<trkpt lon="4.882676" lat="50.406928"><ele>81.5</ele></trkpt>
<trkpt lon="4.882665" lat="50.406577"><ele>81.5</ele></trkpt>
<trkpt lon="4.882592" lat="50.405576"><ele>81.25</ele></trkpt>
<trkpt lon="4.882540" lat="50.405305"><ele>81.5</ele></trkpt>
<trkpt lon="4.882539" lat="50.405242"><ele>81.5</ele></trkpt>
<trkpt lon="4.882485" lat="50.405094"><ele>81.25</ele></trkpt>
<trkpt lon="4.882476" lat="50.405045"><ele>81.25</ele></trkpt>
<trkpt lon="4.882427" lat="50.404861"><ele>81.5</ele></trkpt>
<trkpt lon="4.882245" lat="50.404434"><ele>82.5</ele></trkpt>
<trkpt lon="4.881835" lat="50.403559"><ele>81.75</ele></trkpt>
<trkpt lon="4.881497" lat="50.402841"><ele>81.75</ele></trkpt>
<trkpt lon="4.881431" lat="50.402624"><ele>82.5</ele></trkpt>
<trkpt lon="4.881374" lat="50.400672"><ele>82.75</ele></trkpt>
<trkpt lon="4.881379" lat="50.400649"><ele>82.75</ele></trkpt>
<trkpt lon="4.881321" lat="50.399942"><ele>83.0</ele></trkpt>
<trkpt lon="4.881234" lat="50.399285"><ele>83.0</ele></trkpt>
<trkpt lon="4.881206" lat="50.399128"><ele>82.75</ele></trkpt>
<trkpt lon="4.881067" lat="50.398281"><ele>83.0</ele></trkpt>
<trkpt lon="4.881037" lat="50.398207"><ele>83.25</ele></trkpt>
<trkpt lon="4.880851" lat="50.397872"><ele>83.75</ele></trkpt>
<trkpt lon="4.880899" lat="50.397276"><ele>83.75</ele></trkpt>
<trkpt lon="4.880696" lat="50.396054"><ele>82.75</ele></trkpt>
<trkpt lon="4.880418" lat="50.394103"><ele>82.25</ele></trkpt>
<trkpt lon="4.880289" lat="50.393261"><ele>82.75</ele></trkpt>
<trkpt lon="4.880122" lat="50.392720"><ele>82.5</ele></trkpt>
<trkpt lon="4.879929" lat="50.392178"><ele>83.0</ele></trkpt>
<trkpt lon="4.879770" lat="50.391620"><ele>83.0</ele></trkpt>
<trkpt lon="4.879524" lat="50.390484"><ele>83.5</ele></trkpt>
<trkpt lon="4.879443" lat="50.390212"><ele>83.0</ele></trkpt>
<trkpt lon="4.879398" lat="50.390160"><ele>83.0</ele></trkpt>
<trkpt lon="4.879325" lat="50.389738"><ele>83.0</ele></trkpt>
<trkpt lon="4.879245" lat="50.388801"><ele>83.25</ele></trkpt>
<trkpt lon="4.879168" lat="50.387442"><ele>82.75</ele></trkpt>
<trkpt lon="4.879107" lat="50.386826"><ele>83.0</ele></trkpt>
<trkpt lon="4.878960" lat="50.386437"><ele>82.75</ele></trkpt>
<trkpt lon="4.878646" lat="50.386084"><ele>82.75</ele></trkpt>
<trkpt lon="4.878409" lat="50.385881"><ele>82.75</ele></trkpt>
<trkpt lon="4.878030" lat="50.385669"><ele>83.0</ele></trkpt>
<trkpt lon="4.877482" lat="50.385387"><ele>83.25</ele></trkpt>
<trkpt lon="4.877212" lat="50.385276"><ele>83.0</ele></trkpt>
<trkpt lon="4.876899" lat="50.385176"><ele>83.75</ele></trkpt>
<trkpt lon="4.876854" lat="50.385161"><ele>83.5</ele></trkpt>
<trkpt lon="4.876650" lat="50.385096"><ele>83.25</ele></trkpt>
<trkpt lon="4.875958" lat="50.384864"><ele>84.5</ele></trkpt>
<trkpt lon="4.873824" lat="50.384220"><ele>85.25</ele></trkpt>
<trkpt lon="4.873353" lat="50.384083"><ele>85.0</ele></trkpt>
<trkpt lon="4.872985" lat="50.384001"><ele>86.25</ele></trkpt>
<trkpt lon="4.870330" lat="50.383474"><ele>86.5</ele></trkpt>
<trkpt lon="4.870136" lat="50.383461"><ele>86.75</ele></trkpt>
<trkpt lon="4.869218" lat="50.383454"><ele>86.75</ele></trkpt>
<trkpt lon="4.868928" lat="50.383440"><ele>86.5</ele></trkpt>
<trkpt lon="4.868453" lat="50.383361"><ele>84.75</ele></trkpt>
<trkpt lon="4.868064" lat="50.383245"><ele>84.25</ele></trkpt>
<trkpt lon="4.867736" lat="50.383082"><ele>84.25</ele></trkpt>
<trkpt lon="4.867506" lat="50.382920"><ele>84.5</ele></trkpt>
<trkpt lon="4.867318" lat="50.382691"><ele>84.25</ele></trkpt>
<trkpt lon="4.866738" lat="50.381666"><ele>84.25</ele></trkpt>
<trkpt lon="4.866824" lat="50.381601"><ele>84.0</ele></trkpt>
<trkpt lon="4.866886" lat="50.381522"><ele>83.75</ele></trkpt>
<trkpt lon="4.866983" lat="50.381366"><ele>83.75</ele></trkpt>
<trkpt lon="4.867036" lat="50.381375"><ele>83.5</ele></trkpt>
<trkpt lon="4.867102" lat="50.381300"><ele>83.25</ele></trkpt>
<trkpt lon="4.867264" lat="50.381057"><ele>83.0</ele></trkpt>
<trkpt lon="4.867289" lat="50.380958"><ele>83.25</ele></trkpt>
<trkpt lon="4.867246" lat="50.380944"><ele>83.5</ele></trkpt>
<trkpt lon="4.867303" lat="50.380855"><ele>83.5</ele></trkpt>
<trkpt lon="4.867353" lat="50.380781"><ele>83.5</ele></trkpt>
<trkpt lon="4.867666" lat="50.380342"><ele>84.0</ele></trkpt>
<trkpt lon="4.867800" lat="50.380141"><ele>83.75</ele></trkpt>
<trkpt lon="4.868009" lat="50.379967"><ele>83.25</ele></trkpt>
<trkpt lon="4.868157" lat="50.379887"><ele>83.25</ele></trkpt>
<trkpt lon="4.868246" lat="50.379848"><ele>83.5</ele></trkpt>
<trkpt lon="4.867769" lat="50.379690"><ele>84.75</ele></trkpt>
<trkpt lon="4.868146" lat="50.379261"><ele>84.5</ele></trkpt>
<trkpt lon="4.868347" lat="50.379050"><ele>85.0</ele></trkpt>
<trkpt lon="4.868631" lat="50.378777"><ele>85.25</ele></trkpt>
<trkpt lon="4.869369" lat="50.378492"><ele>85.5</ele></trkpt>
<trkpt lon="4.869714" lat="50.378379"><ele>85.75</ele></trkpt>
<trkpt lon="4.869682" lat="50.378325"><ele>86.0</ele></trkpt>
<trkpt lon="4.869687" lat="50.378298"><ele>86.0</ele></trkpt>
<trkpt lon="4.869780" lat="50.378172"><ele>86.5</ele></trkpt>
<trkpt lon="4.869876" lat="50.378050"><ele>87.0</ele></trkpt>
<trkpt lon="4.869882" lat="50.378002"><ele>87.25</ele></trkpt>
<trkpt lon="4.869860" lat="50.377970"><ele>87.25</ele></trkpt>
<trkpt lon="4.869594" lat="50.377717"><ele>88.5</ele></trkpt>
<trkpt lon="4.869848" lat="50.377653"><ele>88.5</ele></trkpt>
<trkpt lon="4.870071" lat="50.377608"><ele>89.0</ele></trkpt>
<trkpt lon="4.870498" lat="50.377522"><ele>88.75</ele></trkpt>
<trkpt lon="4.870904" lat="50.377448"><ele>89.25</ele></trkpt>
<trkpt lon="4.871293" lat="50.377367"><ele>89.5</ele></trkpt>
<trkpt lon="4.872756" lat="50.377062"><ele>90.5</ele></trkpt>
<trkpt lon="4.872947" lat="50.377037"><ele>90.5</ele></trkpt>
<trkpt lon="4.873226" lat="50.376968"><ele>90.25</ele></trkpt>
<trkpt lon="4.873568" lat="50.376801"><ele>90.5</ele></trkpt>
<trkpt lon="4.874271" lat="50.376446"><ele>92.25</ele></trkpt>
<trkpt lon="4.874730" lat="50.376210"><ele>92.5</ele></trkpt>
<trkpt lon="4.875449" lat="50.375758"><ele>93.5</ele></trkpt>
<trkpt lon="4.875962" lat="50.375435"><ele>92.25</ele></trkpt>
<trkpt lon="4.875984" lat="50.375411"><ele>92.0</ele></trkpt>
<trkpt lon="4.876390" lat="50.374972"><ele>90.75</ele></trkpt>
<trkpt lon="4.876516" lat="50.374646"><ele>89.5</ele></trkpt>
<trkpt lon="4.876623" lat="50.374303"><ele>89.25</ele></trkpt>
<trkpt lon="4.876649" lat="50.373985"><ele>88.5</ele></trkpt>
<trkpt lon="4.876657" lat="50.373772"><ele>87.5</ele></trkpt>
<trkpt lon="4.876647" lat="50.373635"><ele>87.25</ele></trkpt>
<trkpt lon="4.876701" lat="50.373567"><ele>86.25</ele></trkpt>
<trkpt lon="4.876639" lat="50.373432"><ele>86.0</ele></trkpt>
<trkpt lon="4.876515" lat="50.373230"><ele>86.5</ele></trkpt>
<trkpt lon="4.876286" lat="50.372910"><ele>87.0</ele></trkpt>
<trkpt lon="4.876069" lat="50.372593"><ele>86.5</ele></trkpt>
<trkpt lon="4.875830" lat="50.372207"><ele>85.75</ele></trkpt>
<trkpt lon="4.875383" lat="50.371365"><ele>88.5</ele></trkpt>
<trkpt lon="4.874021" lat="50.369121"><ele>87.5</ele></trkpt>
<trkpt lon="4.873596" lat="50.368363"><ele>85.75</ele></trkpt>
<trkpt lon="4.873025" lat="50.367417"><ele>85.75</ele></trkpt>
<trkpt lon="4.872975" lat="50.367238"><ele>86.75</ele></trkpt>
<trkpt lon="4.872261" lat="50.366097"><ele>86.75</ele></trkpt>
<trkpt lon="4.871646" lat="50.365289"><ele>85.25</ele></trkpt>
<trkpt lon="4.870954" lat="50.364279"><ele>85.75</ele></trkpt>
<trkpt lon="4.870935" lat="50.364145"><ele>85.25</ele></trkpt>
<trkpt lon="4.870914" lat="50.363660"><ele>85.0</ele></trkpt>
<trkpt lon="4.870916" lat="50.363322"><ele>85.0</ele></trkpt>
<trkpt lon="4.870930" lat="50.363190"><ele>84.5</ele></trkpt>
<trkpt lon="4.870961" lat="50.363036"><ele>84.0</ele></trkpt>
<trkpt lon="4.871018" lat="50.362855"><ele>83.5</ele></trkpt>
<trkpt lon="4.871417" lat="50.362024"><ele>83.5</ele></trkpt>
<trkpt lon="4.871495" lat="50.361891"><ele>84.0</ele></trkpt>
<trkpt lon="4.871836" lat="50.360877"><ele>83.75</ele></trkpt>
<trkpt lon="4.872286" lat="50.360069"><ele>85.0</ele></trkpt>
<trkpt lon="4.872443" lat="50.360100"><ele>84.25</ele></trkpt>
<trkpt lon="4.872552" lat="50.360104"><ele>83.75</ele></trkpt>
<trkpt lon="4.872649" lat="50.360153"><ele>83.25</ele></trkpt>
<trkpt lon="4.872293" lat="50.360907"><ele>84.5</ele></trkpt>
<trkpt lon="4.872282" lat="50.360937"><ele>84.5</ele></trkpt>
<trkpt lon="4.873752" lat="50.361202"><ele>86.25</ele></trkpt>
<trkpt lon="4.873765" lat="50.361207"><ele>86.25</ele></trkpt>
<trkpt lon="4.874247" lat="50.359834"><ele>86.75</ele></trkpt>
<trkpt lon="4.874548" lat="50.359355"><ele>86.75</ele></trkpt>
<trkpt lon="4.875417" lat="50.358452"><ele>87.25</ele></trkpt>
<trkpt lon="4.876018" lat="50.358027"><ele>87.25</ele></trkpt>
<trkpt lon="4.878015" lat="50.356968"><ele>88.0</ele></trkpt>
<trkpt lon="4.878766" lat="50.356339"><ele>87.5</ele></trkpt>
<trkpt lon="4.879226" lat="50.355838"><ele>86.5</ele></trkpt>
<trkpt lon="4.879590" lat="50.355269"><ele>87.5</ele></trkpt>
<trkpt lon="4.879537" lat="50.354495"><ele>85.5</ele></trkpt>
<trkpt lon="4.879078" lat="50.353450"><ele>85.25</ele></trkpt>
<trkpt lon="4.878682" lat="50.353202"><ele>85.0</ele></trkpt>
<trkpt lon="4.878354" lat="50.352972"><ele>85.25</ele></trkpt>
<trkpt lon="4.877048" lat="50.351933"><ele>85.0</ele></trkpt>
<trkpt lon="4.876184" lat="50.351259"><ele>85.5</ele></trkpt>
<trkpt lon="4.875893" lat="50.351073"><ele>85.25</ele></trkpt>
<trkpt lon="4.875782" lat="50.351024"><ele>85.5</ele></trkpt>
<trkpt lon="4.875688" lat="50.350982"><ele>85.5</ele></trkpt>
<trkpt lon="4.874462" lat="50.350710"><ele>85.75</ele></trkpt>
<trkpt lon="4.874219" lat="50.350643"><ele>85.75</ele></trkpt>
<trkpt lon="4.874197" lat="50.350579"><ele>86.0</ele></trkpt>
<trkpt lon="4.873335" lat="50.350544"><ele>85.0</ele></trkpt>
<trkpt lon="4.872315" lat="50.350471"><ele>86.25</ele></trkpt>
<trkpt lon="4.870604" lat="50.350301"><ele>85.25</ele></trkpt>
<trkpt lon="4.869133" lat="50.350159"><ele>86.75</ele></trkpt>
<trkpt lon="4.868752" lat="50.350132"><ele>87.25</ele></trkpt>
<trkpt lon="4.868802" lat="50.349692"><ele>91.75</ele></trkpt>
<trkpt lon="4.868947" lat="50.349580"><ele>92.25</ele></trkpt>
<trkpt lon="4.869039" lat="50.349481"><ele>92.0</ele></trkpt>
<trkpt lon="4.869094" lat="50.349450"><ele>91.5</ele></trkpt>
<trkpt lon="4.869135" lat="50.349373"><ele>91.75</ele></trkpt>
<trkpt lon="4.869153" lat="50.349358"><ele>92.0</ele></trkpt>
<trkpt lon="4.869155" lat="50.349355"><ele>92.0</ele></trkpt>
<trkpt lon="4.869359" lat="50.348612"><ele>95.25</ele></trkpt>
<trkpt lon="4.869378" lat="50.348555"><ele>95.5</ele></trkpt>
<trkpt lon="4.869329" lat="50.348532"><ele>95.75</ele></trkpt>
<trkpt lon="4.869268" lat="50.348519"><ele>96.25</ele></trkpt>
<trkpt lon="4.869091" lat="50.348500"><ele>96.75</ele></trkpt>
<trkpt lon="4.868887" lat="50.348493"><ele>96.75</ele></trkpt>
<trkpt lon="4.868905" lat="50.348436"><ele>97.25</ele></trkpt>
<trkpt lon="4.868839" lat="50.348056"><ele>99.0</ele></trkpt>
<trkpt lon="4.868592" lat="50.347093"><ele>102.75</ele></trkpt>
<trkpt lon="4.868102" lat="50.345399"><ele>116.5</ele></trkpt>
<trkpt lon="4.869672" lat="50.345237"><ele>121.25</ele></trkpt>
<trkpt lon="4.869618" lat="50.344946"><ele>122.75</ele></trkpt>
<trkpt lon="4.869525" lat="50.344368"><ele>124.5</ele></trkpt>
<trkpt lon="4.869492" lat="50.344069"><ele>125.0</ele></trkpt>
<trkpt lon="4.869435" lat="50.343547"><ele>126.0</ele></trkpt>
<trkpt lon="4.869117" lat="50.340968"><ele>128.0</ele></trkpt>
<trkpt lon="4.869192" lat="50.340952"><ele>128.5</ele></trkpt>
<trkpt lon="4.869454" lat="50.340942"><ele>129.25</ele></trkpt>
<trkpt lon="4.869569" lat="50.340525"><ele>129.25</ele></trkpt>
<trkpt lon="4.869394" lat="50.340530"><ele>128.25</ele></trkpt>
<trkpt lon="4.869498" lat="50.340171"><ele>126.25</ele></trkpt>
<trkpt lon="4.869520" lat="50.340094"><ele>125.75</ele></trkpt>
<trkpt lon="4.869528" lat="50.339823"><ele>123.25</ele></trkpt>
<trkpt lon="4.869349" lat="50.339555"><ele>123.25</ele></trkpt>
<trkpt lon="4.869252" lat="50.339386"><ele>125.25</ele></trkpt>
<trkpt lon="4.869261" lat="50.339036"><ele>130.5</ele></trkpt>
<trkpt lon="4.869248" lat="50.338876"><ele>132.0</ele></trkpt>
<trkpt lon="4.869116" lat="50.338734"><ele>126.5</ele></trkpt>
<trkpt lon="4.869125" lat="50.338706"><ele>125.75</ele></trkpt>
<trkpt lon="4.869173" lat="50.338712"><ele>126.5</ele></trkpt>
<trkpt lon="4.869326" lat="50.338714"><ele>125.25</ele></trkpt>
<trkpt lon="4.869361" lat="50.338774"><ele>127.5</ele></trkpt>
<trkpt lon="4.869790" lat="50.338651"><ele>113.0</ele></trkpt>
<trkpt lon="4.869983" lat="50.338555"><ele>106.75</ele></trkpt>
<trkpt lon="4.870131" lat="50.338483"><ele>104.25</ele></trkpt>
<trkpt lon="4.870294" lat="50.338430"><ele>104.0</ele></trkpt>
<trkpt lon="4.870443" lat="50.338237"><ele>97.5</ele></trkpt>
<trkpt lon="4.870533" lat="50.338151"><ele>94.5</ele></trkpt>
<trkpt lon="4.870770" lat="50.338069"><ele>92.5</ele></trkpt>
<trkpt lon="4.871166" lat="50.337949"><ele>97.5</ele></trkpt>
<trkpt lon="4.871263" lat="50.337930"><ele>99.25</ele></trkpt>
<trkpt lon="4.871681" lat="50.337769"><ele>93.25</ele></trkpt>
<trkpt lon="4.872124" lat="50.337646"><ele>101.25</ele></trkpt>
<trkpt lon="4.872251" lat="50.337592"><ele>100.5</ele></trkpt>
<trkpt lon="4.872292" lat="50.337522"><ele>95.25</ele></trkpt>
<trkpt lon="4.872330" lat="50.337486"><ele>94.0</ele></trkpt>
<trkpt lon="4.872561" lat="50.337374"><ele>96.5</ele></trkpt>
<trkpt lon="4.872682" lat="50.337343"><ele>97.75</ele></trkpt>
<trkpt lon="4.873154" lat="50.337053"><ele>93.25</ele></trkpt>
<trkpt lon="4.873537" lat="50.336726"><ele>89.75</ele></trkpt>
<trkpt lon="4.874066" lat="50.336119"><ele>90.25</ele></trkpt>
<trkpt lon="4.874427" lat="50.335756"><ele>92.25</ele></trkpt>
<trkpt lon="4.874630" lat="50.335485"><ele>92.25</ele></trkpt>
<trkpt lon="4.874912" lat="50.334955"><ele>95.0</ele></trkpt>
<trkpt lon="4.874964" lat="50.334826"><ele>96.0</ele></trkpt>
<trkpt lon="4.875095" lat="50.334495"><ele>97.0</ele></trkpt>
<trkpt lon="4.875157" lat="50.334164"><ele>98.25</ele></trkpt>
<trkpt lon="4.875194" lat="50.333825"><ele>98.5</ele></trkpt>
<trkpt lon="4.875209" lat="50.333594"><ele>99.5</ele></trkpt>
<trkpt lon="4.875261" lat="50.333214"><ele>100.75</ele></trkpt>
<trkpt lon="4.875367" lat="50.332578"><ele>103.5</ele></trkpt>
<trkpt lon="4.875508" lat="50.330936"><ele>100.0</ele></trkpt>
<trkpt lon="4.875552" lat="50.330619"><ele>98.25</ele></trkpt>
<trkpt lon="4.875565" lat="50.330406"><ele>97.5</ele></trkpt>
<trkpt lon="4.875517" lat="50.330308"><ele>96.75</ele></trkpt>
<trkpt lon="4.875454" lat="50.330243"><ele>96.25</ele></trkpt>
<trkpt lon="4.875400" lat="50.330208"><ele>95.5</ele></trkpt>
<trkpt lon="4.875438" lat="50.330097"><ele>94.75</ele></trkpt>
<trkpt lon="4.875498" lat="50.329448"><ele>92.5</ele></trkpt>
<trkpt lon="4.875525" lat="50.329266"><ele>92.0</ele></trkpt>
<trkpt lon="4.875597" lat="50.329022"><ele>91.75</ele></trkpt>
<trkpt lon="4.875835" lat="50.328415"><ele>90.5</ele></trkpt>
<trkpt lon="4.875896" lat="50.328304"><ele>90.25</ele></trkpt>
<trkpt lon="4.875985" lat="50.328216"><ele>90.5</ele></trkpt>
<trkpt lon="4.876163" lat="50.328097"><ele>91.0</ele></trkpt>
<trkpt lon="4.876374" lat="50.327985"><ele>90.75</ele></trkpt>
<trkpt lon="4.876595" lat="50.327877"><ele>91.0</ele></trkpt>
<trkpt lon="4.876854" lat="50.327798"><ele>91.0</ele></trkpt>
<trkpt lon="4.876844" lat="50.327738"><ele>90.75</ele></trkpt>
<trkpt lon="4.876835" lat="50.327675"><ele>90.75</ele></trkpt>
<trkpt lon="4.876839" lat="50.327599"><ele>90.75</ele></trkpt>
<trkpt lon="4.876888" lat="50.327397"><ele>90.25</ele></trkpt>
<trkpt lon="4.877146" lat="50.326680"><ele>89.5</ele></trkpt>
<trkpt lon="4.877269" lat="50.326386"><ele>89.75</ele></trkpt>
<trkpt lon="4.877348" lat="50.326235"><ele>89.5</ele></trkpt>
<trkpt lon="4.877462" lat="50.326062"><ele>89.5</ele></trkpt>
<trkpt lon="4.878039" lat="50.326226"><ele>89.75</ele></trkpt>
<trkpt lon="4.878135" lat="50.326253"><ele>89.0</ele></trkpt>
  </trkseg></trk></gpx>
