<?xml version="1.0" encoding="UTF-8"?>
<gpx version="1.1" creator="compostel-brouter" xmlns="http://www.topografix.com/GPX/1/1">
  <metadata><name>BE-07-Hastiere</name></metadata>
  <trk><name>BE-07-Hastiere</name><trkseg>
<trkpt lon="4.913187" lat="50.259760"><ele>94.0</ele></trkpt>
<trkpt lon="4.913105" lat="50.259979"><ele>94.0</ele></trkpt>
<trkpt lon="4.913056" lat="50.260100"><ele>94.0</ele></trkpt>
<trkpt lon="4.913035" lat="50.260149"><ele>94.0</ele></trkpt>
<trkpt lon="4.912332" lat="50.260019"><ele>92.5</ele></trkpt>
<trkpt lon="4.912306" lat="50.260096"><ele>92.75</ele></trkpt>
<trkpt lon="4.912269" lat="50.260090"><ele>92.75</ele></trkpt>
<trkpt lon="4.912253" lat="50.260088"><ele>92.5</ele></trkpt>
<trkpt lon="4.912139" lat="50.260396"><ele>93.75</ele></trkpt>
<trkpt lon="4.912118" lat="50.260426"><ele>93.75</ele></trkpt>
<trkpt lon="4.912073" lat="50.260442"><ele>93.75</ele></trkpt>
<trkpt lon="4.912022" lat="50.260450"><ele>93.75</ele></trkpt>
<trkpt lon="4.911863" lat="50.260416"><ele>93.75</ele></trkpt>
<trkpt lon="4.911857" lat="50.260435"><ele>93.75</ele></trkpt>
<trkpt lon="4.911838" lat="50.260472"><ele>93.75</ele></trkpt>
<trkpt lon="4.911818" lat="50.260509"><ele>93.75</ele></trkpt>
<trkpt lon="4.911809" lat="50.260527"><ele>93.75</ele></trkpt>
<trkpt lon="4.910557" lat="50.260278"><ele>94.0</ele></trkpt>
<trkpt lon="4.910527" lat="50.260275"><ele>94.25</ele></trkpt>
<trkpt lon="4.910476" lat="50.260286"><ele>94.75</ele></trkpt>
<trkpt lon="4.910450" lat="50.260286"><ele>95.0</ele></trkpt>
<trkpt lon="4.910419" lat="50.260280"><ele>95.25</ele></trkpt>
<trkpt lon="4.910473" lat="50.260209"><ele>94.75</ele></trkpt>
<trkpt lon="4.910207" lat="50.260150"><ele>96.5</ele></trkpt>
<trkpt lon="4.909982" lat="50.260096"><ele>97.0</ele></trkpt>
<trkpt lon="4.909981" lat="50.260059"><ele>97.0</ele></trkpt>
<trkpt lon="4.909965" lat="50.260041"><ele>97.0</ele></trkpt>
<trkpt lon="4.909909" lat="50.260020"><ele>97.25</ele></trkpt>
<trkpt lon="4.909924" lat="50.259955"><ele>97.25</ele></trkpt>
<trkpt lon="4.910413" lat="50.259407"><ele>99.0</ele></trkpt>
<trkpt lon="4.910463" lat="50.259332"><ele>100.0</ele></trkpt>
<trkpt lon="4.910503" lat="50.259231"><ele>101.75</ele></trkpt>
<trkpt lon="4.910518" lat="50.259146"><ele>103.0</ele></trkpt>
<trkpt lon="4.910509" lat="50.259031"><ele>103.0</ele></trkpt>
<trkpt lon="4.910434" lat="50.258831"><ele>103.0</ele></trkpt>
<trkpt lon="4.910372" lat="50.258748"><ele>103.0</ele></trkpt>
<trkpt lon="4.910213" lat="50.258602"><ele>104.0</ele></trkpt>
<trkpt lon="4.910133" lat="50.258551"><ele>106.75</ele></trkpt>
<trkpt lon="4.910326" lat="50.258419"><ele>107.75</ele></trkpt>
<trkpt lon="4.910406" lat="50.258347"><ele>106.5</ele></trkpt>
<trkpt lon="4.910483" lat="50.258218"><ele>108.0</ele></trkpt>
<trkpt lon="4.910771" lat="50.257653"><ele>115.75</ele></trkpt>
<trkpt lon="4.910935" lat="50.257302"><ele>119.25</ele></trkpt>
<trkpt lon="4.910936" lat="50.257240"><ele>120.5</ele></trkpt>
<trkpt lon="4.910911" lat="50.257211"><ele>121.25</ele></trkpt>
<trkpt lon="4.910878" lat="50.257189"><ele>121.75</ele></trkpt>
<trkpt lon="4.910809" lat="50.257158"><ele>123.25</ele></trkpt>
<trkpt lon="4.910656" lat="50.257115"><ele>125.75</ele></trkpt>
<trkpt lon="4.910479" lat="50.257054"><ele>128.25</ele></trkpt>
<trkpt lon="4.910435" lat="50.257035"><ele>128.75</ele></trkpt>
<trkpt lon="4.910259" lat="50.256913"><ele>130.25</ele></trkpt>
<trkpt lon="4.910186" lat="50.256852"><ele>131.75</ele></trkpt>
<trkpt lon="4.910058" lat="50.256723"><ele>134.0</ele></trkpt>
<trkpt lon="4.910013" lat="50.256664"><ele>134.75</ele></trkpt>
<trkpt lon="4.909876" lat="50.256535"><ele>136.75</ele></trkpt>
<trkpt lon="4.909802" lat="50.256493"><ele>137.75</ele></trkpt>
<trkpt lon="4.909679" lat="50.256588"><ele>139.0</ele></trkpt>
<trkpt lon="4.909532" lat="50.256743"><ele>141.75</ele></trkpt>
<trkpt lon="4.909419" lat="50.256849"><ele>143.5</ele></trkpt>
<trkpt lon="4.909209" lat="50.256954"><ele>145.25</ele></trkpt>
<trkpt lon="4.908990" lat="50.257029"><ele>147.25</ele></trkpt>
<trkpt lon="4.908897" lat="50.257054"><ele>148.25</ele></trkpt>
<trkpt lon="4.908830" lat="50.257056"><ele>148.25</ele></trkpt>
<trkpt lon="4.908787" lat="50.257041"><ele>148.5</ele></trkpt>
<trkpt lon="4.908653" lat="50.256962"><ele>151.75</ele></trkpt>
<trkpt lon="4.908190" lat="50.256647"><ele>162.25</ele></trkpt>
<trkpt lon="4.907972" lat="50.256508"><ele>165.75</ele></trkpt>
<trkpt lon="4.907834" lat="50.256426"><ele>167.75</ele></trkpt>
<trkpt lon="4.907624" lat="50.256314"><ele>169.25</ele></trkpt>
<trkpt lon="4.907429" lat="50.256131"><ele>171.25</ele></trkpt>
<trkpt lon="4.907358" lat="50.255920"><ele>173.75</ele></trkpt>
<trkpt lon="4.907302" lat="50.255554"><ele>178.0</ele></trkpt>
<trkpt lon="4.907068" lat="50.255093"><ele>182.25</ele></trkpt>
<trkpt lon="4.906270" lat="50.254116"><ele>187.75</ele></trkpt>
<trkpt lon="4.905802" lat="50.253608"><ele>189.75</ele></trkpt>
<trkpt lon="4.905052" lat="50.252562"><ele>193.75</ele></trkpt>
<trkpt lon="4.904570" lat="50.251855"><ele>196.5</ele></trkpt>
<trkpt lon="4.902866" lat="50.249996"><ele>201.5</ele></trkpt>
<trkpt lon="4.900915" lat="50.248226"><ele>204.5</ele></trkpt>
<trkpt lon="4.900251" lat="50.247739"><ele>206.75</ele></trkpt>
<trkpt lon="4.899628" lat="50.247337"><ele>208.0</ele></trkpt>
<trkpt lon="4.899287" lat="50.247181"><ele>208.25</ele></trkpt>
<trkpt lon="4.899029" lat="50.247007"><ele>208.5</ele></trkpt>
<trkpt lon="4.898790" lat="50.246727"><ele>207.75</ele></trkpt>
<trkpt lon="4.898707" lat="50.246577"><ele>207.25</ele></trkpt>
<trkpt lon="4.898396" lat="50.246621"><ele>208.25</ele></trkpt>
<trkpt lon="4.898069" lat="50.246589"><ele>209.25</ele></trkpt>
<trkpt lon="4.896176" lat="50.246197"><ele>210.25</ele></trkpt>
<trkpt lon="4.893879" lat="50.245730"><ele>209.5</ele></trkpt>
<trkpt lon="4.893552" lat="50.245679"><ele>209.0</ele></trkpt>
<trkpt lon="4.893298" lat="50.245598"><ele>208.75</ele></trkpt>
<trkpt lon="4.890999" lat="50.245115"><ele>204.0</ele></trkpt>
<trkpt lon="4.890006" lat="50.244940"><ele>202.0</ele></trkpt>
<trkpt lon="4.889443" lat="50.244825"><ele>202.0</ele></trkpt>
<trkpt lon="4.889234" lat="50.244754"><ele>202.0</ele></trkpt>
<trkpt lon="4.888588" lat="50.244607"><ele>202.0</ele></trkpt>
<trkpt lon="4.888193" lat="50.244480"><ele>202.25</ele></trkpt>
<trkpt lon="4.888045" lat="50.244440"><ele>203.0</ele></trkpt>
<trkpt lon="4.887605" lat="50.244337"><ele>203.25</ele></trkpt>
<trkpt lon="4.885650" lat="50.244098"><ele>204.75</ele></trkpt>
<trkpt lon="4.885415" lat="50.243980"><ele>206.0</ele></trkpt>
<trkpt lon="4.885464" lat="50.243907"><ele>206.25</ele></trkpt>
<trkpt lon="4.885578" lat="50.243550"><ele>205.25</ele></trkpt>
<trkpt lon="4.885594" lat="50.243483"><ele>203.5</ele></trkpt>
<trkpt lon="4.885574" lat="50.243355"><ele>200.25</ele></trkpt>
<trkpt lon="4.885371" lat="50.243288"><ele>199.25</ele></trkpt>
<trkpt lon="4.884418" lat="50.243142"><ele>201.75</ele></trkpt>
<trkpt lon="4.883989" lat="50.243148"><ele>204.0</ele></trkpt>
<trkpt lon="4.883465" lat="50.243189"><ele>207.25</ele></trkpt>
<trkpt lon="4.883192" lat="50.243199"><ele>209.0</ele></trkpt>
<trkpt lon="4.882869" lat="50.243186"><ele>210.75</ele></trkpt>
<trkpt lon="4.882580" lat="50.243156"><ele>212.25</ele></trkpt>
<trkpt lon="4.882284" lat="50.243104"><ele>214.75</ele></trkpt>
<trkpt lon="4.882056" lat="50.243042"><ele>215.25</ele></trkpt>
<trkpt lon="4.881841" lat="50.242973"><ele>215.5</ele></trkpt>
<trkpt lon="4.881652" lat="50.242876"><ele>216.75</ele></trkpt>
<trkpt lon="4.881341" lat="50.242691"><ele>219.25</ele></trkpt>
<trkpt lon="4.880874" lat="50.242428"><ele>222.5</ele></trkpt>
<trkpt lon="4.880544" lat="50.242226"><ele>225.75</ele></trkpt>
<trkpt lon="4.880075" lat="50.241902"><ele>232.0</ele></trkpt>
<trkpt lon="4.879795" lat="50.241597"><ele>236.25</ele></trkpt>
<trkpt lon="4.879564" lat="50.241314"><ele>239.5</ele></trkpt>
<trkpt lon="4.879047" lat="50.240678"><ele>242.5</ele></trkpt>
<trkpt lon="4.878815" lat="50.240375"><ele>243.5</ele></trkpt>
<trkpt lon="4.878307" lat="50.239894"><ele>242.5</ele></trkpt>
<trkpt lon="4.878024" lat="50.239626"><ele>240.75</ele></trkpt>
<trkpt lon="4.876878" lat="50.238694"><ele>234.25</ele></trkpt>
<trkpt lon="4.875544" lat="50.237734"><ele>222.5</ele></trkpt>
<trkpt lon="4.875079" lat="50.237496"><ele>220.25</ele></trkpt>
<trkpt lon="4.874662" lat="50.237355"><ele>218.0</ele></trkpt>
<trkpt lon="4.874283" lat="50.237255"><ele>215.75</ele></trkpt>
<trkpt lon="4.873141" lat="50.236924"><ele>208.25</ele></trkpt>
<trkpt lon="4.872431" lat="50.236764"><ele>203.75</ele></trkpt>
<trkpt lon="4.872287" lat="50.236756"><ele>203.5</ele></trkpt>
<trkpt lon="4.871954" lat="50.236704"><ele>202.25</ele></trkpt>
<trkpt lon="4.871622" lat="50.236623"><ele>200.5</ele></trkpt>
<trkpt lon="4.870985" lat="50.236491"><ele>200.25</ele></trkpt>
<trkpt lon="4.870501" lat="50.236342"><ele>200.5</ele></trkpt>
<trkpt lon="4.870214" lat="50.236265"><ele>201.25</ele></trkpt>
<trkpt lon="4.870025" lat="50.236258"><ele>203.5</ele></trkpt>
<trkpt lon="4.869808" lat="50.236175"><ele>204.5</ele></trkpt>
<trkpt lon="4.869592" lat="50.236051"><ele>204.75</ele></trkpt>
<trkpt lon="4.869415" lat="50.235936"><ele>204.75</ele></trkpt>
<trkpt lon="4.869206" lat="50.235813"><ele>204.5</ele></trkpt>
<trkpt lon="4.868800" lat="50.235607"><ele>201.75</ele></trkpt>
<trkpt lon="4.868516" lat="50.235485"><ele>204.0</ele></trkpt>
<trkpt lon="4.868331" lat="50.235362"><ele>208.75</ele></trkpt>
<trkpt lon="4.868213" lat="50.235231"><ele>210.75</ele></trkpt>
<trkpt lon="4.868130" lat="50.235170"><ele>210.75</ele></trkpt>
<trkpt lon="4.867982" lat="50.235109"><ele>211.0</ele></trkpt>
<trkpt lon="4.867799" lat="50.235046"><ele>211.75</ele></trkpt>
<trkpt lon="4.867532" lat="50.234899"><ele>212.0</ele></trkpt>
<trkpt lon="4.867355" lat="50.234783"><ele>212.0</ele></trkpt>
<trkpt lon="4.866753" lat="50.234458"><ele>212.25</ele></trkpt>
<trkpt lon="4.865562" lat="50.233787"><ele>211.0</ele></trkpt>
<trkpt lon="4.865341" lat="50.233700"><ele>211.5</ele></trkpt>
<trkpt lon="4.864942" lat="50.233590"><ele>213.0</ele></trkpt>
<trkpt lon="4.864606" lat="50.233575"><ele>214.75</ele></trkpt>
<trkpt lon="4.864275" lat="50.233551"><ele>216.5</ele></trkpt>
<trkpt lon="4.863878" lat="50.233540"><ele>218.75</ele></trkpt>
<trkpt lon="4.863517" lat="50.233571"><ele>220.5</ele></trkpt>
<trkpt lon="4.863303" lat="50.233599"><ele>222.0</ele></trkpt>
<trkpt lon="4.863043" lat="50.233655"><ele>223.5</ele></trkpt>
<trkpt lon="4.862740" lat="50.233731"><ele>225.25</ele></trkpt>
<trkpt lon="4.862530" lat="50.233725"><ele>225.75</ele></trkpt>
<trkpt lon="4.862292" lat="50.233712"><ele>226.0</ele></trkpt>
<trkpt lon="4.862060" lat="50.233664"><ele>226.0</ele></trkpt>
<trkpt lon="4.860901" lat="50.233411"><ele>222.25</ele></trkpt>
<trkpt lon="4.860508" lat="50.233229"><ele>220.5</ele></trkpt>
<trkpt lon="4.859952" lat="50.232880"><ele>220.0</ele></trkpt>
<trkpt lon="4.858896" lat="50.232270"><ele>216.75</ele></trkpt>
<trkpt lon="4.858792" lat="50.232219"><ele>216.5</ele></trkpt>
<trkpt lon="4.858716" lat="50.232193"><ele>216.25</ele></trkpt>
<trkpt lon="4.858687" lat="50.232150"><ele>216.25</ele></trkpt>
<trkpt lon="4.857287" lat="50.231412"><ele>213.75</ele></trkpt>
<trkpt lon="4.855751" lat="50.230525"><ele>214.25</ele></trkpt>
<trkpt lon="4.854848" lat="50.230124"><ele>215.25</ele></trkpt>
<trkpt lon="4.853973" lat="50.229627"><ele>217.5</ele></trkpt>
<trkpt lon="4.851912" lat="50.228364"><ele>223.0</ele></trkpt>
<trkpt lon="4.850928" lat="50.227810"><ele>224.5</ele></trkpt>
<trkpt lon="4.850584" lat="50.227625"><ele>224.75</ele></trkpt>
<trkpt lon="4.850082" lat="50.227421"><ele>225.5</ele></trkpt>
<trkpt lon="4.848680" lat="50.226850"><ele>225.5</ele></trkpt>
<trkpt lon="4.846447" lat="50.226089"><ele>223.25</ele></trkpt>
<trkpt lon="4.842709" lat="50.224677"><ele>217.75</ele></trkpt>
<trkpt lon="4.840912" lat="50.223980"><ele>215.5</ele></trkpt>
<trkpt lon="4.839097" lat="50.223310"><ele>213.75</ele></trkpt>
<trkpt lon="4.837339" lat="50.222645"><ele>212.0</ele></trkpt>
<trkpt lon="4.836776" lat="50.222469"><ele>211.0</ele></trkpt>
<trkpt lon="4.836785" lat="50.222460"><ele>211.0</ele></trkpt>
<trkpt lon="4.834942" lat="50.221896"><ele>209.75</ele></trkpt>
<trkpt lon="4.833489" lat="50.221435"><ele>207.5</ele></trkpt>
<trkpt lon="4.833209" lat="50.221359"><ele>206.75</ele></trkpt>
<trkpt lon="4.832915" lat="50.221207"><ele>205.5</ele></trkpt>
<trkpt lon="4.832579" lat="50.221014"><ele>203.5</ele></trkpt>
<trkpt lon="4.832438" lat="50.220915"><ele>202.5</ele></trkpt>
<trkpt lon="4.832222" lat="50.220763"><ele>201.0</ele></trkpt>
<trkpt lon="4.831970" lat="50.220665"><ele>199.25</ele></trkpt>
<trkpt lon="4.831501" lat="50.220531"><ele>195.5</ele></trkpt>
<trkpt lon="4.831333" lat="50.220396"><ele>193.25</ele></trkpt>
<trkpt lon="4.831289" lat="50.220280"><ele>191.5</ele></trkpt>
<trkpt lon="4.831038" lat="50.219604"><ele>184.5</ele></trkpt>
<trkpt lon="4.831012" lat="50.219554"><ele>184.0</ele></trkpt>
<trkpt lon="4.830672" lat="50.219602"><ele>183.25</ele></trkpt>
<trkpt lon="4.830381" lat="50.219669"><ele>181.75</ele></trkpt>
<trkpt lon="4.830399" lat="50.219363"><ele>182.0</ele></trkpt>
<trkpt lon="4.830462" lat="50.218859"><ele>177.5</ele></trkpt>
<trkpt lon="4.830170" lat="50.218787"><ele>177.25</ele></trkpt>
<trkpt lon="4.827854" lat="50.218472"><ele>179.5</ele></trkpt>
  </trkseg></trk></gpx>
