<?xml version="1.0" encoding="UTF-8"?>
<gpx version="1.1" creator="compostel-brouter" xmlns="http://www.topografix.com/GPX/1/1">
  <metadata><name>BE-04-Namur</name></metadata>
  <trk><name>BE-04-Namur</name><trkseg>
<trkpt lon="5.092986" lat="50.487997"><ele>77.25</ele></trkpt>
<trkpt lon="5.092735" lat="50.488563"><ele>77.0</ele></trkpt>
<trkpt lon="5.092737" lat="50.488647"><ele>77.0</ele></trkpt>
<trkpt lon="5.091785" lat="50.488533"><ele>76.5</ele></trkpt>
<trkpt lon="5.091293" lat="50.488460"><ele>77.0</ele></trkpt>
<trkpt lon="5.091119" lat="50.488453"><ele>77.0</ele></trkpt>
<trkpt lon="5.090877" lat="50.488495"><ele>77.0</ele></trkpt>
<trkpt lon="5.090749" lat="50.488517"><ele>77.0</ele></trkpt>
<trkpt lon="5.090463" lat="50.488567"><ele>77.0</ele></trkpt>
<trkpt lon="5.090074" lat="50.488634"><ele>76.75</ele></trkpt>
<trkpt lon="5.089959" lat="50.488303"><ele>77.0</ele></trkpt>
<trkpt lon="5.089726" lat="50.488252"><ele>77.0</ele></trkpt>
<trkpt lon="5.087386" lat="50.487898"><ele>77.5</ele></trkpt>
<trkpt lon="5.087242" lat="50.487817"><ele>77.75</ele></trkpt>
<trkpt lon="5.086992" lat="50.487770"><ele>78.0</ele></trkpt>
<trkpt lon="5.086592" lat="50.487726"><ele>79.0</ele></trkpt>
<trkpt lon="5.086479" lat="50.487756"><ele>79.5</ele></trkpt>
<trkpt lon="5.086290" lat="50.487781"><ele>79.5</ele></trkpt>
<trkpt lon="5.085474" lat="50.487885"><ele>77.5</ele></trkpt>
<trkpt lon="5.082943" lat="50.488261"><ele>77.0</ele></trkpt>
<trkpt lon="5.082825" lat="50.488254"><ele>77.0</ele></trkpt>
<trkpt lon="5.082441" lat="50.488198"><ele>77.0</ele></trkpt>
<trkpt lon="5.082079" lat="50.488303"><ele>77.0</ele></trkpt>
<trkpt lon="5.081451" lat="50.488331"><ele>77.0</ele></trkpt>
<trkpt lon="5.080643" lat="50.488575"><ele>77.0</ele></trkpt>
<trkpt lon="5.079522" lat="50.488884"><ele>77.0</ele></trkpt>
<trkpt lon="5.079178" lat="50.489042"><ele>76.0</ele></trkpt>
<trkpt lon="5.078470" lat="50.489176"><ele>76.75</ele></trkpt>
<trkpt lon="5.078016" lat="50.489322"><ele>77.0</ele></trkpt>
<trkpt lon="5.077359" lat="50.489653"><ele>77.0</ele></trkpt>
<trkpt lon="5.076557" lat="50.490046"><ele>77.0</ele></trkpt>
<trkpt lon="5.075294" lat="50.490392"><ele>77.0</ele></trkpt>
<trkpt lon="5.075107" lat="50.490405"><ele>77.25</ele></trkpt>
<trkpt lon="5.074074" lat="50.490551"><ele>77.75</ele></trkpt>
<trkpt lon="5.073980" lat="50.490616"><ele>77.75</ele></trkpt>
<trkpt lon="5.073782" lat="50.490660"><ele>77.5</ele></trkpt>
<trkpt lon="5.072886" lat="50.490800"><ele>77.0</ele></trkpt>
<trkpt lon="5.072583" lat="50.490829"><ele>77.0</ele></trkpt>
<trkpt lon="5.072216" lat="50.490870"><ele>77.0</ele></trkpt>
<trkpt lon="5.072097" lat="50.490884"><ele>77.0</ele></trkpt>
<trkpt lon="5.070630" lat="50.491114"><ele>78.5</ele></trkpt>
<trkpt lon="5.070755" lat="50.491508"><ele>78.0</ele></trkpt>
<trkpt lon="5.070739" lat="50.491585"><ele>78.0</ele></trkpt>
<trkpt lon="5.070737" lat="50.491668"><ele>77.75</ele></trkpt>
<trkpt lon="5.069648" lat="50.491684"><ele>77.75</ele></trkpt>
<trkpt lon="5.068992" lat="50.491700"><ele>78.5</ele></trkpt>
<trkpt lon="5.069001" lat="50.491755"><ele>78.0</ele></trkpt>
<trkpt lon="5.068988" lat="50.491887"><ele>77.0</ele></trkpt>
<trkpt lon="5.068941" lat="50.491989"><ele>76.5</ele></trkpt>
<trkpt lon="5.068838" lat="50.492088"><ele>76.0</ele></trkpt>
<trkpt lon="5.068694" lat="50.492165"><ele>75.5</ele></trkpt>
<trkpt lon="5.068550" lat="50.492227"><ele>75.0</ele></trkpt>
<trkpt lon="5.068435" lat="50.492256"><ele>75.5</ele></trkpt>
<trkpt lon="5.067549" lat="50.492386"><ele>76.5</ele></trkpt>
<trkpt lon="5.066855" lat="50.492515"><ele>75.75</ele></trkpt>
<trkpt lon="5.065915" lat="50.492707"><ele>75.5</ele></trkpt>
<trkpt lon="5.064573" lat="50.492990"><ele>76.0</ele></trkpt>
<trkpt lon="5.063085" lat="50.493313"><ele>77.0</ele></trkpt>
<trkpt lon="5.062411" lat="50.493476"><ele>76.5</ele></trkpt>
<trkpt lon="5.062062" lat="50.493553"><ele>75.75</ele></trkpt>
<trkpt lon="5.061757" lat="50.493623"><ele>76.25</ele></trkpt>
<trkpt lon="5.059293" lat="50.494172"><ele>76.0</ele></trkpt>
<trkpt lon="5.056885" lat="50.494708"><ele>76.5</ele></trkpt>
<trkpt lon="5.055177" lat="50.495088"><ele>77.0</ele></trkpt>
<trkpt lon="5.053589" lat="50.495450"><ele>76.75</ele></trkpt>
<trkpt lon="5.053067" lat="50.495534"><ele>76.25</ele></trkpt>
<trkpt lon="5.052665" lat="50.495580"><ele>76.25</ele></trkpt>
<trkpt lon="5.052181" lat="50.495606"><ele>76.75</ele></trkpt>
<trkpt lon="5.051671" lat="50.495609"><ele>77.25</ele></trkpt>
<trkpt lon="5.050965" lat="50.495602"><ele>76.5</ele></trkpt>
<trkpt lon="5.045449" lat="50.495422"><ele>76.75</ele></trkpt>
<trkpt lon="5.044755" lat="50.495408"><ele>76.0</ele></trkpt>
<trkpt lon="5.043982" lat="50.495381"><ele>76.25</ele></trkpt>
<trkpt lon="5.043367" lat="50.495355"><ele>76.25</ele></trkpt>
<trkpt lon="5.042922" lat="50.495312"><ele>76.25</ele></trkpt>
<trkpt lon="5.041811" lat="50.495164"><ele>75.75</ele></trkpt>
<trkpt lon="5.040671" lat="50.494929"><ele>75.5</ele></trkpt>
<trkpt lon="5.039210" lat="50.494516"><ele>76.5</ele></trkpt>
<trkpt lon="5.037045" lat="50.493933"><ele>76.75</ele></trkpt>
<trkpt lon="5.036505" lat="50.493802"><ele>76.75</ele></trkpt>
<trkpt lon="5.034161" lat="50.493319"><ele>76.0</ele></trkpt>
<trkpt lon="5.033720" lat="50.493232"><ele>75.5</ele></trkpt>
<trkpt lon="5.033016" lat="50.493067"><ele>76.0</ele></trkpt>
<trkpt lon="5.032228" lat="50.492866"><ele>75.5</ele></trkpt>
<trkpt lon="5.031740" lat="50.492729"><ele>75.5</ele></trkpt>
<trkpt lon="5.031349" lat="50.492591"><ele>75.5</ele></trkpt>
<trkpt lon="5.029578" lat="50.491858"><ele>76.25</ele></trkpt>
<trkpt lon="5.029041" lat="50.491641"><ele>75.5</ele></trkpt>
<trkpt lon="5.028544" lat="50.491405"><ele>75.5</ele></trkpt>
<trkpt lon="5.028463" lat="50.491286"><ele>75.75</ele></trkpt>
<trkpt lon="5.028291" lat="50.491155"><ele>75.75</ele></trkpt>
<trkpt lon="5.028084" lat="50.491014"><ele>76.25</ele></trkpt>
<trkpt lon="5.027682" lat="50.490645"><ele>76.0</ele></trkpt>
<trkpt lon="5.027582" lat="50.490625"><ele>76.0</ele></trkpt>
<trkpt lon="5.027045" lat="50.490457"><ele>77.0</ele></trkpt>
<trkpt lon="5.026755" lat="50.490398"><ele>76.75</ele></trkpt>
<trkpt lon="5.026548" lat="50.490280"><ele>76.5</ele></trkpt>
<trkpt lon="5.026515" lat="50.490230"><ele>76.5</ele></trkpt>
<trkpt lon="5.026102" lat="50.490156"><ele>76.25</ele></trkpt>
<trkpt lon="5.025863" lat="50.490142"><ele>76.0</ele></trkpt>
<trkpt lon="5.025063" lat="50.489805"><ele>75.75</ele></trkpt>
<trkpt lon="5.024379" lat="50.489491"><ele>76.25</ele></trkpt>
<trkpt lon="5.023933" lat="50.489257"><ele>76.0</ele></trkpt>
<trkpt lon="5.023459" lat="50.488976"><ele>75.75</ele></trkpt>
<trkpt lon="5.023170" lat="50.488785"><ele>76.0</ele></trkpt>
<trkpt lon="5.022853" lat="50.488571"><ele>75.75</ele></trkpt>
<trkpt lon="5.022391" lat="50.488214"><ele>76.0</ele></trkpt>
<trkpt lon="5.022222" lat="50.488065"><ele>75.75</ele></trkpt>
<trkpt lon="5.021752" lat="50.487633"><ele>75.75</ele></trkpt>
<trkpt lon="5.021251" lat="50.487060"><ele>76.0</ele></trkpt>
<trkpt lon="5.021104" lat="50.486878"><ele>76.0</ele></trkpt>
<trkpt lon="5.020807" lat="50.486471"><ele>75.5</ele></trkpt>
<trkpt lon="5.020599" lat="50.486194"><ele>75.75</ele></trkpt>
<trkpt lon="5.019186" lat="50.484253"><ele>76.0</ele></trkpt>
<trkpt lon="5.018893" lat="50.483835"><ele>76.0</ele></trkpt>
<trkpt lon="5.018583" lat="50.483414"><ele>76.5</ele></trkpt>
<trkpt lon="5.018586" lat="50.483364"><ele>76.75</ele></trkpt>
<trkpt lon="5.018524" lat="50.483302"><ele>76.5</ele></trkpt>
<trkpt lon="5.018177" lat="50.482725"><ele>76.0</ele></trkpt>
<trkpt lon="5.018213" lat="50.482483"><ele>77.5</ele></trkpt>
<trkpt lon="5.017596" lat="50.481773"><ele>77.25</ele></trkpt>
<trkpt lon="5.017535" lat="50.481702"><ele>77.75</ele></trkpt>
<trkpt lon="5.017515" lat="50.481627"><ele>78.0</ele></trkpt>
<trkpt lon="5.017549" lat="50.481504"><ele>78.5</ele></trkpt>
<trkpt lon="5.017588" lat="50.481469"><ele>78.75</ele></trkpt>
<trkpt lon="5.017334" lat="50.481318"><ele>78.5</ele></trkpt>
<trkpt lon="5.017262" lat="50.481305"><ele>78.25</ele></trkpt>
<trkpt lon="5.017156" lat="50.481326"><ele>77.5</ele></trkpt>
<trkpt lon="5.017054" lat="50.481321"><ele>76.75</ele></trkpt>
<trkpt lon="5.016788" lat="50.480975"><ele>76.0</ele></trkpt>
<trkpt lon="5.016723" lat="50.480890"><ele>76.0</ele></trkpt>
<trkpt lon="5.015881" lat="50.479791"><ele>77.5</ele></trkpt>
<trkpt lon="5.015288" lat="50.479018"><ele>77.5</ele></trkpt>
<trkpt lon="5.014474" lat="50.477960"><ele>77.75</ele></trkpt>
<trkpt lon="5.014162" lat="50.477579"><ele>78.0</ele></trkpt>
<trkpt lon="5.013807" lat="50.477180"><ele>77.25</ele></trkpt>
<trkpt lon="5.013410" lat="50.476772"><ele>77.75</ele></trkpt>
<trkpt lon="5.013004" lat="50.476393"><ele>78.0</ele></trkpt>
<trkpt lon="5.012761" lat="50.476165"><ele>78.0</ele></trkpt>
<trkpt lon="5.012421" lat="50.475891"><ele>77.25</ele></trkpt>
<trkpt lon="5.012274" lat="50.475777"><ele>77.0</ele></trkpt>
<trkpt lon="5.011152" lat="50.474907"><ele>76.5</ele></trkpt>
<trkpt lon="5.010011" lat="50.474037"><ele>79.0</ele></trkpt>
<trkpt lon="5.009689" lat="50.473752"><ele>78.75</ele></trkpt>
<trkpt lon="5.010068" lat="50.473509"><ele>79.0</ele></trkpt>
<trkpt lon="5.009941" lat="50.473401"><ele>79.0</ele></trkpt>
<trkpt lon="5.009711" lat="50.473235"><ele>79.0</ele></trkpt>
<trkpt lon="5.007959" lat="50.472050"><ele>78.75</ele></trkpt>
<trkpt lon="5.007837" lat="50.472014"><ele>78.75</ele></trkpt>
<trkpt lon="5.007677" lat="50.472117"><ele>77.75</ele></trkpt>
<trkpt lon="5.007647" lat="50.472090"><ele>77.75</ele></trkpt>
<trkpt lon="5.007167" lat="50.471703"><ele>77.75</ele></trkpt>
<trkpt lon="5.005894" lat="50.470672"><ele>78.25</ele></trkpt>
<trkpt lon="5.005185" lat="50.470174"><ele>77.0</ele></trkpt>
<trkpt lon="5.004395" lat="50.469692"><ele>77.5</ele></trkpt>
<trkpt lon="5.003953" lat="50.469450"><ele>78.0</ele></trkpt>
<trkpt lon="5.003384" lat="50.469175"><ele>78.0</ele></trkpt>
<trkpt lon="5.002823" lat="50.468936"><ele>78.25</ele></trkpt>
<trkpt lon="5.002141" lat="50.468684"><ele>77.5</ele></trkpt>
<trkpt lon="5.000873" lat="50.468247"><ele>77.25</ele></trkpt>
<trkpt lon="5.000407" lat="50.468109"><ele>78.5</ele></trkpt>
<trkpt lon="4.999886" lat="50.467991"><ele>76.5</ele></trkpt>
<trkpt lon="4.999554" lat="50.467921"><ele>77.0</ele></trkpt>
<trkpt lon="4.999276" lat="50.467868"><ele>77.25</ele></trkpt>
<trkpt lon="4.998966" lat="50.467835"><ele>77.25</ele></trkpt>
<trkpt lon="4.998644" lat="50.467806"><ele>76.75</ele></trkpt>
<trkpt lon="4.998086" lat="50.467779"><ele>75.75</ele></trkpt>
<trkpt lon="4.997336" lat="50.467760"><ele>76.0</ele></trkpt>
<trkpt lon="4.995078" lat="50.467718"><ele>75.75</ele></trkpt>
<trkpt lon="4.994342" lat="50.467717"><ele>75.5</ele></trkpt>
<trkpt lon="4.993424" lat="50.467745"><ele>77.0</ele></trkpt>
<trkpt lon="4.992787" lat="50.467785"><ele>76.75</ele></trkpt>
<trkpt lon="4.992666" lat="50.467796"><ele>76.75</ele></trkpt>
<trkpt lon="4.992308" lat="50.467833"><ele>76.5</ele></trkpt>
<trkpt lon="4.991401" lat="50.467948"><ele>75.75</ele></trkpt>
<trkpt lon="4.990810" lat="50.468045"><ele>77.0</ele></trkpt>
<trkpt lon="4.990348" lat="50.468146"><ele>76.25</ele></trkpt>
<trkpt lon="4.989700" lat="50.468320"><ele>77.0</ele></trkpt>
<trkpt lon="4.989239" lat="50.468471"><ele>76.25</ele></trkpt>
<trkpt lon="4.988828" lat="50.468643"><ele>76.75</ele></trkpt>
<trkpt lon="4.987399" lat="50.469337"><ele>77.0</ele></trkpt>
<trkpt lon="4.986008" lat="50.470055"><ele>77.25</ele></trkpt>
<trkpt lon="4.984930" lat="50.470705"><ele>77.25</ele></trkpt>
<trkpt lon="4.984411" lat="50.471049"><ele>76.25</ele></trkpt>
<trkpt lon="4.981036" lat="50.473514"><ele>76.25</ele></trkpt>
<trkpt lon="4.980770" lat="50.473706"><ele>76.5</ele></trkpt>
<trkpt lon="4.979867" lat="50.474234"><ele>76.75</ele></trkpt>
<trkpt lon="4.978953" lat="50.474674"><ele>76.75</ele></trkpt>
<trkpt lon="4.977867" lat="50.475163"><ele>77.0</ele></trkpt>
<trkpt lon="4.975437" lat="50.476282"><ele>77.25</ele></trkpt>
<trkpt lon="4.974271" lat="50.476824"><ele>77.25</ele></trkpt>
<trkpt lon="4.973539" lat="50.477117"><ele>76.75</ele></trkpt>
<trkpt lon="4.973370" lat="50.477185"><ele>76.25</ele></trkpt>
<trkpt lon="4.972002" lat="50.477656"><ele>76.75</ele></trkpt>
<trkpt lon="4.971783" lat="50.477703"><ele>77.5</ele></trkpt>
<trkpt lon="4.969991" lat="50.478211"><ele>77.5</ele></trkpt>
<trkpt lon="4.969857" lat="50.478248"><ele>77.25</ele></trkpt>
<trkpt lon="4.969416" lat="50.478361"><ele>78.0</ele></trkpt>
<trkpt lon="4.967947" lat="50.478689"><ele>79.5</ele></trkpt>
<trkpt lon="4.967933" lat="50.478692"><ele>79.5</ele></trkpt>
<trkpt lon="4.966878" lat="50.478915"><ele>78.25</ele></trkpt>
<trkpt lon="4.964864" lat="50.479331"><ele>78.25</ele></trkpt>
<trkpt lon="4.961241" lat="50.479959"><ele>77.75</ele></trkpt>
<trkpt lon="4.960752" lat="50.480051"><ele>77.75</ele></trkpt>
<trkpt lon="4.959197" lat="50.480333"><ele>77.25</ele></trkpt>
<trkpt lon="4.959082" lat="50.480352"><ele>77.0</ele></trkpt>
<trkpt lon="4.957693" lat="50.480584"><ele>77.0</ele></trkpt>
<trkpt lon="4.956955" lat="50.480693"><ele>78.5</ele></trkpt>
<trkpt lon="4.956207" lat="50.480789"><ele>77.5</ele></trkpt>
<trkpt lon="4.954399" lat="50.480911"><ele>77.0</ele></trkpt>
<trkpt lon="4.953219" lat="50.480928"><ele>76.75</ele></trkpt>
<trkpt lon="4.952919" lat="50.480924"><ele>77.0</ele></trkpt>
<trkpt lon="4.951762" lat="50.480865"><ele>77.5</ele></trkpt>
<trkpt lon="4.951045" lat="50.480779"><ele>75.5</ele></trkpt>
<trkpt lon="4.950186" lat="50.480649"><ele>76.75</ele></trkpt>
<trkpt lon="4.949539" lat="50.480541"><ele>76.75</ele></trkpt>
<trkpt lon="4.948120" lat="50.480309"><ele>77.5</ele></trkpt>
<trkpt lon="4.947109" lat="50.480129"><ele>76.5</ele></trkpt>
<trkpt lon="4.946431" lat="50.479975"><ele>77.0</ele></trkpt>
<trkpt lon="4.945828" lat="50.479815"><ele>76.75</ele></trkpt>
<trkpt lon="4.945228" lat="50.479644"><ele>76.75</ele></trkpt>
<trkpt lon="4.944748" lat="50.479496"><ele>77.5</ele></trkpt>
<trkpt lon="4.943715" lat="50.479112"><ele>77.0</ele></trkpt>
<trkpt lon="4.942524" lat="50.478580"><ele>76.75</ele></trkpt>
<trkpt lon="4.941432" lat="50.477983"><ele>77.0</ele></trkpt>
<trkpt lon="4.940266" lat="50.477239"><ele>76.75</ele></trkpt>
<trkpt lon="4.938944" lat="50.476361"><ele>77.0</ele></trkpt>
<trkpt lon="4.935274" lat="50.473974"><ele>77.5</ele></trkpt>
<trkpt lon="4.935137" lat="50.473891"><ele>76.75</ele></trkpt>
<trkpt lon="4.934747" lat="50.473638"><ele>77.75</ele></trkpt>
<trkpt lon="4.934565" lat="50.473523"><ele>77.75</ele></trkpt>
<trkpt lon="4.933479" lat="50.472773"><ele>77.75</ele></trkpt>
<trkpt lon="4.925919" lat="50.467550"><ele>78.5</ele></trkpt>
<trkpt lon="4.924977" lat="50.466908"><ele>78.25</ele></trkpt>
<trkpt lon="4.924696" lat="50.466715"><ele>79.5</ele></trkpt>
<trkpt lon="4.923478" lat="50.466157"><ele>77.25</ele></trkpt>
<trkpt lon="4.923338" lat="50.466045"><ele>76.75</ele></trkpt>
<trkpt lon="4.923401" lat="50.465900"><ele>79.25</ele></trkpt>
<trkpt lon="4.923187" lat="50.465793"><ele>79.5</ele></trkpt>
<trkpt lon="4.922746" lat="50.465611"><ele>79.25</ele></trkpt>
<trkpt lon="4.922499" lat="50.465525"><ele>79.0</ele></trkpt>
<trkpt lon="4.922286" lat="50.465460"><ele>79.5</ele></trkpt>
<trkpt lon="4.921632" lat="50.465303"><ele>80.0</ele></trkpt>
<trkpt lon="4.921209" lat="50.465189"><ele>77.75</ele></trkpt>
<trkpt lon="4.920101" lat="50.464904"><ele>77.75</ele></trkpt>
<trkpt lon="4.919074" lat="50.464651"><ele>78.0</ele></trkpt>
<trkpt lon="4.918218" lat="50.464463"><ele>79.25</ele></trkpt>
<trkpt lon="4.917165" lat="50.464283"><ele>79.0</ele></trkpt>
<trkpt lon="4.915856" lat="50.464091"><ele>79.75</ele></trkpt>
<trkpt lon="4.913268" lat="50.463874"><ele>78.0</ele></trkpt>
<trkpt lon="4.912530" lat="50.463852"><ele>78.5</ele></trkpt>
<trkpt lon="4.911947" lat="50.463859"><ele>78.5</ele></trkpt>
<trkpt lon="4.911277" lat="50.463880"><ele>78.0</ele></trkpt>
<trkpt lon="4.909797" lat="50.463987"><ele>77.5</ele></trkpt>
<trkpt lon="4.909037" lat="50.464050"><ele>76.5</ele></trkpt>
<trkpt lon="4.908397" lat="50.464118"><ele>78.5</ele></trkpt>
<trkpt lon="4.907515" lat="50.464231"><ele>79.25</ele></trkpt>
<trkpt lon="4.907353" lat="50.464251"><ele>78.5</ele></trkpt>
<trkpt lon="4.906444" lat="50.464391"><ele>78.5</ele></trkpt>
<trkpt lon="4.905784" lat="50.464529"><ele>78.25</ele></trkpt>
<trkpt lon="4.905043" lat="50.464694"><ele>78.5</ele></trkpt>
<trkpt lon="4.904552" lat="50.464788"><ele>78.75</ele></trkpt>
<trkpt lon="4.904169" lat="50.464848"><ele>78.75</ele></trkpt>
<trkpt lon="4.903738" lat="50.464903"><ele>79.25</ele></trkpt>
<trkpt lon="4.903467" lat="50.464931"><ele>78.5</ele></trkpt>
<trkpt lon="4.902864" lat="50.464966"><ele>78.75</ele></trkpt>
<trkpt lon="4.901364" lat="50.465036"><ele>78.5</ele></trkpt>
<trkpt lon="4.901117" lat="50.465155"><ele>77.5</ele></trkpt>
<trkpt lon="4.899900" lat="50.465224"><ele>78.0</ele></trkpt>
<trkpt lon="4.899758" lat="50.465262"><ele>78.75</ele></trkpt>
<trkpt lon="4.899501" lat="50.465344"><ele>80.5</ele></trkpt>
<trkpt lon="4.899167" lat="50.465416"><ele>80.0</ele></trkpt>
<trkpt lon="4.898848" lat="50.465462"><ele>79.75</ele></trkpt>
<trkpt lon="4.897852" lat="50.465511"><ele>80.25</ele></trkpt>
<trkpt lon="4.896585" lat="50.465557"><ele>80.75</ele></trkpt>
<trkpt lon="4.896285" lat="50.465570"><ele>81.0</ele></trkpt>
<trkpt lon="4.895702" lat="50.465582"><ele>80.25</ele></trkpt>
<trkpt lon="4.895570" lat="50.465549"><ele>80.75</ele></trkpt>
<trkpt lon="4.895422" lat="50.465547"><ele>81.0</ele></trkpt>
<trkpt lon="4.895240" lat="50.465588"><ele>80.75</ele></trkpt>
<trkpt lon="4.894900" lat="50.465632"><ele>80.75</ele></trkpt>
<trkpt lon="4.894735" lat="50.465638"><ele>80.75</ele></trkpt>
<trkpt lon="4.894467" lat="50.465625"><ele>80.75</ele></trkpt>
<trkpt lon="4.894183" lat="50.465596"><ele>80.5</ele></trkpt>
<trkpt lon="4.893898" lat="50.465555"><ele>80.0</ele></trkpt>
<trkpt lon="4.893551" lat="50.465483"><ele>79.5</ele></trkpt>
<trkpt lon="4.893198" lat="50.465499"><ele>79.25</ele></trkpt>
<trkpt lon="4.892370" lat="50.465531"><ele>79.0</ele></trkpt>
<trkpt lon="4.891430" lat="50.465568"><ele>80.75</ele></trkpt>
<trkpt lon="4.890428" lat="50.465608"><ele>79.75</ele></trkpt>
<trkpt lon="4.889577" lat="50.465646"><ele>79.5</ele></trkpt>
<trkpt lon="4.889386" lat="50.465651"><ele>79.75</ele></trkpt>
<trkpt lon="4.888973" lat="50.465662"><ele>80.0</ele></trkpt>
<trkpt lon="4.888563" lat="50.465659"><ele>79.5</ele></trkpt>
<trkpt lon="4.888114" lat="50.465637"><ele>79.5</ele></trkpt>
<trkpt lon="4.887489" lat="50.465578"><ele>79.75</ele></trkpt>
<trkpt lon="4.887368" lat="50.465564"><ele>79.75</ele></trkpt>
<trkpt lon="4.886308" lat="50.465449"><ele>80.0</ele></trkpt>
<trkpt lon="4.885098" lat="50.465321"><ele>80.0</ele></trkpt>
<trkpt lon="4.884712" lat="50.465281"><ele>79.75</ele></trkpt>
<trkpt lon="4.884505" lat="50.465256"><ele>79.25</ele></trkpt>
<trkpt lon="4.884257" lat="50.465224"><ele>79.25</ele></trkpt>
<trkpt lon="4.883983" lat="50.465191"><ele>79.5</ele></trkpt>
<trkpt lon="4.882035" lat="50.464846"><ele>80.0</ele></trkpt>
<trkpt lon="4.881089" lat="50.464640"><ele>79.5</ele></trkpt>
<trkpt lon="4.880214" lat="50.464373"><ele>79.75</ele></trkpt>
<trkpt lon="4.880175" lat="50.464326"><ele>80.25</ele></trkpt>
<trkpt lon="4.880001" lat="50.464254"><ele>81.0</ele></trkpt>
<trkpt lon="4.879882" lat="50.464174"><ele>81.5</ele></trkpt>
<trkpt lon="4.879628" lat="50.464086"><ele>81.75</ele></trkpt>
<trkpt lon="4.879551" lat="50.464011"><ele>82.25</ele></trkpt>
<trkpt lon="4.879466" lat="50.463825"><ele>82.5</ele></trkpt>
<trkpt lon="4.879588" lat="50.463804"><ele>84.25</ele></trkpt>
<trkpt lon="4.879736" lat="50.463824"><ele>86.75</ele></trkpt>
<trkpt lon="4.879651" lat="50.463947"><ele>85.0</ele></trkpt>
<trkpt lon="4.878648" lat="50.465371"><ele>83.5</ele></trkpt>
<trkpt lon="4.878580" lat="50.465468"><ele>86.25</ele></trkpt>
<trkpt lon="4.878387" lat="50.465692"><ele>87.75</ele></trkpt>
<trkpt lon="4.878347" lat="50.465675"><ele>87.25</ele></trkpt>
<trkpt lon="4.878404" lat="50.465593"><ele>87.0</ele></trkpt>
<trkpt lon="4.878437" lat="50.465512"><ele>86.5</ele></trkpt>
<trkpt lon="4.878449" lat="50.465415"><ele>85.25</ele></trkpt>
<trkpt lon="4.878414" lat="50.465319"><ele>84.25</ele></trkpt>
<trkpt lon="4.878357" lat="50.465226"><ele>83.75</ele></trkpt>
<trkpt lon="4.878267" lat="50.465169"><ele>82.75</ele></trkpt>
<trkpt lon="4.877944" lat="50.465008"><ele>82.25</ele></trkpt>
<trkpt lon="4.877873" lat="50.465032"><ele>82.5</ele></trkpt>
<trkpt lon="4.878031" lat="50.465193"><ele>82.5</ele></trkpt>
<trkpt lon="4.878132" lat="50.465364"><ele>83.5</ele></trkpt>
<trkpt lon="4.878169" lat="50.465584"><ele>84.25</ele></trkpt>
<trkpt lon="4.878119" lat="50.465779"><ele>84.0</ele></trkpt>
<trkpt lon="4.878052" lat="50.465927"><ele>83.0</ele></trkpt>
<trkpt lon="4.878064" lat="50.465951"><ele>83.0</ele></trkpt>
<trkpt lon="4.878008" lat="50.465971"><ele>83.0</ele></trkpt>
<trkpt lon="4.877957" lat="50.465984"><ele>83.0</ele></trkpt>
<trkpt lon="4.877952" lat="50.466047"><ele>83.0</ele></trkpt>
<trkpt lon="4.877946" lat="50.466094"><ele>83.0</ele></trkpt>
<trkpt lon="4.877899" lat="50.466080"><ele>83.0</ele></trkpt>
<trkpt lon="4.877854" lat="50.466132"><ele>83.25</ele></trkpt>
<trkpt lon="4.877811" lat="50.466179"><ele>84.0</ele></trkpt>
<trkpt lon="4.877797" lat="50.466227"><ele>84.5</ele></trkpt>
<trkpt lon="4.877686" lat="50.466244"><ele>84.25</ele></trkpt>
<trkpt lon="4.877574" lat="50.466272"><ele>84.0</ele></trkpt>
<trkpt lon="4.877291" lat="50.466438"><ele>83.75</ele></trkpt>
<trkpt lon="4.877263" lat="50.466508"><ele>84.75</ele></trkpt>
<trkpt lon="4.876913" lat="50.466696"><ele>84.25</ele></trkpt>
<trkpt lon="4.876549" lat="50.466872"><ele>85.25</ele></trkpt>
<trkpt lon="4.876076" lat="50.467035"><ele>84.75</ele></trkpt>
<trkpt lon="4.875783" lat="50.467152"><ele>84.75</ele></trkpt>
<trkpt lon="4.875762" lat="50.467132"><ele>84.5</ele></trkpt>
<trkpt lon="4.875738" lat="50.467110"><ele>84.25</ele></trkpt>
<trkpt lon="4.875709" lat="50.467083"><ele>84.0</ele></trkpt>
<trkpt lon="4.875686" lat="50.467061"><ele>83.75</ele></trkpt>
<trkpt lon="4.875663" lat="50.467040"><ele>83.5</ele></trkpt>
<trkpt lon="4.875637" lat="50.467016"><ele>83.25</ele></trkpt>
<trkpt lon="4.875623" lat="50.467003"><ele>83.25</ele></trkpt>
<trkpt lon="4.875048" lat="50.467235"><ele>83.0</ele></trkpt>
<trkpt lon="4.874519" lat="50.467434"><ele>84.0</ele></trkpt>
<trkpt lon="4.874109" lat="50.467592"><ele>84.0</ele></trkpt>
<trkpt lon="4.873510" lat="50.467828"><ele>84.0</ele></trkpt>
<trkpt lon="4.872956" lat="50.468044"><ele>84.5</ele></trkpt>
<trkpt lon="4.872838" lat="50.468045"><ele>84.0</ele></trkpt>
<trkpt lon="4.872828" lat="50.468050"><ele>84.0</ele></trkpt>
<trkpt lon="4.872778" lat="50.468075"><ele>84.0</ele></trkpt>
<trkpt lon="4.872756" lat="50.468057"><ele>84.0</ele></trkpt>
<trkpt lon="4.871815" lat="50.467494"><ele>83.75</ele></trkpt>
<trkpt lon="4.872010" lat="50.467410"><ele>83.0</ele></trkpt>
  </trkseg></trk></gpx>
