<?xml version="1.0" encoding="UTF-8"?>
<gpx version="1.1" creator="compostel-brouter" xmlns="http://www.topografix.com/GPX/1/1">
  <metadata><name>BE-02-Huy</name></metadata>
  <trk><name>BE-02-Huy</name><trkseg>
<trkpt lon="5.313071" lat="50.545986"><ele>73.0</ele></trkpt>
<trkpt lon="5.312989" lat="50.545935"><ele>73.25</ele></trkpt>
<trkpt lon="5.312664" lat="50.545734"><ele>72.0</ele></trkpt>
<trkpt lon="5.312436" lat="50.545608"><ele>72.0</ele></trkpt>
<trkpt lon="5.312260" lat="50.545512"><ele>72.25</ele></trkpt>
<trkpt lon="5.311244" lat="50.545061"><ele>71.0</ele></trkpt>
<trkpt lon="5.310768" lat="50.544876"><ele>71.0</ele></trkpt>
<trkpt lon="5.308350" lat="50.544140"><ele>70.75</ele></trkpt>
<trkpt lon="5.307649" lat="50.543821"><ele>71.75</ele></trkpt>
<trkpt lon="5.307680" lat="50.543768"><ele>71.5</ele></trkpt>
<trkpt lon="5.306835" lat="50.543292"><ele>70.0</ele></trkpt>
<trkpt lon="5.306529" lat="50.543225"><ele>70.0</ele></trkpt>
<trkpt lon="5.306022" lat="50.543093"><ele>70.0</ele></trkpt>
<trkpt lon="5.305374" lat="50.542924"><ele>70.0</ele></trkpt>
<trkpt lon="5.305659" lat="50.542553"><ele>70.25</ele></trkpt>
<trkpt lon="5.305754" lat="50.542431"><ele>70.5</ele></trkpt>
<trkpt lon="5.305781" lat="50.542345"><ele>70.25</ele></trkpt>
<trkpt lon="5.305636" lat="50.542138"><ele>70.0</ele></trkpt>
<trkpt lon="5.305342" lat="50.542003"><ele>70.0</ele></trkpt>
<trkpt lon="5.304288" lat="50.541689"><ele>70.0</ele></trkpt>
<trkpt lon="5.303631" lat="50.541474"><ele>70.25</ele></trkpt>
<trkpt lon="5.303048" lat="50.541242"><ele>70.0</ele></trkpt>
<trkpt lon="5.301715" lat="50.540680"><ele>70.5</ele></trkpt>
<trkpt lon="5.301554" lat="50.540648"><ele>70.75</ele></trkpt>
<trkpt lon="5.301557" lat="50.540611"><ele>70.75</ele></trkpt>
<trkpt lon="5.301604" lat="50.540616"><ele>70.75</ele></trkpt>
<trkpt lon="5.301628" lat="50.540553"><ele>71.0</ele></trkpt>
<trkpt lon="5.301669" lat="50.540404"><ele>71.0</ele></trkpt>
<trkpt lon="5.301789" lat="50.540418"><ele>71.0</ele></trkpt>
<trkpt lon="5.301789" lat="50.540402"><ele>71.0</ele></trkpt>
<trkpt lon="5.301638" lat="50.540376"><ele>71.0</ele></trkpt>
<trkpt lon="5.301268" lat="50.540310"><ele>70.75</ele></trkpt>
<trkpt lon="5.301113" lat="50.540307"><ele>70.75</ele></trkpt>
<trkpt lon="5.299967" lat="50.539834"><ele>70.5</ele></trkpt>
<trkpt lon="5.299425" lat="50.539626"><ele>70.75</ele></trkpt>
<trkpt lon="5.300150" lat="50.538380"><ele>71.0</ele></trkpt>
<trkpt lon="5.300196" lat="50.538300"><ele>71.0</ele></trkpt>
<trkpt lon="5.300532" lat="50.537721"><ele>71.0</ele></trkpt>
<trkpt lon="5.299650" lat="50.537563"><ele>71.0</ele></trkpt>
<trkpt lon="5.299400" lat="50.537519"><ele>71.0</ele></trkpt>
<trkpt lon="5.298649" lat="50.537453"><ele>71.0</ele></trkpt>
<trkpt lon="5.298050" lat="50.537400"><ele>71.0</ele></trkpt>
<trkpt lon="5.297232" lat="50.537305"><ele>71.0</ele></trkpt>
<trkpt lon="5.297755" lat="50.536165"><ele>71.0</ele></trkpt>
<trkpt lon="5.297791" lat="50.536104"><ele>71.0</ele></trkpt>
<trkpt lon="5.297838" lat="50.536057"><ele>71.0</ele></trkpt>
<trkpt lon="5.298221" lat="50.535814"><ele>71.0</ele></trkpt>
<trkpt lon="5.298335" lat="50.535730"><ele>71.0</ele></trkpt>
<trkpt lon="5.298307" lat="50.535719"><ele>71.0</ele></trkpt>
<trkpt lon="5.297750" lat="50.535481"><ele>71.0</ele></trkpt>
<trkpt lon="5.297610" lat="50.535424"><ele>71.0</ele></trkpt>
<trkpt lon="5.297568" lat="50.535377"><ele>70.75</ele></trkpt>
<trkpt lon="5.296437" lat="50.534021"><ele>70.5</ele></trkpt>
<trkpt lon="5.295901" lat="50.532884"><ele>70.25</ele></trkpt>
<trkpt lon="5.295795" lat="50.532669"><ele>70.25</ele></trkpt>
<trkpt lon="5.295630" lat="50.532336"><ele>70.25</ele></trkpt>
<trkpt lon="5.295455" lat="50.532368"><ele>70.25</ele></trkpt>
<trkpt lon="5.295408" lat="50.532330"><ele>70.25</ele></trkpt>
<trkpt lon="5.295374" lat="50.532336"><ele>70.0</ele></trkpt>
<trkpt lon="5.294701" lat="50.532446"><ele>70.0</ele></trkpt>
<trkpt lon="5.294648" lat="50.532347"><ele>70.0</ele></trkpt>
<trkpt lon="5.294552" lat="50.532366"><ele>70.0</ele></trkpt>
<trkpt lon="5.291282" lat="50.532990"><ele>70.25</ele></trkpt>
<trkpt lon="5.290702" lat="50.533106"><ele>70.0</ele></trkpt>
<trkpt lon="5.290581" lat="50.533131"><ele>70.0</ele></trkpt>
<trkpt lon="5.290116" lat="50.533224"><ele>70.5</ele></trkpt>
<trkpt lon="5.289806" lat="50.533371"><ele>70.5</ele></trkpt>
<trkpt lon="5.287444" lat="50.533826"><ele>73.0</ele></trkpt>
<trkpt lon="5.284550" lat="50.534529"><ele>74.0</ele></trkpt>
<trkpt lon="5.283487" lat="50.534930"><ele>70.25</ele></trkpt>
<trkpt lon="5.282863" lat="50.535066"><ele>70.0</ele></trkpt>
<trkpt lon="5.282629" lat="50.534991"><ele>70.0</ele></trkpt>
<trkpt lon="5.282370" lat="50.534908"><ele>70.0</ele></trkpt>
<trkpt lon="5.282226" lat="50.534890"><ele>70.25</ele></trkpt>
<trkpt lon="5.282077" lat="50.534911"><ele>70.25</ele></trkpt>
<trkpt lon="5.281893" lat="50.535006"><ele>70.0</ele></trkpt>
<trkpt lon="5.281788" lat="50.535107"><ele>70.25</ele></trkpt>
<trkpt lon="5.281617" lat="50.535331"><ele>70.0</ele></trkpt>
<trkpt lon="5.281241" lat="50.535437"><ele>70.0</ele></trkpt>
<trkpt lon="5.280343" lat="50.535617"><ele>70.0</ele></trkpt>
<trkpt lon="5.278313" lat="50.535963"><ele>70.0</ele></trkpt>
<trkpt lon="5.276426" lat="50.536201"><ele>70.25</ele></trkpt>
<trkpt lon="5.274664" lat="50.536348"><ele>69.0</ele></trkpt>
<trkpt lon="5.273213" lat="50.536414"><ele>70.75</ele></trkpt>
<trkpt lon="5.271924" lat="50.536437"><ele>70.5</ele></trkpt>
<trkpt lon="5.270829" lat="50.536435"><ele>70.75</ele></trkpt>
<trkpt lon="5.268199" lat="50.536358"><ele>70.5</ele></trkpt>
<trkpt lon="5.265284" lat="50.536182"><ele>70.5</ele></trkpt>
<trkpt lon="5.265207" lat="50.536173"><ele>70.75</ele></trkpt>
<trkpt lon="5.265431" lat="50.535427"><ele>71.5</ele></trkpt>
<trkpt lon="5.265438" lat="50.535342"><ele>71.0</ele></trkpt>
<trkpt lon="5.265367" lat="50.535252"><ele>71.0</ele></trkpt>
<trkpt lon="5.265345" lat="50.535160"><ele>71.0</ele></trkpt>
<trkpt lon="5.265228" lat="50.535172"><ele>71.0</ele></trkpt>
<trkpt lon="5.264249" lat="50.535070"><ele>71.25</ele></trkpt>
<trkpt lon="5.264045" lat="50.535097"><ele>71.5</ele></trkpt>
<trkpt lon="5.263748" lat="50.535271"><ele>71.75</ele></trkpt>
<trkpt lon="5.262503" lat="50.535135"><ele>71.75</ele></trkpt>
<trkpt lon="5.261465" lat="50.534990"><ele>72.0</ele></trkpt>
<trkpt lon="5.261328" lat="50.534908"><ele>72.0</ele></trkpt>
<trkpt lon="5.261286" lat="50.534722"><ele>72.0</ele></trkpt>
<trkpt lon="5.261153" lat="50.534679"><ele>72.0</ele></trkpt>
<trkpt lon="5.260238" lat="50.534830"><ele>71.75</ele></trkpt>
<trkpt lon="5.260184" lat="50.534753"><ele>71.5</ele></trkpt>
<trkpt lon="5.260165" lat="50.534726"><ele>71.5</ele></trkpt>
<trkpt lon="5.260091" lat="50.534651"><ele>71.0</ele></trkpt>
<trkpt lon="5.260065" lat="50.534629"><ele>71.0</ele></trkpt>
<trkpt lon="5.259741" lat="50.534701"><ele>71.0</ele></trkpt>
<trkpt lon="5.259594" lat="50.534579"><ele>71.0</ele></trkpt>
<trkpt lon="5.259622" lat="50.534468"><ele>71.0</ele></trkpt>
<trkpt lon="5.259627" lat="50.534402"><ele>71.0</ele></trkpt>
<trkpt lon="5.259567" lat="50.534233"><ele>71.0</ele></trkpt>
<trkpt lon="5.259296" lat="50.533772"><ele>70.75</ele></trkpt>
<trkpt lon="5.259177" lat="50.533601"><ele>70.75</ele></trkpt>
<trkpt lon="5.258552" lat="50.532840"><ele>71.0</ele></trkpt>
<trkpt lon="5.258322" lat="50.532539"><ele>71.0</ele></trkpt>
<trkpt lon="5.257963" lat="50.532255"><ele>71.0</ele></trkpt>
<trkpt lon="5.257501" lat="50.531907"><ele>71.75</ele></trkpt>
<trkpt lon="5.256898" lat="50.531485"><ele>71.75</ele></trkpt>
<trkpt lon="5.256769" lat="50.531399"><ele>71.25</ele></trkpt>
<trkpt lon="5.256618" lat="50.531295"><ele>71.25</ele></trkpt>
<trkpt lon="5.256373" lat="50.531160"><ele>71.75</ele></trkpt>
<trkpt lon="5.256169" lat="50.531055"><ele>71.75</ele></trkpt>
<trkpt lon="5.255815" lat="50.530894"><ele>71.75</ele></trkpt>
<trkpt lon="5.254519" lat="50.530305"><ele>71.25</ele></trkpt>
<trkpt lon="5.253136" lat="50.529684"><ele>71.0</ele></trkpt>
<trkpt lon="5.253109" lat="50.529672"><ele>71.0</ele></trkpt>
<trkpt lon="5.251957" lat="50.529140"><ele>71.75</ele></trkpt>
<trkpt lon="5.251795" lat="50.529065"><ele>72.0</ele></trkpt>
<trkpt lon="5.251657" lat="50.529001"><ele>72.0</ele></trkpt>
<trkpt lon="5.251557" lat="50.528941"><ele>72.0</ele></trkpt>
<trkpt lon="5.251241" lat="50.528703"><ele>71.75</ele></trkpt>
<trkpt lon="5.250643" lat="50.528254"><ele>72.0</ele></trkpt>
<trkpt lon="5.250579" lat="50.528204"><ele>72.0</ele></trkpt>
<trkpt lon="5.249115" lat="50.527207"><ele>72.0</ele></trkpt>
<trkpt lon="5.248319" lat="50.526661"><ele>72.75</ele></trkpt>
<trkpt lon="5.248215" lat="50.526586"><ele>72.75</ele></trkpt>
<trkpt lon="5.248073" lat="50.526483"><ele>72.75</ele></trkpt>
<trkpt lon="5.247248" lat="50.525882"><ele>73.0</ele></trkpt>
<trkpt lon="5.247150" lat="50.525811"><ele>73.0</ele></trkpt>
<trkpt lon="5.247002" lat="50.525703"><ele>73.0</ele></trkpt>
<trkpt lon="5.246777" lat="50.525538"><ele>73.0</ele></trkpt>
<trkpt lon="5.246208" lat="50.525044"><ele>73.0</ele></trkpt>
<trkpt lon="5.246082" lat="50.524948"><ele>72.75</ele></trkpt>
<trkpt lon="5.245918" lat="50.524823"><ele>72.5</ele></trkpt>
<trkpt lon="5.245682" lat="50.524640"><ele>73.0</ele></trkpt>
<trkpt lon="5.245295" lat="50.524330"><ele>73.0</ele></trkpt>
<trkpt lon="5.245179" lat="50.524214"><ele>73.0</ele></trkpt>
<trkpt lon="5.245106" lat="50.524149"><ele>72.75</ele></trkpt>
<trkpt lon="5.245150" lat="50.524104"><ele>72.75</ele></trkpt>
<trkpt lon="5.245085" lat="50.524003"><ele>72.5</ele></trkpt>
<trkpt lon="5.244871" lat="50.523799"><ele>72.5</ele></trkpt>
<trkpt lon="5.244240" lat="50.523195"><ele>73.0</ele></trkpt>
<trkpt lon="5.243740" lat="50.522717"><ele>73.0</ele></trkpt>
<trkpt lon="5.243552" lat="50.522549"><ele>73.0</ele></trkpt>
<trkpt lon="5.243446" lat="50.522455"><ele>73.0</ele></trkpt>
<trkpt lon="5.243401" lat="50.522414"><ele>73.0</ele></trkpt>
<trkpt lon="5.243331" lat="50.522348"><ele>73.0</ele></trkpt>
<trkpt lon="5.242538" lat="50.521609"><ele>72.0</ele></trkpt>
<trkpt lon="5.242118" lat="50.521238"><ele>71.5</ele></trkpt>
<trkpt lon="5.241922" lat="50.521050"><ele>71.25</ele></trkpt>
<trkpt lon="5.241808" lat="50.520872"><ele>71.75</ele></trkpt>
<trkpt lon="5.241675" lat="50.520598"><ele>72.0</ele></trkpt>
<trkpt lon="5.241582" lat="50.520414"><ele>72.5</ele></trkpt>
<trkpt lon="5.241569" lat="50.520389"><ele>72.5</ele></trkpt>
<trkpt lon="5.241536" lat="50.520324"><ele>72.75</ele></trkpt>
<trkpt lon="5.241494" lat="50.520243"><ele>73.0</ele></trkpt>
<trkpt lon="5.241253" lat="50.519784"><ele>73.25</ele></trkpt>
<trkpt lon="5.241186" lat="50.519663"><ele>73.25</ele></trkpt>
<trkpt lon="5.241020" lat="50.519448"><ele>73.0</ele></trkpt>
<trkpt lon="5.240834" lat="50.519255"><ele>73.0</ele></trkpt>
<trkpt lon="5.240738" lat="50.519066"><ele>73.0</ele></trkpt>
<trkpt lon="5.240721" lat="50.519032"><ele>73.0</ele></trkpt>
<trkpt lon="5.240708" lat="50.519007"><ele>73.0</ele></trkpt>
<trkpt lon="5.240863" lat="50.518685"><ele>73.0</ele></trkpt>
<trkpt lon="5.240881" lat="50.518653"><ele>73.0</ele></trkpt>
<trkpt lon="5.241027" lat="50.518384"><ele>73.0</ele></trkpt>
<trkpt lon="5.240969" lat="50.518371"><ele>73.0</ele></trkpt>
<trkpt lon="5.240907" lat="50.518354"><ele>73.0</ele></trkpt>
<trkpt lon="5.240609" lat="50.518276"><ele>72.0</ele></trkpt>
<trkpt lon="5.240519" lat="50.518256"><ele>72.0</ele></trkpt>
<trkpt lon="5.240511" lat="50.518278"><ele>72.0</ele></trkpt>
<trkpt lon="5.240422" lat="50.518267"><ele>72.0</ele></trkpt>
<trkpt lon="5.240210" lat="50.518248"><ele>72.0</ele></trkpt>
  </trkseg></trk></gpx>
