<?xml version="1.0" encoding="UTF-8"?>
<gpx version="1.1" creator="compostel-brouter" xmlns="http://www.topografix.com/GPX/1/1">
  <metadata><name>BE-11-Couvin</name></metadata>
  <trk><name>BE-11-Couvin</name><trkseg>
<trkpt lon="4.618498" lat="50.079089"><ele>221.25</ele></trkpt>
<trkpt lon="4.617812" lat="50.078870"><ele>222.25</ele></trkpt>
<trkpt lon="4.617358" lat="50.078860"><ele>221.0</ele></trkpt>
<trkpt lon="4.616396" lat="50.078635"><ele>223.5</ele></trkpt>
<trkpt lon="4.615842" lat="50.078431"><ele>223.5</ele></trkpt>
<trkpt lon="4.614744" lat="50.078212"><ele>222.25</ele></trkpt>
<trkpt lon="4.614397" lat="50.078240"><ele>219.25</ele></trkpt>
<trkpt lon="4.613537" lat="50.078195"><ele>217.25</ele></trkpt>
<trkpt lon="4.613161" lat="50.078212"><ele>213.5</ele></trkpt>
<trkpt lon="4.613102" lat="50.078217"><ele>213.0</ele></trkpt>
<trkpt lon="4.613049" lat="50.078229"><ele>212.5</ele></trkpt>
<trkpt lon="4.612566" lat="50.078216"><ele>205.75</ele></trkpt>
<trkpt lon="4.612501" lat="50.078220"><ele>204.75</ele></trkpt>
<trkpt lon="4.612387" lat="50.078243"><ele>204.75</ele></trkpt>
<trkpt lon="4.612325" lat="50.078246"><ele>204.75</ele></trkpt>
<trkpt lon="4.612185" lat="50.078234"><ele>203.75</ele></trkpt>
<trkpt lon="4.612006" lat="50.078232"><ele>202.0</ele></trkpt>
<trkpt lon="4.611520" lat="50.078283"><ele>199.0</ele></trkpt>
<trkpt lon="4.610981" lat="50.078226"><ele>194.75</ele></trkpt>
<trkpt lon="4.610493" lat="50.078178"><ele>193.5</ele></trkpt>
<trkpt lon="4.610070" lat="50.078125"><ele>194.5</ele></trkpt>
<trkpt lon="4.610032" lat="50.078118"><ele>195.0</ele></trkpt>
<trkpt lon="4.609917" lat="50.078076"><ele>195.25</ele></trkpt>
<trkpt lon="4.609524" lat="50.078008"><ele>193.0</ele></trkpt>
<trkpt lon="4.609449" lat="50.077985"><ele>191.75</ele></trkpt>
<trkpt lon="4.609200" lat="50.077936"><ele>191.5</ele></trkpt>
<trkpt lon="4.609057" lat="50.077883"><ele>191.25</ele></trkpt>
<trkpt lon="4.608903" lat="50.077807"><ele>191.75</ele></trkpt>
<trkpt lon="4.608763" lat="50.077771"><ele>191.75</ele></trkpt>
<trkpt lon="4.608690" lat="50.077740"><ele>190.75</ele></trkpt>
<trkpt lon="4.608401" lat="50.077661"><ele>189.0</ele></trkpt>
<trkpt lon="4.608278" lat="50.077639"><ele>188.5</ele></trkpt>
<trkpt lon="4.608245" lat="50.077640"><ele>188.0</ele></trkpt>
<trkpt lon="4.608183" lat="50.077657"><ele>187.5</ele></trkpt>
<trkpt lon="4.608112" lat="50.077668"><ele>186.75</ele></trkpt>
<trkpt lon="4.608077" lat="50.077692"><ele>186.0</ele></trkpt>
<trkpt lon="4.608075" lat="50.077778"><ele>185.25</ele></trkpt>
<trkpt lon="4.608045" lat="50.077830"><ele>186.0</ele></trkpt>
<trkpt lon="4.607570" lat="50.077695"><ele>180.75</ele></trkpt>
<trkpt lon="4.606893" lat="50.077322"><ele>168.75</ele></trkpt>
<trkpt lon="4.606771" lat="50.076993"><ele>161.0</ele></trkpt>
<trkpt lon="4.606739" lat="50.076758"><ele>155.25</ele></trkpt>
<trkpt lon="4.606736" lat="50.076466"><ele>149.5</ele></trkpt>
<trkpt lon="4.606609" lat="50.076180"><ele>144.75</ele></trkpt>
<trkpt lon="4.606569" lat="50.076125"><ele>144.25</ele></trkpt>
<trkpt lon="4.606497" lat="50.076024"><ele>143.5</ele></trkpt>
<trkpt lon="4.606472" lat="50.075947"><ele>142.75</ele></trkpt>
<trkpt lon="4.606482" lat="50.075952"><ele>142.75</ele></trkpt>
<trkpt lon="4.606551" lat="50.075917"><ele>141.75</ele></trkpt>
<trkpt lon="4.606436" lat="50.075818"><ele>141.5</ele></trkpt>
<trkpt lon="4.606286" lat="50.075743"><ele>141.5</ele></trkpt>
<trkpt lon="4.606223" lat="50.075685"><ele>141.5</ele></trkpt>
<trkpt lon="4.606180" lat="50.075571"><ele>140.75</ele></trkpt>
<trkpt lon="4.606168" lat="50.075452"><ele>140.0</ele></trkpt>
<trkpt lon="4.606103" lat="50.075361"><ele>139.5</ele></trkpt>
<trkpt lon="4.606070" lat="50.075458"><ele>140.25</ele></trkpt>
<trkpt lon="4.606054" lat="50.075508"><ele>140.75</ele></trkpt>
<trkpt lon="4.605949" lat="50.075661"><ele>142.5</ele></trkpt>
<trkpt lon="4.605814" lat="50.075723"><ele>144.0</ele></trkpt>
<trkpt lon="4.605536" lat="50.075715"><ele>146.75</ele></trkpt>
<trkpt lon="4.605297" lat="50.075613"><ele>146.25</ele></trkpt>
<trkpt lon="4.605120" lat="50.075672"><ele>152.25</ele></trkpt>
<trkpt lon="4.604945" lat="50.075644"><ele>154.25</ele></trkpt>
<trkpt lon="4.604703" lat="50.075650"><ele>159.5</ele></trkpt>
<trkpt lon="4.604541" lat="50.075673"><ele>162.75</ele></trkpt>
<trkpt lon="4.604378" lat="50.075683"><ele>165.0</ele></trkpt>
<trkpt lon="4.604317" lat="50.075722"><ele>167.0</ele></trkpt>
<trkpt lon="4.604323" lat="50.075770"><ele>168.75</ele></trkpt>
<trkpt lon="4.604395" lat="50.075848"><ele>171.25</ele></trkpt>
<trkpt lon="4.604376" lat="50.076010"><ele>172.25</ele></trkpt>
<trkpt lon="4.604100" lat="50.076906"><ele>178.5</ele></trkpt>
<trkpt lon="4.604049" lat="50.077105"><ele>182.5</ele></trkpt>
<trkpt lon="4.603940" lat="50.077180"><ele>184.0</ele></trkpt>
<trkpt lon="4.603693" lat="50.077703"><ele>179.25</ele></trkpt>
<trkpt lon="4.603643" lat="50.077814"><ele>177.5</ele></trkpt>
<trkpt lon="4.603517" lat="50.078181"><ele>174.25</ele></trkpt>
<trkpt lon="4.603352" lat="50.078341"><ele>174.0</ele></trkpt>
<trkpt lon="4.602718" lat="50.078703"><ele>186.0</ele></trkpt>
<trkpt lon="4.602449" lat="50.078822"><ele>190.5</ele></trkpt>
<trkpt lon="4.602012" lat="50.078934"><ele>196.0</ele></trkpt>
<trkpt lon="4.601485" lat="50.078950"><ele>199.25</ele></trkpt>
<trkpt lon="4.601168" lat="50.079042"><ele>201.0</ele></trkpt>
<trkpt lon="4.600726" lat="50.078954"><ele>199.0</ele></trkpt>
<trkpt lon="4.600596" lat="50.078919"><ele>198.25</ele></trkpt>
<trkpt lon="4.600125" lat="50.078647"><ele>190.5</ele></trkpt>
<trkpt lon="4.599652" lat="50.078424"><ele>185.0</ele></trkpt>
<trkpt lon="4.599244" lat="50.078245"><ele>181.25</ele></trkpt>
<trkpt lon="4.598904" lat="50.078020"><ele>176.0</ele></trkpt>
<trkpt lon="4.598564" lat="50.077839"><ele>172.75</ele></trkpt>
<trkpt lon="4.598264" lat="50.077601"><ele>169.25</ele></trkpt>
<trkpt lon="4.597968" lat="50.077281"><ele>164.25</ele></trkpt>
<trkpt lon="4.597883" lat="50.077222"><ele>163.75</ele></trkpt>
<trkpt lon="4.597591" lat="50.076882"><ele>159.5</ele></trkpt>
<trkpt lon="4.597443" lat="50.076660"><ele>156.25</ele></trkpt>
<trkpt lon="4.597307" lat="50.076511"><ele>154.75</ele></trkpt>
<trkpt lon="4.597240" lat="50.076338"><ele>152.0</ele></trkpt>
<trkpt lon="4.597217" lat="50.076235"><ele>150.75</ele></trkpt>
<trkpt lon="4.597214" lat="50.076137"><ele>149.25</ele></trkpt>
<trkpt lon="4.597265" lat="50.075970"><ele>146.75</ele></trkpt>
<trkpt lon="4.596908" lat="50.075990"><ele>148.5</ele></trkpt>
<trkpt lon="4.595844" lat="50.075990"><ele>151.25</ele></trkpt>
<trkpt lon="4.594809" lat="50.076039"><ele>155.25</ele></trkpt>
<trkpt lon="4.594458" lat="50.076032"><ele>156.25</ele></trkpt>
<trkpt lon="4.593518" lat="50.075895"><ele>157.0</ele></trkpt>
<trkpt lon="4.593050" lat="50.075808"><ele>156.0</ele></trkpt>
<trkpt lon="4.592436" lat="50.075760"><ele>156.75</ele></trkpt>
<trkpt lon="4.591980" lat="50.075734"><ele>156.5</ele></trkpt>
<trkpt lon="4.591565" lat="50.075666"><ele>155.5</ele></trkpt>
<trkpt lon="4.590881" lat="50.075654"><ele>156.25</ele></trkpt>
<trkpt lon="4.590134" lat="50.075659"><ele>158.5</ele></trkpt>
<trkpt lon="4.589620" lat="50.075653"><ele>159.5</ele></trkpt>
<trkpt lon="4.589238" lat="50.075634"><ele>159.75</ele></trkpt>
<trkpt lon="4.588323" lat="50.075534"><ele>157.5</ele></trkpt>
<trkpt lon="4.587909" lat="50.075496"><ele>157.25</ele></trkpt>
<trkpt lon="4.587750" lat="50.075474"><ele>157.25</ele></trkpt>
<trkpt lon="4.587324" lat="50.075415"><ele>156.75</ele></trkpt>
<trkpt lon="4.587077" lat="50.075381"><ele>155.75</ele></trkpt>
<trkpt lon="4.586705" lat="50.075376"><ele>155.0</ele></trkpt>
<trkpt lon="4.586202" lat="50.075424"><ele>155.5</ele></trkpt>
<trkpt lon="4.585237" lat="50.075462"><ele>153.75</ele></trkpt>
<trkpt lon="4.584895" lat="50.075467"><ele>153.25</ele></trkpt>
<trkpt lon="4.584708" lat="50.075443"><ele>151.25</ele></trkpt>
<trkpt lon="4.584502" lat="50.075417"><ele>150.0</ele></trkpt>
<trkpt lon="4.584287" lat="50.075388"><ele>150.25</ele></trkpt>
<trkpt lon="4.584069" lat="50.075366"><ele>150.5</ele></trkpt>
<trkpt lon="4.583671" lat="50.075395"><ele>148.75</ele></trkpt>
<trkpt lon="4.583318" lat="50.075465"><ele>147.75</ele></trkpt>
<trkpt lon="4.583094" lat="50.075527"><ele>146.75</ele></trkpt>
<trkpt lon="4.582893" lat="50.075601"><ele>147.5</ele></trkpt>
<trkpt lon="4.582365" lat="50.075830"><ele>147.75</ele></trkpt>
<trkpt lon="4.582067" lat="50.076001"><ele>147.0</ele></trkpt>
<trkpt lon="4.581658" lat="50.076312"><ele>146.75</ele></trkpt>
<trkpt lon="4.581516" lat="50.076402"><ele>146.5</ele></trkpt>
<trkpt lon="4.581389" lat="50.076454"><ele>146.0</ele></trkpt>
<trkpt lon="4.581203" lat="50.076424"><ele>143.75</ele></trkpt>
<trkpt lon="4.581076" lat="50.076483"><ele>143.0</ele></trkpt>
<trkpt lon="4.579726" lat="50.077233"><ele>143.75</ele></trkpt>
<trkpt lon="4.579404" lat="50.077457"><ele>143.5</ele></trkpt>
<trkpt lon="4.579203" lat="50.077553"><ele>144.0</ele></trkpt>
<trkpt lon="4.579093" lat="50.077481"><ele>143.75</ele></trkpt>
<trkpt lon="4.578828" lat="50.077632"><ele>143.25</ele></trkpt>
<trkpt lon="4.578753" lat="50.077678"><ele>145.0</ele></trkpt>
<trkpt lon="4.578740" lat="50.077660"><ele>145.0</ele></trkpt>
<trkpt lon="4.578589" lat="50.077568"><ele>146.75</ele></trkpt>
<trkpt lon="4.578502" lat="50.077551"><ele>149.75</ele></trkpt>
<trkpt lon="4.578378" lat="50.077507"><ele>154.0</ele></trkpt>
<trkpt lon="4.578345" lat="50.077682"><ele>155.5</ele></trkpt>
<trkpt lon="4.578288" lat="50.077706"><ele>157.5</ele></trkpt>
<trkpt lon="4.578245" lat="50.077752"><ele>159.0</ele></trkpt>
<trkpt lon="4.578130" lat="50.077806"><ele>162.25</ele></trkpt>
<trkpt lon="4.577875" lat="50.077828"><ele>165.5</ele></trkpt>
<trkpt lon="4.577603" lat="50.077830"><ele>168.75</ele></trkpt>
<trkpt lon="4.577156" lat="50.077769"><ele>172.75</ele></trkpt>
<trkpt lon="4.576733" lat="50.077682"><ele>177.5</ele></trkpt>
<trkpt lon="4.575398" lat="50.077262"><ele>189.0</ele></trkpt>
<trkpt lon="4.575193" lat="50.077192"><ele>190.0</ele></trkpt>
<trkpt lon="4.574397" lat="50.076987"><ele>196.5</ele></trkpt>
<trkpt lon="4.572286" lat="50.076317"><ele>208.5</ele></trkpt>
<trkpt lon="4.571696" lat="50.076335"><ele>212.25</ele></trkpt>
<trkpt lon="4.571289" lat="50.076374"><ele>213.25</ele></trkpt>
<trkpt lon="4.570980" lat="50.076673"><ele>213.75</ele></trkpt>
<trkpt lon="4.570350" lat="50.076818"><ele>214.0</ele></trkpt>
<trkpt lon="4.570035" lat="50.076860"><ele>214.25</ele></trkpt>
<trkpt lon="4.569391" lat="50.076778"><ele>215.0</ele></trkpt>
<trkpt lon="4.568675" lat="50.076580"><ele>215.75</ele></trkpt>
<trkpt lon="4.567994" lat="50.076268"><ele>217.0</ele></trkpt>
<trkpt lon="4.566812" lat="50.075958"><ele>218.0</ele></trkpt>
<trkpt lon="4.566023" lat="50.075849"><ele>219.25</ele></trkpt>
<trkpt lon="4.565515" lat="50.075945"><ele>220.0</ele></trkpt>
<trkpt lon="4.564631" lat="50.077170"><ele>221.25</ele></trkpt>
<trkpt lon="4.564493" lat="50.077248"><ele>221.5</ele></trkpt>
<trkpt lon="4.564404" lat="50.077266"><ele>221.5</ele></trkpt>
<trkpt lon="4.564283" lat="50.077259"><ele>221.5</ele></trkpt>
<trkpt lon="4.564206" lat="50.077242"><ele>221.75</ele></trkpt>
<trkpt lon="4.564161" lat="50.077232"><ele>221.75</ele></trkpt>
<trkpt lon="4.564002" lat="50.077215"><ele>222.0</ele></trkpt>
<trkpt lon="4.563447" lat="50.077224"><ele>221.75</ele></trkpt>
<trkpt lon="4.562984" lat="50.077147"><ele>222.5</ele></trkpt>
<trkpt lon="4.562680" lat="50.077065"><ele>223.0</ele></trkpt>
<trkpt lon="4.562272" lat="50.076984"><ele>223.0</ele></trkpt>
<trkpt lon="4.561606" lat="50.076888"><ele>222.25</ele></trkpt>
<trkpt lon="4.561442" lat="50.076824"><ele>222.75</ele></trkpt>
<trkpt lon="4.561215" lat="50.076718"><ele>223.0</ele></trkpt>
<trkpt lon="4.560724" lat="50.076568"><ele>223.25</ele></trkpt>
<trkpt lon="4.560426" lat="50.076503"><ele>223.5</ele></trkpt>
<trkpt lon="4.559598" lat="50.076300"><ele>223.25</ele></trkpt>
<trkpt lon="4.558659" lat="50.076101"><ele>223.0</ele></trkpt>
<trkpt lon="4.558045" lat="50.075937"><ele>222.25</ele></trkpt>
<trkpt lon="4.557720" lat="50.075888"><ele>221.5</ele></trkpt>
<trkpt lon="4.557570" lat="50.075847"><ele>221.75</ele></trkpt>
<trkpt lon="4.556504" lat="50.075482"><ele>223.75</ele></trkpt>
<trkpt lon="4.555823" lat="50.075311"><ele>221.5</ele></trkpt>
<trkpt lon="4.555594" lat="50.075253"><ele>223.0</ele></trkpt>
<trkpt lon="4.555221" lat="50.075158"><ele>223.5</ele></trkpt>
<trkpt lon="4.553987" lat="50.074884"><ele>220.75</ele></trkpt>
<trkpt lon="4.553690" lat="50.074864"><ele>219.25</ele></trkpt>
<trkpt lon="4.553265" lat="50.074835"><ele>213.75</ele></trkpt>
<trkpt lon="4.553152" lat="50.074895"><ele>211.5</ele></trkpt>
<trkpt lon="4.553045" lat="50.074938"><ele>209.75</ele></trkpt>
<trkpt lon="4.552994" lat="50.074934"><ele>208.5</ele></trkpt>
<trkpt lon="4.552757" lat="50.074798"><ele>205.0</ele></trkpt>
<trkpt lon="4.552124" lat="50.074612"><ele>193.25</ele></trkpt>
<trkpt lon="4.550943" lat="50.074497"><ele>176.75</ele></trkpt>
<trkpt lon="4.550598" lat="50.074408"><ele>173.0</ele></trkpt>
<trkpt lon="4.550349" lat="50.074232"><ele>171.0</ele></trkpt>
<trkpt lon="4.550132" lat="50.074339"><ele>165.0</ele></trkpt>
<trkpt lon="4.550073" lat="50.074387"><ele>162.75</ele></trkpt>
<trkpt lon="4.549884" lat="50.074240"><ele>161.5</ele></trkpt>
<trkpt lon="4.549330" lat="50.074461"><ele>158.0</ele></trkpt>
<trkpt lon="4.549243" lat="50.074466"><ele>157.75</ele></trkpt>
<trkpt lon="4.549125" lat="50.074473"><ele>158.0</ele></trkpt>
<trkpt lon="4.549154" lat="50.074216"><ele>158.0</ele></trkpt>
<trkpt lon="4.549258" lat="50.073865"><ele>158.0</ele></trkpt>
<trkpt lon="4.549057" lat="50.073830"><ele>158.0</ele></trkpt>
<trkpt lon="4.548773" lat="50.073808"><ele>158.0</ele></trkpt>
<trkpt lon="4.548637" lat="50.073814"><ele>158.0</ele></trkpt>
<trkpt lon="4.548475" lat="50.073800"><ele>158.0</ele></trkpt>
<trkpt lon="4.548543" lat="50.073512"><ele>158.0</ele></trkpt>
<trkpt lon="4.548383" lat="50.073478"><ele>158.0</ele></trkpt>
<trkpt lon="4.548675" lat="50.072825"><ele>158.0</ele></trkpt>
<trkpt lon="4.548817" lat="50.072494"><ele>158.25</ele></trkpt>
<trkpt lon="4.549013" lat="50.071844"><ele>157.75</ele></trkpt>
<trkpt lon="4.549087" lat="50.071479"><ele>157.5</ele></trkpt>
<trkpt lon="4.548985" lat="50.071040"><ele>158.25</ele></trkpt>
<trkpt lon="4.548798" lat="50.070617"><ele>159.75</ele></trkpt>
<trkpt lon="4.548793" lat="50.070514"><ele>159.75</ele></trkpt>
<trkpt lon="4.548866" lat="50.070450"><ele>159.5</ele></trkpt>
<trkpt lon="4.548532" lat="50.070401"><ele>159.75</ele></trkpt>
<trkpt lon="4.548397" lat="50.070372"><ele>160.25</ele></trkpt>
<trkpt lon="4.548258" lat="50.070310"><ele>160.75</ele></trkpt>
<trkpt lon="4.548158" lat="50.070225"><ele>161.0</ele></trkpt>
<trkpt lon="4.547986" lat="50.069985"><ele>161.5</ele></trkpt>
<trkpt lon="4.547862" lat="50.069784"><ele>162.0</ele></trkpt>
<trkpt lon="4.547812" lat="50.069647"><ele>162.0</ele></trkpt>
<trkpt lon="4.547740" lat="50.069513"><ele>162.0</ele></trkpt>
<trkpt lon="4.547378" lat="50.069099"><ele>162.75</ele></trkpt>
<trkpt lon="4.546742" lat="50.068099"><ele>162.0</ele></trkpt>
<trkpt lon="4.546562" lat="50.067733"><ele>162.0</ele></trkpt>
<trkpt lon="4.546121" lat="50.067122"><ele>162.75</ele></trkpt>
<trkpt lon="4.545747" lat="50.066801"><ele>163.25</ele></trkpt>
<trkpt lon="4.545061" lat="50.066211"><ele>163.5</ele></trkpt>
<trkpt lon="4.544467" lat="50.065794"><ele>163.5</ele></trkpt>
<trkpt lon="4.543830" lat="50.065487"><ele>165.25</ele></trkpt>
<trkpt lon="4.542488" lat="50.064989"><ele>167.0</ele></trkpt>
<trkpt lon="4.540895" lat="50.064547"><ele>167.0</ele></trkpt>
<trkpt lon="4.538458" lat="50.064221"><ele>168.0</ele></trkpt>
<trkpt lon="4.536460" lat="50.063907"><ele>169.0</ele></trkpt>
<trkpt lon="4.535340" lat="50.063629"><ele>170.25</ele></trkpt>
<trkpt lon="4.534397" lat="50.063562"><ele>173.25</ele></trkpt>
<trkpt lon="4.534053" lat="50.063348"><ele>166.25</ele></trkpt>
<trkpt lon="4.534076" lat="50.063105"><ele>164.0</ele></trkpt>
<trkpt lon="4.533874" lat="50.062893"><ele>164.25</ele></trkpt>
<trkpt lon="4.533289" lat="50.062442"><ele>165.75</ele></trkpt>
<trkpt lon="4.532908" lat="50.062192"><ele>165.75</ele></trkpt>
<trkpt lon="4.532522" lat="50.061980"><ele>166.0</ele></trkpt>
<trkpt lon="4.532238" lat="50.061838"><ele>166.0</ele></trkpt>
<trkpt lon="4.531548" lat="50.061495"><ele>166.0</ele></trkpt>
<trkpt lon="4.531007" lat="50.061108"><ele>165.75</ele></trkpt>
<trkpt lon="4.530649" lat="50.060786"><ele>166.0</ele></trkpt>
<trkpt lon="4.530239" lat="50.060378"><ele>167.0</ele></trkpt>
<trkpt lon="4.530385" lat="50.060363"><ele>166.25</ele></trkpt>
<trkpt lon="4.530405" lat="50.060361"><ele>166.25</ele></trkpt>
<trkpt lon="4.530757" lat="50.060320"><ele>166.25</ele></trkpt>
<trkpt lon="4.530809" lat="50.060293"><ele>166.75</ele></trkpt>
<trkpt lon="4.530726" lat="50.059851"><ele>166.0</ele></trkpt>
<trkpt lon="4.530696" lat="50.059451"><ele>166.0</ele></trkpt>
<trkpt lon="4.531327" lat="50.059508"><ele>167.5</ele></trkpt>
<trkpt lon="4.531466" lat="50.059296"><ele>168.0</ele></trkpt>
<trkpt lon="4.531822" lat="50.058624"><ele>168.0</ele></trkpt>
<trkpt lon="4.531724" lat="50.058570"><ele>168.0</ele></trkpt>
<trkpt lon="4.531964" lat="50.058442"><ele>168.0</ele></trkpt>
<trkpt lon="4.532507" lat="50.057965"><ele>169.25</ele></trkpt>
<trkpt lon="4.532593" lat="50.057824"><ele>169.75</ele></trkpt>
<trkpt lon="4.532684" lat="50.057655"><ele>170.25</ele></trkpt>
<trkpt lon="4.532697" lat="50.057625"><ele>170.5</ele></trkpt>
<trkpt lon="4.532635" lat="50.057535"><ele>170.75</ele></trkpt>
<trkpt lon="4.532528" lat="50.057440"><ele>171.5</ele></trkpt>
<trkpt lon="4.532353" lat="50.057361"><ele>172.75</ele></trkpt>
<trkpt lon="4.532274" lat="50.057332"><ele>173.25</ele></trkpt>
<trkpt lon="4.532184" lat="50.057304"><ele>173.5</ele></trkpt>
<trkpt lon="4.532101" lat="50.057296"><ele>173.5</ele></trkpt>
<trkpt lon="4.531668" lat="50.057218"><ele>172.0</ele></trkpt>
<trkpt lon="4.531289" lat="50.057107"><ele>172.25</ele></trkpt>
<trkpt lon="4.531072" lat="50.057033"><ele>171.75</ele></trkpt>
<trkpt lon="4.530702" lat="50.056919"><ele>171.75</ele></trkpt>
<trkpt lon="4.530610" lat="50.056873"><ele>171.5</ele></trkpt>
<trkpt lon="4.530631" lat="50.056824"><ele>173.0</ele></trkpt>
<trkpt lon="4.530673" lat="50.056786"><ele>174.75</ele></trkpt>
<trkpt lon="4.530712" lat="50.056729"><ele>177.0</ele></trkpt>
<trkpt lon="4.530689" lat="50.056673"><ele>178.0</ele></trkpt>
<trkpt lon="4.530362" lat="50.056544"><ele>179.25</ele></trkpt>
<trkpt lon="4.528715" lat="50.056077"><ele>175.5</ele></trkpt>
<trkpt lon="4.528163" lat="50.055857"><ele>176.75</ele></trkpt>
<trkpt lon="4.527820" lat="50.055696"><ele>178.25</ele></trkpt>
<trkpt lon="4.527635" lat="50.055556"><ele>180.75</ele></trkpt>
<trkpt lon="4.527189" lat="50.055282"><ele>184.5</ele></trkpt>
<trkpt lon="4.526439" lat="50.055010"><ele>186.5</ele></trkpt>
<trkpt lon="4.526067" lat="50.054890"><ele>189.0</ele></trkpt>
<trkpt lon="4.525632" lat="50.054819"><ele>188.75</ele></trkpt>
<trkpt lon="4.524820" lat="50.054739"><ele>189.5</ele></trkpt>
<trkpt lon="4.524727" lat="50.054696"><ele>190.75</ele></trkpt>
<trkpt lon="4.524712" lat="50.054583"><ele>194.25</ele></trkpt>
<trkpt lon="4.524839" lat="50.054274"><ele>202.75</ele></trkpt>
<trkpt lon="4.524959" lat="50.054111"><ele>206.5</ele></trkpt>
<trkpt lon="4.524266" lat="50.053891"><ele>204.5</ele></trkpt>
<trkpt lon="4.523950" lat="50.053781"><ele>204.75</ele></trkpt>
<trkpt lon="4.523697" lat="50.053728"><ele>205.25</ele></trkpt>
<trkpt lon="4.523351" lat="50.053733"><ele>205.5</ele></trkpt>
<trkpt lon="4.522881" lat="50.053836"><ele>204.25</ele></trkpt>
<trkpt lon="4.522581" lat="50.053875"><ele>202.5</ele></trkpt>
<trkpt lon="4.522272" lat="50.053961"><ele>199.75</ele></trkpt>
<trkpt lon="4.522076" lat="50.054101"><ele>197.0</ele></trkpt>
<trkpt lon="4.521771" lat="50.053995"><ele>197.0</ele></trkpt>
<trkpt lon="4.521123" lat="50.053743"><ele>198.0</ele></trkpt>
<trkpt lon="4.520782" lat="50.053626"><ele>197.25</ele></trkpt>
<trkpt lon="4.520267" lat="50.053411"><ele>197.0</ele></trkpt>
<trkpt lon="4.519250" lat="50.052970"><ele>196.0</ele></trkpt>
<trkpt lon="4.518960" lat="50.052815"><ele>196.0</ele></trkpt>
<trkpt lon="4.518769" lat="50.052693"><ele>195.75</ele></trkpt>
<trkpt lon="4.518608" lat="50.052561"><ele>195.5</ele></trkpt>
<trkpt lon="4.518189" lat="50.052105"><ele>195.0</ele></trkpt>
<trkpt lon="4.518042" lat="50.052000"><ele>194.75</ele></trkpt>
<trkpt lon="4.517881" lat="50.051907"><ele>195.0</ele></trkpt>
<trkpt lon="4.517700" lat="50.051844"><ele>195.5</ele></trkpt>
<trkpt lon="4.517556" lat="50.051830"><ele>195.25</ele></trkpt>
<trkpt lon="4.517364" lat="50.051836"><ele>196.0</ele></trkpt>
<trkpt lon="4.517131" lat="50.051834"><ele>197.25</ele></trkpt>
<trkpt lon="4.516989" lat="50.051822"><ele>198.0</ele></trkpt>
<trkpt lon="4.516891" lat="50.051792"><ele>198.5</ele></trkpt>
<trkpt lon="4.516492" lat="50.051593"><ele>200.75</ele></trkpt>
<trkpt lon="4.516106" lat="50.051383"><ele>203.0</ele></trkpt>
<trkpt lon="4.515448" lat="50.050813"><ele>209.75</ele></trkpt>
<trkpt lon="4.515302" lat="50.050735"><ele>211.0</ele></trkpt>
<trkpt lon="4.514657" lat="50.050543"><ele>212.0</ele></trkpt>
<trkpt lon="4.513674" lat="50.050168"><ele>211.75</ele></trkpt>
<trkpt lon="4.513526" lat="50.050125"><ele>212.5</ele></trkpt>
<trkpt lon="4.513046" lat="50.050082"><ele>215.25</ele></trkpt>
<trkpt lon="4.512720" lat="50.050035"><ele>215.5</ele></trkpt>
<trkpt lon="4.512163" lat="50.049911"><ele>217.0</ele></trkpt>
<trkpt lon="4.512145" lat="50.049813"><ele>217.0</ele></trkpt>
<trkpt lon="4.512221" lat="50.049435"><ele>218.0</ele></trkpt>
<trkpt lon="4.512249" lat="50.049314"><ele>217.75</ele></trkpt>
<trkpt lon="4.512501" lat="50.048434"><ele>219.5</ele></trkpt>
<trkpt lon="4.512512" lat="50.048232"><ele>221.0</ele></trkpt>
<trkpt lon="4.512555" lat="50.047811"><ele>224.75</ele></trkpt>
<trkpt lon="4.512578" lat="50.047317"><ele>229.75</ele></trkpt>
<trkpt lon="4.512592" lat="50.046746"><ele>235.5</ele></trkpt>
<trkpt lon="4.512609" lat="50.046652"><ele>236.75</ele></trkpt>
<trkpt lon="4.512658" lat="50.046544"><ele>237.75</ele></trkpt>
<trkpt lon="4.512730" lat="50.046460"><ele>238.25</ele></trkpt>
<trkpt lon="4.512565" lat="50.046410"><ele>239.5</ele></trkpt>
<trkpt lon="4.512537" lat="50.046301"><ele>240.25</ele></trkpt>
<trkpt lon="4.512377" lat="50.046316"><ele>240.5</ele></trkpt>
<trkpt lon="4.511943" lat="50.046343"><ele>240.25</ele></trkpt>
<trkpt lon="4.511675" lat="50.046362"><ele>240.0</ele></trkpt>
<trkpt lon="4.511443" lat="50.046381"><ele>239.25</ele></trkpt>
<trkpt lon="4.510921" lat="50.046481"><ele>237.5</ele></trkpt>
<trkpt lon="4.510280" lat="50.046653"><ele>235.0</ele></trkpt>
<trkpt lon="4.509985" lat="50.046711"><ele>234.75</ele></trkpt>
<trkpt lon="4.509733" lat="50.046737"><ele>234.5</ele></trkpt>
<trkpt lon="4.509418" lat="50.046720"><ele>234.5</ele></trkpt>
<trkpt lon="4.508868" lat="50.046600"><ele>232.0</ele></trkpt>
<trkpt lon="4.508673" lat="50.046573"><ele>231.5</ele></trkpt>
<trkpt lon="4.508519" lat="50.046574"><ele>231.0</ele></trkpt>
<trkpt lon="4.507953" lat="50.046659"><ele>229.5</ele></trkpt>
<trkpt lon="4.507375" lat="50.047025"><ele>228.0</ele></trkpt>
<trkpt lon="4.506950" lat="50.047190"><ele>227.75</ele></trkpt>
<trkpt lon="4.505166" lat="50.047598"><ele>224.75</ele></trkpt>
<trkpt lon="4.504870" lat="50.047769"><ele>223.5</ele></trkpt>
<trkpt lon="4.504800" lat="50.047835"><ele>223.0</ele></trkpt>
<trkpt lon="4.504294" lat="50.048166"><ele>221.25</ele></trkpt>
<trkpt lon="4.503111" lat="50.049020"><ele>216.5</ele></trkpt>
<trkpt lon="4.502835" lat="50.049180"><ele>215.75</ele></trkpt>
<trkpt lon="4.502491" lat="50.049383"><ele>214.75</ele></trkpt>
<trkpt lon="4.502226" lat="50.049670"><ele>216.5</ele></trkpt>
<trkpt lon="4.502098" lat="50.049924"><ele>218.0</ele></trkpt>
<trkpt lon="4.501851" lat="50.050112"><ele>219.0</ele></trkpt>
<trkpt lon="4.501832" lat="50.050127"><ele>219.0</ele></trkpt>
<trkpt lon="4.501535" lat="50.050313"><ele>218.5</ele></trkpt>
<trkpt lon="4.501362" lat="50.050384"><ele>218.0</ele></trkpt>
<trkpt lon="4.500937" lat="50.050510"><ele>215.75</ele></trkpt>
<trkpt lon="4.500657" lat="50.050553"><ele>214.25</ele></trkpt>
<trkpt lon="4.500350" lat="50.050599"><ele>213.5</ele></trkpt>
<trkpt lon="4.499950" lat="50.050660"><ele>212.25</ele></trkpt>
<trkpt lon="4.499456" lat="50.050752"><ele>210.0</ele></trkpt>
<trkpt lon="4.499362" lat="50.050870"><ele>209.75</ele></trkpt>
<trkpt lon="4.499270" lat="50.051299"><ele>206.0</ele></trkpt>
<trkpt lon="4.499316" lat="50.051390"><ele>205.5</ele></trkpt>
<trkpt lon="4.499151" lat="50.051471"><ele>204.75</ele></trkpt>
<trkpt lon="4.498412" lat="50.051593"><ele>202.0</ele></trkpt>
<trkpt lon="4.497802" lat="50.051715"><ele>198.5</ele></trkpt>
<trkpt lon="4.497558" lat="50.051758"><ele>197.0</ele></trkpt>
<trkpt lon="4.497196" lat="50.051730"><ele>195.25</ele></trkpt>
<trkpt lon="4.497063" lat="50.051724"><ele>194.75</ele></trkpt>
<trkpt lon="4.496893" lat="50.051689"><ele>192.75</ele></trkpt>
<trkpt lon="4.496849" lat="50.051625"><ele>191.5</ele></trkpt>
<trkpt lon="4.496580" lat="50.051472"><ele>187.75</ele></trkpt>
<trkpt lon="4.496492" lat="50.051403"><ele>188.0</ele></trkpt>
<trkpt lon="4.496415" lat="50.051365"><ele>185.5</ele></trkpt>
<trkpt lon="4.496254" lat="50.051576"><ele>185.5</ele></trkpt>
<trkpt lon="4.496141" lat="50.051534"><ele>184.5</ele></trkpt>
<trkpt lon="4.495981" lat="50.051451"><ele>184.5</ele></trkpt>
<trkpt lon="4.495771" lat="50.051334"><ele>186.0</ele></trkpt>
<trkpt lon="4.495641" lat="50.051413"><ele>185.75</ele></trkpt>
<trkpt lon="4.495841" lat="50.051555"><ele>184.0</ele></trkpt>
<trkpt lon="4.495580" lat="50.051781"><ele>184.0</ele></trkpt>
<trkpt lon="4.495504" lat="50.051809"><ele>184.0</ele></trkpt>
<trkpt lon="4.495148" lat="50.051975"><ele>184.75</ele></trkpt>
<trkpt lon="4.494721" lat="50.052193"><ele>185.0</ele></trkpt>
<trkpt lon="4.494538" lat="50.052287"><ele>185.0</ele></trkpt>
<trkpt lon="4.494269" lat="50.052423"><ele>185.0</ele></trkpt>
<trkpt lon="4.494322" lat="50.052452"><ele>185.0</ele></trkpt>
<trkpt lon="4.494210" lat="50.052537"><ele>185.0</ele></trkpt>
<trkpt lon="4.494046" lat="50.052485"><ele>185.0</ele></trkpt>
<trkpt lon="4.493925" lat="50.052564"><ele>185.0</ele></trkpt>
<trkpt lon="4.493582" lat="50.052837"><ele>185.0</ele></trkpt>
<trkpt lon="4.493412" lat="50.052757"><ele>185.5</ele></trkpt>
<trkpt lon="4.493230" lat="50.052926"><ele>186.0</ele></trkpt>
<trkpt lon="4.493164" lat="50.053030"><ele>186.0</ele></trkpt>
<trkpt lon="4.493137" lat="50.053070"><ele>186.0</ele></trkpt>
<trkpt lon="4.493104" lat="50.053172"><ele>186.0</ele></trkpt>
<trkpt lon="4.493096" lat="50.053294"><ele>185.25</ele></trkpt>
  </trkseg></trk></gpx>
