<?xml version="1.0" encoding="UTF-8"?>
<gpx version="1.1" creator="compostel-brouter" xmlns="http://www.topografix.com/GPX/1/1">
  <metadata><name>BE-10-Olloy</name></metadata>
  <trk><name>BE-10-Olloy</name><trkseg>
<trkpt lon="4.716461" lat="50.121136"><ele>231.75</ele></trkpt>
<trkpt lon="4.716746" lat="50.120941"><ele>230.25</ele></trkpt>
<trkpt lon="4.718827" lat="50.119561"><ele>218.5</ele></trkpt>
<trkpt lon="4.715334" lat="50.117375"><ele>222.25</ele></trkpt>
<trkpt lon="4.714459" lat="50.116805"><ele>223.75</ele></trkpt>
<trkpt lon="4.713897" lat="50.116457"><ele>224.25</ele></trkpt>
<trkpt lon="4.713596" lat="50.116270"><ele>224.5</ele></trkpt>
<trkpt lon="4.713483" lat="50.116170"><ele>224.5</ele></trkpt>
<trkpt lon="4.712439" lat="50.115054"><ele>221.75</ele></trkpt>
<trkpt lon="4.711030" lat="50.115274"><ele>228.25</ele></trkpt>
<trkpt lon="4.710672" lat="50.115294"><ele>229.5</ele></trkpt>
<trkpt lon="4.709948" lat="50.115269"><ele>231.0</ele></trkpt>
<trkpt lon="4.709159" lat="50.115340"><ele>233.0</ele></trkpt>
<trkpt lon="4.708294" lat="50.115482"><ele>234.5</ele></trkpt>
<trkpt lon="4.707944" lat="50.115522"><ele>234.75</ele></trkpt>
<trkpt lon="4.707762" lat="50.115594"><ele>235.25</ele></trkpt>
<trkpt lon="4.707590" lat="50.115703"><ele>236.25</ele></trkpt>
<trkpt lon="4.707194" lat="50.116005"><ele>237.5</ele></trkpt>
<trkpt lon="4.707070" lat="50.116124"><ele>238.0</ele></trkpt>
<trkpt lon="4.706994" lat="50.116218"><ele>238.25</ele></trkpt>
<trkpt lon="4.706728" lat="50.116480"><ele>238.5</ele></trkpt>
<trkpt lon="4.706364" lat="50.116725"><ele>238.0</ele></trkpt>
<trkpt lon="4.705985" lat="50.116839"><ele>237.0</ele></trkpt>
<trkpt lon="4.705002" lat="50.117105"><ele>234.25</ele></trkpt>
<trkpt lon="4.704207" lat="50.117351"><ele>234.25</ele></trkpt>
<trkpt lon="4.703601" lat="50.117461"><ele>235.75</ele></trkpt>
<trkpt lon="4.703284" lat="50.117128"><ele>233.25</ele></trkpt>
<trkpt lon="4.702642" lat="50.116627"><ele>231.25</ele></trkpt>
<trkpt lon="4.702362" lat="50.116836"><ele>233.0</ele></trkpt>
<trkpt lon="4.702188" lat="50.116800"><ele>233.0</ele></trkpt>
<trkpt lon="4.701787" lat="50.116661"><ele>232.5</ele></trkpt>
<trkpt lon="4.701386" lat="50.116509"><ele>233.25</ele></trkpt>
<trkpt lon="4.701227" lat="50.116441"><ele>233.0</ele></trkpt>
<trkpt lon="4.701052" lat="50.116554"><ele>234.5</ele></trkpt>
<trkpt lon="4.699321" lat="50.115875"><ele>239.5</ele></trkpt>
<trkpt lon="4.697872" lat="50.115322"><ele>242.75</ele></trkpt>
<trkpt lon="4.696831" lat="50.114990"><ele>245.25</ele></trkpt>
<trkpt lon="4.696216" lat="50.114699"><ele>246.5</ele></trkpt>
<trkpt lon="4.695652" lat="50.114260"><ele>247.75</ele></trkpt>
<trkpt lon="4.694749" lat="50.113486"><ele>250.25</ele></trkpt>
<trkpt lon="4.693691" lat="50.112435"><ele>252.0</ele></trkpt>
<trkpt lon="4.693006" lat="50.111631"><ele>253.75</ele></trkpt>
<trkpt lon="4.692575" lat="50.110771"><ele>255.0</ele></trkpt>
<trkpt lon="4.692437" lat="50.110569"><ele>255.75</ele></trkpt>
<trkpt lon="4.692150" lat="50.110211"><ele>256.0</ele></trkpt>
<trkpt lon="4.691782" lat="50.109938"><ele>256.0</ele></trkpt>
<trkpt lon="4.690936" lat="50.109477"><ele>254.25</ele></trkpt>
<trkpt lon="4.690580" lat="50.109292"><ele>253.25</ele></trkpt>
<trkpt lon="4.690050" lat="50.108953"><ele>250.5</ele></trkpt>
<trkpt lon="4.689797" lat="50.108772"><ele>249.0</ele></trkpt>
<trkpt lon="4.689636" lat="50.108555"><ele>247.25</ele></trkpt>
<trkpt lon="4.688946" lat="50.108031"><ele>242.0</ele></trkpt>
<trkpt lon="4.688794" lat="50.107841"><ele>240.0</ele></trkpt>
<trkpt lon="4.688722" lat="50.107736"><ele>239.0</ele></trkpt>
<trkpt lon="4.688331" lat="50.107334"><ele>235.75</ele></trkpt>
<trkpt lon="4.688171" lat="50.107076"><ele>234.75</ele></trkpt>
<trkpt lon="4.688049" lat="50.106814"><ele>233.5</ele></trkpt>
<trkpt lon="4.688014" lat="50.106677"><ele>233.0</ele></trkpt>
<trkpt lon="4.687882" lat="50.106266"><ele>232.0</ele></trkpt>
<trkpt lon="4.687712" lat="50.105872"><ele>231.25</ele></trkpt>
<trkpt lon="4.687522" lat="50.105477"><ele>230.25</ele></trkpt>
<trkpt lon="4.687489" lat="50.105371"><ele>229.5</ele></trkpt>
<trkpt lon="4.687397" lat="50.105323"><ele>229.5</ele></trkpt>
<trkpt lon="4.684179" lat="50.104398"><ele>237.75</ele></trkpt>
<trkpt lon="4.683914" lat="50.104221"><ele>238.0</ele></trkpt>
<trkpt lon="4.683857" lat="50.104059"><ele>237.25</ele></trkpt>
<trkpt lon="4.683845" lat="50.103918"><ele>236.25</ele></trkpt>
<trkpt lon="4.684277" lat="50.103258"><ele>233.5</ele></trkpt>
<trkpt lon="4.684932" lat="50.102303"><ele>231.0</ele></trkpt>
<trkpt lon="4.685064" lat="50.102037"><ele>230.0</ele></trkpt>
<trkpt lon="4.685013" lat="50.101639"><ele>228.75</ele></trkpt>
<trkpt lon="4.684765" lat="50.101351"><ele>228.5</ele></trkpt>
<trkpt lon="4.684455" lat="50.100945"><ele>226.75</ele></trkpt>
<trkpt lon="4.684570" lat="50.100672"><ele>225.5</ele></trkpt>
<trkpt lon="4.684903" lat="50.100071"><ele>222.75</ele></trkpt>
<trkpt lon="4.684888" lat="50.099957"><ele>221.75</ele></trkpt>
<trkpt lon="4.684875" lat="50.099853"><ele>220.25</ele></trkpt>
<trkpt lon="4.684754" lat="50.099739"><ele>219.0</ele></trkpt>
<trkpt lon="4.682649" lat="50.098581"><ele>200.75</ele></trkpt>
<trkpt lon="4.681976" lat="50.098311"><ele>196.25</ele></trkpt>
<trkpt lon="4.681670" lat="50.097898"><ele>191.5</ele></trkpt>
<trkpt lon="4.681461" lat="50.097672"><ele>189.0</ele></trkpt>
<trkpt lon="4.680692" lat="50.097156"><ele>183.25</ele></trkpt>
<trkpt lon="4.679585" lat="50.096455"><ele>174.0</ele></trkpt>
<trkpt lon="4.679350" lat="50.096208"><ele>170.75</ele></trkpt>
<trkpt lon="4.679208" lat="50.096152"><ele>169.75</ele></trkpt>
<trkpt lon="4.678819" lat="50.096138"><ele>169.25</ele></trkpt>
<trkpt lon="4.678000" lat="50.096020"><ele>166.25</ele></trkpt>
<trkpt lon="4.677241" lat="50.095891"><ele>162.5</ele></trkpt>
<trkpt lon="4.676546" lat="50.095660"><ele>158.75</ele></trkpt>
<trkpt lon="4.675308" lat="50.095277"><ele>150.75</ele></trkpt>
<trkpt lon="4.674876" lat="50.095226"><ele>150.25</ele></trkpt>
<trkpt lon="4.674710" lat="50.095164"><ele>149.25</ele></trkpt>
<trkpt lon="4.674255" lat="50.094955"><ele>146.75</ele></trkpt>
<trkpt lon="4.673988" lat="50.094849"><ele>145.0</ele></trkpt>
<trkpt lon="4.673647" lat="50.094731"><ele>142.0</ele></trkpt>
<trkpt lon="4.673146" lat="50.094607"><ele>140.75</ele></trkpt>
<trkpt lon="4.672999" lat="50.094554"><ele>140.5</ele></trkpt>
<trkpt lon="4.672853" lat="50.094530"><ele>140.75</ele></trkpt>
<trkpt lon="4.672763" lat="50.094406"><ele>139.5</ele></trkpt>
<trkpt lon="4.672636" lat="50.094294"><ele>139.0</ele></trkpt>
<trkpt lon="4.672011" lat="50.094223"><ele>141.0</ele></trkpt>
<trkpt lon="4.671685" lat="50.094210"><ele>141.0</ele></trkpt>
<trkpt lon="4.671304" lat="50.094209"><ele>141.5</ele></trkpt>
<trkpt lon="4.670872" lat="50.094254"><ele>143.75</ele></trkpt>
<trkpt lon="4.669746" lat="50.094356"><ele>145.75</ele></trkpt>
<trkpt lon="4.669391" lat="50.094372"><ele>145.5</ele></trkpt>
<trkpt lon="4.667977" lat="50.094176"><ele>139.5</ele></trkpt>
<trkpt lon="4.667637" lat="50.094126"><ele>140.25</ele></trkpt>
<trkpt lon="4.667550" lat="50.094088"><ele>140.5</ele></trkpt>
<trkpt lon="4.667581" lat="50.094040"><ele>140.25</ele></trkpt>
<trkpt lon="4.667663" lat="50.093825"><ele>139.5</ele></trkpt>
<trkpt lon="4.667700" lat="50.093756"><ele>139.5</ele></trkpt>
<trkpt lon="4.667779" lat="50.093646"><ele>139.75</ele></trkpt>
<trkpt lon="4.667900" lat="50.093549"><ele>141.0</ele></trkpt>
<trkpt lon="4.668056" lat="50.093441"><ele>142.25</ele></trkpt>
<trkpt lon="4.668401" lat="50.093246"><ele>143.0</ele></trkpt>
<trkpt lon="4.668487" lat="50.093189"><ele>143.5</ele></trkpt>
<trkpt lon="4.668537" lat="50.093127"><ele>143.75</ele></trkpt>
<trkpt lon="4.668579" lat="50.093056"><ele>144.0</ele></trkpt>
<trkpt lon="4.668598" lat="50.092978"><ele>144.0</ele></trkpt>
<trkpt lon="4.669140" lat="50.092826"><ele>142.25</ele></trkpt>
<trkpt lon="4.669258" lat="50.092807"><ele>141.75</ele></trkpt>
<trkpt lon="4.669242" lat="50.092750"><ele>141.5</ele></trkpt>
<trkpt lon="4.669047" lat="50.092674"><ele>141.5</ele></trkpt>
<trkpt lon="4.668938" lat="50.092650"><ele>141.5</ele></trkpt>
<trkpt lon="4.668886" lat="50.092501"><ele>140.0</ele></trkpt>
<trkpt lon="4.668872" lat="50.092305"><ele>138.0</ele></trkpt>
<trkpt lon="4.668854" lat="50.092209"><ele>137.0</ele></trkpt>
<trkpt lon="4.668676" lat="50.092052"><ele>136.0</ele></trkpt>
<trkpt lon="4.668506" lat="50.092010"><ele>136.5</ele></trkpt>
<trkpt lon="4.668181" lat="50.091883"><ele>137.25</ele></trkpt>
<trkpt lon="4.667706" lat="50.091623"><ele>136.75</ele></trkpt>
<trkpt lon="4.666961" lat="50.091628"><ele>139.75</ele></trkpt>
<trkpt lon="4.665980" lat="50.091658"><ele>144.25</ele></trkpt>
<trkpt lon="4.665827" lat="50.091670"><ele>145.0</ele></trkpt>
<trkpt lon="4.663565" lat="50.092144"><ele>155.75</ele></trkpt>
<trkpt lon="4.662234" lat="50.089898"><ele>152.5</ele></trkpt>
<trkpt lon="4.661867" lat="50.089379"><ele>153.25</ele></trkpt>
<trkpt lon="4.660842" lat="50.088394"><ele>157.5</ele></trkpt>
<trkpt lon="4.660021" lat="50.087815"><ele>157.25</ele></trkpt>
<trkpt lon="4.658975" lat="50.087395"><ele>158.0</ele></trkpt>
<trkpt lon="4.658422" lat="50.087220"><ele>159.0</ele></trkpt>
<trkpt lon="4.657736" lat="50.087033"><ele>160.0</ele></trkpt>
<trkpt lon="4.657205" lat="50.086947"><ele>161.0</ele></trkpt>
<trkpt lon="4.656765" lat="50.086837"><ele>160.25</ele></trkpt>
<trkpt lon="4.655794" lat="50.086713"><ele>161.25</ele></trkpt>
<trkpt lon="4.654742" lat="50.086479"><ele>161.75</ele></trkpt>
<trkpt lon="4.651982" lat="50.085755"><ele>159.0</ele></trkpt>
<trkpt lon="4.651466" lat="50.085642"><ele>157.75</ele></trkpt>
<trkpt lon="4.650738" lat="50.085557"><ele>157.0</ele></trkpt>
<trkpt lon="4.649377" lat="50.085439"><ele>156.0</ele></trkpt>
<trkpt lon="4.648965" lat="50.085381"><ele>155.5</ele></trkpt>
<trkpt lon="4.647285" lat="50.084967"><ele>151.75</ele></trkpt>
<trkpt lon="4.646959" lat="50.084898"><ele>153.0</ele></trkpt>
<trkpt lon="4.646562" lat="50.084789"><ele>155.25</ele></trkpt>
<trkpt lon="4.645732" lat="50.084421"><ele>157.0</ele></trkpt>
<trkpt lon="4.645314" lat="50.084202"><ele>158.0</ele></trkpt>
<trkpt lon="4.644884" lat="50.083951"><ele>160.0</ele></trkpt>
<trkpt lon="4.644291" lat="50.083695"><ele>162.75</ele></trkpt>
<trkpt lon="4.643483" lat="50.083382"><ele>168.25</ele></trkpt>
<trkpt lon="4.643339" lat="50.083289"><ele>169.5</ele></trkpt>
<trkpt lon="4.642975" lat="50.083081"><ele>172.0</ele></trkpt>
<trkpt lon="4.642395" lat="50.082779"><ele>175.25</ele></trkpt>
<trkpt lon="4.642061" lat="50.082628"><ele>174.75</ele></trkpt>
<trkpt lon="4.641293" lat="50.082333"><ele>173.75</ele></trkpt>
<trkpt lon="4.641172" lat="50.082286"><ele>172.5</ele></trkpt>
<trkpt lon="4.640344" lat="50.082070"><ele>170.0</ele></trkpt>
<trkpt lon="4.639123" lat="50.081768"><ele>167.75</ele></trkpt>
<trkpt lon="4.638295" lat="50.081533"><ele>166.75</ele></trkpt>
<trkpt lon="4.638091" lat="50.081484"><ele>166.75</ele></trkpt>
<trkpt lon="4.637749" lat="50.081432"><ele>167.5</ele></trkpt>
<trkpt lon="4.637433" lat="50.081395"><ele>166.0</ele></trkpt>
<trkpt lon="4.637313" lat="50.081393"><ele>166.0</ele></trkpt>
<trkpt lon="4.637149" lat="50.081401"><ele>166.0</ele></trkpt>
<trkpt lon="4.636970" lat="50.081380"><ele>164.75</ele></trkpt>
<trkpt lon="4.636659" lat="50.081328"><ele>164.0</ele></trkpt>
<trkpt lon="4.636506" lat="50.081317"><ele>163.0</ele></trkpt>
<trkpt lon="4.636387" lat="50.081319"><ele>162.5</ele></trkpt>
<trkpt lon="4.636265" lat="50.081331"><ele>161.75</ele></trkpt>
<trkpt lon="4.636119" lat="50.081364"><ele>161.25</ele></trkpt>
<trkpt lon="4.635807" lat="50.081464"><ele>160.75</ele></trkpt>
<trkpt lon="4.635545" lat="50.081526"><ele>161.25</ele></trkpt>
<trkpt lon="4.635295" lat="50.081545"><ele>161.5</ele></trkpt>
<trkpt lon="4.635205" lat="50.081543"><ele>161.5</ele></trkpt>
<trkpt lon="4.634988" lat="50.081482"><ele>160.25</ele></trkpt>
<trkpt lon="4.635044" lat="50.081263"><ele>157.25</ele></trkpt>
<trkpt lon="4.634924" lat="50.081194"><ele>157.25</ele></trkpt>
<trkpt lon="4.634790" lat="50.081143"><ele>157.75</ele></trkpt>
<trkpt lon="4.634653" lat="50.081102"><ele>158.0</ele></trkpt>
<trkpt lon="4.634490" lat="50.080927"><ele>158.25</ele></trkpt>
<trkpt lon="4.634416" lat="50.080866"><ele>158.0</ele></trkpt>
<trkpt lon="4.634288" lat="50.080802"><ele>158.25</ele></trkpt>
<trkpt lon="4.634069" lat="50.080721"><ele>159.0</ele></trkpt>
<trkpt lon="4.633869" lat="50.080656"><ele>159.0</ele></trkpt>
<trkpt lon="4.633548" lat="50.080550"><ele>155.5</ele></trkpt>
<trkpt lon="4.632862" lat="50.080365"><ele>148.75</ele></trkpt>
<trkpt lon="4.632735" lat="50.080361"><ele>147.25</ele></trkpt>
<trkpt lon="4.632573" lat="50.080372"><ele>146.0</ele></trkpt>
<trkpt lon="4.632472" lat="50.080389"><ele>145.5</ele></trkpt>
<trkpt lon="4.632258" lat="50.080405"><ele>144.0</ele></trkpt>
<trkpt lon="4.632148" lat="50.080403"><ele>144.0</ele></trkpt>
<trkpt lon="4.632086" lat="50.080389"><ele>144.25</ele></trkpt>
<trkpt lon="4.631991" lat="50.080365"><ele>144.5</ele></trkpt>
<trkpt lon="4.631859" lat="50.080310"><ele>145.5</ele></trkpt>
<trkpt lon="4.631697" lat="50.080360"><ele>146.25</ele></trkpt>
<trkpt lon="4.631500" lat="50.080443"><ele>147.75</ele></trkpt>
<trkpt lon="4.631316" lat="50.080413"><ele>151.0</ele></trkpt>
<trkpt lon="4.631342" lat="50.080338"><ele>153.0</ele></trkpt>
<trkpt lon="4.630905" lat="50.080294"><ele>161.25</ele></trkpt>
<trkpt lon="4.630558" lat="50.080216"><ele>163.75</ele></trkpt>
<trkpt lon="4.630330" lat="50.080216"><ele>164.25</ele></trkpt>
<trkpt lon="4.630159" lat="50.080175"><ele>164.0</ele></trkpt>
<trkpt lon="4.629867" lat="50.080176"><ele>164.25</ele></trkpt>
<trkpt lon="4.629549" lat="50.080095"><ele>167.0</ele></trkpt>
<trkpt lon="4.629121" lat="50.080006"><ele>173.25</ele></trkpt>
<trkpt lon="4.628495" lat="50.080035"><ele>178.5</ele></trkpt>
<trkpt lon="4.626880" lat="50.080705"><ele>195.75</ele></trkpt>
<trkpt lon="4.626727" lat="50.080644"><ele>196.25</ele></trkpt>
<trkpt lon="4.626658" lat="50.080439"><ele>196.5</ele></trkpt>
<trkpt lon="4.626535" lat="50.080340"><ele>196.5</ele></trkpt>
<trkpt lon="4.626467" lat="50.080352"><ele>196.75</ele></trkpt>
<trkpt lon="4.626419" lat="50.080367"><ele>196.75</ele></trkpt>
<trkpt lon="4.626314" lat="50.080410"><ele>197.75</ele></trkpt>
<trkpt lon="4.626179" lat="50.080467"><ele>200.25</ele></trkpt>
<trkpt lon="4.625767" lat="50.080348"><ele>203.25</ele></trkpt>
<trkpt lon="4.625568" lat="50.080330"><ele>204.5</ele></trkpt>
<trkpt lon="4.625638" lat="50.080505"><ele>206.25</ele></trkpt>
<trkpt lon="4.625623" lat="50.080665"><ele>207.75</ele></trkpt>
<trkpt lon="4.625532" lat="50.080718"><ele>208.5</ele></trkpt>
<trkpt lon="4.625264" lat="50.080732"><ele>210.0</ele></trkpt>
<trkpt lon="4.625185" lat="50.080715"><ele>210.0</ele></trkpt>
<trkpt lon="4.623788" lat="50.080362"><ele>214.75</ele></trkpt>
<trkpt lon="4.622822" lat="50.080285"><ele>216.75</ele></trkpt>
<trkpt lon="4.621933" lat="50.080117"><ele>218.25</ele></trkpt>
<trkpt lon="4.621665" lat="50.080159"><ele>217.0</ele></trkpt>
<trkpt lon="4.621065" lat="50.080111"><ele>216.25</ele></trkpt>
<trkpt lon="4.620814" lat="50.080027"><ele>216.5</ele></trkpt>
<trkpt lon="4.620780" lat="50.079988"><ele>217.0</ele></trkpt>
<trkpt lon="4.620781" lat="50.079952"><ele>217.5</ele></trkpt>
<trkpt lon="4.620807" lat="50.079862"><ele>218.25</ele></trkpt>
<trkpt lon="4.620878" lat="50.079699"><ele>219.75</ele></trkpt>
<trkpt lon="4.620757" lat="50.079556"><ele>218.5</ele></trkpt>
<trkpt lon="4.619855" lat="50.079361"><ele>220.5</ele></trkpt>
<trkpt lon="4.619554" lat="50.079334"><ele>220.5</ele></trkpt>
<trkpt lon="4.618641" lat="50.079135"><ele>221.25</ele></trkpt>
<trkpt lon="4.618498" lat="50.079089"><ele>222.25</ele></trkpt>
  </trkseg></trk></gpx>
