<?xml version="1.0" encoding="UTF-8"?>
<gpx version="1.1" creator="compostel-brouter" xmlns="http://www.topografix.com/GPX/1/1">
  <metadata><name>BE-12-Rocroi</name></metadata>
  <trk><name>BE-12-Rocroi</name><trkseg>
<trkpt lon="4.493096" lat="50.053294"><ele>185.5</ele></trkpt>
<trkpt lon="4.493104" lat="50.053172"><ele>186.0</ele></trkpt>
<trkpt lon="4.493137" lat="50.053070"><ele>186.0</ele></trkpt>
<trkpt lon="4.493164" lat="50.053030"><ele>186.0</ele></trkpt>
<trkpt lon="4.493230" lat="50.052926"><ele>186.0</ele></trkpt>
<trkpt lon="4.493412" lat="50.052757"><ele>185.5</ele></trkpt>
<trkpt lon="4.493533" lat="50.052666"><ele>185.25</ele></trkpt>
<trkpt lon="4.493622" lat="50.052601"><ele>185.0</ele></trkpt>
<trkpt lon="4.493164" lat="50.052426"><ele>186.0</ele></trkpt>
<trkpt lon="4.493082" lat="50.052400"><ele>186.0</ele></trkpt>
<trkpt lon="4.492953" lat="50.052333"><ele>186.25</ele></trkpt>
<trkpt lon="4.492754" lat="50.052174"><ele>187.0</ele></trkpt>
<trkpt lon="4.492336" lat="50.051701"><ele>188.25</ele></trkpt>
<trkpt lon="4.492316" lat="50.051617"><ele>189.0</ele></trkpt>
<trkpt lon="4.492398" lat="50.051597"><ele>188.75</ele></trkpt>
<trkpt lon="4.492456" lat="50.051568"><ele>188.75</ele></trkpt>
<trkpt lon="4.492505" lat="50.051517"><ele>189.0</ele></trkpt>
<trkpt lon="4.492507" lat="50.051478"><ele>189.25</ele></trkpt>
<trkpt lon="4.492459" lat="50.051431"><ele>189.75</ele></trkpt>
<trkpt lon="4.492397" lat="50.051409"><ele>190.0</ele></trkpt>
<trkpt lon="4.492383" lat="50.051382"><ele>190.5</ele></trkpt>
<trkpt lon="4.492062" lat="50.051170"><ele>195.5</ele></trkpt>
<trkpt lon="4.491449" lat="50.050857"><ele>202.5</ele></trkpt>
<trkpt lon="4.491141" lat="50.050516"><ele>206.25</ele></trkpt>
<trkpt lon="4.490884" lat="50.050278"><ele>207.75</ele></trkpt>
<trkpt lon="4.490926" lat="50.050209"><ele>208.75</ele></trkpt>
<trkpt lon="4.490959" lat="50.050154"><ele>209.5</ele></trkpt>
<trkpt lon="4.491046" lat="50.050031"><ele>210.75</ele></trkpt>
<trkpt lon="4.491018" lat="50.049836"><ele>212.5</ele></trkpt>
<trkpt lon="4.490842" lat="50.049651"><ele>214.0</ele></trkpt>
<trkpt lon="4.490672" lat="50.049486"><ele>215.25</ele></trkpt>
<trkpt lon="4.490503" lat="50.048887"><ele>219.0</ele></trkpt>
<trkpt lon="4.490555" lat="50.048445"><ele>222.0</ele></trkpt>
<trkpt lon="4.490637" lat="50.047739"><ele>225.75</ele></trkpt>
<trkpt lon="4.490674" lat="50.046996"><ele>226.0</ele></trkpt>
<trkpt lon="4.490716" lat="50.046377"><ele>221.75</ele></trkpt>
<trkpt lon="4.490949" lat="50.045963"><ele>221.5</ele></trkpt>
<trkpt lon="4.491330" lat="50.045664"><ele>224.5</ele></trkpt>
<trkpt lon="4.491466" lat="50.045583"><ele>225.5</ele></trkpt>
<trkpt lon="4.491638" lat="50.045445"><ele>226.25</ele></trkpt>
<trkpt lon="4.491706" lat="50.045310"><ele>226.75</ele></trkpt>
<trkpt lon="4.491732" lat="50.045249"><ele>226.75</ele></trkpt>
<trkpt lon="4.491749" lat="50.045171"><ele>226.5</ele></trkpt>
<trkpt lon="4.491736" lat="50.045085"><ele>226.75</ele></trkpt>
<trkpt lon="4.491673" lat="50.045006"><ele>226.75</ele></trkpt>
<trkpt lon="4.491566" lat="50.044918"><ele>226.75</ele></trkpt>
<trkpt lon="4.491399" lat="50.044809"><ele>226.75</ele></trkpt>
<trkpt lon="4.491045" lat="50.044635"><ele>228.0</ele></trkpt>
<trkpt lon="4.490771" lat="50.044525"><ele>228.75</ele></trkpt>
<trkpt lon="4.490648" lat="50.044467"><ele>229.5</ele></trkpt>
<trkpt lon="4.490536" lat="50.044401"><ele>230.0</ele></trkpt>
<trkpt lon="4.490462" lat="50.044336"><ele>230.0</ele></trkpt>
<trkpt lon="4.490389" lat="50.044258"><ele>230.25</ele></trkpt>
<trkpt lon="4.490339" lat="50.044175"><ele>230.75</ele></trkpt>
<trkpt lon="4.490315" lat="50.044080"><ele>231.0</ele></trkpt>
<trkpt lon="4.490329" lat="50.043969"><ele>231.5</ele></trkpt>
<trkpt lon="4.490366" lat="50.043844"><ele>231.75</ele></trkpt>
<trkpt lon="4.490550" lat="50.043400"><ele>232.75</ele></trkpt>
<trkpt lon="4.490588" lat="50.043250"><ele>233.75</ele></trkpt>
<trkpt lon="4.490599" lat="50.043119"><ele>235.0</ele></trkpt>
<trkpt lon="4.490450" lat="50.042553"><ele>241.0</ele></trkpt>
<trkpt lon="4.490346" lat="50.042281"><ele>244.25</ele></trkpt>
<trkpt lon="4.490233" lat="50.042056"><ele>247.0</ele></trkpt>
<trkpt lon="4.490042" lat="50.041744"><ele>251.0</ele></trkpt>
<trkpt lon="4.489983" lat="50.041605"><ele>252.5</ele></trkpt>
<trkpt lon="4.489898" lat="50.041421"><ele>254.25</ele></trkpt>
<trkpt lon="4.489827" lat="50.041316"><ele>255.5</ele></trkpt>
<trkpt lon="4.489434" lat="50.041270"><ele>257.75</ele></trkpt>
<trkpt lon="4.489141" lat="50.041250"><ele>259.0</ele></trkpt>
<trkpt lon="4.488870" lat="50.041202"><ele>260.0</ele></trkpt>
<trkpt lon="4.488516" lat="50.041120"><ele>261.75</ele></trkpt>
<trkpt lon="4.487819" lat="50.040988"><ele>263.25</ele></trkpt>
<trkpt lon="4.487473" lat="50.040908"><ele>263.75</ele></trkpt>
<trkpt lon="4.487199" lat="50.040832"><ele>264.0</ele></trkpt>
<trkpt lon="4.486983" lat="50.040753"><ele>264.75</ele></trkpt>
<trkpt lon="4.486773" lat="50.040687"><ele>265.75</ele></trkpt>
<trkpt lon="4.486507" lat="50.040633"><ele>267.0</ele></trkpt>
<trkpt lon="4.486271" lat="50.040611"><ele>268.0</ele></trkpt>
<trkpt lon="4.485948" lat="50.040550"><ele>269.0</ele></trkpt>
<trkpt lon="4.485547" lat="50.040438"><ele>270.0</ele></trkpt>
<trkpt lon="4.485398" lat="50.040375"><ele>270.0</ele></trkpt>
<trkpt lon="4.485074" lat="50.040134"><ele>270.5</ele></trkpt>
<trkpt lon="4.484808" lat="50.039880"><ele>270.5</ele></trkpt>
<trkpt lon="4.484354" lat="50.039500"><ele>272.0</ele></trkpt>
<trkpt lon="4.484175" lat="50.039375"><ele>273.0</ele></trkpt>
<trkpt lon="4.483964" lat="50.039242"><ele>274.0</ele></trkpt>
<trkpt lon="4.483778" lat="50.039148"><ele>275.25</ele></trkpt>
<trkpt lon="4.483395" lat="50.039023"><ele>277.0</ele></trkpt>
<trkpt lon="4.482977" lat="50.038845"><ele>279.5</ele></trkpt>
<trkpt lon="4.482754" lat="50.038732"><ele>280.5</ele></trkpt>
<trkpt lon="4.482526" lat="50.038579"><ele>282.25</ele></trkpt>
<trkpt lon="4.482334" lat="50.038475"><ele>283.25</ele></trkpt>
<trkpt lon="4.482187" lat="50.038335"><ele>284.75</ele></trkpt>
<trkpt lon="4.481682" lat="50.037771"><ele>292.0</ele></trkpt>
<trkpt lon="4.481299" lat="50.037439"><ele>294.75</ele></trkpt>
<trkpt lon="4.481039" lat="50.037265"><ele>297.25</ele></trkpt>
<trkpt lon="4.480657" lat="50.036992"><ele>299.5</ele></trkpt>
<trkpt lon="4.480305" lat="50.036964"><ele>300.5</ele></trkpt>
<trkpt lon="4.479460" lat="50.036990"><ele>300.5</ele></trkpt>
<trkpt lon="4.479240" lat="50.036987"><ele>300.5</ele></trkpt>
<trkpt lon="4.479009" lat="50.036921"><ele>301.0</ele></trkpt>
<trkpt lon="4.478513" lat="50.036750"><ele>302.5</ele></trkpt>
<trkpt lon="4.478266" lat="50.036623"><ele>303.0</ele></trkpt>
<trkpt lon="4.477559" lat="50.035844"><ele>305.0</ele></trkpt>
<trkpt lon="4.477526" lat="50.035784"><ele>304.75</ele></trkpt>
<trkpt lon="4.477524" lat="50.035731"><ele>304.75</ele></trkpt>
<trkpt lon="4.477893" lat="50.034791"><ele>301.0</ele></trkpt>
<trkpt lon="4.477863" lat="50.034630"><ele>300.5</ele></trkpt>
<trkpt lon="4.477758" lat="50.034585"><ele>300.5</ele></trkpt>
<trkpt lon="4.477000" lat="50.034399"><ele>301.5</ele></trkpt>
<trkpt lon="4.477053" lat="50.034348"><ele>301.25</ele></trkpt>
<trkpt lon="4.477113" lat="50.034268"><ele>300.75</ele></trkpt>
<trkpt lon="4.477706" lat="50.033489"><ele>293.0</ele></trkpt>
<trkpt lon="4.478436" lat="50.032918"><ele>280.75</ele></trkpt>
<trkpt lon="4.478675" lat="50.032599"><ele>273.5</ele></trkpt>
<trkpt lon="4.478695" lat="50.032010"><ele>264.25</ele></trkpt>
<trkpt lon="4.478636" lat="50.031810"><ele>260.75</ele></trkpt>
<trkpt lon="4.478436" lat="50.031539"><ele>254.75</ele></trkpt>
<trkpt lon="4.477414" lat="50.030921"><ele>243.0</ele></trkpt>
<trkpt lon="4.476985" lat="50.030616"><ele>238.5</ele></trkpt>
<trkpt lon="4.476718" lat="50.030230"><ele>231.25</ele></trkpt>
<trkpt lon="4.476525" lat="50.029737"><ele>225.25</ele></trkpt>
<trkpt lon="4.476973" lat="50.028618"><ele>212.5</ele></trkpt>
<trkpt lon="4.477110" lat="50.028230"><ele>208.0</ele></trkpt>
<trkpt lon="4.477267" lat="50.028047"><ele>206.75</ele></trkpt>
<trkpt lon="4.477539" lat="50.027903"><ele>206.25</ele></trkpt>
<trkpt lon="4.477670" lat="50.027838"><ele>206.0</ele></trkpt>
<trkpt lon="4.477783" lat="50.027761"><ele>206.0</ele></trkpt>
<trkpt lon="4.478027" lat="50.027516"><ele>206.0</ele></trkpt>
<trkpt lon="4.478076" lat="50.027458"><ele>206.0</ele></trkpt>
<trkpt lon="4.478252" lat="50.027261"><ele>206.5</ele></trkpt>
<trkpt lon="4.478292" lat="50.027216"><ele>206.75</ele></trkpt>
<trkpt lon="4.478380" lat="50.027115"><ele>207.25</ele></trkpt>
<trkpt lon="4.478372" lat="50.027084"><ele>207.5</ele></trkpt>
<trkpt lon="4.478356" lat="50.027066"><ele>207.5</ele></trkpt>
<trkpt lon="4.478344" lat="50.027057"><ele>207.5</ele></trkpt>
<trkpt lon="4.478549" lat="50.026950"><ele>207.75</ele></trkpt>
<trkpt lon="4.478834" lat="50.026831"><ele>208.75</ele></trkpt>
<trkpt lon="4.479144" lat="50.026491"><ele>210.75</ele></trkpt>
<trkpt lon="4.479195" lat="50.026370"><ele>211.25</ele></trkpt>
<trkpt lon="4.479228" lat="50.026212"><ele>213.25</ele></trkpt>
<trkpt lon="4.479497" lat="50.025741"><ele>212.75</ele></trkpt>
<trkpt lon="4.479646" lat="50.025394"><ele>214.5</ele></trkpt>
<trkpt lon="4.479758" lat="50.024971"><ele>215.0</ele></trkpt>
<trkpt lon="4.479739" lat="50.024568"><ele>215.75</ele></trkpt>
<trkpt lon="4.479683" lat="50.024217"><ele>218.25</ele></trkpt>
<trkpt lon="4.479466" lat="50.023790"><ele>220.75</ele></trkpt>
<trkpt lon="4.479205" lat="50.023407"><ele>222.75</ele></trkpt>
<trkpt lon="4.479019" lat="50.023156"><ele>225.75</ele></trkpt>
<trkpt lon="4.478963" lat="50.022937"><ele>226.25</ele></trkpt>
<trkpt lon="4.478968" lat="50.022626"><ele>226.5</ele></trkpt>
<trkpt lon="4.478937" lat="50.022148"><ele>226.25</ele></trkpt>
<trkpt lon="4.478894" lat="50.022043"><ele>226.25</ele></trkpt>
<trkpt lon="4.478797" lat="50.021804"><ele>227.25</ele></trkpt>
<trkpt lon="4.478642" lat="50.021519"><ele>229.5</ele></trkpt>
<trkpt lon="4.478054" lat="50.020308"><ele>236.0</ele></trkpt>
<trkpt lon="4.477739" lat="50.019838"><ele>237.25</ele></trkpt>
<trkpt lon="4.477824" lat="50.019503"><ele>235.5</ele></trkpt>
<trkpt lon="4.477520" lat="50.019443"><ele>237.75</ele></trkpt>
<trkpt lon="4.477314" lat="50.019364"><ele>241.75</ele></trkpt>
<trkpt lon="4.476144" lat="50.018425"><ele>257.75</ele></trkpt>
<trkpt lon="4.474653" lat="50.017619"><ele>270.25</ele></trkpt>
<trkpt lon="4.473713" lat="50.016792"><ele>275.75</ele></trkpt>
<trkpt lon="4.473859" lat="50.016084"><ele>292.25</ele></trkpt>
<trkpt lon="4.474304" lat="50.015226"><ele>310.5</ele></trkpt>
<trkpt lon="4.475066" lat="50.013278"><ele>328.0</ele></trkpt>
<trkpt lon="4.475205" lat="50.013051"><ele>329.0</ele></trkpt>
<trkpt lon="4.475286" lat="50.012868"><ele>329.5</ele></trkpt>
<trkpt lon="4.475221" lat="50.012740"><ele>330.0</ele></trkpt>
<trkpt lon="4.474991" lat="50.012671"><ele>330.0</ele></trkpt>
<trkpt lon="4.471182" lat="50.012378"><ele>329.0</ele></trkpt>
<trkpt lon="4.470957" lat="50.012316"><ele>329.0</ele></trkpt>
<trkpt lon="4.470860" lat="50.012172"><ele>329.0</ele></trkpt>
<trkpt lon="4.470844" lat="50.011944"><ele>328.75</ele></trkpt>
<trkpt lon="4.470871" lat="50.011706"><ele>328.0</ele></trkpt>
<trkpt lon="4.471085" lat="50.010858"><ele>324.0</ele></trkpt>
<trkpt lon="4.471321" lat="50.009555"><ele>314.25</ele></trkpt>
<trkpt lon="4.471151" lat="50.008517"><ele>305.75</ele></trkpt>
<trkpt lon="4.470281" lat="50.008365"><ele>302.5</ele></trkpt>
<trkpt lon="4.468498" lat="50.007918"><ele>295.75</ele></trkpt>
<trkpt lon="4.468258" lat="50.007818"><ele>294.0</ele></trkpt>
<trkpt lon="4.467480" lat="50.007452"><ele>290.25</ele></trkpt>
<trkpt lon="4.467138" lat="50.007287"><ele>289.0</ele></trkpt>
<trkpt lon="4.466655" lat="50.007095"><ele>287.0</ele></trkpt>
<trkpt lon="4.465981" lat="50.006995"><ele>285.0</ele></trkpt>
<trkpt lon="4.465392" lat="50.006829"><ele>284.0</ele></trkpt>
<trkpt lon="4.465319" lat="50.006812"><ele>284.0</ele></trkpt>
<trkpt lon="4.464933" lat="50.006709"><ele>284.75</ele></trkpt>
<trkpt lon="4.464986" lat="50.006501"><ele>286.75</ele></trkpt>
<trkpt lon="4.465523" lat="50.005578"><ele>296.0</ele></trkpt>
<trkpt lon="4.465566" lat="50.005198"><ele>299.25</ele></trkpt>
<trkpt lon="4.465784" lat="50.004528"><ele>301.25</ele></trkpt>
<trkpt lon="4.465737" lat="50.004375"><ele>301.75</ele></trkpt>
<trkpt lon="4.465405" lat="50.003280"><ele>306.25</ele></trkpt>
<trkpt lon="4.465141" lat="50.002899"><ele>309.5</ele></trkpt>
<trkpt lon="4.465012" lat="50.002265"><ele>315.25</ele></trkpt>
<trkpt lon="4.465020" lat="50.001728"><ele>320.5</ele></trkpt>
<trkpt lon="4.466943" lat="50.001796"><ele>313.0</ele></trkpt>
<trkpt lon="4.468574" lat="50.001712"><ele>316.5</ele></trkpt>
<trkpt lon="4.470763" lat="50.001243"><ele>316.75</ele></trkpt>
<trkpt lon="4.473444" lat="50.000723"><ele>311.25</ele></trkpt>
<trkpt lon="4.473665" lat="50.000843"><ele>312.5</ele></trkpt>
<trkpt lon="4.473536" lat="50.001077"><ele>312.0</ele></trkpt>
<trkpt lon="4.473812" lat="50.001020"><ele>313.0</ele></trkpt>
<trkpt lon="4.474349" lat="50.000647"><ele>314.5</ele></trkpt>
<trkpt lon="4.474876" lat="50.000557"><ele>319.0</ele></trkpt>
<trkpt lon="4.475321" lat="50.000399"><ele>322.0</ele></trkpt>
<trkpt lon="4.476605" lat="50.000216"><ele>330.25</ele></trkpt>
<trkpt lon="4.477336" lat="50.000002"><ele>333.75</ele></trkpt>
<trkpt lon="4.478120" lat="49.999822"><ele>338.25</ele></trkpt>
<trkpt lon="4.478437" lat="49.999608"><ele>339.25</ele></trkpt>
<trkpt lon="4.479232" lat="49.998910"><ele>341.25</ele></trkpt>
<trkpt lon="4.479694" lat="49.998679"><ele>341.25</ele></trkpt>
<trkpt lon="4.480102" lat="49.998330"><ele>341.25</ele></trkpt>
<trkpt lon="4.480961" lat="49.997270"><ele>339.5</ele></trkpt>
<trkpt lon="4.481128" lat="49.996922"><ele>338.75</ele></trkpt>
<trkpt lon="4.481300" lat="49.996790"><ele>339.5</ele></trkpt>
<trkpt lon="4.481787" lat="49.996225"><ele>341.0</ele></trkpt>
<trkpt lon="4.482140" lat="49.995507"><ele>342.25</ele></trkpt>
<trkpt lon="4.482772" lat="49.994984"><ele>344.75</ele></trkpt>
<trkpt lon="4.483924" lat="49.994145"><ele>347.0</ele></trkpt>
<trkpt lon="4.485376" lat="49.993029"><ele>347.25</ele></trkpt>
<trkpt lon="4.485586" lat="49.992851"><ele>347.25</ele></trkpt>
<trkpt lon="4.485750" lat="49.992639"><ele>346.75</ele></trkpt>
<trkpt lon="4.485892" lat="49.992606"><ele>347.0</ele></trkpt>
<trkpt lon="4.486002" lat="49.992562"><ele>347.5</ele></trkpt>
<trkpt lon="4.486174" lat="49.992483"><ele>348.0</ele></trkpt>
<trkpt lon="4.486287" lat="49.992401"><ele>348.5</ele></trkpt>
<trkpt lon="4.486493" lat="49.992175"><ele>349.25</ele></trkpt>
<trkpt lon="4.486606" lat="49.992029"><ele>349.0</ele></trkpt>
<trkpt lon="4.486859" lat="49.991744"><ele>350.5</ele></trkpt>
<trkpt lon="4.486959" lat="49.991607"><ele>351.0</ele></trkpt>
<trkpt lon="4.487055" lat="49.991461"><ele>351.25</ele></trkpt>
<trkpt lon="4.487263" lat="49.991053"><ele>352.0</ele></trkpt>
<trkpt lon="4.487303" lat="49.990949"><ele>352.0</ele></trkpt>
<trkpt lon="4.487337" lat="49.990705"><ele>352.0</ele></trkpt>
<trkpt lon="4.487343" lat="49.990512"><ele>352.5</ele></trkpt>
<trkpt lon="4.487331" lat="49.990329"><ele>352.75</ele></trkpt>
<trkpt lon="4.487266" lat="49.989963"><ele>353.25</ele></trkpt>
<trkpt lon="4.487226" lat="49.989841"><ele>353.5</ele></trkpt>
<trkpt lon="4.487163" lat="49.989697"><ele>354.0</ele></trkpt>
<trkpt lon="4.487084" lat="49.989545"><ele>354.75</ele></trkpt>
<trkpt lon="4.486877" lat="49.989268"><ele>355.25</ele></trkpt>
<trkpt lon="4.486718" lat="49.989126"><ele>355.25</ele></trkpt>
<trkpt lon="4.486557" lat="49.989007"><ele>355.0</ele></trkpt>
<trkpt lon="4.486414" lat="49.988879"><ele>355.0</ele></trkpt>
<trkpt lon="4.486112" lat="49.988588"><ele>355.0</ele></trkpt>
<trkpt lon="4.486024" lat="49.988485"><ele>355.5</ele></trkpt>
<trkpt lon="4.485929" lat="49.988339"><ele>356.25</ele></trkpt>
<trkpt lon="4.485851" lat="49.988179"><ele>356.5</ele></trkpt>
<trkpt lon="4.485734" lat="49.987864"><ele>357.25</ele></trkpt>
<trkpt lon="4.485179" lat="49.986301"><ele>359.0</ele></trkpt>
<trkpt lon="4.485061" lat="49.985945"><ele>359.0</ele></trkpt>
<trkpt lon="4.485052" lat="49.985829"><ele>359.0</ele></trkpt>
<trkpt lon="4.485065" lat="49.985744"><ele>359.0</ele></trkpt>
<trkpt lon="4.485144" lat="49.985611"><ele>359.5</ele></trkpt>
<trkpt lon="4.485188" lat="49.985483"><ele>359.5</ele></trkpt>
<trkpt lon="4.485295" lat="49.984459"><ele>360.75</ele></trkpt>
<trkpt lon="4.485540" lat="49.981912"><ele>364.0</ele></trkpt>
<trkpt lon="4.485689" lat="49.980176"><ele>367.0</ele></trkpt>
<trkpt lon="4.484552" lat="49.979550"><ele>368.25</ele></trkpt>
<trkpt lon="4.484884" lat="49.978888"><ele>371.0</ele></trkpt>
<trkpt lon="4.485262" lat="49.978084"><ele>373.0</ele></trkpt>
<trkpt lon="4.485305" lat="49.977956"><ele>373.25</ele></trkpt>
<trkpt lon="4.485323" lat="49.977867"><ele>373.5</ele></trkpt>
<trkpt lon="4.485327" lat="49.977785"><ele>373.75</ele></trkpt>
<trkpt lon="4.485398" lat="49.977728"><ele>374.0</ele></trkpt>
<trkpt lon="4.485472" lat="49.977667"><ele>374.25</ele></trkpt>
<trkpt lon="4.485484" lat="49.977602"><ele>374.5</ele></trkpt>
<trkpt lon="4.485481" lat="49.977520"><ele>374.75</ele></trkpt>
<trkpt lon="4.485590" lat="49.977433"><ele>374.75</ele></trkpt>
<trkpt lon="4.485832" lat="49.976974"><ele>374.0</ele></trkpt>
<trkpt lon="4.485916" lat="49.976864"><ele>374.0</ele></trkpt>
<trkpt lon="4.487125" lat="49.975778"><ele>370.0</ele></trkpt>
<trkpt lon="4.487139" lat="49.975739"><ele>370.0</ele></trkpt>
<trkpt lon="4.487145" lat="49.975705"><ele>370.0</ele></trkpt>
<trkpt lon="4.487108" lat="49.975625"><ele>370.0</ele></trkpt>
<trkpt lon="4.486327" lat="49.974420"><ele>367.0</ele></trkpt>
<trkpt lon="4.486300" lat="49.974310"><ele>366.75</ele></trkpt>
<trkpt lon="4.486287" lat="49.974169"><ele>366.25</ele></trkpt>
<trkpt lon="4.486290" lat="49.973879"><ele>365.25</ele></trkpt>
<trkpt lon="4.486279" lat="49.973601"><ele>365.25</ele></trkpt>
<trkpt lon="4.486215" lat="49.973225"><ele>365.75</ele></trkpt>
<trkpt lon="4.486162" lat="49.973023"><ele>366.0</ele></trkpt>
<trkpt lon="4.485961" lat="49.972542"><ele>367.75</ele></trkpt>
<trkpt lon="4.485590" lat="49.971718"><ele>370.5</ele></trkpt>
<trkpt lon="4.485473" lat="49.971400"><ele>371.25</ele></trkpt>
<trkpt lon="4.485264" lat="49.970890"><ele>372.75</ele></trkpt>
<trkpt lon="4.485270" lat="49.970829"><ele>373.0</ele></trkpt>
<trkpt lon="4.485263" lat="49.970762"><ele>373.25</ele></trkpt>
<trkpt lon="4.484963" lat="49.969861"><ele>375.5</ele></trkpt>
<trkpt lon="4.484682" lat="49.969273"><ele>376.5</ele></trkpt>
<trkpt lon="4.484616" lat="49.969107"><ele>376.5</ele></trkpt>
<trkpt lon="4.484522" lat="49.968794"><ele>377.0</ele></trkpt>
<trkpt lon="4.484426" lat="49.968464"><ele>376.25</ele></trkpt>
<trkpt lon="4.484381" lat="49.968350"><ele>376.0</ele></trkpt>
<trkpt lon="4.484336" lat="49.968249"><ele>376.0</ele></trkpt>
<trkpt lon="4.484260" lat="49.968126"><ele>376.0</ele></trkpt>
<trkpt lon="4.484184" lat="49.968031"><ele>376.0</ele></trkpt>
<trkpt lon="4.483858" lat="49.967698"><ele>376.0</ele></trkpt>
<trkpt lon="4.483477" lat="49.967285"><ele>375.5</ele></trkpt>
<trkpt lon="4.483363" lat="49.967186"><ele>375.75</ele></trkpt>
<trkpt lon="4.482236" lat="49.966288"><ele>375.75</ele></trkpt>
<trkpt lon="4.483606" lat="49.965976"><ele>375.0</ele></trkpt>
<trkpt lon="4.484587" lat="49.965762"><ele>374.25</ele></trkpt>
<trkpt lon="4.486528" lat="49.965389"><ele>373.25</ele></trkpt>
<trkpt lon="4.489881" lat="49.965074"><ele>373.5</ele></trkpt>
<trkpt lon="4.490086" lat="49.964940"><ele>374.0</ele></trkpt>
<trkpt lon="4.490624" lat="49.964585"><ele>374.25</ele></trkpt>
<trkpt lon="4.493142" lat="49.959891"><ele>359.5</ele></trkpt>
<trkpt lon="4.494540" lat="49.957416"><ele>361.25</ele></trkpt>
<trkpt lon="4.494939" lat="49.956982"><ele>363.5</ele></trkpt>
<trkpt lon="4.499992" lat="49.951955"><ele>362.0</ele></trkpt>
<trkpt lon="4.500083" lat="49.951805"><ele>361.5</ele></trkpt>
<trkpt lon="4.500756" lat="49.951589"><ele>362.0</ele></trkpt>
<trkpt lon="4.501461" lat="49.951359"><ele>362.0</ele></trkpt>
<trkpt lon="4.501879" lat="49.951224"><ele>362.0</ele></trkpt>
<trkpt lon="4.501998" lat="49.951182"><ele>362.0</ele></trkpt>
<trkpt lon="4.503434" lat="49.950707"><ele>362.0</ele></trkpt>
<trkpt lon="4.504212" lat="49.950418"><ele>362.5</ele></trkpt>
<trkpt lon="4.504859" lat="49.950177"><ele>363.0</ele></trkpt>
<trkpt lon="4.505295" lat="49.950034"><ele>363.0</ele></trkpt>
<trkpt lon="4.505175" lat="49.949867"><ele>363.0</ele></trkpt>
<trkpt lon="4.505146" lat="49.949754"><ele>363.0</ele></trkpt>
<trkpt lon="4.505112" lat="49.949198"><ele>361.25</ele></trkpt>
<trkpt lon="4.505093" lat="49.948640"><ele>359.25</ele></trkpt>
<trkpt lon="4.505072" lat="49.948412"><ele>358.25</ele></trkpt>
<trkpt lon="4.505021" lat="49.948177"><ele>357.25</ele></trkpt>
<trkpt lon="4.504843" lat="49.947501"><ele>352.25</ele></trkpt>
<trkpt lon="4.504825" lat="49.947435"><ele>352.25</ele></trkpt>
<trkpt lon="4.504729" lat="49.946954"><ele>352.0</ele></trkpt>
<trkpt lon="4.504804" lat="49.946185"><ele>354.5</ele></trkpt>
<trkpt lon="4.504879" lat="49.945878"><ele>356.25</ele></trkpt>
<trkpt lon="4.504880" lat="49.945775"><ele>356.75</ele></trkpt>
<trkpt lon="4.504856" lat="49.945748"><ele>356.75</ele></trkpt>
<trkpt lon="4.505784" lat="49.945500"><ele>358.0</ele></trkpt>
<trkpt lon="4.506708" lat="49.945234"><ele>358.25</ele></trkpt>
<trkpt lon="4.507512" lat="49.944938"><ele>359.0</ele></trkpt>
<trkpt lon="4.509469" lat="49.944312"><ele>358.25</ele></trkpt>
<trkpt lon="4.513938" lat="49.942930"><ele>364.0</ele></trkpt>
<trkpt lon="4.514796" lat="49.942642"><ele>363.0</ele></trkpt>
<trkpt lon="4.516061" lat="49.942216"><ele>363.0</ele></trkpt>
<trkpt lon="4.517446" lat="49.941868"><ele>366.25</ele></trkpt>
<trkpt lon="4.517187" lat="49.939072"><ele>371.0</ele></trkpt>
<trkpt lon="4.517011" lat="49.937246"><ele>374.75</ele></trkpt>
<trkpt lon="4.517081" lat="49.936963"><ele>375.75</ele></trkpt>
<trkpt lon="4.517832" lat="49.935795"><ele>379.25</ele></trkpt>
<trkpt lon="4.517966" lat="49.935483"><ele>380.0</ele></trkpt>
<trkpt lon="4.518077" lat="49.935101"><ele>380.0</ele></trkpt>
<trkpt lon="4.518044" lat="49.934986"><ele>380.0</ele></trkpt>
<trkpt lon="4.517766" lat="49.934520"><ele>381.0</ele></trkpt>
<trkpt lon="4.517655" lat="49.934290"><ele>381.5</ele></trkpt>
<trkpt lon="4.517653" lat="49.934127"><ele>382.0</ele></trkpt>
<trkpt lon="4.517710" lat="49.933960"><ele>382.0</ele></trkpt>
<trkpt lon="4.518019" lat="49.933586"><ele>382.0</ele></trkpt>
<trkpt lon="4.519158" lat="49.932331"><ele>384.0</ele></trkpt>
<trkpt lon="4.519402" lat="49.932051"><ele>384.5</ele></trkpt>
<trkpt lon="4.519690" lat="49.931724"><ele>384.75</ele></trkpt>
<trkpt lon="4.520113" lat="49.931260"><ele>384.75</ele></trkpt>
<trkpt lon="4.520812" lat="49.930574"><ele>384.0</ele></trkpt>
<trkpt lon="4.520866" lat="49.930499"><ele>384.0</ele></trkpt>
<trkpt lon="4.521403" lat="49.929759"><ele>384.0</ele></trkpt>
<trkpt lon="4.521584" lat="49.929526"><ele>384.0</ele></trkpt>
<trkpt lon="4.521021" lat="49.929354"><ele>384.0</ele></trkpt>
<trkpt lon="4.520863" lat="49.929303"><ele>384.0</ele></trkpt>
<trkpt lon="4.520911" lat="49.928325"><ele>383.75</ele></trkpt>
<trkpt lon="4.521036" lat="49.928320"><ele>383.75</ele></trkpt>
<trkpt lon="4.520918" lat="49.928185"><ele>383.5</ele></trkpt>
<trkpt lon="4.520558" lat="49.927660"><ele>383.25</ele></trkpt>
<trkpt lon="4.520526" lat="49.927467"><ele>382.75</ele></trkpt>
<trkpt lon="4.520575" lat="49.927440"><ele>382.75</ele></trkpt>
<trkpt lon="4.520755" lat="49.927402"><ele>382.75</ele></trkpt>
<trkpt lon="4.520941" lat="49.927368"><ele>382.25</ele></trkpt>
<trkpt lon="4.521072" lat="49.927338"><ele>382.0</ele></trkpt>
<trkpt lon="4.521352" lat="49.927242"><ele>382.75</ele></trkpt>
<trkpt lon="4.521424" lat="49.927202"><ele>382.75</ele></trkpt>
<trkpt lon="4.521457" lat="49.927116"><ele>383.0</ele></trkpt>
<trkpt lon="4.521470" lat="49.927038"><ele>383.5</ele></trkpt>
<trkpt lon="4.521575" lat="49.926656"><ele>384.0</ele></trkpt>
<trkpt lon="4.521596" lat="49.926581"><ele>384.0</ele></trkpt>
<trkpt lon="4.521694" lat="49.926559"><ele>384.0</ele></trkpt>
<trkpt lon="4.521906" lat="49.926482"><ele>384.0</ele></trkpt>
<trkpt lon="4.521983" lat="49.926429"><ele>383.75</ele></trkpt>
<trkpt lon="4.522049" lat="49.926206"><ele>383.5</ele></trkpt>
<trkpt lon="4.522070" lat="49.926155"><ele>383.5</ele></trkpt>
<trkpt lon="4.522124" lat="49.926075"><ele>383.25</ele></trkpt>
<trkpt lon="4.522218" lat="49.925983"><ele>383.25</ele></trkpt>
<trkpt lon="4.522347" lat="49.925812"><ele>385.25</ele></trkpt>
<trkpt lon="4.522436" lat="49.925672"><ele>385.0</ele></trkpt>
<trkpt lon="4.522547" lat="49.925359"><ele>383.75</ele></trkpt>
<trkpt lon="4.522559" lat="49.925323"><ele>384.0</ele></trkpt>
<trkpt lon="4.522691" lat="49.924894"><ele>383.75</ele></trkpt>
<trkpt lon="4.522697" lat="49.924863"><ele>383.75</ele></trkpt>
<trkpt lon="4.522707" lat="49.924789"><ele>383.75</ele></trkpt>
<trkpt lon="4.522318" lat="49.924604"><ele>384.0</ele></trkpt>
<trkpt lon="4.521855" lat="49.924403"><ele>384.25</ele></trkpt>
<trkpt lon="4.521883" lat="49.924371"><ele>384.25</ele></trkpt>
<trkpt lon="4.521573" lat="49.924234"><ele>384.25</ele></trkpt>
<trkpt lon="4.521440" lat="49.924209"><ele>384.75</ele></trkpt>
<trkpt lon="4.521326" lat="49.924162"><ele>385.0</ele></trkpt>
<trkpt lon="4.521440" lat="49.924035"><ele>384.75</ele></trkpt>
<trkpt lon="4.521460" lat="49.923951"><ele>384.75</ele></trkpt>
<trkpt lon="4.521389" lat="49.923903"><ele>384.75</ele></trkpt>
<trkpt lon="4.520987" lat="49.923686"><ele>385.5</ele></trkpt>
  </trkseg></trk></gpx>
