<?xml version="1.0" encoding="UTF-8"?>
<gpx version="1.1" creator="compostel-brouter" xmlns="http://www.topografix.com/GPX/1/1">
  <metadata><name>ES-09-Gernika</name></metadata>
  <trk><name>ES-09-Gernika</name><trkseg>
<trkpt lon="-2.496950" lat="43.267004"><ele>80.0</ele></trkpt>
<trkpt lon="-2.496976" lat="43.267170"><ele>80.0</ele></trkpt>
<trkpt lon="-2.496849" lat="43.267205"><ele>80.0</ele></trkpt>
<trkpt lon="-2.496895" lat="43.267348"><ele>80.25</ele></trkpt>
<trkpt lon="-2.497083" lat="43.267673"><ele>82.0</ele></trkpt>
<trkpt lon="-2.497221" lat="43.267930"><ele>82.25</ele></trkpt>
<trkpt lon="-2.497346" lat="43.268196"><ele>81.75</ele></trkpt>
<trkpt lon="-2.497090" lat="43.268318"><ele>82.0</ele></trkpt>
<trkpt lon="-2.497207" lat="43.268496"><ele>80.75</ele></trkpt>
<trkpt lon="-2.497254" lat="43.268582"><ele>80.0</ele></trkpt>
<trkpt lon="-2.497292" lat="43.268696"><ele>80.0</ele></trkpt>
<trkpt lon="-2.497349" lat="43.268997"><ele>79.5</ele></trkpt>
<trkpt lon="-2.497401" lat="43.269104"><ele>79.0</ele></trkpt>
<trkpt lon="-2.497435" lat="43.269255"><ele>79.0</ele></trkpt>
<trkpt lon="-2.497453" lat="43.269340"><ele>79.0</ele></trkpt>
<trkpt lon="-2.497482" lat="43.269398"><ele>79.0</ele></trkpt>
<trkpt lon="-2.497545" lat="43.269470"><ele>78.75</ele></trkpt>
<trkpt lon="-2.497672" lat="43.269604"><ele>78.25</ele></trkpt>
<trkpt lon="-2.497912" lat="43.269841"><ele>78.25</ele></trkpt>
<trkpt lon="-2.498011" lat="43.269927"><ele>78.25</ele></trkpt>
<trkpt lon="-2.498039" lat="43.269952"><ele>78.0</ele></trkpt>
<trkpt lon="-2.498070" lat="43.269965"><ele>78.0</ele></trkpt>
<trkpt lon="-2.498118" lat="43.269984"><ele>77.5</ele></trkpt>
<trkpt lon="-2.498398" lat="43.270234"><ele>77.75</ele></trkpt>
<trkpt lon="-2.498442" lat="43.270262"><ele>78.25</ele></trkpt>
<trkpt lon="-2.498741" lat="43.270504"><ele>80.25</ele></trkpt>
<trkpt lon="-2.498836" lat="43.270598"><ele>81.0</ele></trkpt>
<trkpt lon="-2.498955" lat="43.270787"><ele>82.75</ele></trkpt>
<trkpt lon="-2.498976" lat="43.270862"><ele>83.25</ele></trkpt>
<trkpt lon="-2.498965" lat="43.270930"><ele>83.25</ele></trkpt>
<trkpt lon="-2.498938" lat="43.270991"><ele>83.25</ele></trkpt>
<trkpt lon="-2.498748" lat="43.271231"><ele>83.25</ele></trkpt>
<trkpt lon="-2.498731" lat="43.271304"><ele>83.5</ele></trkpt>
<trkpt lon="-2.498746" lat="43.271350"><ele>83.75</ele></trkpt>
<trkpt lon="-2.498828" lat="43.271518"><ele>84.0</ele></trkpt>
<trkpt lon="-2.498883" lat="43.271635"><ele>84.0</ele></trkpt>
<trkpt lon="-2.498994" lat="43.271823"><ele>87.0</ele></trkpt>
<trkpt lon="-2.499029" lat="43.271923"><ele>87.75</ele></trkpt>
<trkpt lon="-2.499172" lat="43.272105"><ele>88.25</ele></trkpt>
<trkpt lon="-2.499258" lat="43.272105"><ele>89.0</ele></trkpt>
<trkpt lon="-2.499518" lat="43.272071"><ele>91.5</ele></trkpt>
<trkpt lon="-2.499640" lat="43.272063"><ele>93.25</ele></trkpt>
<trkpt lon="-2.499733" lat="43.272066"><ele>94.75</ele></trkpt>
<trkpt lon="-2.499829" lat="43.272083"><ele>97.75</ele></trkpt>
<trkpt lon="-2.499848" lat="43.272269"><ele>100.5</ele></trkpt>
<trkpt lon="-2.499834" lat="43.272437"><ele>102.25</ele></trkpt>
<trkpt lon="-2.499859" lat="43.272607"><ele>105.0</ele></trkpt>
<trkpt lon="-2.499922" lat="43.272718"><ele>108.25</ele></trkpt>
<trkpt lon="-2.500032" lat="43.272803"><ele>112.5</ele></trkpt>
<trkpt lon="-2.500188" lat="43.272878"><ele>115.5</ele></trkpt>
<trkpt lon="-2.500842" lat="43.273152"><ele>130.0</ele></trkpt>
<trkpt lon="-2.501002" lat="43.273180"><ele>133.0</ele></trkpt>
<trkpt lon="-2.501155" lat="43.273189"><ele>136.0</ele></trkpt>
<trkpt lon="-2.501259" lat="43.273202"><ele>138.25</ele></trkpt>
<trkpt lon="-2.501407" lat="43.273229"><ele>140.5</ele></trkpt>
<trkpt lon="-2.501894" lat="43.273362"><ele>142.75</ele></trkpt>
<trkpt lon="-2.502340" lat="43.273437"><ele>143.25</ele></trkpt>
<trkpt lon="-2.502948" lat="43.273527"><ele>143.0</ele></trkpt>
<trkpt lon="-2.503228" lat="43.273545"><ele>144.0</ele></trkpt>
<trkpt lon="-2.503433" lat="43.273536"><ele>145.0</ele></trkpt>
<trkpt lon="-2.503607" lat="43.273504"><ele>145.0</ele></trkpt>
<trkpt lon="-2.504134" lat="43.273469"><ele>142.5</ele></trkpt>
<trkpt lon="-2.504293" lat="43.273411"><ele>141.25</ele></trkpt>
<trkpt lon="-2.504486" lat="43.273325"><ele>141.0</ele></trkpt>
<trkpt lon="-2.504642" lat="43.273246"><ele>141.25</ele></trkpt>
<trkpt lon="-2.504774" lat="43.273153"><ele>140.5</ele></trkpt>
<trkpt lon="-2.504989" lat="43.272946"><ele>141.25</ele></trkpt>
<trkpt lon="-2.505082" lat="43.272897"><ele>140.75</ele></trkpt>
<trkpt lon="-2.505167" lat="43.272876"><ele>140.0</ele></trkpt>
<trkpt lon="-2.505249" lat="43.272896"><ele>139.25</ele></trkpt>
<trkpt lon="-2.505330" lat="43.272941"><ele>139.25</ele></trkpt>
<trkpt lon="-2.505357" lat="43.272983"><ele>139.25</ele></trkpt>
<trkpt lon="-2.505323" lat="43.273341"><ele>140.25</ele></trkpt>
<trkpt lon="-2.505348" lat="43.273329"><ele>140.5</ele></trkpt>
<trkpt lon="-2.505411" lat="43.273343"><ele>141.25</ele></trkpt>
<trkpt lon="-2.505589" lat="43.273415"><ele>143.75</ele></trkpt>
<trkpt lon="-2.505823" lat="43.273527"><ele>150.75</ele></trkpt>
<trkpt lon="-2.505930" lat="43.273612"><ele>154.75</ele></trkpt>
<trkpt lon="-2.506188" lat="43.273773"><ele>165.75</ele></trkpt>
<trkpt lon="-2.506235" lat="43.273858"><ele>168.0</ele></trkpt>
<trkpt lon="-2.506358" lat="43.273880"><ele>173.5</ele></trkpt>
<trkpt lon="-2.506442" lat="43.273906"><ele>177.5</ele></trkpt>
<trkpt lon="-2.506599" lat="43.273942"><ele>185.0</ele></trkpt>
<trkpt lon="-2.506658" lat="43.273933"><ele>187.75</ele></trkpt>
<trkpt lon="-2.506673" lat="43.273969"><ele>188.5</ele></trkpt>
<trkpt lon="-2.506652" lat="43.274045"><ele>187.75</ele></trkpt>
<trkpt lon="-2.506731" lat="43.274120"><ele>191.75</ele></trkpt>
<trkpt lon="-2.506831" lat="43.274195"><ele>197.0</ele></trkpt>
<trkpt lon="-2.506923" lat="43.274303"><ele>201.0</ele></trkpt>
<trkpt lon="-2.507120" lat="43.274496"><ele>206.0</ele></trkpt>
<trkpt lon="-2.507180" lat="43.274526"><ele>207.25</ele></trkpt>
<trkpt lon="-2.507308" lat="43.274563"><ele>210.5</ele></trkpt>
<trkpt lon="-2.507357" lat="43.274610"><ele>210.25</ele></trkpt>
<trkpt lon="-2.507487" lat="43.274694"><ele>211.5</ele></trkpt>
<trkpt lon="-2.507572" lat="43.274732"><ele>213.25</ele></trkpt>
<trkpt lon="-2.508134" lat="43.274897"><ele>227.5</ele></trkpt>
<trkpt lon="-2.508519" lat="43.275031"><ele>238.75</ele></trkpt>
<trkpt lon="-2.508647" lat="43.275035"><ele>243.5</ele></trkpt>
<trkpt lon="-2.508801" lat="43.275007"><ele>251.0</ele></trkpt>
<trkpt lon="-2.508887" lat="43.274984"><ele>255.5</ele></trkpt>
<trkpt lon="-2.508938" lat="43.274951"><ele>258.75</ele></trkpt>
<trkpt lon="-2.509054" lat="43.274991"><ele>259.5</ele></trkpt>
<trkpt lon="-2.509204" lat="43.275032"><ele>261.75</ele></trkpt>
<trkpt lon="-2.509453" lat="43.275124"><ele>267.0</ele></trkpt>
<trkpt lon="-2.509743" lat="43.275258"><ele>271.5</ele></trkpt>
<trkpt lon="-2.509965" lat="43.275395"><ele>273.5</ele></trkpt>
<trkpt lon="-2.510374" lat="43.275723"><ele>279.25</ele></trkpt>
<trkpt lon="-2.510526" lat="43.275831"><ele>281.0</ele></trkpt>
<trkpt lon="-2.511010" lat="43.276117"><ele>290.75</ele></trkpt>
<trkpt lon="-2.511347" lat="43.276274"><ele>296.5</ele></trkpt>
<trkpt lon="-2.511764" lat="43.276542"><ele>304.5</ele></trkpt>
<trkpt lon="-2.511832" lat="43.276612"><ele>305.0</ele></trkpt>
<trkpt lon="-2.511996" lat="43.276809"><ele>308.5</ele></trkpt>
<trkpt lon="-2.512115" lat="43.276934"><ele>311.75</ele></trkpt>
<trkpt lon="-2.512354" lat="43.277251"><ele>318.25</ele></trkpt>
<trkpt lon="-2.512393" lat="43.277322"><ele>320.0</ele></trkpt>
<trkpt lon="-2.512414" lat="43.277389"><ele>321.0</ele></trkpt>
<trkpt lon="-2.512418" lat="43.277513"><ele>320.75</ele></trkpt>
<trkpt lon="-2.512434" lat="43.277568"><ele>320.0</ele></trkpt>
<trkpt lon="-2.512485" lat="43.277624"><ele>319.75</ele></trkpt>
<trkpt lon="-2.512692" lat="43.277712"><ele>323.25</ele></trkpt>
<trkpt lon="-2.512931" lat="43.277804"><ele>326.25</ele></trkpt>
<trkpt lon="-2.512999" lat="43.277841"><ele>327.0</ele></trkpt>
<trkpt lon="-2.513061" lat="43.277890"><ele>327.0</ele></trkpt>
<trkpt lon="-2.513112" lat="43.277953"><ele>326.75</ele></trkpt>
<trkpt lon="-2.513207" lat="43.278121"><ele>326.75</ele></trkpt>
<trkpt lon="-2.513280" lat="43.278312"><ele>328.5</ele></trkpt>
<trkpt lon="-2.513477" lat="43.278736"><ele>335.25</ele></trkpt>
<trkpt lon="-2.513522" lat="43.278930"><ele>337.0</ele></trkpt>
<trkpt lon="-2.513511" lat="43.279369"><ele>342.25</ele></trkpt>
<trkpt lon="-2.513534" lat="43.279420"><ele>343.0</ele></trkpt>
<trkpt lon="-2.513585" lat="43.279475"><ele>344.0</ele></trkpt>
<trkpt lon="-2.513657" lat="43.279570"><ele>346.25</ele></trkpt>
<trkpt lon="-2.513719" lat="43.279713"><ele>350.5</ele></trkpt>
<trkpt lon="-2.513755" lat="43.279823"><ele>352.5</ele></trkpt>
<trkpt lon="-2.513791" lat="43.280047"><ele>354.75</ele></trkpt>
<trkpt lon="-2.513815" lat="43.280103"><ele>355.5</ele></trkpt>
<trkpt lon="-2.514002" lat="43.280331"><ele>363.25</ele></trkpt>
<trkpt lon="-2.514073" lat="43.280441"><ele>365.5</ele></trkpt>
<trkpt lon="-2.514195" lat="43.280719"><ele>372.0</ele></trkpt>
<trkpt lon="-2.514226" lat="43.280878"><ele>374.0</ele></trkpt>
<trkpt lon="-2.514306" lat="43.280976"><ele>375.5</ele></trkpt>
<trkpt lon="-2.514389" lat="43.281030"><ele>377.25</ele></trkpt>
<trkpt lon="-2.514619" lat="43.281129"><ele>382.0</ele></trkpt>
<trkpt lon="-2.514716" lat="43.281190"><ele>383.5</ele></trkpt>
<trkpt lon="-2.514852" lat="43.281286"><ele>386.5</ele></trkpt>
<trkpt lon="-2.514957" lat="43.281382"><ele>388.25</ele></trkpt>
<trkpt lon="-2.515072" lat="43.281512"><ele>392.25</ele></trkpt>
<trkpt lon="-2.515206" lat="43.281635"><ele>393.75</ele></trkpt>
<trkpt lon="-2.515215" lat="43.281650"><ele>393.5</ele></trkpt>
<trkpt lon="-2.515524" lat="43.281670"><ele>393.0</ele></trkpt>
<trkpt lon="-2.515797" lat="43.281709"><ele>391.25</ele></trkpt>
<trkpt lon="-2.516025" lat="43.281731"><ele>391.75</ele></trkpt>
<trkpt lon="-2.516238" lat="43.281740"><ele>391.25</ele></trkpt>
<trkpt lon="-2.516841" lat="43.281738"><ele>390.0</ele></trkpt>
<trkpt lon="-2.517396" lat="43.281750"><ele>390.5</ele></trkpt>
<trkpt lon="-2.517521" lat="43.281761"><ele>390.75</ele></trkpt>
<trkpt lon="-2.517616" lat="43.281785"><ele>391.5</ele></trkpt>
<trkpt lon="-2.517730" lat="43.281854"><ele>393.5</ele></trkpt>
<trkpt lon="-2.517832" lat="43.282018"><ele>396.75</ele></trkpt>
<trkpt lon="-2.517869" lat="43.282056"><ele>397.5</ele></trkpt>
<trkpt lon="-2.518050" lat="43.282108"><ele>401.0</ele></trkpt>
<trkpt lon="-2.518180" lat="43.282123"><ele>402.0</ele></trkpt>
<trkpt lon="-2.518271" lat="43.282148"><ele>402.75</ele></trkpt>
<trkpt lon="-2.518442" lat="43.282226"><ele>403.25</ele></trkpt>
<trkpt lon="-2.518520" lat="43.282298"><ele>404.0</ele></trkpt>
<trkpt lon="-2.518534" lat="43.282330"><ele>404.5</ele></trkpt>
<trkpt lon="-2.518546" lat="43.282542"><ele>408.0</ele></trkpt>
<trkpt lon="-2.518560" lat="43.282645"><ele>408.75</ele></trkpt>
<trkpt lon="-2.518563" lat="43.282741"><ele>409.25</ele></trkpt>
<trkpt lon="-2.518576" lat="43.282792"><ele>409.75</ele></trkpt>
<trkpt lon="-2.518607" lat="43.282843"><ele>410.25</ele></trkpt>
<trkpt lon="-2.518774" lat="43.283026"><ele>410.25</ele></trkpt>
<trkpt lon="-2.518820" lat="43.283101"><ele>410.0</ele></trkpt>
<trkpt lon="-2.518866" lat="43.283227"><ele>409.75</ele></trkpt>
<trkpt lon="-2.518906" lat="43.283308"><ele>409.25</ele></trkpt>
<trkpt lon="-2.519048" lat="43.283535"><ele>405.0</ele></trkpt>
<trkpt lon="-2.519081" lat="43.283667"><ele>403.75</ele></trkpt>
<trkpt lon="-2.519131" lat="43.283741"><ele>402.75</ele></trkpt>
<trkpt lon="-2.519191" lat="43.283782"><ele>402.0</ele></trkpt>
<trkpt lon="-2.519269" lat="43.283816"><ele>401.5</ele></trkpt>
<trkpt lon="-2.519346" lat="43.283839"><ele>401.0</ele></trkpt>
<trkpt lon="-2.519482" lat="43.283857"><ele>400.25</ele></trkpt>
<trkpt lon="-2.519636" lat="43.283857"><ele>398.5</ele></trkpt>
<trkpt lon="-2.519803" lat="43.283876"><ele>398.5</ele></trkpt>
<trkpt lon="-2.519885" lat="43.283907"><ele>399.0</ele></trkpt>
<trkpt lon="-2.519924" lat="43.283932"><ele>399.25</ele></trkpt>
<trkpt lon="-2.519958" lat="43.283991"><ele>399.75</ele></trkpt>
<trkpt lon="-2.519984" lat="43.284089"><ele>400.25</ele></trkpt>
<trkpt lon="-2.520008" lat="43.284144"><ele>401.0</ele></trkpt>
<trkpt lon="-2.520067" lat="43.284214"><ele>401.75</ele></trkpt>
<trkpt lon="-2.520183" lat="43.284314"><ele>402.75</ele></trkpt>
<trkpt lon="-2.520248" lat="43.284356"><ele>403.75</ele></trkpt>
<trkpt lon="-2.520358" lat="43.284412"><ele>405.0</ele></trkpt>
<trkpt lon="-2.520580" lat="43.284493"><ele>406.5</ele></trkpt>
<trkpt lon="-2.520649" lat="43.284500"><ele>406.5</ele></trkpt>
<trkpt lon="-2.520712" lat="43.284488"><ele>407.0</ele></trkpt>
<trkpt lon="-2.520776" lat="43.284500"><ele>406.75</ele></trkpt>
<trkpt lon="-2.520868" lat="43.284534"><ele>406.75</ele></trkpt>
<trkpt lon="-2.520913" lat="43.284568"><ele>407.0</ele></trkpt>
<trkpt lon="-2.520936" lat="43.284602"><ele>406.75</ele></trkpt>
<trkpt lon="-2.520965" lat="43.284710"><ele>406.25</ele></trkpt>
<trkpt lon="-2.520988" lat="43.284739"><ele>406.25</ele></trkpt>
<trkpt lon="-2.521144" lat="43.284871"><ele>406.0</ele></trkpt>
<trkpt lon="-2.521299" lat="43.285054"><ele>403.25</ele></trkpt>
<trkpt lon="-2.521355" lat="43.285103"><ele>402.75</ele></trkpt>
<trkpt lon="-2.521400" lat="43.285118"><ele>402.75</ele></trkpt>
<trkpt lon="-2.521500" lat="43.285126"><ele>403.5</ele></trkpt>
<trkpt lon="-2.521697" lat="43.285098"><ele>406.25</ele></trkpt>
<trkpt lon="-2.521763" lat="43.285102"><ele>407.75</ele></trkpt>
<trkpt lon="-2.522054" lat="43.285173"><ele>413.25</ele></trkpt>
<trkpt lon="-2.522156" lat="43.285181"><ele>415.5</ele></trkpt>
<trkpt lon="-2.522217" lat="43.285202"><ele>416.5</ele></trkpt>
<trkpt lon="-2.522260" lat="43.285230"><ele>417.0</ele></trkpt>
<trkpt lon="-2.522298" lat="43.285267"><ele>417.25</ele></trkpt>
<trkpt lon="-2.522481" lat="43.285550"><ele>422.25</ele></trkpt>
<trkpt lon="-2.522554" lat="43.285638"><ele>422.25</ele></trkpt>
<trkpt lon="-2.522675" lat="43.285748"><ele>424.75</ele></trkpt>
<trkpt lon="-2.522749" lat="43.285829"><ele>427.5</ele></trkpt>
<trkpt lon="-2.522931" lat="43.286060"><ele>431.0</ele></trkpt>
<trkpt lon="-2.523007" lat="43.286205"><ele>432.25</ele></trkpt>
<trkpt lon="-2.523177" lat="43.286504"><ele>437.5</ele></trkpt>
<trkpt lon="-2.523272" lat="43.286603"><ele>440.5</ele></trkpt>
<trkpt lon="-2.523356" lat="43.286671"><ele>443.5</ele></trkpt>
<trkpt lon="-2.523403" lat="43.286691"><ele>444.5</ele></trkpt>
<trkpt lon="-2.523555" lat="43.286710"><ele>448.75</ele></trkpt>
<trkpt lon="-2.523594" lat="43.286726"><ele>449.75</ele></trkpt>
<trkpt lon="-2.523629" lat="43.286751"><ele>450.75</ele></trkpt>
<trkpt lon="-2.523674" lat="43.286810"><ele>452.25</ele></trkpt>
<trkpt lon="-2.523693" lat="43.286867"><ele>452.25</ele></trkpt>
<trkpt lon="-2.523690" lat="43.286936"><ele>451.5</ele></trkpt>
<trkpt lon="-2.523685" lat="43.286989"><ele>452.0</ele></trkpt>
<trkpt lon="-2.523655" lat="43.287057"><ele>452.5</ele></trkpt>
<trkpt lon="-2.523710" lat="43.287057"><ele>454.5</ele></trkpt>
<trkpt lon="-2.523877" lat="43.286987"><ele>460.0</ele></trkpt>
<trkpt lon="-2.523983" lat="43.286994"><ele>463.25</ele></trkpt>
<trkpt lon="-2.524120" lat="43.287019"><ele>467.5</ele></trkpt>
<trkpt lon="-2.524196" lat="43.287057"><ele>469.75</ele></trkpt>
<trkpt lon="-2.524281" lat="43.287072"><ele>471.75</ele></trkpt>
<trkpt lon="-2.524424" lat="43.287066"><ele>474.75</ele></trkpt>
<trkpt lon="-2.524499" lat="43.287048"><ele>475.5</ele></trkpt>
<trkpt lon="-2.524595" lat="43.287052"><ele>476.75</ele></trkpt>
<trkpt lon="-2.524574" lat="43.287225"><ele>481.75</ele></trkpt>
<trkpt lon="-2.524612" lat="43.287285"><ele>485.5</ele></trkpt>
<trkpt lon="-2.524856" lat="43.287296"><ele>492.25</ele></trkpt>
<trkpt lon="-2.524991" lat="43.287332"><ele>496.25</ele></trkpt>
<trkpt lon="-2.525197" lat="43.287370"><ele>497.25</ele></trkpt>
<trkpt lon="-2.525373" lat="43.287460"><ele>496.25</ele></trkpt>
<trkpt lon="-2.525506" lat="43.287476"><ele>495.5</ele></trkpt>
<trkpt lon="-2.525606" lat="43.287471"><ele>495.25</ele></trkpt>
<trkpt lon="-2.525730" lat="43.287410"><ele>497.0</ele></trkpt>
<trkpt lon="-2.525867" lat="43.287328"><ele>500.5</ele></trkpt>
<trkpt lon="-2.526084" lat="43.287279"><ele>503.75</ele></trkpt>
<trkpt lon="-2.526258" lat="43.287221"><ele>508.5</ele></trkpt>
<trkpt lon="-2.526398" lat="43.287189"><ele>511.75</ele></trkpt>
<trkpt lon="-2.526572" lat="43.287179"><ele>514.5</ele></trkpt>
<trkpt lon="-2.526720" lat="43.287200"><ele>515.75</ele></trkpt>
<trkpt lon="-2.526813" lat="43.287195"><ele>517.75</ele></trkpt>
<trkpt lon="-2.526881" lat="43.287163"><ele>520.0</ele></trkpt>
<trkpt lon="-2.526976" lat="43.287068"><ele>525.0</ele></trkpt>
<trkpt lon="-2.527095" lat="43.287042"><ele>528.0</ele></trkpt>
<trkpt lon="-2.527190" lat="43.287003"><ele>530.75</ele></trkpt>
<trkpt lon="-2.527298" lat="43.286916"><ele>535.5</ele></trkpt>
<trkpt lon="-2.527378" lat="43.286872"><ele>538.5</ele></trkpt>
<trkpt lon="-2.527482" lat="43.286790"><ele>542.25</ele></trkpt>
<trkpt lon="-2.527629" lat="43.286642"><ele>547.0</ele></trkpt>
<trkpt lon="-2.527667" lat="43.286577"><ele>547.75</ele></trkpt>
<trkpt lon="-2.527748" lat="43.286495"><ele>547.25</ele></trkpt>
<trkpt lon="-2.527819" lat="43.286445"><ele>546.0</ele></trkpt>
<trkpt lon="-2.527895" lat="43.286347"><ele>543.75</ele></trkpt>
<trkpt lon="-2.527965" lat="43.286271"><ele>542.0</ele></trkpt>
<trkpt lon="-2.528037" lat="43.286227"><ele>540.5</ele></trkpt>
<trkpt lon="-2.528115" lat="43.286167"><ele>538.25</ele></trkpt>
<trkpt lon="-2.528184" lat="43.286111"><ele>536.5</ele></trkpt>
<trkpt lon="-2.528249" lat="43.286044"><ele>537.0</ele></trkpt>
<trkpt lon="-2.528271" lat="43.285884"><ele>540.5</ele></trkpt>
<trkpt lon="-2.528300" lat="43.285783"><ele>542.0</ele></trkpt>
<trkpt lon="-2.528297" lat="43.285736"><ele>542.0</ele></trkpt>
<trkpt lon="-2.528278" lat="43.285705"><ele>542.0</ele></trkpt>
<trkpt lon="-2.528265" lat="43.285660"><ele>541.75</ele></trkpt>
<trkpt lon="-2.528295" lat="43.285617"><ele>542.0</ele></trkpt>
<trkpt lon="-2.528325" lat="43.285592"><ele>542.5</ele></trkpt>
<trkpt lon="-2.528339" lat="43.285567"><ele>543.0</ele></trkpt>
<trkpt lon="-2.528461" lat="43.285426"><ele>546.0</ele></trkpt>
<trkpt lon="-2.528485" lat="43.285380"><ele>547.0</ele></trkpt>
<trkpt lon="-2.528558" lat="43.285299"><ele>549.0</ele></trkpt>
<trkpt lon="-2.528590" lat="43.285247"><ele>550.5</ele></trkpt>
<trkpt lon="-2.528639" lat="43.285213"><ele>552.25</ele></trkpt>
<trkpt lon="-2.528678" lat="43.285154"><ele>554.5</ele></trkpt>
<trkpt lon="-2.528675" lat="43.285126"><ele>555.25</ele></trkpt>
<trkpt lon="-2.528717" lat="43.285059"><ele>558.0</ele></trkpt>
<trkpt lon="-2.528811" lat="43.284962"><ele>562.75</ele></trkpt>
<trkpt lon="-2.528819" lat="43.284936"><ele>563.75</ele></trkpt>
<trkpt lon="-2.528845" lat="43.284914"><ele>564.75</ele></trkpt>
<trkpt lon="-2.528920" lat="43.284894"><ele>567.0</ele></trkpt>
<trkpt lon="-2.529038" lat="43.284891"><ele>569.75</ele></trkpt>
<trkpt lon="-2.529076" lat="43.284864"><ele>571.25</ele></trkpt>
<trkpt lon="-2.529120" lat="43.284851"><ele>572.75</ele></trkpt>
<trkpt lon="-2.529149" lat="43.284853"><ele>573.25</ele></trkpt>
<trkpt lon="-2.529186" lat="43.284817"><ele>575.25</ele></trkpt>
<trkpt lon="-2.529198" lat="43.284791"><ele>576.5</ele></trkpt>
<trkpt lon="-2.529174" lat="43.284740"><ele>577.5</ele></trkpt>
<trkpt lon="-2.529177" lat="43.284723"><ele>578.0</ele></trkpt>
<trkpt lon="-2.529152" lat="43.284698"><ele>578.5</ele></trkpt>
<trkpt lon="-2.529143" lat="43.284651"><ele>580.25</ele></trkpt>
<trkpt lon="-2.529183" lat="43.284628"><ele>582.0</ele></trkpt>
<trkpt lon="-2.529209" lat="43.284594"><ele>584.0</ele></trkpt>
<trkpt lon="-2.529187" lat="43.284551"><ele>585.0</ele></trkpt>
<trkpt lon="-2.529213" lat="43.284523"><ele>586.75</ele></trkpt>
<trkpt lon="-2.529235" lat="43.284517"><ele>587.5</ele></trkpt>
<trkpt lon="-2.529281" lat="43.284529"><ele>588.0</ele></trkpt>
<trkpt lon="-2.529322" lat="43.284522"><ele>589.25</ele></trkpt>
<trkpt lon="-2.529367" lat="43.284532"><ele>590.0</ele></trkpt>
<trkpt lon="-2.529414" lat="43.284552"><ele>590.25</ele></trkpt>
<trkpt lon="-2.529483" lat="43.284561"><ele>591.5</ele></trkpt>
<trkpt lon="-2.529515" lat="43.284557"><ele>592.25</ele></trkpt>
<trkpt lon="-2.529541" lat="43.284570"><ele>592.25</ele></trkpt>
<trkpt lon="-2.529575" lat="43.284562"><ele>593.25</ele></trkpt>
<trkpt lon="-2.529609" lat="43.284536"><ele>594.75</ele></trkpt>
<trkpt lon="-2.529627" lat="43.284512"><ele>596.0</ele></trkpt>
<trkpt lon="-2.529678" lat="43.284509"><ele>597.0</ele></trkpt>
<trkpt lon="-2.529694" lat="43.284502"><ele>597.5</ele></trkpt>
<trkpt lon="-2.529729" lat="43.284464"><ele>599.5</ele></trkpt>
<trkpt lon="-2.529767" lat="43.284436"><ele>601.25</ele></trkpt>
<trkpt lon="-2.529787" lat="43.284440"><ele>601.75</ele></trkpt>
<trkpt lon="-2.529852" lat="43.284408"><ele>604.5</ele></trkpt>
<trkpt lon="-2.529859" lat="43.284393"><ele>605.25</ele></trkpt>
<trkpt lon="-2.529845" lat="43.284377"><ele>605.5</ele></trkpt>
<trkpt lon="-2.529875" lat="43.284328"><ele>608.0</ele></trkpt>
<trkpt lon="-2.529905" lat="43.284303"><ele>609.75</ele></trkpt>
<trkpt lon="-2.529965" lat="43.284314"><ele>610.75</ele></trkpt>
<trkpt lon="-2.530045" lat="43.284317"><ele>612.5</ele></trkpt>
<trkpt lon="-2.530183" lat="43.284352"><ele>614.25</ele></trkpt>
<trkpt lon="-2.530457" lat="43.284458"><ele>615.75</ele></trkpt>
<trkpt lon="-2.530540" lat="43.284504"><ele>615.5</ele></trkpt>
<trkpt lon="-2.530834" lat="43.284606"><ele>618.0</ele></trkpt>
<trkpt lon="-2.531003" lat="43.284692"><ele>616.75</ele></trkpt>
<trkpt lon="-2.531067" lat="43.284702"><ele>617.25</ele></trkpt>
<trkpt lon="-2.531191" lat="43.284735"><ele>617.5</ele></trkpt>
<trkpt lon="-2.531234" lat="43.284761"><ele>617.25</ele></trkpt>
<trkpt lon="-2.531313" lat="43.284809"><ele>617.0</ele></trkpt>
<trkpt lon="-2.531411" lat="43.284845"><ele>617.25</ele></trkpt>
<trkpt lon="-2.531500" lat="43.284867"><ele>618.5</ele></trkpt>
<trkpt lon="-2.531561" lat="43.284893"><ele>618.75</ele></trkpt>
<trkpt lon="-2.531704" lat="43.284901"><ele>621.25</ele></trkpt>
<trkpt lon="-2.531747" lat="43.284898"><ele>622.0</ele></trkpt>
<trkpt lon="-2.531812" lat="43.284919"><ele>622.75</ele></trkpt>
<trkpt lon="-2.531868" lat="43.284957"><ele>622.5</ele></trkpt>
<trkpt lon="-2.531965" lat="43.284999"><ele>623.5</ele></trkpt>
<trkpt lon="-2.532035" lat="43.285051"><ele>624.75</ele></trkpt>
<trkpt lon="-2.532090" lat="43.285078"><ele>626.0</ele></trkpt>
<trkpt lon="-2.532277" lat="43.285141"><ele>630.75</ele></trkpt>
<trkpt lon="-2.532304" lat="43.285142"><ele>631.75</ele></trkpt>
<trkpt lon="-2.532322" lat="43.285120"><ele>632.75</ele></trkpt>
<trkpt lon="-2.532358" lat="43.285100"><ele>634.5</ele></trkpt>
<trkpt lon="-2.532392" lat="43.285096"><ele>636.0</ele></trkpt>
<trkpt lon="-2.532606" lat="43.285174"><ele>642.0</ele></trkpt>
<trkpt lon="-2.532632" lat="43.285172"><ele>643.0</ele></trkpt>
<trkpt lon="-2.532659" lat="43.285179"><ele>643.75</ele></trkpt>
<trkpt lon="-2.532677" lat="43.285208"><ele>643.75</ele></trkpt>
<trkpt lon="-2.532720" lat="43.285224"><ele>645.0</ele></trkpt>
<trkpt lon="-2.532802" lat="43.285281"><ele>646.5</ele></trkpt>
<trkpt lon="-2.532882" lat="43.285295"><ele>649.0</ele></trkpt>
<trkpt lon="-2.532929" lat="43.285283"><ele>650.75</ele></trkpt>
<trkpt lon="-2.533019" lat="43.285313"><ele>653.0</ele></trkpt>
<trkpt lon="-2.533096" lat="43.285364"><ele>655.0</ele></trkpt>
<trkpt lon="-2.533130" lat="43.285379"><ele>656.0</ele></trkpt>
<trkpt lon="-2.533180" lat="43.285383"><ele>657.75</ele></trkpt>
<trkpt lon="-2.533212" lat="43.285397"><ele>658.75</ele></trkpt>
<trkpt lon="-2.533206" lat="43.285413"><ele>658.25</ele></trkpt>
<trkpt lon="-2.533401" lat="43.285539"><ele>663.0</ele></trkpt>
<trkpt lon="-2.533446" lat="43.285532"><ele>665.0</ele></trkpt>
<trkpt lon="-2.533464" lat="43.285554"><ele>665.0</ele></trkpt>
<trkpt lon="-2.533565" lat="43.285595"><ele>668.25</ele></trkpt>
<trkpt lon="-2.533643" lat="43.285610"><ele>671.0</ele></trkpt>
<trkpt lon="-2.533672" lat="43.285607"><ele>672.25</ele></trkpt>
<trkpt lon="-2.533742" lat="43.285652"><ele>673.75</ele></trkpt>
<trkpt lon="-2.533758" lat="43.285697"><ele>673.5</ele></trkpt>
<trkpt lon="-2.533797" lat="43.285759"><ele>674.0</ele></trkpt>
<trkpt lon="-2.533843" lat="43.285768"><ele>675.5</ele></trkpt>
<trkpt lon="-2.533918" lat="43.285726"><ele>678.75</ele></trkpt>
<trkpt lon="-2.534130" lat="43.285737"><ele>684.75</ele></trkpt>
<trkpt lon="-2.534259" lat="43.285772"><ele>686.0</ele></trkpt>
<trkpt lon="-2.534400" lat="43.285836"><ele>689.25</ele></trkpt>
<trkpt lon="-2.534453" lat="43.285931"><ele>689.25</ele></trkpt>
<trkpt lon="-2.534497" lat="43.285983"><ele>688.5</ele></trkpt>
<trkpt lon="-2.534548" lat="43.286079"><ele>688.5</ele></trkpt>
<trkpt lon="-2.534579" lat="43.286111"><ele>688.75</ele></trkpt>
<trkpt lon="-2.534567" lat="43.286154"><ele>689.0</ele></trkpt>
<trkpt lon="-2.534590" lat="43.286182"><ele>689.25</ele></trkpt>
<trkpt lon="-2.534617" lat="43.286191"><ele>689.5</ele></trkpt>
<trkpt lon="-2.534630" lat="43.286216"><ele>690.0</ele></trkpt>
<trkpt lon="-2.534767" lat="43.286308"><ele>692.5</ele></trkpt>
<trkpt lon="-2.534859" lat="43.286333"><ele>693.75</ele></trkpt>
<trkpt lon="-2.534968" lat="43.286373"><ele>696.0</ele></trkpt>
<trkpt lon="-2.535054" lat="43.286395"><ele>696.0</ele></trkpt>
<trkpt lon="-2.535083" lat="43.286410"><ele>695.25</ele></trkpt>
<trkpt lon="-2.535132" lat="43.286427"><ele>694.25</ele></trkpt>
<trkpt lon="-2.535137" lat="43.286454"><ele>693.75</ele></trkpt>
<trkpt lon="-2.535182" lat="43.286494"><ele>692.75</ele></trkpt>
<trkpt lon="-2.535475" lat="43.286625"><ele>691.5</ele></trkpt>
<trkpt lon="-2.535673" lat="43.286735"><ele>689.0</ele></trkpt>
<trkpt lon="-2.535777" lat="43.286764"><ele>687.75</ele></trkpt>
<trkpt lon="-2.536021" lat="43.286894"><ele>680.5</ele></trkpt>
<trkpt lon="-2.536212" lat="43.286972"><ele>676.25</ele></trkpt>
<trkpt lon="-2.536223" lat="43.286965"><ele>676.5</ele></trkpt>
<trkpt lon="-2.536284" lat="43.286981"><ele>675.5</ele></trkpt>
<trkpt lon="-2.536305" lat="43.286963"><ele>676.25</ele></trkpt>
<trkpt lon="-2.536464" lat="43.286974"><ele>675.0</ele></trkpt>
<trkpt lon="-2.536549" lat="43.287002"><ele>673.0</ele></trkpt>
<trkpt lon="-2.536580" lat="43.286976"><ele>674.5</ele></trkpt>
<trkpt lon="-2.536608" lat="43.286975"><ele>674.25</ele></trkpt>
<trkpt lon="-2.536655" lat="43.286994"><ele>673.0</ele></trkpt>
<trkpt lon="-2.536705" lat="43.286932"><ele>673.25</ele></trkpt>
<trkpt lon="-2.536762" lat="43.286906"><ele>669.25</ele></trkpt>
<trkpt lon="-2.536903" lat="43.286941"><ele>662.25</ele></trkpt>
<trkpt lon="-2.536974" lat="43.286928"><ele>658.75</ele></trkpt>
<trkpt lon="-2.537088" lat="43.286932"><ele>654.25</ele></trkpt>
<trkpt lon="-2.537167" lat="43.286959"><ele>650.75</ele></trkpt>
<trkpt lon="-2.537246" lat="43.286949"><ele>647.75</ele></trkpt>
<trkpt lon="-2.537324" lat="43.286913"><ele>644.25</ele></trkpt>
<trkpt lon="-2.537435" lat="43.286933"><ele>639.5</ele></trkpt>
<trkpt lon="-2.537495" lat="43.286964"><ele>637.0</ele></trkpt>
<trkpt lon="-2.537545" lat="43.286975"><ele>635.25</ele></trkpt>
<trkpt lon="-2.537666" lat="43.287021"><ele>631.5</ele></trkpt>
<trkpt lon="-2.537712" lat="43.287052"><ele>629.75</ele></trkpt>
<trkpt lon="-2.537803" lat="43.287132"><ele>626.0</ele></trkpt>
<trkpt lon="-2.538004" lat="43.287212"><ele>617.75</ele></trkpt>
<trkpt lon="-2.538049" lat="43.287253"><ele>616.25</ele></trkpt>
<trkpt lon="-2.538097" lat="43.287267"><ele>614.5</ele></trkpt>
<trkpt lon="-2.538144" lat="43.287259"><ele>612.5</ele></trkpt>
<trkpt lon="-2.538429" lat="43.287120"><ele>600.25</ele></trkpt>
<trkpt lon="-2.538621" lat="43.287061"><ele>592.25</ele></trkpt>
<trkpt lon="-2.538847" lat="43.286934"><ele>582.0</ele></trkpt>
<trkpt lon="-2.539002" lat="43.286832"><ele>574.5</ele></trkpt>
<trkpt lon="-2.539201" lat="43.286626"><ele>562.25</ele></trkpt>
<trkpt lon="-2.539236" lat="43.286554"><ele>558.5</ele></trkpt>
<trkpt lon="-2.539326" lat="43.286473"><ele>552.75</ele></trkpt>
<trkpt lon="-2.539332" lat="43.286392"><ele>549.75</ele></trkpt>
<trkpt lon="-2.539383" lat="43.286340"><ele>545.75</ele></trkpt>
<trkpt lon="-2.539518" lat="43.286375"><ele>543.0</ele></trkpt>
<trkpt lon="-2.539581" lat="43.286366"><ele>540.5</ele></trkpt>
<trkpt lon="-2.539716" lat="43.286399"><ele>537.25</ele></trkpt>
<trkpt lon="-2.539797" lat="43.286384"><ele>534.25</ele></trkpt>
<trkpt lon="-2.539947" lat="43.286412"><ele>530.5</ele></trkpt>
<trkpt lon="-2.540062" lat="43.286412"><ele>527.0</ele></trkpt>
<trkpt lon="-2.540175" lat="43.286381"><ele>522.5</ele></trkpt>
<trkpt lon="-2.540234" lat="43.286287"><ele>516.75</ele></trkpt>
<trkpt lon="-2.540249" lat="43.286226"><ele>513.5</ele></trkpt>
<trkpt lon="-2.540244" lat="43.286196"><ele>512.5</ele></trkpt>
<trkpt lon="-2.540297" lat="43.286180"><ele>510.25</ele></trkpt>
<trkpt lon="-2.540313" lat="43.286167"><ele>509.5</ele></trkpt>
<trkpt lon="-2.540303" lat="43.286144"><ele>508.75</ele></trkpt>
<trkpt lon="-2.540268" lat="43.286104"><ele>507.75</ele></trkpt>
<trkpt lon="-2.540335" lat="43.286085"><ele>505.25</ele></trkpt>
<trkpt lon="-2.540379" lat="43.286088"><ele>504.25</ele></trkpt>
<trkpt lon="-2.540592" lat="43.286121"><ele>500.25</ele></trkpt>
<trkpt lon="-2.540822" lat="43.286168"><ele>495.75</ele></trkpt>
<trkpt lon="-2.541452" lat="43.286330"><ele>484.25</ele></trkpt>
<trkpt lon="-2.541533" lat="43.286353"><ele>483.0</ele></trkpt>
<trkpt lon="-2.541678" lat="43.286416"><ele>481.5</ele></trkpt>
<trkpt lon="-2.541960" lat="43.286499"><ele>477.75</ele></trkpt>
<trkpt lon="-2.542218" lat="43.286586"><ele>474.25</ele></trkpt>
<trkpt lon="-2.542283" lat="43.286631"><ele>473.5</ele></trkpt>
<trkpt lon="-2.542347" lat="43.286693"><ele>473.25</ele></trkpt>
<trkpt lon="-2.542404" lat="43.286822"><ele>475.0</ele></trkpt>
<trkpt lon="-2.542435" lat="43.286841"><ele>474.75</ele></trkpt>
<trkpt lon="-2.542480" lat="43.286765"><ele>471.75</ele></trkpt>
<trkpt lon="-2.542767" lat="43.286610"><ele>462.0</ele></trkpt>
<trkpt lon="-2.542859" lat="43.286612"><ele>460.5</ele></trkpt>
<trkpt lon="-2.542909" lat="43.286625"><ele>460.25</ele></trkpt>
<trkpt lon="-2.543275" lat="43.286638"><ele>454.0</ele></trkpt>
<trkpt lon="-2.543374" lat="43.286657"><ele>452.5</ele></trkpt>
<trkpt lon="-2.543505" lat="43.286708"><ele>451.0</ele></trkpt>
<trkpt lon="-2.543940" lat="43.286958"><ele>446.75</ele></trkpt>
<trkpt lon="-2.544369" lat="43.287142"><ele>440.25</ele></trkpt>
<trkpt lon="-2.544694" lat="43.287271"><ele>439.0</ele></trkpt>
<trkpt lon="-2.545047" lat="43.287374"><ele>435.0</ele></trkpt>
<trkpt lon="-2.545341" lat="43.287406"><ele>428.75</ele></trkpt>
<trkpt lon="-2.545398" lat="43.287395"><ele>426.5</ele></trkpt>
<trkpt lon="-2.545396" lat="43.287309"><ele>421.75</ele></trkpt>
<trkpt lon="-2.545263" lat="43.287181"><ele>417.75</ele></trkpt>
<trkpt lon="-2.544935" lat="43.286783"><ele>402.5</ele></trkpt>
<trkpt lon="-2.544776" lat="43.286556"><ele>396.0</ele></trkpt>
<trkpt lon="-2.544596" lat="43.286237"><ele>388.0</ele></trkpt>
<trkpt lon="-2.544570" lat="43.286109"><ele>383.75</ele></trkpt>
<trkpt lon="-2.544519" lat="43.285500"><ele>366.5</ele></trkpt>
<trkpt lon="-2.544494" lat="43.285376"><ele>363.25</ele></trkpt>
<trkpt lon="-2.544715" lat="43.285380"><ele>358.0</ele></trkpt>
<trkpt lon="-2.544851" lat="43.285348"><ele>353.5</ele></trkpt>
<trkpt lon="-2.544999" lat="43.285333"><ele>349.0</ele></trkpt>
<trkpt lon="-2.545109" lat="43.285387"><ele>345.75</ele></trkpt>
<trkpt lon="-2.545162" lat="43.285405"><ele>343.75</ele></trkpt>
<trkpt lon="-2.545205" lat="43.285474"><ele>342.0</ele></trkpt>
<trkpt lon="-2.545279" lat="43.285438"><ele>339.75</ele></trkpt>
<trkpt lon="-2.545316" lat="43.285393"><ele>338.5</ele></trkpt>
<trkpt lon="-2.545458" lat="43.285346"><ele>333.0</ele></trkpt>
<trkpt lon="-2.545525" lat="43.285268"><ele>330.0</ele></trkpt>
<trkpt lon="-2.545569" lat="43.285169"><ele>326.25</ele></trkpt>
<trkpt lon="-2.545550" lat="43.285008"><ele>324.25</ele></trkpt>
<trkpt lon="-2.545451" lat="43.284846"><ele>321.0</ele></trkpt>
<trkpt lon="-2.545339" lat="43.284536"><ele>309.75</ele></trkpt>
<trkpt lon="-2.545257" lat="43.284414"><ele>305.5</ele></trkpt>
<trkpt lon="-2.545306" lat="43.284344"><ele>303.25</ele></trkpt>
<trkpt lon="-2.545210" lat="43.284271"><ele>302.5</ele></trkpt>
<trkpt lon="-2.545049" lat="43.284181"><ele>299.5</ele></trkpt>
<trkpt lon="-2.545071" lat="43.284134"><ele>298.5</ele></trkpt>
<trkpt lon="-2.545039" lat="43.284108"><ele>297.75</ele></trkpt>
<trkpt lon="-2.545059" lat="43.284058"><ele>296.75</ele></trkpt>
<trkpt lon="-2.545101" lat="43.284023"><ele>296.25</ele></trkpt>
<trkpt lon="-2.545203" lat="43.283992"><ele>295.75</ele></trkpt>
<trkpt lon="-2.545413" lat="43.283992"><ele>295.75</ele></trkpt>
<trkpt lon="-2.545464" lat="43.284014"><ele>295.75</ele></trkpt>
<trkpt lon="-2.545614" lat="43.284057"><ele>294.0</ele></trkpt>
<trkpt lon="-2.545675" lat="43.284098"><ele>292.5</ele></trkpt>
<trkpt lon="-2.545950" lat="43.284345"><ele>289.0</ele></trkpt>
<trkpt lon="-2.546164" lat="43.284577"><ele>288.25</ele></trkpt>
<trkpt lon="-2.546243" lat="43.284652"><ele>288.25</ele></trkpt>
<trkpt lon="-2.546359" lat="43.284743"><ele>288.0</ele></trkpt>
<trkpt lon="-2.546443" lat="43.284794"><ele>289.0</ele></trkpt>
<trkpt lon="-2.546523" lat="43.284806"><ele>290.0</ele></trkpt>
<trkpt lon="-2.546732" lat="43.284900"><ele>294.25</ele></trkpt>
<trkpt lon="-2.546987" lat="43.284983"><ele>297.5</ele></trkpt>
<trkpt lon="-2.547097" lat="43.284985"><ele>297.0</ele></trkpt>
<trkpt lon="-2.547262" lat="43.285000"><ele>296.5</ele></trkpt>
<trkpt lon="-2.547413" lat="43.285032"><ele>296.0</ele></trkpt>
<trkpt lon="-2.547522" lat="43.285069"><ele>295.5</ele></trkpt>
<trkpt lon="-2.547650" lat="43.285124"><ele>294.0</ele></trkpt>
<trkpt lon="-2.547720" lat="43.285182"><ele>292.5</ele></trkpt>
<trkpt lon="-2.547759" lat="43.285236"><ele>291.0</ele></trkpt>
<trkpt lon="-2.547769" lat="43.285297"><ele>290.25</ele></trkpt>
<trkpt lon="-2.547895" lat="43.285572"><ele>288.5</ele></trkpt>
<trkpt lon="-2.547940" lat="43.285654"><ele>288.5</ele></trkpt>
<trkpt lon="-2.548025" lat="43.285763"><ele>287.5</ele></trkpt>
<trkpt lon="-2.548098" lat="43.285848"><ele>287.5</ele></trkpt>
<trkpt lon="-2.548190" lat="43.285919"><ele>288.0</ele></trkpt>
<trkpt lon="-2.548259" lat="43.285960"><ele>288.25</ele></trkpt>
<trkpt lon="-2.548323" lat="43.285980"><ele>287.75</ele></trkpt>
<trkpt lon="-2.548389" lat="43.285983"><ele>287.75</ele></trkpt>
<trkpt lon="-2.548873" lat="43.285847"><ele>279.5</ele></trkpt>
<trkpt lon="-2.549004" lat="43.285833"><ele>277.25</ele></trkpt>
<trkpt lon="-2.549098" lat="43.285835"><ele>276.0</ele></trkpt>
<trkpt lon="-2.549209" lat="43.285850"><ele>274.5</ele></trkpt>
<trkpt lon="-2.549364" lat="43.285889"><ele>272.5</ele></trkpt>
<trkpt lon="-2.549577" lat="43.285999"><ele>270.0</ele></trkpt>
<trkpt lon="-2.549870" lat="43.286165"><ele>267.25</ele></trkpt>
<trkpt lon="-2.550395" lat="43.286329"><ele>267.5</ele></trkpt>
<trkpt lon="-2.550797" lat="43.286353"><ele>262.75</ele></trkpt>
<trkpt lon="-2.551071" lat="43.286398"><ele>259.0</ele></trkpt>
<trkpt lon="-2.551222" lat="43.286434"><ele>256.5</ele></trkpt>
<trkpt lon="-2.551447" lat="43.286539"><ele>253.25</ele></trkpt>
<trkpt lon="-2.551521" lat="43.286566"><ele>252.0</ele></trkpt>
<trkpt lon="-2.551623" lat="43.286566"><ele>249.5</ele></trkpt>
<trkpt lon="-2.551681" lat="43.286535"><ele>248.0</ele></trkpt>
<trkpt lon="-2.551724" lat="43.286501"><ele>246.75</ele></trkpt>
<trkpt lon="-2.551798" lat="43.286528"><ele>244.75</ele></trkpt>
<trkpt lon="-2.551869" lat="43.286580"><ele>243.25</ele></trkpt>
<trkpt lon="-2.551986" lat="43.286685"><ele>240.25</ele></trkpt>
<trkpt lon="-2.552005" lat="43.286828"><ele>239.0</ele></trkpt>
<trkpt lon="-2.552011" lat="43.286965"><ele>239.0</ele></trkpt>
<trkpt lon="-2.552162" lat="43.287125"><ele>240.25</ele></trkpt>
<trkpt lon="-2.552304" lat="43.287198"><ele>240.25</ele></trkpt>
<trkpt lon="-2.552735" lat="43.287353"><ele>236.5</ele></trkpt>
<trkpt lon="-2.552948" lat="43.287439"><ele>234.0</ele></trkpt>
<trkpt lon="-2.553047" lat="43.287467"><ele>233.0</ele></trkpt>
<trkpt lon="-2.553248" lat="43.287467"><ele>228.0</ele></trkpt>
<trkpt lon="-2.553245" lat="43.287424"><ele>226.5</ele></trkpt>
<trkpt lon="-2.553267" lat="43.287371"><ele>224.25</ele></trkpt>
<trkpt lon="-2.553312" lat="43.287387"><ele>223.75</ele></trkpt>
<trkpt lon="-2.553597" lat="43.287551"><ele>221.25</ele></trkpt>
<trkpt lon="-2.553752" lat="43.287672"><ele>219.75</ele></trkpt>
<trkpt lon="-2.553903" lat="43.287744"><ele>217.5</ele></trkpt>
<trkpt lon="-2.553986" lat="43.287799"><ele>215.75</ele></trkpt>
<trkpt lon="-2.554055" lat="43.287883"><ele>216.75</ele></trkpt>
<trkpt lon="-2.554168" lat="43.287973"><ele>217.75</ele></trkpt>
<trkpt lon="-2.554334" lat="43.287990"><ele>219.25</ele></trkpt>
<trkpt lon="-2.555083" lat="43.287963"><ele>217.5</ele></trkpt>
<trkpt lon="-2.555233" lat="43.287971"><ele>216.75</ele></trkpt>
<trkpt lon="-2.555367" lat="43.288004"><ele>216.75</ele></trkpt>
<trkpt lon="-2.555469" lat="43.288068"><ele>217.75</ele></trkpt>
<trkpt lon="-2.555547" lat="43.288100"><ele>217.5</ele></trkpt>
<trkpt lon="-2.555677" lat="43.288117"><ele>217.0</ele></trkpt>
<trkpt lon="-2.555762" lat="43.288053"><ele>216.0</ele></trkpt>
<trkpt lon="-2.555841" lat="43.288012"><ele>215.0</ele></trkpt>
<trkpt lon="-2.555924" lat="43.287985"><ele>214.0</ele></trkpt>
<trkpt lon="-2.556027" lat="43.287975"><ele>213.0</ele></trkpt>
<trkpt lon="-2.556269" lat="43.287983"><ele>210.75</ele></trkpt>
<trkpt lon="-2.556372" lat="43.287993"><ele>209.75</ele></trkpt>
<trkpt lon="-2.556731" lat="43.288062"><ele>206.0</ele></trkpt>
<trkpt lon="-2.556816" lat="43.288088"><ele>205.0</ele></trkpt>
<trkpt lon="-2.556872" lat="43.288113"><ele>204.25</ele></trkpt>
<trkpt lon="-2.556922" lat="43.288144"><ele>203.5</ele></trkpt>
<trkpt lon="-2.556997" lat="43.288219"><ele>203.0</ele></trkpt>
<trkpt lon="-2.557254" lat="43.288448"><ele>200.75</ele></trkpt>
<trkpt lon="-2.557368" lat="43.288491"><ele>200.0</ele></trkpt>
<trkpt lon="-2.557490" lat="43.288499"><ele>199.5</ele></trkpt>
<trkpt lon="-2.557583" lat="43.288409"><ele>199.25</ele></trkpt>
<trkpt lon="-2.558089" lat="43.288601"><ele>199.75</ele></trkpt>
<trkpt lon="-2.558276" lat="43.288705"><ele>199.0</ele></trkpt>
<trkpt lon="-2.558340" lat="43.288772"><ele>198.25</ele></trkpt>
<trkpt lon="-2.558346" lat="43.288856"><ele>197.25</ele></trkpt>
<trkpt lon="-2.558036" lat="43.288963"><ele>195.5</ele></trkpt>
<trkpt lon="-2.558201" lat="43.288971"><ele>194.75</ele></trkpt>
<trkpt lon="-2.558533" lat="43.289099"><ele>192.5</ele></trkpt>
<trkpt lon="-2.558721" lat="43.289151"><ele>193.25</ele></trkpt>
<trkpt lon="-2.558914" lat="43.289286"><ele>191.5</ele></trkpt>
<trkpt lon="-2.559152" lat="43.289371"><ele>191.0</ele></trkpt>
<trkpt lon="-2.559314" lat="43.289438"><ele>190.5</ele></trkpt>
<trkpt lon="-2.559476" lat="43.289529"><ele>190.25</ele></trkpt>
<trkpt lon="-2.559552" lat="43.289624"><ele>189.5</ele></trkpt>
<trkpt lon="-2.559554" lat="43.289862"><ele>191.75</ele></trkpt>
<trkpt lon="-2.559539" lat="43.289997"><ele>192.75</ele></trkpt>
<trkpt lon="-2.559588" lat="43.290143"><ele>191.25</ele></trkpt>
<trkpt lon="-2.559682" lat="43.290296"><ele>190.25</ele></trkpt>
<trkpt lon="-2.559795" lat="43.290446"><ele>188.5</ele></trkpt>
<trkpt lon="-2.559930" lat="43.290663"><ele>185.75</ele></trkpt>
<trkpt lon="-2.560009" lat="43.290735"><ele>184.5</ele></trkpt>
<trkpt lon="-2.560142" lat="43.290792"><ele>183.0</ele></trkpt>
<trkpt lon="-2.560273" lat="43.290858"><ele>181.25</ele></trkpt>
<trkpt lon="-2.560481" lat="43.290799"><ele>179.5</ele></trkpt>
<trkpt lon="-2.560965" lat="43.290839"><ele>172.75</ele></trkpt>
<trkpt lon="-2.561589" lat="43.290975"><ele>164.75</ele></trkpt>
<trkpt lon="-2.561723" lat="43.291057"><ele>163.0</ele></trkpt>
<trkpt lon="-2.561809" lat="43.291188"><ele>160.5</ele></trkpt>
<trkpt lon="-2.561824" lat="43.291309"><ele>158.25</ele></trkpt>
<trkpt lon="-2.561806" lat="43.291403"><ele>156.5</ele></trkpt>
<trkpt lon="-2.561643" lat="43.291542"><ele>153.0</ele></trkpt>
<trkpt lon="-2.561683" lat="43.291698"><ele>148.0</ele></trkpt>
<trkpt lon="-2.561744" lat="43.291737"><ele>146.5</ele></trkpt>
<trkpt lon="-2.561892" lat="43.291766"><ele>145.0</ele></trkpt>
<trkpt lon="-2.562073" lat="43.291761"><ele>142.0</ele></trkpt>
<trkpt lon="-2.562278" lat="43.291711"><ele>138.5</ele></trkpt>
<trkpt lon="-2.562178" lat="43.291921"><ele>133.75</ele></trkpt>
<trkpt lon="-2.562093" lat="43.292239"><ele>124.5</ele></trkpt>
<trkpt lon="-2.561984" lat="43.292504"><ele>118.75</ele></trkpt>
<trkpt lon="-2.562108" lat="43.292823"><ele>107.25</ele></trkpt>
<trkpt lon="-2.562060" lat="43.292889"><ele>106.25</ele></trkpt>
<trkpt lon="-2.561942" lat="43.292971"><ele>106.0</ele></trkpt>
<trkpt lon="-2.561811" lat="43.293019"><ele>104.5</ele></trkpt>
<trkpt lon="-2.561692" lat="43.293025"><ele>104.0</ele></trkpt>
<trkpt lon="-2.561541" lat="43.292981"><ele>103.25</ele></trkpt>
<trkpt lon="-2.560961" lat="43.292735"><ele>100.0</ele></trkpt>
<trkpt lon="-2.560872" lat="43.292719"><ele>98.75</ele></trkpt>
<trkpt lon="-2.560781" lat="43.292724"><ele>98.5</ele></trkpt>
<trkpt lon="-2.560735" lat="43.292744"><ele>98.75</ele></trkpt>
<trkpt lon="-2.560788" lat="43.292907"><ele>95.75</ele></trkpt>
<trkpt lon="-2.560897" lat="43.293104"><ele>92.75</ele></trkpt>
<trkpt lon="-2.560980" lat="43.293220"><ele>91.5</ele></trkpt>
<trkpt lon="-2.561016" lat="43.293249"><ele>91.25</ele></trkpt>
<trkpt lon="-2.561165" lat="43.293306"><ele>90.5</ele></trkpt>
<trkpt lon="-2.561239" lat="43.293372"><ele>90.0</ele></trkpt>
<trkpt lon="-2.561389" lat="43.293459"><ele>89.5</ele></trkpt>
<trkpt lon="-2.561586" lat="43.293554"><ele>89.25</ele></trkpt>
<trkpt lon="-2.561684" lat="43.293583"><ele>89.25</ele></trkpt>
<trkpt lon="-2.561882" lat="43.293641"><ele>88.75</ele></trkpt>
<trkpt lon="-2.562122" lat="43.293695"><ele>87.5</ele></trkpt>
<trkpt lon="-2.562231" lat="43.293707"><ele>86.75</ele></trkpt>
<trkpt lon="-2.562534" lat="43.293707"><ele>84.0</ele></trkpt>
<trkpt lon="-2.562594" lat="43.293692"><ele>83.5</ele></trkpt>
<trkpt lon="-2.562756" lat="43.293609"><ele>83.0</ele></trkpt>
<trkpt lon="-2.562818" lat="43.293564"><ele>82.25</ele></trkpt>
<trkpt lon="-2.562868" lat="43.293474"><ele>81.5</ele></trkpt>
<trkpt lon="-2.562897" lat="43.293354"><ele>81.25</ele></trkpt>
<trkpt lon="-2.562923" lat="43.293299"><ele>81.5</ele></trkpt>
<trkpt lon="-2.562965" lat="43.293261"><ele>81.75</ele></trkpt>
<trkpt lon="-2.563261" lat="43.293188"><ele>80.25</ele></trkpt>
<trkpt lon="-2.563370" lat="43.293149"><ele>79.75</ele></trkpt>
<trkpt lon="-2.563480" lat="43.293096"><ele>80.0</ele></trkpt>
<trkpt lon="-2.563741" lat="43.292930"><ele>80.25</ele></trkpt>
<trkpt lon="-2.563795" lat="43.292910"><ele>80.0</ele></trkpt>
<trkpt lon="-2.563929" lat="43.292933"><ele>79.5</ele></trkpt>
<trkpt lon="-2.564154" lat="43.292954"><ele>80.5</ele></trkpt>
<trkpt lon="-2.564160" lat="43.292910"><ele>80.25</ele></trkpt>
<trkpt lon="-2.564224" lat="43.292782"><ele>80.0</ele></trkpt>
<trkpt lon="-2.564315" lat="43.292685"><ele>80.25</ele></trkpt>
<trkpt lon="-2.564419" lat="43.292609"><ele>80.5</ele></trkpt>
<trkpt lon="-2.564668" lat="43.292472"><ele>81.75</ele></trkpt>
<trkpt lon="-2.564725" lat="43.292502"><ele>82.0</ele></trkpt>
<trkpt lon="-2.564935" lat="43.292561"><ele>84.25</ele></trkpt>
<trkpt lon="-2.565351" lat="43.292512"><ele>90.5</ele></trkpt>
<trkpt lon="-2.565433" lat="43.292481"><ele>91.5</ele></trkpt>
<trkpt lon="-2.565536" lat="43.292461"><ele>93.0</ele></trkpt>
<trkpt lon="-2.565673" lat="43.292472"><ele>93.5</ele></trkpt>
<trkpt lon="-2.565793" lat="43.292492"><ele>93.75</ele></trkpt>
<trkpt lon="-2.565970" lat="43.292503"><ele>93.25</ele></trkpt>
<trkpt lon="-2.566114" lat="43.292498"><ele>93.0</ele></trkpt>
<trkpt lon="-2.566305" lat="43.292475"><ele>93.25</ele></trkpt>
<trkpt lon="-2.566423" lat="43.292452"><ele>93.5</ele></trkpt>
<trkpt lon="-2.566741" lat="43.292465"><ele>94.5</ele></trkpt>
<trkpt lon="-2.566864" lat="43.292449"><ele>95.0</ele></trkpt>
<trkpt lon="-2.567010" lat="43.292397"><ele>95.5</ele></trkpt>
<trkpt lon="-2.567389" lat="43.292180"><ele>97.0</ele></trkpt>
<trkpt lon="-2.567543" lat="43.292072"><ele>98.5</ele></trkpt>
<trkpt lon="-2.567633" lat="43.292071"><ele>98.5</ele></trkpt>
<trkpt lon="-2.567714" lat="43.292097"><ele>97.75</ele></trkpt>
<trkpt lon="-2.567962" lat="43.292208"><ele>98.0</ele></trkpt>
<trkpt lon="-2.568110" lat="43.292298"><ele>98.5</ele></trkpt>
<trkpt lon="-2.568224" lat="43.292383"><ele>99.0</ele></trkpt>
<trkpt lon="-2.568343" lat="43.292436"><ele>100.0</ele></trkpt>
<trkpt lon="-2.568483" lat="43.292474"><ele>100.0</ele></trkpt>
<trkpt lon="-2.568563" lat="43.292520"><ele>98.75</ele></trkpt>
<trkpt lon="-2.568713" lat="43.292572"><ele>96.25</ele></trkpt>
<trkpt lon="-2.569082" lat="43.292683"><ele>93.75</ele></trkpt>
<trkpt lon="-2.569284" lat="43.292809"><ele>91.5</ele></trkpt>
<trkpt lon="-2.569381" lat="43.292853"><ele>91.25</ele></trkpt>
<trkpt lon="-2.569663" lat="43.292888"><ele>90.25</ele></trkpt>
<trkpt lon="-2.569854" lat="43.292982"><ele>87.0</ele></trkpt>
<trkpt lon="-2.569983" lat="43.293104"><ele>85.75</ele></trkpt>
<trkpt lon="-2.570296" lat="43.293130"><ele>86.0</ele></trkpt>
<trkpt lon="-2.570432" lat="43.293203"><ele>86.0</ele></trkpt>
<trkpt lon="-2.570604" lat="43.293416"><ele>86.0</ele></trkpt>
<trkpt lon="-2.570737" lat="43.293526"><ele>86.5</ele></trkpt>
<trkpt lon="-2.570848" lat="43.293582"><ele>87.0</ele></trkpt>
<trkpt lon="-2.571222" lat="43.293675"><ele>89.0</ele></trkpt>
<trkpt lon="-2.571288" lat="43.293697"><ele>89.75</ele></trkpt>
<trkpt lon="-2.571309" lat="43.293734"><ele>90.25</ele></trkpt>
<trkpt lon="-2.571120" lat="43.293769"><ele>88.0</ele></trkpt>
<trkpt lon="-2.571145" lat="43.293869"><ele>88.5</ele></trkpt>
<trkpt lon="-2.571126" lat="43.293935"><ele>88.0</ele></trkpt>
<trkpt lon="-2.571089" lat="43.294011"><ele>87.25</ele></trkpt>
<trkpt lon="-2.570974" lat="43.294141"><ele>86.0</ele></trkpt>
<trkpt lon="-2.570725" lat="43.294328"><ele>85.75</ele></trkpt>
<trkpt lon="-2.570591" lat="43.294471"><ele>86.75</ele></trkpt>
<trkpt lon="-2.570816" lat="43.294558"><ele>86.25</ele></trkpt>
<trkpt lon="-2.571036" lat="43.294629"><ele>86.25</ele></trkpt>
<trkpt lon="-2.571131" lat="43.294676"><ele>86.5</ele></trkpt>
<trkpt lon="-2.571297" lat="43.294711"><ele>86.25</ele></trkpt>
<trkpt lon="-2.571465" lat="43.294800"><ele>86.25</ele></trkpt>
<trkpt lon="-2.571651" lat="43.294917"><ele>86.5</ele></trkpt>
<trkpt lon="-2.571782" lat="43.294983"><ele>86.5</ele></trkpt>
<trkpt lon="-2.571976" lat="43.295050"><ele>86.25</ele></trkpt>
<trkpt lon="-2.572431" lat="43.295177"><ele>87.75</ele></trkpt>
<trkpt lon="-2.572632" lat="43.295184"><ele>88.25</ele></trkpt>
<trkpt lon="-2.572982" lat="43.295142"><ele>88.0</ele></trkpt>
<trkpt lon="-2.573391" lat="43.295080"><ele>87.25</ele></trkpt>
<trkpt lon="-2.573596" lat="43.295032"><ele>87.0</ele></trkpt>
<trkpt lon="-2.574150" lat="43.294931"><ele>89.25</ele></trkpt>
<trkpt lon="-2.574436" lat="43.294853"><ele>89.25</ele></trkpt>
<trkpt lon="-2.574590" lat="43.294803"><ele>89.5</ele></trkpt>
<trkpt lon="-2.574790" lat="43.294763"><ele>90.25</ele></trkpt>
<trkpt lon="-2.575701" lat="43.294605"><ele>92.0</ele></trkpt>
<trkpt lon="-2.575937" lat="43.294559"><ele>92.75</ele></trkpt>
<trkpt lon="-2.576149" lat="43.294510"><ele>93.25</ele></trkpt>
<trkpt lon="-2.576528" lat="43.294393"><ele>93.25</ele></trkpt>
<trkpt lon="-2.576791" lat="43.294559"><ele>95.75</ele></trkpt>
<trkpt lon="-2.576826" lat="43.294581"><ele>95.75</ele></trkpt>
<trkpt lon="-2.576940" lat="43.294723"><ele>95.0</ele></trkpt>
<trkpt lon="-2.577170" lat="43.295306"><ele>97.25</ele></trkpt>
<trkpt lon="-2.577286" lat="43.295513"><ele>96.0</ele></trkpt>
<trkpt lon="-2.577548" lat="43.295878"><ele>96.75</ele></trkpt>
<trkpt lon="-2.577775" lat="43.296170"><ele>97.0</ele></trkpt>
<trkpt lon="-2.578089" lat="43.296437"><ele>97.5</ele></trkpt>
<trkpt lon="-2.578456" lat="43.296670"><ele>98.25</ele></trkpt>
<trkpt lon="-2.578736" lat="43.296823"><ele>100.0</ele></trkpt>
<trkpt lon="-2.578969" lat="43.296903"><ele>99.0</ele></trkpt>
<trkpt lon="-2.579070" lat="43.296910"><ele>99.5</ele></trkpt>
<trkpt lon="-2.579278" lat="43.296877"><ele>101.5</ele></trkpt>
<trkpt lon="-2.579695" lat="43.296902"><ele>106.5</ele></trkpt>
<trkpt lon="-2.580013" lat="43.296880"><ele>110.5</ele></trkpt>
<trkpt lon="-2.580156" lat="43.296839"><ele>114.0</ele></trkpt>
<trkpt lon="-2.580132" lat="43.296752"><ele>115.0</ele></trkpt>
<trkpt lon="-2.580024" lat="43.296560"><ele>116.75</ele></trkpt>
<trkpt lon="-2.579979" lat="43.296384"><ele>118.5</ele></trkpt>
<trkpt lon="-2.579802" lat="43.296140"><ele>122.25</ele></trkpt>
<trkpt lon="-2.579515" lat="43.295877"><ele>127.0</ele></trkpt>
<trkpt lon="-2.579330" lat="43.295672"><ele>129.0</ele></trkpt>
<trkpt lon="-2.579373" lat="43.295615"><ele>131.25</ele></trkpt>
<trkpt lon="-2.579510" lat="43.295645"><ele>133.5</ele></trkpt>
<trkpt lon="-2.580022" lat="43.295855"><ele>138.5</ele></trkpt>
<trkpt lon="-2.580336" lat="43.295933"><ele>143.25</ele></trkpt>
<trkpt lon="-2.580526" lat="43.295965"><ele>146.0</ele></trkpt>
<trkpt lon="-2.580838" lat="43.295943"><ele>151.25</ele></trkpt>
<trkpt lon="-2.581119" lat="43.295932"><ele>156.25</ele></trkpt>
<trkpt lon="-2.581395" lat="43.295953"><ele>163.0</ele></trkpt>
<trkpt lon="-2.581623" lat="43.295998"><ele>167.0</ele></trkpt>
<trkpt lon="-2.581800" lat="43.296074"><ele>168.5</ele></trkpt>
<trkpt lon="-2.582023" lat="43.296093"><ele>171.25</ele></trkpt>
<trkpt lon="-2.582200" lat="43.296076"><ele>174.0</ele></trkpt>
<trkpt lon="-2.582356" lat="43.296010"><ele>174.5</ele></trkpt>
<trkpt lon="-2.582425" lat="43.295900"><ele>176.0</ele></trkpt>
<trkpt lon="-2.582667" lat="43.295631"><ele>179.75</ele></trkpt>
<trkpt lon="-2.582908" lat="43.295481"><ele>181.5</ele></trkpt>
<trkpt lon="-2.583179" lat="43.295293"><ele>185.5</ele></trkpt>
<trkpt lon="-2.583243" lat="43.295239"><ele>185.25</ele></trkpt>
<trkpt lon="-2.583265" lat="43.295221"><ele>185.0</ele></trkpt>
<trkpt lon="-2.583506" lat="43.295156"><ele>187.0</ele></trkpt>
<trkpt lon="-2.583643" lat="43.295082"><ele>188.5</ele></trkpt>
<trkpt lon="-2.583826" lat="43.294916"><ele>190.25</ele></trkpt>
<trkpt lon="-2.583882" lat="43.294879"><ele>191.0</ele></trkpt>
<trkpt lon="-2.584008" lat="43.294858"><ele>192.0</ele></trkpt>
<trkpt lon="-2.584316" lat="43.294936"><ele>197.0</ele></trkpt>
<trkpt lon="-2.584633" lat="43.295092"><ele>203.25</ele></trkpt>
<trkpt lon="-2.584898" lat="43.295297"><ele>210.0</ele></trkpt>
<trkpt lon="-2.585035" lat="43.295492"><ele>213.5</ele></trkpt>
<trkpt lon="-2.585108" lat="43.295561"><ele>215.5</ele></trkpt>
<trkpt lon="-2.585255" lat="43.295648"><ele>218.5</ele></trkpt>
<trkpt lon="-2.585448" lat="43.295777"><ele>222.75</ele></trkpt>
<trkpt lon="-2.585722" lat="43.295926"><ele>229.5</ele></trkpt>
<trkpt lon="-2.585808" lat="43.296033"><ele>231.5</ele></trkpt>
<trkpt lon="-2.586433" lat="43.296742"><ele>246.5</ele></trkpt>
<trkpt lon="-2.586588" lat="43.297031"><ele>250.75</ele></trkpt>
<trkpt lon="-2.587683" lat="43.297589"><ele>268.25</ele></trkpt>
<trkpt lon="-2.588021" lat="43.297753"><ele>273.75</ele></trkpt>
<trkpt lon="-2.588181" lat="43.298108"><ele>281.25</ele></trkpt>
<trkpt lon="-2.588557" lat="43.298155"><ele>288.25</ele></trkpt>
<trkpt lon="-2.589158" lat="43.298362"><ele>300.5</ele></trkpt>
<trkpt lon="-2.590070" lat="43.298577"><ele>318.25</ele></trkpt>
<trkpt lon="-2.590735" lat="43.298760"><ele>329.5</ele></trkpt>
<trkpt lon="-2.591518" lat="43.298858"><ele>347.75</ele></trkpt>
<trkpt lon="-2.592435" lat="43.298885"><ele>363.0</ele></trkpt>
<trkpt lon="-2.593283" lat="43.298951"><ele>358.5</ele></trkpt>
<trkpt lon="-2.593734" lat="43.299045"><ele>355.0</ele></trkpt>
<trkpt lon="-2.594581" lat="43.299365"><ele>350.75</ele></trkpt>
<trkpt lon="-2.594624" lat="43.299849"><ele>346.75</ele></trkpt>
<trkpt lon="-2.594715" lat="43.300275"><ele>353.5</ele></trkpt>
<trkpt lon="-2.594860" lat="43.300408"><ele>356.75</ele></trkpt>
<trkpt lon="-2.595402" lat="43.300767"><ele>358.5</ele></trkpt>
<trkpt lon="-2.595718" lat="43.301208"><ele>358.25</ele></trkpt>
<trkpt lon="-2.596003" lat="43.301395"><ele>362.25</ele></trkpt>
<trkpt lon="-2.596736" lat="43.301762"><ele>375.75</ele></trkpt>
<trkpt lon="-2.596871" lat="43.302055"><ele>377.25</ele></trkpt>
<trkpt lon="-2.596900" lat="43.302078"><ele>378.0</ele></trkpt>
<trkpt lon="-2.597133" lat="43.302153"><ele>378.5</ele></trkpt>
<trkpt lon="-2.597439" lat="43.302211"><ele>377.25</ele></trkpt>
<trkpt lon="-2.597664" lat="43.302227"><ele>375.25</ele></trkpt>
<trkpt lon="-2.598252" lat="43.302180"><ele>368.0</ele></trkpt>
<trkpt lon="-2.598512" lat="43.302172"><ele>363.0</ele></trkpt>
<trkpt lon="-2.598697" lat="43.302196"><ele>359.75</ele></trkpt>
<trkpt lon="-2.598853" lat="43.302272"><ele>357.75</ele></trkpt>
<trkpt lon="-2.598981" lat="43.302391"><ele>356.25</ele></trkpt>
<trkpt lon="-2.599089" lat="43.302545"><ele>354.25</ele></trkpt>
<trkpt lon="-2.599188" lat="43.302744"><ele>350.25</ele></trkpt>
<trkpt lon="-2.599247" lat="43.302894"><ele>348.0</ele></trkpt>
<trkpt lon="-2.599290" lat="43.303162"><ele>345.5</ele></trkpt>
<trkpt lon="-2.599317" lat="43.303232"><ele>344.25</ele></trkpt>
<trkpt lon="-2.599354" lat="43.303298"><ele>342.5</ele></trkpt>
<trkpt lon="-2.599602" lat="43.303581"><ele>337.5</ele></trkpt>
<trkpt lon="-2.599791" lat="43.303825"><ele>333.5</ele></trkpt>
<trkpt lon="-2.599877" lat="43.304000"><ele>332.75</ele></trkpt>
<trkpt lon="-2.600048" lat="43.304131"><ele>331.5</ele></trkpt>
<trkpt lon="-2.600521" lat="43.304393"><ele>329.0</ele></trkpt>
<trkpt lon="-2.600898" lat="43.304512"><ele>326.5</ele></trkpt>
<trkpt lon="-2.601731" lat="43.304649"><ele>321.5</ele></trkpt>
<trkpt lon="-2.602821" lat="43.304862"><ele>318.5</ele></trkpt>
<trkpt lon="-2.603156" lat="43.304987"><ele>311.75</ele></trkpt>
<trkpt lon="-2.603250" lat="43.305105"><ele>310.5</ele></trkpt>
<trkpt lon="-2.603387" lat="43.305624"><ele>314.25</ele></trkpt>
<trkpt lon="-2.603593" lat="43.305724"><ele>314.0</ele></trkpt>
<trkpt lon="-2.603713" lat="43.305917"><ele>316.0</ele></trkpt>
<trkpt lon="-2.603723" lat="43.306047"><ele>318.25</ele></trkpt>
<trkpt lon="-2.603801" lat="43.306121"><ele>319.25</ele></trkpt>
<trkpt lon="-2.603860" lat="43.306133"><ele>319.25</ele></trkpt>
<trkpt lon="-2.603914" lat="43.306119"><ele>319.5</ele></trkpt>
<trkpt lon="-2.603985" lat="43.306077"><ele>321.25</ele></trkpt>
<trkpt lon="-2.604045" lat="43.306000"><ele>320.75</ele></trkpt>
<trkpt lon="-2.604187" lat="43.305923"><ele>321.75</ele></trkpt>
<trkpt lon="-2.604465" lat="43.305858"><ele>324.25</ele></trkpt>
<trkpt lon="-2.604515" lat="43.305769"><ele>325.75</ele></trkpt>
<trkpt lon="-2.604537" lat="43.305523"><ele>327.25</ele></trkpt>
<trkpt lon="-2.604693" lat="43.305333"><ele>330.0</ele></trkpt>
<trkpt lon="-2.604863" lat="43.305206"><ele>333.25</ele></trkpt>
<trkpt lon="-2.605032" lat="43.305056"><ele>336.0</ele></trkpt>
<trkpt lon="-2.605285" lat="43.304847"><ele>342.25</ele></trkpt>
<trkpt lon="-2.605430" lat="43.304613"><ele>342.75</ele></trkpt>
<trkpt lon="-2.605561" lat="43.304467"><ele>344.75</ele></trkpt>
<trkpt lon="-2.605903" lat="43.304318"><ele>343.75</ele></trkpt>
<trkpt lon="-2.606057" lat="43.304263"><ele>343.75</ele></trkpt>
<trkpt lon="-2.606246" lat="43.304081"><ele>343.25</ele></trkpt>
<trkpt lon="-2.606459" lat="43.303942"><ele>342.75</ele></trkpt>
<trkpt lon="-2.606685" lat="43.303829"><ele>339.0</ele></trkpt>
<trkpt lon="-2.607234" lat="43.303736"><ele>333.5</ele></trkpt>
<trkpt lon="-2.607450" lat="43.303667"><ele>333.0</ele></trkpt>
<trkpt lon="-2.607629" lat="43.303523"><ele>334.5</ele></trkpt>
<trkpt lon="-2.607764" lat="43.303225"><ele>336.25</ele></trkpt>
<trkpt lon="-2.607895" lat="43.302786"><ele>340.5</ele></trkpt>
<trkpt lon="-2.607983" lat="43.302544"><ele>343.75</ele></trkpt>
<trkpt lon="-2.608122" lat="43.302389"><ele>345.75</ele></trkpt>
<trkpt lon="-2.608383" lat="43.302295"><ele>348.0</ele></trkpt>
<trkpt lon="-2.608706" lat="43.302273"><ele>347.75</ele></trkpt>
<trkpt lon="-2.609091" lat="43.302295"><ele>345.25</ele></trkpt>
<trkpt lon="-2.609476" lat="43.302337"><ele>345.75</ele></trkpt>
<trkpt lon="-2.610057" lat="43.302347"><ele>345.5</ele></trkpt>
<trkpt lon="-2.610425" lat="43.302256"><ele>347.25</ele></trkpt>
<trkpt lon="-2.610785" lat="43.302079"><ele>349.25</ele></trkpt>
<trkpt lon="-2.611108" lat="43.301793"><ele>353.0</ele></trkpt>
<trkpt lon="-2.611644" lat="43.301141"><ele>361.25</ele></trkpt>
<trkpt lon="-2.611752" lat="43.301035"><ele>362.75</ele></trkpt>
<trkpt lon="-2.611959" lat="43.300936"><ele>365.25</ele></trkpt>
<trkpt lon="-2.612719" lat="43.300966"><ele>359.75</ele></trkpt>
<trkpt lon="-2.613123" lat="43.300997"><ele>358.25</ele></trkpt>
<trkpt lon="-2.613391" lat="43.300835"><ele>356.0</ele></trkpt>
<trkpt lon="-2.613550" lat="43.300750"><ele>352.75</ele></trkpt>
<trkpt lon="-2.613737" lat="43.300589"><ele>352.0</ele></trkpt>
<trkpt lon="-2.613964" lat="43.300424"><ele>349.25</ele></trkpt>
<trkpt lon="-2.614112" lat="43.300306"><ele>349.75</ele></trkpt>
<trkpt lon="-2.614325" lat="43.300156"><ele>349.25</ele></trkpt>
<trkpt lon="-2.614555" lat="43.299966"><ele>350.25</ele></trkpt>
<trkpt lon="-2.614712" lat="43.299851"><ele>348.25</ele></trkpt>
<trkpt lon="-2.614833" lat="43.299781"><ele>347.25</ele></trkpt>
<trkpt lon="-2.614984" lat="43.299731"><ele>346.75</ele></trkpt>
<trkpt lon="-2.615383" lat="43.299503"><ele>343.0</ele></trkpt>
<trkpt lon="-2.615599" lat="43.299353"><ele>343.25</ele></trkpt>
<trkpt lon="-2.615809" lat="43.299186"><ele>344.5</ele></trkpt>
<trkpt lon="-2.615922" lat="43.299086"><ele>343.25</ele></trkpt>
<trkpt lon="-2.616034" lat="43.299012"><ele>342.5</ele></trkpt>
<trkpt lon="-2.616185" lat="43.298961"><ele>341.5</ele></trkpt>
<trkpt lon="-2.616345" lat="43.298923"><ele>340.0</ele></trkpt>
<trkpt lon="-2.616506" lat="43.298893"><ele>339.0</ele></trkpt>
<trkpt lon="-2.616700" lat="43.298832"><ele>336.0</ele></trkpt>
<trkpt lon="-2.616925" lat="43.298709"><ele>332.25</ele></trkpt>
<trkpt lon="-2.617209" lat="43.298591"><ele>329.0</ele></trkpt>
<trkpt lon="-2.617350" lat="43.298544"><ele>326.75</ele></trkpt>
<trkpt lon="-2.617585" lat="43.298507"><ele>325.5</ele></trkpt>
<trkpt lon="-2.617797" lat="43.298493"><ele>324.75</ele></trkpt>
<trkpt lon="-2.618060" lat="43.298446"><ele>322.75</ele></trkpt>
<trkpt lon="-2.618602" lat="43.298319"><ele>318.75</ele></trkpt>
<trkpt lon="-2.618850" lat="43.298277"><ele>316.25</ele></trkpt>
<trkpt lon="-2.619159" lat="43.298251"><ele>313.0</ele></trkpt>
<trkpt lon="-2.619365" lat="43.298244"><ele>311.5</ele></trkpt>
<trkpt lon="-2.619635" lat="43.298242"><ele>309.75</ele></trkpt>
<trkpt lon="-2.619694" lat="43.298250"><ele>309.5</ele></trkpt>
<trkpt lon="-2.620187" lat="43.298263"><ele>306.75</ele></trkpt>
<trkpt lon="-2.620418" lat="43.298240"><ele>305.75</ele></trkpt>
<trkpt lon="-2.620574" lat="43.298236"><ele>305.25</ele></trkpt>
<trkpt lon="-2.620877" lat="43.298228"><ele>304.0</ele></trkpt>
<trkpt lon="-2.621030" lat="43.298217"><ele>303.5</ele></trkpt>
<trkpt lon="-2.621220" lat="43.298180"><ele>303.0</ele></trkpt>
<trkpt lon="-2.621689" lat="43.298179"><ele>300.75</ele></trkpt>
<trkpt lon="-2.621998" lat="43.298169"><ele>300.25</ele></trkpt>
<trkpt lon="-2.622202" lat="43.298156"><ele>299.5</ele></trkpt>
<trkpt lon="-2.622287" lat="43.298159"><ele>299.25</ele></trkpt>
<trkpt lon="-2.622398" lat="43.298150"><ele>299.0</ele></trkpt>
<trkpt lon="-2.622531" lat="43.298161"><ele>298.5</ele></trkpt>
<trkpt lon="-2.622936" lat="43.298165"><ele>296.25</ele></trkpt>
<trkpt lon="-2.623205" lat="43.298207"><ele>294.0</ele></trkpt>
<trkpt lon="-2.623522" lat="43.298238"><ele>290.75</ele></trkpt>
<trkpt lon="-2.623671" lat="43.298247"><ele>289.0</ele></trkpt>
<trkpt lon="-2.624091" lat="43.298324"><ele>282.25</ele></trkpt>
<trkpt lon="-2.624363" lat="43.298405"><ele>277.25</ele></trkpt>
<trkpt lon="-2.624536" lat="43.298442"><ele>274.5</ele></trkpt>
<trkpt lon="-2.624928" lat="43.298551"><ele>269.0</ele></trkpt>
<trkpt lon="-2.625149" lat="43.298633"><ele>266.75</ele></trkpt>
<trkpt lon="-2.625302" lat="43.298722"><ele>265.25</ele></trkpt>
<trkpt lon="-2.625483" lat="43.298884"><ele>264.5</ele></trkpt>
<trkpt lon="-2.625612" lat="43.299017"><ele>261.5</ele></trkpt>
<trkpt lon="-2.625894" lat="43.299115"><ele>258.75</ele></trkpt>
<trkpt lon="-2.626233" lat="43.299170"><ele>257.75</ele></trkpt>
<trkpt lon="-2.626298" lat="43.299192"><ele>257.5</ele></trkpt>
<trkpt lon="-2.626371" lat="43.299275"><ele>257.0</ele></trkpt>
<trkpt lon="-2.626440" lat="43.299360"><ele>255.75</ele></trkpt>
<trkpt lon="-2.626512" lat="43.299519"><ele>254.0</ele></trkpt>
<trkpt lon="-2.626590" lat="43.299641"><ele>252.0</ele></trkpt>
<trkpt lon="-2.626643" lat="43.299752"><ele>250.25</ele></trkpt>
<trkpt lon="-2.626738" lat="43.300152"><ele>242.5</ele></trkpt>
<trkpt lon="-2.626773" lat="43.300368"><ele>238.5</ele></trkpt>
<trkpt lon="-2.626753" lat="43.300549"><ele>235.75</ele></trkpt>
<trkpt lon="-2.626755" lat="43.300617"><ele>234.0</ele></trkpt>
<trkpt lon="-2.626797" lat="43.300704"><ele>232.0</ele></trkpt>
<trkpt lon="-2.626858" lat="43.300782"><ele>230.0</ele></trkpt>
<trkpt lon="-2.627001" lat="43.300842"><ele>228.0</ele></trkpt>
<trkpt lon="-2.627175" lat="43.300846"><ele>225.25</ele></trkpt>
<trkpt lon="-2.627208" lat="43.300816"><ele>225.25</ele></trkpt>
<trkpt lon="-2.627583" lat="43.300568"><ele>219.25</ele></trkpt>
<trkpt lon="-2.627781" lat="43.300406"><ele>217.0</ele></trkpt>
<trkpt lon="-2.627962" lat="43.300295"><ele>213.5</ele></trkpt>
<trkpt lon="-2.628238" lat="43.300172"><ele>208.5</ele></trkpt>
<trkpt lon="-2.628496" lat="43.300069"><ele>204.5</ele></trkpt>
<trkpt lon="-2.628713" lat="43.300001"><ele>201.75</ele></trkpt>
<trkpt lon="-2.629047" lat="43.300032"><ele>198.0</ele></trkpt>
<trkpt lon="-2.629373" lat="43.300115"><ele>194.25</ele></trkpt>
<trkpt lon="-2.629833" lat="43.300177"><ele>190.75</ele></trkpt>
<trkpt lon="-2.630137" lat="43.300249"><ele>190.0</ele></trkpt>
<trkpt lon="-2.631347" lat="43.300614"><ele>186.0</ele></trkpt>
<trkpt lon="-2.631638" lat="43.300771"><ele>183.0</ele></trkpt>
<trkpt lon="-2.631833" lat="43.301021"><ele>180.25</ele></trkpt>
<trkpt lon="-2.632043" lat="43.301231"><ele>177.25</ele></trkpt>
<trkpt lon="-2.632324" lat="43.301429"><ele>175.0</ele></trkpt>
<trkpt lon="-2.632555" lat="43.301668"><ele>176.75</ele></trkpt>
<trkpt lon="-2.632837" lat="43.301918"><ele>177.25</ele></trkpt>
<trkpt lon="-2.632995" lat="43.302091"><ele>176.25</ele></trkpt>
<trkpt lon="-2.633102" lat="43.302188"><ele>175.75</ele></trkpt>
<trkpt lon="-2.633266" lat="43.302336"><ele>175.0</ele></trkpt>
<trkpt lon="-2.633568" lat="43.302663"><ele>170.5</ele></trkpt>
<trkpt lon="-2.633631" lat="43.302812"><ele>168.0</ele></trkpt>
<trkpt lon="-2.633659" lat="43.302968"><ele>165.0</ele></trkpt>
<trkpt lon="-2.633676" lat="43.303204"><ele>160.5</ele></trkpt>
<trkpt lon="-2.633755" lat="43.303255"><ele>159.0</ele></trkpt>
<trkpt lon="-2.633900" lat="43.303486"><ele>153.0</ele></trkpt>
<trkpt lon="-2.634054" lat="43.303690"><ele>147.0</ele></trkpt>
<trkpt lon="-2.634189" lat="43.303805"><ele>143.5</ele></trkpt>
<trkpt lon="-2.634677" lat="43.304157"><ele>130.75</ele></trkpt>
<trkpt lon="-2.634724" lat="43.304178"><ele>129.75</ele></trkpt>
<trkpt lon="-2.634721" lat="43.304221"><ele>129.25</ele></trkpt>
<trkpt lon="-2.634921" lat="43.304295"><ele>124.75</ele></trkpt>
<trkpt lon="-2.635042" lat="43.304353"><ele>122.5</ele></trkpt>
<trkpt lon="-2.635110" lat="43.304400"><ele>121.5</ele></trkpt>
<trkpt lon="-2.635171" lat="43.304430"><ele>120.5</ele></trkpt>
<trkpt lon="-2.635318" lat="43.304474"><ele>117.75</ele></trkpt>
<trkpt lon="-2.635554" lat="43.304504"><ele>114.0</ele></trkpt>
<trkpt lon="-2.635760" lat="43.304564"><ele>110.0</ele></trkpt>
<trkpt lon="-2.635945" lat="43.304602"><ele>107.0</ele></trkpt>
<trkpt lon="-2.636219" lat="43.304642"><ele>103.0</ele></trkpt>
<trkpt lon="-2.636449" lat="43.304661"><ele>99.75</ele></trkpt>
<trkpt lon="-2.636715" lat="43.304659"><ele>95.25</ele></trkpt>
<trkpt lon="-2.636865" lat="43.304676"><ele>93.75</ele></trkpt>
<trkpt lon="-2.636921" lat="43.304691"><ele>93.25</ele></trkpt>
<trkpt lon="-2.637060" lat="43.304747"><ele>92.0</ele></trkpt>
<trkpt lon="-2.637151" lat="43.304767"><ele>90.5</ele></trkpt>
<trkpt lon="-2.637342" lat="43.304774"><ele>88.25</ele></trkpt>
<trkpt lon="-2.637410" lat="43.304791"><ele>87.5</ele></trkpt>
<trkpt lon="-2.637601" lat="43.304875"><ele>84.5</ele></trkpt>
<trkpt lon="-2.637657" lat="43.304890"><ele>83.75</ele></trkpt>
<trkpt lon="-2.637716" lat="43.304891"><ele>83.0</ele></trkpt>
<trkpt lon="-2.637991" lat="43.304812"><ele>79.5</ele></trkpt>
<trkpt lon="-2.638064" lat="43.304800"><ele>78.25</ele></trkpt>
<trkpt lon="-2.638230" lat="43.304790"><ele>75.5</ele></trkpt>
<trkpt lon="-2.638276" lat="43.304803"><ele>74.75</ele></trkpt>
<trkpt lon="-2.638477" lat="43.304926"><ele>72.25</ele></trkpt>
<trkpt lon="-2.638570" lat="43.304985"><ele>71.25</ele></trkpt>
<trkpt lon="-2.638762" lat="43.305080"><ele>68.0</ele></trkpt>
<trkpt lon="-2.638895" lat="43.305136"><ele>66.5</ele></trkpt>
<trkpt lon="-2.638945" lat="43.305176"><ele>65.75</ele></trkpt>
<trkpt lon="-2.639155" lat="43.305541"><ele>60.0</ele></trkpt>
<trkpt lon="-2.639200" lat="43.305603"><ele>58.25</ele></trkpt>
<trkpt lon="-2.639249" lat="43.305642"><ele>57.5</ele></trkpt>
<trkpt lon="-2.639305" lat="43.305675"><ele>57.25</ele></trkpt>
<trkpt lon="-2.639326" lat="43.305688"><ele>57.25</ele></trkpt>
<trkpt lon="-2.639461" lat="43.305739"><ele>57.75</ele></trkpt>
<trkpt lon="-2.639563" lat="43.305755"><ele>55.75</ele></trkpt>
<trkpt lon="-2.639675" lat="43.305747"><ele>54.25</ele></trkpt>
<trkpt lon="-2.639788" lat="43.305709"><ele>54.25</ele></trkpt>
<trkpt lon="-2.639906" lat="43.305650"><ele>53.75</ele></trkpt>
<trkpt lon="-2.640027" lat="43.305575"><ele>52.0</ele></trkpt>
<trkpt lon="-2.640157" lat="43.305481"><ele>49.75</ele></trkpt>
<trkpt lon="-2.640230" lat="43.305455"><ele>47.75</ele></trkpt>
<trkpt lon="-2.640258" lat="43.305453"><ele>46.75</ele></trkpt>
<trkpt lon="-2.640289" lat="43.305463"><ele>46.25</ele></trkpt>
<trkpt lon="-2.640445" lat="43.305546"><ele>44.75</ele></trkpt>
<trkpt lon="-2.640442" lat="43.305529"><ele>44.75</ele></trkpt>
<trkpt lon="-2.640512" lat="43.305525"><ele>44.25</ele></trkpt>
<trkpt lon="-2.640575" lat="43.305524"><ele>44.0</ele></trkpt>
<trkpt lon="-2.640590" lat="43.305303"><ele>44.5</ele></trkpt>
<trkpt lon="-2.640770" lat="43.305288"><ele>43.25</ele></trkpt>
<trkpt lon="-2.640913" lat="43.305221"><ele>42.75</ele></trkpt>
<trkpt lon="-2.641028" lat="43.305209"><ele>42.0</ele></trkpt>
<trkpt lon="-2.641185" lat="43.305178"><ele>41.25</ele></trkpt>
<trkpt lon="-2.641372" lat="43.305130"><ele>41.0</ele></trkpt>
<trkpt lon="-2.641571" lat="43.305028"><ele>40.25</ele></trkpt>
<trkpt lon="-2.641765" lat="43.304811"><ele>37.0</ele></trkpt>
<trkpt lon="-2.641796" lat="43.304789"><ele>36.5</ele></trkpt>
<trkpt lon="-2.641844" lat="43.304790"><ele>36.0</ele></trkpt>
<trkpt lon="-2.642086" lat="43.304881"><ele>34.5</ele></trkpt>
<trkpt lon="-2.642114" lat="43.305014"><ele>34.5</ele></trkpt>
<trkpt lon="-2.642167" lat="43.305137"><ele>34.75</ele></trkpt>
<trkpt lon="-2.642369" lat="43.305345"><ele>34.5</ele></trkpt>
<trkpt lon="-2.642680" lat="43.305623"><ele>33.75</ele></trkpt>
<trkpt lon="-2.642915" lat="43.305736"><ele>33.5</ele></trkpt>
<trkpt lon="-2.643223" lat="43.305874"><ele>34.0</ele></trkpt>
<trkpt lon="-2.643462" lat="43.306012"><ele>34.0</ele></trkpt>
<trkpt lon="-2.643583" lat="43.306104"><ele>33.75</ele></trkpt>
<trkpt lon="-2.643641" lat="43.306214"><ele>33.25</ele></trkpt>
<trkpt lon="-2.643696" lat="43.306284"><ele>33.0</ele></trkpt>
<trkpt lon="-2.644070" lat="43.306571"><ele>32.75</ele></trkpt>
<trkpt lon="-2.644286" lat="43.306800"><ele>32.75</ele></trkpt>
<trkpt lon="-2.644476" lat="43.307024"><ele>32.75</ele></trkpt>
<trkpt lon="-2.644596" lat="43.307185"><ele>32.75</ele></trkpt>
<trkpt lon="-2.645201" lat="43.307612"><ele>32.75</ele></trkpt>
<trkpt lon="-2.645399" lat="43.307739"><ele>35.0</ele></trkpt>
<trkpt lon="-2.645827" lat="43.308254"><ele>34.0</ele></trkpt>
<trkpt lon="-2.645889" lat="43.308386"><ele>34.5</ele></trkpt>
<trkpt lon="-2.645872" lat="43.308706"><ele>31.75</ele></trkpt>
<trkpt lon="-2.645912" lat="43.308819"><ele>32.5</ele></trkpt>
<trkpt lon="-2.645996" lat="43.308921"><ele>33.75</ele></trkpt>
<trkpt lon="-2.646161" lat="43.309091"><ele>36.5</ele></trkpt>
<trkpt lon="-2.646523" lat="43.309493"><ele>45.75</ele></trkpt>
<trkpt lon="-2.646978" lat="43.309860"><ele>51.0</ele></trkpt>
<trkpt lon="-2.647505" lat="43.310297"><ele>58.25</ele></trkpt>
<trkpt lon="-2.647714" lat="43.310440"><ele>62.25</ele></trkpt>
<trkpt lon="-2.648181" lat="43.310659"><ele>68.75</ele></trkpt>
<trkpt lon="-2.648607" lat="43.310814"><ele>73.0</ele></trkpt>
<trkpt lon="-2.649074" lat="43.310925"><ele>72.75</ele></trkpt>
<trkpt lon="-2.649350" lat="43.310953"><ele>73.5</ele></trkpt>
<trkpt lon="-2.649504" lat="43.310962"><ele>75.0</ele></trkpt>
<trkpt lon="-2.649574" lat="43.311018"><ele>73.25</ele></trkpt>
<trkpt lon="-2.649954" lat="43.311509"><ele>75.75</ele></trkpt>
<trkpt lon="-2.650137" lat="43.311703"><ele>76.75</ele></trkpt>
<trkpt lon="-2.650357" lat="43.311792"><ele>79.0</ele></trkpt>
<trkpt lon="-2.650530" lat="43.311804"><ele>79.25</ele></trkpt>
<trkpt lon="-2.650733" lat="43.311753"><ele>80.75</ele></trkpt>
<trkpt lon="-2.650998" lat="43.311711"><ele>81.75</ele></trkpt>
<trkpt lon="-2.651098" lat="43.311752"><ele>81.25</ele></trkpt>
<trkpt lon="-2.651134" lat="43.311811"><ele>81.75</ele></trkpt>
<trkpt lon="-2.651161" lat="43.312212"><ele>85.25</ele></trkpt>
<trkpt lon="-2.651186" lat="43.312354"><ele>85.75</ele></trkpt>
<trkpt lon="-2.651310" lat="43.312532"><ele>88.75</ele></trkpt>
<trkpt lon="-2.651534" lat="43.312643"><ele>92.75</ele></trkpt>
<trkpt lon="-2.651865" lat="43.312749"><ele>94.75</ele></trkpt>
<trkpt lon="-2.652329" lat="43.312825"><ele>94.75</ele></trkpt>
<trkpt lon="-2.652608" lat="43.312834"><ele>96.75</ele></trkpt>
<trkpt lon="-2.652874" lat="43.312776"><ele>102.25</ele></trkpt>
<trkpt lon="-2.653537" lat="43.312703"><ele>108.0</ele></trkpt>
<trkpt lon="-2.653990" lat="43.312629"><ele>112.5</ele></trkpt>
<trkpt lon="-2.654163" lat="43.312632"><ele>114.25</ele></trkpt>
<trkpt lon="-2.654307" lat="43.312673"><ele>114.0</ele></trkpt>
<trkpt lon="-2.654498" lat="43.312652"><ele>117.5</ele></trkpt>
<trkpt lon="-2.654841" lat="43.312596"><ele>122.75</ele></trkpt>
<trkpt lon="-2.655036" lat="43.312533"><ele>126.75</ele></trkpt>
<trkpt lon="-2.655139" lat="43.312544"><ele>129.0</ele></trkpt>
<trkpt lon="-2.655194" lat="43.312589"><ele>129.5</ele></trkpt>
<trkpt lon="-2.655362" lat="43.312929"><ele>132.25</ele></trkpt>
<trkpt lon="-2.655398" lat="43.312964"><ele>133.5</ele></trkpt>
<trkpt lon="-2.655446" lat="43.312942"><ele>135.5</ele></trkpt>
<trkpt lon="-2.655626" lat="43.312619"><ele>140.75</ele></trkpt>
<trkpt lon="-2.655610" lat="43.312573"><ele>140.75</ele></trkpt>
<trkpt lon="-2.655654" lat="43.312353"><ele>142.5</ele></trkpt>
<trkpt lon="-2.655711" lat="43.312333"><ele>142.25</ele></trkpt>
<trkpt lon="-2.655799" lat="43.312239"><ele>141.5</ele></trkpt>
<trkpt lon="-2.655898" lat="43.312081"><ele>140.0</ele></trkpt>
<trkpt lon="-2.655911" lat="43.311938"><ele>140.5</ele></trkpt>
<trkpt lon="-2.656131" lat="43.311764"><ele>137.25</ele></trkpt>
<trkpt lon="-2.656408" lat="43.311579"><ele>135.0</ele></trkpt>
<trkpt lon="-2.656953" lat="43.311398"><ele>130.5</ele></trkpt>
<trkpt lon="-2.657417" lat="43.311221"><ele>123.25</ele></trkpt>
<trkpt lon="-2.657587" lat="43.311189"><ele>120.25</ele></trkpt>
<trkpt lon="-2.657757" lat="43.311082"><ele>118.5</ele></trkpt>
<trkpt lon="-2.658140" lat="43.310908"><ele>116.0</ele></trkpt>
<trkpt lon="-2.658403" lat="43.310834"><ele>114.5</ele></trkpt>
<trkpt lon="-2.658677" lat="43.310845"><ele>113.5</ele></trkpt>
<trkpt lon="-2.659126" lat="43.310944"><ele>109.75</ele></trkpt>
<trkpt lon="-2.659441" lat="43.310978"><ele>108.75</ele></trkpt>
<trkpt lon="-2.659666" lat="43.310942"><ele>107.75</ele></trkpt>
<trkpt lon="-2.659815" lat="43.310895"><ele>105.75</ele></trkpt>
<trkpt lon="-2.660020" lat="43.310580"><ele>99.5</ele></trkpt>
<trkpt lon="-2.660221" lat="43.310147"><ele>91.25</ele></trkpt>
<trkpt lon="-2.660309" lat="43.310076"><ele>88.0</ele></trkpt>
<trkpt lon="-2.660496" lat="43.310056"><ele>84.25</ele></trkpt>
<trkpt lon="-2.660591" lat="43.309949"><ele>82.75</ele></trkpt>
<trkpt lon="-2.660697" lat="43.309802"><ele>80.75</ele></trkpt>
<trkpt lon="-2.660779" lat="43.309726"><ele>78.25</ele></trkpt>
<trkpt lon="-2.660770" lat="43.309693"><ele>78.0</ele></trkpt>
<trkpt lon="-2.660964" lat="43.309425"><ele>71.0</ele></trkpt>
<trkpt lon="-2.661000" lat="43.309357"><ele>69.75</ele></trkpt>
<trkpt lon="-2.661223" lat="43.309372"><ele>68.5</ele></trkpt>
<trkpt lon="-2.661384" lat="43.309407"><ele>68.25</ele></trkpt>
<trkpt lon="-2.661455" lat="43.309440"><ele>68.5</ele></trkpt>
<trkpt lon="-2.661547" lat="43.309497"><ele>68.5</ele></trkpt>
<trkpt lon="-2.661607" lat="43.309455"><ele>68.0</ele></trkpt>
<trkpt lon="-2.661627" lat="43.309442"><ele>68.0</ele></trkpt>
<trkpt lon="-2.661706" lat="43.309391"><ele>66.75</ele></trkpt>
<trkpt lon="-2.661791" lat="43.309342"><ele>65.75</ele></trkpt>
<trkpt lon="-2.661823" lat="43.309317"><ele>65.25</ele></trkpt>
<trkpt lon="-2.661918" lat="43.309355"><ele>65.0</ele></trkpt>
<trkpt lon="-2.661950" lat="43.309421"><ele>65.5</ele></trkpt>
<trkpt lon="-2.662216" lat="43.309404"><ele>64.25</ele></trkpt>
<trkpt lon="-2.662354" lat="43.309514"><ele>63.25</ele></trkpt>
<trkpt lon="-2.662478" lat="43.309633"><ele>63.0</ele></trkpt>
<trkpt lon="-2.662601" lat="43.309738"><ele>61.5</ele></trkpt>
<trkpt lon="-2.662649" lat="43.309800"><ele>60.25</ele></trkpt>
<trkpt lon="-2.662664" lat="43.309871"><ele>59.5</ele></trkpt>
<trkpt lon="-2.662681" lat="43.310071"><ele>58.5</ele></trkpt>
<trkpt lon="-2.662931" lat="43.310250"><ele>54.0</ele></trkpt>
<trkpt lon="-2.662945" lat="43.310486"><ele>49.25</ele></trkpt>
<trkpt lon="-2.662986" lat="43.310626"><ele>44.75</ele></trkpt>
<trkpt lon="-2.663014" lat="43.310683"><ele>42.5</ele></trkpt>
<trkpt lon="-2.663012" lat="43.310719"><ele>41.25</ele></trkpt>
<trkpt lon="-2.662958" lat="43.310841"><ele>37.25</ele></trkpt>
<trkpt lon="-2.662832" lat="43.310962"><ele>34.75</ele></trkpt>
<trkpt lon="-2.662803" lat="43.311056"><ele>32.25</ele></trkpt>
<trkpt lon="-2.662805" lat="43.311097"><ele>31.25</ele></trkpt>
<trkpt lon="-2.662840" lat="43.311151"><ele>30.5</ele></trkpt>
<trkpt lon="-2.663031" lat="43.311530"><ele>24.75</ele></trkpt>
<trkpt lon="-2.663122" lat="43.311660"><ele>22.5</ele></trkpt>
<trkpt lon="-2.663234" lat="43.311777"><ele>23.0</ele></trkpt>
<trkpt lon="-2.663290" lat="43.311820"><ele>23.25</ele></trkpt>
<trkpt lon="-2.663365" lat="43.311849"><ele>23.25</ele></trkpt>
<trkpt lon="-2.663518" lat="43.311921"><ele>23.25</ele></trkpt>
<trkpt lon="-2.663720" lat="43.311973"><ele>23.75</ele></trkpt>
<trkpt lon="-2.664017" lat="43.312067"><ele>26.75</ele></trkpt>
<trkpt lon="-2.664099" lat="43.312099"><ele>27.75</ele></trkpt>
<trkpt lon="-2.664153" lat="43.312135"><ele>28.75</ele></trkpt>
<trkpt lon="-2.664239" lat="43.312175"><ele>29.5</ele></trkpt>
<trkpt lon="-2.664542" lat="43.312286"><ele>31.5</ele></trkpt>
<trkpt lon="-2.665052" lat="43.312466"><ele>34.25</ele></trkpt>
<trkpt lon="-2.665092" lat="43.312490"><ele>34.75</ele></trkpt>
<trkpt lon="-2.665190" lat="43.312518"><ele>35.0</ele></trkpt>
<trkpt lon="-2.665420" lat="43.312546"><ele>34.5</ele></trkpt>
<trkpt lon="-2.665783" lat="43.312606"><ele>33.5</ele></trkpt>
<trkpt lon="-2.665869" lat="43.312635"><ele>33.25</ele></trkpt>
<trkpt lon="-2.665953" lat="43.312673"><ele>32.75</ele></trkpt>
<trkpt lon="-2.666027" lat="43.312734"><ele>31.75</ele></trkpt>
<trkpt lon="-2.666088" lat="43.312822"><ele>30.5</ele></trkpt>
<trkpt lon="-2.666162" lat="43.312938"><ele>29.0</ele></trkpt>
<trkpt lon="-2.666288" lat="43.313074"><ele>27.0</ele></trkpt>
<trkpt lon="-2.666374" lat="43.313247"><ele>25.0</ele></trkpt>
<trkpt lon="-2.666436" lat="43.313353"><ele>23.5</ele></trkpt>
<trkpt lon="-2.666505" lat="43.313427"><ele>22.5</ele></trkpt>
<trkpt lon="-2.666731" lat="43.313524"><ele>20.5</ele></trkpt>
<trkpt lon="-2.667085" lat="43.313699"><ele>18.75</ele></trkpt>
<trkpt lon="-2.667182" lat="43.313775"><ele>17.5</ele></trkpt>
<trkpt lon="-2.667370" lat="43.313893"><ele>15.25</ele></trkpt>
<trkpt lon="-2.667578" lat="43.313981"><ele>14.5</ele></trkpt>
<trkpt lon="-2.667707" lat="43.314018"><ele>14.0</ele></trkpt>
<trkpt lon="-2.667868" lat="43.314052"><ele>14.0</ele></trkpt>
<trkpt lon="-2.668016" lat="43.314099"><ele>14.25</ele></trkpt>
<trkpt lon="-2.668194" lat="43.314178"><ele>13.5</ele></trkpt>
<trkpt lon="-2.668315" lat="43.314250"><ele>13.75</ele></trkpt>
<trkpt lon="-2.668395" lat="43.314332"><ele>15.5</ele></trkpt>
<trkpt lon="-2.668443" lat="43.314420"><ele>17.0</ele></trkpt>
<trkpt lon="-2.668539" lat="43.314622"><ele>19.5</ele></trkpt>
<trkpt lon="-2.668590" lat="43.314756"><ele>20.0</ele></trkpt>
<trkpt lon="-2.668651" lat="43.314739"><ele>19.5</ele></trkpt>
<trkpt lon="-2.668793" lat="43.314721"><ele>18.0</ele></trkpt>
<trkpt lon="-2.668944" lat="43.314674"><ele>16.25</ele></trkpt>
<trkpt lon="-2.669090" lat="43.314594"><ele>14.25</ele></trkpt>
<trkpt lon="-2.669204" lat="43.314502"><ele>12.75</ele></trkpt>
<trkpt lon="-2.669301" lat="43.314348"><ele>11.25</ele></trkpt>
<trkpt lon="-2.669342" lat="43.314278"><ele>10.5</ele></trkpt>
<trkpt lon="-2.669398" lat="43.314244"><ele>9.75</ele></trkpt>
<trkpt lon="-2.669683" lat="43.314207"><ele>8.0</ele></trkpt>
<trkpt lon="-2.670077" lat="43.314144"><ele>5.75</ele></trkpt>
<trkpt lon="-2.670334" lat="43.314093"><ele>5.5</ele></trkpt>
<trkpt lon="-2.670589" lat="43.314057"><ele>4.75</ele></trkpt>
<trkpt lon="-2.670896" lat="43.313975"><ele>4.0</ele></trkpt>
<trkpt lon="-2.671140" lat="43.313919"><ele>3.75</ele></trkpt>
<trkpt lon="-2.671250" lat="43.313937"><ele>3.0</ele></trkpt>
<trkpt lon="-2.671339" lat="43.313987"><ele>2.75</ele></trkpt>
<trkpt lon="-2.671406" lat="43.314053"><ele>3.0</ele></trkpt>
<trkpt lon="-2.671660" lat="43.314014"><ele>3.0</ele></trkpt>
<trkpt lon="-2.671741" lat="43.313977"><ele>3.75</ele></trkpt>
<trkpt lon="-2.671842" lat="43.313949"><ele>4.25</ele></trkpt>
<trkpt lon="-2.671963" lat="43.313948"><ele>5.0</ele></trkpt>
<trkpt lon="-2.672033" lat="43.313919"><ele>5.25</ele></trkpt>
<trkpt lon="-2.672066" lat="43.313884"><ele>5.25</ele></trkpt>
<trkpt lon="-2.672101" lat="43.313786"><ele>5.0</ele></trkpt>
<trkpt lon="-2.672197" lat="43.313811"><ele>5.25</ele></trkpt>
<trkpt lon="-2.673927" lat="43.313752"><ele>5.0</ele></trkpt>
<trkpt lon="-2.675820" lat="43.313639"><ele>5.0</ele></trkpt>
<trkpt lon="-2.675940" lat="43.313643"><ele>5.0</ele></trkpt>
<trkpt lon="-2.675967" lat="43.313644"><ele>5.0</ele></trkpt>
<trkpt lon="-2.676163" lat="43.313318"><ele>5.0</ele></trkpt>
<trkpt lon="-2.676196" lat="43.313264"><ele>5.0</ele></trkpt>
<trkpt lon="-2.676218" lat="43.313226"><ele>5.0</ele></trkpt>
<trkpt lon="-2.676265" lat="43.313244"><ele>5.0</ele></trkpt>
<trkpt lon="-2.676316" lat="43.313239"><ele>5.25</ele></trkpt>
<trkpt lon="-2.676355" lat="43.313214"><ele>5.25</ele></trkpt>
<trkpt lon="-2.676388" lat="43.313226"><ele>5.25</ele></trkpt>
<trkpt lon="-2.676503" lat="43.313288"><ele>5.0</ele></trkpt>
<trkpt lon="-2.676526" lat="43.313296"><ele>5.0</ele></trkpt>
<trkpt lon="-2.676565" lat="43.313307"><ele>5.0</ele></trkpt>
<trkpt lon="-2.676601" lat="43.313319"><ele>5.0</ele></trkpt>
<trkpt lon="-2.676812" lat="43.313374"><ele>5.25</ele></trkpt>
<trkpt lon="-2.676932" lat="43.313412"><ele>5.5</ele></trkpt>
<trkpt lon="-2.676913" lat="43.313473"><ele>5.25</ele></trkpt>
<trkpt lon="-2.676972" lat="43.313482"><ele>5.5</ele></trkpt>
<trkpt lon="-2.676998" lat="43.313406"><ele>5.75</ele></trkpt>
<trkpt lon="-2.677146" lat="43.313438"><ele>5.75</ele></trkpt>
<trkpt lon="-2.677404" lat="43.313476"><ele>6.0</ele></trkpt>
<trkpt lon="-2.677397" lat="43.313573"><ele>6.0</ele></trkpt>
<trkpt lon="-2.677442" lat="43.313771"><ele>6.0</ele></trkpt>
<trkpt lon="-2.677574" lat="43.313759"><ele>6.5</ele></trkpt>
<trkpt lon="-2.677634" lat="43.313756"><ele>6.75</ele></trkpt>
<trkpt lon="-2.677812" lat="43.313755"><ele>8.0</ele></trkpt>
<trkpt lon="-2.678071" lat="43.313754"><ele>9.0</ele></trkpt>
<trkpt lon="-2.678050" lat="43.313816"><ele>8.75</ele></trkpt>
<trkpt lon="-2.678107" lat="43.313825"><ele>9.25</ele></trkpt>
<trkpt lon="-2.678168" lat="43.313836"><ele>9.75</ele></trkpt>
<trkpt lon="-2.678298" lat="43.313476"><ele>10.75</ele></trkpt>
<trkpt lon="-2.678339" lat="43.313485"><ele>11.0</ele></trkpt>
<trkpt lon="-2.678383" lat="43.313491"><ele>11.75</ele></trkpt>
<trkpt lon="-2.678428" lat="43.313493"><ele>12.25</ele></trkpt>
<trkpt lon="-2.678488" lat="43.313495"><ele>13.25</ele></trkpt>
<trkpt lon="-2.678690" lat="43.313501"><ele>15.5</ele></trkpt>
<trkpt lon="-2.678684" lat="43.313554"><ele>14.75</ele></trkpt>
<trkpt lon="-2.678978" lat="43.313565"><ele>17.25</ele></trkpt>
<trkpt lon="-2.678979" lat="43.313571"><ele>17.25</ele></trkpt>
<trkpt lon="-2.679083" lat="43.313574"><ele>19.0</ele></trkpt>
<trkpt lon="-2.679076" lat="43.313500"><ele>20.0</ele></trkpt>
<trkpt lon="-2.679209" lat="43.313481"><ele>22.25</ele></trkpt>
<trkpt lon="-2.679199" lat="43.313434"><ele>22.75</ele></trkpt>
<trkpt lon="-2.679282" lat="43.313422"><ele>23.5</ele></trkpt>
<trkpt lon="-2.679333" lat="43.313415"><ele>23.75</ele></trkpt>
<trkpt lon="-2.679349" lat="43.313492"><ele>23.25</ele></trkpt>
<trkpt lon="-2.679343" lat="43.313555"><ele>22.75</ele></trkpt>
<trkpt lon="-2.679435" lat="43.313558"><ele>24.0</ele></trkpt>
<trkpt lon="-2.679651" lat="43.313565"><ele>25.5</ele></trkpt>
<trkpt lon="-2.679848" lat="43.313536"><ele>26.0</ele></trkpt>
<trkpt lon="-2.680058" lat="43.313479"><ele>26.25</ele></trkpt>
<trkpt lon="-2.680179" lat="43.313428"><ele>26.0</ele></trkpt>
<trkpt lon="-2.680215" lat="43.313366"><ele>26.0</ele></trkpt>
<trkpt lon="-2.680214" lat="43.313176"><ele>25.5</ele></trkpt>
<trkpt lon="-2.680201" lat="43.313109"><ele>25.25</ele></trkpt>
<trkpt lon="-2.680173" lat="43.313027"><ele>25.25</ele></trkpt>
<trkpt lon="-2.680102" lat="43.312949"><ele>25.0</ele></trkpt>
  </trkseg></trk></gpx>
