<?xml version="1.0" encoding="UTF-8"?>
<gpx version="1.1" creator="compostel-brouter" xmlns="http://www.topografix.com/GPX/1/1">
  <metadata><name>ES-07-Deba</name></metadata>
  <trk><name>ES-07-Deba</name><trkseg>
<trkpt lon="-2.170014" lat="43.283944"><ele>4.75</ele></trkpt>
<trkpt lon="-2.170770" lat="43.284042"><ele>4.75</ele></trkpt>
<trkpt lon="-2.170839" lat="43.284026"><ele>5.0</ele></trkpt>
<trkpt lon="-2.171148" lat="43.284020"><ele>4.75</ele></trkpt>
<trkpt lon="-2.171354" lat="43.284124"><ele>4.75</ele></trkpt>
<trkpt lon="-2.171332" lat="43.284135"><ele>4.75</ele></trkpt>
<trkpt lon="-2.171348" lat="43.284186"><ele>5.0</ele></trkpt>
<trkpt lon="-2.171358" lat="43.284190"><ele>5.0</ele></trkpt>
<trkpt lon="-2.171352" lat="43.284241"><ele>5.0</ele></trkpt>
<trkpt lon="-2.171350" lat="43.284257"><ele>5.0</ele></trkpt>
<trkpt lon="-2.171348" lat="43.284273"><ele>5.0</ele></trkpt>
<trkpt lon="-2.171343" lat="43.284320"><ele>5.0</ele></trkpt>
<trkpt lon="-2.171331" lat="43.284388"><ele>5.0</ele></trkpt>
<trkpt lon="-2.171422" lat="43.284396"><ele>5.0</ele></trkpt>
<trkpt lon="-2.171475" lat="43.284400"><ele>5.0</ele></trkpt>
<trkpt lon="-2.171480" lat="43.284416"><ele>5.0</ele></trkpt>
<trkpt lon="-2.171548" lat="43.284429"><ele>5.0</ele></trkpt>
<trkpt lon="-2.171612" lat="43.284455"><ele>5.0</ele></trkpt>
<trkpt lon="-2.171617" lat="43.284524"><ele>5.0</ele></trkpt>
<trkpt lon="-2.171604" lat="43.284578"><ele>5.0</ele></trkpt>
<trkpt lon="-2.171603" lat="43.284591"><ele>5.0</ele></trkpt>
<trkpt lon="-2.171673" lat="43.284605"><ele>5.0</ele></trkpt>
<trkpt lon="-2.171670" lat="43.284630"><ele>5.0</ele></trkpt>
<trkpt lon="-2.171667" lat="43.284667"><ele>5.0</ele></trkpt>
<trkpt lon="-2.171683" lat="43.284669"><ele>5.0</ele></trkpt>
<trkpt lon="-2.171925" lat="43.284700"><ele>5.0</ele></trkpt>
<trkpt lon="-2.172298" lat="43.284817"><ele>5.0</ele></trkpt>
<trkpt lon="-2.172590" lat="43.284914"><ele>5.25</ele></trkpt>
<trkpt lon="-2.172833" lat="43.285042"><ele>5.0</ele></trkpt>
<trkpt lon="-2.173445" lat="43.285371"><ele>5.25</ele></trkpt>
<trkpt lon="-2.173658" lat="43.285405"><ele>5.25</ele></trkpt>
<trkpt lon="-2.173719" lat="43.285428"><ele>5.25</ele></trkpt>
<trkpt lon="-2.173736" lat="43.285453"><ele>5.25</ele></trkpt>
<trkpt lon="-2.173735" lat="43.285484"><ele>5.25</ele></trkpt>
<trkpt lon="-2.173710" lat="43.285541"><ele>5.5</ele></trkpt>
<trkpt lon="-2.173741" lat="43.285545"><ele>5.5</ele></trkpt>
<trkpt lon="-2.173776" lat="43.285549"><ele>5.25</ele></trkpt>
<trkpt lon="-2.173776" lat="43.285570"><ele>5.25</ele></trkpt>
<trkpt lon="-2.173792" lat="43.285596"><ele>5.5</ele></trkpt>
<trkpt lon="-2.173827" lat="43.285608"><ele>5.5</ele></trkpt>
<trkpt lon="-2.174091" lat="43.285628"><ele>5.25</ele></trkpt>
<trkpt lon="-2.174086" lat="43.285648"><ele>5.25</ele></trkpt>
<trkpt lon="-2.174108" lat="43.285649"><ele>5.25</ele></trkpt>
<trkpt lon="-2.174204" lat="43.285655"><ele>5.25</ele></trkpt>
<trkpt lon="-2.174266" lat="43.285666"><ele>5.5</ele></trkpt>
<trkpt lon="-2.174942" lat="43.285804"><ele>6.0</ele></trkpt>
<trkpt lon="-2.175127" lat="43.285854"><ele>6.5</ele></trkpt>
<trkpt lon="-2.175556" lat="43.285997"><ele>6.75</ele></trkpt>
<trkpt lon="-2.175794" lat="43.286045"><ele>6.75</ele></trkpt>
<trkpt lon="-2.176271" lat="43.286116"><ele>6.0</ele></trkpt>
<trkpt lon="-2.176802" lat="43.286187"><ele>6.25</ele></trkpt>
<trkpt lon="-2.177318" lat="43.286271"><ele>7.0</ele></trkpt>
<trkpt lon="-2.177399" lat="43.286062"><ele>7.0</ele></trkpt>
<trkpt lon="-2.177449" lat="43.285971"><ele>7.25</ele></trkpt>
<trkpt lon="-2.177547" lat="43.285713"><ele>8.5</ele></trkpt>
<trkpt lon="-2.177581" lat="43.285641"><ele>8.75</ele></trkpt>
<trkpt lon="-2.177670" lat="43.285405"><ele>10.0</ele></trkpt>
<trkpt lon="-2.177705" lat="43.285410"><ele>10.25</ele></trkpt>
<trkpt lon="-2.177770" lat="43.285426"><ele>10.25</ele></trkpt>
<trkpt lon="-2.177815" lat="43.285302"><ele>11.25</ele></trkpt>
<trkpt lon="-2.177851" lat="43.285307"><ele>11.75</ele></trkpt>
<trkpt lon="-2.177913" lat="43.285263"><ele>13.0</ele></trkpt>
<trkpt lon="-2.177949" lat="43.285166"><ele>14.5</ele></trkpt>
<trkpt lon="-2.178007" lat="43.285090"><ele>16.0</ele></trkpt>
<trkpt lon="-2.178153" lat="43.285022"><ele>20.75</ele></trkpt>
<trkpt lon="-2.178506" lat="43.284933"><ele>28.5</ele></trkpt>
<trkpt lon="-2.178630" lat="43.284948"><ele>31.25</ele></trkpt>
<trkpt lon="-2.178957" lat="43.284860"><ele>38.75</ele></trkpt>
<trkpt lon="-2.179168" lat="43.284831"><ele>43.25</ele></trkpt>
<trkpt lon="-2.179280" lat="43.284839"><ele>45.5</ele></trkpt>
<trkpt lon="-2.179359" lat="43.284802"><ele>47.75</ele></trkpt>
<trkpt lon="-2.179439" lat="43.284864"><ele>47.75</ele></trkpt>
<trkpt lon="-2.179621" lat="43.284987"><ele>52.75</ele></trkpt>
<trkpt lon="-2.179909" lat="43.285121"><ele>59.0</ele></trkpt>
<trkpt lon="-2.180547" lat="43.285370"><ele>70.5</ele></trkpt>
<trkpt lon="-2.180836" lat="43.285455"><ele>76.0</ele></trkpt>
<trkpt lon="-2.181002" lat="43.285560"><ele>78.5</ele></trkpt>
<trkpt lon="-2.181128" lat="43.285731"><ele>82.75</ele></trkpt>
<trkpt lon="-2.181635" lat="43.286227"><ele>95.75</ele></trkpt>
<trkpt lon="-2.181753" lat="43.286194"><ele>95.25</ele></trkpt>
<trkpt lon="-2.181852" lat="43.286182"><ele>95.0</ele></trkpt>
<trkpt lon="-2.181901" lat="43.286188"><ele>95.0</ele></trkpt>
<trkpt lon="-2.181967" lat="43.286170"><ele>94.75</ele></trkpt>
<trkpt lon="-2.182323" lat="43.286249"><ele>96.25</ele></trkpt>
<trkpt lon="-2.182856" lat="43.286327"><ele>101.75</ele></trkpt>
<trkpt lon="-2.183477" lat="43.286367"><ele>112.75</ele></trkpt>
<trkpt lon="-2.183730" lat="43.286353"><ele>116.75</ele></trkpt>
<trkpt lon="-2.184030" lat="43.286371"><ele>119.0</ele></trkpt>
<trkpt lon="-2.184425" lat="43.286415"><ele>121.0</ele></trkpt>
<trkpt lon="-2.184629" lat="43.286841"><ele>125.75</ele></trkpt>
<trkpt lon="-2.184844" lat="43.287061"><ele>129.5</ele></trkpt>
<trkpt lon="-2.184942" lat="43.287035"><ele>131.0</ele></trkpt>
<trkpt lon="-2.185071" lat="43.286918"><ele>132.5</ele></trkpt>
<trkpt lon="-2.185248" lat="43.286859"><ele>134.25</ele></trkpt>
<trkpt lon="-2.185908" lat="43.286797"><ele>141.5</ele></trkpt>
<trkpt lon="-2.186107" lat="43.286855"><ele>146.25</ele></trkpt>
<trkpt lon="-2.186568" lat="43.286887"><ele>153.25</ele></trkpt>
<trkpt lon="-2.186815" lat="43.286982"><ele>159.0</ele></trkpt>
<trkpt lon="-2.186811" lat="43.287015"><ele>160.0</ele></trkpt>
<trkpt lon="-2.186934" lat="43.287189"><ele>166.75</ele></trkpt>
<trkpt lon="-2.187338" lat="43.287421"><ele>176.25</ele></trkpt>
<trkpt lon="-2.187848" lat="43.287583"><ele>183.75</ele></trkpt>
<trkpt lon="-2.188884" lat="43.288111"><ele>193.25</ele></trkpt>
<trkpt lon="-2.188977" lat="43.288323"><ele>196.75</ele></trkpt>
<trkpt lon="-2.188957" lat="43.288462"><ele>198.0</ele></trkpt>
<trkpt lon="-2.188998" lat="43.288552"><ele>198.25</ele></trkpt>
<trkpt lon="-2.188991" lat="43.288635"><ele>198.5</ele></trkpt>
<trkpt lon="-2.189003" lat="43.288834"><ele>195.75</ele></trkpt>
<trkpt lon="-2.189052" lat="43.288899"><ele>194.5</ele></trkpt>
<trkpt lon="-2.189136" lat="43.288921"><ele>193.25</ele></trkpt>
<trkpt lon="-2.189222" lat="43.288929"><ele>192.75</ele></trkpt>
<trkpt lon="-2.189423" lat="43.288929"><ele>192.5</ele></trkpt>
<trkpt lon="-2.189567" lat="43.288936"><ele>191.75</ele></trkpt>
<trkpt lon="-2.189892" lat="43.288901"><ele>193.0</ele></trkpt>
<trkpt lon="-2.189848" lat="43.288868"><ele>193.75</ele></trkpt>
<trkpt lon="-2.189831" lat="43.288841"><ele>194.25</ele></trkpt>
<trkpt lon="-2.189822" lat="43.288784"><ele>195.5</ele></trkpt>
<trkpt lon="-2.189829" lat="43.288762"><ele>196.0</ele></trkpt>
<trkpt lon="-2.189847" lat="43.288741"><ele>196.5</ele></trkpt>
<trkpt lon="-2.189913" lat="43.288709"><ele>197.75</ele></trkpt>
<trkpt lon="-2.190004" lat="43.288690"><ele>199.0</ele></trkpt>
<trkpt lon="-2.190421" lat="43.288649"><ele>205.75</ele></trkpt>
<trkpt lon="-2.190706" lat="43.288608"><ele>210.5</ele></trkpt>
<trkpt lon="-2.190831" lat="43.288574"><ele>212.75</ele></trkpt>
<trkpt lon="-2.190887" lat="43.288553"><ele>213.25</ele></trkpt>
<trkpt lon="-2.191155" lat="43.288438"><ele>217.5</ele></trkpt>
<trkpt lon="-2.191286" lat="43.288404"><ele>219.75</ele></trkpt>
<trkpt lon="-2.191350" lat="43.288397"><ele>220.5</ele></trkpt>
<trkpt lon="-2.191628" lat="43.288417"><ele>220.75</ele></trkpt>
<trkpt lon="-2.191853" lat="43.288418"><ele>221.0</ele></trkpt>
<trkpt lon="-2.192393" lat="43.288397"><ele>220.0</ele></trkpt>
<trkpt lon="-2.192724" lat="43.288385"><ele>219.5</ele></trkpt>
<trkpt lon="-2.192906" lat="43.288386"><ele>220.25</ele></trkpt>
<trkpt lon="-2.192974" lat="43.288390"><ele>220.75</ele></trkpt>
<trkpt lon="-2.193241" lat="43.288407"><ele>222.5</ele></trkpt>
<trkpt lon="-2.193461" lat="43.288419"><ele>224.5</ele></trkpt>
<trkpt lon="-2.193640" lat="43.288445"><ele>225.75</ele></trkpt>
<trkpt lon="-2.194894" lat="43.288728"><ele>233.5</ele></trkpt>
<trkpt lon="-2.195423" lat="43.288847"><ele>241.75</ele></trkpt>
<trkpt lon="-2.196038" lat="43.288979"><ele>244.5</ele></trkpt>
<trkpt lon="-2.196522" lat="43.289098"><ele>247.75</ele></trkpt>
<trkpt lon="-2.197340" lat="43.289393"><ele>245.25</ele></trkpt>
<trkpt lon="-2.197586" lat="43.289467"><ele>246.0</ele></trkpt>
<trkpt lon="-2.197876" lat="43.289472"><ele>248.25</ele></trkpt>
<trkpt lon="-2.198184" lat="43.289485"><ele>252.75</ele></trkpt>
<trkpt lon="-2.198420" lat="43.289484"><ele>256.5</ele></trkpt>
<trkpt lon="-2.198821" lat="43.289502"><ele>262.75</ele></trkpt>
<trkpt lon="-2.199010" lat="43.289541"><ele>264.5</ele></trkpt>
<trkpt lon="-2.199180" lat="43.289598"><ele>265.5</ele></trkpt>
<trkpt lon="-2.199319" lat="43.289654"><ele>266.0</ele></trkpt>
<trkpt lon="-2.199514" lat="43.289708"><ele>266.75</ele></trkpt>
<trkpt lon="-2.200054" lat="43.289822"><ele>263.0</ele></trkpt>
<trkpt lon="-2.200516" lat="43.289940"><ele>262.25</ele></trkpt>
<trkpt lon="-2.201124" lat="43.290134"><ele>253.0</ele></trkpt>
<trkpt lon="-2.201386" lat="43.290257"><ele>251.0</ele></trkpt>
<trkpt lon="-2.201500" lat="43.290304"><ele>249.75</ele></trkpt>
<trkpt lon="-2.201816" lat="43.290417"><ele>245.75</ele></trkpt>
<trkpt lon="-2.202180" lat="43.290512"><ele>243.0</ele></trkpt>
<trkpt lon="-2.202381" lat="43.290548"><ele>242.25</ele></trkpt>
<trkpt lon="-2.202428" lat="43.290555"><ele>242.25</ele></trkpt>
<trkpt lon="-2.202447" lat="43.290571"><ele>241.75</ele></trkpt>
<trkpt lon="-2.202470" lat="43.290586"><ele>241.25</ele></trkpt>
<trkpt lon="-2.202574" lat="43.290600"><ele>241.5</ele></trkpt>
<trkpt lon="-2.202738" lat="43.290614"><ele>242.25</ele></trkpt>
<trkpt lon="-2.202807" lat="43.290614"><ele>242.5</ele></trkpt>
<trkpt lon="-2.202912" lat="43.290600"><ele>242.75</ele></trkpt>
<trkpt lon="-2.203079" lat="43.290551"><ele>244.0</ele></trkpt>
<trkpt lon="-2.203222" lat="43.290500"><ele>244.75</ele></trkpt>
<trkpt lon="-2.203330" lat="43.290478"><ele>245.5</ele></trkpt>
<trkpt lon="-2.203374" lat="43.290478"><ele>246.5</ele></trkpt>
<trkpt lon="-2.203427" lat="43.290487"><ele>247.75</ele></trkpt>
<trkpt lon="-2.203668" lat="43.290567"><ele>253.0</ele></trkpt>
<trkpt lon="-2.203862" lat="43.290621"><ele>256.25</ele></trkpt>
<trkpt lon="-2.203996" lat="43.290649"><ele>257.75</ele></trkpt>
<trkpt lon="-2.204143" lat="43.290669"><ele>259.75</ele></trkpt>
<trkpt lon="-2.204306" lat="43.290672"><ele>261.25</ele></trkpt>
<trkpt lon="-2.204618" lat="43.290703"><ele>262.5</ele></trkpt>
<trkpt lon="-2.204891" lat="43.290706"><ele>263.0</ele></trkpt>
<trkpt lon="-2.205050" lat="43.290700"><ele>263.25</ele></trkpt>
<trkpt lon="-2.205693" lat="43.290655"><ele>263.75</ele></trkpt>
<trkpt lon="-2.205986" lat="43.290694"><ele>265.0</ele></trkpt>
<trkpt lon="-2.206135" lat="43.290736"><ele>265.5</ele></trkpt>
<trkpt lon="-2.206592" lat="43.290936"><ele>265.5</ele></trkpt>
<trkpt lon="-2.206987" lat="43.291116"><ele>264.5</ele></trkpt>
<trkpt lon="-2.207585" lat="43.291365"><ele>263.5</ele></trkpt>
<trkpt lon="-2.207842" lat="43.291432"><ele>263.0</ele></trkpt>
<trkpt lon="-2.208796" lat="43.291679"><ele>260.75</ele></trkpt>
<trkpt lon="-2.209220" lat="43.291805"><ele>255.5</ele></trkpt>
<trkpt lon="-2.209835" lat="43.291971"><ele>246.0</ele></trkpt>
<trkpt lon="-2.210175" lat="43.292048"><ele>240.75</ele></trkpt>
<trkpt lon="-2.210403" lat="43.292113"><ele>237.0</ele></trkpt>
<trkpt lon="-2.210720" lat="43.292242"><ele>232.75</ele></trkpt>
<trkpt lon="-2.210954" lat="43.292347"><ele>229.75</ele></trkpt>
<trkpt lon="-2.211696" lat="43.292714"><ele>224.25</ele></trkpt>
<trkpt lon="-2.211946" lat="43.292817"><ele>223.25</ele></trkpt>
<trkpt lon="-2.212453" lat="43.293043"><ele>219.25</ele></trkpt>
<trkpt lon="-2.212644" lat="43.293108"><ele>216.75</ele></trkpt>
<trkpt lon="-2.213068" lat="43.293234"><ele>211.5</ele></trkpt>
<trkpt lon="-2.213327" lat="43.293299"><ele>210.5</ele></trkpt>
<trkpt lon="-2.213512" lat="43.293319"><ele>209.5</ele></trkpt>
<trkpt lon="-2.214717" lat="43.293378"><ele>206.5</ele></trkpt>
<trkpt lon="-2.215162" lat="43.293382"><ele>207.0</ele></trkpt>
<trkpt lon="-2.215318" lat="43.293375"><ele>207.75</ele></trkpt>
<trkpt lon="-2.216258" lat="43.293237"><ele>214.25</ele></trkpt>
<trkpt lon="-2.216396" lat="43.293225"><ele>214.25</ele></trkpt>
<trkpt lon="-2.216459" lat="43.293226"><ele>214.25</ele></trkpt>
<trkpt lon="-2.216594" lat="43.293247"><ele>214.25</ele></trkpt>
<trkpt lon="-2.217058" lat="43.293374"><ele>213.0</ele></trkpt>
<trkpt lon="-2.217380" lat="43.293456"><ele>210.25</ele></trkpt>
<trkpt lon="-2.217526" lat="43.293487"><ele>209.0</ele></trkpt>
<trkpt lon="-2.217634" lat="43.293498"><ele>208.5</ele></trkpt>
<trkpt lon="-2.217826" lat="43.293487"><ele>208.0</ele></trkpt>
<trkpt lon="-2.217862" lat="43.293490"><ele>208.0</ele></trkpt>
<trkpt lon="-2.217905" lat="43.293496"><ele>207.75</ele></trkpt>
<trkpt lon="-2.218008" lat="43.293530"><ele>207.25</ele></trkpt>
<trkpt lon="-2.218167" lat="43.293595"><ele>206.25</ele></trkpt>
<trkpt lon="-2.218806" lat="43.293888"><ele>202.25</ele></trkpt>
<trkpt lon="-2.219100" lat="43.294056"><ele>199.75</ele></trkpt>
<trkpt lon="-2.219350" lat="43.294194"><ele>198.0</ele></trkpt>
<trkpt lon="-2.219505" lat="43.294270"><ele>197.0</ele></trkpt>
<trkpt lon="-2.219818" lat="43.294378"><ele>192.5</ele></trkpt>
<trkpt lon="-2.220364" lat="43.294590"><ele>184.5</ele></trkpt>
<trkpt lon="-2.220610" lat="43.294669"><ele>183.5</ele></trkpt>
<trkpt lon="-2.221230" lat="43.294838"><ele>180.25</ele></trkpt>
<trkpt lon="-2.221333" lat="43.294862"><ele>180.0</ele></trkpt>
<trkpt lon="-2.221428" lat="43.294875"><ele>180.0</ele></trkpt>
<trkpt lon="-2.221461" lat="43.294878"><ele>180.0</ele></trkpt>
<trkpt lon="-2.221591" lat="43.294863"><ele>180.25</ele></trkpt>
<trkpt lon="-2.221791" lat="43.294823"><ele>179.75</ele></trkpt>
<trkpt lon="-2.221857" lat="43.294803"><ele>179.5</ele></trkpt>
<trkpt lon="-2.221972" lat="43.294744"><ele>178.5</ele></trkpt>
<trkpt lon="-2.222079" lat="43.294679"><ele>178.0</ele></trkpt>
<trkpt lon="-2.222291" lat="43.294597"><ele>176.5</ele></trkpt>
<trkpt lon="-2.222648" lat="43.294621"><ele>176.5</ele></trkpt>
<trkpt lon="-2.222817" lat="43.294627"><ele>175.75</ele></trkpt>
<trkpt lon="-2.222928" lat="43.294623"><ele>175.75</ele></trkpt>
<trkpt lon="-2.223026" lat="43.294610"><ele>175.5</ele></trkpt>
<trkpt lon="-2.223212" lat="43.294573"><ele>175.5</ele></trkpt>
<trkpt lon="-2.223371" lat="43.294530"><ele>175.5</ele></trkpt>
<trkpt lon="-2.223465" lat="43.294498"><ele>175.5</ele></trkpt>
<trkpt lon="-2.223573" lat="43.294450"><ele>175.75</ele></trkpt>
<trkpt lon="-2.223700" lat="43.294360"><ele>176.75</ele></trkpt>
<trkpt lon="-2.223852" lat="43.294306"><ele>178.75</ele></trkpt>
<trkpt lon="-2.223957" lat="43.294284"><ele>180.25</ele></trkpt>
<trkpt lon="-2.224018" lat="43.294290"><ele>181.0</ele></trkpt>
<trkpt lon="-2.224120" lat="43.294332"><ele>181.5</ele></trkpt>
<trkpt lon="-2.224281" lat="43.294456"><ele>182.75</ele></trkpt>
<trkpt lon="-2.224509" lat="43.294651"><ele>184.5</ele></trkpt>
<trkpt lon="-2.224910" lat="43.295036"><ele>189.5</ele></trkpt>
<trkpt lon="-2.225259" lat="43.295348"><ele>195.25</ele></trkpt>
<trkpt lon="-2.225429" lat="43.295445"><ele>196.5</ele></trkpt>
<trkpt lon="-2.225676" lat="43.295548"><ele>197.75</ele></trkpt>
<trkpt lon="-2.225704" lat="43.295565"><ele>197.75</ele></trkpt>
<trkpt lon="-2.225730" lat="43.295592"><ele>197.5</ele></trkpt>
<trkpt lon="-2.225760" lat="43.295643"><ele>197.0</ele></trkpt>
<trkpt lon="-2.225794" lat="43.295678"><ele>196.75</ele></trkpt>
<trkpt lon="-2.225845" lat="43.295710"><ele>196.75</ele></trkpt>
<trkpt lon="-2.225889" lat="43.295728"><ele>196.5</ele></trkpt>
<trkpt lon="-2.225980" lat="43.295755"><ele>196.0</ele></trkpt>
<trkpt lon="-2.226101" lat="43.295775"><ele>195.75</ele></trkpt>
<trkpt lon="-2.226248" lat="43.295787"><ele>194.75</ele></trkpt>
<trkpt lon="-2.226357" lat="43.295785"><ele>194.0</ele></trkpt>
<trkpt lon="-2.226475" lat="43.295767"><ele>193.25</ele></trkpt>
<trkpt lon="-2.226950" lat="43.295649"><ele>191.75</ele></trkpt>
<trkpt lon="-2.227025" lat="43.295643"><ele>192.5</ele></trkpt>
<trkpt lon="-2.227084" lat="43.295649"><ele>192.5</ele></trkpt>
<trkpt lon="-2.227147" lat="43.295667"><ele>192.25</ele></trkpt>
<trkpt lon="-2.227300" lat="43.295757"><ele>191.0</ele></trkpt>
<trkpt lon="-2.227343" lat="43.295777"><ele>191.0</ele></trkpt>
<trkpt lon="-2.227482" lat="43.295818"><ele>192.0</ele></trkpt>
<trkpt lon="-2.227661" lat="43.295841"><ele>192.5</ele></trkpt>
<trkpt lon="-2.227760" lat="43.295862"><ele>192.75</ele></trkpt>
<trkpt lon="-2.228080" lat="43.295870"><ele>190.75</ele></trkpt>
<trkpt lon="-2.228532" lat="43.295859"><ele>186.75</ele></trkpt>
<trkpt lon="-2.228937" lat="43.295829"><ele>181.75</ele></trkpt>
<trkpt lon="-2.229026" lat="43.295852"><ele>181.5</ele></trkpt>
<trkpt lon="-2.229394" lat="43.295855"><ele>180.25</ele></trkpt>
<trkpt lon="-2.229844" lat="43.295878"><ele>182.75</ele></trkpt>
<trkpt lon="-2.229908" lat="43.295887"><ele>183.5</ele></trkpt>
<trkpt lon="-2.229984" lat="43.295907"><ele>184.5</ele></trkpt>
<trkpt lon="-2.230494" lat="43.296074"><ele>188.0</ele></trkpt>
<trkpt lon="-2.230665" lat="43.296105"><ele>188.75</ele></trkpt>
<trkpt lon="-2.230918" lat="43.296118"><ele>189.0</ele></trkpt>
<trkpt lon="-2.231927" lat="43.296141"><ele>192.75</ele></trkpt>
<trkpt lon="-2.232078" lat="43.296152"><ele>193.25</ele></trkpt>
<trkpt lon="-2.232143" lat="43.296170"><ele>193.5</ele></trkpt>
<trkpt lon="-2.232202" lat="43.296203"><ele>193.5</ele></trkpt>
<trkpt lon="-2.232248" lat="43.296237"><ele>193.25</ele></trkpt>
<trkpt lon="-2.232294" lat="43.296287"><ele>192.75</ele></trkpt>
<trkpt lon="-2.232365" lat="43.296394"><ele>191.25</ele></trkpt>
<trkpt lon="-2.232535" lat="43.296697"><ele>186.5</ele></trkpt>
<trkpt lon="-2.232583" lat="43.296746"><ele>185.75</ele></trkpt>
<trkpt lon="-2.232752" lat="43.296890"><ele>184.0</ele></trkpt>
<trkpt lon="-2.232931" lat="43.297012"><ele>181.75</ele></trkpt>
<trkpt lon="-2.233034" lat="43.297070"><ele>181.0</ele></trkpt>
<trkpt lon="-2.233480" lat="43.297295"><ele>177.75</ele></trkpt>
<trkpt lon="-2.233597" lat="43.297361"><ele>176.5</ele></trkpt>
<trkpt lon="-2.233894" lat="43.297574"><ele>173.0</ele></trkpt>
<trkpt lon="-2.233977" lat="43.297623"><ele>172.0</ele></trkpt>
<trkpt lon="-2.234350" lat="43.297789"><ele>167.75</ele></trkpt>
<trkpt lon="-2.234469" lat="43.297847"><ele>166.25</ele></trkpt>
<trkpt lon="-2.234566" lat="43.297905"><ele>165.5</ele></trkpt>
<trkpt lon="-2.234652" lat="43.297975"><ele>165.0</ele></trkpt>
<trkpt lon="-2.234834" lat="43.298209"><ele>161.5</ele></trkpt>
<trkpt lon="-2.235068" lat="43.298292"><ele>157.0</ele></trkpt>
<trkpt lon="-2.236253" lat="43.298769"><ele>137.25</ele></trkpt>
<trkpt lon="-2.236477" lat="43.298884"><ele>134.0</ele></trkpt>
<trkpt lon="-2.236697" lat="43.298985"><ele>131.5</ele></trkpt>
<trkpt lon="-2.236909" lat="43.299069"><ele>129.25</ele></trkpt>
<trkpt lon="-2.237009" lat="43.299115"><ele>128.25</ele></trkpt>
<trkpt lon="-2.237063" lat="43.299152"><ele>128.0</ele></trkpt>
<trkpt lon="-2.237165" lat="43.299095"><ele>127.0</ele></trkpt>
<trkpt lon="-2.237277" lat="43.298999"><ele>125.5</ele></trkpt>
<trkpt lon="-2.237363" lat="43.298885"><ele>124.25</ele></trkpt>
<trkpt lon="-2.237401" lat="43.298816"><ele>122.75</ele></trkpt>
<trkpt lon="-2.237415" lat="43.298711"><ele>120.25</ele></trkpt>
<trkpt lon="-2.238475" lat="43.298970"><ele>119.75</ele></trkpt>
<trkpt lon="-2.238685" lat="43.299012"><ele>122.0</ele></trkpt>
<trkpt lon="-2.238827" lat="43.299047"><ele>123.0</ele></trkpt>
<trkpt lon="-2.238872" lat="43.299065"><ele>123.5</ele></trkpt>
<trkpt lon="-2.238915" lat="43.299091"><ele>124.25</ele></trkpt>
<trkpt lon="-2.239194" lat="43.299278"><ele>125.25</ele></trkpt>
<trkpt lon="-2.239151" lat="43.299315"><ele>125.5</ele></trkpt>
<trkpt lon="-2.239083" lat="43.299398"><ele>126.0</ele></trkpt>
<trkpt lon="-2.239525" lat="43.299430"><ele>124.5</ele></trkpt>
<trkpt lon="-2.239699" lat="43.299483"><ele>123.75</ele></trkpt>
<trkpt lon="-2.239829" lat="43.299536"><ele>123.0</ele></trkpt>
<trkpt lon="-2.239880" lat="43.299479"><ele>122.75</ele></trkpt>
<trkpt lon="-2.239920" lat="43.299465"><ele>122.5</ele></trkpt>
<trkpt lon="-2.239952" lat="43.299462"><ele>122.25</ele></trkpt>
<trkpt lon="-2.241159" lat="43.299427"><ele>103.75</ele></trkpt>
<trkpt lon="-2.241372" lat="43.299393"><ele>99.5</ele></trkpt>
<trkpt lon="-2.241620" lat="43.299397"><ele>94.5</ele></trkpt>
<trkpt lon="-2.241805" lat="43.299424"><ele>91.25</ele></trkpt>
<trkpt lon="-2.241966" lat="43.299469"><ele>88.25</ele></trkpt>
<trkpt lon="-2.243235" lat="43.299904"><ele>63.0</ele></trkpt>
<trkpt lon="-2.243288" lat="43.299935"><ele>62.5</ele></trkpt>
<trkpt lon="-2.243299" lat="43.299874"><ele>61.75</ele></trkpt>
<trkpt lon="-2.243282" lat="43.299819"><ele>61.25</ele></trkpt>
<trkpt lon="-2.243181" lat="43.299701"><ele>63.0</ele></trkpt>
<trkpt lon="-2.243162" lat="43.299644"><ele>62.75</ele></trkpt>
<trkpt lon="-2.243166" lat="43.299585"><ele>62.0</ele></trkpt>
<trkpt lon="-2.243227" lat="43.299384"><ele>58.0</ele></trkpt>
<trkpt lon="-2.243238" lat="43.299306"><ele>57.5</ele></trkpt>
<trkpt lon="-2.243236" lat="43.299183"><ele>57.0</ele></trkpt>
<trkpt lon="-2.243203" lat="43.298852"><ele>52.0</ele></trkpt>
<trkpt lon="-2.243211" lat="43.298773"><ele>50.5</ele></trkpt>
<trkpt lon="-2.243238" lat="43.298735"><ele>49.25</ele></trkpt>
<trkpt lon="-2.243273" lat="43.298717"><ele>48.5</ele></trkpt>
<trkpt lon="-2.243307" lat="43.298708"><ele>47.75</ele></trkpt>
<trkpt lon="-2.243431" lat="43.298700"><ele>45.75</ele></trkpt>
<trkpt lon="-2.243551" lat="43.298716"><ele>44.0</ele></trkpt>
<trkpt lon="-2.243596" lat="43.298733"><ele>43.5</ele></trkpt>
<trkpt lon="-2.243630" lat="43.298761"><ele>43.25</ele></trkpt>
<trkpt lon="-2.243669" lat="43.298813"><ele>43.0</ele></trkpt>
<trkpt lon="-2.244041" lat="43.299407"><ele>35.5</ele></trkpt>
<trkpt lon="-2.244066" lat="43.299439"><ele>34.75</ele></trkpt>
<trkpt lon="-2.244101" lat="43.299461"><ele>34.5</ele></trkpt>
<trkpt lon="-2.244132" lat="43.299470"><ele>34.0</ele></trkpt>
<trkpt lon="-2.244169" lat="43.299474"><ele>33.25</ele></trkpt>
<trkpt lon="-2.244250" lat="43.299457"><ele>32.5</ele></trkpt>
<trkpt lon="-2.244858" lat="43.299240"><ele>25.5</ele></trkpt>
<trkpt lon="-2.245222" lat="43.299120"><ele>22.25</ele></trkpt>
<trkpt lon="-2.245450" lat="43.299040"><ele>20.25</ele></trkpt>
<trkpt lon="-2.245509" lat="43.299013"><ele>19.75</ele></trkpt>
<trkpt lon="-2.245754" lat="43.298865"><ele>17.0</ele></trkpt>
<trkpt lon="-2.245850" lat="43.298836"><ele>16.25</ele></trkpt>
<trkpt lon="-2.246005" lat="43.298847"><ele>14.0</ele></trkpt>
<trkpt lon="-2.246264" lat="43.298907"><ele>10.75</ele></trkpt>
<trkpt lon="-2.246302" lat="43.298892"><ele>10.25</ele></trkpt>
<trkpt lon="-2.246343" lat="43.298891"><ele>9.5</ele></trkpt>
<trkpt lon="-2.246393" lat="43.298901"><ele>8.75</ele></trkpt>
<trkpt lon="-2.246552" lat="43.298738"><ele>7.5</ele></trkpt>
<trkpt lon="-2.246578" lat="43.298753"><ele>7.25</ele></trkpt>
<trkpt lon="-2.246659" lat="43.298797"><ele>7.25</ele></trkpt>
<trkpt lon="-2.246732" lat="43.298836"><ele>7.0</ele></trkpt>
<trkpt lon="-2.247089" lat="43.298508"><ele>6.25</ele></trkpt>
<trkpt lon="-2.247892" lat="43.297880"><ele>6.25</ele></trkpt>
<trkpt lon="-2.248541" lat="43.297426"><ele>5.25</ele></trkpt>
<trkpt lon="-2.249649" lat="43.296613"><ele>6.0</ele></trkpt>
<trkpt lon="-2.250013" lat="43.296349"><ele>6.0</ele></trkpt>
<trkpt lon="-2.250659" lat="43.295874"><ele>7.0</ele></trkpt>
<trkpt lon="-2.250785" lat="43.295763"><ele>7.0</ele></trkpt>
<trkpt lon="-2.250858" lat="43.295689"><ele>6.75</ele></trkpt>
<trkpt lon="-2.250927" lat="43.295618"><ele>6.75</ele></trkpt>
<trkpt lon="-2.251065" lat="43.295475"><ele>7.0</ele></trkpt>
<trkpt lon="-2.251228" lat="43.295306"><ele>6.75</ele></trkpt>
<trkpt lon="-2.251297" lat="43.295249"><ele>6.75</ele></trkpt>
<trkpt lon="-2.251368" lat="43.295200"><ele>6.25</ele></trkpt>
<trkpt lon="-2.251534" lat="43.295112"><ele>6.0</ele></trkpt>
<trkpt lon="-2.251695" lat="43.294997"><ele>6.0</ele></trkpt>
<trkpt lon="-2.251879" lat="43.294881"><ele>6.0</ele></trkpt>
<trkpt lon="-2.252913" lat="43.294114"><ele>5.75</ele></trkpt>
<trkpt lon="-2.252986" lat="43.294062"><ele>5.75</ele></trkpt>
<trkpt lon="-2.253147" lat="43.293957"><ele>5.75</ele></trkpt>
<trkpt lon="-2.253261" lat="43.293906"><ele>5.75</ele></trkpt>
<trkpt lon="-2.253375" lat="43.293874"><ele>5.75</ele></trkpt>
<trkpt lon="-2.253442" lat="43.293863"><ele>5.5</ele></trkpt>
<trkpt lon="-2.253589" lat="43.293861"><ele>5.0</ele></trkpt>
<trkpt lon="-2.253617" lat="43.293861"><ele>5.0</ele></trkpt>
<trkpt lon="-2.253750" lat="43.293860"><ele>5.0</ele></trkpt>
<trkpt lon="-2.253782" lat="43.293790"><ele>5.0</ele></trkpt>
<trkpt lon="-2.254028" lat="43.293846"><ele>5.0</ele></trkpt>
<trkpt lon="-2.254265" lat="43.293899"><ele>4.5</ele></trkpt>
<trkpt lon="-2.254405" lat="43.293931"><ele>4.0</ele></trkpt>
<trkpt lon="-2.254703" lat="43.293998"><ele>4.0</ele></trkpt>
<trkpt lon="-2.255283" lat="43.294130"><ele>3.0</ele></trkpt>
<trkpt lon="-2.255516" lat="43.294182"><ele>3.75</ele></trkpt>
<trkpt lon="-2.255878" lat="43.294264"><ele>3.5</ele></trkpt>
<trkpt lon="-2.255909" lat="43.294271"><ele>3.5</ele></trkpt>
<trkpt lon="-2.256020" lat="43.294296"><ele>3.5</ele></trkpt>
<trkpt lon="-2.256058" lat="43.294305"><ele>3.5</ele></trkpt>
<trkpt lon="-2.256515" lat="43.294408"><ele>3.0</ele></trkpt>
<trkpt lon="-2.256870" lat="43.294489"><ele>3.75</ele></trkpt>
<trkpt lon="-2.257289" lat="43.294584"><ele>3.5</ele></trkpt>
<trkpt lon="-2.257557" lat="43.294646"><ele>3.0</ele></trkpt>
<trkpt lon="-2.257616" lat="43.294659"><ele>3.0</ele></trkpt>
<trkpt lon="-2.257763" lat="43.294693"><ele>2.75</ele></trkpt>
<trkpt lon="-2.257782" lat="43.294697"><ele>2.75</ele></trkpt>
<trkpt lon="-2.257826" lat="43.294708"><ele>2.75</ele></trkpt>
<trkpt lon="-2.257933" lat="43.294733"><ele>2.5</ele></trkpt>
<trkpt lon="-2.258026" lat="43.294789"><ele>2.5</ele></trkpt>
<trkpt lon="-2.258088" lat="43.294841"><ele>2.25</ele></trkpt>
<trkpt lon="-2.258121" lat="43.294893"><ele>2.25</ele></trkpt>
<trkpt lon="-2.258144" lat="43.294964"><ele>2.25</ele></trkpt>
<trkpt lon="-2.258156" lat="43.295030"><ele>2.25</ele></trkpt>
<trkpt lon="-2.258199" lat="43.295007"><ele>2.5</ele></trkpt>
<trkpt lon="-2.258233" lat="43.295003"><ele>2.5</ele></trkpt>
<trkpt lon="-2.258252" lat="43.295007"><ele>2.5</ele></trkpt>
<trkpt lon="-2.258270" lat="43.295013"><ele>2.75</ele></trkpt>
<trkpt lon="-2.258283" lat="43.295021"><ele>2.75</ele></trkpt>
<trkpt lon="-2.258291" lat="43.295029"><ele>2.75</ele></trkpt>
<trkpt lon="-2.258326" lat="43.295093"><ele>2.75</ele></trkpt>
<trkpt lon="-2.258326" lat="43.295113"><ele>2.75</ele></trkpt>
<trkpt lon="-2.258325" lat="43.295144"><ele>2.75</ele></trkpt>
<trkpt lon="-2.258376" lat="43.295145"><ele>3.5</ele></trkpt>
<trkpt lon="-2.258414" lat="43.295147"><ele>4.0</ele></trkpt>
<trkpt lon="-2.259055" lat="43.295201"><ele>8.5</ele></trkpt>
<trkpt lon="-2.259195" lat="43.295200"><ele>9.25</ele></trkpt>
<trkpt lon="-2.259224" lat="43.295193"><ele>9.5</ele></trkpt>
<trkpt lon="-2.259468" lat="43.295130"><ele>11.75</ele></trkpt>
<trkpt lon="-2.259838" lat="43.295037"><ele>13.25</ele></trkpt>
<trkpt lon="-2.259995" lat="43.295003"><ele>12.75</ele></trkpt>
<trkpt lon="-2.260094" lat="43.294996"><ele>12.75</ele></trkpt>
<trkpt lon="-2.260187" lat="43.294998"><ele>12.25</ele></trkpt>
<trkpt lon="-2.260440" lat="43.295029"><ele>12.25</ele></trkpt>
<trkpt lon="-2.260558" lat="43.295047"><ele>12.75</ele></trkpt>
<trkpt lon="-2.260857" lat="43.295086"><ele>14.75</ele></trkpt>
<trkpt lon="-2.260967" lat="43.295101"><ele>16.75</ele></trkpt>
<trkpt lon="-2.261026" lat="43.295116"><ele>17.75</ele></trkpt>
<trkpt lon="-2.261039" lat="43.295121"><ele>18.0</ele></trkpt>
<trkpt lon="-2.261132" lat="43.295162"><ele>18.75</ele></trkpt>
<trkpt lon="-2.261276" lat="43.295194"><ele>19.75</ele></trkpt>
<trkpt lon="-2.262035" lat="43.295212"><ele>28.5</ele></trkpt>
<trkpt lon="-2.262110" lat="43.295200"><ele>29.75</ele></trkpt>
<trkpt lon="-2.262231" lat="43.295160"><ele>32.25</ele></trkpt>
<trkpt lon="-2.262257" lat="43.295118"><ele>33.75</ele></trkpt>
<trkpt lon="-2.262277" lat="43.295099"><ele>34.25</ele></trkpt>
<trkpt lon="-2.262324" lat="43.295073"><ele>35.0</ele></trkpt>
<trkpt lon="-2.262446" lat="43.295050"><ele>35.75</ele></trkpt>
<trkpt lon="-2.262697" lat="43.295022"><ele>38.5</ele></trkpt>
<trkpt lon="-2.262805" lat="43.294997"><ele>39.75</ele></trkpt>
<trkpt lon="-2.262851" lat="43.294982"><ele>40.5</ele></trkpt>
<trkpt lon="-2.263332" lat="43.294766"><ele>49.5</ele></trkpt>
<trkpt lon="-2.263444" lat="43.294773"><ele>48.5</ele></trkpt>
<trkpt lon="-2.263571" lat="43.294770"><ele>48.0</ele></trkpt>
<trkpt lon="-2.263629" lat="43.294761"><ele>47.75</ele></trkpt>
<trkpt lon="-2.263716" lat="43.294738"><ele>48.0</ele></trkpt>
<trkpt lon="-2.263804" lat="43.294702"><ele>49.0</ele></trkpt>
<trkpt lon="-2.263982" lat="43.294608"><ele>53.25</ele></trkpt>
<trkpt lon="-2.264125" lat="43.294498"><ele>56.0</ele></trkpt>
<trkpt lon="-2.264210" lat="43.294417"><ele>57.75</ele></trkpt>
<trkpt lon="-2.264333" lat="43.294273"><ele>61.0</ele></trkpt>
<trkpt lon="-2.264372" lat="43.294212"><ele>62.0</ele></trkpt>
<trkpt lon="-2.264421" lat="43.294110"><ele>63.75</ele></trkpt>
<trkpt lon="-2.264488" lat="43.293938"><ele>69.5</ele></trkpt>
<trkpt lon="-2.264545" lat="43.293833"><ele>72.25</ele></trkpt>
<trkpt lon="-2.264689" lat="43.293614"><ele>76.75</ele></trkpt>
<trkpt lon="-2.264757" lat="43.293526"><ele>78.5</ele></trkpt>
<trkpt lon="-2.264920" lat="43.293339"><ele>81.5</ele></trkpt>
<trkpt lon="-2.265045" lat="43.293169"><ele>84.25</ele></trkpt>
<trkpt lon="-2.265066" lat="43.293132"><ele>85.0</ele></trkpt>
<trkpt lon="-2.265090" lat="43.293058"><ele>86.5</ele></trkpt>
<trkpt lon="-2.265161" lat="43.292963"><ele>87.25</ele></trkpt>
<trkpt lon="-2.265165" lat="43.292933"><ele>87.75</ele></trkpt>
<trkpt lon="-2.265078" lat="43.292242"><ele>90.75</ele></trkpt>
<trkpt lon="-2.265166" lat="43.292201"><ele>91.5</ele></trkpt>
<trkpt lon="-2.265283" lat="43.292166"><ele>92.5</ele></trkpt>
<trkpt lon="-2.265366" lat="43.292160"><ele>93.5</ele></trkpt>
<trkpt lon="-2.265415" lat="43.292163"><ele>94.0</ele></trkpt>
<trkpt lon="-2.265502" lat="43.292176"><ele>95.0</ele></trkpt>
<trkpt lon="-2.265744" lat="43.292230"><ele>98.5</ele></trkpt>
<trkpt lon="-2.265860" lat="43.292248"><ele>100.0</ele></trkpt>
<trkpt lon="-2.265995" lat="43.292255"><ele>102.0</ele></trkpt>
<trkpt lon="-2.266195" lat="43.292255"><ele>105.0</ele></trkpt>
<trkpt lon="-2.266292" lat="43.292264"><ele>106.25</ele></trkpt>
<trkpt lon="-2.266392" lat="43.292286"><ele>107.75</ele></trkpt>
<trkpt lon="-2.266637" lat="43.292357"><ele>111.0</ele></trkpt>
<trkpt lon="-2.266915" lat="43.292425"><ele>115.5</ele></trkpt>
<trkpt lon="-2.267105" lat="43.292472"><ele>118.75</ele></trkpt>
<trkpt lon="-2.267167" lat="43.292471"><ele>119.5</ele></trkpt>
<trkpt lon="-2.267409" lat="43.292398"><ele>121.75</ele></trkpt>
<trkpt lon="-2.267754" lat="43.292318"><ele>124.25</ele></trkpt>
<trkpt lon="-2.268013" lat="43.292220"><ele>127.0</ele></trkpt>
<trkpt lon="-2.268090" lat="43.292215"><ele>128.0</ele></trkpt>
<trkpt lon="-2.268177" lat="43.292229"><ele>128.75</ele></trkpt>
<trkpt lon="-2.268298" lat="43.292185"><ele>128.5</ele></trkpt>
<trkpt lon="-2.268403" lat="43.292159"><ele>128.0</ele></trkpt>
<trkpt lon="-2.268511" lat="43.292145"><ele>127.5</ele></trkpt>
<trkpt lon="-2.268614" lat="43.292144"><ele>127.5</ele></trkpt>
<trkpt lon="-2.268679" lat="43.292147"><ele>127.0</ele></trkpt>
<trkpt lon="-2.269010" lat="43.292180"><ele>124.5</ele></trkpt>
<trkpt lon="-2.269142" lat="43.292182"><ele>123.5</ele></trkpt>
<trkpt lon="-2.269265" lat="43.292171"><ele>122.75</ele></trkpt>
<trkpt lon="-2.269403" lat="43.292143"><ele>121.5</ele></trkpt>
<trkpt lon="-2.269768" lat="43.292041"><ele>119.25</ele></trkpt>
<trkpt lon="-2.270821" lat="43.291722"><ele>118.75</ele></trkpt>
<trkpt lon="-2.271662" lat="43.291452"><ele>121.25</ele></trkpt>
<trkpt lon="-2.271898" lat="43.291381"><ele>123.5</ele></trkpt>
<trkpt lon="-2.272066" lat="43.291321"><ele>123.75</ele></trkpt>
<trkpt lon="-2.272425" lat="43.291107"><ele>126.0</ele></trkpt>
<trkpt lon="-2.272798" lat="43.290859"><ele>128.0</ele></trkpt>
<trkpt lon="-2.273058" lat="43.290662"><ele>128.5</ele></trkpt>
<trkpt lon="-2.273192" lat="43.290601"><ele>129.5</ele></trkpt>
<trkpt lon="-2.273312" lat="43.290569"><ele>130.25</ele></trkpt>
<trkpt lon="-2.273447" lat="43.290547"><ele>131.5</ele></trkpt>
<trkpt lon="-2.273828" lat="43.290523"><ele>135.25</ele></trkpt>
<trkpt lon="-2.273934" lat="43.290497"><ele>136.75</ele></trkpt>
<trkpt lon="-2.274107" lat="43.290394"><ele>139.75</ele></trkpt>
<trkpt lon="-2.274256" lat="43.290235"><ele>142.5</ele></trkpt>
<trkpt lon="-2.274427" lat="43.289909"><ele>148.25</ele></trkpt>
<trkpt lon="-2.274548" lat="43.289754"><ele>150.25</ele></trkpt>
<trkpt lon="-2.274696" lat="43.289583"><ele>151.75</ele></trkpt>
<trkpt lon="-2.274799" lat="43.289429"><ele>154.0</ele></trkpt>
<trkpt lon="-2.274881" lat="43.289321"><ele>155.5</ele></trkpt>
<trkpt lon="-2.275039" lat="43.289178"><ele>156.75</ele></trkpt>
<trkpt lon="-2.275316" lat="43.288953"><ele>156.25</ele></trkpt>
<trkpt lon="-2.276035" lat="43.288393"><ele>157.5</ele></trkpt>
<trkpt lon="-2.276261" lat="43.288186"><ele>158.75</ele></trkpt>
<trkpt lon="-2.276490" lat="43.287954"><ele>160.0</ele></trkpt>
<trkpt lon="-2.276616" lat="43.287841"><ele>160.25</ele></trkpt>
<trkpt lon="-2.276727" lat="43.287785"><ele>160.25</ele></trkpt>
<trkpt lon="-2.277676" lat="43.287491"><ele>167.0</ele></trkpt>
<trkpt lon="-2.277837" lat="43.287421"><ele>167.0</ele></trkpt>
<trkpt lon="-2.277870" lat="43.287407"><ele>167.25</ele></trkpt>
<trkpt lon="-2.278244" lat="43.287306"><ele>170.0</ele></trkpt>
<trkpt lon="-2.278675" lat="43.287252"><ele>172.5</ele></trkpt>
<trkpt lon="-2.278803" lat="43.287253"><ele>172.5</ele></trkpt>
<trkpt lon="-2.278930" lat="43.287266"><ele>172.5</ele></trkpt>
<trkpt lon="-2.279088" lat="43.287313"><ele>172.25</ele></trkpt>
<trkpt lon="-2.279228" lat="43.287383"><ele>172.0</ele></trkpt>
<trkpt lon="-2.280040" lat="43.288023"><ele>169.5</ele></trkpt>
<trkpt lon="-2.280265" lat="43.288220"><ele>170.25</ele></trkpt>
<trkpt lon="-2.280507" lat="43.288312"><ele>170.75</ele></trkpt>
<trkpt lon="-2.280729" lat="43.288386"><ele>171.25</ele></trkpt>
<trkpt lon="-2.280930" lat="43.288403"><ele>172.0</ele></trkpt>
<trkpt lon="-2.281224" lat="43.288410"><ele>174.75</ele></trkpt>
<trkpt lon="-2.281740" lat="43.288483"><ele>180.0</ele></trkpt>
<trkpt lon="-2.282186" lat="43.288534"><ele>185.0</ele></trkpt>
<trkpt lon="-2.282693" lat="43.288561"><ele>189.75</ele></trkpt>
<trkpt lon="-2.283513" lat="43.288573"><ele>202.0</ele></trkpt>
<trkpt lon="-2.283956" lat="43.288553"><ele>204.25</ele></trkpt>
<trkpt lon="-2.284221" lat="43.288505"><ele>205.5</ele></trkpt>
<trkpt lon="-2.284460" lat="43.288415"><ele>206.5</ele></trkpt>
<trkpt lon="-2.284702" lat="43.288284"><ele>208.5</ele></trkpt>
<trkpt lon="-2.284813" lat="43.288250"><ele>209.25</ele></trkpt>
<trkpt lon="-2.284979" lat="43.288237"><ele>210.25</ele></trkpt>
<trkpt lon="-2.285163" lat="43.288246"><ele>209.0</ele></trkpt>
<trkpt lon="-2.285405" lat="43.288287"><ele>206.5</ele></trkpt>
<trkpt lon="-2.285777" lat="43.288373"><ele>202.25</ele></trkpt>
<trkpt lon="-2.286208" lat="43.288449"><ele>200.5</ele></trkpt>
<trkpt lon="-2.286346" lat="43.288480"><ele>200.75</ele></trkpt>
<trkpt lon="-2.286409" lat="43.288496"><ele>200.75</ele></trkpt>
<trkpt lon="-2.286690" lat="43.288578"><ele>202.25</ele></trkpt>
<trkpt lon="-2.286770" lat="43.288596"><ele>202.75</ele></trkpt>
<trkpt lon="-2.286864" lat="43.288609"><ele>203.25</ele></trkpt>
<trkpt lon="-2.287073" lat="43.288601"><ele>204.0</ele></trkpt>
<trkpt lon="-2.287292" lat="43.288559"><ele>204.5</ele></trkpt>
<trkpt lon="-2.287576" lat="43.288493"><ele>205.0</ele></trkpt>
<trkpt lon="-2.287944" lat="43.288423"><ele>205.25</ele></trkpt>
<trkpt lon="-2.288121" lat="43.288370"><ele>205.75</ele></trkpt>
<trkpt lon="-2.288401" lat="43.288221"><ele>205.0</ele></trkpt>
<trkpt lon="-2.289053" lat="43.287977"><ele>207.5</ele></trkpt>
<trkpt lon="-2.289158" lat="43.287908"><ele>208.75</ele></trkpt>
<trkpt lon="-2.289540" lat="43.287511"><ele>214.5</ele></trkpt>
<trkpt lon="-2.289685" lat="43.287381"><ele>216.25</ele></trkpt>
<trkpt lon="-2.289856" lat="43.287294"><ele>217.5</ele></trkpt>
<trkpt lon="-2.289999" lat="43.287251"><ele>218.25</ele></trkpt>
<trkpt lon="-2.290332" lat="43.287167"><ele>218.0</ele></trkpt>
<trkpt lon="-2.290554" lat="43.287121"><ele>218.25</ele></trkpt>
<trkpt lon="-2.290816" lat="43.287083"><ele>216.75</ele></trkpt>
<trkpt lon="-2.291175" lat="43.287069"><ele>215.25</ele></trkpt>
<trkpt lon="-2.291599" lat="43.286998"><ele>211.0</ele></trkpt>
<trkpt lon="-2.291726" lat="43.286970"><ele>209.5</ele></trkpt>
<trkpt lon="-2.291810" lat="43.286926"><ele>208.25</ele></trkpt>
<trkpt lon="-2.291966" lat="43.286801"><ele>205.5</ele></trkpt>
<trkpt lon="-2.291989" lat="43.286579"><ele>204.5</ele></trkpt>
<trkpt lon="-2.291993" lat="43.286449"><ele>204.5</ele></trkpt>
<trkpt lon="-2.291985" lat="43.286231"><ele>203.75</ele></trkpt>
<trkpt lon="-2.292023" lat="43.286206"><ele>203.75</ele></trkpt>
<trkpt lon="-2.292081" lat="43.286196"><ele>204.0</ele></trkpt>
<trkpt lon="-2.292367" lat="43.286215"><ele>204.25</ele></trkpt>
<trkpt lon="-2.292478" lat="43.286217"><ele>204.25</ele></trkpt>
<trkpt lon="-2.292682" lat="43.286120"><ele>203.5</ele></trkpt>
<trkpt lon="-2.292791" lat="43.286097"><ele>202.75</ele></trkpt>
<trkpt lon="-2.293287" lat="43.286086"><ele>201.0</ele></trkpt>
<trkpt lon="-2.293455" lat="43.286136"><ele>201.25</ele></trkpt>
<trkpt lon="-2.293583" lat="43.286231"><ele>201.5</ele></trkpt>
<trkpt lon="-2.293781" lat="43.286308"><ele>201.25</ele></trkpt>
<trkpt lon="-2.294261" lat="43.286531"><ele>202.25</ele></trkpt>
<trkpt lon="-2.294415" lat="43.286622"><ele>202.25</ele></trkpt>
<trkpt lon="-2.294661" lat="43.286743"><ele>204.75</ele></trkpt>
<trkpt lon="-2.294828" lat="43.286843"><ele>205.25</ele></trkpt>
<trkpt lon="-2.295338" lat="43.287280"><ele>204.0</ele></trkpt>
<trkpt lon="-2.295387" lat="43.287324"><ele>204.0</ele></trkpt>
<trkpt lon="-2.295500" lat="43.287661"><ele>201.25</ele></trkpt>
<trkpt lon="-2.295560" lat="43.287745"><ele>200.25</ele></trkpt>
<trkpt lon="-2.295670" lat="43.287799"><ele>198.25</ele></trkpt>
<trkpt lon="-2.295769" lat="43.287810"><ele>197.0</ele></trkpt>
<trkpt lon="-2.295943" lat="43.287774"><ele>194.5</ele></trkpt>
<trkpt lon="-2.296574" lat="43.287593"><ele>188.25</ele></trkpt>
<trkpt lon="-2.296782" lat="43.287558"><ele>188.5</ele></trkpt>
<trkpt lon="-2.296806" lat="43.287568"><ele>188.5</ele></trkpt>
<trkpt lon="-2.296824" lat="43.287596"><ele>188.0</ele></trkpt>
<trkpt lon="-2.296932" lat="43.287857"><ele>188.5</ele></trkpt>
<trkpt lon="-2.297045" lat="43.288274"><ele>191.75</ele></trkpt>
<trkpt lon="-2.297085" lat="43.288391"><ele>192.5</ele></trkpt>
<trkpt lon="-2.297138" lat="43.288478"><ele>193.5</ele></trkpt>
<trkpt lon="-2.297215" lat="43.288573"><ele>195.0</ele></trkpt>
<trkpt lon="-2.297391" lat="43.288712"><ele>196.5</ele></trkpt>
<trkpt lon="-2.297479" lat="43.288856"><ele>195.75</ele></trkpt>
<trkpt lon="-2.297505" lat="43.289028"><ele>196.5</ele></trkpt>
<trkpt lon="-2.297504" lat="43.289273"><ele>197.5</ele></trkpt>
<trkpt lon="-2.297705" lat="43.289943"><ele>204.0</ele></trkpt>
<trkpt lon="-2.297806" lat="43.290308"><ele>207.0</ele></trkpt>
<trkpt lon="-2.297848" lat="43.290879"><ele>206.75</ele></trkpt>
<trkpt lon="-2.297839" lat="43.290993"><ele>206.75</ele></trkpt>
<trkpt lon="-2.297814" lat="43.291115"><ele>206.5</ele></trkpt>
<trkpt lon="-2.297739" lat="43.291231"><ele>203.5</ele></trkpt>
<trkpt lon="-2.297722" lat="43.291344"><ele>202.25</ele></trkpt>
<trkpt lon="-2.297730" lat="43.291471"><ele>200.25</ele></trkpt>
<trkpt lon="-2.297769" lat="43.291554"><ele>199.25</ele></trkpt>
<trkpt lon="-2.297822" lat="43.291607"><ele>198.25</ele></trkpt>
<trkpt lon="-2.297937" lat="43.291671"><ele>196.75</ele></trkpt>
<trkpt lon="-2.298122" lat="43.291755"><ele>192.5</ele></trkpt>
<trkpt lon="-2.298324" lat="43.291876"><ele>191.0</ele></trkpt>
<trkpt lon="-2.298395" lat="43.292016"><ele>187.5</ele></trkpt>
<trkpt lon="-2.298470" lat="43.292209"><ele>183.75</ele></trkpt>
<trkpt lon="-2.298529" lat="43.292267"><ele>182.75</ele></trkpt>
<trkpt lon="-2.298588" lat="43.292294"><ele>182.25</ele></trkpt>
<trkpt lon="-2.298682" lat="43.292305"><ele>181.0</ele></trkpt>
<trkpt lon="-2.298763" lat="43.292290"><ele>179.75</ele></trkpt>
<trkpt lon="-2.299373" lat="43.292046"><ele>175.25</ele></trkpt>
<trkpt lon="-2.299966" lat="43.291849"><ele>170.75</ele></trkpt>
<trkpt lon="-2.300070" lat="43.291822"><ele>169.25</ele></trkpt>
<trkpt lon="-2.300274" lat="43.291756"><ele>167.0</ele></trkpt>
<trkpt lon="-2.300512" lat="43.291664"><ele>164.0</ele></trkpt>
<trkpt lon="-2.300653" lat="43.291634"><ele>165.5</ele></trkpt>
<trkpt lon="-2.300738" lat="43.291636"><ele>167.0</ele></trkpt>
<trkpt lon="-2.300797" lat="43.291663"><ele>167.25</ele></trkpt>
<trkpt lon="-2.301141" lat="43.292013"><ele>169.5</ele></trkpt>
<trkpt lon="-2.301358" lat="43.292192"><ele>170.0</ele></trkpt>
<trkpt lon="-2.301334" lat="43.292262"><ele>169.0</ele></trkpt>
<trkpt lon="-2.301314" lat="43.292460"><ele>167.5</ele></trkpt>
<trkpt lon="-2.301351" lat="43.292547"><ele>167.0</ele></trkpt>
<trkpt lon="-2.301530" lat="43.292684"><ele>166.0</ele></trkpt>
<trkpt lon="-2.301610" lat="43.292755"><ele>165.0</ele></trkpt>
<trkpt lon="-2.301683" lat="43.292858"><ele>163.5</ele></trkpt>
<trkpt lon="-2.301688" lat="43.293121"><ele>159.75</ele></trkpt>
<trkpt lon="-2.301698" lat="43.293193"><ele>158.5</ele></trkpt>
<trkpt lon="-2.301732" lat="43.293275"><ele>156.75</ele></trkpt>
<trkpt lon="-2.301985" lat="43.293682"><ele>148.5</ele></trkpt>
<trkpt lon="-2.302042" lat="43.293762"><ele>146.75</ele></trkpt>
<trkpt lon="-2.302183" lat="43.293837"><ele>143.75</ele></trkpt>
<trkpt lon="-2.302461" lat="43.293999"><ele>138.0</ele></trkpt>
<trkpt lon="-2.302576" lat="43.294022"><ele>135.5</ele></trkpt>
<trkpt lon="-2.302697" lat="43.294023"><ele>132.25</ele></trkpt>
<trkpt lon="-2.302779" lat="43.294053"><ele>130.75</ele></trkpt>
<trkpt lon="-2.302812" lat="43.294073"><ele>130.0</ele></trkpt>
<trkpt lon="-2.302831" lat="43.294112"><ele>130.25</ele></trkpt>
<trkpt lon="-2.302886" lat="43.294095"><ele>128.0</ele></trkpt>
<trkpt lon="-2.302975" lat="43.293679"><ele>118.25</ele></trkpt>
<trkpt lon="-2.303084" lat="43.293370"><ele>114.25</ele></trkpt>
<trkpt lon="-2.303137" lat="43.293305"><ele>115.5</ele></trkpt>
<trkpt lon="-2.303253" lat="43.293271"><ele>115.75</ele></trkpt>
<trkpt lon="-2.303768" lat="43.293242"><ele>113.0</ele></trkpt>
<trkpt lon="-2.303953" lat="43.293220"><ele>111.75</ele></trkpt>
<trkpt lon="-2.304110" lat="43.293230"><ele>109.5</ele></trkpt>
<trkpt lon="-2.304177" lat="43.293259"><ele>108.0</ele></trkpt>
<trkpt lon="-2.304300" lat="43.293284"><ele>105.5</ele></trkpt>
<trkpt lon="-2.304509" lat="43.293347"><ele>101.25</ele></trkpt>
<trkpt lon="-2.304658" lat="43.293453"><ele>98.25</ele></trkpt>
<trkpt lon="-2.304774" lat="43.293604"><ele>96.75</ele></trkpt>
<trkpt lon="-2.304907" lat="43.293850"><ele>95.25</ele></trkpt>
<trkpt lon="-2.305013" lat="43.294091"><ele>95.0</ele></trkpt>
<trkpt lon="-2.305072" lat="43.294291"><ele>90.5</ele></trkpt>
<trkpt lon="-2.305120" lat="43.294520"><ele>86.5</ele></trkpt>
<trkpt lon="-2.305249" lat="43.294905"><ele>82.5</ele></trkpt>
<trkpt lon="-2.305406" lat="43.295173"><ele>76.5</ele></trkpt>
<trkpt lon="-2.305679" lat="43.295462"><ele>69.5</ele></trkpt>
<trkpt lon="-2.305892" lat="43.295597"><ele>65.75</ele></trkpt>
<trkpt lon="-2.305991" lat="43.295721"><ele>61.5</ele></trkpt>
<trkpt lon="-2.306133" lat="43.295857"><ele>61.25</ele></trkpt>
<trkpt lon="-2.306247" lat="43.295955"><ele>56.25</ele></trkpt>
<trkpt lon="-2.306401" lat="43.296053"><ele>56.5</ele></trkpt>
<trkpt lon="-2.306399" lat="43.296077"><ele>57.0</ele></trkpt>
<trkpt lon="-2.306301" lat="43.296066"><ele>55.75</ele></trkpt>
<trkpt lon="-2.305957" lat="43.295991"><ele>53.5</ele></trkpt>
<trkpt lon="-2.305803" lat="43.295992"><ele>51.75</ele></trkpt>
<trkpt lon="-2.305734" lat="43.296015"><ele>51.5</ele></trkpt>
<trkpt lon="-2.305662" lat="43.296094"><ele>50.5</ele></trkpt>
<trkpt lon="-2.305756" lat="43.296277"><ele>48.75</ele></trkpt>
<trkpt lon="-2.305934" lat="43.296513"><ele>46.0</ele></trkpt>
<trkpt lon="-2.306158" lat="43.296722"><ele>41.5</ele></trkpt>
<trkpt lon="-2.306366" lat="43.296855"><ele>35.5</ele></trkpt>
<trkpt lon="-2.306456" lat="43.296943"><ele>32.5</ele></trkpt>
<trkpt lon="-2.306485" lat="43.297043"><ele>30.0</ele></trkpt>
<trkpt lon="-2.306485" lat="43.297170"><ele>28.75</ele></trkpt>
<trkpt lon="-2.306496" lat="43.297270"><ele>26.75</ele></trkpt>
<trkpt lon="-2.306485" lat="43.297326"><ele>25.75</ele></trkpt>
<trkpt lon="-2.306518" lat="43.297377"><ele>24.5</ele></trkpt>
<trkpt lon="-2.306549" lat="43.297406"><ele>24.25</ele></trkpt>
<trkpt lon="-2.306575" lat="43.297439"><ele>24.25</ele></trkpt>
<trkpt lon="-2.306672" lat="43.297493"><ele>26.75</ele></trkpt>
<trkpt lon="-2.306787" lat="43.297514"><ele>24.5</ele></trkpt>
<trkpt lon="-2.307128" lat="43.297522"><ele>21.75</ele></trkpt>
<trkpt lon="-2.307224" lat="43.297497"><ele>20.75</ele></trkpt>
<trkpt lon="-2.307332" lat="43.297493"><ele>21.75</ele></trkpt>
<trkpt lon="-2.307578" lat="43.297396"><ele>19.0</ele></trkpt>
<trkpt lon="-2.307683" lat="43.297374"><ele>17.25</ele></trkpt>
<trkpt lon="-2.307814" lat="43.297344"><ele>14.75</ele></trkpt>
<trkpt lon="-2.307958" lat="43.297327"><ele>12.25</ele></trkpt>
<trkpt lon="-2.308083" lat="43.297322"><ele>11.25</ele></trkpt>
<trkpt lon="-2.308265" lat="43.297325"><ele>12.5</ele></trkpt>
<trkpt lon="-2.308399" lat="43.297338"><ele>12.75</ele></trkpt>
<trkpt lon="-2.308473" lat="43.297358"><ele>12.25</ele></trkpt>
<trkpt lon="-2.308546" lat="43.297401"><ele>12.0</ele></trkpt>
<trkpt lon="-2.308600" lat="43.297454"><ele>11.0</ele></trkpt>
<trkpt lon="-2.308647" lat="43.297504"><ele>10.25</ele></trkpt>
<trkpt lon="-2.308688" lat="43.297542"><ele>9.5</ele></trkpt>
<trkpt lon="-2.308741" lat="43.297567"><ele>9.0</ele></trkpt>
<trkpt lon="-2.308897" lat="43.297569"><ele>7.25</ele></trkpt>
<trkpt lon="-2.308982" lat="43.297547"><ele>7.5</ele></trkpt>
<trkpt lon="-2.309046" lat="43.297517"><ele>7.75</ele></trkpt>
<trkpt lon="-2.309092" lat="43.297482"><ele>7.75</ele></trkpt>
<trkpt lon="-2.309130" lat="43.297467"><ele>7.25</ele></trkpt>
<trkpt lon="-2.309255" lat="43.297440"><ele>6.5</ele></trkpt>
<trkpt lon="-2.309362" lat="43.297446"><ele>6.25</ele></trkpt>
<trkpt lon="-2.309426" lat="43.297421"><ele>6.25</ele></trkpt>
<trkpt lon="-2.309458" lat="43.297398"><ele>7.0</ele></trkpt>
<trkpt lon="-2.309467" lat="43.297374"><ele>7.5</ele></trkpt>
<trkpt lon="-2.309537" lat="43.297358"><ele>8.5</ele></trkpt>
<trkpt lon="-2.309552" lat="43.297322"><ele>9.0</ele></trkpt>
<trkpt lon="-2.309583" lat="43.297317"><ele>9.25</ele></trkpt>
<trkpt lon="-2.309662" lat="43.297342"><ele>10.0</ele></trkpt>
<trkpt lon="-2.309934" lat="43.297279"><ele>13.75</ele></trkpt>
<trkpt lon="-2.310138" lat="43.297214"><ele>16.75</ele></trkpt>
<trkpt lon="-2.310213" lat="43.297197"><ele>18.25</ele></trkpt>
<trkpt lon="-2.310317" lat="43.297196"><ele>20.5</ele></trkpt>
<trkpt lon="-2.310418" lat="43.297173"><ele>22.5</ele></trkpt>
<trkpt lon="-2.310464" lat="43.297187"><ele>24.0</ele></trkpt>
<trkpt lon="-2.310712" lat="43.296952"><ele>26.75</ele></trkpt>
<trkpt lon="-2.310768" lat="43.296875"><ele>29.0</ele></trkpt>
<trkpt lon="-2.310856" lat="43.296790"><ele>31.5</ele></trkpt>
<trkpt lon="-2.310878" lat="43.296733"><ele>32.25</ele></trkpt>
<trkpt lon="-2.310923" lat="43.296689"><ele>33.75</ele></trkpt>
<trkpt lon="-2.310965" lat="43.296683"><ele>35.25</ele></trkpt>
<trkpt lon="-2.311037" lat="43.296764"><ele>34.75</ele></trkpt>
<trkpt lon="-2.311112" lat="43.296823"><ele>33.0</ele></trkpt>
<trkpt lon="-2.311153" lat="43.296795"><ele>33.5</ele></trkpt>
<trkpt lon="-2.311284" lat="43.296670"><ele>42.5</ele></trkpt>
<trkpt lon="-2.311310" lat="43.296617"><ele>44.5</ele></trkpt>
<trkpt lon="-2.311362" lat="43.296540"><ele>48.25</ele></trkpt>
<trkpt lon="-2.311395" lat="43.296519"><ele>49.75</ele></trkpt>
<trkpt lon="-2.311447" lat="43.296506"><ele>50.5</ele></trkpt>
<trkpt lon="-2.311487" lat="43.296519"><ele>49.5</ele></trkpt>
<trkpt lon="-2.311538" lat="43.296543"><ele>47.5</ele></trkpt>
<trkpt lon="-2.311576" lat="43.296537"><ele>47.75</ele></trkpt>
<trkpt lon="-2.311674" lat="43.296507"><ele>50.5</ele></trkpt>
<trkpt lon="-2.311858" lat="43.296350"><ele>59.25</ele></trkpt>
<trkpt lon="-2.311917" lat="43.296260"><ele>64.75</ele></trkpt>
<trkpt lon="-2.311933" lat="43.296235"><ele>66.75</ele></trkpt>
<trkpt lon="-2.312013" lat="43.296169"><ele>74.25</ele></trkpt>
<trkpt lon="-2.312141" lat="43.296131"><ele>80.25</ele></trkpt>
<trkpt lon="-2.312222" lat="43.296143"><ele>81.0</ele></trkpt>
<trkpt lon="-2.312339" lat="43.296175"><ele>73.25</ele></trkpt>
<trkpt lon="-2.312387" lat="43.296166"><ele>72.5</ele></trkpt>
<trkpt lon="-2.312415" lat="43.296133"><ele>75.0</ele></trkpt>
<trkpt lon="-2.312432" lat="43.296084"><ele>78.25</ele></trkpt>
<trkpt lon="-2.312518" lat="43.296048"><ele>78.0</ele></trkpt>
<trkpt lon="-2.312563" lat="43.296018"><ele>79.5</ele></trkpt>
<trkpt lon="-2.312584" lat="43.296012"><ele>80.0</ele></trkpt>
<trkpt lon="-2.312584" lat="43.296000"><ele>80.5</ele></trkpt>
<trkpt lon="-2.312622" lat="43.296001"><ele>80.75</ele></trkpt>
<trkpt lon="-2.312769" lat="43.296037"><ele>80.0</ele></trkpt>
<trkpt lon="-2.312977" lat="43.296100"><ele>79.5</ele></trkpt>
<trkpt lon="-2.313036" lat="43.296146"><ele>76.5</ele></trkpt>
<trkpt lon="-2.313195" lat="43.296170"><ele>76.25</ele></trkpt>
<trkpt lon="-2.313274" lat="43.296206"><ele>74.25</ele></trkpt>
<trkpt lon="-2.313384" lat="43.296229"><ele>73.25</ele></trkpt>
<trkpt lon="-2.313455" lat="43.296291"><ele>69.75</ele></trkpt>
<trkpt lon="-2.313547" lat="43.296351"><ele>68.5</ele></trkpt>
<trkpt lon="-2.313615" lat="43.296371"><ele>69.25</ele></trkpt>
<trkpt lon="-2.313694" lat="43.296353"><ele>67.25</ele></trkpt>
<trkpt lon="-2.313946" lat="43.296419"><ele>53.0</ele></trkpt>
<trkpt lon="-2.314083" lat="43.296348"><ele>54.25</ele></trkpt>
<trkpt lon="-2.314132" lat="43.296295"><ele>53.25</ele></trkpt>
<trkpt lon="-2.314179" lat="43.296270"><ele>51.75</ele></trkpt>
<trkpt lon="-2.314245" lat="43.296199"><ele>51.0</ele></trkpt>
<trkpt lon="-2.314307" lat="43.296171"><ele>50.0</ele></trkpt>
<trkpt lon="-2.314334" lat="43.296110"><ele>50.25</ele></trkpt>
<trkpt lon="-2.314356" lat="43.296109"><ele>49.75</ele></trkpt>
<trkpt lon="-2.314393" lat="43.296146"><ele>48.5</ele></trkpt>
<trkpt lon="-2.314438" lat="43.296169"><ele>47.0</ele></trkpt>
<trkpt lon="-2.314505" lat="43.296174"><ele>46.25</ele></trkpt>
<trkpt lon="-2.314626" lat="43.296159"><ele>46.0</ele></trkpt>
<trkpt lon="-2.314692" lat="43.296167"><ele>45.25</ele></trkpt>
<trkpt lon="-2.314887" lat="43.296436"><ele>41.0</ele></trkpt>
<trkpt lon="-2.314928" lat="43.296527"><ele>38.5</ele></trkpt>
<trkpt lon="-2.314973" lat="43.296558"><ele>39.0</ele></trkpt>
<trkpt lon="-2.315126" lat="43.296634"><ele>39.0</ele></trkpt>
<trkpt lon="-2.315322" lat="43.296704"><ele>36.5</ele></trkpt>
<trkpt lon="-2.315448" lat="43.296726"><ele>34.0</ele></trkpt>
<trkpt lon="-2.315495" lat="43.296721"><ele>34.25</ele></trkpt>
<trkpt lon="-2.315677" lat="43.296660"><ele>34.0</ele></trkpt>
<trkpt lon="-2.315718" lat="43.296624"><ele>34.0</ele></trkpt>
<trkpt lon="-2.315965" lat="43.296526"><ele>31.25</ele></trkpt>
<trkpt lon="-2.316117" lat="43.296476"><ele>29.25</ele></trkpt>
<trkpt lon="-2.316222" lat="43.296431"><ele>27.5</ele></trkpt>
<trkpt lon="-2.316308" lat="43.296376"><ele>26.25</ele></trkpt>
<trkpt lon="-2.316366" lat="43.296314"><ele>25.75</ele></trkpt>
<trkpt lon="-2.316422" lat="43.296195"><ele>26.75</ele></trkpt>
<trkpt lon="-2.316566" lat="43.296139"><ele>25.25</ele></trkpt>
<trkpt lon="-2.316644" lat="43.296124"><ele>24.25</ele></trkpt>
<trkpt lon="-2.316670" lat="43.296070"><ele>24.75</ele></trkpt>
<trkpt lon="-2.316720" lat="43.296086"><ele>25.25</ele></trkpt>
<trkpt lon="-2.316840" lat="43.296103"><ele>27.0</ele></trkpt>
<trkpt lon="-2.317026" lat="43.296149"><ele>25.25</ele></trkpt>
<trkpt lon="-2.317143" lat="43.296084"><ele>28.0</ele></trkpt>
<trkpt lon="-2.317296" lat="43.295956"><ele>31.5</ele></trkpt>
<trkpt lon="-2.317509" lat="43.295669"><ele>42.0</ele></trkpt>
<trkpt lon="-2.317577" lat="43.295544"><ele>42.75</ele></trkpt>
<trkpt lon="-2.317620" lat="43.295442"><ele>43.25</ele></trkpt>
<trkpt lon="-2.317755" lat="43.295384"><ele>46.75</ele></trkpt>
<trkpt lon="-2.317886" lat="43.295341"><ele>50.75</ele></trkpt>
<trkpt lon="-2.318025" lat="43.295359"><ele>53.25</ele></trkpt>
<trkpt lon="-2.318249" lat="43.295339"><ele>56.75</ele></trkpt>
<trkpt lon="-2.318486" lat="43.295309"><ele>61.0</ele></trkpt>
<trkpt lon="-2.318799" lat="43.295205"><ele>66.5</ele></trkpt>
<trkpt lon="-2.318904" lat="43.295176"><ele>67.75</ele></trkpt>
<trkpt lon="-2.319114" lat="43.295123"><ele>72.0</ele></trkpt>
<trkpt lon="-2.319277" lat="43.295058"><ele>75.5</ele></trkpt>
<trkpt lon="-2.319649" lat="43.294823"><ele>84.25</ele></trkpt>
<trkpt lon="-2.319799" lat="43.294703"><ele>86.25</ele></trkpt>
<trkpt lon="-2.319969" lat="43.294533"><ele>92.25</ele></trkpt>
<trkpt lon="-2.320197" lat="43.294333"><ele>98.75</ele></trkpt>
<trkpt lon="-2.320693" lat="43.293948"><ele>105.75</ele></trkpt>
<trkpt lon="-2.320941" lat="43.293790"><ele>107.25</ele></trkpt>
<trkpt lon="-2.321073" lat="43.293715"><ele>109.0</ele></trkpt>
<trkpt lon="-2.321189" lat="43.293732"><ele>108.5</ele></trkpt>
<trkpt lon="-2.321352" lat="43.293735"><ele>105.5</ele></trkpt>
<trkpt lon="-2.321522" lat="43.293716"><ele>102.0</ele></trkpt>
<trkpt lon="-2.321626" lat="43.293745"><ele>97.75</ele></trkpt>
<trkpt lon="-2.322083" lat="43.293767"><ele>92.75</ele></trkpt>
<trkpt lon="-2.322181" lat="43.293793"><ele>89.75</ele></trkpt>
<trkpt lon="-2.322255" lat="43.293835"><ele>87.25</ele></trkpt>
<trkpt lon="-2.322338" lat="43.293936"><ele>84.0</ele></trkpt>
<trkpt lon="-2.322503" lat="43.294049"><ele>80.75</ele></trkpt>
<trkpt lon="-2.322812" lat="43.294093"><ele>77.25</ele></trkpt>
<trkpt lon="-2.323097" lat="43.294170"><ele>74.5</ele></trkpt>
<trkpt lon="-2.323652" lat="43.294387"><ele>74.75</ele></trkpt>
<trkpt lon="-2.323661" lat="43.294391"><ele>74.75</ele></trkpt>
<trkpt lon="-2.323265" lat="43.294570"><ele>68.5</ele></trkpt>
<trkpt lon="-2.323046" lat="43.294627"><ele>64.25</ele></trkpt>
<trkpt lon="-2.322954" lat="43.294689"><ele>61.25</ele></trkpt>
<trkpt lon="-2.322785" lat="43.294962"><ele>53.0</ele></trkpt>
<trkpt lon="-2.322653" lat="43.295036"><ele>51.0</ele></trkpt>
<trkpt lon="-2.322693" lat="43.295086"><ele>50.25</ele></trkpt>
<trkpt lon="-2.322703" lat="43.295129"><ele>49.75</ele></trkpt>
<trkpt lon="-2.322705" lat="43.295246"><ele>48.0</ele></trkpt>
<trkpt lon="-2.322699" lat="43.295417"><ele>42.25</ele></trkpt>
<trkpt lon="-2.322812" lat="43.295397"><ele>43.5</ele></trkpt>
<trkpt lon="-2.323004" lat="43.295422"><ele>44.75</ele></trkpt>
<trkpt lon="-2.323078" lat="43.295414"><ele>45.5</ele></trkpt>
<trkpt lon="-2.323083" lat="43.295393"><ele>46.25</ele></trkpt>
<trkpt lon="-2.323165" lat="43.295389"><ele>46.5</ele></trkpt>
<trkpt lon="-2.324016" lat="43.295575"><ele>47.5</ele></trkpt>
<trkpt lon="-2.324565" lat="43.295638"><ele>52.5</ele></trkpt>
<trkpt lon="-2.325132" lat="43.295771"><ele>52.0</ele></trkpt>
<trkpt lon="-2.325293" lat="43.295797"><ele>49.5</ele></trkpt>
<trkpt lon="-2.325704" lat="43.295805"><ele>45.5</ele></trkpt>
<trkpt lon="-2.326654" lat="43.295859"><ele>47.0</ele></trkpt>
<trkpt lon="-2.326839" lat="43.295894"><ele>47.5</ele></trkpt>
<trkpt lon="-2.327081" lat="43.295953"><ele>48.25</ele></trkpt>
<trkpt lon="-2.327237" lat="43.296008"><ele>48.75</ele></trkpt>
<trkpt lon="-2.327477" lat="43.296118"><ele>45.75</ele></trkpt>
<trkpt lon="-2.328608" lat="43.296830"><ele>44.5</ele></trkpt>
<trkpt lon="-2.328976" lat="43.297070"><ele>42.0</ele></trkpt>
<trkpt lon="-2.329458" lat="43.297420"><ele>43.0</ele></trkpt>
<trkpt lon="-2.329855" lat="43.297673"><ele>39.25</ele></trkpt>
<trkpt lon="-2.330170" lat="43.297857"><ele>37.0</ele></trkpt>
<trkpt lon="-2.330401" lat="43.297958"><ele>38.0</ele></trkpt>
<trkpt lon="-2.330591" lat="43.298026"><ele>40.0</ele></trkpt>
<trkpt lon="-2.330652" lat="43.298013"><ele>41.0</ele></trkpt>
<trkpt lon="-2.330683" lat="43.298027"><ele>40.75</ele></trkpt>
<trkpt lon="-2.330667" lat="43.298075"><ele>39.25</ele></trkpt>
<trkpt lon="-2.330784" lat="43.298118"><ele>40.0</ele></trkpt>
<trkpt lon="-2.331034" lat="43.298241"><ele>44.0</ele></trkpt>
<trkpt lon="-2.331300" lat="43.298279"><ele>51.25</ele></trkpt>
<trkpt lon="-2.331411" lat="43.298243"><ele>54.75</ele></trkpt>
<trkpt lon="-2.331507" lat="43.298165"><ele>58.5</ele></trkpt>
<trkpt lon="-2.331587" lat="43.298090"><ele>61.5</ele></trkpt>
<trkpt lon="-2.331654" lat="43.298061"><ele>63.5</ele></trkpt>
<trkpt lon="-2.331713" lat="43.298070"><ele>64.75</ele></trkpt>
<trkpt lon="-2.331787" lat="43.298108"><ele>66.0</ele></trkpt>
<trkpt lon="-2.331887" lat="43.298186"><ele>67.25</ele></trkpt>
<trkpt lon="-2.332039" lat="43.298274"><ele>69.75</ele></trkpt>
<trkpt lon="-2.332202" lat="43.298263"><ele>74.0</ele></trkpt>
<trkpt lon="-2.332379" lat="43.298157"><ele>79.75</ele></trkpt>
<trkpt lon="-2.332440" lat="43.297987"><ele>84.0</ele></trkpt>
<trkpt lon="-2.332457" lat="43.297745"><ele>89.25</ele></trkpt>
<trkpt lon="-2.332464" lat="43.297704"><ele>88.25</ele></trkpt>
<trkpt lon="-2.333044" lat="43.297822"><ele>83.0</ele></trkpt>
<trkpt lon="-2.333089" lat="43.297824"><ele>82.25</ele></trkpt>
<trkpt lon="-2.333115" lat="43.297807"><ele>81.0</ele></trkpt>
<trkpt lon="-2.333117" lat="43.297771"><ele>79.25</ele></trkpt>
<trkpt lon="-2.333095" lat="43.297733"><ele>78.25</ele></trkpt>
<trkpt lon="-2.332929" lat="43.297537"><ele>74.0</ele></trkpt>
<trkpt lon="-2.332978" lat="43.297531"><ele>72.75</ele></trkpt>
<trkpt lon="-2.333110" lat="43.297569"><ele>71.5</ele></trkpt>
<trkpt lon="-2.333349" lat="43.297684"><ele>70.5</ele></trkpt>
<trkpt lon="-2.333694" lat="43.297911"><ele>68.5</ele></trkpt>
<trkpt lon="-2.333815" lat="43.298019"><ele>68.0</ele></trkpt>
<trkpt lon="-2.333895" lat="43.298058"><ele>65.75</ele></trkpt>
<trkpt lon="-2.334016" lat="43.298076"><ele>63.75</ele></trkpt>
<trkpt lon="-2.334191" lat="43.298143"><ele>63.0</ele></trkpt>
<trkpt lon="-2.334340" lat="43.298238"><ele>63.75</ele></trkpt>
<trkpt lon="-2.334617" lat="43.298348"><ele>58.5</ele></trkpt>
<trkpt lon="-2.334725" lat="43.298429"><ele>55.75</ele></trkpt>
<trkpt lon="-2.334835" lat="43.298538"><ele>52.0</ele></trkpt>
<trkpt lon="-2.334860" lat="43.298555"><ele>51.0</ele></trkpt>
<trkpt lon="-2.334881" lat="43.298557"><ele>50.0</ele></trkpt>
<trkpt lon="-2.334894" lat="43.298540"><ele>49.0</ele></trkpt>
<trkpt lon="-2.334882" lat="43.298374"><ele>47.0</ele></trkpt>
<trkpt lon="-2.334894" lat="43.298370"><ele>46.5</ele></trkpt>
<trkpt lon="-2.334914" lat="43.298374"><ele>45.5</ele></trkpt>
<trkpt lon="-2.335010" lat="43.298516"><ele>42.5</ele></trkpt>
<trkpt lon="-2.335025" lat="43.298515"><ele>41.75</ele></trkpt>
<trkpt lon="-2.335043" lat="43.298500"><ele>40.75</ele></trkpt>
<trkpt lon="-2.335040" lat="43.298419"><ele>40.25</ele></trkpt>
<trkpt lon="-2.335069" lat="43.298346"><ele>38.75</ele></trkpt>
<trkpt lon="-2.335100" lat="43.298298"><ele>37.5</ele></trkpt>
<trkpt lon="-2.335127" lat="43.298276"><ele>36.5</ele></trkpt>
<trkpt lon="-2.335207" lat="43.298254"><ele>34.25</ele></trkpt>
<trkpt lon="-2.335194" lat="43.298429"><ele>34.5</ele></trkpt>
<trkpt lon="-2.335215" lat="43.298658"><ele>33.25</ele></trkpt>
<trkpt lon="-2.335590" lat="43.298732"><ele>27.75</ele></trkpt>
<trkpt lon="-2.335778" lat="43.298794"><ele>30.25</ele></trkpt>
<trkpt lon="-2.335816" lat="43.298794"><ele>31.0</ele></trkpt>
<trkpt lon="-2.335961" lat="43.298671"><ele>37.0</ele></trkpt>
<trkpt lon="-2.336094" lat="43.298604"><ele>43.0</ele></trkpt>
<trkpt lon="-2.336143" lat="43.298639"><ele>45.25</ele></trkpt>
<trkpt lon="-2.336220" lat="43.298712"><ele>48.25</ele></trkpt>
<trkpt lon="-2.336310" lat="43.298813"><ele>51.75</ele></trkpt>
<trkpt lon="-2.336372" lat="43.298906"><ele>54.0</ele></trkpt>
<trkpt lon="-2.336408" lat="43.299001"><ele>55.25</ele></trkpt>
<trkpt lon="-2.336485" lat="43.299139"><ele>58.5</ele></trkpt>
<trkpt lon="-2.336522" lat="43.299168"><ele>60.5</ele></trkpt>
<trkpt lon="-2.336578" lat="43.299180"><ele>63.5</ele></trkpt>
<trkpt lon="-2.336623" lat="43.299149"><ele>66.5</ele></trkpt>
<trkpt lon="-2.336696" lat="43.299030"><ele>71.0</ele></trkpt>
<trkpt lon="-2.336758" lat="43.298954"><ele>73.75</ele></trkpt>
<trkpt lon="-2.336834" lat="43.298887"><ele>76.25</ele></trkpt>
<trkpt lon="-2.336881" lat="43.298875"><ele>77.75</ele></trkpt>
<trkpt lon="-2.336920" lat="43.298882"><ele>79.0</ele></trkpt>
<trkpt lon="-2.336949" lat="43.298956"><ele>80.75</ele></trkpt>
<trkpt lon="-2.336980" lat="43.299070"><ele>82.75</ele></trkpt>
<trkpt lon="-2.336997" lat="43.299083"><ele>83.25</ele></trkpt>
<trkpt lon="-2.337003" lat="43.299087"><ele>83.5</ele></trkpt>
<trkpt lon="-2.337020" lat="43.299079"><ele>83.75</ele></trkpt>
<trkpt lon="-2.337040" lat="43.299010"><ele>83.5</ele></trkpt>
<trkpt lon="-2.337021" lat="43.299010"><ele>83.0</ele></trkpt>
<trkpt lon="-2.337021" lat="43.298995"><ele>83.0</ele></trkpt>
<trkpt lon="-2.337040" lat="43.298995"><ele>83.5</ele></trkpt>
<trkpt lon="-2.337040" lat="43.299006"><ele>83.5</ele></trkpt>
<trkpt lon="-2.337047" lat="43.299006"><ele>83.75</ele></trkpt>
<trkpt lon="-2.337227" lat="43.299014"><ele>88.5</ele></trkpt>
<trkpt lon="-2.337351" lat="43.299015"><ele>93.25</ele></trkpt>
<trkpt lon="-2.337465" lat="43.298952"><ele>96.25</ele></trkpt>
<trkpt lon="-2.337619" lat="43.298882"><ele>98.0</ele></trkpt>
<trkpt lon="-2.337808" lat="43.298753"><ele>99.75</ele></trkpt>
<trkpt lon="-2.337935" lat="43.298733"><ele>102.75</ele></trkpt>
<trkpt lon="-2.338064" lat="43.298678"><ele>104.75</ele></trkpt>
<trkpt lon="-2.338205" lat="43.298656"><ele>106.75</ele></trkpt>
<trkpt lon="-2.338309" lat="43.298650"><ele>108.75</ele></trkpt>
<trkpt lon="-2.338413" lat="43.298687"><ele>111.0</ele></trkpt>
<trkpt lon="-2.338392" lat="43.298750"><ele>112.75</ele></trkpt>
<trkpt lon="-2.338324" lat="43.298875"><ele>116.25</ele></trkpt>
<trkpt lon="-2.338135" lat="43.299107"><ele>118.5</ele></trkpt>
<trkpt lon="-2.338080" lat="43.299199"><ele>119.5</ele></trkpt>
<trkpt lon="-2.338072" lat="43.299262"><ele>119.5</ele></trkpt>
<trkpt lon="-2.338102" lat="43.299327"><ele>120.0</ele></trkpt>
<trkpt lon="-2.338190" lat="43.299394"><ele>121.0</ele></trkpt>
<trkpt lon="-2.338282" lat="43.299403"><ele>121.75</ele></trkpt>
<trkpt lon="-2.338401" lat="43.299394"><ele>122.75</ele></trkpt>
<trkpt lon="-2.338658" lat="43.299405"><ele>124.75</ele></trkpt>
<trkpt lon="-2.338742" lat="43.299427"><ele>126.25</ele></trkpt>
<trkpt lon="-2.338857" lat="43.299445"><ele>128.25</ele></trkpt>
<trkpt lon="-2.338961" lat="43.299454"><ele>128.25</ele></trkpt>
<trkpt lon="-2.339077" lat="43.299431"><ele>128.75</ele></trkpt>
<trkpt lon="-2.339195" lat="43.299390"><ele>128.5</ele></trkpt>
<trkpt lon="-2.339333" lat="43.299317"><ele>128.75</ele></trkpt>
<trkpt lon="-2.339440" lat="43.299270"><ele>130.25</ele></trkpt>
<trkpt lon="-2.339513" lat="43.299217"><ele>132.0</ele></trkpt>
<trkpt lon="-2.339580" lat="43.299197"><ele>132.75</ele></trkpt>
<trkpt lon="-2.339710" lat="43.299197"><ele>133.5</ele></trkpt>
<trkpt lon="-2.340168" lat="43.299288"><ele>137.0</ele></trkpt>
<trkpt lon="-2.340344" lat="43.299351"><ele>139.5</ele></trkpt>
<trkpt lon="-2.340593" lat="43.299396"><ele>142.75</ele></trkpt>
<trkpt lon="-2.340868" lat="43.299418"><ele>147.5</ele></trkpt>
<trkpt lon="-2.340979" lat="43.299417"><ele>149.25</ele></trkpt>
<trkpt lon="-2.341165" lat="43.299488"><ele>150.5</ele></trkpt>
<trkpt lon="-2.341277" lat="43.299513"><ele>151.5</ele></trkpt>
<trkpt lon="-2.341692" lat="43.299628"><ele>154.0</ele></trkpt>
<trkpt lon="-2.341781" lat="43.299636"><ele>155.5</ele></trkpt>
<trkpt lon="-2.341935" lat="43.299637"><ele>158.5</ele></trkpt>
<trkpt lon="-2.342100" lat="43.299616"><ele>160.25</ele></trkpt>
<trkpt lon="-2.342185" lat="43.299575"><ele>162.5</ele></trkpt>
<trkpt lon="-2.342242" lat="43.299522"><ele>164.75</ele></trkpt>
<trkpt lon="-2.342302" lat="43.299395"><ele>168.5</ele></trkpt>
<trkpt lon="-2.342371" lat="43.299340"><ele>170.0</ele></trkpt>
<trkpt lon="-2.342701" lat="43.299234"><ele>175.0</ele></trkpt>
<trkpt lon="-2.342982" lat="43.299057"><ele>178.5</ele></trkpt>
<trkpt lon="-2.343171" lat="43.298903"><ele>180.0</ele></trkpt>
<trkpt lon="-2.343290" lat="43.298780"><ele>180.0</ele></trkpt>
<trkpt lon="-2.343330" lat="43.298649"><ele>182.0</ele></trkpt>
<trkpt lon="-2.343400" lat="43.298424"><ele>182.0</ele></trkpt>
<trkpt lon="-2.343514" lat="43.298343"><ele>179.5</ele></trkpt>
<trkpt lon="-2.343698" lat="43.298186"><ele>175.0</ele></trkpt>
<trkpt lon="-2.343777" lat="43.298139"><ele>172.5</ele></trkpt>
<trkpt lon="-2.343852" lat="43.298069"><ele>171.0</ele></trkpt>
<trkpt lon="-2.343947" lat="43.298030"><ele>169.0</ele></trkpt>
<trkpt lon="-2.344242" lat="43.297993"><ele>162.75</ele></trkpt>
<trkpt lon="-2.344407" lat="43.297960"><ele>159.25</ele></trkpt>
<trkpt lon="-2.344479" lat="43.297937"><ele>157.75</ele></trkpt>
<trkpt lon="-2.344554" lat="43.297940"><ele>155.5</ele></trkpt>
<trkpt lon="-2.344660" lat="43.297911"><ele>153.25</ele></trkpt>
<trkpt lon="-2.344733" lat="43.297865"><ele>152.75</ele></trkpt>
<trkpt lon="-2.344802" lat="43.297865"><ele>151.25</ele></trkpt>
<trkpt lon="-2.344975" lat="43.297908"><ele>146.25</ele></trkpt>
<trkpt lon="-2.345163" lat="43.297920"><ele>142.25</ele></trkpt>
<trkpt lon="-2.345204" lat="43.297902"><ele>142.0</ele></trkpt>
<trkpt lon="-2.345219" lat="43.297886"><ele>142.25</ele></trkpt>
<trkpt lon="-2.345434" lat="43.297803"><ele>138.25</ele></trkpt>
<trkpt lon="-2.345527" lat="43.297734"><ele>135.5</ele></trkpt>
<trkpt lon="-2.345644" lat="43.297617"><ele>128.25</ele></trkpt>
<trkpt lon="-2.345848" lat="43.297304"><ele>118.0</ele></trkpt>
<trkpt lon="-2.345927" lat="43.297254"><ele>115.75</ele></trkpt>
<trkpt lon="-2.346227" lat="43.297217"><ele>107.75</ele></trkpt>
<trkpt lon="-2.346357" lat="43.297220"><ele>104.5</ele></trkpt>
<trkpt lon="-2.346459" lat="43.297263"><ele>101.5</ele></trkpt>
<trkpt lon="-2.346512" lat="43.297288"><ele>100.0</ele></trkpt>
<trkpt lon="-2.346619" lat="43.297284"><ele>98.75</ele></trkpt>
<trkpt lon="-2.346745" lat="43.297292"><ele>96.5</ele></trkpt>
<trkpt lon="-2.346817" lat="43.297289"><ele>95.5</ele></trkpt>
<trkpt lon="-2.346903" lat="43.297255"><ele>95.25</ele></trkpt>
<trkpt lon="-2.346989" lat="43.297245"><ele>94.5</ele></trkpt>
<trkpt lon="-2.347203" lat="43.297253"><ele>92.0</ele></trkpt>
<trkpt lon="-2.347284" lat="43.297291"><ele>89.75</ele></trkpt>
<trkpt lon="-2.347394" lat="43.297287"><ele>88.5</ele></trkpt>
<trkpt lon="-2.347551" lat="43.297254"><ele>86.5</ele></trkpt>
<trkpt lon="-2.347650" lat="43.297278"><ele>83.25</ele></trkpt>
<trkpt lon="-2.347773" lat="43.297339"><ele>79.25</ele></trkpt>
<trkpt lon="-2.348137" lat="43.297472"><ele>72.25</ele></trkpt>
<trkpt lon="-2.348413" lat="43.297599"><ele>64.25</ele></trkpt>
<trkpt lon="-2.348527" lat="43.297645"><ele>61.25</ele></trkpt>
<trkpt lon="-2.348674" lat="43.297665"><ele>58.75</ele></trkpt>
<trkpt lon="-2.348807" lat="43.297737"><ele>58.75</ele></trkpt>
<trkpt lon="-2.348908" lat="43.297758"><ele>58.75</ele></trkpt>
<trkpt lon="-2.348978" lat="43.297753"><ele>57.75</ele></trkpt>
<trkpt lon="-2.349036" lat="43.297725"><ele>55.75</ele></trkpt>
<trkpt lon="-2.349127" lat="43.297707"><ele>53.75</ele></trkpt>
<trkpt lon="-2.349286" lat="43.297697"><ele>50.0</ele></trkpt>
<trkpt lon="-2.349432" lat="43.297714"><ele>48.25</ele></trkpt>
<trkpt lon="-2.349693" lat="43.297756"><ele>43.5</ele></trkpt>
<trkpt lon="-2.349791" lat="43.297798"><ele>39.5</ele></trkpt>
<trkpt lon="-2.349860" lat="43.297812"><ele>35.5</ele></trkpt>
<trkpt lon="-2.349837" lat="43.297761"><ele>35.0</ele></trkpt>
<trkpt lon="-2.349792" lat="43.297692"><ele>34.0</ele></trkpt>
<trkpt lon="-2.349768" lat="43.297638"><ele>32.25</ele></trkpt>
<trkpt lon="-2.349761" lat="43.297588"><ele>29.75</ele></trkpt>
<trkpt lon="-2.349926" lat="43.297675"><ele>24.0</ele></trkpt>
<trkpt lon="-2.349959" lat="43.297751"><ele>26.0</ele></trkpt>
<trkpt lon="-2.350165" lat="43.297902"><ele>22.0</ele></trkpt>
<trkpt lon="-2.350358" lat="43.298016"><ele>18.75</ele></trkpt>
<trkpt lon="-2.350394" lat="43.298020"><ele>16.75</ele></trkpt>
<trkpt lon="-2.350399" lat="43.297995"><ele>15.5</ele></trkpt>
<trkpt lon="-2.350332" lat="43.297931"><ele>15.5</ele></trkpt>
<trkpt lon="-2.350259" lat="43.297803"><ele>10.75</ele></trkpt>
<trkpt lon="-2.350209" lat="43.297677"><ele>10.25</ele></trkpt>
<trkpt lon="-2.350252" lat="43.297668"><ele>8.5</ele></trkpt>
<trkpt lon="-2.350281" lat="43.297662"><ele>7.5</ele></trkpt>
<trkpt lon="-2.350341" lat="43.297723"><ele>7.25</ele></trkpt>
<trkpt lon="-2.350394" lat="43.297712"><ele>6.75</ele></trkpt>
<trkpt lon="-2.350297" lat="43.297414"><ele>6.5</ele></trkpt>
<trkpt lon="-2.350309" lat="43.297300"><ele>6.0</ele></trkpt>
<trkpt lon="-2.350357" lat="43.297195"><ele>5.25</ele></trkpt>
<trkpt lon="-2.350415" lat="43.297126"><ele>5.0</ele></trkpt>
<trkpt lon="-2.350511" lat="43.297061"><ele>4.75</ele></trkpt>
<trkpt lon="-2.351118" lat="43.296773"><ele>5.0</ele></trkpt>
<trkpt lon="-2.351083" lat="43.296709"><ele>5.0</ele></trkpt>
<trkpt lon="-2.351549" lat="43.296537"><ele>5.0</ele></trkpt>
<trkpt lon="-2.351492" lat="43.296453"><ele>5.0</ele></trkpt>
<trkpt lon="-2.351459" lat="43.296411"><ele>5.0</ele></trkpt>
<trkpt lon="-2.351686" lat="43.296296"><ele>5.25</ele></trkpt>
<trkpt lon="-2.351840" lat="43.296218"><ele>5.0</ele></trkpt>
<trkpt lon="-2.352127" lat="43.296054"><ele>4.75</ele></trkpt>
<trkpt lon="-2.352026" lat="43.295933"><ele>5.25</ele></trkpt>
<trkpt lon="-2.351891" lat="43.295706"><ele>12.75</ele></trkpt>
<trkpt lon="-2.351803" lat="43.295569"><ele>23.0</ele></trkpt>
<trkpt lon="-2.351956" lat="43.295423"><ele>21.5</ele></trkpt>
<trkpt lon="-2.351871" lat="43.295382"><ele>28.0</ele></trkpt>
<trkpt lon="-2.351549" lat="43.295258"><ele>44.0</ele></trkpt>
<trkpt lon="-2.351913" lat="43.295065"><ele>38.25</ele></trkpt>
<trkpt lon="-2.351998" lat="43.294997"><ele>39.75</ele></trkpt>
  </trkseg></trk></gpx>
