<?xml version="1.0" encoding="UTF-8"?>
<gpx version="1.1" creator="compostel-brouter" xmlns="http://www.topografix.com/GPX/1/1">
  <metadata><name>ES-06-Zarautz</name></metadata>
  <trk><name>ES-06-Zarautz</name><trkseg>
<trkpt lon="-1.986002" lat="43.321000"><ele>6.75</ele></trkpt>
<trkpt lon="-1.986156" lat="43.320942"><ele>6.75</ele></trkpt>
<trkpt lon="-1.986137" lat="43.320914"><ele>6.75</ele></trkpt>
<trkpt lon="-1.985234" lat="43.320444"><ele>6.75</ele></trkpt>
<trkpt lon="-1.985125" lat="43.320348"><ele>6.75</ele></trkpt>
<trkpt lon="-1.985049" lat="43.320225"><ele>6.75</ele></trkpt>
<trkpt lon="-1.984959" lat="43.319705"><ele>6.75</ele></trkpt>
<trkpt lon="-1.984956" lat="43.319689"><ele>6.75</ele></trkpt>
<trkpt lon="-1.984892" lat="43.319316"><ele>6.25</ele></trkpt>
<trkpt lon="-1.984878" lat="43.319232"><ele>6.5</ele></trkpt>
<trkpt lon="-1.985012" lat="43.318843"><ele>6.75</ele></trkpt>
<trkpt lon="-1.985344" lat="43.318386"><ele>5.75</ele></trkpt>
<trkpt lon="-1.985540" lat="43.318129"><ele>5.0</ele></trkpt>
<trkpt lon="-1.985786" lat="43.317805"><ele>5.0</ele></trkpt>
<trkpt lon="-1.986336" lat="43.317242"><ele>6.75</ele></trkpt>
<trkpt lon="-1.986651" lat="43.316980"><ele>6.25</ele></trkpt>
<trkpt lon="-1.986953" lat="43.316730"><ele>5.75</ele></trkpt>
<trkpt lon="-1.987625" lat="43.316241"><ele>5.0</ele></trkpt>
<trkpt lon="-1.988325" lat="43.315754"><ele>5.0</ele></trkpt>
<trkpt lon="-1.988394" lat="43.315680"><ele>6.0</ele></trkpt>
<trkpt lon="-1.988458" lat="43.315612"><ele>7.25</ele></trkpt>
<trkpt lon="-1.988928" lat="43.315354"><ele>8.0</ele></trkpt>
<trkpt lon="-1.989193" lat="43.315222"><ele>8.0</ele></trkpt>
<trkpt lon="-1.989894" lat="43.315039"><ele>7.5</ele></trkpt>
<trkpt lon="-1.991082" lat="43.314827"><ele>6.75</ele></trkpt>
<trkpt lon="-1.992259" lat="43.314617"><ele>5.25</ele></trkpt>
<trkpt lon="-1.992554" lat="43.314586"><ele>5.75</ele></trkpt>
<trkpt lon="-1.992863" lat="43.314570"><ele>7.0</ele></trkpt>
<trkpt lon="-1.995698" lat="43.314538"><ele>8.25</ele></trkpt>
<trkpt lon="-1.996028" lat="43.314577"><ele>8.75</ele></trkpt>
<trkpt lon="-1.996573" lat="43.314685"><ele>9.5</ele></trkpt>
<trkpt lon="-1.997326" lat="43.314833"><ele>11.0</ele></trkpt>
<trkpt lon="-1.997492" lat="43.314897"><ele>11.25</ele></trkpt>
<trkpt lon="-1.997876" lat="43.315248"><ele>12.5</ele></trkpt>
<trkpt lon="-1.998106" lat="43.315403"><ele>12.5</ele></trkpt>
<trkpt lon="-1.998211" lat="43.315427"><ele>13.5</ele></trkpt>
<trkpt lon="-1.998548" lat="43.315475"><ele>12.5</ele></trkpt>
<trkpt lon="-1.998739" lat="43.315511"><ele>8.75</ele></trkpt>
<trkpt lon="-1.999257" lat="43.315585"><ele>7.0</ele></trkpt>
<trkpt lon="-1.999557" lat="43.315628"><ele>7.25</ele></trkpt>
<trkpt lon="-2.000327" lat="43.315731"><ele>5.25</ele></trkpt>
<trkpt lon="-2.000810" lat="43.315827"><ele>5.0</ele></trkpt>
<trkpt lon="-2.001034" lat="43.315879"><ele>4.75</ele></trkpt>
<trkpt lon="-2.001425" lat="43.315972"><ele>5.0</ele></trkpt>
<trkpt lon="-2.001681" lat="43.316040"><ele>4.5</ele></trkpt>
<trkpt lon="-2.001977" lat="43.316127"><ele>5.0</ele></trkpt>
<trkpt lon="-2.002514" lat="43.316299"><ele>4.5</ele></trkpt>
<trkpt lon="-2.003033" lat="43.316495"><ele>4.5</ele></trkpt>
<trkpt lon="-2.003328" lat="43.316619"><ele>5.0</ele></trkpt>
<trkpt lon="-2.003574" lat="43.316731"><ele>4.5</ele></trkpt>
<trkpt lon="-2.003832" lat="43.316848"><ele>4.25</ele></trkpt>
<trkpt lon="-2.004123" lat="43.316999"><ele>4.25</ele></trkpt>
<trkpt lon="-2.004353" lat="43.316802"><ele>5.75</ele></trkpt>
<trkpt lon="-2.004495" lat="43.316686"><ele>5.75</ele></trkpt>
<trkpt lon="-2.004556" lat="43.316641"><ele>5.5</ele></trkpt>
<trkpt lon="-2.004572" lat="43.316629"><ele>5.5</ele></trkpt>
<trkpt lon="-2.004614" lat="43.316602"><ele>5.5</ele></trkpt>
<trkpt lon="-2.004679" lat="43.316631"><ele>5.25</ele></trkpt>
<trkpt lon="-2.004764" lat="43.316633"><ele>5.25</ele></trkpt>
<trkpt lon="-2.004916" lat="43.316662"><ele>5.5</ele></trkpt>
<trkpt lon="-2.005447" lat="43.316829"><ele>5.25</ele></trkpt>
<trkpt lon="-2.005523" lat="43.316870"><ele>5.25</ele></trkpt>
<trkpt lon="-2.005635" lat="43.316872"><ele>5.5</ele></trkpt>
<trkpt lon="-2.005724" lat="43.316864"><ele>5.75</ele></trkpt>
<trkpt lon="-2.005714" lat="43.316810"><ele>5.75</ele></trkpt>
<trkpt lon="-2.005780" lat="43.316752"><ele>5.5</ele></trkpt>
<trkpt lon="-2.005891" lat="43.316568"><ele>6.75</ele></trkpt>
<trkpt lon="-2.006079" lat="43.316118"><ele>5.0</ele></trkpt>
<trkpt lon="-2.006058" lat="43.316104"><ele>5.0</ele></trkpt>
<trkpt lon="-2.006167" lat="43.315894"><ele>6.75</ele></trkpt>
<trkpt lon="-2.006186" lat="43.315872"><ele>7.0</ele></trkpt>
<trkpt lon="-2.006348" lat="43.315688"><ele>8.0</ele></trkpt>
<trkpt lon="-2.006429" lat="43.315631"><ele>8.75</ele></trkpt>
<trkpt lon="-2.006502" lat="43.315664"><ele>9.75</ele></trkpt>
<trkpt lon="-2.006522" lat="43.315649"><ele>10.0</ele></trkpt>
<trkpt lon="-2.006723" lat="43.315773"><ele>13.25</ele></trkpt>
<trkpt lon="-2.006918" lat="43.315871"><ele>15.75</ele></trkpt>
<trkpt lon="-2.006975" lat="43.315893"><ele>16.75</ele></trkpt>
<trkpt lon="-2.007187" lat="43.315977"><ele>19.75</ele></trkpt>
<trkpt lon="-2.007344" lat="43.316025"><ele>20.75</ele></trkpt>
<trkpt lon="-2.007460" lat="43.316110"><ele>19.5</ele></trkpt>
<trkpt lon="-2.007533" lat="43.316168"><ele>21.5</ele></trkpt>
<trkpt lon="-2.007649" lat="43.316244"><ele>24.5</ele></trkpt>
<trkpt lon="-2.007700" lat="43.316251"><ele>25.5</ele></trkpt>
<trkpt lon="-2.007756" lat="43.316241"><ele>26.0</ele></trkpt>
<trkpt lon="-2.007841" lat="43.316190"><ele>25.75</ele></trkpt>
<trkpt lon="-2.007896" lat="43.316144"><ele>25.25</ele></trkpt>
<trkpt lon="-2.007969" lat="43.316111"><ele>25.75</ele></trkpt>
<trkpt lon="-2.008025" lat="43.316121"><ele>26.5</ele></trkpt>
<trkpt lon="-2.007940" lat="43.316191"><ele>27.0</ele></trkpt>
<trkpt lon="-2.007953" lat="43.316220"><ele>27.75</ele></trkpt>
<trkpt lon="-2.007949" lat="43.316258"><ele>28.5</ele></trkpt>
<trkpt lon="-2.007945" lat="43.316350"><ele>30.25</ele></trkpt>
<trkpt lon="-2.008077" lat="43.316391"><ele>32.25</ele></trkpt>
<trkpt lon="-2.008100" lat="43.316409"><ele>33.0</ele></trkpt>
<trkpt lon="-2.008128" lat="43.316433"><ele>33.75</ele></trkpt>
<trkpt lon="-2.008002" lat="43.316506"><ele>34.75</ele></trkpt>
<trkpt lon="-2.007947" lat="43.316514"><ele>34.5</ele></trkpt>
<trkpt lon="-2.007875" lat="43.316512"><ele>33.75</ele></trkpt>
<trkpt lon="-2.007871" lat="43.316530"><ele>34.25</ele></trkpt>
<trkpt lon="-2.007907" lat="43.316548"><ele>35.0</ele></trkpt>
<trkpt lon="-2.007965" lat="43.316563"><ele>36.0</ele></trkpt>
<trkpt lon="-2.007912" lat="43.316629"><ele>37.25</ele></trkpt>
<trkpt lon="-2.007890" lat="43.316656"><ele>37.75</ele></trkpt>
<trkpt lon="-2.008080" lat="43.316715"><ele>41.5</ele></trkpt>
<trkpt lon="-2.008017" lat="43.316749"><ele>42.5</ele></trkpt>
<trkpt lon="-2.007987" lat="43.316821"><ele>45.25</ele></trkpt>
<trkpt lon="-2.007730" lat="43.316868"><ele>46.75</ele></trkpt>
<trkpt lon="-2.007681" lat="43.317047"><ele>52.5</ele></trkpt>
<trkpt lon="-2.007787" lat="43.317208"><ele>56.75</ele></trkpt>
<trkpt lon="-2.008062" lat="43.317261"><ele>60.0</ele></trkpt>
<trkpt lon="-2.008409" lat="43.317275"><ele>66.75</ele></trkpt>
<trkpt lon="-2.008724" lat="43.317263"><ele>72.25</ele></trkpt>
<trkpt lon="-2.008843" lat="43.317237"><ele>73.5</ele></trkpt>
<trkpt lon="-2.008992" lat="43.317204"><ele>75.5</ele></trkpt>
<trkpt lon="-2.009123" lat="43.317152"><ele>76.5</ele></trkpt>
<trkpt lon="-2.009801" lat="43.316830"><ele>79.5</ele></trkpt>
<trkpt lon="-2.010169" lat="43.316616"><ele>83.0</ele></trkpt>
<trkpt lon="-2.010197" lat="43.316578"><ele>83.25</ele></trkpt>
<trkpt lon="-2.010230" lat="43.316497"><ele>83.75</ele></trkpt>
<trkpt lon="-2.010265" lat="43.316411"><ele>84.5</ele></trkpt>
<trkpt lon="-2.010253" lat="43.316222"><ele>87.5</ele></trkpt>
<trkpt lon="-2.010200" lat="43.316145"><ele>87.25</ele></trkpt>
<trkpt lon="-2.010135" lat="43.316076"><ele>86.5</ele></trkpt>
<trkpt lon="-2.009984" lat="43.315882"><ele>87.0</ele></trkpt>
<trkpt lon="-2.010003" lat="43.315837"><ele>88.75</ele></trkpt>
<trkpt lon="-2.010073" lat="43.315810"><ele>89.25</ele></trkpt>
<trkpt lon="-2.010148" lat="43.315792"><ele>90.0</ele></trkpt>
<trkpt lon="-2.010454" lat="43.315652"><ele>92.25</ele></trkpt>
<trkpt lon="-2.010501" lat="43.315624"><ele>92.5</ele></trkpt>
<trkpt lon="-2.010534" lat="43.315577"><ele>92.0</ele></trkpt>
<trkpt lon="-2.010622" lat="43.315544"><ele>93.0</ele></trkpt>
<trkpt lon="-2.010724" lat="43.315536"><ele>94.75</ele></trkpt>
<trkpt lon="-2.010805" lat="43.315521"><ele>96.0</ele></trkpt>
<trkpt lon="-2.010916" lat="43.315526"><ele>98.25</ele></trkpt>
<trkpt lon="-2.011084" lat="43.315569"><ele>102.75</ele></trkpt>
<trkpt lon="-2.011200" lat="43.315612"><ele>104.75</ele></trkpt>
<trkpt lon="-2.011419" lat="43.315662"><ele>106.25</ele></trkpt>
<trkpt lon="-2.011671" lat="43.315817"><ele>107.5</ele></trkpt>
<trkpt lon="-2.011770" lat="43.315850"><ele>107.5</ele></trkpt>
<trkpt lon="-2.012022" lat="43.315965"><ele>109.25</ele></trkpt>
<trkpt lon="-2.012146" lat="43.316012"><ele>109.75</ele></trkpt>
<trkpt lon="-2.012307" lat="43.316113"><ele>112.0</ele></trkpt>
<trkpt lon="-2.012754" lat="43.316496"><ele>117.75</ele></trkpt>
<trkpt lon="-2.013274" lat="43.316846"><ele>122.5</ele></trkpt>
<trkpt lon="-2.013686" lat="43.317105"><ele>123.25</ele></trkpt>
<trkpt lon="-2.013976" lat="43.317271"><ele>123.75</ele></trkpt>
<trkpt lon="-2.014191" lat="43.317393"><ele>124.0</ele></trkpt>
<trkpt lon="-2.015317" lat="43.317838"><ele>127.75</ele></trkpt>
<trkpt lon="-2.015488" lat="43.317887"><ele>128.0</ele></trkpt>
<trkpt lon="-2.015648" lat="43.317945"><ele>127.5</ele></trkpt>
<trkpt lon="-2.015940" lat="43.317957"><ele>127.25</ele></trkpt>
<trkpt lon="-2.016261" lat="43.317929"><ele>128.25</ele></trkpt>
<trkpt lon="-2.016269" lat="43.318009"><ele>129.0</ele></trkpt>
<trkpt lon="-2.016292" lat="43.318082"><ele>129.5</ele></trkpt>
<trkpt lon="-2.016346" lat="43.318174"><ele>129.5</ele></trkpt>
<trkpt lon="-2.017257" lat="43.319131"><ele>139.5</ele></trkpt>
<trkpt lon="-2.017342" lat="43.319199"><ele>139.0</ele></trkpt>
<trkpt lon="-2.017434" lat="43.319235"><ele>139.5</ele></trkpt>
<trkpt lon="-2.017522" lat="43.319235"><ele>140.5</ele></trkpt>
<trkpt lon="-2.017621" lat="43.319211"><ele>140.75</ele></trkpt>
<trkpt lon="-2.017702" lat="43.319151"><ele>142.5</ele></trkpt>
<trkpt lon="-2.017877" lat="43.318986"><ele>144.75</ele></trkpt>
<trkpt lon="-2.018076" lat="43.318831"><ele>144.75</ele></trkpt>
<trkpt lon="-2.018192" lat="43.318770"><ele>144.25</ele></trkpt>
<trkpt lon="-2.018298" lat="43.318724"><ele>144.25</ele></trkpt>
<trkpt lon="-2.018396" lat="43.318692"><ele>145.0</ele></trkpt>
<trkpt lon="-2.018501" lat="43.318674"><ele>145.75</ele></trkpt>
<trkpt lon="-2.018635" lat="43.318668"><ele>146.25</ele></trkpt>
<trkpt lon="-2.019320" lat="43.318696"><ele>148.25</ele></trkpt>
<trkpt lon="-2.019490" lat="43.318679"><ele>150.75</ele></trkpt>
<trkpt lon="-2.019632" lat="43.318643"><ele>153.0</ele></trkpt>
<trkpt lon="-2.019714" lat="43.318676"><ele>150.25</ele></trkpt>
<trkpt lon="-2.019881" lat="43.318620"><ele>155.0</ele></trkpt>
<trkpt lon="-2.020031" lat="43.318536"><ele>156.5</ele></trkpt>
<trkpt lon="-2.020135" lat="43.318419"><ele>157.5</ele></trkpt>
<trkpt lon="-2.020241" lat="43.318261"><ele>160.0</ele></trkpt>
<trkpt lon="-2.020294" lat="43.318148"><ele>161.25</ele></trkpt>
<trkpt lon="-2.020969" lat="43.317464"><ele>169.75</ele></trkpt>
<trkpt lon="-2.021047" lat="43.317362"><ele>170.75</ele></trkpt>
<trkpt lon="-2.021214" lat="43.316946"><ele>175.25</ele></trkpt>
<trkpt lon="-2.021283" lat="43.316820"><ele>176.0</ele></trkpt>
<trkpt lon="-2.021357" lat="43.316718"><ele>176.5</ele></trkpt>
<trkpt lon="-2.021463" lat="43.316628"><ele>177.0</ele></trkpt>
<trkpt lon="-2.021629" lat="43.316537"><ele>178.0</ele></trkpt>
<trkpt lon="-2.021862" lat="43.316445"><ele>178.25</ele></trkpt>
<trkpt lon="-2.022058" lat="43.316389"><ele>180.25</ele></trkpt>
<trkpt lon="-2.022310" lat="43.316317"><ele>182.5</ele></trkpt>
<trkpt lon="-2.022571" lat="43.316367"><ele>181.5</ele></trkpt>
<trkpt lon="-2.023145" lat="43.316420"><ele>179.0</ele></trkpt>
<trkpt lon="-2.023370" lat="43.316418"><ele>178.25</ele></trkpt>
<trkpt lon="-2.023424" lat="43.316409"><ele>178.5</ele></trkpt>
<trkpt lon="-2.023622" lat="43.316361"><ele>178.0</ele></trkpt>
<trkpt lon="-2.023770" lat="43.316277"><ele>176.0</ele></trkpt>
<trkpt lon="-2.023812" lat="43.316227"><ele>176.25</ele></trkpt>
<trkpt lon="-2.023842" lat="43.316182"><ele>176.25</ele></trkpt>
<trkpt lon="-2.023863" lat="43.316131"><ele>177.0</ele></trkpt>
<trkpt lon="-2.023896" lat="43.316092"><ele>177.0</ele></trkpt>
<trkpt lon="-2.023960" lat="43.316063"><ele>177.0</ele></trkpt>
<trkpt lon="-2.024247" lat="43.315977"><ele>177.25</ele></trkpt>
<trkpt lon="-2.024376" lat="43.315955"><ele>177.75</ele></trkpt>
<trkpt lon="-2.024636" lat="43.315938"><ele>179.75</ele></trkpt>
<trkpt lon="-2.025111" lat="43.315721"><ele>183.0</ele></trkpt>
<trkpt lon="-2.025532" lat="43.315553"><ele>184.25</ele></trkpt>
<trkpt lon="-2.026007" lat="43.315347"><ele>187.25</ele></trkpt>
<trkpt lon="-2.027074" lat="43.314906"><ele>193.5</ele></trkpt>
<trkpt lon="-2.027212" lat="43.315064"><ele>191.5</ele></trkpt>
<trkpt lon="-2.027349" lat="43.315165"><ele>189.25</ele></trkpt>
<trkpt lon="-2.027548" lat="43.315175"><ele>188.5</ele></trkpt>
<trkpt lon="-2.027724" lat="43.315168"><ele>187.5</ele></trkpt>
<trkpt lon="-2.027801" lat="43.315126"><ele>187.25</ele></trkpt>
<trkpt lon="-2.027843" lat="43.315103"><ele>187.0</ele></trkpt>
<trkpt lon="-2.028053" lat="43.314906"><ele>186.25</ele></trkpt>
<trkpt lon="-2.028218" lat="43.314884"><ele>185.5</ele></trkpt>
<trkpt lon="-2.028668" lat="43.314838"><ele>184.5</ele></trkpt>
<trkpt lon="-2.028706" lat="43.314848"><ele>184.0</ele></trkpt>
<trkpt lon="-2.028828" lat="43.314885"><ele>182.75</ele></trkpt>
<trkpt lon="-2.028955" lat="43.314935"><ele>180.75</ele></trkpt>
<trkpt lon="-2.029168" lat="43.314994"><ele>179.0</ele></trkpt>
<trkpt lon="-2.029336" lat="43.314971"><ele>178.75</ele></trkpt>
<trkpt lon="-2.029615" lat="43.314897"><ele>178.75</ele></trkpt>
<trkpt lon="-2.029886" lat="43.314801"><ele>181.0</ele></trkpt>
<trkpt lon="-2.030663" lat="43.314372"><ele>184.5</ele></trkpt>
<trkpt lon="-2.031226" lat="43.313923"><ele>181.5</ele></trkpt>
<trkpt lon="-2.031462" lat="43.313807"><ele>180.5</ele></trkpt>
<trkpt lon="-2.031689" lat="43.313727"><ele>179.75</ele></trkpt>
<trkpt lon="-2.031896" lat="43.313404"><ele>183.75</ele></trkpt>
<trkpt lon="-2.032082" lat="43.313287"><ele>185.0</ele></trkpt>
<trkpt lon="-2.032343" lat="43.313207"><ele>184.5</ele></trkpt>
<trkpt lon="-2.032679" lat="43.313140"><ele>184.0</ele></trkpt>
<trkpt lon="-2.033251" lat="43.313148"><ele>183.25</ele></trkpt>
<trkpt lon="-2.033557" lat="43.313086"><ele>183.25</ele></trkpt>
<trkpt lon="-2.034225" lat="43.312883"><ele>183.75</ele></trkpt>
<trkpt lon="-2.034964" lat="43.312708"><ele>183.75</ele></trkpt>
<trkpt lon="-2.035628" lat="43.312510"><ele>181.0</ele></trkpt>
<trkpt lon="-2.035789" lat="43.312470"><ele>180.0</ele></trkpt>
<trkpt lon="-2.035948" lat="43.312424"><ele>178.5</ele></trkpt>
<trkpt lon="-2.036153" lat="43.312341"><ele>177.5</ele></trkpt>
<trkpt lon="-2.036288" lat="43.312297"><ele>177.75</ele></trkpt>
<trkpt lon="-2.036636" lat="43.312194"><ele>177.25</ele></trkpt>
<trkpt lon="-2.036955" lat="43.312101"><ele>177.5</ele></trkpt>
<trkpt lon="-2.037732" lat="43.312008"><ele>176.5</ele></trkpt>
<trkpt lon="-2.038250" lat="43.311828"><ele>175.75</ele></trkpt>
<trkpt lon="-2.038560" lat="43.311748"><ele>176.75</ele></trkpt>
<trkpt lon="-2.038881" lat="43.311782"><ele>175.5</ele></trkpt>
<trkpt lon="-2.039640" lat="43.311902"><ele>166.75</ele></trkpt>
<trkpt lon="-2.039709" lat="43.311859"><ele>167.75</ele></trkpt>
<trkpt lon="-2.041404" lat="43.311079"><ele>167.75</ele></trkpt>
<trkpt lon="-2.041672" lat="43.311003"><ele>168.0</ele></trkpt>
<trkpt lon="-2.041849" lat="43.310888"><ele>168.75</ele></trkpt>
<trkpt lon="-2.041892" lat="43.310720"><ele>170.5</ele></trkpt>
<trkpt lon="-2.041939" lat="43.310418"><ele>174.0</ele></trkpt>
<trkpt lon="-2.042126" lat="43.310120"><ele>176.25</ele></trkpt>
<trkpt lon="-2.042144" lat="43.309941"><ele>178.25</ele></trkpt>
<trkpt lon="-2.042181" lat="43.309895"><ele>178.25</ele></trkpt>
<trkpt lon="-2.042392" lat="43.309766"><ele>178.0</ele></trkpt>
<trkpt lon="-2.042684" lat="43.309622"><ele>178.0</ele></trkpt>
<trkpt lon="-2.043414" lat="43.309444"><ele>176.5</ele></trkpt>
<trkpt lon="-2.043614" lat="43.309358"><ele>176.25</ele></trkpt>
<trkpt lon="-2.043470" lat="43.309171"><ele>178.25</ele></trkpt>
<trkpt lon="-2.043613" lat="43.309048"><ele>178.5</ele></trkpt>
<trkpt lon="-2.043851" lat="43.308873"><ele>178.75</ele></trkpt>
<trkpt lon="-2.044176" lat="43.308698"><ele>179.5</ele></trkpt>
<trkpt lon="-2.044273" lat="43.308646"><ele>180.0</ele></trkpt>
<trkpt lon="-2.044950" lat="43.308361"><ele>183.0</ele></trkpt>
<trkpt lon="-2.045759" lat="43.308125"><ele>186.5</ele></trkpt>
<trkpt lon="-2.045967" lat="43.308008"><ele>189.5</ele></trkpt>
<trkpt lon="-2.046239" lat="43.307891"><ele>190.5</ele></trkpt>
<trkpt lon="-2.046600" lat="43.307780"><ele>191.5</ele></trkpt>
<trkpt lon="-2.046853" lat="43.307710"><ele>191.5</ele></trkpt>
<trkpt lon="-2.047030" lat="43.307619"><ele>192.75</ele></trkpt>
<trkpt lon="-2.047132" lat="43.307556"><ele>193.5</ele></trkpt>
<trkpt lon="-2.047296" lat="43.307454"><ele>194.5</ele></trkpt>
<trkpt lon="-2.047375" lat="43.307412"><ele>195.0</ele></trkpt>
<trkpt lon="-2.047664" lat="43.307352"><ele>194.5</ele></trkpt>
<trkpt lon="-2.048355" lat="43.307187"><ele>190.0</ele></trkpt>
<trkpt lon="-2.048705" lat="43.307139"><ele>188.75</ele></trkpt>
<trkpt lon="-2.049057" lat="43.307078"><ele>187.25</ele></trkpt>
<trkpt lon="-2.049403" lat="43.306981"><ele>187.5</ele></trkpt>
<trkpt lon="-2.049702" lat="43.306947"><ele>187.75</ele></trkpt>
<trkpt lon="-2.050068" lat="43.306957"><ele>186.25</ele></trkpt>
<trkpt lon="-2.050400" lat="43.306973"><ele>184.75</ele></trkpt>
<trkpt lon="-2.050567" lat="43.306987"><ele>184.0</ele></trkpt>
<trkpt lon="-2.050728" lat="43.306968"><ele>184.25</ele></trkpt>
<trkpt lon="-2.052289" lat="43.306651"><ele>190.25</ele></trkpt>
<trkpt lon="-2.052512" lat="43.306645"><ele>190.5</ele></trkpt>
<trkpt lon="-2.052721" lat="43.306674"><ele>191.25</ele></trkpt>
<trkpt lon="-2.052904" lat="43.306723"><ele>191.75</ele></trkpt>
<trkpt lon="-2.053255" lat="43.306821"><ele>192.25</ele></trkpt>
<trkpt lon="-2.053902" lat="43.306781"><ele>192.25</ele></trkpt>
<trkpt lon="-2.054346" lat="43.306620"><ele>195.75</ele></trkpt>
<trkpt lon="-2.054872" lat="43.306517"><ele>198.75</ele></trkpt>
<trkpt lon="-2.055062" lat="43.306474"><ele>199.0</ele></trkpt>
<trkpt lon="-2.055144" lat="43.306388"><ele>200.25</ele></trkpt>
<trkpt lon="-2.055601" lat="43.306346"><ele>198.75</ele></trkpt>
<trkpt lon="-2.055817" lat="43.306377"><ele>198.25</ele></trkpt>
<trkpt lon="-2.055947" lat="43.306410"><ele>197.5</ele></trkpt>
<trkpt lon="-2.056117" lat="43.306424"><ele>197.0</ele></trkpt>
<trkpt lon="-2.056499" lat="43.306194"><ele>200.5</ele></trkpt>
<trkpt lon="-2.056739" lat="43.306079"><ele>203.0</ele></trkpt>
<trkpt lon="-2.057156" lat="43.305965"><ele>205.0</ele></trkpt>
<trkpt lon="-2.057329" lat="43.305907"><ele>205.25</ele></trkpt>
<trkpt lon="-2.057391" lat="43.305866"><ele>206.0</ele></trkpt>
<trkpt lon="-2.057536" lat="43.305766"><ele>207.25</ele></trkpt>
<trkpt lon="-2.058165" lat="43.305552"><ele>211.25</ele></trkpt>
<trkpt lon="-2.058481" lat="43.305481"><ele>213.5</ele></trkpt>
<trkpt lon="-2.058819" lat="43.305418"><ele>216.0</ele></trkpt>
<trkpt lon="-2.059225" lat="43.305353"><ele>218.75</ele></trkpt>
<trkpt lon="-2.059516" lat="43.305345"><ele>219.25</ele></trkpt>
<trkpt lon="-2.059595" lat="43.305337"><ele>219.75</ele></trkpt>
<trkpt lon="-2.059644" lat="43.305332"><ele>220.0</ele></trkpt>
<trkpt lon="-2.059950" lat="43.305203"><ele>222.0</ele></trkpt>
<trkpt lon="-2.060305" lat="43.305064"><ele>224.0</ele></trkpt>
<trkpt lon="-2.060539" lat="43.304990"><ele>222.25</ele></trkpt>
<trkpt lon="-2.060965" lat="43.304804"><ele>220.25</ele></trkpt>
<trkpt lon="-2.061058" lat="43.304779"><ele>221.0</ele></trkpt>
<trkpt lon="-2.061148" lat="43.304796"><ele>221.75</ele></trkpt>
<trkpt lon="-2.061223" lat="43.304832"><ele>223.0</ele></trkpt>
<trkpt lon="-2.061259" lat="43.304857"><ele>223.75</ele></trkpt>
<trkpt lon="-2.061432" lat="43.304978"><ele>227.5</ele></trkpt>
<trkpt lon="-2.061507" lat="43.305030"><ele>227.0</ele></trkpt>
<trkpt lon="-2.061718" lat="43.304870"><ele>231.5</ele></trkpt>
<trkpt lon="-2.061981" lat="43.304736"><ele>235.5</ele></trkpt>
<trkpt lon="-2.062251" lat="43.304677"><ele>235.75</ele></trkpt>
<trkpt lon="-2.062377" lat="43.304664"><ele>236.25</ele></trkpt>
<trkpt lon="-2.062661" lat="43.304635"><ele>236.25</ele></trkpt>
<trkpt lon="-2.062787" lat="43.304622"><ele>236.0</ele></trkpt>
<trkpt lon="-2.063365" lat="43.304479"><ele>235.5</ele></trkpt>
<trkpt lon="-2.063615" lat="43.304373"><ele>236.75</ele></trkpt>
<trkpt lon="-2.063766" lat="43.304308"><ele>236.75</ele></trkpt>
<trkpt lon="-2.064055" lat="43.304139"><ele>235.75</ele></trkpt>
<trkpt lon="-2.064275" lat="43.303953"><ele>234.75</ele></trkpt>
<trkpt lon="-2.064382" lat="43.303624"><ele>233.0</ele></trkpt>
<trkpt lon="-2.064606" lat="43.303304"><ele>233.5</ele></trkpt>
<trkpt lon="-2.064679" lat="43.303262"><ele>233.0</ele></trkpt>
<trkpt lon="-2.064773" lat="43.303281"><ele>233.25</ele></trkpt>
<trkpt lon="-2.064891" lat="43.303519"><ele>231.25</ele></trkpt>
<trkpt lon="-2.065098" lat="43.303663"><ele>232.75</ele></trkpt>
<trkpt lon="-2.065316" lat="43.303703"><ele>235.0</ele></trkpt>
<trkpt lon="-2.065510" lat="43.303670"><ele>237.25</ele></trkpt>
<trkpt lon="-2.065849" lat="43.303568"><ele>239.25</ele></trkpt>
<trkpt lon="-2.066128" lat="43.303463"><ele>239.75</ele></trkpt>
<trkpt lon="-2.067149" lat="43.303079"><ele>246.5</ele></trkpt>
<trkpt lon="-2.067737" lat="43.302874"><ele>247.0</ele></trkpt>
<trkpt lon="-2.068168" lat="43.302674"><ele>249.75</ele></trkpt>
<trkpt lon="-2.068421" lat="43.302629"><ele>249.25</ele></trkpt>
<trkpt lon="-2.068707" lat="43.302645"><ele>246.75</ele></trkpt>
<trkpt lon="-2.068761" lat="43.302636"><ele>246.25</ele></trkpt>
<trkpt lon="-2.069002" lat="43.302540"><ele>246.75</ele></trkpt>
<trkpt lon="-2.069370" lat="43.302404"><ele>247.75</ele></trkpt>
<trkpt lon="-2.069506" lat="43.302419"><ele>246.0</ele></trkpt>
<trkpt lon="-2.069625" lat="43.302395"><ele>247.25</ele></trkpt>
<trkpt lon="-2.070107" lat="43.302234"><ele>239.5</ele></trkpt>
<trkpt lon="-2.070281" lat="43.302161"><ele>236.0</ele></trkpt>
<trkpt lon="-2.070422" lat="43.302039"><ele>236.75</ele></trkpt>
<trkpt lon="-2.070503" lat="43.302014"><ele>236.5</ele></trkpt>
<trkpt lon="-2.070782" lat="43.302179"><ele>231.75</ele></trkpt>
<trkpt lon="-2.070854" lat="43.302268"><ele>230.25</ele></trkpt>
<trkpt lon="-2.070946" lat="43.302327"><ele>231.75</ele></trkpt>
<trkpt lon="-2.070980" lat="43.302335"><ele>232.75</ele></trkpt>
<trkpt lon="-2.071042" lat="43.302434"><ele>231.25</ele></trkpt>
<trkpt lon="-2.071180" lat="43.302531"><ele>230.0</ele></trkpt>
<trkpt lon="-2.071472" lat="43.302582"><ele>228.75</ele></trkpt>
<trkpt lon="-2.071811" lat="43.302528"><ele>230.0</ele></trkpt>
<trkpt lon="-2.072190" lat="43.302409"><ele>232.5</ele></trkpt>
<trkpt lon="-2.072588" lat="43.302315"><ele>234.25</ele></trkpt>
<trkpt lon="-2.072658" lat="43.302319"><ele>234.0</ele></trkpt>
<trkpt lon="-2.072854" lat="43.302398"><ele>233.5</ele></trkpt>
<trkpt lon="-2.072961" lat="43.302487"><ele>233.5</ele></trkpt>
<trkpt lon="-2.072996" lat="43.302502"><ele>234.0</ele></trkpt>
<trkpt lon="-2.073054" lat="43.302477"><ele>235.0</ele></trkpt>
<trkpt lon="-2.073118" lat="43.302157"><ele>236.5</ele></trkpt>
<trkpt lon="-2.073179" lat="43.301934"><ele>239.0</ele></trkpt>
<trkpt lon="-2.073202" lat="43.301915"><ele>239.25</ele></trkpt>
<trkpt lon="-2.073248" lat="43.301901"><ele>239.0</ele></trkpt>
<trkpt lon="-2.073460" lat="43.301935"><ele>234.75</ele></trkpt>
<trkpt lon="-2.073709" lat="43.301914"><ele>232.25</ele></trkpt>
<trkpt lon="-2.073890" lat="43.301882"><ele>230.0</ele></trkpt>
<trkpt lon="-2.074017" lat="43.301840"><ele>228.5</ele></trkpt>
<trkpt lon="-2.074129" lat="43.301818"><ele>226.75</ele></trkpt>
<trkpt lon="-2.074284" lat="43.301771"><ele>224.75</ele></trkpt>
<trkpt lon="-2.074438" lat="43.301733"><ele>222.25</ele></trkpt>
<trkpt lon="-2.074633" lat="43.301656"><ele>219.75</ele></trkpt>
<trkpt lon="-2.074712" lat="43.301600"><ele>217.25</ele></trkpt>
<trkpt lon="-2.074723" lat="43.301403"><ele>214.0</ele></trkpt>
<trkpt lon="-2.074752" lat="43.301222"><ele>212.5</ele></trkpt>
<trkpt lon="-2.074813" lat="43.301098"><ele>211.25</ele></trkpt>
<trkpt lon="-2.075001" lat="43.301003"><ele>209.75</ele></trkpt>
<trkpt lon="-2.075100" lat="43.300980"><ele>210.5</ele></trkpt>
<trkpt lon="-2.075148" lat="43.301009"><ele>210.25</ele></trkpt>
<trkpt lon="-2.075148" lat="43.301019"><ele>210.0</ele></trkpt>
<trkpt lon="-2.075305" lat="43.301102"><ele>209.25</ele></trkpt>
<trkpt lon="-2.075368" lat="43.301105"><ele>209.75</ele></trkpt>
<trkpt lon="-2.075438" lat="43.301109"><ele>210.0</ele></trkpt>
<trkpt lon="-2.075639" lat="43.301089"><ele>211.5</ele></trkpt>
<trkpt lon="-2.075804" lat="43.301046"><ele>213.0</ele></trkpt>
<trkpt lon="-2.075955" lat="43.300990"><ele>215.25</ele></trkpt>
<trkpt lon="-2.076066" lat="43.300961"><ele>216.5</ele></trkpt>
<trkpt lon="-2.076320" lat="43.300943"><ele>219.5</ele></trkpt>
<trkpt lon="-2.076536" lat="43.301029"><ele>219.0</ele></trkpt>
<trkpt lon="-2.076734" lat="43.300996"><ele>221.25</ele></trkpt>
<trkpt lon="-2.076860" lat="43.300996"><ele>220.75</ele></trkpt>
<trkpt lon="-2.077287" lat="43.300862"><ele>222.5</ele></trkpt>
<trkpt lon="-2.077594" lat="43.300753"><ele>221.0</ele></trkpt>
<trkpt lon="-2.077820" lat="43.300653"><ele>220.25</ele></trkpt>
<trkpt lon="-2.077998" lat="43.300599"><ele>218.0</ele></trkpt>
<trkpt lon="-2.078139" lat="43.300515"><ele>218.5</ele></trkpt>
<trkpt lon="-2.078182" lat="43.300500"><ele>219.0</ele></trkpt>
<trkpt lon="-2.078224" lat="43.300500"><ele>219.0</ele></trkpt>
<trkpt lon="-2.078268" lat="43.300531"><ele>217.5</ele></trkpt>
<trkpt lon="-2.078341" lat="43.300615"><ele>213.75</ele></trkpt>
<trkpt lon="-2.078365" lat="43.300663"><ele>212.5</ele></trkpt>
<trkpt lon="-2.078525" lat="43.300799"><ele>211.5</ele></trkpt>
<trkpt lon="-2.078579" lat="43.300857"><ele>211.5</ele></trkpt>
<trkpt lon="-2.078633" lat="43.300880"><ele>211.75</ele></trkpt>
<trkpt lon="-2.078745" lat="43.300897"><ele>211.25</ele></trkpt>
<trkpt lon="-2.078893" lat="43.300636"><ele>216.0</ele></trkpt>
<trkpt lon="-2.078924" lat="43.300547"><ele>217.25</ele></trkpt>
<trkpt lon="-2.079007" lat="43.300408"><ele>219.5</ele></trkpt>
<trkpt lon="-2.079301" lat="43.300073"><ele>223.5</ele></trkpt>
<trkpt lon="-2.079388" lat="43.299887"><ele>224.5</ele></trkpt>
<trkpt lon="-2.079397" lat="43.299764"><ele>225.5</ele></trkpt>
<trkpt lon="-2.079366" lat="43.299555"><ele>226.5</ele></trkpt>
<trkpt lon="-2.079364" lat="43.299467"><ele>226.5</ele></trkpt>
<trkpt lon="-2.079392" lat="43.299377"><ele>227.5</ele></trkpt>
<trkpt lon="-2.079426" lat="43.299321"><ele>228.25</ele></trkpt>
<trkpt lon="-2.079440" lat="43.299297"><ele>228.75</ele></trkpt>
<trkpt lon="-2.079517" lat="43.299257"><ele>228.75</ele></trkpt>
<trkpt lon="-2.079597" lat="43.299232"><ele>228.5</ele></trkpt>
<trkpt lon="-2.079734" lat="43.299253"><ele>227.0</ele></trkpt>
<trkpt lon="-2.079837" lat="43.299311"><ele>228.5</ele></trkpt>
<trkpt lon="-2.079987" lat="43.299440"><ele>229.75</ele></trkpt>
<trkpt lon="-2.080138" lat="43.299599"><ele>231.5</ele></trkpt>
<trkpt lon="-2.080221" lat="43.299699"><ele>231.75</ele></trkpt>
<trkpt lon="-2.080553" lat="43.299910"><ele>233.0</ele></trkpt>
<trkpt lon="-2.080643" lat="43.300040"><ele>233.0</ele></trkpt>
<trkpt lon="-2.080773" lat="43.300255"><ele>236.0</ele></trkpt>
<trkpt lon="-2.080810" lat="43.300281"><ele>237.0</ele></trkpt>
<trkpt lon="-2.080901" lat="43.300301"><ele>238.0</ele></trkpt>
<trkpt lon="-2.080927" lat="43.300217"><ele>238.75</ele></trkpt>
<trkpt lon="-2.080924" lat="43.300121"><ele>239.0</ele></trkpt>
<trkpt lon="-2.080950" lat="43.300029"><ele>239.75</ele></trkpt>
<trkpt lon="-2.081044" lat="43.299913"><ele>242.25</ele></trkpt>
<trkpt lon="-2.081211" lat="43.299802"><ele>243.75</ele></trkpt>
<trkpt lon="-2.081266" lat="43.299758"><ele>244.25</ele></trkpt>
<trkpt lon="-2.081294" lat="43.299725"><ele>244.5</ele></trkpt>
<trkpt lon="-2.081491" lat="43.299623"><ele>245.5</ele></trkpt>
<trkpt lon="-2.081803" lat="43.299428"><ele>244.0</ele></trkpt>
<trkpt lon="-2.082124" lat="43.299187"><ele>240.75</ele></trkpt>
<trkpt lon="-2.082720" lat="43.298867"><ele>241.0</ele></trkpt>
<trkpt lon="-2.082730" lat="43.298868"><ele>240.75</ele></trkpt>
<trkpt lon="-2.083025" lat="43.298892"><ele>241.5</ele></trkpt>
<trkpt lon="-2.083234" lat="43.298848"><ele>243.75</ele></trkpt>
<trkpt lon="-2.083454" lat="43.298719"><ele>246.25</ele></trkpt>
<trkpt lon="-2.083583" lat="43.298589"><ele>247.25</ele></trkpt>
<trkpt lon="-2.083938" lat="43.298440"><ele>246.25</ele></trkpt>
<trkpt lon="-2.084243" lat="43.298250"><ele>247.0</ele></trkpt>
<trkpt lon="-2.084507" lat="43.298037"><ele>245.25</ele></trkpt>
<trkpt lon="-2.084667" lat="43.297855"><ele>244.75</ele></trkpt>
<trkpt lon="-2.084750" lat="43.297838"><ele>244.25</ele></trkpt>
<trkpt lon="-2.084802" lat="43.297858"><ele>245.0</ele></trkpt>
<trkpt lon="-2.084934" lat="43.297943"><ele>246.25</ele></trkpt>
<trkpt lon="-2.085039" lat="43.297988"><ele>247.25</ele></trkpt>
<trkpt lon="-2.085160" lat="43.298004"><ele>247.75</ele></trkpt>
<trkpt lon="-2.085476" lat="43.297995"><ele>249.5</ele></trkpt>
<trkpt lon="-2.085680" lat="43.298051"><ele>249.25</ele></trkpt>
<trkpt lon="-2.085822" lat="43.298062"><ele>250.75</ele></trkpt>
<trkpt lon="-2.085917" lat="43.298032"><ele>252.0</ele></trkpt>
<trkpt lon="-2.085978" lat="43.297994"><ele>253.25</ele></trkpt>
<trkpt lon="-2.086370" lat="43.297666"><ele>260.5</ele></trkpt>
<trkpt lon="-2.086482" lat="43.297513"><ele>263.0</ele></trkpt>
<trkpt lon="-2.086613" lat="43.297289"><ele>266.25</ele></trkpt>
<trkpt lon="-2.086762" lat="43.297160"><ele>267.0</ele></trkpt>
<trkpt lon="-2.087163" lat="43.296889"><ele>269.75</ele></trkpt>
<trkpt lon="-2.087414" lat="43.296739"><ele>271.0</ele></trkpt>
<trkpt lon="-2.087693" lat="43.296594"><ele>272.75</ele></trkpt>
<trkpt lon="-2.087985" lat="43.296475"><ele>273.25</ele></trkpt>
<trkpt lon="-2.088171" lat="43.296390"><ele>274.5</ele></trkpt>
<trkpt lon="-2.088384" lat="43.296262"><ele>275.25</ele></trkpt>
<trkpt lon="-2.088531" lat="43.296152"><ele>274.75</ele></trkpt>
<trkpt lon="-2.088597" lat="43.296138"><ele>273.75</ele></trkpt>
<trkpt lon="-2.088636" lat="43.296147"><ele>273.25</ele></trkpt>
<trkpt lon="-2.088832" lat="43.296186"><ele>272.75</ele></trkpt>
<trkpt lon="-2.088983" lat="43.296178"><ele>273.0</ele></trkpt>
<trkpt lon="-2.089189" lat="43.296112"><ele>274.5</ele></trkpt>
<trkpt lon="-2.089306" lat="43.296054"><ele>275.75</ele></trkpt>
<trkpt lon="-2.089488" lat="43.296046"><ele>275.25</ele></trkpt>
<trkpt lon="-2.089540" lat="43.296107"><ele>274.0</ele></trkpt>
<trkpt lon="-2.089564" lat="43.296218"><ele>274.5</ele></trkpt>
<trkpt lon="-2.089607" lat="43.296322"><ele>275.5</ele></trkpt>
<trkpt lon="-2.089657" lat="43.296392"><ele>277.0</ele></trkpt>
<trkpt lon="-2.089760" lat="43.296452"><ele>279.0</ele></trkpt>
<trkpt lon="-2.089859" lat="43.296474"><ele>281.0</ele></trkpt>
<trkpt lon="-2.089978" lat="43.296464"><ele>284.25</ele></trkpt>
<trkpt lon="-2.090380" lat="43.296316"><ele>288.25</ele></trkpt>
<trkpt lon="-2.090535" lat="43.296232"><ele>289.5</ele></trkpt>
<trkpt lon="-2.090416" lat="43.296192"><ele>290.25</ele></trkpt>
<trkpt lon="-2.090334" lat="43.296131"><ele>291.25</ele></trkpt>
<trkpt lon="-2.090318" lat="43.296068"><ele>292.0</ele></trkpt>
<trkpt lon="-2.090366" lat="43.296001"><ele>292.75</ele></trkpt>
<trkpt lon="-2.090507" lat="43.295871"><ele>295.0</ele></trkpt>
<trkpt lon="-2.090698" lat="43.295736"><ele>297.25</ele></trkpt>
<trkpt lon="-2.090949" lat="43.295602"><ele>298.25</ele></trkpt>
<trkpt lon="-2.091516" lat="43.295339"><ele>297.75</ele></trkpt>
<trkpt lon="-2.092227" lat="43.295027"><ele>301.5</ele></trkpt>
<trkpt lon="-2.092511" lat="43.294894"><ele>304.0</ele></trkpt>
<trkpt lon="-2.092591" lat="43.294806"><ele>305.25</ele></trkpt>
<trkpt lon="-2.092576" lat="43.294762"><ele>306.25</ele></trkpt>
<trkpt lon="-2.092735" lat="43.294739"><ele>305.0</ele></trkpt>
<trkpt lon="-2.093052" lat="43.294730"><ele>301.75</ele></trkpt>
<trkpt lon="-2.093154" lat="43.294548"><ele>304.5</ele></trkpt>
<trkpt lon="-2.093267" lat="43.294443"><ele>305.75</ele></trkpt>
<trkpt lon="-2.093428" lat="43.294325"><ele>306.0</ele></trkpt>
<trkpt lon="-2.093719" lat="43.294183"><ele>305.5</ele></trkpt>
<trkpt lon="-2.094188" lat="43.293991"><ele>305.25</ele></trkpt>
<trkpt lon="-2.094618" lat="43.293849"><ele>306.25</ele></trkpt>
<trkpt lon="-2.094947" lat="43.293715"><ele>307.5</ele></trkpt>
<trkpt lon="-2.095196" lat="43.293674"><ele>308.5</ele></trkpt>
<trkpt lon="-2.095398" lat="43.293744"><ele>308.0</ele></trkpt>
<trkpt lon="-2.095647" lat="43.293736"><ele>309.75</ele></trkpt>
<trkpt lon="-2.095918" lat="43.293677"><ele>309.75</ele></trkpt>
<trkpt lon="-2.096124" lat="43.293587"><ele>309.25</ele></trkpt>
<trkpt lon="-2.096357" lat="43.293427"><ele>309.0</ele></trkpt>
<trkpt lon="-2.096500" lat="43.293351"><ele>308.75</ele></trkpt>
<trkpt lon="-2.097016" lat="43.293136"><ele>309.75</ele></trkpt>
<trkpt lon="-2.097196" lat="43.293044"><ele>310.5</ele></trkpt>
<trkpt lon="-2.097470" lat="43.292931"><ele>311.25</ele></trkpt>
<trkpt lon="-2.097670" lat="43.292834"><ele>312.5</ele></trkpt>
<trkpt lon="-2.098241" lat="43.292601"><ele>314.75</ele></trkpt>
<trkpt lon="-2.098327" lat="43.292532"><ele>314.75</ele></trkpt>
<trkpt lon="-2.098542" lat="43.293043"><ele>313.0</ele></trkpt>
<trkpt lon="-2.098678" lat="43.293249"><ele>314.5</ele></trkpt>
<trkpt lon="-2.098840" lat="43.293409"><ele>317.25</ele></trkpt>
<trkpt lon="-2.098829" lat="43.293489"><ele>318.0</ele></trkpt>
<trkpt lon="-2.098759" lat="43.294042"><ele>318.75</ele></trkpt>
<trkpt lon="-2.098875" lat="43.294301"><ele>321.0</ele></trkpt>
<trkpt lon="-2.099130" lat="43.294457"><ele>321.25</ele></trkpt>
<trkpt lon="-2.099379" lat="43.294555"><ele>320.5</ele></trkpt>
<trkpt lon="-2.099931" lat="43.294525"><ele>321.25</ele></trkpt>
<trkpt lon="-2.101069" lat="43.294487"><ele>323.5</ele></trkpt>
<trkpt lon="-2.101578" lat="43.294390"><ele>326.0</ele></trkpt>
<trkpt lon="-2.102037" lat="43.294361"><ele>329.25</ele></trkpt>
<trkpt lon="-2.102281" lat="43.294388"><ele>329.75</ele></trkpt>
<trkpt lon="-2.102474" lat="43.294374"><ele>330.5</ele></trkpt>
<trkpt lon="-2.103149" lat="43.294204"><ele>333.25</ele></trkpt>
<trkpt lon="-2.103544" lat="43.294143"><ele>334.0</ele></trkpt>
<trkpt lon="-2.103872" lat="43.294066"><ele>335.0</ele></trkpt>
<trkpt lon="-2.104163" lat="43.293969"><ele>335.75</ele></trkpt>
<trkpt lon="-2.104358" lat="43.293859"><ele>337.75</ele></trkpt>
<trkpt lon="-2.104467" lat="43.293765"><ele>339.0</ele></trkpt>
<trkpt lon="-2.104560" lat="43.293645"><ele>340.75</ele></trkpt>
<trkpt lon="-2.104530" lat="43.293253"><ele>347.0</ele></trkpt>
<trkpt lon="-2.104639" lat="43.293005"><ele>349.75</ele></trkpt>
<trkpt lon="-2.104807" lat="43.292816"><ele>352.25</ele></trkpt>
<trkpt lon="-2.104800" lat="43.292781"><ele>353.25</ele></trkpt>
<trkpt lon="-2.104910" lat="43.292719"><ele>352.5</ele></trkpt>
<trkpt lon="-2.105897" lat="43.292505"><ele>356.25</ele></trkpt>
<trkpt lon="-2.106770" lat="43.292436"><ele>359.25</ele></trkpt>
<trkpt lon="-2.107033" lat="43.292420"><ele>359.25</ele></trkpt>
<trkpt lon="-2.107129" lat="43.292441"><ele>359.25</ele></trkpt>
<trkpt lon="-2.107226" lat="43.292436"><ele>359.25</ele></trkpt>
<trkpt lon="-2.107320" lat="43.292409"><ele>358.75</ele></trkpt>
<trkpt lon="-2.107534" lat="43.292394"><ele>357.75</ele></trkpt>
<trkpt lon="-2.107584" lat="43.292383"><ele>357.25</ele></trkpt>
<trkpt lon="-2.107648" lat="43.292368"><ele>356.75</ele></trkpt>
<trkpt lon="-2.107730" lat="43.292325"><ele>356.5</ele></trkpt>
<trkpt lon="-2.108316" lat="43.292203"><ele>356.0</ele></trkpt>
<trkpt lon="-2.108605" lat="43.292132"><ele>351.25</ele></trkpt>
<trkpt lon="-2.108835" lat="43.292091"><ele>350.0</ele></trkpt>
<trkpt lon="-2.108903" lat="43.292142"><ele>350.25</ele></trkpt>
<trkpt lon="-2.109174" lat="43.292175"><ele>348.25</ele></trkpt>
<trkpt lon="-2.109282" lat="43.292228"><ele>346.0</ele></trkpt>
<trkpt lon="-2.109554" lat="43.292315"><ele>339.0</ele></trkpt>
<trkpt lon="-2.109675" lat="43.292308"><ele>337.0</ele></trkpt>
<trkpt lon="-2.109911" lat="43.292257"><ele>334.5</ele></trkpt>
<trkpt lon="-2.110139" lat="43.292234"><ele>331.5</ele></trkpt>
<trkpt lon="-2.110522" lat="43.292178"><ele>329.0</ele></trkpt>
<trkpt lon="-2.110758" lat="43.292184"><ele>327.0</ele></trkpt>
<trkpt lon="-2.111269" lat="43.292126"><ele>322.25</ele></trkpt>
<trkpt lon="-2.111666" lat="43.292034"><ele>322.5</ele></trkpt>
<trkpt lon="-2.112082" lat="43.291913"><ele>321.0</ele></trkpt>
<trkpt lon="-2.112256" lat="43.291841"><ele>321.5</ele></trkpt>
<trkpt lon="-2.112463" lat="43.291804"><ele>319.25</ele></trkpt>
<trkpt lon="-2.112624" lat="43.291747"><ele>318.75</ele></trkpt>
<trkpt lon="-2.112819" lat="43.291697"><ele>317.5</ele></trkpt>
<trkpt lon="-2.113102" lat="43.291635"><ele>315.25</ele></trkpt>
<trkpt lon="-2.113514" lat="43.291561"><ele>309.75</ele></trkpt>
<trkpt lon="-2.113986" lat="43.291517"><ele>301.25</ele></trkpt>
<trkpt lon="-2.114190" lat="43.291467"><ele>299.5</ele></trkpt>
<trkpt lon="-2.114463" lat="43.291428"><ele>295.75</ele></trkpt>
<trkpt lon="-2.115048" lat="43.291322"><ele>286.0</ele></trkpt>
<trkpt lon="-2.115183" lat="43.291280"><ele>283.0</ele></trkpt>
<trkpt lon="-2.115544" lat="43.291351"><ele>275.0</ele></trkpt>
<trkpt lon="-2.115851" lat="43.291442"><ele>266.0</ele></trkpt>
<trkpt lon="-2.115930" lat="43.291560"><ele>256.5</ele></trkpt>
<trkpt lon="-2.115963" lat="43.291572"><ele>255.0</ele></trkpt>
<trkpt lon="-2.116205" lat="43.291528"><ele>250.5</ele></trkpt>
<trkpt lon="-2.116353" lat="43.291479"><ele>249.0</ele></trkpt>
<trkpt lon="-2.116541" lat="43.291393"><ele>249.25</ele></trkpt>
<trkpt lon="-2.116640" lat="43.291367"><ele>248.0</ele></trkpt>
<trkpt lon="-2.116748" lat="43.291357"><ele>246.25</ele></trkpt>
<trkpt lon="-2.116817" lat="43.291333"><ele>246.25</ele></trkpt>
<trkpt lon="-2.116976" lat="43.291331"><ele>243.0</ele></trkpt>
<trkpt lon="-2.117354" lat="43.291227"><ele>241.25</ele></trkpt>
<trkpt lon="-2.117618" lat="43.291133"><ele>240.75</ele></trkpt>
<trkpt lon="-2.117863" lat="43.291022"><ele>238.0</ele></trkpt>
<trkpt lon="-2.118020" lat="43.290934"><ele>238.25</ele></trkpt>
<trkpt lon="-2.118300" lat="43.290834"><ele>235.75</ele></trkpt>
<trkpt lon="-2.118513" lat="43.290779"><ele>231.5</ele></trkpt>
<trkpt lon="-2.118661" lat="43.290713"><ele>230.5</ele></trkpt>
<trkpt lon="-2.118784" lat="43.290644"><ele>230.25</ele></trkpt>
<trkpt lon="-2.118901" lat="43.290558"><ele>231.5</ele></trkpt>
<trkpt lon="-2.118950" lat="43.290507"><ele>229.25</ele></trkpt>
<trkpt lon="-2.118965" lat="43.290435"><ele>227.25</ele></trkpt>
<trkpt lon="-2.118925" lat="43.290368"><ele>226.25</ele></trkpt>
<trkpt lon="-2.118908" lat="43.290325"><ele>225.0</ele></trkpt>
<trkpt lon="-2.119044" lat="43.290231"><ele>221.5</ele></trkpt>
<trkpt lon="-2.119055" lat="43.290189"><ele>219.75</ele></trkpt>
<trkpt lon="-2.119001" lat="43.290147"><ele>218.0</ele></trkpt>
<trkpt lon="-2.118702" lat="43.290197"><ele>217.5</ele></trkpt>
<trkpt lon="-2.118409" lat="43.290195"><ele>213.75</ele></trkpt>
<trkpt lon="-2.118258" lat="43.290208"><ele>212.5</ele></trkpt>
<trkpt lon="-2.117866" lat="43.290316"><ele>212.25</ele></trkpt>
<trkpt lon="-2.117832" lat="43.290306"><ele>211.0</ele></trkpt>
<trkpt lon="-2.117852" lat="43.290275"><ele>209.25</ele></trkpt>
<trkpt lon="-2.117998" lat="43.290203"><ele>208.0</ele></trkpt>
<trkpt lon="-2.118152" lat="43.290106"><ele>204.75</ele></trkpt>
<trkpt lon="-2.118274" lat="43.290006"><ele>200.5</ele></trkpt>
<trkpt lon="-2.118513" lat="43.289838"><ele>195.25</ele></trkpt>
<trkpt lon="-2.118494" lat="43.289811"><ele>193.75</ele></trkpt>
<trkpt lon="-2.118012" lat="43.289830"><ele>187.25</ele></trkpt>
<trkpt lon="-2.117830" lat="43.289848"><ele>186.0</ele></trkpt>
<trkpt lon="-2.117700" lat="43.289823"><ele>184.5</ele></trkpt>
<trkpt lon="-2.117523" lat="43.289764"><ele>182.5</ele></trkpt>
<trkpt lon="-2.117444" lat="43.289722"><ele>182.0</ele></trkpt>
<trkpt lon="-2.117325" lat="43.289657"><ele>183.0</ele></trkpt>
<trkpt lon="-2.117236" lat="43.289396"><ele>179.5</ele></trkpt>
<trkpt lon="-2.117230" lat="43.289297"><ele>177.5</ele></trkpt>
<trkpt lon="-2.117189" lat="43.289185"><ele>176.0</ele></trkpt>
<trkpt lon="-2.117155" lat="43.289040"><ele>174.5</ele></trkpt>
<trkpt lon="-2.117077" lat="43.288947"><ele>175.25</ele></trkpt>
<trkpt lon="-2.117082" lat="43.288887"><ele>174.5</ele></trkpt>
<trkpt lon="-2.117211" lat="43.288814"><ele>172.5</ele></trkpt>
<trkpt lon="-2.117331" lat="43.288768"><ele>170.75</ele></trkpt>
<trkpt lon="-2.117619" lat="43.288686"><ele>167.5</ele></trkpt>
<trkpt lon="-2.117720" lat="43.288591"><ele>167.75</ele></trkpt>
<trkpt lon="-2.117773" lat="43.288418"><ele>165.5</ele></trkpt>
<trkpt lon="-2.118089" lat="43.288155"><ele>159.25</ele></trkpt>
<trkpt lon="-2.118247" lat="43.288044"><ele>157.0</ele></trkpt>
<trkpt lon="-2.118449" lat="43.287859"><ele>152.75</ele></trkpt>
<trkpt lon="-2.118684" lat="43.287700"><ele>148.25</ele></trkpt>
<trkpt lon="-2.118918" lat="43.287558"><ele>146.0</ele></trkpt>
<trkpt lon="-2.119173" lat="43.287374"><ele>141.25</ele></trkpt>
<trkpt lon="-2.119337" lat="43.287215"><ele>138.5</ele></trkpt>
<trkpt lon="-2.119436" lat="43.287158"><ele>137.0</ele></trkpt>
<trkpt lon="-2.119715" lat="43.287139"><ele>132.0</ele></trkpt>
<trkpt lon="-2.119908" lat="43.287088"><ele>126.5</ele></trkpt>
<trkpt lon="-2.120029" lat="43.287032"><ele>123.0</ele></trkpt>
<trkpt lon="-2.120110" lat="43.286960"><ele>120.75</ele></trkpt>
<trkpt lon="-2.120175" lat="43.286803"><ele>116.75</ele></trkpt>
<trkpt lon="-2.120144" lat="43.286617"><ele>115.0</ele></trkpt>
<trkpt lon="-2.120149" lat="43.286527"><ele>113.25</ele></trkpt>
<trkpt lon="-2.120332" lat="43.286672"><ele>111.25</ele></trkpt>
<trkpt lon="-2.120360" lat="43.286766"><ele>110.25</ele></trkpt>
<trkpt lon="-2.120396" lat="43.286746"><ele>109.0</ele></trkpt>
<trkpt lon="-2.120529" lat="43.286610"><ele>105.25</ele></trkpt>
<trkpt lon="-2.120619" lat="43.286468"><ele>103.5</ele></trkpt>
<trkpt lon="-2.120749" lat="43.286311"><ele>102.75</ele></trkpt>
<trkpt lon="-2.120814" lat="43.286273"><ele>102.25</ele></trkpt>
<trkpt lon="-2.120890" lat="43.286265"><ele>99.75</ele></trkpt>
<trkpt lon="-2.121120" lat="43.286168"><ele>94.0</ele></trkpt>
<trkpt lon="-2.121392" lat="43.286098"><ele>87.75</ele></trkpt>
<trkpt lon="-2.121539" lat="43.286079"><ele>86.75</ele></trkpt>
<trkpt lon="-2.121721" lat="43.286074"><ele>84.0</ele></trkpt>
<trkpt lon="-2.122022" lat="43.286089"><ele>78.25</ele></trkpt>
<trkpt lon="-2.122152" lat="43.286058"><ele>76.75</ele></trkpt>
<trkpt lon="-2.122266" lat="43.286042"><ele>74.5</ele></trkpt>
<trkpt lon="-2.122483" lat="43.286038"><ele>68.0</ele></trkpt>
<trkpt lon="-2.122596" lat="43.286018"><ele>66.5</ele></trkpt>
<trkpt lon="-2.122801" lat="43.286048"><ele>60.25</ele></trkpt>
<trkpt lon="-2.122926" lat="43.286049"><ele>55.0</ele></trkpt>
<trkpt lon="-2.123078" lat="43.286025"><ele>50.75</ele></trkpt>
<trkpt lon="-2.123341" lat="43.286011"><ele>42.5</ele></trkpt>
<trkpt lon="-2.123475" lat="43.286041"><ele>37.25</ele></trkpt>
<trkpt lon="-2.123586" lat="43.286044"><ele>34.5</ele></trkpt>
<trkpt lon="-2.123685" lat="43.286021"><ele>32.5</ele></trkpt>
<trkpt lon="-2.123748" lat="43.285987"><ele>31.5</ele></trkpt>
<trkpt lon="-2.123855" lat="43.285904"><ele>29.25</ele></trkpt>
<trkpt lon="-2.124024" lat="43.285819"><ele>28.5</ele></trkpt>
<trkpt lon="-2.124114" lat="43.285748"><ele>25.75</ele></trkpt>
<trkpt lon="-2.124298" lat="43.285511"><ele>15.75</ele></trkpt>
<trkpt lon="-2.124496" lat="43.285353"><ele>10.25</ele></trkpt>
<trkpt lon="-2.124632" lat="43.285222"><ele>8.5</ele></trkpt>
<trkpt lon="-2.124846" lat="43.285058"><ele>8.0</ele></trkpt>
<trkpt lon="-2.124908" lat="43.284998"><ele>7.75</ele></trkpt>
<trkpt lon="-2.124952" lat="43.284927"><ele>7.5</ele></trkpt>
<trkpt lon="-2.124909" lat="43.284787"><ele>7.0</ele></trkpt>
<trkpt lon="-2.124855" lat="43.284721"><ele>7.0</ele></trkpt>
<trkpt lon="-2.124741" lat="43.284711"><ele>7.0</ele></trkpt>
<trkpt lon="-2.124594" lat="43.284715"><ele>7.25</ele></trkpt>
<trkpt lon="-2.124549" lat="43.284703"><ele>7.5</ele></trkpt>
<trkpt lon="-2.124523" lat="43.284685"><ele>7.5</ele></trkpt>
<trkpt lon="-2.124517" lat="43.284642"><ele>7.5</ele></trkpt>
<trkpt lon="-2.124521" lat="43.284502"><ele>7.5</ele></trkpt>
<trkpt lon="-2.124522" lat="43.284328"><ele>7.5</ele></trkpt>
<trkpt lon="-2.124720" lat="43.284331"><ele>7.0</ele></trkpt>
<trkpt lon="-2.124723" lat="43.284302"><ele>7.0</ele></trkpt>
<trkpt lon="-2.124725" lat="43.284255"><ele>7.0</ele></trkpt>
<trkpt lon="-2.125152" lat="43.284263"><ele>7.0</ele></trkpt>
<trkpt lon="-2.125657" lat="43.284267"><ele>6.75</ele></trkpt>
<trkpt lon="-2.125841" lat="43.284265"><ele>6.5</ele></trkpt>
<trkpt lon="-2.125938" lat="43.284058"><ele>6.75</ele></trkpt>
<trkpt lon="-2.126068" lat="43.283846"><ele>7.0</ele></trkpt>
<trkpt lon="-2.126201" lat="43.283849"><ele>6.75</ele></trkpt>
<trkpt lon="-2.126362" lat="43.283652"><ele>6.0</ele></trkpt>
<trkpt lon="-2.126483" lat="43.283520"><ele>6.0</ele></trkpt>
<trkpt lon="-2.126682" lat="43.283348"><ele>6.0</ele></trkpt>
<trkpt lon="-2.126805" lat="43.283246"><ele>6.25</ele></trkpt>
<trkpt lon="-2.126952" lat="43.283141"><ele>6.0</ele></trkpt>
<trkpt lon="-2.127007" lat="43.283075"><ele>5.5</ele></trkpt>
<trkpt lon="-2.127032" lat="43.283024"><ele>5.25</ele></trkpt>
<trkpt lon="-2.127070" lat="43.282955"><ele>5.25</ele></trkpt>
<trkpt lon="-2.127114" lat="43.282952"><ele>5.0</ele></trkpt>
<trkpt lon="-2.127155" lat="43.282940"><ele>5.0</ele></trkpt>
<trkpt lon="-2.127189" lat="43.282921"><ele>5.0</ele></trkpt>
<trkpt lon="-2.127214" lat="43.282895"><ele>5.0</ele></trkpt>
<trkpt lon="-2.127228" lat="43.282864"><ele>5.25</ele></trkpt>
<trkpt lon="-2.127230" lat="43.282832"><ele>5.5</ele></trkpt>
<trkpt lon="-2.127219" lat="43.282803"><ele>5.75</ele></trkpt>
<trkpt lon="-2.127198" lat="43.282777"><ele>5.75</ele></trkpt>
<trkpt lon="-2.127167" lat="43.282756"><ele>5.75</ele></trkpt>
<trkpt lon="-2.127146" lat="43.282715"><ele>5.75</ele></trkpt>
<trkpt lon="-2.127128" lat="43.282608"><ele>5.75</ele></trkpt>
<trkpt lon="-2.127183" lat="43.282346"><ele>5.25</ele></trkpt>
<trkpt lon="-2.127194" lat="43.282214"><ele>5.0</ele></trkpt>
<trkpt lon="-2.127185" lat="43.282088"><ele>5.0</ele></trkpt>
<trkpt lon="-2.127179" lat="43.282046"><ele>5.0</ele></trkpt>
<trkpt lon="-2.127166" lat="43.281962"><ele>5.0</ele></trkpt>
<trkpt lon="-2.127137" lat="43.281814"><ele>4.5</ele></trkpt>
<trkpt lon="-2.126997" lat="43.281087"><ele>3.75</ele></trkpt>
<trkpt lon="-2.126817" lat="43.280160"><ele>3.0</ele></trkpt>
<trkpt lon="-2.126816" lat="43.280119"><ele>3.0</ele></trkpt>
<trkpt lon="-2.126831" lat="43.280062"><ele>3.0</ele></trkpt>
<trkpt lon="-2.126853" lat="43.280013"><ele>2.75</ele></trkpt>
<trkpt lon="-2.126939" lat="43.279889"><ele>3.0</ele></trkpt>
<trkpt lon="-2.126874" lat="43.279760"><ele>3.0</ele></trkpt>
<trkpt lon="-2.126853" lat="43.279758"><ele>3.0</ele></trkpt>
<trkpt lon="-2.126801" lat="43.279739"><ele>3.0</ele></trkpt>
<trkpt lon="-2.126759" lat="43.279707"><ele>3.0</ele></trkpt>
<trkpt lon="-2.126736" lat="43.279669"><ele>3.0</ele></trkpt>
<trkpt lon="-2.126736" lat="43.279614"><ele>3.0</ele></trkpt>
<trkpt lon="-2.126746" lat="43.279592"><ele>3.0</ele></trkpt>
<trkpt lon="-2.126766" lat="43.279505"><ele>3.0</ele></trkpt>
<trkpt lon="-2.126798" lat="43.279449"><ele>3.0</ele></trkpt>
<trkpt lon="-2.127077" lat="43.278986"><ele>3.0</ele></trkpt>
<trkpt lon="-2.127284" lat="43.278615"><ele>3.0</ele></trkpt>
<trkpt lon="-2.127406" lat="43.278398"><ele>3.0</ele></trkpt>
<trkpt lon="-2.127442" lat="43.278326"><ele>3.0</ele></trkpt>
<trkpt lon="-2.127608" lat="43.277954"><ele>3.0</ele></trkpt>
<trkpt lon="-2.127641" lat="43.277881"><ele>3.0</ele></trkpt>
<trkpt lon="-2.127678" lat="43.277803"><ele>3.0</ele></trkpt>
<trkpt lon="-2.127929" lat="43.277248"><ele>2.75</ele></trkpt>
<trkpt lon="-2.127975" lat="43.277155"><ele>3.25</ele></trkpt>
<trkpt lon="-2.128010" lat="43.277078"><ele>3.25</ele></trkpt>
<trkpt lon="-2.128071" lat="43.276932"><ele>3.0</ele></trkpt>
<trkpt lon="-2.128085" lat="43.276827"><ele>3.0</ele></trkpt>
<trkpt lon="-2.128100" lat="43.276559"><ele>3.0</ele></trkpt>
<trkpt lon="-2.128103" lat="43.276468"><ele>3.0</ele></trkpt>
<trkpt lon="-2.128100" lat="43.276390"><ele>2.75</ele></trkpt>
<trkpt lon="-2.128108" lat="43.276305"><ele>3.0</ele></trkpt>
<trkpt lon="-2.128106" lat="43.276254"><ele>3.0</ele></trkpt>
<trkpt lon="-2.128105" lat="43.276233"><ele>3.0</ele></trkpt>
<trkpt lon="-2.128025" lat="43.276124"><ele>3.25</ele></trkpt>
<trkpt lon="-2.127952" lat="43.275902"><ele>3.5</ele></trkpt>
<trkpt lon="-2.127912" lat="43.275741"><ele>3.0</ele></trkpt>
<trkpt lon="-2.127938" lat="43.275629"><ele>2.5</ele></trkpt>
<trkpt lon="-2.127812" lat="43.275598"><ele>3.0</ele></trkpt>
<trkpt lon="-2.127705" lat="43.275592"><ele>2.5</ele></trkpt>
<trkpt lon="-2.127414" lat="43.275640"><ele>2.5</ele></trkpt>
<trkpt lon="-2.126952" lat="43.275719"><ele>2.5</ele></trkpt>
<trkpt lon="-2.126612" lat="43.275776"><ele>2.5</ele></trkpt>
<trkpt lon="-2.126376" lat="43.275817"><ele>2.5</ele></trkpt>
<trkpt lon="-2.126076" lat="43.275867"><ele>2.5</ele></trkpt>
<trkpt lon="-2.125903" lat="43.275887"><ele>2.5</ele></trkpt>
<trkpt lon="-2.125897" lat="43.275842"><ele>2.5</ele></trkpt>
<trkpt lon="-2.125891" lat="43.275803"><ele>2.5</ele></trkpt>
<trkpt lon="-2.125784" lat="43.275816"><ele>2.75</ele></trkpt>
<trkpt lon="-2.125573" lat="43.274644"><ele>4.75</ele></trkpt>
<trkpt lon="-2.125578" lat="43.274541"><ele>4.75</ele></trkpt>
<trkpt lon="-2.125612" lat="43.274437"><ele>5.75</ele></trkpt>
<trkpt lon="-2.125710" lat="43.274360"><ele>6.25</ele></trkpt>
<trkpt lon="-2.125777" lat="43.274323"><ele>6.75</ele></trkpt>
<trkpt lon="-2.125799" lat="43.274400"><ele>5.5</ele></trkpt>
<trkpt lon="-2.125806" lat="43.274420"><ele>5.25</ele></trkpt>
<trkpt lon="-2.125748" lat="43.274430"><ele>5.25</ele></trkpt>
<trkpt lon="-2.125739" lat="43.274402"><ele>5.75</ele></trkpt>
<trkpt lon="-2.125766" lat="43.274398"><ele>5.75</ele></trkpt>
<trkpt lon="-2.125786" lat="43.274392"><ele>6.0</ele></trkpt>
<trkpt lon="-2.125899" lat="43.274246"><ele>8.5</ele></trkpt>
<trkpt lon="-2.126010" lat="43.274250"><ele>8.5</ele></trkpt>
<trkpt lon="-2.126083" lat="43.274252"><ele>9.0</ele></trkpt>
<trkpt lon="-2.127052" lat="43.274285"><ele>10.75</ele></trkpt>
<trkpt lon="-2.127144" lat="43.274316"><ele>10.25</ele></trkpt>
<trkpt lon="-2.127512" lat="43.274329"><ele>10.5</ele></trkpt>
<trkpt lon="-2.127740" lat="43.274332"><ele>10.0</ele></trkpt>
<trkpt lon="-2.127916" lat="43.274312"><ele>10.0</ele></trkpt>
<trkpt lon="-2.128144" lat="43.274286"><ele>9.0</ele></trkpt>
<trkpt lon="-2.128257" lat="43.274262"><ele>8.0</ele></trkpt>
<trkpt lon="-2.128423" lat="43.274197"><ele>6.0</ele></trkpt>
<trkpt lon="-2.128539" lat="43.274130"><ele>5.0</ele></trkpt>
<trkpt lon="-2.128625" lat="43.274066"><ele>4.5</ele></trkpt>
<trkpt lon="-2.128670" lat="43.274066"><ele>4.25</ele></trkpt>
<trkpt lon="-2.128728" lat="43.274075"><ele>3.75</ele></trkpt>
<trkpt lon="-2.128664" lat="43.274130"><ele>3.25</ele></trkpt>
<trkpt lon="-2.128628" lat="43.274217"><ele>3.25</ele></trkpt>
<trkpt lon="-2.128650" lat="43.274271"><ele>3.5</ele></trkpt>
<trkpt lon="-2.128681" lat="43.274322"><ele>3.75</ele></trkpt>
<trkpt lon="-2.128729" lat="43.274364"><ele>3.75</ele></trkpt>
<trkpt lon="-2.129895" lat="43.274395"><ele>1.0</ele></trkpt>
<trkpt lon="-2.130098" lat="43.274422"><ele>2.0</ele></trkpt>
<trkpt lon="-2.130261" lat="43.274465"><ele>2.75</ele></trkpt>
<trkpt lon="-2.130847" lat="43.274638"><ele>6.0</ele></trkpt>
<trkpt lon="-2.131014" lat="43.274722"><ele>7.0</ele></trkpt>
<trkpt lon="-2.131211" lat="43.274747"><ele>8.0</ele></trkpt>
<trkpt lon="-2.131341" lat="43.274781"><ele>8.0</ele></trkpt>
<trkpt lon="-2.131418" lat="43.274809"><ele>8.5</ele></trkpt>
<trkpt lon="-2.131480" lat="43.274849"><ele>8.75</ele></trkpt>
<trkpt lon="-2.131542" lat="43.274879"><ele>9.25</ele></trkpt>
<trkpt lon="-2.131632" lat="43.274912"><ele>9.75</ele></trkpt>
<trkpt lon="-2.131697" lat="43.274928"><ele>10.0</ele></trkpt>
<trkpt lon="-2.131817" lat="43.274933"><ele>10.0</ele></trkpt>
<trkpt lon="-2.131997" lat="43.274906"><ele>10.0</ele></trkpt>
<trkpt lon="-2.132117" lat="43.274902"><ele>10.0</ele></trkpt>
<trkpt lon="-2.131865" lat="43.274876"><ele>10.5</ele></trkpt>
<trkpt lon="-2.131809" lat="43.274824"><ele>11.0</ele></trkpt>
<trkpt lon="-2.131796" lat="43.274777"><ele>11.25</ele></trkpt>
<trkpt lon="-2.131801" lat="43.274735"><ele>11.75</ele></trkpt>
<trkpt lon="-2.131824" lat="43.274693"><ele>11.75</ele></trkpt>
<trkpt lon="-2.131854" lat="43.274662"><ele>11.75</ele></trkpt>
<trkpt lon="-2.131969" lat="43.274679"><ele>13.0</ele></trkpt>
<trkpt lon="-2.132205" lat="43.274742"><ele>14.25</ele></trkpt>
<trkpt lon="-2.132542" lat="43.274908"><ele>15.5</ele></trkpt>
<trkpt lon="-2.132946" lat="43.275010"><ele>22.5</ele></trkpt>
<trkpt lon="-2.133159" lat="43.275185"><ele>25.5</ele></trkpt>
<trkpt lon="-2.133338" lat="43.275505"><ele>27.0</ele></trkpt>
<trkpt lon="-2.133426" lat="43.275663"><ele>29.5</ele></trkpt>
<trkpt lon="-2.133840" lat="43.275916"><ele>39.25</ele></trkpt>
<trkpt lon="-2.133953" lat="43.276041"><ele>41.25</ele></trkpt>
<trkpt lon="-2.133983" lat="43.276164"><ele>42.5</ele></trkpt>
<trkpt lon="-2.133938" lat="43.276304"><ele>41.5</ele></trkpt>
<trkpt lon="-2.133833" lat="43.276565"><ele>34.75</ele></trkpt>
<trkpt lon="-2.133953" lat="43.276819"><ele>34.0</ele></trkpt>
<trkpt lon="-2.134078" lat="43.276984"><ele>34.75</ele></trkpt>
<trkpt lon="-2.134179" lat="43.277208"><ele>33.75</ele></trkpt>
<trkpt lon="-2.134222" lat="43.277431"><ele>36.0</ele></trkpt>
<trkpt lon="-2.134300" lat="43.277541"><ele>40.5</ele></trkpt>
<trkpt lon="-2.134343" lat="43.277652"><ele>41.75</ele></trkpt>
<trkpt lon="-2.134354" lat="43.278089"><ele>44.75</ele></trkpt>
<trkpt lon="-2.134379" lat="43.278188"><ele>44.0</ele></trkpt>
<trkpt lon="-2.134524" lat="43.278460"><ele>47.0</ele></trkpt>
<trkpt lon="-2.134450" lat="43.278530"><ele>44.75</ele></trkpt>
<trkpt lon="-2.134379" lat="43.278645"><ele>43.25</ele></trkpt>
<trkpt lon="-2.134211" lat="43.278995"><ele>43.0</ele></trkpt>
<trkpt lon="-2.134211" lat="43.279214"><ele>44.75</ele></trkpt>
<trkpt lon="-2.134278" lat="43.279340"><ele>47.25</ele></trkpt>
<trkpt lon="-2.134377" lat="43.279555"><ele>51.5</ele></trkpt>
<trkpt lon="-2.134315" lat="43.279668"><ele>49.25</ele></trkpt>
<trkpt lon="-2.134286" lat="43.279833"><ele>48.0</ele></trkpt>
<trkpt lon="-2.134296" lat="43.280215"><ele>50.0</ele></trkpt>
<trkpt lon="-2.134399" lat="43.280432"><ele>53.5</ele></trkpt>
<trkpt lon="-2.134437" lat="43.280482"><ele>54.5</ele></trkpt>
<trkpt lon="-2.134442" lat="43.280556"><ele>53.75</ele></trkpt>
<trkpt lon="-2.134360" lat="43.280694"><ele>56.5</ele></trkpt>
<trkpt lon="-2.134263" lat="43.280797"><ele>56.5</ele></trkpt>
<trkpt lon="-2.134039" lat="43.281117"><ele>55.0</ele></trkpt>
<trkpt lon="-2.133920" lat="43.281304"><ele>50.75</ele></trkpt>
<trkpt lon="-2.133723" lat="43.281652"><ele>45.5</ele></trkpt>
<trkpt lon="-2.133664" lat="43.281830"><ele>43.25</ele></trkpt>
<trkpt lon="-2.133615" lat="43.282014"><ele>43.25</ele></trkpt>
<trkpt lon="-2.133351" lat="43.282142"><ele>38.75</ele></trkpt>
<trkpt lon="-2.133142" lat="43.282253"><ele>33.25</ele></trkpt>
<trkpt lon="-2.132956" lat="43.282415"><ele>29.75</ele></trkpt>
<trkpt lon="-2.132778" lat="43.282593"><ele>25.25</ele></trkpt>
<trkpt lon="-2.132485" lat="43.282749"><ele>20.0</ele></trkpt>
<trkpt lon="-2.132318" lat="43.282853"><ele>16.5</ele></trkpt>
<trkpt lon="-2.132260" lat="43.283110"><ele>16.75</ele></trkpt>
<trkpt lon="-2.132256" lat="43.283191"><ele>17.5</ele></trkpt>
<trkpt lon="-2.132075" lat="43.283377"><ele>11.75</ele></trkpt>
<trkpt lon="-2.131933" lat="43.283501"><ele>8.5</ele></trkpt>
<trkpt lon="-2.131909" lat="43.283522"><ele>8.5</ele></trkpt>
<trkpt lon="-2.131862" lat="43.283586"><ele>8.75</ele></trkpt>
<trkpt lon="-2.131878" lat="43.283643"><ele>8.5</ele></trkpt>
<trkpt lon="-2.131922" lat="43.283663"><ele>8.5</ele></trkpt>
<trkpt lon="-2.132215" lat="43.283674"><ele>9.25</ele></trkpt>
<trkpt lon="-2.132349" lat="43.283682"><ele>10.0</ele></trkpt>
<trkpt lon="-2.132420" lat="43.283692"><ele>10.25</ele></trkpt>
<trkpt lon="-2.132689" lat="43.283773"><ele>9.0</ele></trkpt>
<trkpt lon="-2.132738" lat="43.283802"><ele>7.75</ele></trkpt>
<trkpt lon="-2.132761" lat="43.283828"><ele>6.75</ele></trkpt>
<trkpt lon="-2.132773" lat="43.283861"><ele>5.25</ele></trkpt>
<trkpt lon="-2.132784" lat="43.283917"><ele>4.0</ele></trkpt>
<trkpt lon="-2.132789" lat="43.284245"><ele>4.0</ele></trkpt>
<trkpt lon="-2.132840" lat="43.284733"><ele>4.25</ele></trkpt>
<trkpt lon="-2.132879" lat="43.284875"><ele>5.5</ele></trkpt>
<trkpt lon="-2.132979" lat="43.284869"><ele>7.0</ele></trkpt>
<trkpt lon="-2.133540" lat="43.284837"><ele>10.25</ele></trkpt>
<trkpt lon="-2.133884" lat="43.284787"><ele>9.25</ele></trkpt>
<trkpt lon="-2.134373" lat="43.284739"><ele>11.0</ele></trkpt>
<trkpt lon="-2.134607" lat="43.284745"><ele>12.0</ele></trkpt>
<trkpt lon="-2.134939" lat="43.284793"><ele>11.0</ele></trkpt>
<trkpt lon="-2.135130" lat="43.284847"><ele>10.5</ele></trkpt>
<trkpt lon="-2.135658" lat="43.284652"><ele>12.0</ele></trkpt>
<trkpt lon="-2.136096" lat="43.284627"><ele>16.25</ele></trkpt>
<trkpt lon="-2.136706" lat="43.284631"><ele>21.75</ele></trkpt>
<trkpt lon="-2.137111" lat="43.284625"><ele>25.75</ele></trkpt>
<trkpt lon="-2.137608" lat="43.284640"><ele>31.5</ele></trkpt>
<trkpt lon="-2.138300" lat="43.284824"><ele>37.0</ele></trkpt>
<trkpt lon="-2.138716" lat="43.284968"><ele>39.75</ele></trkpt>
<trkpt lon="-2.139059" lat="43.285031"><ele>42.75</ele></trkpt>
<trkpt lon="-2.139806" lat="43.285043"><ele>48.0</ele></trkpt>
<trkpt lon="-2.140175" lat="43.285124"><ele>49.25</ele></trkpt>
<trkpt lon="-2.140458" lat="43.285231"><ele>49.0</ele></trkpt>
<trkpt lon="-2.140767" lat="43.285362"><ele>49.0</ele></trkpt>
<trkpt lon="-2.141135" lat="43.285503"><ele>48.75</ele></trkpt>
<trkpt lon="-2.141373" lat="43.285631"><ele>49.5</ele></trkpt>
<trkpt lon="-2.141522" lat="43.285712"><ele>52.0</ele></trkpt>
<trkpt lon="-2.141874" lat="43.285749"><ele>54.25</ele></trkpt>
<trkpt lon="-2.142123" lat="43.285849"><ele>56.75</ele></trkpt>
<trkpt lon="-2.142492" lat="43.286062"><ele>60.5</ele></trkpt>
<trkpt lon="-2.142653" lat="43.286171"><ele>62.25</ele></trkpt>
<trkpt lon="-2.142818" lat="43.286293"><ele>63.5</ele></trkpt>
<trkpt lon="-2.143265" lat="43.286727"><ele>65.75</ele></trkpt>
<trkpt lon="-2.143394" lat="43.286899"><ele>68.0</ele></trkpt>
<trkpt lon="-2.143492" lat="43.287001"><ele>69.0</ele></trkpt>
<trkpt lon="-2.143582" lat="43.287086"><ele>70.0</ele></trkpt>
<trkpt lon="-2.143716" lat="43.287154"><ele>70.75</ele></trkpt>
<trkpt lon="-2.144065" lat="43.287227"><ele>73.25</ele></trkpt>
<trkpt lon="-2.144157" lat="43.287218"><ele>73.75</ele></trkpt>
<trkpt lon="-2.144286" lat="43.287161"><ele>73.25</ele></trkpt>
<trkpt lon="-2.144415" lat="43.287161"><ele>74.25</ele></trkpt>
<trkpt lon="-2.144538" lat="43.287188"><ele>75.0</ele></trkpt>
<trkpt lon="-2.144793" lat="43.287311"><ele>77.25</ele></trkpt>
<trkpt lon="-2.144991" lat="43.287436"><ele>78.0</ele></trkpt>
<trkpt lon="-2.145058" lat="43.287497"><ele>79.0</ele></trkpt>
<trkpt lon="-2.145119" lat="43.287574"><ele>80.25</ele></trkpt>
<trkpt lon="-2.145119" lat="43.287761"><ele>82.75</ele></trkpt>
<trkpt lon="-2.145204" lat="43.287878"><ele>84.75</ele></trkpt>
<trkpt lon="-2.145343" lat="43.288003"><ele>87.0</ele></trkpt>
<trkpt lon="-2.145402" lat="43.288032"><ele>87.5</ele></trkpt>
<trkpt lon="-2.145469" lat="43.288049"><ele>87.75</ele></trkpt>
<trkpt lon="-2.145548" lat="43.288047"><ele>87.75</ele></trkpt>
<trkpt lon="-2.145623" lat="43.288029"><ele>89.0</ele></trkpt>
<trkpt lon="-2.145676" lat="43.288006"><ele>90.0</ele></trkpt>
<trkpt lon="-2.145781" lat="43.287944"><ele>91.75</ele></trkpt>
<trkpt lon="-2.146031" lat="43.287694"><ele>96.75</ele></trkpt>
<trkpt lon="-2.146127" lat="43.287630"><ele>99.0</ele></trkpt>
<trkpt lon="-2.146270" lat="43.287581"><ele>99.5</ele></trkpt>
<trkpt lon="-2.146434" lat="43.287543"><ele>99.75</ele></trkpt>
<trkpt lon="-2.146521" lat="43.287533"><ele>99.5</ele></trkpt>
<trkpt lon="-2.146560" lat="43.287535"><ele>99.25</ele></trkpt>
<trkpt lon="-2.146612" lat="43.287549"><ele>99.25</ele></trkpt>
<trkpt lon="-2.146814" lat="43.287316"><ele>97.5</ele></trkpt>
<trkpt lon="-2.146900" lat="43.287217"><ele>97.25</ele></trkpt>
<trkpt lon="-2.146992" lat="43.287152"><ele>97.25</ele></trkpt>
<trkpt lon="-2.147106" lat="43.287108"><ele>96.75</ele></trkpt>
<trkpt lon="-2.147234" lat="43.287089"><ele>95.75</ele></trkpt>
<trkpt lon="-2.147299" lat="43.287090"><ele>96.0</ele></trkpt>
<trkpt lon="-2.147699" lat="43.287128"><ele>95.75</ele></trkpt>
<trkpt lon="-2.147873" lat="43.287134"><ele>94.75</ele></trkpt>
<trkpt lon="-2.148041" lat="43.287120"><ele>93.5</ele></trkpt>
<trkpt lon="-2.148585" lat="43.287052"><ele>91.0</ele></trkpt>
<trkpt lon="-2.148729" lat="43.287053"><ele>91.5</ele></trkpt>
<trkpt lon="-2.148802" lat="43.287059"><ele>92.0</ele></trkpt>
<trkpt lon="-2.148873" lat="43.287073"><ele>92.0</ele></trkpt>
<trkpt lon="-2.149032" lat="43.287123"><ele>91.5</ele></trkpt>
<trkpt lon="-2.149120" lat="43.287160"><ele>90.75</ele></trkpt>
<trkpt lon="-2.149273" lat="43.287245"><ele>90.0</ele></trkpt>
<trkpt lon="-2.149366" lat="43.287235"><ele>91.5</ele></trkpt>
<trkpt lon="-2.149630" lat="43.287253"><ele>93.5</ele></trkpt>
<trkpt lon="-2.149881" lat="43.287259"><ele>95.25</ele></trkpt>
<trkpt lon="-2.150076" lat="43.287233"><ele>96.25</ele></trkpt>
<trkpt lon="-2.150468" lat="43.287122"><ele>95.0</ele></trkpt>
<trkpt lon="-2.150708" lat="43.286978"><ele>91.5</ele></trkpt>
<trkpt lon="-2.150856" lat="43.286798"><ele>89.25</ele></trkpt>
<trkpt lon="-2.151023" lat="43.286653"><ele>85.5</ele></trkpt>
<trkpt lon="-2.151138" lat="43.286530"><ele>84.25</ele></trkpt>
<trkpt lon="-2.151366" lat="43.286456"><ele>81.0</ele></trkpt>
<trkpt lon="-2.151832" lat="43.286342"><ele>72.25</ele></trkpt>
<trkpt lon="-2.152298" lat="43.286113"><ele>65.25</ele></trkpt>
<trkpt lon="-2.152519" lat="43.286025"><ele>60.0</ele></trkpt>
<trkpt lon="-2.152576" lat="43.285981"><ele>58.5</ele></trkpt>
<trkpt lon="-2.152599" lat="43.285901"><ele>57.75</ele></trkpt>
<trkpt lon="-2.152626" lat="43.285869"><ele>57.25</ele></trkpt>
<trkpt lon="-2.152666" lat="43.285856"><ele>56.5</ele></trkpt>
<trkpt lon="-2.152713" lat="43.285854"><ele>55.75</ele></trkpt>
<trkpt lon="-2.152759" lat="43.285863"><ele>55.25</ele></trkpt>
<trkpt lon="-2.152795" lat="43.285885"><ele>54.5</ele></trkpt>
<trkpt lon="-2.152830" lat="43.285926"><ele>54.0</ele></trkpt>
<trkpt lon="-2.152861" lat="43.285945"><ele>53.5</ele></trkpt>
<trkpt lon="-2.152900" lat="43.285956"><ele>53.0</ele></trkpt>
<trkpt lon="-2.153011" lat="43.285959"><ele>51.25</ele></trkpt>
<trkpt lon="-2.153081" lat="43.285863"><ele>50.25</ele></trkpt>
<trkpt lon="-2.153104" lat="43.285811"><ele>49.75</ele></trkpt>
<trkpt lon="-2.153117" lat="43.285757"><ele>49.25</ele></trkpt>
<trkpt lon="-2.153119" lat="43.285703"><ele>49.25</ele></trkpt>
<trkpt lon="-2.153116" lat="43.285649"><ele>49.0</ele></trkpt>
<trkpt lon="-2.153032" lat="43.285202"><ele>45.5</ele></trkpt>
<trkpt lon="-2.153136" lat="43.285092"><ele>42.25</ele></trkpt>
<trkpt lon="-2.153145" lat="43.285010"><ele>41.25</ele></trkpt>
<trkpt lon="-2.153170" lat="43.284914"><ele>40.0</ele></trkpt>
<trkpt lon="-2.153285" lat="43.284676"><ele>36.25</ele></trkpt>
<trkpt lon="-2.153408" lat="43.284583"><ele>34.0</ele></trkpt>
<trkpt lon="-2.153718" lat="43.284507"><ele>30.25</ele></trkpt>
<trkpt lon="-2.153964" lat="43.284478"><ele>26.75</ele></trkpt>
<trkpt lon="-2.154254" lat="43.284451"><ele>22.75</ele></trkpt>
<trkpt lon="-2.154531" lat="43.284436"><ele>19.0</ele></trkpt>
<trkpt lon="-2.154619" lat="43.284438"><ele>18.0</ele></trkpt>
<trkpt lon="-2.154655" lat="43.284447"><ele>17.5</ele></trkpt>
<trkpt lon="-2.154787" lat="43.284460"><ele>16.25</ele></trkpt>
<trkpt lon="-2.154851" lat="43.284447"><ele>15.5</ele></trkpt>
<trkpt lon="-2.154891" lat="43.284419"><ele>15.0</ele></trkpt>
<trkpt lon="-2.154935" lat="43.284444"><ele>14.5</ele></trkpt>
<trkpt lon="-2.154972" lat="43.284430"><ele>14.0</ele></trkpt>
<trkpt lon="-2.155040" lat="43.284447"><ele>13.5</ele></trkpt>
<trkpt lon="-2.155351" lat="43.284448"><ele>10.75</ele></trkpt>
<trkpt lon="-2.155423" lat="43.284440"><ele>10.25</ele></trkpt>
<trkpt lon="-2.155685" lat="43.284404"><ele>8.75</ele></trkpt>
<trkpt lon="-2.156240" lat="43.284261"><ele>6.25</ele></trkpt>
<trkpt lon="-2.156343" lat="43.284252"><ele>5.75</ele></trkpt>
<trkpt lon="-2.156473" lat="43.284267"><ele>5.25</ele></trkpt>
<trkpt lon="-2.156580" lat="43.284308"><ele>5.0</ele></trkpt>
<trkpt lon="-2.156751" lat="43.284331"><ele>4.75</ele></trkpt>
<trkpt lon="-2.157098" lat="43.284315"><ele>4.25</ele></trkpt>
<trkpt lon="-2.157121" lat="43.284283"><ele>4.5</ele></trkpt>
<trkpt lon="-2.157164" lat="43.284226"><ele>4.75</ele></trkpt>
<trkpt lon="-2.157232" lat="43.284134"><ele>4.75</ele></trkpt>
<trkpt lon="-2.157026" lat="43.284048"><ele>4.75</ele></trkpt>
<trkpt lon="-2.156934" lat="43.283936"><ele>5.0</ele></trkpt>
<trkpt lon="-2.156873" lat="43.283851"><ele>4.75</ele></trkpt>
<trkpt lon="-2.156801" lat="43.283640"><ele>4.5</ele></trkpt>
<trkpt lon="-2.156701" lat="43.283452"><ele>5.0</ele></trkpt>
<trkpt lon="-2.156684" lat="43.283374"><ele>5.0</ele></trkpt>
<trkpt lon="-2.156690" lat="43.283286"><ele>5.0</ele></trkpt>
<trkpt lon="-2.156860" lat="43.283168"><ele>5.75</ele></trkpt>
<trkpt lon="-2.156974" lat="43.283098"><ele>5.5</ele></trkpt>
<trkpt lon="-2.157193" lat="43.283073"><ele>5.0</ele></trkpt>
<trkpt lon="-2.157255" lat="43.283077"><ele>5.0</ele></trkpt>
<trkpt lon="-2.157735" lat="43.283113"><ele>4.5</ele></trkpt>
<trkpt lon="-2.158053" lat="43.283123"><ele>5.0</ele></trkpt>
<trkpt lon="-2.158087" lat="43.283121"><ele>5.0</ele></trkpt>
<trkpt lon="-2.158221" lat="43.283112"><ele>5.0</ele></trkpt>
<trkpt lon="-2.158769" lat="43.283130"><ele>5.25</ele></trkpt>
<trkpt lon="-2.158828" lat="43.283134"><ele>5.25</ele></trkpt>
<trkpt lon="-2.158949" lat="43.283140"><ele>5.25</ele></trkpt>
<trkpt lon="-2.159159" lat="43.283140"><ele>5.25</ele></trkpt>
<trkpt lon="-2.159424" lat="43.283110"><ele>5.0</ele></trkpt>
<trkpt lon="-2.159681" lat="43.283070"><ele>5.0</ele></trkpt>
<trkpt lon="-2.160035" lat="43.282982"><ele>5.0</ele></trkpt>
<trkpt lon="-2.160507" lat="43.282892"><ele>5.0</ele></trkpt>
<trkpt lon="-2.160635" lat="43.282892"><ele>4.75</ele></trkpt>
<trkpt lon="-2.160739" lat="43.282900"><ele>4.5</ele></trkpt>
<trkpt lon="-2.161010" lat="43.282934"><ele>4.0</ele></trkpt>
<trkpt lon="-2.161075" lat="43.282958"><ele>4.0</ele></trkpt>
<trkpt lon="-2.161119" lat="43.282948"><ele>4.0</ele></trkpt>
<trkpt lon="-2.161188" lat="43.282907"><ele>4.0</ele></trkpt>
<trkpt lon="-2.161340" lat="43.282917"><ele>4.25</ele></trkpt>
<trkpt lon="-2.161521" lat="43.282944"><ele>4.5</ele></trkpt>
<trkpt lon="-2.161855" lat="43.282951"><ele>4.0</ele></trkpt>
<trkpt lon="-2.162157" lat="43.282955"><ele>4.25</ele></trkpt>
<trkpt lon="-2.162270" lat="43.282984"><ele>4.25</ele></trkpt>
<trkpt lon="-2.162343" lat="43.283001"><ele>4.0</ele></trkpt>
<trkpt lon="-2.162549" lat="43.283069"><ele>4.0</ele></trkpt>
<trkpt lon="-2.162896" lat="43.283095"><ele>4.0</ele></trkpt>
<trkpt lon="-2.163159" lat="43.283104"><ele>4.0</ele></trkpt>
<trkpt lon="-2.163921" lat="43.283146"><ele>4.25</ele></trkpt>
<trkpt lon="-2.163956" lat="43.283147"><ele>4.25</ele></trkpt>
<trkpt lon="-2.163947" lat="43.283222"><ele>4.5</ele></trkpt>
<trkpt lon="-2.164167" lat="43.283229"><ele>4.5</ele></trkpt>
<trkpt lon="-2.164222" lat="43.283231"><ele>4.5</ele></trkpt>
<trkpt lon="-2.164261" lat="43.283231"><ele>4.5</ele></trkpt>
<trkpt lon="-2.165206" lat="43.283260"><ele>4.0</ele></trkpt>
<trkpt lon="-2.165232" lat="43.283261"><ele>4.0</ele></trkpt>
<trkpt lon="-2.165353" lat="43.283271"><ele>4.0</ele></trkpt>
<trkpt lon="-2.165401" lat="43.283275"><ele>4.0</ele></trkpt>
<trkpt lon="-2.165714" lat="43.283287"><ele>4.0</ele></trkpt>
<trkpt lon="-2.165779" lat="43.283288"><ele>4.0</ele></trkpt>
<trkpt lon="-2.165823" lat="43.283289"><ele>4.0</ele></trkpt>
<trkpt lon="-2.165873" lat="43.283291"><ele>4.0</ele></trkpt>
<trkpt lon="-2.166889" lat="43.283327"><ele>4.75</ele></trkpt>
<trkpt lon="-2.166887" lat="43.283375"><ele>5.0</ele></trkpt>
<trkpt lon="-2.166964" lat="43.283377"><ele>5.0</ele></trkpt>
<trkpt lon="-2.167001" lat="43.283377"><ele>5.0</ele></trkpt>
<trkpt lon="-2.166975" lat="43.283791"><ele>5.0</ele></trkpt>
<trkpt lon="-2.167347" lat="43.283805"><ele>5.0</ele></trkpt>
<trkpt lon="-2.168058" lat="43.283813"><ele>4.75</ele></trkpt>
<trkpt lon="-2.168093" lat="43.283814"><ele>4.75</ele></trkpt>
<trkpt lon="-2.168180" lat="43.283817"><ele>4.75</ele></trkpt>
<trkpt lon="-2.168243" lat="43.283819"><ele>4.75</ele></trkpt>
<trkpt lon="-2.168271" lat="43.283820"><ele>4.75</ele></trkpt>
<trkpt lon="-2.169112" lat="43.283844"><ele>4.75</ele></trkpt>
<trkpt lon="-2.169604" lat="43.283891"><ele>5.0</ele></trkpt>
<trkpt lon="-2.170014" lat="43.283944"><ele>4.75</ele></trkpt>
  </trkseg></trk></gpx>
