<?xml version="1.0" encoding="UTF-8"?>
<gpx version="1.1" creator="compostel-brouter" xmlns="http://www.topografix.com/GPX/1/1">
  <metadata><name>ES-04-Irun</name></metadata>
  <trk><name>ES-04-Irun</name><trkseg>
<trkpt lon="-1.620419" lat="43.344453"><ele>23.0</ele></trkpt>
<trkpt lon="-1.620531" lat="43.344530"><ele>23.0</ele></trkpt>
<trkpt lon="-1.620583" lat="43.344564"><ele>23.0</ele></trkpt>
<trkpt lon="-1.620731" lat="43.344638"><ele>23.0</ele></trkpt>
<trkpt lon="-1.620912" lat="43.344714"><ele>23.0</ele></trkpt>
<trkpt lon="-1.620911" lat="43.344871"><ele>21.75</ele></trkpt>
<trkpt lon="-1.620964" lat="43.345053"><ele>20.75</ele></trkpt>
<trkpt lon="-1.620972" lat="43.345070"><ele>20.5</ele></trkpt>
<trkpt lon="-1.621031" lat="43.345195"><ele>20.25</ele></trkpt>
<trkpt lon="-1.621104" lat="43.345316"><ele>20.0</ele></trkpt>
<trkpt lon="-1.621142" lat="43.345375"><ele>19.75</ele></trkpt>
<trkpt lon="-1.621162" lat="43.345404"><ele>19.75</ele></trkpt>
<trkpt lon="-1.621307" lat="43.345616"><ele>18.75</ele></trkpt>
<trkpt lon="-1.621516" lat="43.345902"><ele>16.0</ele></trkpt>
<trkpt lon="-1.621794" lat="43.346245"><ele>13.75</ele></trkpt>
<trkpt lon="-1.621845" lat="43.346309"><ele>13.25</ele></trkpt>
<trkpt lon="-1.621881" lat="43.346361"><ele>13.0</ele></trkpt>
<trkpt lon="-1.621890" lat="43.346375"><ele>13.0</ele></trkpt>
<trkpt lon="-1.621970" lat="43.346469"><ele>12.25</ele></trkpt>
<trkpt lon="-1.622047" lat="43.346563"><ele>11.75</ele></trkpt>
<trkpt lon="-1.622102" lat="43.346588"><ele>11.75</ele></trkpt>
<trkpt lon="-1.622241" lat="43.346758"><ele>11.5</ele></trkpt>
<trkpt lon="-1.622402" lat="43.346957"><ele>10.75</ele></trkpt>
<trkpt lon="-1.622618" lat="43.347259"><ele>10.0</ele></trkpt>
<trkpt lon="-1.623209" lat="43.347986"><ele>8.0</ele></trkpt>
<trkpt lon="-1.623252" lat="43.348026"><ele>8.0</ele></trkpt>
<trkpt lon="-1.623422" lat="43.348091"><ele>8.0</ele></trkpt>
<trkpt lon="-1.623505" lat="43.348095"><ele>8.0</ele></trkpt>
<trkpt lon="-1.623646" lat="43.348069"><ele>7.75</ele></trkpt>
<trkpt lon="-1.624656" lat="43.347704"><ele>5.25</ele></trkpt>
<trkpt lon="-1.624689" lat="43.347691"><ele>5.25</ele></trkpt>
<trkpt lon="-1.624733" lat="43.347725"><ele>5.0</ele></trkpt>
<trkpt lon="-1.625203" lat="43.348099"><ele>5.0</ele></trkpt>
<trkpt lon="-1.625265" lat="43.348154"><ele>5.0</ele></trkpt>
<trkpt lon="-1.625445" lat="43.348314"><ele>5.0</ele></trkpt>
<trkpt lon="-1.625514" lat="43.348394"><ele>5.0</ele></trkpt>
<trkpt lon="-1.625601" lat="43.348432"><ele>4.75</ele></trkpt>
<trkpt lon="-1.625657" lat="43.348460"><ele>4.5</ele></trkpt>
<trkpt lon="-1.625788" lat="43.348555"><ele>4.5</ele></trkpt>
<trkpt lon="-1.626669" lat="43.349194"><ele>3.75</ele></trkpt>
<trkpt lon="-1.626688" lat="43.349224"><ele>3.5</ele></trkpt>
<trkpt lon="-1.627210" lat="43.349088"><ele>3.5</ele></trkpt>
<trkpt lon="-1.627401" lat="43.349054"><ele>4.0</ele></trkpt>
<trkpt lon="-1.627540" lat="43.349025"><ele>4.5</ele></trkpt>
<trkpt lon="-1.628118" lat="43.348998"><ele>5.75</ele></trkpt>
<trkpt lon="-1.628304" lat="43.349002"><ele>6.25</ele></trkpt>
<trkpt lon="-1.628564" lat="43.349074"><ele>6.75</ele></trkpt>
<trkpt lon="-1.628803" lat="43.349104"><ele>6.75</ele></trkpt>
<trkpt lon="-1.629303" lat="43.349114"><ele>7.5</ele></trkpt>
<trkpt lon="-1.629822" lat="43.349079"><ele>10.25</ele></trkpt>
<trkpt lon="-1.630209" lat="43.348763"><ele>14.25</ele></trkpt>
<trkpt lon="-1.630496" lat="43.348518"><ele>18.75</ele></trkpt>
<trkpt lon="-1.630872" lat="43.348303"><ele>20.25</ele></trkpt>
<trkpt lon="-1.631286" lat="43.347844"><ele>29.5</ele></trkpt>
<trkpt lon="-1.631336" lat="43.347843"><ele>29.25</ele></trkpt>
<trkpt lon="-1.631396" lat="43.347858"><ele>29.5</ele></trkpt>
<trkpt lon="-1.631413" lat="43.347907"><ele>30.25</ele></trkpt>
<trkpt lon="-1.631411" lat="43.348015"><ele>30.5</ele></trkpt>
<trkpt lon="-1.631357" lat="43.348217"><ele>30.0</ele></trkpt>
<trkpt lon="-1.631392" lat="43.348391"><ele>31.25</ele></trkpt>
<trkpt lon="-1.631429" lat="43.348462"><ele>31.25</ele></trkpt>
<trkpt lon="-1.631502" lat="43.348530"><ele>32.0</ele></trkpt>
<trkpt lon="-1.631585" lat="43.348576"><ele>33.0</ele></trkpt>
<trkpt lon="-1.631675" lat="43.348587"><ele>34.5</ele></trkpt>
<trkpt lon="-1.631948" lat="43.348567"><ele>37.25</ele></trkpt>
<trkpt lon="-1.632050" lat="43.348583"><ele>38.5</ele></trkpt>
<trkpt lon="-1.632101" lat="43.348627"><ele>38.75</ele></trkpt>
<trkpt lon="-1.632097" lat="43.348673"><ele>39.0</ele></trkpt>
<trkpt lon="-1.632025" lat="43.348801"><ele>38.75</ele></trkpt>
<trkpt lon="-1.632006" lat="43.348887"><ele>39.0</ele></trkpt>
<trkpt lon="-1.632037" lat="43.349008"><ele>39.5</ele></trkpt>
<trkpt lon="-1.632123" lat="43.349190"><ele>40.25</ele></trkpt>
<trkpt lon="-1.632184" lat="43.349275"><ele>40.75</ele></trkpt>
<trkpt lon="-1.632256" lat="43.349311"><ele>41.75</ele></trkpt>
<trkpt lon="-1.632352" lat="43.349314"><ele>43.0</ele></trkpt>
<trkpt lon="-1.632399" lat="43.349297"><ele>43.75</ele></trkpt>
<trkpt lon="-1.632459" lat="43.349248"><ele>44.75</ele></trkpt>
<trkpt lon="-1.632470" lat="43.349193"><ele>45.25</ele></trkpt>
<trkpt lon="-1.632400" lat="43.348511"><ele>47.25</ele></trkpt>
<trkpt lon="-1.632388" lat="43.348284"><ele>50.0</ele></trkpt>
<trkpt lon="-1.632394" lat="43.348140"><ele>50.75</ele></trkpt>
<trkpt lon="-1.632441" lat="43.347979"><ele>51.5</ele></trkpt>
<trkpt lon="-1.632532" lat="43.347879"><ele>52.75</ele></trkpt>
<trkpt lon="-1.632635" lat="43.347805"><ele>53.25</ele></trkpt>
<trkpt lon="-1.632764" lat="43.347750"><ele>53.75</ele></trkpt>
<trkpt lon="-1.632838" lat="43.347698"><ele>54.0</ele></trkpt>
<trkpt lon="-1.632871" lat="43.347645"><ele>54.0</ele></trkpt>
<trkpt lon="-1.632962" lat="43.347369"><ele>53.5</ele></trkpt>
<trkpt lon="-1.633041" lat="43.347096"><ele>53.25</ele></trkpt>
<trkpt lon="-1.633122" lat="43.346926"><ele>53.25</ele></trkpt>
<trkpt lon="-1.633412" lat="43.346544"><ele>53.25</ele></trkpt>
<trkpt lon="-1.633788" lat="43.346224"><ele>53.5</ele></trkpt>
<trkpt lon="-1.635000" lat="43.345894"><ele>61.25</ele></trkpt>
<trkpt lon="-1.635021" lat="43.346005"><ele>62.25</ele></trkpt>
<trkpt lon="-1.635399" lat="43.346290"><ele>64.75</ele></trkpt>
<trkpt lon="-1.635897" lat="43.346626"><ele>63.75</ele></trkpt>
<trkpt lon="-1.636103" lat="43.346742"><ele>63.25</ele></trkpt>
<trkpt lon="-1.636228" lat="43.346813"><ele>62.75</ele></trkpt>
<trkpt lon="-1.636282" lat="43.346843"><ele>62.75</ele></trkpt>
<trkpt lon="-1.636708" lat="43.347019"><ele>62.75</ele></trkpt>
<trkpt lon="-1.637175" lat="43.347238"><ele>65.0</ele></trkpt>
<trkpt lon="-1.637529" lat="43.347425"><ele>63.25</ele></trkpt>
<trkpt lon="-1.637768" lat="43.347588"><ele>61.75</ele></trkpt>
<trkpt lon="-1.638012" lat="43.347817"><ele>59.0</ele></trkpt>
<trkpt lon="-1.638295" lat="43.348017"><ele>57.0</ele></trkpt>
<trkpt lon="-1.638594" lat="43.348174"><ele>54.5</ele></trkpt>
<trkpt lon="-1.638922" lat="43.348333"><ele>52.75</ele></trkpt>
<trkpt lon="-1.639357" lat="43.348489"><ele>50.25</ele></trkpt>
<trkpt lon="-1.639527" lat="43.348535"><ele>49.25</ele></trkpt>
<trkpt lon="-1.639751" lat="43.348569"><ele>47.75</ele></trkpt>
<trkpt lon="-1.639849" lat="43.348572"><ele>47.0</ele></trkpt>
<trkpt lon="-1.639968" lat="43.348520"><ele>46.25</ele></trkpt>
<trkpt lon="-1.640096" lat="43.348461"><ele>45.5</ele></trkpt>
<trkpt lon="-1.641063" lat="43.348178"><ele>40.25</ele></trkpt>
<trkpt lon="-1.641197" lat="43.348397"><ele>39.0</ele></trkpt>
<trkpt lon="-1.641237" lat="43.348500"><ele>38.0</ele></trkpt>
<trkpt lon="-1.641236" lat="43.348588"><ele>37.25</ele></trkpt>
<trkpt lon="-1.641189" lat="43.348711"><ele>36.5</ele></trkpt>
<trkpt lon="-1.641138" lat="43.348806"><ele>36.25</ele></trkpt>
<trkpt lon="-1.640845" lat="43.349160"><ele>34.75</ele></trkpt>
<trkpt lon="-1.640753" lat="43.349295"><ele>35.0</ele></trkpt>
<trkpt lon="-1.640755" lat="43.349370"><ele>34.25</ele></trkpt>
<trkpt lon="-1.640790" lat="43.349427"><ele>33.5</ele></trkpt>
<trkpt lon="-1.640843" lat="43.349474"><ele>32.75</ele></trkpt>
<trkpt lon="-1.640938" lat="43.349489"><ele>32.25</ele></trkpt>
<trkpt lon="-1.641060" lat="43.349481"><ele>31.25</ele></trkpt>
<trkpt lon="-1.641225" lat="43.349429"><ele>31.0</ele></trkpt>
<trkpt lon="-1.641480" lat="43.349379"><ele>29.75</ele></trkpt>
<trkpt lon="-1.641674" lat="43.349350"><ele>27.5</ele></trkpt>
<trkpt lon="-1.641926" lat="43.349344"><ele>25.75</ele></trkpt>
<trkpt lon="-1.642715" lat="43.349401"><ele>20.75</ele></trkpt>
<trkpt lon="-1.642921" lat="43.349400"><ele>19.25</ele></trkpt>
<trkpt lon="-1.643195" lat="43.349376"><ele>16.0</ele></trkpt>
<trkpt lon="-1.643292" lat="43.349390"><ele>14.75</ele></trkpt>
<trkpt lon="-1.643363" lat="43.349430"><ele>14.5</ele></trkpt>
<trkpt lon="-1.643430" lat="43.349497"><ele>14.0</ele></trkpt>
<trkpt lon="-1.643489" lat="43.349612"><ele>13.0</ele></trkpt>
<trkpt lon="-1.643525" lat="43.349801"><ele>11.25</ele></trkpt>
<trkpt lon="-1.643579" lat="43.349910"><ele>9.25</ele></trkpt>
<trkpt lon="-1.643742" lat="43.349963"><ele>6.75</ele></trkpt>
<trkpt lon="-1.643796" lat="43.349860"><ele>7.5</ele></trkpt>
<trkpt lon="-1.643883" lat="43.349881"><ele>6.25</ele></trkpt>
<trkpt lon="-1.644045" lat="43.349914"><ele>5.5</ele></trkpt>
<trkpt lon="-1.644433" lat="43.350015"><ele>6.0</ele></trkpt>
<trkpt lon="-1.644822" lat="43.350057"><ele>6.0</ele></trkpt>
<trkpt lon="-1.645001" lat="43.350047"><ele>6.0</ele></trkpt>
<trkpt lon="-1.645147" lat="43.350041"><ele>6.5</ele></trkpt>
<trkpt lon="-1.645598" lat="43.350016"><ele>8.0</ele></trkpt>
<trkpt lon="-1.645907" lat="43.350040"><ele>9.75</ele></trkpt>
<trkpt lon="-1.646460" lat="43.350203"><ele>12.0</ele></trkpt>
<trkpt lon="-1.647005" lat="43.350373"><ele>14.5</ele></trkpt>
<trkpt lon="-1.647174" lat="43.350414"><ele>15.5</ele></trkpt>
<trkpt lon="-1.647218" lat="43.350393"><ele>15.75</ele></trkpt>
<trkpt lon="-1.647297" lat="43.350385"><ele>16.25</ele></trkpt>
<trkpt lon="-1.647498" lat="43.350396"><ele>17.75</ele></trkpt>
<trkpt lon="-1.648699" lat="43.350758"><ele>31.5</ele></trkpt>
<trkpt lon="-1.648996" lat="43.350864"><ele>35.25</ele></trkpt>
<trkpt lon="-1.649283" lat="43.350980"><ele>39.25</ele></trkpt>
<trkpt lon="-1.649395" lat="43.351044"><ele>40.75</ele></trkpt>
<trkpt lon="-1.649470" lat="43.351122"><ele>42.0</ele></trkpt>
<trkpt lon="-1.649681" lat="43.351312"><ele>44.5</ele></trkpt>
<trkpt lon="-1.650069" lat="43.351463"><ele>47.5</ele></trkpt>
<trkpt lon="-1.650780" lat="43.351690"><ele>50.75</ele></trkpt>
<trkpt lon="-1.651509" lat="43.351940"><ele>57.75</ele></trkpt>
<trkpt lon="-1.651908" lat="43.352005"><ele>61.0</ele></trkpt>
<trkpt lon="-1.652294" lat="43.352034"><ele>62.5</ele></trkpt>
<trkpt lon="-1.652374" lat="43.352054"><ele>62.75</ele></trkpt>
<trkpt lon="-1.652431" lat="43.352088"><ele>63.0</ele></trkpt>
<trkpt lon="-1.652515" lat="43.352155"><ele>63.75</ele></trkpt>
<trkpt lon="-1.652779" lat="43.352499"><ele>67.75</ele></trkpt>
<trkpt lon="-1.652925" lat="43.352671"><ele>70.25</ele></trkpt>
<trkpt lon="-1.653028" lat="43.352733"><ele>71.25</ele></trkpt>
<trkpt lon="-1.653471" lat="43.352819"><ele>73.25</ele></trkpt>
<trkpt lon="-1.654096" lat="43.352898"><ele>74.0</ele></trkpt>
<trkpt lon="-1.654718" lat="43.352920"><ele>77.75</ele></trkpt>
<trkpt lon="-1.654817" lat="43.352932"><ele>77.5</ele></trkpt>
<trkpt lon="-1.654910" lat="43.352968"><ele>77.0</ele></trkpt>
<trkpt lon="-1.654960" lat="43.353054"><ele>76.25</ele></trkpt>
<trkpt lon="-1.654977" lat="43.353134"><ele>75.5</ele></trkpt>
<trkpt lon="-1.655267" lat="43.353122"><ele>70.25</ele></trkpt>
<trkpt lon="-1.655395" lat="43.353074"><ele>68.0</ele></trkpt>
<trkpt lon="-1.655481" lat="43.352996"><ele>67.5</ele></trkpt>
<trkpt lon="-1.655677" lat="43.352873"><ele>65.75</ele></trkpt>
<trkpt lon="-1.655899" lat="43.352783"><ele>64.5</ele></trkpt>
<trkpt lon="-1.656187" lat="43.352782"><ele>63.75</ele></trkpt>
<trkpt lon="-1.656476" lat="43.352820"><ele>62.75</ele></trkpt>
<trkpt lon="-1.656890" lat="43.352904"><ele>62.25</ele></trkpt>
<trkpt lon="-1.657304" lat="43.352943"><ele>60.25</ele></trkpt>
<trkpt lon="-1.657842" lat="43.352891"><ele>56.5</ele></trkpt>
<trkpt lon="-1.658523" lat="43.352785"><ele>57.75</ele></trkpt>
<trkpt lon="-1.658737" lat="43.352705"><ele>56.5</ele></trkpt>
<trkpt lon="-1.658859" lat="43.352639"><ele>55.75</ele></trkpt>
<trkpt lon="-1.658971" lat="43.352554"><ele>56.0</ele></trkpt>
<trkpt lon="-1.659165" lat="43.352388"><ele>56.0</ele></trkpt>
<trkpt lon="-1.659922" lat="43.351927"><ele>59.75</ele></trkpt>
<trkpt lon="-1.660099" lat="43.351775"><ele>62.75</ele></trkpt>
<trkpt lon="-1.660254" lat="43.351588"><ele>65.75</ele></trkpt>
<trkpt lon="-1.660289" lat="43.351532"><ele>67.0</ele></trkpt>
<trkpt lon="-1.660298" lat="43.351303"><ele>70.75</ele></trkpt>
<trkpt lon="-1.660262" lat="43.351156"><ele>73.0</ele></trkpt>
<trkpt lon="-1.660265" lat="43.351010"><ele>74.25</ele></trkpt>
<trkpt lon="-1.660375" lat="43.350842"><ele>76.0</ele></trkpt>
<trkpt lon="-1.660508" lat="43.350680"><ele>76.75</ele></trkpt>
<trkpt lon="-1.660786" lat="43.350503"><ele>78.25</ele></trkpt>
<trkpt lon="-1.660816" lat="43.350492"><ele>78.25</ele></trkpt>
<trkpt lon="-1.661301" lat="43.350506"><ele>82.0</ele></trkpt>
<trkpt lon="-1.661428" lat="43.350491"><ele>83.0</ele></trkpt>
<trkpt lon="-1.661701" lat="43.350394"><ele>84.75</ele></trkpt>
<trkpt lon="-1.661812" lat="43.350372"><ele>85.5</ele></trkpt>
<trkpt lon="-1.661917" lat="43.350375"><ele>86.75</ele></trkpt>
<trkpt lon="-1.662121" lat="43.350452"><ele>87.0</ele></trkpt>
<trkpt lon="-1.662418" lat="43.350650"><ele>84.75</ele></trkpt>
<trkpt lon="-1.662520" lat="43.350738"><ele>83.75</ele></trkpt>
<trkpt lon="-1.662612" lat="43.350892"><ele>82.25</ele></trkpt>
<trkpt lon="-1.662696" lat="43.351111"><ele>80.75</ele></trkpt>
<trkpt lon="-1.662846" lat="43.351285"><ele>80.0</ele></trkpt>
<trkpt lon="-1.663022" lat="43.351388"><ele>80.0</ele></trkpt>
<trkpt lon="-1.663146" lat="43.351426"><ele>80.0</ele></trkpt>
<trkpt lon="-1.663372" lat="43.351422"><ele>79.75</ele></trkpt>
<trkpt lon="-1.663580" lat="43.351401"><ele>79.75</ele></trkpt>
<trkpt lon="-1.663866" lat="43.351358"><ele>79.75</ele></trkpt>
<trkpt lon="-1.664018" lat="43.351338"><ele>79.0</ele></trkpt>
<trkpt lon="-1.664564" lat="43.351218"><ele>77.25</ele></trkpt>
<trkpt lon="-1.664858" lat="43.351203"><ele>76.5</ele></trkpt>
<trkpt lon="-1.665172" lat="43.351260"><ele>76.5</ele></trkpt>
<trkpt lon="-1.665499" lat="43.351384"><ele>77.75</ele></trkpt>
<trkpt lon="-1.665844" lat="43.351538"><ele>76.25</ele></trkpt>
<trkpt lon="-1.666225" lat="43.351768"><ele>77.5</ele></trkpt>
<trkpt lon="-1.666498" lat="43.351978"><ele>80.0</ele></trkpt>
<trkpt lon="-1.666649" lat="43.352047"><ele>81.75</ele></trkpt>
<trkpt lon="-1.666964" lat="43.352168"><ele>86.75</ele></trkpt>
<trkpt lon="-1.667199" lat="43.352391"><ele>90.25</ele></trkpt>
<trkpt lon="-1.667221" lat="43.352580"><ele>89.75</ele></trkpt>
<trkpt lon="-1.667172" lat="43.352860"><ele>89.5</ele></trkpt>
<trkpt lon="-1.667147" lat="43.352924"><ele>89.75</ele></trkpt>
<trkpt lon="-1.667292" lat="43.352968"><ele>90.5</ele></trkpt>
<trkpt lon="-1.667501" lat="43.353381"><ele>89.5</ele></trkpt>
<trkpt lon="-1.667984" lat="43.353904"><ele>84.75</ele></trkpt>
<trkpt lon="-1.668220" lat="43.354114"><ele>83.0</ele></trkpt>
<trkpt lon="-1.668306" lat="43.354255"><ele>82.75</ele></trkpt>
<trkpt lon="-1.668392" lat="43.354458"><ele>82.25</ele></trkpt>
<trkpt lon="-1.668563" lat="43.354582"><ele>81.75</ele></trkpt>
<trkpt lon="-1.668832" lat="43.354661"><ele>82.25</ele></trkpt>
<trkpt lon="-1.669325" lat="43.354700"><ele>84.75</ele></trkpt>
<trkpt lon="-1.669754" lat="43.354723"><ele>84.25</ele></trkpt>
<trkpt lon="-1.670044" lat="43.354848"><ele>82.25</ele></trkpt>
<trkpt lon="-1.670216" lat="43.354957"><ele>82.0</ele></trkpt>
<trkpt lon="-1.670495" lat="43.355152"><ele>81.0</ele></trkpt>
<trkpt lon="-1.670816" lat="43.355269"><ele>81.75</ele></trkpt>
<trkpt lon="-1.671074" lat="43.355324"><ele>82.0</ele></trkpt>
<trkpt lon="-1.671374" lat="43.355331"><ele>82.75</ele></trkpt>
<trkpt lon="-1.671761" lat="43.355261"><ele>84.25</ele></trkpt>
<trkpt lon="-1.672168" lat="43.355246"><ele>86.25</ele></trkpt>
<trkpt lon="-1.672619" lat="43.355300"><ele>86.0</ele></trkpt>
<trkpt lon="-1.673037" lat="43.355425"><ele>84.0</ele></trkpt>
<trkpt lon="-1.673192" lat="43.355492"><ele>83.25</ele></trkpt>
<trkpt lon="-1.673327" lat="43.355550"><ele>83.75</ele></trkpt>
<trkpt lon="-1.673578" lat="43.355616"><ele>83.0</ele></trkpt>
<trkpt lon="-1.674035" lat="43.355737"><ele>83.25</ele></trkpt>
<trkpt lon="-1.674239" lat="43.355831"><ele>84.75</ele></trkpt>
<trkpt lon="-1.674636" lat="43.355987"><ele>86.25</ele></trkpt>
<trkpt lon="-1.675001" lat="43.356244"><ele>88.5</ele></trkpt>
<trkpt lon="-1.675223" lat="43.356557"><ele>88.75</ele></trkpt>
<trkpt lon="-1.675290" lat="43.356689"><ele>88.75</ele></trkpt>
<trkpt lon="-1.675451" lat="43.356884"><ele>85.75</ele></trkpt>
<trkpt lon="-1.675666" lat="43.357055"><ele>83.5</ele></trkpt>
<trkpt lon="-1.676224" lat="43.357344"><ele>79.75</ele></trkpt>
<trkpt lon="-1.676728" lat="43.357672"><ele>77.5</ele></trkpt>
<trkpt lon="-1.676995" lat="43.357925"><ele>76.5</ele></trkpt>
<trkpt lon="-1.677471" lat="43.358467"><ele>74.5</ele></trkpt>
<trkpt lon="-1.677793" lat="43.358857"><ele>73.5</ele></trkpt>
<trkpt lon="-1.677983" lat="43.359193"><ele>72.0</ele></trkpt>
<trkpt lon="-1.678090" lat="43.359406"><ele>72.0</ele></trkpt>
<trkpt lon="-1.678304" lat="43.359602"><ele>71.75</ele></trkpt>
<trkpt lon="-1.678529" lat="43.359712"><ele>72.25</ele></trkpt>
<trkpt lon="-1.678890" lat="43.359806"><ele>74.0</ele></trkpt>
<trkpt lon="-1.679108" lat="43.359878"><ele>75.25</ele></trkpt>
<trkpt lon="-1.679538" lat="43.360084"><ele>75.25</ele></trkpt>
<trkpt lon="-1.679850" lat="43.360222"><ele>76.0</ele></trkpt>
<trkpt lon="-1.680064" lat="43.360289"><ele>76.5</ele></trkpt>
<trkpt lon="-1.680276" lat="43.360324"><ele>75.5</ele></trkpt>
<trkpt lon="-1.680483" lat="43.360372"><ele>76.0</ele></trkpt>
<trkpt lon="-1.680833" lat="43.360576"><ele>78.0</ele></trkpt>
<trkpt lon="-1.681232" lat="43.360839"><ele>76.75</ele></trkpt>
<trkpt lon="-1.681714" lat="43.361120"><ele>76.5</ele></trkpt>
<trkpt lon="-1.682096" lat="43.361301"><ele>77.25</ele></trkpt>
<trkpt lon="-1.682372" lat="43.361383"><ele>77.5</ele></trkpt>
<trkpt lon="-1.682648" lat="43.361410"><ele>77.25</ele></trkpt>
<trkpt lon="-1.683120" lat="43.361383"><ele>76.5</ele></trkpt>
<trkpt lon="-1.683365" lat="43.361362"><ele>75.5</ele></trkpt>
<trkpt lon="-1.683682" lat="43.361358"><ele>75.0</ele></trkpt>
<trkpt lon="-1.684109" lat="43.361408"><ele>76.0</ele></trkpt>
<trkpt lon="-1.684399" lat="43.361478"><ele>75.5</ele></trkpt>
<trkpt lon="-1.684764" lat="43.361673"><ele>71.75</ele></trkpt>
<trkpt lon="-1.685118" lat="43.361907"><ele>65.75</ele></trkpt>
<trkpt lon="-1.685280" lat="43.361988"><ele>63.75</ele></trkpt>
<trkpt lon="-1.685719" lat="43.362188"><ele>57.0</ele></trkpt>
<trkpt lon="-1.685838" lat="43.362300"><ele>55.0</ele></trkpt>
<trkpt lon="-1.685944" lat="43.362399"><ele>53.75</ele></trkpt>
<trkpt lon="-1.686082" lat="43.362396"><ele>53.5</ele></trkpt>
<trkpt lon="-1.686343" lat="43.362391"><ele>47.5</ele></trkpt>
<trkpt lon="-1.686794" lat="43.362395"><ele>41.75</ele></trkpt>
<trkpt lon="-1.687277" lat="43.362429"><ele>37.25</ele></trkpt>
<trkpt lon="-1.687493" lat="43.362417"><ele>36.25</ele></trkpt>
<trkpt lon="-1.688434" lat="43.362339"><ele>29.0</ele></trkpt>
<trkpt lon="-1.688707" lat="43.362346"><ele>27.5</ele></trkpt>
<trkpt lon="-1.688896" lat="43.362395"><ele>26.75</ele></trkpt>
<trkpt lon="-1.689065" lat="43.362459"><ele>25.75</ele></trkpt>
<trkpt lon="-1.689243" lat="43.362564"><ele>24.25</ele></trkpt>
<trkpt lon="-1.689666" lat="43.362933"><ele>18.75</ele></trkpt>
<trkpt lon="-1.689794" lat="43.362996"><ele>17.25</ele></trkpt>
<trkpt lon="-1.689954" lat="43.363008"><ele>16.5</ele></trkpt>
<trkpt lon="-1.690156" lat="43.362961"><ele>16.25</ele></trkpt>
<trkpt lon="-1.690865" lat="43.362493"><ele>13.75</ele></trkpt>
<trkpt lon="-1.690950" lat="43.362441"><ele>13.75</ele></trkpt>
<trkpt lon="-1.691212" lat="43.362430"><ele>12.75</ele></trkpt>
<trkpt lon="-1.691271" lat="43.362438"><ele>12.75</ele></trkpt>
<trkpt lon="-1.691350" lat="43.362502"><ele>13.0</ele></trkpt>
<trkpt lon="-1.691648" lat="43.362746"><ele>12.5</ele></trkpt>
<trkpt lon="-1.691754" lat="43.362830"><ele>12.0</ele></trkpt>
<trkpt lon="-1.691797" lat="43.362905"><ele>12.0</ele></trkpt>
<trkpt lon="-1.691830" lat="43.362963"><ele>12.25</ele></trkpt>
<trkpt lon="-1.691854" lat="43.363025"><ele>12.5</ele></trkpt>
<trkpt lon="-1.691850" lat="43.363089"><ele>12.5</ele></trkpt>
<trkpt lon="-1.691873" lat="43.363150"><ele>12.25</ele></trkpt>
<trkpt lon="-1.691921" lat="43.363201"><ele>12.25</ele></trkpt>
<trkpt lon="-1.691988" lat="43.363240"><ele>12.25</ele></trkpt>
<trkpt lon="-1.692068" lat="43.363261"><ele>12.25</ele></trkpt>
<trkpt lon="-1.692136" lat="43.363264"><ele>12.0</ele></trkpt>
<trkpt lon="-1.692203" lat="43.363255"><ele>12.25</ele></trkpt>
<trkpt lon="-1.692418" lat="43.363345"><ele>11.25</ele></trkpt>
<trkpt lon="-1.692503" lat="43.363368"><ele>10.75</ele></trkpt>
<trkpt lon="-1.692584" lat="43.363360"><ele>10.75</ele></trkpt>
<trkpt lon="-1.692765" lat="43.363306"><ele>11.0</ele></trkpt>
<trkpt lon="-1.693734" lat="43.363044"><ele>9.0</ele></trkpt>
<trkpt lon="-1.693853" lat="43.363025"><ele>9.0</ele></trkpt>
<trkpt lon="-1.693967" lat="43.363015"><ele>8.75</ele></trkpt>
<trkpt lon="-1.694378" lat="43.362972"><ele>8.5</ele></trkpt>
<trkpt lon="-1.694549" lat="43.362951"><ele>9.0</ele></trkpt>
<trkpt lon="-1.695299" lat="43.362863"><ele>10.0</ele></trkpt>
<trkpt lon="-1.695366" lat="43.362855"><ele>10.0</ele></trkpt>
<trkpt lon="-1.695506" lat="43.362838"><ele>10.0</ele></trkpt>
<trkpt lon="-1.696126" lat="43.362766"><ele>11.0</ele></trkpt>
<trkpt lon="-1.696480" lat="43.362718"><ele>13.75</ele></trkpt>
<trkpt lon="-1.696572" lat="43.362706"><ele>14.25</ele></trkpt>
<trkpt lon="-1.696722" lat="43.362686"><ele>15.25</ele></trkpt>
<trkpt lon="-1.696744" lat="43.362725"><ele>15.5</ele></trkpt>
<trkpt lon="-1.696767" lat="43.362763"><ele>15.5</ele></trkpt>
<trkpt lon="-1.697045" lat="43.362823"><ele>17.5</ele></trkpt>
<trkpt lon="-1.697240" lat="43.362982"><ele>19.0</ele></trkpt>
<trkpt lon="-1.697830" lat="43.363249"><ele>21.5</ele></trkpt>
<trkpt lon="-1.697879" lat="43.363328"><ele>21.25</ele></trkpt>
<trkpt lon="-1.697889" lat="43.363394"><ele>20.5</ele></trkpt>
<trkpt lon="-1.697904" lat="43.363491"><ele>19.75</ele></trkpt>
<trkpt lon="-1.698071" lat="43.363790"><ele>16.25</ele></trkpt>
<trkpt lon="-1.698103" lat="43.363908"><ele>14.75</ele></trkpt>
<trkpt lon="-1.698184" lat="43.364172"><ele>11.25</ele></trkpt>
<trkpt lon="-1.698222" lat="43.364297"><ele>11.75</ele></trkpt>
<trkpt lon="-1.698315" lat="43.364414"><ele>12.0</ele></trkpt>
<trkpt lon="-1.698420" lat="43.364547"><ele>12.75</ele></trkpt>
<trkpt lon="-1.698482" lat="43.364530"><ele>12.75</ele></trkpt>
<trkpt lon="-1.698544" lat="43.364530"><ele>12.75</ele></trkpt>
<trkpt lon="-1.699352" lat="43.364525"><ele>17.5</ele></trkpt>
<trkpt lon="-1.699649" lat="43.364555"><ele>20.75</ele></trkpt>
<trkpt lon="-1.700057" lat="43.364703"><ele>24.25</ele></trkpt>
<trkpt lon="-1.700700" lat="43.364744"><ele>27.0</ele></trkpt>
<trkpt lon="-1.700824" lat="43.364736"><ele>27.0</ele></trkpt>
<trkpt lon="-1.700913" lat="43.364657"><ele>28.25</ele></trkpt>
<trkpt lon="-1.700980" lat="43.364569"><ele>29.5</ele></trkpt>
<trkpt lon="-1.701033" lat="43.364460"><ele>31.25</ele></trkpt>
<trkpt lon="-1.701150" lat="43.364094"><ele>37.5</ele></trkpt>
<trkpt lon="-1.700634" lat="43.363970"><ele>35.5</ele></trkpt>
<trkpt lon="-1.700555" lat="43.363941"><ele>35.25</ele></trkpt>
<trkpt lon="-1.700549" lat="43.363891"><ele>35.75</ele></trkpt>
<trkpt lon="-1.700610" lat="43.363837"><ele>36.0</ele></trkpt>
<trkpt lon="-1.701267" lat="43.363497"><ele>39.75</ele></trkpt>
<trkpt lon="-1.701489" lat="43.363382"><ele>39.25</ele></trkpt>
<trkpt lon="-1.701562" lat="43.363345"><ele>39.0</ele></trkpt>
<trkpt lon="-1.701376" lat="43.363254"><ele>38.0</ele></trkpt>
<trkpt lon="-1.701290" lat="43.363212"><ele>37.5</ele></trkpt>
<trkpt lon="-1.700692" lat="43.362810"><ele>35.0</ele></trkpt>
<trkpt lon="-1.700436" lat="43.362646"><ele>33.5</ele></trkpt>
<trkpt lon="-1.700400" lat="43.362610"><ele>33.25</ele></trkpt>
<trkpt lon="-1.700296" lat="43.362507"><ele>33.0</ele></trkpt>
<trkpt lon="-1.700158" lat="43.362372"><ele>31.75</ele></trkpt>
<trkpt lon="-1.700099" lat="43.362315"><ele>31.25</ele></trkpt>
<trkpt lon="-1.700280" lat="43.362287"><ele>31.25</ele></trkpt>
<trkpt lon="-1.700442" lat="43.362258"><ele>31.25</ele></trkpt>
<trkpt lon="-1.702040" lat="43.361910"><ele>23.25</ele></trkpt>
<trkpt lon="-1.702246" lat="43.361881"><ele>22.25</ele></trkpt>
<trkpt lon="-1.702910" lat="43.361872"><ele>21.25</ele></trkpt>
<trkpt lon="-1.703161" lat="43.361875"><ele>21.25</ele></trkpt>
<trkpt lon="-1.703385" lat="43.361883"><ele>21.25</ele></trkpt>
<trkpt lon="-1.703502" lat="43.361880"><ele>21.25</ele></trkpt>
<trkpt lon="-1.704042" lat="43.361896"><ele>22.25</ele></trkpt>
<trkpt lon="-1.704085" lat="43.361892"><ele>22.25</ele></trkpt>
<trkpt lon="-1.704370" lat="43.361892"><ele>22.5</ele></trkpt>
<trkpt lon="-1.705399" lat="43.361944"><ele>25.25</ele></trkpt>
<trkpt lon="-1.705413" lat="43.361907"><ele>25.25</ele></trkpt>
<trkpt lon="-1.705420" lat="43.361877"><ele>25.0</ele></trkpt>
<trkpt lon="-1.705427" lat="43.361842"><ele>24.75</ele></trkpt>
<trkpt lon="-1.705438" lat="43.361802"><ele>24.75</ele></trkpt>
<trkpt lon="-1.705489" lat="43.361738"><ele>24.75</ele></trkpt>
<trkpt lon="-1.706317" lat="43.361519"><ele>23.75</ele></trkpt>
<trkpt lon="-1.706362" lat="43.361498"><ele>23.75</ele></trkpt>
<trkpt lon="-1.706760" lat="43.361312"><ele>25.75</ele></trkpt>
<trkpt lon="-1.706991" lat="43.361177"><ele>26.75</ele></trkpt>
<trkpt lon="-1.707193" lat="43.361023"><ele>27.75</ele></trkpt>
<trkpt lon="-1.707284" lat="43.360793"><ele>27.75</ele></trkpt>
<trkpt lon="-1.707331" lat="43.360575"><ele>27.25</ele></trkpt>
<trkpt lon="-1.707408" lat="43.360463"><ele>26.75</ele></trkpt>
<trkpt lon="-1.707558" lat="43.360338"><ele>25.0</ele></trkpt>
<trkpt lon="-1.707695" lat="43.360266"><ele>23.25</ele></trkpt>
<trkpt lon="-1.707879" lat="43.360230"><ele>21.75</ele></trkpt>
<trkpt lon="-1.708068" lat="43.360267"><ele>20.75</ele></trkpt>
<trkpt lon="-1.708311" lat="43.360415"><ele>20.5</ele></trkpt>
<trkpt lon="-1.708767" lat="43.360546"><ele>22.25</ele></trkpt>
<trkpt lon="-1.709019" lat="43.360601"><ele>25.0</ele></trkpt>
<trkpt lon="-1.709102" lat="43.360619"><ele>25.75</ele></trkpt>
<trkpt lon="-1.709490" lat="43.360613"><ele>28.5</ele></trkpt>
<trkpt lon="-1.709833" lat="43.360565"><ele>31.0</ele></trkpt>
<trkpt lon="-1.710159" lat="43.360446"><ele>34.5</ele></trkpt>
<trkpt lon="-1.710461" lat="43.360290"><ele>37.5</ele></trkpt>
<trkpt lon="-1.711086" lat="43.360077"><ele>42.0</ele></trkpt>
<trkpt lon="-1.711654" lat="43.359928"><ele>45.5</ele></trkpt>
<trkpt lon="-1.712313" lat="43.359690"><ele>47.25</ele></trkpt>
<trkpt lon="-1.712932" lat="43.359430"><ele>48.5</ele></trkpt>
<trkpt lon="-1.713517" lat="43.359105"><ele>48.5</ele></trkpt>
<trkpt lon="-1.714140" lat="43.359117"><ele>46.5</ele></trkpt>
<trkpt lon="-1.714880" lat="43.359226"><ele>45.75</ele></trkpt>
<trkpt lon="-1.715438" lat="43.359242"><ele>46.0</ele></trkpt>
<trkpt lon="-1.715808" lat="43.359234"><ele>47.25</ele></trkpt>
<trkpt lon="-1.716017" lat="43.359284"><ele>48.5</ele></trkpt>
<trkpt lon="-1.716123" lat="43.359402"><ele>49.5</ele></trkpt>
<trkpt lon="-1.716108" lat="43.359639"><ele>49.75</ele></trkpt>
<trkpt lon="-1.716140" lat="43.359682"><ele>50.0</ele></trkpt>
<trkpt lon="-1.716312" lat="43.359671"><ele>50.5</ele></trkpt>
<trkpt lon="-1.716468" lat="43.359682"><ele>51.5</ele></trkpt>
<trkpt lon="-1.716655" lat="43.359671"><ele>53.0</ele></trkpt>
<trkpt lon="-1.717321" lat="43.359592"><ele>54.75</ele></trkpt>
<trkpt lon="-1.717482" lat="43.359600"><ele>55.25</ele></trkpt>
<trkpt lon="-1.717761" lat="43.359745"><ele>55.75</ele></trkpt>
<trkpt lon="-1.717836" lat="43.359846"><ele>55.25</ele></trkpt>
<trkpt lon="-1.717916" lat="43.359998"><ele>54.5</ele></trkpt>
<trkpt lon="-1.717980" lat="43.360143"><ele>54.5</ele></trkpt>
<trkpt lon="-1.718066" lat="43.360197"><ele>55.0</ele></trkpt>
<trkpt lon="-1.718184" lat="43.360205"><ele>55.75</ele></trkpt>
<trkpt lon="-1.718571" lat="43.360146"><ele>58.25</ele></trkpt>
<trkpt lon="-1.718909" lat="43.360100"><ele>61.25</ele></trkpt>
<trkpt lon="-1.719386" lat="43.360107"><ele>64.75</ele></trkpt>
<trkpt lon="-1.719967" lat="43.360106"><ele>68.5</ele></trkpt>
<trkpt lon="-1.720101" lat="43.359973"><ele>69.75</ele></trkpt>
<trkpt lon="-1.720325" lat="43.359859"><ele>72.25</ele></trkpt>
<trkpt lon="-1.720577" lat="43.359753"><ele>74.0</ele></trkpt>
<trkpt lon="-1.720657" lat="43.359639"><ele>73.5</ele></trkpt>
<trkpt lon="-1.720770" lat="43.359522"><ele>73.25</ele></trkpt>
<trkpt lon="-1.720893" lat="43.359472"><ele>73.25</ele></trkpt>
<trkpt lon="-1.721826" lat="43.359247"><ele>71.75</ele></trkpt>
<trkpt lon="-1.722018" lat="43.359660"><ele>76.75</ele></trkpt>
<trkpt lon="-1.722292" lat="43.359494"><ele>74.75</ele></trkpt>
<trkpt lon="-1.722453" lat="43.359455"><ele>74.0</ele></trkpt>
<trkpt lon="-1.722635" lat="43.359463"><ele>74.25</ele></trkpt>
<trkpt lon="-1.724384" lat="43.359829"><ele>78.75</ele></trkpt>
<trkpt lon="-1.724438" lat="43.359915"><ele>79.25</ele></trkpt>
<trkpt lon="-1.724542" lat="43.360188"><ele>81.5</ele></trkpt>
<trkpt lon="-1.724685" lat="43.360243"><ele>83.25</ele></trkpt>
<trkpt lon="-1.724939" lat="43.360188"><ele>84.5</ele></trkpt>
<trkpt lon="-1.725184" lat="43.360110"><ele>85.75</ele></trkpt>
<trkpt lon="-1.725213" lat="43.360197"><ele>86.75</ele></trkpt>
<trkpt lon="-1.725240" lat="43.360255"><ele>87.5</ele></trkpt>
<trkpt lon="-1.725129" lat="43.360282"><ele>86.75</ele></trkpt>
<trkpt lon="-1.725540" lat="43.360734"><ele>92.5</ele></trkpt>
<trkpt lon="-1.725767" lat="43.360959"><ele>93.25</ele></trkpt>
<trkpt lon="-1.725845" lat="43.361038"><ele>93.0</ele></trkpt>
<trkpt lon="-1.726397" lat="43.361520"><ele>87.0</ele></trkpt>
<trkpt lon="-1.726523" lat="43.361674"><ele>86.75</ele></trkpt>
<trkpt lon="-1.726473" lat="43.362064"><ele>86.0</ele></trkpt>
<trkpt lon="-1.726521" lat="43.362204"><ele>87.25</ele></trkpt>
<trkpt lon="-1.726628" lat="43.362266"><ele>87.75</ele></trkpt>
<trkpt lon="-1.726713" lat="43.362256"><ele>89.0</ele></trkpt>
<trkpt lon="-1.726850" lat="43.362168"><ele>91.75</ele></trkpt>
<trkpt lon="-1.726960" lat="43.362106"><ele>94.25</ele></trkpt>
<trkpt lon="-1.727244" lat="43.362044"><ele>99.25</ele></trkpt>
<trkpt lon="-1.728091" lat="43.361885"><ele>108.75</ele></trkpt>
<trkpt lon="-1.728214" lat="43.361824"><ele>108.75</ele></trkpt>
<trkpt lon="-1.728335" lat="43.361750"><ele>108.5</ele></trkpt>
<trkpt lon="-1.728646" lat="43.361649"><ele>104.25</ele></trkpt>
<trkpt lon="-1.728771" lat="43.361644"><ele>101.75</ele></trkpt>
<trkpt lon="-1.728995" lat="43.361705"><ele>98.25</ele></trkpt>
<trkpt lon="-1.729275" lat="43.361832"><ele>94.5</ele></trkpt>
<trkpt lon="-1.729368" lat="43.361895"><ele>93.5</ele></trkpt>
<trkpt lon="-1.729459" lat="43.361997"><ele>92.75</ele></trkpt>
<trkpt lon="-1.729516" lat="43.362078"><ele>91.75</ele></trkpt>
<trkpt lon="-1.729504" lat="43.362104"><ele>92.0</ele></trkpt>
<trkpt lon="-1.729441" lat="43.362131"><ele>93.5</ele></trkpt>
<trkpt lon="-1.729440" lat="43.362156"><ele>93.75</ele></trkpt>
<trkpt lon="-1.729545" lat="43.362161"><ele>91.5</ele></trkpt>
<trkpt lon="-1.729766" lat="43.362154"><ele>86.5</ele></trkpt>
<trkpt lon="-1.729836" lat="43.362135"><ele>85.25</ele></trkpt>
<trkpt lon="-1.729887" lat="43.362095"><ele>84.0</ele></trkpt>
<trkpt lon="-1.729900" lat="43.362009"><ele>83.25</ele></trkpt>
<trkpt lon="-1.729907" lat="43.361847"><ele>81.5</ele></trkpt>
<trkpt lon="-1.729927" lat="43.361792"><ele>80.5</ele></trkpt>
<trkpt lon="-1.729970" lat="43.361778"><ele>79.5</ele></trkpt>
<trkpt lon="-1.730034" lat="43.361794"><ele>78.5</ele></trkpt>
<trkpt lon="-1.730037" lat="43.361840"><ele>78.75</ele></trkpt>
<trkpt lon="-1.730066" lat="43.361917"><ele>79.0</ele></trkpt>
<trkpt lon="-1.730104" lat="43.361977"><ele>78.5</ele></trkpt>
<trkpt lon="-1.730158" lat="43.362011"><ele>77.25</ele></trkpt>
<trkpt lon="-1.730237" lat="43.361994"><ele>75.25</ele></trkpt>
<trkpt lon="-1.730313" lat="43.361966"><ele>73.25</ele></trkpt>
<trkpt lon="-1.730365" lat="43.361939"><ele>72.0</ele></trkpt>
<trkpt lon="-1.730469" lat="43.361907"><ele>69.25</ele></trkpt>
<trkpt lon="-1.730579" lat="43.361921"><ele>67.0</ele></trkpt>
<trkpt lon="-1.730689" lat="43.361999"><ele>65.75</ele></trkpt>
<trkpt lon="-1.730760" lat="43.362064"><ele>64.75</ele></trkpt>
<trkpt lon="-1.730870" lat="43.362143"><ele>63.0</ele></trkpt>
<trkpt lon="-1.730884" lat="43.362184"><ele>62.75</ele></trkpt>
<trkpt lon="-1.730817" lat="43.362274"><ele>63.5</ele></trkpt>
<trkpt lon="-1.730820" lat="43.362318"><ele>62.75</ele></trkpt>
<trkpt lon="-1.730862" lat="43.362384"><ele>61.25</ele></trkpt>
<trkpt lon="-1.730854" lat="43.362457"><ele>60.25</ele></trkpt>
<trkpt lon="-1.730833" lat="43.362517"><ele>60.0</ele></trkpt>
<trkpt lon="-1.730844" lat="43.362556"><ele>59.75</ele></trkpt>
<trkpt lon="-1.730880" lat="43.362557"><ele>59.5</ele></trkpt>
<trkpt lon="-1.730978" lat="43.362521"><ele>58.75</ele></trkpt>
<trkpt lon="-1.731143" lat="43.362360"><ele>57.75</ele></trkpt>
<trkpt lon="-1.731205" lat="43.362278"><ele>57.0</ele></trkpt>
<trkpt lon="-1.731322" lat="43.362172"><ele>55.25</ele></trkpt>
<trkpt lon="-1.731629" lat="43.362006"><ele>51.5</ele></trkpt>
<trkpt lon="-1.731678" lat="43.362003"><ele>51.0</ele></trkpt>
<trkpt lon="-1.731771" lat="43.362057"><ele>50.75</ele></trkpt>
<trkpt lon="-1.731830" lat="43.362100"><ele>50.5</ele></trkpt>
<trkpt lon="-1.732025" lat="43.362212"><ele>50.0</ele></trkpt>
<trkpt lon="-1.732222" lat="43.362273"><ele>53.5</ele></trkpt>
<trkpt lon="-1.732500" lat="43.362078"><ele>56.25</ele></trkpt>
<trkpt lon="-1.732780" lat="43.361943"><ele>57.0</ele></trkpt>
<trkpt lon="-1.732973" lat="43.361873"><ele>57.75</ele></trkpt>
<trkpt lon="-1.733639" lat="43.361865"><ele>63.0</ele></trkpt>
<trkpt lon="-1.733778" lat="43.361826"><ele>64.0</ele></trkpt>
<trkpt lon="-1.734411" lat="43.361475"><ele>69.0</ele></trkpt>
<trkpt lon="-1.734647" lat="43.361413"><ele>70.75</ele></trkpt>
<trkpt lon="-1.734797" lat="43.361350"><ele>71.25</ele></trkpt>
<trkpt lon="-1.734969" lat="43.361210"><ele>71.25</ele></trkpt>
<trkpt lon="-1.735248" lat="43.360827"><ele>71.75</ele></trkpt>
<trkpt lon="-1.735731" lat="43.360554"><ele>73.5</ele></trkpt>
<trkpt lon="-1.736267" lat="43.360055"><ele>73.75</ele></trkpt>
<trkpt lon="-1.736428" lat="43.359969"><ele>73.5</ele></trkpt>
<trkpt lon="-1.736503" lat="43.359860"><ele>74.25</ele></trkpt>
<trkpt lon="-1.736632" lat="43.359525"><ele>73.25</ele></trkpt>
<trkpt lon="-1.737351" lat="43.358831"><ele>74.5</ele></trkpt>
<trkpt lon="-1.737748" lat="43.358456"><ele>75.0</ele></trkpt>
<trkpt lon="-1.737877" lat="43.358394"><ele>75.75</ele></trkpt>
<trkpt lon="-1.738322" lat="43.358238"><ele>78.5</ele></trkpt>
<trkpt lon="-1.738681" lat="43.358113"><ele>81.5</ele></trkpt>
<trkpt lon="-1.739185" lat="43.357848"><ele>88.5</ele></trkpt>
<trkpt lon="-1.740076" lat="43.357317"><ele>98.75</ele></trkpt>
<trkpt lon="-1.740494" lat="43.356966"><ele>104.25</ele></trkpt>
<trkpt lon="-1.740977" lat="43.356748"><ele>109.5</ele></trkpt>
<trkpt lon="-1.741101" lat="43.356643"><ele>111.0</ele></trkpt>
<trkpt lon="-1.741363" lat="43.356405"><ele>111.75</ele></trkpt>
<trkpt lon="-1.741546" lat="43.356350"><ele>112.5</ele></trkpt>
<trkpt lon="-1.741857" lat="43.356334"><ele>113.25</ele></trkpt>
<trkpt lon="-1.742672" lat="43.356389"><ele>113.75</ele></trkpt>
<trkpt lon="-1.742917" lat="43.356474"><ele>113.75</ele></trkpt>
<trkpt lon="-1.743241" lat="43.356600"><ele>114.0</ele></trkpt>
<trkpt lon="-1.743670" lat="43.356662"><ele>114.0</ele></trkpt>
<trkpt lon="-1.743720" lat="43.356642"><ele>114.0</ele></trkpt>
<trkpt lon="-1.743769" lat="43.356622"><ele>114.0</ele></trkpt>
<trkpt lon="-1.743810" lat="43.356621"><ele>113.75</ele></trkpt>
<trkpt lon="-1.744042" lat="43.356416"><ele>112.0</ele></trkpt>
<trkpt lon="-1.744660" lat="43.355924"><ele>102.25</ele></trkpt>
<trkpt lon="-1.744966" lat="43.355668"><ele>97.25</ele></trkpt>
<trkpt lon="-1.745366" lat="43.355355"><ele>89.5</ele></trkpt>
<trkpt lon="-1.745578" lat="43.355245"><ele>86.5</ele></trkpt>
<trkpt lon="-1.745712" lat="43.355193"><ele>86.25</ele></trkpt>
<trkpt lon="-1.745937" lat="43.355158"><ele>84.5</ele></trkpt>
<trkpt lon="-1.746177" lat="43.355068"><ele>81.5</ele></trkpt>
<trkpt lon="-1.746557" lat="43.354904"><ele>80.0</ele></trkpt>
<trkpt lon="-1.746830" lat="43.354744"><ele>78.25</ele></trkpt>
<trkpt lon="-1.747283" lat="43.354530"><ele>77.0</ele></trkpt>
<trkpt lon="-1.747546" lat="43.354390"><ele>74.25</ele></trkpt>
<trkpt lon="-1.747899" lat="43.354221"><ele>72.25</ele></trkpt>
<trkpt lon="-1.748203" lat="43.354112"><ele>70.75</ele></trkpt>
<trkpt lon="-1.748493" lat="43.354037"><ele>69.75</ele></trkpt>
<trkpt lon="-1.748763" lat="43.353990"><ele>67.75</ele></trkpt>
<trkpt lon="-1.748887" lat="43.354005"><ele>67.25</ele></trkpt>
<trkpt lon="-1.749008" lat="43.354051"><ele>67.0</ele></trkpt>
<trkpt lon="-1.749213" lat="43.354129"><ele>66.0</ele></trkpt>
<trkpt lon="-1.749545" lat="43.354188"><ele>67.25</ele></trkpt>
<trkpt lon="-1.749705" lat="43.354298"><ele>67.75</ele></trkpt>
<trkpt lon="-1.749988" lat="43.354510"><ele>66.25</ele></trkpt>
<trkpt lon="-1.750178" lat="43.354663"><ele>66.0</ele></trkpt>
<trkpt lon="-1.750379" lat="43.354798"><ele>66.75</ele></trkpt>
<trkpt lon="-1.750839" lat="43.355132"><ele>69.75</ele></trkpt>
<trkpt lon="-1.751032" lat="43.355242"><ele>69.0</ele></trkpt>
<trkpt lon="-1.751370" lat="43.355341"><ele>72.75</ele></trkpt>
<trkpt lon="-1.751461" lat="43.355352"><ele>74.0</ele></trkpt>
<trkpt lon="-1.751545" lat="43.355376"><ele>74.75</ele></trkpt>
<trkpt lon="-1.751661" lat="43.355423"><ele>75.25</ele></trkpt>
<trkpt lon="-1.751790" lat="43.355436"><ele>76.0</ele></trkpt>
<trkpt lon="-1.751883" lat="43.355428"><ele>77.0</ele></trkpt>
<trkpt lon="-1.751977" lat="43.355367"><ele>79.0</ele></trkpt>
<trkpt lon="-1.752285" lat="43.355205"><ele>84.75</ele></trkpt>
<trkpt lon="-1.752611" lat="43.355093"><ele>90.25</ele></trkpt>
<trkpt lon="-1.752805" lat="43.355061"><ele>92.5</ele></trkpt>
<trkpt lon="-1.753360" lat="43.355070"><ele>97.0</ele></trkpt>
<trkpt lon="-1.753648" lat="43.355019"><ele>98.0</ele></trkpt>
<trkpt lon="-1.753897" lat="43.355102"><ele>98.5</ele></trkpt>
<trkpt lon="-1.754049" lat="43.355179"><ele>99.25</ele></trkpt>
<trkpt lon="-1.754108" lat="43.355223"><ele>99.5</ele></trkpt>
<trkpt lon="-1.754290" lat="43.355379"><ele>99.5</ele></trkpt>
<trkpt lon="-1.754386" lat="43.355429"><ele>99.25</ele></trkpt>
<trkpt lon="-1.754523" lat="43.355459"><ele>99.5</ele></trkpt>
<trkpt lon="-1.755509" lat="43.355629"><ele>101.0</ele></trkpt>
<trkpt lon="-1.756182" lat="43.355750"><ele>103.75</ele></trkpt>
<trkpt lon="-1.756654" lat="43.355828"><ele>102.75</ele></trkpt>
<trkpt lon="-1.757462" lat="43.355931"><ele>102.75</ele></trkpt>
<trkpt lon="-1.757969" lat="43.355982"><ele>103.5</ele></trkpt>
<trkpt lon="-1.758058" lat="43.356006"><ele>104.0</ele></trkpt>
<trkpt lon="-1.758095" lat="43.356076"><ele>104.0</ele></trkpt>
<trkpt lon="-1.758566" lat="43.356143"><ele>106.25</ele></trkpt>
<trkpt lon="-1.759014" lat="43.356169"><ele>108.0</ele></trkpt>
<trkpt lon="-1.759059" lat="43.356074"><ele>108.0</ele></trkpt>
<trkpt lon="-1.759115" lat="43.355991"><ele>107.5</ele></trkpt>
<trkpt lon="-1.759296" lat="43.355838"><ele>106.5</ele></trkpt>
<trkpt lon="-1.759541" lat="43.355665"><ele>105.25</ele></trkpt>
<trkpt lon="-1.760129" lat="43.354874"><ele>95.75</ele></trkpt>
<trkpt lon="-1.760414" lat="43.355073"><ele>95.0</ele></trkpt>
<trkpt lon="-1.760676" lat="43.355216"><ele>92.0</ele></trkpt>
<trkpt lon="-1.761250" lat="43.355595"><ele>85.75</ele></trkpt>
<trkpt lon="-1.761546" lat="43.355666"><ele>82.5</ele></trkpt>
<trkpt lon="-1.761939" lat="43.355676"><ele>77.5</ele></trkpt>
<trkpt lon="-1.762313" lat="43.355637"><ele>75.0</ele></trkpt>
<trkpt lon="-1.762712" lat="43.355557"><ele>73.0</ele></trkpt>
<trkpt lon="-1.762801" lat="43.355530"><ele>72.0</ele></trkpt>
<trkpt lon="-1.763230" lat="43.355403"><ele>69.0</ele></trkpt>
<trkpt lon="-1.763505" lat="43.355278"><ele>68.0</ele></trkpt>
<trkpt lon="-1.763997" lat="43.355014"><ele>66.0</ele></trkpt>
<trkpt lon="-1.764326" lat="43.354915"><ele>64.75</ele></trkpt>
<trkpt lon="-1.764809" lat="43.354828"><ele>63.75</ele></trkpt>
<trkpt lon="-1.765134" lat="43.354792"><ele>65.0</ele></trkpt>
<trkpt lon="-1.765393" lat="43.354790"><ele>66.0</ele></trkpt>
<trkpt lon="-1.765602" lat="43.354808"><ele>66.25</ele></trkpt>
<trkpt lon="-1.766975" lat="43.354986"><ele>56.0</ele></trkpt>
<trkpt lon="-1.767268" lat="43.354983"><ele>53.5</ele></trkpt>
<trkpt lon="-1.767373" lat="43.354982"><ele>52.5</ele></trkpt>
<trkpt lon="-1.767848" lat="43.354955"><ele>49.25</ele></trkpt>
<trkpt lon="-1.767964" lat="43.354968"><ele>48.5</ele></trkpt>
<trkpt lon="-1.767959" lat="43.354998"><ele>48.5</ele></trkpt>
<trkpt lon="-1.767969" lat="43.355028"><ele>48.5</ele></trkpt>
<trkpt lon="-1.767991" lat="43.355055"><ele>48.25</ele></trkpt>
<trkpt lon="-1.768024" lat="43.355074"><ele>48.0</ele></trkpt>
<trkpt lon="-1.768064" lat="43.355084"><ele>47.75</ele></trkpt>
<trkpt lon="-1.768056" lat="43.355164"><ele>47.75</ele></trkpt>
<trkpt lon="-1.768160" lat="43.355303"><ele>47.25</ele></trkpt>
<trkpt lon="-1.768423" lat="43.355745"><ele>40.0</ele></trkpt>
<trkpt lon="-1.768622" lat="43.356060"><ele>34.5</ele></trkpt>
<trkpt lon="-1.768751" lat="43.356200"><ele>32.0</ele></trkpt>
<trkpt lon="-1.768845" lat="43.356248"><ele>31.0</ele></trkpt>
<trkpt lon="-1.768857" lat="43.356223"><ele>31.25</ele></trkpt>
<trkpt lon="-1.768889" lat="43.356192"><ele>31.75</ele></trkpt>
<trkpt lon="-1.768922" lat="43.356175"><ele>31.75</ele></trkpt>
<trkpt lon="-1.768973" lat="43.356162"><ele>31.5</ele></trkpt>
<trkpt lon="-1.769039" lat="43.356166"><ele>31.0</ele></trkpt>
<trkpt lon="-1.769087" lat="43.356183"><ele>30.5</ele></trkpt>
<trkpt lon="-1.769129" lat="43.356219"><ele>30.0</ele></trkpt>
<trkpt lon="-1.769147" lat="43.356255"><ele>29.5</ele></trkpt>
<trkpt lon="-1.770581" lat="43.356184"><ele>19.5</ele></trkpt>
<trkpt lon="-1.770914" lat="43.356191"><ele>17.0</ele></trkpt>
<trkpt lon="-1.771482" lat="43.356203"><ele>13.75</ele></trkpt>
<trkpt lon="-1.772615" lat="43.356379"><ele>22.25</ele></trkpt>
<trkpt lon="-1.774277" lat="43.356613"><ele>27.5</ele></trkpt>
<trkpt lon="-1.774351" lat="43.356625"><ele>27.25</ele></trkpt>
<trkpt lon="-1.774346" lat="43.356399"><ele>27.25</ele></trkpt>
<trkpt lon="-1.774418" lat="43.356385"><ele>27.0</ele></trkpt>
<trkpt lon="-1.775511" lat="43.356175"><ele>21.5</ele></trkpt>
<trkpt lon="-1.776517" lat="43.355914"><ele>15.0</ele></trkpt>
<trkpt lon="-1.776613" lat="43.355873"><ele>14.75</ele></trkpt>
<trkpt lon="-1.776679" lat="43.355805"><ele>15.0</ele></trkpt>
<trkpt lon="-1.776719" lat="43.355762"><ele>15.25</ele></trkpt>
<trkpt lon="-1.776722" lat="43.355754"><ele>15.25</ele></trkpt>
<trkpt lon="-1.776735" lat="43.355715"><ele>15.5</ele></trkpt>
<trkpt lon="-1.776755" lat="43.355656"><ele>15.75</ele></trkpt>
<trkpt lon="-1.777164" lat="43.355144"><ele>18.25</ele></trkpt>
<trkpt lon="-1.777183" lat="43.355121"><ele>18.25</ele></trkpt>
<trkpt lon="-1.777215" lat="43.355098"><ele>18.25</ele></trkpt>
<trkpt lon="-1.777578" lat="43.354834"><ele>19.0</ele></trkpt>
<trkpt lon="-1.777842" lat="43.354640"><ele>21.0</ele></trkpt>
<trkpt lon="-1.779687" lat="43.353355"><ele>22.25</ele></trkpt>
<trkpt lon="-1.779905" lat="43.353486"><ele>20.5</ele></trkpt>
<trkpt lon="-1.779962" lat="43.353496"><ele>20.0</ele></trkpt>
<trkpt lon="-1.780289" lat="43.353292"><ele>18.75</ele></trkpt>
<trkpt lon="-1.780614" lat="43.353132"><ele>16.25</ele></trkpt>
<trkpt lon="-1.780618" lat="43.353119"><ele>16.5</ele></trkpt>
<trkpt lon="-1.780649" lat="43.353124"><ele>16.0</ele></trkpt>
<trkpt lon="-1.780812" lat="43.353242"><ele>12.0</ele></trkpt>
<trkpt lon="-1.780933" lat="43.353320"><ele>9.75</ele></trkpt>
<trkpt lon="-1.781095" lat="43.353198"><ele>9.5</ele></trkpt>
<trkpt lon="-1.781209" lat="43.353110"><ele>9.5</ele></trkpt>
<trkpt lon="-1.781408" lat="43.352942"><ele>10.0</ele></trkpt>
<trkpt lon="-1.781567" lat="43.352819"><ele>9.75</ele></trkpt>
<trkpt lon="-1.781837" lat="43.352604"><ele>10.25</ele></trkpt>
<trkpt lon="-1.781991" lat="43.352480"><ele>11.0</ele></trkpt>
<trkpt lon="-1.782024" lat="43.352501"><ele>10.5</ele></trkpt>
<trkpt lon="-1.782069" lat="43.352485"><ele>10.75</ele></trkpt>
<trkpt lon="-1.782838" lat="43.351825"><ele>13.75</ele></trkpt>
<trkpt lon="-1.783042" lat="43.351686"><ele>13.75</ele></trkpt>
<trkpt lon="-1.783433" lat="43.351437"><ele>11.75</ele></trkpt>
<trkpt lon="-1.783446" lat="43.351428"><ele>11.75</ele></trkpt>
<trkpt lon="-1.783609" lat="43.351309"><ele>10.75</ele></trkpt>
<trkpt lon="-1.783616" lat="43.351296"><ele>10.75</ele></trkpt>
<trkpt lon="-1.783611" lat="43.351258"><ele>11.25</ele></trkpt>
<trkpt lon="-1.783599" lat="43.351223"><ele>11.75</ele></trkpt>
<trkpt lon="-1.783605" lat="43.351204"><ele>12.0</ele></trkpt>
<trkpt lon="-1.783655" lat="43.351186"><ele>11.75</ele></trkpt>
<trkpt lon="-1.783689" lat="43.351166"><ele>11.5</ele></trkpt>
<trkpt lon="-1.783971" lat="43.350950"><ele>10.0</ele></trkpt>
<trkpt lon="-1.784421" lat="43.350574"><ele>8.0</ele></trkpt>
<trkpt lon="-1.784496" lat="43.350536"><ele>7.75</ele></trkpt>
<trkpt lon="-1.784534" lat="43.350531"><ele>8.0</ele></trkpt>
<trkpt lon="-1.784596" lat="43.350533"><ele>8.0</ele></trkpt>
<trkpt lon="-1.784697" lat="43.350457"><ele>7.0</ele></trkpt>
<trkpt lon="-1.784899" lat="43.350327"><ele>3.75</ele></trkpt>
<trkpt lon="-1.784936" lat="43.350303"><ele>3.75</ele></trkpt>
<trkpt lon="-1.784985" lat="43.350265"><ele>4.0</ele></trkpt>
<trkpt lon="-1.785361" lat="43.349965"><ele>5.25</ele></trkpt>
<trkpt lon="-1.785879" lat="43.349553"><ele>7.0</ele></trkpt>
<trkpt lon="-1.785992" lat="43.349452"><ele>7.5</ele></trkpt>
<trkpt lon="-1.786017" lat="43.349418"><ele>7.75</ele></trkpt>
<trkpt lon="-1.786080" lat="43.349334"><ele>7.75</ele></trkpt>
<trkpt lon="-1.786127" lat="43.349309"><ele>8.0</ele></trkpt>
<trkpt lon="-1.786150" lat="43.349282"><ele>8.0</ele></trkpt>
<trkpt lon="-1.786364" lat="43.348817"><ele>6.0</ele></trkpt>
<trkpt lon="-1.786569" lat="43.348387"><ele>5.25</ele></trkpt>
<trkpt lon="-1.786554" lat="43.348346"><ele>5.25</ele></trkpt>
<trkpt lon="-1.786524" lat="43.348320"><ele>5.5</ele></trkpt>
<trkpt lon="-1.786533" lat="43.348307"><ele>5.5</ele></trkpt>
<trkpt lon="-1.786537" lat="43.348288"><ele>5.5</ele></trkpt>
<trkpt lon="-1.786530" lat="43.348276"><ele>5.5</ele></trkpt>
<trkpt lon="-1.786486" lat="43.348250"><ele>5.75</ele></trkpt>
<trkpt lon="-1.786468" lat="43.348239"><ele>5.75</ele></trkpt>
<trkpt lon="-1.786450" lat="43.348225"><ele>5.75</ele></trkpt>
<trkpt lon="-1.786443" lat="43.348216"><ele>5.75</ele></trkpt>
<trkpt lon="-1.786414" lat="43.348195"><ele>5.75</ele></trkpt>
<trkpt lon="-1.786379" lat="43.348171"><ele>6.0</ele></trkpt>
<trkpt lon="-1.786298" lat="43.348114"><ele>6.0</ele></trkpt>
<trkpt lon="-1.786212" lat="43.348063"><ele>6.0</ele></trkpt>
<trkpt lon="-1.786171" lat="43.348039"><ele>6.0</ele></trkpt>
<trkpt lon="-1.786029" lat="43.347943"><ele>6.0</ele></trkpt>
<trkpt lon="-1.786040" lat="43.347895"><ele>6.0</ele></trkpt>
<trkpt lon="-1.786037" lat="43.347851"><ele>6.0</ele></trkpt>
<trkpt lon="-1.786009" lat="43.347811"><ele>6.0</ele></trkpt>
<trkpt lon="-1.785936" lat="43.347767"><ele>5.75</ele></trkpt>
<trkpt lon="-1.785921" lat="43.347719"><ele>5.25</ele></trkpt>
<trkpt lon="-1.786014" lat="43.347685"><ele>5.25</ele></trkpt>
<trkpt lon="-1.786041" lat="43.347639"><ele>5.0</ele></trkpt>
<trkpt lon="-1.786035" lat="43.347593"><ele>4.75</ele></trkpt>
<trkpt lon="-1.785984" lat="43.347552"><ele>4.25</ele></trkpt>
<trkpt lon="-1.785660" lat="43.347486"><ele>1.75</ele></trkpt>
<trkpt lon="-1.785642" lat="43.347451"><ele>1.75</ele></trkpt>
<trkpt lon="-1.785462" lat="43.346685"><ele>1.75</ele></trkpt>
<trkpt lon="-1.785427" lat="43.346550"><ele>2.0</ele></trkpt>
<trkpt lon="-1.785326" lat="43.346150"><ele>2.0</ele></trkpt>
<trkpt lon="-1.785020" lat="43.345420"><ele>2.0</ele></trkpt>
<trkpt lon="-1.784848" lat="43.344879"><ele>1.5</ele></trkpt>
<trkpt lon="-1.784839" lat="43.344802"><ele>1.5</ele></trkpt>
<trkpt lon="-1.784848" lat="43.344686"><ele>1.5</ele></trkpt>
<trkpt lon="-1.784867" lat="43.344606"><ele>1.5</ele></trkpt>
<trkpt lon="-1.784958" lat="43.344402"><ele>2.25</ele></trkpt>
<trkpt lon="-1.785067" lat="43.344239"><ele>1.75</ele></trkpt>
<trkpt lon="-1.785227" lat="43.344052"><ele>2.25</ele></trkpt>
<trkpt lon="-1.785272" lat="43.343999"><ele>2.25</ele></trkpt>
<trkpt lon="-1.785430" lat="43.343864"><ele>2.5</ele></trkpt>
<trkpt lon="-1.785521" lat="43.343752"><ele>2.5</ele></trkpt>
<trkpt lon="-1.785557" lat="43.343683"><ele>2.25</ele></trkpt>
<trkpt lon="-1.785779" lat="43.343244"><ele>2.0</ele></trkpt>
<trkpt lon="-1.785908" lat="43.343060"><ele>2.5</ele></trkpt>
<trkpt lon="-1.785995" lat="43.342890"><ele>3.25</ele></trkpt>
<trkpt lon="-1.786039" lat="43.342771"><ele>2.5</ele></trkpt>
<trkpt lon="-1.786042" lat="43.342720"><ele>2.75</ele></trkpt>
<trkpt lon="-1.786044" lat="43.342649"><ele>2.75</ele></trkpt>
<trkpt lon="-1.786045" lat="43.342630"><ele>2.75</ele></trkpt>
<trkpt lon="-1.786045" lat="43.342596"><ele>2.75</ele></trkpt>
<trkpt lon="-1.786067" lat="43.342601"><ele>2.75</ele></trkpt>
<trkpt lon="-1.786161" lat="43.342562"><ele>3.0</ele></trkpt>
<trkpt lon="-1.786218" lat="43.342512"><ele>2.75</ele></trkpt>
<trkpt lon="-1.786223" lat="43.342497"><ele>3.0</ele></trkpt>
<trkpt lon="-1.786436" lat="43.341981"><ele>3.0</ele></trkpt>
<trkpt lon="-1.786471" lat="43.341890"><ele>3.0</ele></trkpt>
<trkpt lon="-1.786854" lat="43.340908"><ele>3.0</ele></trkpt>
<trkpt lon="-1.786887" lat="43.340824"><ele>3.0</ele></trkpt>
<trkpt lon="-1.786976" lat="43.340545"><ele>3.0</ele></trkpt>
<trkpt lon="-1.787040" lat="43.340470"><ele>3.75</ele></trkpt>
<trkpt lon="-1.787379" lat="43.340367"><ele>6.5</ele></trkpt>
<trkpt lon="-1.787431" lat="43.340352"><ele>7.0</ele></trkpt>
<trkpt lon="-1.787397" lat="43.340257"><ele>7.5</ele></trkpt>
<trkpt lon="-1.787374" lat="43.340147"><ele>9.0</ele></trkpt>
<trkpt lon="-1.787359" lat="43.340002"><ele>10.75</ele></trkpt>
<trkpt lon="-1.787340" lat="43.339967"><ele>10.5</ele></trkpt>
<trkpt lon="-1.787606" lat="43.339834"><ele>14.0</ele></trkpt>
<trkpt lon="-1.788064" lat="43.339657"><ele>17.0</ele></trkpt>
<trkpt lon="-1.788090" lat="43.339521"><ele>17.5</ele></trkpt>
<trkpt lon="-1.788148" lat="43.339362"><ele>18.0</ele></trkpt>
<trkpt lon="-1.788181" lat="43.339274"><ele>18.25</ele></trkpt>
<trkpt lon="-1.788070" lat="43.339267"><ele>18.0</ele></trkpt>
<trkpt lon="-1.787692" lat="43.339242"><ele>16.0</ele></trkpt>
<trkpt lon="-1.787669" lat="43.339129"><ele>15.75</ele></trkpt>
<trkpt lon="-1.787657" lat="43.339065"><ele>15.5</ele></trkpt>
<trkpt lon="-1.787654" lat="43.338926"><ele>14.75</ele></trkpt>
<trkpt lon="-1.787676" lat="43.338823"><ele>14.25</ele></trkpt>
<trkpt lon="-1.787609" lat="43.338751"><ele>14.0</ele></trkpt>
<trkpt lon="-1.787654" lat="43.338665"><ele>14.0</ele></trkpt>
<trkpt lon="-1.787470" lat="43.338565"><ele>13.25</ele></trkpt>
<trkpt lon="-1.787476" lat="43.338516"><ele>13.25</ele></trkpt>
<trkpt lon="-1.787569" lat="43.338209"><ele>12.75</ele></trkpt>
<trkpt lon="-1.787594" lat="43.338139"><ele>12.5</ele></trkpt>
<trkpt lon="-1.787639" lat="43.338144"><ele>12.75</ele></trkpt>
<trkpt lon="-1.787776" lat="43.337899"><ele>11.25</ele></trkpt>
<trkpt lon="-1.788064" lat="43.337441"><ele>9.0</ele></trkpt>
<trkpt lon="-1.788428" lat="43.337332"><ele>11.25</ele></trkpt>
<trkpt lon="-1.788571" lat="43.337327"><ele>12.0</ele></trkpt>
<trkpt lon="-1.788567" lat="43.337464"><ele>12.5</ele></trkpt>
<trkpt lon="-1.788611" lat="43.337738"><ele>14.5</ele></trkpt>
<trkpt lon="-1.788645" lat="43.337906"><ele>17.0</ele></trkpt>
<trkpt lon="-1.789084" lat="43.337851"><ele>20.0</ele></trkpt>
<trkpt lon="-1.789116" lat="43.337985"><ele>22.0</ele></trkpt>
  </trkseg></trk></gpx>
