<?xml version="1.0" encoding="UTF-8"?>
<gpx version="1.1" creator="compostel-brouter" xmlns="http://www.topografix.com/GPX/1/1">
  <metadata><name>ES-05-San-Sebastian</name></metadata>
  <trk><name>ES-05-San-Sebastian</name><trkseg>
<trkpt lon="-1.789116" lat="43.337985"><ele>20.5</ele></trkpt>
<trkpt lon="-1.789084" lat="43.337851"><ele>20.0</ele></trkpt>
<trkpt lon="-1.788645" lat="43.337906"><ele>17.0</ele></trkpt>
<trkpt lon="-1.788611" lat="43.337738"><ele>14.5</ele></trkpt>
<trkpt lon="-1.788567" lat="43.337464"><ele>12.5</ele></trkpt>
<trkpt lon="-1.788571" lat="43.337327"><ele>12.0</ele></trkpt>
<trkpt lon="-1.788570" lat="43.336796"><ele>9.5</ele></trkpt>
<trkpt lon="-1.788632" lat="43.336535"><ele>8.5</ele></trkpt>
<trkpt lon="-1.788697" lat="43.336496"><ele>8.75</ele></trkpt>
<trkpt lon="-1.788768" lat="43.336454"><ele>9.0</ele></trkpt>
<trkpt lon="-1.788798" lat="43.336568"><ele>10.0</ele></trkpt>
<trkpt lon="-1.788908" lat="43.336566"><ele>11.0</ele></trkpt>
<trkpt lon="-1.788968" lat="43.336567"><ele>12.0</ele></trkpt>
<trkpt lon="-1.789012" lat="43.336583"><ele>13.0</ele></trkpt>
<trkpt lon="-1.789028" lat="43.336590"><ele>13.5</ele></trkpt>
<trkpt lon="-1.789040" lat="43.336595"><ele>13.75</ele></trkpt>
<trkpt lon="-1.789173" lat="43.336650"><ele>16.75</ele></trkpt>
<trkpt lon="-1.789192" lat="43.336643"><ele>17.0</ele></trkpt>
<trkpt lon="-1.789258" lat="43.336668"><ele>18.5</ele></trkpt>
<trkpt lon="-1.789501" lat="43.336363"><ele>19.25</ele></trkpt>
<trkpt lon="-1.789552" lat="43.336383"><ele>20.75</ele></trkpt>
<trkpt lon="-1.789569" lat="43.336390"><ele>21.25</ele></trkpt>
<trkpt lon="-1.789672" lat="43.336427"><ele>23.5</ele></trkpt>
<trkpt lon="-1.789733" lat="43.336427"><ele>24.75</ele></trkpt>
<trkpt lon="-1.789786" lat="43.336439"><ele>25.75</ele></trkpt>
<trkpt lon="-1.790066" lat="43.336194"><ele>22.5</ele></trkpt>
<trkpt lon="-1.790200" lat="43.336129"><ele>23.5</ele></trkpt>
<trkpt lon="-1.790252" lat="43.336087"><ele>23.5</ele></trkpt>
<trkpt lon="-1.790417" lat="43.335984"><ele>21.25</ele></trkpt>
<trkpt lon="-1.790553" lat="43.335944"><ele>20.75</ele></trkpt>
<trkpt lon="-1.790701" lat="43.335896"><ele>19.0</ele></trkpt>
<trkpt lon="-1.791077" lat="43.335790"><ele>19.75</ele></trkpt>
<trkpt lon="-1.791135" lat="43.335789"><ele>20.75</ele></trkpt>
<trkpt lon="-1.791168" lat="43.335797"><ele>21.75</ele></trkpt>
<trkpt lon="-1.791368" lat="43.335907"><ele>28.0</ele></trkpt>
<trkpt lon="-1.791933" lat="43.335643"><ele>32.5</ele></trkpt>
<trkpt lon="-1.792218" lat="43.335496"><ele>32.25</ele></trkpt>
<trkpt lon="-1.792716" lat="43.335296"><ele>32.25</ele></trkpt>
<trkpt lon="-1.792866" lat="43.335237"><ele>31.5</ele></trkpt>
<trkpt lon="-1.793048" lat="43.335164"><ele>30.0</ele></trkpt>
<trkpt lon="-1.793533" lat="43.334970"><ele>27.5</ele></trkpt>
<trkpt lon="-1.793598" lat="43.334942"><ele>27.0</ele></trkpt>
<trkpt lon="-1.793976" lat="43.334786"><ele>22.25</ele></trkpt>
<trkpt lon="-1.794031" lat="43.334764"><ele>21.5</ele></trkpt>
<trkpt lon="-1.794384" lat="43.334620"><ele>23.25</ele></trkpt>
<trkpt lon="-1.794455" lat="43.334604"><ele>24.25</ele></trkpt>
<trkpt lon="-1.794557" lat="43.334589"><ele>24.75</ele></trkpt>
<trkpt lon="-1.794598" lat="43.334583"><ele>25.0</ele></trkpt>
<trkpt lon="-1.794643" lat="43.334574"><ele>25.0</ele></trkpt>
<trkpt lon="-1.794671" lat="43.334652"><ele>25.25</ele></trkpt>
<trkpt lon="-1.794723" lat="43.334724"><ele>26.0</ele></trkpt>
<trkpt lon="-1.794964" lat="43.334927"><ele>28.0</ele></trkpt>
<trkpt lon="-1.795086" lat="43.335029"><ele>29.25</ele></trkpt>
<trkpt lon="-1.795132" lat="43.335043"><ele>29.5</ele></trkpt>
<trkpt lon="-1.795157" lat="43.335046"><ele>29.75</ele></trkpt>
<trkpt lon="-1.795270" lat="43.335055"><ele>30.5</ele></trkpt>
<trkpt lon="-1.795347" lat="43.335060"><ele>31.0</ele></trkpt>
<trkpt lon="-1.795437" lat="43.335066"><ele>31.25</ele></trkpt>
<trkpt lon="-1.795811" lat="43.335089"><ele>34.25</ele></trkpt>
<trkpt lon="-1.795915" lat="43.335099"><ele>34.75</ele></trkpt>
<trkpt lon="-1.795975" lat="43.335116"><ele>34.75</ele></trkpt>
<trkpt lon="-1.796027" lat="43.335114"><ele>35.0</ele></trkpt>
<trkpt lon="-1.796058" lat="43.335088"><ele>35.0</ele></trkpt>
<trkpt lon="-1.796066" lat="43.335052"><ele>35.25</ele></trkpt>
<trkpt lon="-1.796580" lat="43.335073"><ele>37.5</ele></trkpt>
<trkpt lon="-1.796950" lat="43.335080"><ele>35.0</ele></trkpt>
<trkpt lon="-1.796974" lat="43.334783"><ele>37.5</ele></trkpt>
<trkpt lon="-1.797013" lat="43.334783"><ele>37.5</ele></trkpt>
<trkpt lon="-1.797054" lat="43.334781"><ele>37.5</ele></trkpt>
<trkpt lon="-1.797067" lat="43.334766"><ele>37.5</ele></trkpt>
<trkpt lon="-1.797101" lat="43.334752"><ele>37.75</ele></trkpt>
<trkpt lon="-1.797610" lat="43.334764"><ele>36.5</ele></trkpt>
<trkpt lon="-1.797618" lat="43.334775"><ele>36.5</ele></trkpt>
<trkpt lon="-1.797664" lat="43.334773"><ele>36.5</ele></trkpt>
<trkpt lon="-1.797713" lat="43.334770"><ele>36.5</ele></trkpt>
<trkpt lon="-1.797734" lat="43.334761"><ele>36.5</ele></trkpt>
<trkpt lon="-1.797773" lat="43.334762"><ele>36.5</ele></trkpt>
<trkpt lon="-1.797772" lat="43.334728"><ele>36.75</ele></trkpt>
<trkpt lon="-1.797772" lat="43.334691"><ele>37.0</ele></trkpt>
<trkpt lon="-1.798017" lat="43.334691"><ele>36.25</ele></trkpt>
<trkpt lon="-1.798027" lat="43.334660"><ele>36.25</ele></trkpt>
<trkpt lon="-1.798043" lat="43.334617"><ele>36.25</ele></trkpt>
<trkpt lon="-1.798075" lat="43.334592"><ele>36.25</ele></trkpt>
<trkpt lon="-1.798351" lat="43.334588"><ele>36.5</ele></trkpt>
<trkpt lon="-1.798886" lat="43.334789"><ele>36.0</ele></trkpt>
<trkpt lon="-1.798977" lat="43.334809"><ele>35.5</ele></trkpt>
<trkpt lon="-1.799076" lat="43.334806"><ele>35.5</ele></trkpt>
<trkpt lon="-1.799279" lat="43.334778"><ele>35.25</ele></trkpt>
<trkpt lon="-1.799309" lat="43.334822"><ele>34.75</ele></trkpt>
<trkpt lon="-1.799481" lat="43.334776"><ele>34.75</ele></trkpt>
<trkpt lon="-1.799487" lat="43.334845"><ele>34.5</ele></trkpt>
<trkpt lon="-1.799478" lat="43.334906"><ele>34.25</ele></trkpt>
<trkpt lon="-1.799588" lat="43.334862"><ele>34.75</ele></trkpt>
<trkpt lon="-1.799688" lat="43.334812"><ele>35.25</ele></trkpt>
<trkpt lon="-1.800357" lat="43.334479"><ele>39.0</ele></trkpt>
<trkpt lon="-1.800391" lat="43.334507"><ele>39.0</ele></trkpt>
<trkpt lon="-1.800476" lat="43.334471"><ele>39.5</ele></trkpt>
<trkpt lon="-1.801318" lat="43.333987"><ele>38.5</ele></trkpt>
<trkpt lon="-1.801366" lat="43.333960"><ele>38.25</ele></trkpt>
<trkpt lon="-1.801392" lat="43.333970"><ele>38.25</ele></trkpt>
<trkpt lon="-1.801447" lat="43.333956"><ele>37.75</ele></trkpt>
<trkpt lon="-1.801820" lat="43.333746"><ele>35.25</ele></trkpt>
<trkpt lon="-1.801860" lat="43.333783"><ele>35.25</ele></trkpt>
<trkpt lon="-1.801928" lat="43.333852"><ele>35.0</ele></trkpt>
<trkpt lon="-1.802160" lat="43.333733"><ele>35.0</ele></trkpt>
<trkpt lon="-1.802228" lat="43.333730"><ele>34.75</ele></trkpt>
<trkpt lon="-1.802546" lat="43.334026"><ele>33.25</ele></trkpt>
<trkpt lon="-1.802564" lat="43.334043"><ele>33.25</ele></trkpt>
<trkpt lon="-1.802658" lat="43.334008"><ele>32.75</ele></trkpt>
<trkpt lon="-1.802818" lat="43.333956"><ele>32.0</ele></trkpt>
<trkpt lon="-1.803247" lat="43.333792"><ele>33.0</ele></trkpt>
<trkpt lon="-1.803274" lat="43.333833"><ele>33.0</ele></trkpt>
<trkpt lon="-1.803454" lat="43.333760"><ele>33.25</ele></trkpt>
<trkpt lon="-1.803652" lat="43.333700"><ele>32.75</ele></trkpt>
<trkpt lon="-1.804165" lat="43.333577"><ele>33.0</ele></trkpt>
<trkpt lon="-1.804277" lat="43.333550"><ele>33.25</ele></trkpt>
<trkpt lon="-1.805372" lat="43.333293"><ele>37.75</ele></trkpt>
<trkpt lon="-1.806683" lat="43.332986"><ele>41.5</ele></trkpt>
<trkpt lon="-1.806808" lat="43.332956"><ele>41.5</ele></trkpt>
<trkpt lon="-1.806848" lat="43.332946"><ele>41.75</ele></trkpt>
<trkpt lon="-1.807007" lat="43.332878"><ele>42.0</ele></trkpt>
<trkpt lon="-1.807078" lat="43.332851"><ele>42.0</ele></trkpt>
<trkpt lon="-1.808253" lat="43.332462"><ele>37.75</ele></trkpt>
<trkpt lon="-1.808346" lat="43.332431"><ele>37.0</ele></trkpt>
<trkpt lon="-1.808308" lat="43.332362"><ele>37.75</ele></trkpt>
<trkpt lon="-1.808966" lat="43.332143"><ele>35.75</ele></trkpt>
<trkpt lon="-1.809760" lat="43.331881"><ele>33.0</ele></trkpt>
<trkpt lon="-1.809985" lat="43.331772"><ele>31.5</ele></trkpt>
<trkpt lon="-1.810149" lat="43.331667"><ele>30.25</ele></trkpt>
<trkpt lon="-1.810195" lat="43.331643"><ele>30.0</ele></trkpt>
<trkpt lon="-1.810265" lat="43.331606"><ele>29.75</ele></trkpt>
<trkpt lon="-1.810318" lat="43.331578"><ele>29.5</ele></trkpt>
<trkpt lon="-1.810326" lat="43.331564"><ele>29.25</ele></trkpt>
<trkpt lon="-1.810326" lat="43.331529"><ele>29.25</ele></trkpt>
<trkpt lon="-1.810350" lat="43.331510"><ele>29.0</ele></trkpt>
<trkpt lon="-1.810377" lat="43.331503"><ele>29.0</ele></trkpt>
<trkpt lon="-1.810945" lat="43.331452"><ele>25.75</ele></trkpt>
<trkpt lon="-1.810997" lat="43.331434"><ele>25.25</ele></trkpt>
<trkpt lon="-1.810991" lat="43.331380"><ele>25.25</ele></trkpt>
<trkpt lon="-1.810987" lat="43.331348"><ele>25.0</ele></trkpt>
<trkpt lon="-1.810983" lat="43.331319"><ele>25.0</ele></trkpt>
<trkpt lon="-1.810978" lat="43.331280"><ele>25.0</ele></trkpt>
<trkpt lon="-1.811406" lat="43.331247"><ele>20.5</ele></trkpt>
<trkpt lon="-1.811753" lat="43.331197"><ele>23.25</ele></trkpt>
<trkpt lon="-1.811942" lat="43.331159"><ele>23.75</ele></trkpt>
<trkpt lon="-1.812038" lat="43.331125"><ele>24.0</ele></trkpt>
<trkpt lon="-1.812097" lat="43.331065"><ele>24.0</ele></trkpt>
<trkpt lon="-1.812222" lat="43.330702"><ele>25.75</ele></trkpt>
<trkpt lon="-1.812290" lat="43.330543"><ele>27.0</ele></trkpt>
<trkpt lon="-1.812328" lat="43.330496"><ele>27.25</ele></trkpt>
<trkpt lon="-1.812395" lat="43.330444"><ele>27.5</ele></trkpt>
<trkpt lon="-1.812421" lat="43.330424"><ele>27.75</ele></trkpt>
<trkpt lon="-1.812453" lat="43.330401"><ele>28.0</ele></trkpt>
<trkpt lon="-1.812510" lat="43.330359"><ele>28.5</ele></trkpt>
<trkpt lon="-1.812591" lat="43.330416"><ele>28.5</ele></trkpt>
<trkpt lon="-1.812700" lat="43.330472"><ele>28.25</ele></trkpt>
<trkpt lon="-1.812809" lat="43.330465"><ele>28.75</ele></trkpt>
<trkpt lon="-1.812954" lat="43.330440"><ele>28.75</ele></trkpt>
<trkpt lon="-1.813094" lat="43.330245"><ele>31.0</ele></trkpt>
<trkpt lon="-1.813155" lat="43.330259"><ele>30.5</ele></trkpt>
<trkpt lon="-1.813197" lat="43.330268"><ele>30.0</ele></trkpt>
<trkpt lon="-1.813236" lat="43.330277"><ele>29.5</ele></trkpt>
<trkpt lon="-1.813286" lat="43.330288"><ele>29.25</ele></trkpt>
<trkpt lon="-1.813278" lat="43.330312"><ele>29.0</ele></trkpt>
<trkpt lon="-1.814043" lat="43.330200"><ele>32.75</ele></trkpt>
<trkpt lon="-1.814374" lat="43.330087"><ele>34.25</ele></trkpt>
<trkpt lon="-1.814466" lat="43.330027"><ele>34.5</ele></trkpt>
<trkpt lon="-1.814611" lat="43.330177"><ele>32.25</ele></trkpt>
<trkpt lon="-1.814613" lat="43.330204"><ele>32.0</ele></trkpt>
<trkpt lon="-1.814687" lat="43.330166"><ele>31.75</ele></trkpt>
<trkpt lon="-1.814760" lat="43.330124"><ele>32.25</ele></trkpt>
<trkpt lon="-1.815209" lat="43.329823"><ele>33.5</ele></trkpt>
<trkpt lon="-1.815497" lat="43.329599"><ele>32.75</ele></trkpt>
<trkpt lon="-1.815575" lat="43.329645"><ele>32.0</ele></trkpt>
<trkpt lon="-1.815811" lat="43.329449"><ele>32.0</ele></trkpt>
<trkpt lon="-1.816127" lat="43.329246"><ele>30.5</ele></trkpt>
<trkpt lon="-1.816403" lat="43.329137"><ele>32.25</ele></trkpt>
<trkpt lon="-1.816548" lat="43.329099"><ele>32.5</ele></trkpt>
<trkpt lon="-1.816784" lat="43.329048"><ele>32.5</ele></trkpt>
<trkpt lon="-1.817160" lat="43.329010"><ele>31.75</ele></trkpt>
<trkpt lon="-1.817305" lat="43.328962"><ele>32.25</ele></trkpt>
<trkpt lon="-1.817398" lat="43.328927"><ele>32.5</ele></trkpt>
<trkpt lon="-1.817386" lat="43.328896"><ele>32.75</ele></trkpt>
<trkpt lon="-1.817386" lat="43.328876"><ele>33.0</ele></trkpt>
<trkpt lon="-1.818253" lat="43.328832"><ele>34.75</ele></trkpt>
<trkpt lon="-1.818286" lat="43.328913"><ele>33.75</ele></trkpt>
<trkpt lon="-1.818528" lat="43.329158"><ele>31.0</ele></trkpt>
<trkpt lon="-1.818595" lat="43.329122"><ele>31.25</ele></trkpt>
<trkpt lon="-1.818635" lat="43.329162"><ele>30.75</ele></trkpt>
<trkpt lon="-1.819046" lat="43.328947"><ele>32.0</ele></trkpt>
<trkpt lon="-1.819204" lat="43.328837"><ele>32.25</ele></trkpt>
<trkpt lon="-1.819279" lat="43.328758"><ele>31.5</ele></trkpt>
<trkpt lon="-1.819414" lat="43.328799"><ele>29.5</ele></trkpt>
<trkpt lon="-1.819732" lat="43.329092"><ele>29.25</ele></trkpt>
<trkpt lon="-1.819799" lat="43.329120"><ele>30.0</ele></trkpt>
<trkpt lon="-1.819406" lat="43.329320"><ele>27.5</ele></trkpt>
<trkpt lon="-1.819358" lat="43.329316"><ele>27.25</ele></trkpt>
<trkpt lon="-1.819323" lat="43.329335"><ele>27.5</ele></trkpt>
<trkpt lon="-1.819625" lat="43.329580"><ele>28.5</ele></trkpt>
<trkpt lon="-1.819604" lat="43.329640"><ele>28.25</ele></trkpt>
<trkpt lon="-1.819607" lat="43.329753"><ele>27.75</ele></trkpt>
<trkpt lon="-1.819602" lat="43.329863"><ele>27.75</ele></trkpt>
<trkpt lon="-1.819574" lat="43.329993"><ele>27.25</ele></trkpt>
<trkpt lon="-1.819509" lat="43.330058"><ele>26.5</ele></trkpt>
<trkpt lon="-1.819625" lat="43.330150"><ele>25.75</ele></trkpt>
<trkpt lon="-1.820215" lat="43.330179"><ele>24.75</ele></trkpt>
<trkpt lon="-1.820384" lat="43.330212"><ele>24.0</ele></trkpt>
<trkpt lon="-1.820910" lat="43.330435"><ele>23.25</ele></trkpt>
<trkpt lon="-1.821041" lat="43.330467"><ele>23.25</ele></trkpt>
<trkpt lon="-1.821165" lat="43.330473"><ele>23.0</ele></trkpt>
<trkpt lon="-1.821283" lat="43.330452"><ele>22.75</ele></trkpt>
<trkpt lon="-1.823365" lat="43.329968"><ele>18.0</ele></trkpt>
<trkpt lon="-1.823388" lat="43.330022"><ele>16.5</ele></trkpt>
<trkpt lon="-1.823430" lat="43.330120"><ele>15.75</ele></trkpt>
<trkpt lon="-1.823451" lat="43.330169"><ele>15.25</ele></trkpt>
<trkpt lon="-1.823832" lat="43.330082"><ele>15.25</ele></trkpt>
<trkpt lon="-1.823873" lat="43.330099"><ele>15.25</ele></trkpt>
<trkpt lon="-1.823910" lat="43.330133"><ele>14.75</ele></trkpt>
<trkpt lon="-1.824028" lat="43.330058"><ele>14.75</ele></trkpt>
<trkpt lon="-1.824104" lat="43.330043"><ele>14.25</ele></trkpt>
<trkpt lon="-1.824187" lat="43.330050"><ele>13.75</ele></trkpt>
<trkpt lon="-1.824253" lat="43.330072"><ele>13.75</ele></trkpt>
<trkpt lon="-1.824301" lat="43.330114"><ele>13.75</ele></trkpt>
<trkpt lon="-1.824360" lat="43.330504"><ele>11.5</ele></trkpt>
<trkpt lon="-1.824333" lat="43.330550"><ele>11.25</ele></trkpt>
<trkpt lon="-1.824259" lat="43.330592"><ele>11.25</ele></trkpt>
<trkpt lon="-1.824213" lat="43.330609"><ele>11.25</ele></trkpt>
<trkpt lon="-1.824248" lat="43.330663"><ele>11.0</ele></trkpt>
<trkpt lon="-1.824310" lat="43.330636"><ele>11.0</ele></trkpt>
<trkpt lon="-1.824349" lat="43.330634"><ele>10.75</ele></trkpt>
<trkpt lon="-1.824428" lat="43.330643"><ele>10.5</ele></trkpt>
<trkpt lon="-1.824465" lat="43.330656"><ele>10.25</ele></trkpt>
<trkpt lon="-1.824501" lat="43.330676"><ele>10.0</ele></trkpt>
<trkpt lon="-1.824538" lat="43.330688"><ele>9.75</ele></trkpt>
<trkpt lon="-1.824589" lat="43.330690"><ele>9.25</ele></trkpt>
<trkpt lon="-1.824633" lat="43.330682"><ele>9.0</ele></trkpt>
<trkpt lon="-1.824672" lat="43.330666"><ele>8.75</ele></trkpt>
<trkpt lon="-1.824703" lat="43.330641"><ele>8.25</ele></trkpt>
<trkpt lon="-1.824770" lat="43.330605"><ele>8.5</ele></trkpt>
<trkpt lon="-1.824808" lat="43.330594"><ele>8.75</ele></trkpt>
<trkpt lon="-1.824849" lat="43.330586"><ele>9.0</ele></trkpt>
<trkpt lon="-1.824972" lat="43.330584"><ele>9.75</ele></trkpt>
<trkpt lon="-1.825138" lat="43.330570"><ele>9.0</ele></trkpt>
<trkpt lon="-1.825219" lat="43.330581"><ele>8.5</ele></trkpt>
<trkpt lon="-1.825307" lat="43.330624"><ele>8.5</ele></trkpt>
<trkpt lon="-1.825326" lat="43.330685"><ele>9.0</ele></trkpt>
<trkpt lon="-1.825332" lat="43.330727"><ele>8.75</ele></trkpt>
<trkpt lon="-1.825325" lat="43.330813"><ele>8.75</ele></trkpt>
<trkpt lon="-1.825228" lat="43.331025"><ele>8.5</ele></trkpt>
<trkpt lon="-1.825178" lat="43.331159"><ele>8.5</ele></trkpt>
<trkpt lon="-1.825151" lat="43.331270"><ele>8.5</ele></trkpt>
<trkpt lon="-1.825124" lat="43.331511"><ele>8.5</ele></trkpt>
<trkpt lon="-1.825207" lat="43.331624"><ele>8.75</ele></trkpt>
<trkpt lon="-1.825265" lat="43.331652"><ele>8.75</ele></trkpt>
<trkpt lon="-1.825303" lat="43.331688"><ele>8.75</ele></trkpt>
<trkpt lon="-1.825324" lat="43.331732"><ele>8.75</ele></trkpt>
<trkpt lon="-1.825324" lat="43.331778"><ele>8.75</ele></trkpt>
<trkpt lon="-1.825347" lat="43.331815"><ele>8.75</ele></trkpt>
<trkpt lon="-1.825410" lat="43.331918"><ele>8.75</ele></trkpt>
<trkpt lon="-1.825783" lat="43.332123"><ele>10.75</ele></trkpt>
<trkpt lon="-1.826051" lat="43.332341"><ele>12.25</ele></trkpt>
<trkpt lon="-1.826245" lat="43.332544"><ele>13.0</ele></trkpt>
<trkpt lon="-1.826405" lat="43.332809"><ele>14.25</ele></trkpt>
<trkpt lon="-1.826749" lat="43.333207"><ele>15.75</ele></trkpt>
<trkpt lon="-1.826944" lat="43.333570"><ele>15.75</ele></trkpt>
<trkpt lon="-1.827160" lat="43.333960"><ele>19.0</ele></trkpt>
<trkpt lon="-1.827875" lat="43.333683"><ele>14.0</ele></trkpt>
<trkpt lon="-1.828127" lat="43.333594"><ele>16.75</ele></trkpt>
<trkpt lon="-1.828512" lat="43.333521"><ele>21.25</ele></trkpt>
<trkpt lon="-1.828855" lat="43.333533"><ele>20.0</ele></trkpt>
<trkpt lon="-1.829017" lat="43.333581"><ele>19.25</ele></trkpt>
<trkpt lon="-1.829210" lat="43.333686"><ele>20.25</ele></trkpt>
<trkpt lon="-1.829356" lat="43.333808"><ele>21.25</ele></trkpt>
<trkpt lon="-1.829745" lat="43.334158"><ele>21.75</ele></trkpt>
<trkpt lon="-1.829898" lat="43.334284"><ele>23.25</ele></trkpt>
<trkpt lon="-1.830070" lat="43.334481"><ele>23.5</ele></trkpt>
<trkpt lon="-1.830084" lat="43.334591"><ele>23.75</ele></trkpt>
<trkpt lon="-1.830059" lat="43.334738"><ele>24.5</ele></trkpt>
<trkpt lon="-1.830118" lat="43.334807"><ele>24.0</ele></trkpt>
<trkpt lon="-1.830311" lat="43.334924"><ele>24.0</ele></trkpt>
<trkpt lon="-1.830456" lat="43.334955"><ele>23.25</ele></trkpt>
<trkpt lon="-1.830895" lat="43.334955"><ele>20.25</ele></trkpt>
<trkpt lon="-1.831422" lat="43.334974"><ele>17.75</ele></trkpt>
<trkpt lon="-1.831448" lat="43.334975"><ele>17.75</ele></trkpt>
<trkpt lon="-1.831727" lat="43.334905"><ele>17.75</ele></trkpt>
<trkpt lon="-1.831850" lat="43.334823"><ele>18.5</ele></trkpt>
<trkpt lon="-1.832097" lat="43.334702"><ele>19.5</ele></trkpt>
<trkpt lon="-1.832414" lat="43.334635"><ele>22.5</ele></trkpt>
<trkpt lon="-1.832789" lat="43.334643"><ele>24.0</ele></trkpt>
<trkpt lon="-1.833374" lat="43.334698"><ele>26.75</ele></trkpt>
<trkpt lon="-1.833647" lat="43.334745"><ele>28.5</ele></trkpt>
<trkpt lon="-1.833969" lat="43.334823"><ele>31.5</ele></trkpt>
<trkpt lon="-1.835214" lat="43.335229"><ele>38.5</ele></trkpt>
<trkpt lon="-1.836184" lat="43.335437"><ele>46.0</ele></trkpt>
<trkpt lon="-1.836466" lat="43.335505"><ele>47.25</ele></trkpt>
<trkpt lon="-1.836920" lat="43.335646"><ele>51.0</ele></trkpt>
<trkpt lon="-1.837354" lat="43.335808"><ele>52.0</ele></trkpt>
<trkpt lon="-1.837835" lat="43.336040"><ele>54.25</ele></trkpt>
<trkpt lon="-1.839267" lat="43.336817"><ele>61.75</ele></trkpt>
<trkpt lon="-1.839318" lat="43.336844"><ele>62.25</ele></trkpt>
<trkpt lon="-1.839754" lat="43.337073"><ele>65.0</ele></trkpt>
<trkpt lon="-1.839835" lat="43.337109"><ele>65.75</ele></trkpt>
<trkpt lon="-1.840009" lat="43.337183"><ele>67.75</ele></trkpt>
<trkpt lon="-1.840491" lat="43.337352"><ele>71.25</ele></trkpt>
<trkpt lon="-1.841622" lat="43.337623"><ele>81.0</ele></trkpt>
<trkpt lon="-1.841856" lat="43.337700"><ele>83.5</ele></trkpt>
<trkpt lon="-1.842200" lat="43.337887"><ele>87.0</ele></trkpt>
<trkpt lon="-1.842421" lat="43.338049"><ele>90.25</ele></trkpt>
<trkpt lon="-1.842689" lat="43.338352"><ele>96.25</ele></trkpt>
<trkpt lon="-1.842922" lat="43.338658"><ele>100.75</ele></trkpt>
<trkpt lon="-1.842970" lat="43.338703"><ele>101.75</ele></trkpt>
<trkpt lon="-1.843012" lat="43.338743"><ele>102.75</ele></trkpt>
<trkpt lon="-1.843177" lat="43.338829"><ele>104.5</ele></trkpt>
<trkpt lon="-1.843332" lat="43.338927"><ele>106.5</ele></trkpt>
<trkpt lon="-1.843539" lat="43.339009"><ele>108.75</ele></trkpt>
<trkpt lon="-1.843820" lat="43.339072"><ele>111.5</ele></trkpt>
<trkpt lon="-1.844294" lat="43.339113"><ele>115.75</ele></trkpt>
<trkpt lon="-1.844658" lat="43.339135"><ele>119.5</ele></trkpt>
<trkpt lon="-1.845582" lat="43.339192"><ele>129.75</ele></trkpt>
<trkpt lon="-1.845929" lat="43.339232"><ele>133.0</ele></trkpt>
<trkpt lon="-1.846177" lat="43.339271"><ele>134.5</ele></trkpt>
<trkpt lon="-1.846450" lat="43.339353"><ele>137.0</ele></trkpt>
<trkpt lon="-1.846671" lat="43.339452"><ele>140.0</ele></trkpt>
<trkpt lon="-1.846715" lat="43.339506"><ele>141.25</ele></trkpt>
<trkpt lon="-1.846707" lat="43.339600"><ele>142.75</ele></trkpt>
<trkpt lon="-1.846654" lat="43.339668"><ele>143.0</ele></trkpt>
<trkpt lon="-1.846411" lat="43.339803"><ele>146.0</ele></trkpt>
<trkpt lon="-1.846260" lat="43.339901"><ele>145.0</ele></trkpt>
<trkpt lon="-1.846182" lat="43.340031"><ele>144.0</ele></trkpt>
<trkpt lon="-1.846123" lat="43.340235"><ele>141.25</ele></trkpt>
<trkpt lon="-1.846289" lat="43.340243"><ele>142.75</ele></trkpt>
<trkpt lon="-1.846511" lat="43.340285"><ele>145.5</ele></trkpt>
<trkpt lon="-1.846757" lat="43.340377"><ele>149.25</ele></trkpt>
<trkpt lon="-1.846783" lat="43.340440"><ele>149.25</ele></trkpt>
<trkpt lon="-1.846745" lat="43.340547"><ele>147.75</ele></trkpt>
<trkpt lon="-1.846699" lat="43.340642"><ele>148.25</ele></trkpt>
<trkpt lon="-1.846716" lat="43.340690"><ele>149.5</ele></trkpt>
<trkpt lon="-1.846803" lat="43.340707"><ele>152.0</ele></trkpt>
<trkpt lon="-1.846890" lat="43.340692"><ele>154.0</ele></trkpt>
<trkpt lon="-1.846962" lat="43.340642"><ele>154.75</ele></trkpt>
<trkpt lon="-1.846993" lat="43.340545"><ele>153.75</ele></trkpt>
<trkpt lon="-1.847118" lat="43.340331"><ele>157.5</ele></trkpt>
<trkpt lon="-1.847213" lat="43.340119"><ele>158.0</ele></trkpt>
<trkpt lon="-1.847279" lat="43.340033"><ele>158.0</ele></trkpt>
<trkpt lon="-1.847406" lat="43.339984"><ele>158.5</ele></trkpt>
<trkpt lon="-1.847640" lat="43.339934"><ele>159.5</ele></trkpt>
<trkpt lon="-1.847816" lat="43.339942"><ele>160.75</ele></trkpt>
<trkpt lon="-1.847946" lat="43.339958"><ele>161.0</ele></trkpt>
<trkpt lon="-1.848318" lat="43.340110"><ele>161.75</ele></trkpt>
<trkpt lon="-1.848496" lat="43.340174"><ele>162.75</ele></trkpt>
<trkpt lon="-1.848656" lat="43.340207"><ele>162.75</ele></trkpt>
<trkpt lon="-1.848819" lat="43.340275"><ele>163.5</ele></trkpt>
<trkpt lon="-1.849137" lat="43.340303"><ele>164.0</ele></trkpt>
<trkpt lon="-1.849249" lat="43.340281"><ele>164.0</ele></trkpt>
<trkpt lon="-1.849349" lat="43.340227"><ele>163.75</ele></trkpt>
<trkpt lon="-1.849387" lat="43.339929"><ele>159.75</ele></trkpt>
<trkpt lon="-1.849394" lat="43.339606"><ele>157.75</ele></trkpt>
<trkpt lon="-1.849433" lat="43.339475"><ele>157.0</ele></trkpt>
<trkpt lon="-1.849588" lat="43.339117"><ele>157.5</ele></trkpt>
<trkpt lon="-1.849653" lat="43.338898"><ele>158.75</ele></trkpt>
<trkpt lon="-1.849849" lat="43.338700"><ele>159.5</ele></trkpt>
<trkpt lon="-1.850316" lat="43.338415"><ele>162.5</ele></trkpt>
<trkpt lon="-1.850770" lat="43.338188"><ele>164.25</ele></trkpt>
<trkpt lon="-1.851207" lat="43.337996"><ele>166.0</ele></trkpt>
<trkpt lon="-1.851650" lat="43.337912"><ele>167.0</ele></trkpt>
<trkpt lon="-1.851919" lat="43.337932"><ele>168.5</ele></trkpt>
<trkpt lon="-1.852097" lat="43.337962"><ele>168.5</ele></trkpt>
<trkpt lon="-1.852342" lat="43.338103"><ele>172.25</ele></trkpt>
<trkpt lon="-1.852636" lat="43.338208"><ele>174.0</ele></trkpt>
<trkpt lon="-1.852925" lat="43.338341"><ele>179.25</ele></trkpt>
<trkpt lon="-1.853236" lat="43.338388"><ele>183.0</ele></trkpt>
<trkpt lon="-1.853478" lat="43.338360"><ele>185.5</ele></trkpt>
<trkpt lon="-1.853627" lat="43.338305"><ele>186.25</ele></trkpt>
<trkpt lon="-1.853804" lat="43.338216"><ele>188.75</ele></trkpt>
<trkpt lon="-1.854007" lat="43.338001"><ele>190.5</ele></trkpt>
<trkpt lon="-1.854311" lat="43.337862"><ele>196.0</ele></trkpt>
<trkpt lon="-1.854515" lat="43.337815"><ele>197.0</ele></trkpt>
<trkpt lon="-1.854992" lat="43.337887"><ele>203.75</ele></trkpt>
<trkpt lon="-1.855435" lat="43.337805"><ele>205.75</ele></trkpt>
<trkpt lon="-1.855734" lat="43.337659"><ele>205.0</ele></trkpt>
<trkpt lon="-1.856036" lat="43.337536"><ele>206.25</ele></trkpt>
<trkpt lon="-1.856219" lat="43.337497"><ele>206.25</ele></trkpt>
<trkpt lon="-1.856425" lat="43.337511"><ele>207.0</ele></trkpt>
<trkpt lon="-1.856533" lat="43.337546"><ele>207.0</ele></trkpt>
<trkpt lon="-1.856783" lat="43.337750"><ele>211.25</ele></trkpt>
<trkpt lon="-1.856913" lat="43.337811"><ele>211.25</ele></trkpt>
<trkpt lon="-1.857002" lat="43.337843"><ele>211.25</ele></trkpt>
<trkpt lon="-1.857190" lat="43.337933"><ele>212.5</ele></trkpt>
<trkpt lon="-1.857595" lat="43.338092"><ele>214.5</ele></trkpt>
<trkpt lon="-1.857866" lat="43.338178"><ele>218.25</ele></trkpt>
<trkpt lon="-1.857972" lat="43.338144"><ele>219.5</ele></trkpt>
<trkpt lon="-1.858095" lat="43.338041"><ele>220.0</ele></trkpt>
<trkpt lon="-1.858319" lat="43.337797"><ele>221.0</ele></trkpt>
<trkpt lon="-1.858386" lat="43.337715"><ele>219.5</ele></trkpt>
<trkpt lon="-1.858453" lat="43.337706"><ele>220.0</ele></trkpt>
<trkpt lon="-1.858706" lat="43.337693"><ele>220.5</ele></trkpt>
<trkpt lon="-1.858815" lat="43.337730"><ele>220.0</ele></trkpt>
<trkpt lon="-1.858880" lat="43.337779"><ele>220.0</ele></trkpt>
<trkpt lon="-1.859129" lat="43.337996"><ele>220.0</ele></trkpt>
<trkpt lon="-1.859355" lat="43.338156"><ele>222.0</ele></trkpt>
<trkpt lon="-1.859391" lat="43.338181"><ele>222.5</ele></trkpt>
<trkpt lon="-1.859555" lat="43.338240"><ele>224.0</ele></trkpt>
<trkpt lon="-1.859732" lat="43.338272"><ele>225.25</ele></trkpt>
<trkpt lon="-1.859863" lat="43.338273"><ele>225.75</ele></trkpt>
<trkpt lon="-1.859989" lat="43.338251"><ele>225.25</ele></trkpt>
<trkpt lon="-1.860037" lat="43.338218"><ele>225.25</ele></trkpt>
<trkpt lon="-1.860221" lat="43.338059"><ele>225.0</ele></trkpt>
<trkpt lon="-1.860382" lat="43.337948"><ele>225.75</ele></trkpt>
<trkpt lon="-1.860522" lat="43.337888"><ele>226.75</ele></trkpt>
<trkpt lon="-1.860849" lat="43.337762"><ele>225.5</ele></trkpt>
<trkpt lon="-1.861050" lat="43.337699"><ele>227.25</ele></trkpt>
<trkpt lon="-1.861253" lat="43.337712"><ele>229.25</ele></trkpt>
<trkpt lon="-1.861421" lat="43.337766"><ele>230.75</ele></trkpt>
<trkpt lon="-1.861872" lat="43.337933"><ele>236.25</ele></trkpt>
<trkpt lon="-1.862374" lat="43.337883"><ele>236.0</ele></trkpt>
<trkpt lon="-1.862608" lat="43.337834"><ele>235.5</ele></trkpt>
<trkpt lon="-1.862680" lat="43.337795"><ele>234.75</ele></trkpt>
<trkpt lon="-1.862889" lat="43.337606"><ele>231.75</ele></trkpt>
<trkpt lon="-1.863068" lat="43.337408"><ele>228.75</ele></trkpt>
<trkpt lon="-1.863318" lat="43.337156"><ele>226.0</ele></trkpt>
<trkpt lon="-1.863384" lat="43.337063"><ele>225.75</ele></trkpt>
<trkpt lon="-1.863487" lat="43.336722"><ele>221.0</ele></trkpt>
<trkpt lon="-1.863540" lat="43.336654"><ele>220.75</ele></trkpt>
<trkpt lon="-1.863627" lat="43.336613"><ele>222.0</ele></trkpt>
<trkpt lon="-1.863779" lat="43.336570"><ele>221.75</ele></trkpt>
<trkpt lon="-1.864014" lat="43.336548"><ele>221.25</ele></trkpt>
<trkpt lon="-1.864244" lat="43.336569"><ele>220.25</ele></trkpt>
<trkpt lon="-1.864460" lat="43.336650"><ele>220.0</ele></trkpt>
<trkpt lon="-1.864565" lat="43.336697"><ele>220.25</ele></trkpt>
<trkpt lon="-1.864671" lat="43.336745"><ele>220.25</ele></trkpt>
<trkpt lon="-1.865062" lat="43.336873"><ele>220.25</ele></trkpt>
<trkpt lon="-1.865121" lat="43.336881"><ele>221.0</ele></trkpt>
<trkpt lon="-1.865232" lat="43.336884"><ele>221.75</ele></trkpt>
<trkpt lon="-1.865333" lat="43.336850"><ele>221.75</ele></trkpt>
<trkpt lon="-1.865610" lat="43.336705"><ele>222.25</ele></trkpt>
<trkpt lon="-1.866020" lat="43.336526"><ele>225.75</ele></trkpt>
<trkpt lon="-1.866149" lat="43.336409"><ele>224.25</ele></trkpt>
<trkpt lon="-1.866263" lat="43.336354"><ele>223.5</ele></trkpt>
<trkpt lon="-1.866419" lat="43.336326"><ele>224.0</ele></trkpt>
<trkpt lon="-1.866940" lat="43.336310"><ele>225.25</ele></trkpt>
<trkpt lon="-1.867110" lat="43.336322"><ele>225.0</ele></trkpt>
<trkpt lon="-1.867415" lat="43.336377"><ele>226.0</ele></trkpt>
<trkpt lon="-1.867565" lat="43.336380"><ele>226.0</ele></trkpt>
<trkpt lon="-1.867829" lat="43.336339"><ele>226.0</ele></trkpt>
<trkpt lon="-1.868471" lat="43.336218"><ele>227.75</ele></trkpt>
<trkpt lon="-1.868827" lat="43.336147"><ele>230.25</ele></trkpt>
<trkpt lon="-1.868966" lat="43.336081"><ele>231.25</ele></trkpt>
<trkpt lon="-1.869368" lat="43.335795"><ele>233.0</ele></trkpt>
<trkpt lon="-1.869569" lat="43.335725"><ele>234.75</ele></trkpt>
<trkpt lon="-1.869750" lat="43.335675"><ele>236.0</ele></trkpt>
<trkpt lon="-1.869945" lat="43.335637"><ele>237.25</ele></trkpt>
<trkpt lon="-1.870128" lat="43.335626"><ele>237.75</ele></trkpt>
<trkpt lon="-1.870429" lat="43.335639"><ele>239.0</ele></trkpt>
<trkpt lon="-1.870870" lat="43.335601"><ele>241.25</ele></trkpt>
<trkpt lon="-1.871270" lat="43.335550"><ele>243.25</ele></trkpt>
<trkpt lon="-1.871674" lat="43.335512"><ele>245.75</ele></trkpt>
<trkpt lon="-1.871894" lat="43.335520"><ele>246.25</ele></trkpt>
<trkpt lon="-1.872173" lat="43.335577"><ele>247.75</ele></trkpt>
<trkpt lon="-1.872349" lat="43.335640"><ele>249.5</ele></trkpt>
<trkpt lon="-1.872584" lat="43.335696"><ele>251.75</ele></trkpt>
<trkpt lon="-1.872744" lat="43.335711"><ele>253.25</ele></trkpt>
<trkpt lon="-1.872863" lat="43.335672"><ele>254.75</ele></trkpt>
<trkpt lon="-1.872913" lat="43.335636"><ele>255.0</ele></trkpt>
<trkpt lon="-1.873002" lat="43.335508"><ele>253.75</ele></trkpt>
<trkpt lon="-1.873120" lat="43.335370"><ele>254.5</ele></trkpt>
<trkpt lon="-1.873280" lat="43.335233"><ele>256.25</ele></trkpt>
<trkpt lon="-1.873445" lat="43.335111"><ele>257.75</ele></trkpt>
<trkpt lon="-1.873669" lat="43.335020"><ele>260.0</ele></trkpt>
<trkpt lon="-1.873855" lat="43.335001"><ele>260.75</ele></trkpt>
<trkpt lon="-1.874072" lat="43.335015"><ele>261.5</ele></trkpt>
<trkpt lon="-1.874748" lat="43.335177"><ele>265.25</ele></trkpt>
<trkpt lon="-1.875005" lat="43.335218"><ele>265.5</ele></trkpt>
<trkpt lon="-1.875337" lat="43.335239"><ele>267.25</ele></trkpt>
<trkpt lon="-1.875553" lat="43.335249"><ele>268.5</ele></trkpt>
<trkpt lon="-1.875734" lat="43.335238"><ele>269.75</ele></trkpt>
<trkpt lon="-1.876266" lat="43.335107"><ele>272.75</ele></trkpt>
<trkpt lon="-1.876572" lat="43.334984"><ele>273.75</ele></trkpt>
<trkpt lon="-1.877175" lat="43.334687"><ele>274.5</ele></trkpt>
<trkpt lon="-1.877525" lat="43.334543"><ele>274.75</ele></trkpt>
<trkpt lon="-1.877732" lat="43.334496"><ele>275.0</ele></trkpt>
<trkpt lon="-1.877910" lat="43.334487"><ele>275.75</ele></trkpt>
<trkpt lon="-1.878505" lat="43.334396"><ele>276.0</ele></trkpt>
<trkpt lon="-1.878873" lat="43.334298"><ele>276.75</ele></trkpt>
<trkpt lon="-1.879231" lat="43.334173"><ele>275.75</ele></trkpt>
<trkpt lon="-1.879595" lat="43.333997"><ele>274.0</ele></trkpt>
<trkpt lon="-1.880044" lat="43.333704"><ele>270.5</ele></trkpt>
<trkpt lon="-1.880217" lat="43.333631"><ele>269.75</ele></trkpt>
<trkpt lon="-1.880423" lat="43.333569"><ele>268.25</ele></trkpt>
<trkpt lon="-1.880855" lat="43.333518"><ele>266.0</ele></trkpt>
<trkpt lon="-1.881021" lat="43.333523"><ele>264.25</ele></trkpt>
<trkpt lon="-1.881898" lat="43.333490"><ele>257.75</ele></trkpt>
<trkpt lon="-1.882899" lat="43.333421"><ele>250.0</ele></trkpt>
<trkpt lon="-1.883275" lat="43.333343"><ele>247.25</ele></trkpt>
<trkpt lon="-1.883886" lat="43.333145"><ele>243.5</ele></trkpt>
<trkpt lon="-1.884654" lat="43.332857"><ele>237.25</ele></trkpt>
<trkpt lon="-1.884968" lat="43.332775"><ele>235.5</ele></trkpt>
<trkpt lon="-1.885345" lat="43.332737"><ele>231.5</ele></trkpt>
<trkpt lon="-1.885510" lat="43.332738"><ele>230.25</ele></trkpt>
<trkpt lon="-1.885691" lat="43.332767"><ele>229.25</ele></trkpt>
<trkpt lon="-1.885967" lat="43.332839"><ele>229.75</ele></trkpt>
<trkpt lon="-1.886106" lat="43.332863"><ele>229.25</ele></trkpt>
<trkpt lon="-1.886228" lat="43.332860"><ele>229.5</ele></trkpt>
<trkpt lon="-1.886476" lat="43.332804"><ele>226.25</ele></trkpt>
<trkpt lon="-1.886894" lat="43.332757"><ele>221.75</ele></trkpt>
<trkpt lon="-1.887219" lat="43.332729"><ele>220.0</ele></trkpt>
<trkpt lon="-1.887374" lat="43.332689"><ele>220.5</ele></trkpt>
<trkpt lon="-1.887463" lat="43.332640"><ele>220.0</ele></trkpt>
<trkpt lon="-1.887639" lat="43.332473"><ele>217.5</ele></trkpt>
<trkpt lon="-1.887968" lat="43.332147"><ele>215.25</ele></trkpt>
<trkpt lon="-1.888237" lat="43.331868"><ele>214.75</ele></trkpt>
<trkpt lon="-1.888383" lat="43.331675"><ele>213.75</ele></trkpt>
<trkpt lon="-1.888473" lat="43.331608"><ele>214.25</ele></trkpt>
<trkpt lon="-1.888602" lat="43.331526"><ele>215.0</ele></trkpt>
<trkpt lon="-1.888806" lat="43.331430"><ele>215.25</ele></trkpt>
<trkpt lon="-1.889267" lat="43.331292"><ele>215.25</ele></trkpt>
<trkpt lon="-1.889410" lat="43.331206"><ele>214.25</ele></trkpt>
<trkpt lon="-1.889558" lat="43.331026"><ele>207.5</ele></trkpt>
<trkpt lon="-1.889753" lat="43.330916"><ele>206.25</ele></trkpt>
<trkpt lon="-1.889976" lat="43.330696"><ele>199.5</ele></trkpt>
<trkpt lon="-1.890055" lat="43.330598"><ele>196.5</ele></trkpt>
<trkpt lon="-1.890099" lat="43.330505"><ele>192.75</ele></trkpt>
<trkpt lon="-1.890160" lat="43.330456"><ele>191.0</ele></trkpt>
<trkpt lon="-1.890401" lat="43.330313"><ele>187.0</ele></trkpt>
<trkpt lon="-1.890497" lat="43.330206"><ele>181.75</ele></trkpt>
<trkpt lon="-1.890536" lat="43.330179"><ele>180.25</ele></trkpt>
<trkpt lon="-1.890822" lat="43.330111"><ele>181.25</ele></trkpt>
<trkpt lon="-1.890959" lat="43.330096"><ele>182.25</ele></trkpt>
<trkpt lon="-1.891221" lat="43.330088"><ele>184.5</ele></trkpt>
<trkpt lon="-1.891296" lat="43.330077"><ele>184.25</ele></trkpt>
<trkpt lon="-1.891337" lat="43.330050"><ele>183.5</ele></trkpt>
<trkpt lon="-1.891454" lat="43.329903"><ele>179.25</ele></trkpt>
<trkpt lon="-1.891581" lat="43.329759"><ele>175.25</ele></trkpt>
<trkpt lon="-1.891617" lat="43.329737"><ele>174.5</ele></trkpt>
<trkpt lon="-1.891689" lat="43.329724"><ele>173.5</ele></trkpt>
<trkpt lon="-1.891741" lat="43.329722"><ele>172.5</ele></trkpt>
<trkpt lon="-1.891835" lat="43.329739"><ele>171.25</ele></trkpt>
<trkpt lon="-1.891936" lat="43.329767"><ele>170.0</ele></trkpt>
<trkpt lon="-1.892021" lat="43.329777"><ele>168.0</ele></trkpt>
<trkpt lon="-1.892149" lat="43.329751"><ele>163.75</ele></trkpt>
<trkpt lon="-1.892276" lat="43.329743"><ele>159.75</ele></trkpt>
<trkpt lon="-1.892394" lat="43.329755"><ele>156.25</ele></trkpt>
<trkpt lon="-1.892491" lat="43.329777"><ele>153.75</ele></trkpt>
<trkpt lon="-1.892758" lat="43.329902"><ele>149.5</ele></trkpt>
<trkpt lon="-1.892831" lat="43.329921"><ele>148.25</ele></trkpt>
<trkpt lon="-1.892988" lat="43.329936"><ele>144.75</ele></trkpt>
<trkpt lon="-1.893177" lat="43.329923"><ele>139.0</ele></trkpt>
<trkpt lon="-1.893281" lat="43.329934"><ele>136.25</ele></trkpt>
<trkpt lon="-1.893354" lat="43.329978"><ele>135.5</ele></trkpt>
<trkpt lon="-1.893432" lat="43.330083"><ele>135.0</ele></trkpt>
<trkpt lon="-1.893508" lat="43.330146"><ele>134.0</ele></trkpt>
<trkpt lon="-1.893560" lat="43.330153"><ele>132.25</ele></trkpt>
<trkpt lon="-1.893601" lat="43.330149"><ele>131.0</ele></trkpt>
<trkpt lon="-1.893833" lat="43.330052"><ele>122.0</ele></trkpt>
<trkpt lon="-1.893956" lat="43.330037"><ele>121.0</ele></trkpt>
<trkpt lon="-1.894031" lat="43.330013"><ele>121.25</ele></trkpt>
<trkpt lon="-1.894097" lat="43.329969"><ele>120.0</ele></trkpt>
<trkpt lon="-1.894201" lat="43.329922"><ele>119.0</ele></trkpt>
<trkpt lon="-1.894270" lat="43.329901"><ele>118.75</ele></trkpt>
<trkpt lon="-1.894545" lat="43.329881"><ele>120.75</ele></trkpt>
<trkpt lon="-1.894775" lat="43.329809"><ele>118.75</ele></trkpt>
<trkpt lon="-1.895225" lat="43.329714"><ele>118.0</ele></trkpt>
<trkpt lon="-1.895359" lat="43.329661"><ele>117.25</ele></trkpt>
<trkpt lon="-1.895454" lat="43.329620"><ele>118.0</ele></trkpt>
<trkpt lon="-1.895623" lat="43.329374"><ele>112.0</ele></trkpt>
<trkpt lon="-1.895716" lat="43.329316"><ele>111.0</ele></trkpt>
<trkpt lon="-1.895830" lat="43.329260"><ele>111.5</ele></trkpt>
<trkpt lon="-1.896106" lat="43.329145"><ele>110.0</ele></trkpt>
<trkpt lon="-1.896237" lat="43.329128"><ele>109.0</ele></trkpt>
<trkpt lon="-1.896367" lat="43.329096"><ele>107.5</ele></trkpt>
<trkpt lon="-1.896441" lat="43.329086"><ele>108.25</ele></trkpt>
<trkpt lon="-1.896469" lat="43.329060"><ele>107.75</ele></trkpt>
<trkpt lon="-1.896500" lat="43.329014"><ele>106.5</ele></trkpt>
<trkpt lon="-1.896528" lat="43.328860"><ele>100.5</ele></trkpt>
<trkpt lon="-1.896563" lat="43.328756"><ele>97.25</ele></trkpt>
<trkpt lon="-1.896624" lat="43.328705"><ele>98.5</ele></trkpt>
<trkpt lon="-1.896973" lat="43.328559"><ele>100.5</ele></trkpt>
<trkpt lon="-1.897089" lat="43.328495"><ele>102.0</ele></trkpt>
<trkpt lon="-1.897119" lat="43.328456"><ele>101.5</ele></trkpt>
<trkpt lon="-1.897140" lat="43.328318"><ele>97.5</ele></trkpt>
<trkpt lon="-1.897191" lat="43.328187"><ele>98.0</ele></trkpt>
<trkpt lon="-1.897247" lat="43.328080"><ele>99.25</ele></trkpt>
<trkpt lon="-1.897465" lat="43.327805"><ele>100.5</ele></trkpt>
<trkpt lon="-1.897606" lat="43.327589"><ele>96.75</ele></trkpt>
<trkpt lon="-1.897823" lat="43.327341"><ele>94.0</ele></trkpt>
<trkpt lon="-1.898023" lat="43.327091"><ele>92.25</ele></trkpt>
<trkpt lon="-1.898094" lat="43.327012"><ele>91.0</ele></trkpt>
<trkpt lon="-1.898166" lat="43.326950"><ele>90.0</ele></trkpt>
<trkpt lon="-1.898349" lat="43.326838"><ele>90.25</ele></trkpt>
<trkpt lon="-1.898495" lat="43.326702"><ele>90.0</ele></trkpt>
<trkpt lon="-1.898590" lat="43.326602"><ele>89.5</ele></trkpt>
<trkpt lon="-1.898733" lat="43.326379"><ele>87.0</ele></trkpt>
<trkpt lon="-1.898740" lat="43.326290"><ele>86.5</ele></trkpt>
<trkpt lon="-1.898726" lat="43.326073"><ele>84.0</ele></trkpt>
<trkpt lon="-1.898732" lat="43.325981"><ele>82.0</ele></trkpt>
<trkpt lon="-1.898760" lat="43.325878"><ele>80.75</ele></trkpt>
<trkpt lon="-1.898826" lat="43.325713"><ele>78.75</ele></trkpt>
<trkpt lon="-1.898838" lat="43.325666"><ele>78.0</ele></trkpt>
<trkpt lon="-1.898736" lat="43.325486"><ele>71.5</ele></trkpt>
<trkpt lon="-1.898724" lat="43.325453"><ele>70.75</ele></trkpt>
<trkpt lon="-1.898689" lat="43.325356"><ele>69.75</ele></trkpt>
<trkpt lon="-1.898628" lat="43.325270"><ele>69.0</ele></trkpt>
<trkpt lon="-1.898552" lat="43.325059"><ele>68.0</ele></trkpt>
<trkpt lon="-1.898488" lat="43.324945"><ele>67.25</ele></trkpt>
<trkpt lon="-1.898461" lat="43.324861"><ele>66.5</ele></trkpt>
<trkpt lon="-1.898384" lat="43.324808"><ele>65.5</ele></trkpt>
<trkpt lon="-1.898294" lat="43.324784"><ele>64.5</ele></trkpt>
<trkpt lon="-1.898180" lat="43.324784"><ele>62.5</ele></trkpt>
<trkpt lon="-1.898016" lat="43.324803"><ele>59.75</ele></trkpt>
<trkpt lon="-1.897825" lat="43.324816"><ele>56.25</ele></trkpt>
<trkpt lon="-1.897768" lat="43.324814"><ele>55.0</ele></trkpt>
<trkpt lon="-1.897718" lat="43.324803"><ele>54.0</ele></trkpt>
<trkpt lon="-1.897678" lat="43.324778"><ele>53.0</ele></trkpt>
<trkpt lon="-1.897568" lat="43.324605"><ele>49.0</ele></trkpt>
<trkpt lon="-1.897498" lat="43.324433"><ele>44.75</ele></trkpt>
<trkpt lon="-1.897498" lat="43.324392"><ele>44.0</ele></trkpt>
<trkpt lon="-1.897532" lat="43.324287"><ele>43.25</ele></trkpt>
<trkpt lon="-1.897546" lat="43.324214"><ele>42.5</ele></trkpt>
<trkpt lon="-1.897584" lat="43.324157"><ele>42.5</ele></trkpt>
<trkpt lon="-1.897599" lat="43.324102"><ele>42.0</ele></trkpt>
<trkpt lon="-1.897663" lat="43.324022"><ele>42.0</ele></trkpt>
<trkpt lon="-1.897764" lat="43.323744"><ele>39.5</ele></trkpt>
<trkpt lon="-1.897788" lat="43.323521"><ele>36.5</ele></trkpt>
<trkpt lon="-1.897751" lat="43.323479"><ele>35.5</ele></trkpt>
<trkpt lon="-1.897730" lat="43.323423"><ele>34.5</ele></trkpt>
<trkpt lon="-1.897710" lat="43.323332"><ele>33.25</ele></trkpt>
<trkpt lon="-1.897708" lat="43.323244"><ele>31.75</ele></trkpt>
<trkpt lon="-1.897729" lat="43.323204"><ele>31.25</ele></trkpt>
<trkpt lon="-1.897760" lat="43.323191"><ele>31.25</ele></trkpt>
<trkpt lon="-1.897905" lat="43.323160"><ele>30.75</ele></trkpt>
<trkpt lon="-1.897931" lat="43.323197"><ele>31.25</ele></trkpt>
<trkpt lon="-1.897981" lat="43.323178"><ele>30.75</ele></trkpt>
<trkpt lon="-1.897966" lat="43.323143"><ele>30.5</ele></trkpt>
<trkpt lon="-1.898207" lat="43.323030"><ele>28.0</ele></trkpt>
<trkpt lon="-1.898187" lat="43.322936"><ele>24.75</ele></trkpt>
<trkpt lon="-1.898179" lat="43.322853"><ele>22.0</ele></trkpt>
<trkpt lon="-1.898167" lat="43.322803"><ele>20.25</ele></trkpt>
<trkpt lon="-1.898144" lat="43.322752"><ele>19.0</ele></trkpt>
<trkpt lon="-1.898072" lat="43.322597"><ele>17.75</ele></trkpt>
<trkpt lon="-1.898039" lat="43.322580"><ele>17.5</ele></trkpt>
<trkpt lon="-1.897992" lat="43.322559"><ele>17.25</ele></trkpt>
<trkpt lon="-1.897895" lat="43.322462"><ele>16.5</ele></trkpt>
<trkpt lon="-1.897893" lat="43.322429"><ele>16.25</ele></trkpt>
<trkpt lon="-1.897890" lat="43.322348"><ele>15.5</ele></trkpt>
<trkpt lon="-1.897889" lat="43.322290"><ele>15.0</ele></trkpt>
<trkpt lon="-1.897954" lat="43.322268"><ele>15.0</ele></trkpt>
<trkpt lon="-1.897983" lat="43.322234"><ele>14.75</ele></trkpt>
<trkpt lon="-1.898079" lat="43.322073"><ele>13.75</ele></trkpt>
<trkpt lon="-1.898167" lat="43.321987"><ele>13.5</ele></trkpt>
<trkpt lon="-1.898190" lat="43.321925"><ele>13.25</ele></trkpt>
<trkpt lon="-1.898152" lat="43.321889"><ele>13.0</ele></trkpt>
<trkpt lon="-1.898193" lat="43.321834"><ele>13.0</ele></trkpt>
<trkpt lon="-1.898228" lat="43.321788"><ele>13.0</ele></trkpt>
<trkpt lon="-1.898264" lat="43.321740"><ele>13.0</ele></trkpt>
<trkpt lon="-1.898287" lat="43.321710"><ele>12.75</ele></trkpt>
<trkpt lon="-1.898359" lat="43.321450"><ele>12.25</ele></trkpt>
<trkpt lon="-1.898388" lat="43.321270"><ele>14.5</ele></trkpt>
<trkpt lon="-1.898695" lat="43.321254"><ele>14.75</ele></trkpt>
<trkpt lon="-1.898695" lat="43.321263"><ele>14.5</ele></trkpt>
<trkpt lon="-1.898791" lat="43.321259"><ele>14.5</ele></trkpt>
<trkpt lon="-1.898957" lat="43.321281"><ele>14.25</ele></trkpt>
<trkpt lon="-1.898966" lat="43.321273"><ele>14.25</ele></trkpt>
<trkpt lon="-1.898984" lat="43.321251"><ele>14.25</ele></trkpt>
<trkpt lon="-1.898958" lat="43.321168"><ele>14.75</ele></trkpt>
<trkpt lon="-1.899137" lat="43.321127"><ele>14.75</ele></trkpt>
<trkpt lon="-1.899129" lat="43.321109"><ele>15.0</ele></trkpt>
<trkpt lon="-1.899274" lat="43.321068"><ele>15.5</ele></trkpt>
<trkpt lon="-1.899477" lat="43.320990"><ele>16.75</ele></trkpt>
<trkpt lon="-1.899530" lat="43.320977"><ele>17.0</ele></trkpt>
<trkpt lon="-1.899634" lat="43.320983"><ele>16.5</ele></trkpt>
<trkpt lon="-1.899701" lat="43.320818"><ele>19.0</ele></trkpt>
<trkpt lon="-1.899717" lat="43.320687"><ele>19.0</ele></trkpt>
<trkpt lon="-1.899691" lat="43.320582"><ele>19.0</ele></trkpt>
<trkpt lon="-1.899706" lat="43.320527"><ele>18.25</ele></trkpt>
<trkpt lon="-1.899788" lat="43.320515"><ele>17.75</ele></trkpt>
<trkpt lon="-1.899840" lat="43.320531"><ele>17.75</ele></trkpt>
<trkpt lon="-1.899873" lat="43.320451"><ele>16.5</ele></trkpt>
<trkpt lon="-1.899994" lat="43.320426"><ele>16.0</ele></trkpt>
<trkpt lon="-1.900513" lat="43.320355"><ele>12.5</ele></trkpt>
<trkpt lon="-1.900557" lat="43.320345"><ele>12.0</ele></trkpt>
<trkpt lon="-1.900589" lat="43.320321"><ele>11.75</ele></trkpt>
<trkpt lon="-1.900741" lat="43.320143"><ele>10.5</ele></trkpt>
<trkpt lon="-1.900811" lat="43.320063"><ele>10.0</ele></trkpt>
<trkpt lon="-1.900888" lat="43.319964"><ele>9.75</ele></trkpt>
<trkpt lon="-1.901013" lat="43.319822"><ele>9.25</ele></trkpt>
<trkpt lon="-1.901045" lat="43.319789"><ele>9.0</ele></trkpt>
<trkpt lon="-1.901078" lat="43.319745"><ele>9.0</ele></trkpt>
<trkpt lon="-1.901155" lat="43.319643"><ele>7.25</ele></trkpt>
<trkpt lon="-1.901244" lat="43.319458"><ele>5.75</ele></trkpt>
<trkpt lon="-1.901215" lat="43.319452"><ele>5.75</ele></trkpt>
<trkpt lon="-1.901319" lat="43.319159"><ele>9.0</ele></trkpt>
<trkpt lon="-1.901282" lat="43.319153"><ele>8.0</ele></trkpt>
<trkpt lon="-1.901254" lat="43.319128"><ele>7.25</ele></trkpt>
<trkpt lon="-1.901448" lat="43.318788"><ele>10.25</ele></trkpt>
<trkpt lon="-1.901735" lat="43.318843"><ele>12.25</ele></trkpt>
<trkpt lon="-1.901797" lat="43.318813"><ele>11.75</ele></trkpt>
<trkpt lon="-1.901930" lat="43.318779"><ele>10.75</ele></trkpt>
<trkpt lon="-1.901920" lat="43.318759"><ele>11.0</ele></trkpt>
<trkpt lon="-1.902002" lat="43.318730"><ele>10.0</ele></trkpt>
<trkpt lon="-1.902116" lat="43.318696"><ele>8.5</ele></trkpt>
<trkpt lon="-1.902254" lat="43.318681"><ele>7.0</ele></trkpt>
<trkpt lon="-1.902299" lat="43.318684"><ele>7.0</ele></trkpt>
<trkpt lon="-1.902349" lat="43.318714"><ele>7.0</ele></trkpt>
<trkpt lon="-1.902971" lat="43.318911"><ele>5.0</ele></trkpt>
<trkpt lon="-1.903619" lat="43.319110"><ele>4.25</ele></trkpt>
<trkpt lon="-1.903876" lat="43.319176"><ele>3.75</ele></trkpt>
<trkpt lon="-1.904153" lat="43.319222"><ele>4.5</ele></trkpt>
<trkpt lon="-1.904570" lat="43.319282"><ele>5.0</ele></trkpt>
<trkpt lon="-1.904903" lat="43.319325"><ele>5.25</ele></trkpt>
<trkpt lon="-1.905174" lat="43.319350"><ele>7.25</ele></trkpt>
<trkpt lon="-1.905471" lat="43.319359"><ele>9.75</ele></trkpt>
<trkpt lon="-1.905796" lat="43.319354"><ele>12.5</ele></trkpt>
<trkpt lon="-1.906030" lat="43.319337"><ele>14.25</ele></trkpt>
<trkpt lon="-1.906250" lat="43.319313"><ele>14.5</ele></trkpt>
<trkpt lon="-1.906551" lat="43.319267"><ele>17.25</ele></trkpt>
<trkpt lon="-1.906865" lat="43.319197"><ele>19.0</ele></trkpt>
<trkpt lon="-1.907195" lat="43.319110"><ele>20.25</ele></trkpt>
<trkpt lon="-1.907452" lat="43.319258"><ele>18.25</ele></trkpt>
<trkpt lon="-1.907641" lat="43.319151"><ele>19.0</ele></trkpt>
<trkpt lon="-1.907856" lat="43.319012"><ele>17.75</ele></trkpt>
<trkpt lon="-1.907954" lat="43.318973"><ele>18.25</ele></trkpt>
<trkpt lon="-1.907978" lat="43.318942"><ele>18.75</ele></trkpt>
<trkpt lon="-1.908069" lat="43.318908"><ele>19.25</ele></trkpt>
<trkpt lon="-1.908566" lat="43.318763"><ele>12.25</ele></trkpt>
<trkpt lon="-1.908768" lat="43.318656"><ele>15.0</ele></trkpt>
<trkpt lon="-1.911079" lat="43.317894"><ele>7.75</ele></trkpt>
<trkpt lon="-1.911158" lat="43.317881"><ele>7.75</ele></trkpt>
<trkpt lon="-1.912026" lat="43.317646"><ele>6.5</ele></trkpt>
<trkpt lon="-1.912114" lat="43.317629"><ele>7.5</ele></trkpt>
<trkpt lon="-1.912219" lat="43.317629"><ele>8.5</ele></trkpt>
<trkpt lon="-1.912311" lat="43.317648"><ele>8.25</ele></trkpt>
<trkpt lon="-1.912469" lat="43.317658"><ele>8.0</ele></trkpt>
<trkpt lon="-1.912498" lat="43.317642"><ele>8.25</ele></trkpt>
<trkpt lon="-1.912852" lat="43.317590"><ele>9.25</ele></trkpt>
<trkpt lon="-1.913051" lat="43.317570"><ele>9.75</ele></trkpt>
<trkpt lon="-1.913292" lat="43.317565"><ele>9.25</ele></trkpt>
<trkpt lon="-1.913541" lat="43.317586"><ele>8.5</ele></trkpt>
<trkpt lon="-1.913780" lat="43.317626"><ele>7.25</ele></trkpt>
<trkpt lon="-1.914111" lat="43.317717"><ele>5.5</ele></trkpt>
<trkpt lon="-1.914526" lat="43.317848"><ele>4.5</ele></trkpt>
<trkpt lon="-1.914761" lat="43.317930"><ele>4.25</ele></trkpt>
<trkpt lon="-1.914784" lat="43.317951"><ele>4.25</ele></trkpt>
<trkpt lon="-1.917087" lat="43.318797"><ele>3.25</ele></trkpt>
<trkpt lon="-1.917261" lat="43.318872"><ele>2.75</ele></trkpt>
<trkpt lon="-1.917303" lat="43.318815"><ele>2.75</ele></trkpt>
<trkpt lon="-1.917363" lat="43.318781"><ele>2.75</ele></trkpt>
<trkpt lon="-1.917440" lat="43.318819"><ele>2.75</ele></trkpt>
<trkpt lon="-1.918093" lat="43.319061"><ele>3.25</ele></trkpt>
<trkpt lon="-1.918242" lat="43.319077"><ele>3.0</ele></trkpt>
<trkpt lon="-1.918309" lat="43.319120"><ele>2.75</ele></trkpt>
<trkpt lon="-1.918996" lat="43.319391"><ele>3.75</ele></trkpt>
<trkpt lon="-1.919254" lat="43.319506"><ele>4.0</ele></trkpt>
<trkpt lon="-1.919377" lat="43.319551"><ele>4.25</ele></trkpt>
<trkpt lon="-1.919435" lat="43.319579"><ele>4.25</ele></trkpt>
<trkpt lon="-1.920309" lat="43.320000"><ele>6.75</ele></trkpt>
<trkpt lon="-1.921064" lat="43.320369"><ele>9.0</ele></trkpt>
<trkpt lon="-1.921982" lat="43.320825"><ele>14.0</ele></trkpt>
<trkpt lon="-1.922026" lat="43.320835"><ele>13.75</ele></trkpt>
<trkpt lon="-1.922232" lat="43.320860"><ele>13.75</ele></trkpt>
<trkpt lon="-1.922530" lat="43.320935"><ele>12.75</ele></trkpt>
<trkpt lon="-1.922515" lat="43.320968"><ele>12.0</ele></trkpt>
<trkpt lon="-1.922495" lat="43.321013"><ele>11.0</ele></trkpt>
<trkpt lon="-1.922443" lat="43.321018"><ele>11.25</ele></trkpt>
<trkpt lon="-1.922404" lat="43.321038"><ele>11.25</ele></trkpt>
<trkpt lon="-1.922375" lat="43.321069"><ele>10.75</ele></trkpt>
<trkpt lon="-1.922364" lat="43.321111"><ele>10.25</ele></trkpt>
<trkpt lon="-1.922376" lat="43.321152"><ele>9.5</ele></trkpt>
<trkpt lon="-1.922412" lat="43.321189"><ele>8.75</ele></trkpt>
<trkpt lon="-1.922513" lat="43.321247"><ele>8.0</ele></trkpt>
<trkpt lon="-1.922551" lat="43.321265"><ele>8.5</ele></trkpt>
<trkpt lon="-1.922738" lat="43.321310"><ele>11.25</ele></trkpt>
<trkpt lon="-1.922986" lat="43.321341"><ele>12.5</ele></trkpt>
<trkpt lon="-1.923647" lat="43.321396"><ele>8.75</ele></trkpt>
<trkpt lon="-1.924089" lat="43.321420"><ele>8.25</ele></trkpt>
<trkpt lon="-1.924495" lat="43.321420"><ele>8.25</ele></trkpt>
<trkpt lon="-1.924984" lat="43.321397"><ele>8.75</ele></trkpt>
<trkpt lon="-1.925351" lat="43.321368"><ele>8.5</ele></trkpt>
<trkpt lon="-1.926893" lat="43.321208"><ele>8.5</ele></trkpt>
<trkpt lon="-1.927325" lat="43.321175"><ele>10.0</ele></trkpt>
<trkpt lon="-1.927628" lat="43.321159"><ele>10.5</ele></trkpt>
<trkpt lon="-1.927915" lat="43.321151"><ele>10.75</ele></trkpt>
<trkpt lon="-1.928441" lat="43.321149"><ele>11.0</ele></trkpt>
<trkpt lon="-1.929943" lat="43.321200"><ele>10.75</ele></trkpt>
<trkpt lon="-1.930318" lat="43.321220"><ele>10.0</ele></trkpt>
<trkpt lon="-1.930909" lat="43.321234"><ele>10.0</ele></trkpt>
<trkpt lon="-1.930980" lat="43.321221"><ele>10.5</ele></trkpt>
<trkpt lon="-1.931171" lat="43.321222"><ele>11.0</ele></trkpt>
<trkpt lon="-1.931249" lat="43.321238"><ele>11.25</ele></trkpt>
<trkpt lon="-1.931336" lat="43.321237"><ele>12.25</ele></trkpt>
<trkpt lon="-1.931339" lat="43.321301"><ele>10.5</ele></trkpt>
<trkpt lon="-1.931343" lat="43.321358"><ele>9.0</ele></trkpt>
<trkpt lon="-1.931698" lat="43.321353"><ele>9.25</ele></trkpt>
<trkpt lon="-1.931808" lat="43.321328"><ele>8.5</ele></trkpt>
<trkpt lon="-1.932400" lat="43.321272"><ele>8.25</ele></trkpt>
<trkpt lon="-1.932511" lat="43.321259"><ele>8.5</ele></trkpt>
<trkpt lon="-1.933411" lat="43.321152"><ele>11.75</ele></trkpt>
<trkpt lon="-1.933647" lat="43.321101"><ele>12.75</ele></trkpt>
<trkpt lon="-1.933875" lat="43.321035"><ele>12.25</ele></trkpt>
<trkpt lon="-1.935675" lat="43.320459"><ele>8.0</ele></trkpt>
<trkpt lon="-1.936114" lat="43.320322"><ele>9.75</ele></trkpt>
<trkpt lon="-1.936393" lat="43.320261"><ele>10.0</ele></trkpt>
<trkpt lon="-1.936790" lat="43.320192"><ele>9.0</ele></trkpt>
<trkpt lon="-1.937010" lat="43.320153"><ele>9.75</ele></trkpt>
<trkpt lon="-1.937321" lat="43.320116"><ele>9.75</ele></trkpt>
<trkpt lon="-1.937388" lat="43.320122"><ele>9.25</ele></trkpt>
<trkpt lon="-1.937439" lat="43.320143"><ele>8.75</ele></trkpt>
<trkpt lon="-1.937493" lat="43.320182"><ele>7.75</ele></trkpt>
<trkpt lon="-1.937541" lat="43.320206"><ele>7.5</ele></trkpt>
<trkpt lon="-1.937603" lat="43.320227"><ele>7.5</ele></trkpt>
<trkpt lon="-1.937662" lat="43.320239"><ele>7.5</ele></trkpt>
<trkpt lon="-1.937732" lat="43.320239"><ele>8.0</ele></trkpt>
<trkpt lon="-1.937809" lat="43.320223"><ele>8.5</ele></trkpt>
<trkpt lon="-1.937855" lat="43.320204"><ele>9.0</ele></trkpt>
<trkpt lon="-1.937901" lat="43.320171"><ele>9.5</ele></trkpt>
<trkpt lon="-1.937957" lat="43.320142"><ele>10.0</ele></trkpt>
<trkpt lon="-1.937997" lat="43.320130"><ele>10.25</ele></trkpt>
<trkpt lon="-1.938531" lat="43.320051"><ele>11.0</ele></trkpt>
<trkpt lon="-1.938586" lat="43.320042"><ele>11.0</ele></trkpt>
<trkpt lon="-1.938684" lat="43.320021"><ele>11.75</ele></trkpt>
<trkpt lon="-1.938821" lat="43.319974"><ele>12.75</ele></trkpt>
<trkpt lon="-1.939142" lat="43.319843"><ele>12.75</ele></trkpt>
<trkpt lon="-1.939250" lat="43.319810"><ele>13.0</ele></trkpt>
<trkpt lon="-1.939325" lat="43.319797"><ele>13.25</ele></trkpt>
<trkpt lon="-1.939390" lat="43.319807"><ele>13.0</ele></trkpt>
<trkpt lon="-1.940811" lat="43.320006"><ele>18.5</ele></trkpt>
<trkpt lon="-1.940895" lat="43.320022"><ele>19.75</ele></trkpt>
<trkpt lon="-1.941243" lat="43.320094"><ele>22.25</ele></trkpt>
<trkpt lon="-1.941479" lat="43.320148"><ele>23.25</ele></trkpt>
<trkpt lon="-1.942389" lat="43.320392"><ele>27.5</ele></trkpt>
<trkpt lon="-1.943193" lat="43.320625"><ele>30.25</ele></trkpt>
<trkpt lon="-1.943444" lat="43.320714"><ele>31.25</ele></trkpt>
<trkpt lon="-1.943770" lat="43.320846"><ele>32.5</ele></trkpt>
<trkpt lon="-1.943837" lat="43.320857"><ele>32.75</ele></trkpt>
<trkpt lon="-1.943870" lat="43.320812"><ele>33.0</ele></trkpt>
<trkpt lon="-1.943919" lat="43.320746"><ele>33.5</ele></trkpt>
<trkpt lon="-1.943942" lat="43.320715"><ele>33.75</ele></trkpt>
<trkpt lon="-1.944386" lat="43.320876"><ele>35.75</ele></trkpt>
<trkpt lon="-1.944454" lat="43.320877"><ele>36.0</ele></trkpt>
<trkpt lon="-1.944499" lat="43.320868"><ele>36.5</ele></trkpt>
<trkpt lon="-1.944540" lat="43.320901"><ele>37.0</ele></trkpt>
<trkpt lon="-1.944905" lat="43.321067"><ele>39.0</ele></trkpt>
<trkpt lon="-1.945174" lat="43.321172"><ele>42.25</ele></trkpt>
<trkpt lon="-1.945305" lat="43.321198"><ele>43.75</ele></trkpt>
<trkpt lon="-1.945456" lat="43.321240"><ele>43.75</ele></trkpt>
<trkpt lon="-1.945590" lat="43.321258"><ele>44.0</ele></trkpt>
<trkpt lon="-1.945703" lat="43.321258"><ele>44.75</ele></trkpt>
<trkpt lon="-1.946069" lat="43.321277"><ele>46.75</ele></trkpt>
<trkpt lon="-1.947796" lat="43.321248"><ele>54.0</ele></trkpt>
<trkpt lon="-1.948376" lat="43.321248"><ele>53.25</ele></trkpt>
<trkpt lon="-1.948441" lat="43.321248"><ele>52.75</ele></trkpt>
<trkpt lon="-1.948562" lat="43.321227"><ele>52.25</ele></trkpt>
<trkpt lon="-1.948614" lat="43.321225"><ele>52.0</ele></trkpt>
<trkpt lon="-1.948666" lat="43.321225"><ele>51.75</ele></trkpt>
<trkpt lon="-1.948754" lat="43.321271"><ele>51.25</ele></trkpt>
<trkpt lon="-1.948868" lat="43.321269"><ele>51.0</ele></trkpt>
<trkpt lon="-1.949412" lat="43.321261"><ele>49.0</ele></trkpt>
<trkpt lon="-1.949453" lat="43.321304"><ele>49.25</ele></trkpt>
<trkpt lon="-1.949451" lat="43.321364"><ele>49.75</ele></trkpt>
<trkpt lon="-1.949451" lat="43.321411"><ele>50.25</ele></trkpt>
<trkpt lon="-1.949555" lat="43.321412"><ele>50.5</ele></trkpt>
<trkpt lon="-1.950799" lat="43.321400"><ele>47.5</ele></trkpt>
<trkpt lon="-1.952735" lat="43.321480"><ele>41.0</ele></trkpt>
<trkpt lon="-1.952792" lat="43.321489"><ele>40.5</ele></trkpt>
<trkpt lon="-1.952891" lat="43.321500"><ele>40.25</ele></trkpt>
<trkpt lon="-1.953017" lat="43.321512"><ele>40.0</ele></trkpt>
<trkpt lon="-1.953073" lat="43.321518"><ele>39.75</ele></trkpt>
<trkpt lon="-1.953120" lat="43.321516"><ele>39.75</ele></trkpt>
<trkpt lon="-1.953179" lat="43.321513"><ele>39.5</ele></trkpt>
<trkpt lon="-1.954027" lat="43.321550"><ele>41.5</ele></trkpt>
<trkpt lon="-1.957076" lat="43.321700"><ele>29.75</ele></trkpt>
<trkpt lon="-1.957248" lat="43.321715"><ele>29.25</ele></trkpt>
<trkpt lon="-1.959599" lat="43.321824"><ele>22.0</ele></trkpt>
<trkpt lon="-1.959794" lat="43.321832"><ele>21.5</ele></trkpt>
<trkpt lon="-1.959981" lat="43.321840"><ele>21.5</ele></trkpt>
<trkpt lon="-1.960367" lat="43.321866"><ele>19.5</ele></trkpt>
<trkpt lon="-1.960528" lat="43.321904"><ele>19.0</ele></trkpt>
<trkpt lon="-1.960688" lat="43.321977"><ele>18.5</ele></trkpt>
<trkpt lon="-1.960791" lat="43.322060"><ele>18.75</ele></trkpt>
<trkpt lon="-1.960914" lat="43.322129"><ele>18.75</ele></trkpt>
<trkpt lon="-1.961048" lat="43.322153"><ele>18.25</ele></trkpt>
<trkpt lon="-1.961172" lat="43.322155"><ele>17.5</ele></trkpt>
<trkpt lon="-1.961220" lat="43.322148"><ele>17.0</ele></trkpt>
<trkpt lon="-1.961321" lat="43.322124"><ele>16.25</ele></trkpt>
<trkpt lon="-1.961443" lat="43.322207"><ele>15.75</ele></trkpt>
<trkpt lon="-1.961701" lat="43.322304"><ele>16.5</ele></trkpt>
<trkpt lon="-1.961742" lat="43.322316"><ele>16.75</ele></trkpt>
<trkpt lon="-1.961967" lat="43.322344"><ele>17.5</ele></trkpt>
<trkpt lon="-1.962192" lat="43.322362"><ele>18.0</ele></trkpt>
<trkpt lon="-1.962532" lat="43.322438"><ele>20.0</ele></trkpt>
<trkpt lon="-1.962796" lat="43.322525"><ele>19.25</ele></trkpt>
<trkpt lon="-1.963090" lat="43.322649"><ele>20.75</ele></trkpt>
<trkpt lon="-1.963290" lat="43.322749"><ele>20.75</ele></trkpt>
<trkpt lon="-1.963348" lat="43.322792"><ele>20.75</ele></trkpt>
<trkpt lon="-1.963414" lat="43.322816"><ele>20.0</ele></trkpt>
<trkpt lon="-1.963424" lat="43.322799"><ele>19.75</ele></trkpt>
<trkpt lon="-1.963433" lat="43.322784"><ele>19.5</ele></trkpt>
<trkpt lon="-1.964603" lat="43.323289"><ele>20.75</ele></trkpt>
<trkpt lon="-1.964653" lat="43.323311"><ele>20.75</ele></trkpt>
<trkpt lon="-1.964905" lat="43.323394"><ele>21.5</ele></trkpt>
<trkpt lon="-1.965566" lat="43.323558"><ele>20.5</ele></trkpt>
<trkpt lon="-1.965800" lat="43.323636"><ele>21.0</ele></trkpt>
<trkpt lon="-1.965943" lat="43.323692"><ele>20.5</ele></trkpt>
<trkpt lon="-1.966352" lat="43.323879"><ele>19.0</ele></trkpt>
<trkpt lon="-1.966416" lat="43.323884"><ele>18.5</ele></trkpt>
<trkpt lon="-1.966723" lat="43.324020"><ele>15.0</ele></trkpt>
<trkpt lon="-1.968092" lat="43.324325"><ele>13.0</ele></trkpt>
<trkpt lon="-1.968226" lat="43.324337"><ele>13.25</ele></trkpt>
<trkpt lon="-1.968371" lat="43.324315"><ele>13.5</ele></trkpt>
<trkpt lon="-1.968436" lat="43.324331"><ele>14.0</ele></trkpt>
<trkpt lon="-1.968584" lat="43.324371"><ele>15.25</ele></trkpt>
<trkpt lon="-1.968880" lat="43.324454"><ele>14.25</ele></trkpt>
<trkpt lon="-1.969146" lat="43.324652"><ele>14.25</ele></trkpt>
<trkpt lon="-1.969185" lat="43.324626"><ele>13.75</ele></trkpt>
<trkpt lon="-1.969240" lat="43.324588"><ele>13.75</ele></trkpt>
<trkpt lon="-1.969272" lat="43.324612"><ele>13.75</ele></trkpt>
<trkpt lon="-1.970538" lat="43.325593"><ele>12.25</ele></trkpt>
<trkpt lon="-1.970573" lat="43.325619"><ele>12.25</ele></trkpt>
<trkpt lon="-1.970609" lat="43.325648"><ele>12.25</ele></trkpt>
<trkpt lon="-1.970912" lat="43.325882"><ele>11.0</ele></trkpt>
<trkpt lon="-1.970935" lat="43.325900"><ele>11.0</ele></trkpt>
<trkpt lon="-1.970989" lat="43.325941"><ele>11.0</ele></trkpt>
<trkpt lon="-1.970983" lat="43.326015"><ele>11.25</ele></trkpt>
<trkpt lon="-1.970950" lat="43.326060"><ele>11.25</ele></trkpt>
<trkpt lon="-1.971168" lat="43.326217"><ele>10.25</ele></trkpt>
<trkpt lon="-1.971360" lat="43.326365"><ele>10.0</ele></trkpt>
<trkpt lon="-1.971447" lat="43.326481"><ele>9.5</ele></trkpt>
<trkpt lon="-1.971518" lat="43.326547"><ele>9.25</ele></trkpt>
<trkpt lon="-1.971681" lat="43.326687"><ele>8.75</ele></trkpt>
<trkpt lon="-1.971918" lat="43.326737"><ele>8.25</ele></trkpt>
<trkpt lon="-1.971997" lat="43.326761"><ele>7.5</ele></trkpt>
<trkpt lon="-1.972154" lat="43.326654"><ele>7.5</ele></trkpt>
<trkpt lon="-1.972464" lat="43.326475"><ele>8.0</ele></trkpt>
<trkpt lon="-1.972883" lat="43.326313"><ele>7.5</ele></trkpt>
<trkpt lon="-1.974007" lat="43.325899"><ele>7.25</ele></trkpt>
<trkpt lon="-1.974114" lat="43.325876"><ele>7.5</ele></trkpt>
<trkpt lon="-1.974258" lat="43.325860"><ele>7.5</ele></trkpt>
<trkpt lon="-1.974831" lat="43.325693"><ele>6.5</ele></trkpt>
<trkpt lon="-1.975252" lat="43.325556"><ele>6.75</ele></trkpt>
<trkpt lon="-1.976177" lat="43.325224"><ele>6.75</ele></trkpt>
<trkpt lon="-1.976466" lat="43.325121"><ele>6.5</ele></trkpt>
<trkpt lon="-1.976595" lat="43.324916"><ele>7.0</ele></trkpt>
<trkpt lon="-1.976968" lat="43.324764"><ele>6.75</ele></trkpt>
<trkpt lon="-1.977229" lat="43.324663"><ele>5.25</ele></trkpt>
<trkpt lon="-1.977670" lat="43.324493"><ele>7.0</ele></trkpt>
<trkpt lon="-1.978191" lat="43.324293"><ele>7.25</ele></trkpt>
<trkpt lon="-1.978437" lat="43.324198"><ele>7.0</ele></trkpt>
<trkpt lon="-1.979196" lat="43.323906"><ele>6.75</ele></trkpt>
<trkpt lon="-1.979408" lat="43.323825"><ele>6.5</ele></trkpt>
<trkpt lon="-1.979446" lat="43.323809"><ele>6.5</ele></trkpt>
<trkpt lon="-1.980669" lat="43.323350"><ele>6.25</ele></trkpt>
<trkpt lon="-1.980690" lat="43.323344"><ele>6.25</ele></trkpt>
<trkpt lon="-1.980725" lat="43.323333"><ele>6.0</ele></trkpt>
<trkpt lon="-1.980792" lat="43.323314"><ele>6.25</ele></trkpt>
<trkpt lon="-1.980825" lat="43.323305"><ele>6.75</ele></trkpt>
<trkpt lon="-1.980848" lat="43.323298"><ele>7.0</ele></trkpt>
<trkpt lon="-1.980899" lat="43.323284"><ele>7.0</ele></trkpt>
<trkpt lon="-1.982024" lat="43.323001"><ele>6.0</ele></trkpt>
<trkpt lon="-1.982816" lat="43.322779"><ele>6.0</ele></trkpt>
<trkpt lon="-1.982756" lat="43.322686"><ele>6.0</ele></trkpt>
<trkpt lon="-1.982770" lat="43.322650"><ele>6.0</ele></trkpt>
<trkpt lon="-1.982751" lat="43.322595"><ele>6.0</ele></trkpt>
<trkpt lon="-1.983132" lat="43.322452"><ele>6.0</ele></trkpt>
<trkpt lon="-1.983556" lat="43.322303"><ele>6.0</ele></trkpt>
<trkpt lon="-1.984845" lat="43.321844"><ele>7.0</ele></trkpt>
<trkpt lon="-1.984900" lat="43.321786"><ele>7.0</ele></trkpt>
<trkpt lon="-1.985066" lat="43.321736"><ele>7.0</ele></trkpt>
<trkpt lon="-1.985113" lat="43.321615"><ele>7.0</ele></trkpt>
<trkpt lon="-1.985104" lat="43.321551"><ele>7.0</ele></trkpt>
<trkpt lon="-1.985038" lat="43.321461"><ele>6.75</ele></trkpt>
<trkpt lon="-1.985027" lat="43.321446"><ele>7.0</ele></trkpt>
<trkpt lon="-1.984984" lat="43.321385"><ele>6.75</ele></trkpt>
<trkpt lon="-1.985171" lat="43.321314"><ele>7.0</ele></trkpt>
<trkpt lon="-1.985503" lat="43.321189"><ele>7.0</ele></trkpt>
<trkpt lon="-1.985834" lat="43.321064"><ele>6.75</ele></trkpt>
<trkpt lon="-1.986002" lat="43.321000"><ele>6.75</ele></trkpt>
  </trkseg></trk></gpx>
