<?xml version="1.0" encoding="UTF-8"?>
<gpx version="1.1" creator="compostel-brouter" xmlns="http://www.topografix.com/GPX/1/1">
  <metadata><name>ES-02-Itxassou</name></metadata>
  <trk><name>ES-02-Itxassou</name><trkseg>
<trkpt lon="-1.344670" lat="43.265879"><ele>107.75</ele></trkpt>
<trkpt lon="-1.344565" lat="43.266034"><ele>107.5</ele></trkpt>
<trkpt lon="-1.344510" lat="43.266193"><ele>106.75</ele></trkpt>
<trkpt lon="-1.344501" lat="43.266326"><ele>104.5</ele></trkpt>
<trkpt lon="-1.344606" lat="43.266714"><ele>97.0</ele></trkpt>
<trkpt lon="-1.344763" lat="43.266993"><ele>90.75</ele></trkpt>
<trkpt lon="-1.344927" lat="43.267201"><ele>86.75</ele></trkpt>
<trkpt lon="-1.344931" lat="43.267283"><ele>84.0</ele></trkpt>
<trkpt lon="-1.344984" lat="43.267348"><ele>82.5</ele></trkpt>
<trkpt lon="-1.345239" lat="43.267489"><ele>82.75</ele></trkpt>
<trkpt lon="-1.345511" lat="43.267617"><ele>83.5</ele></trkpt>
<trkpt lon="-1.345607" lat="43.267648"><ele>84.0</ele></trkpt>
<trkpt lon="-1.345653" lat="43.267689"><ele>82.75</ele></trkpt>
<trkpt lon="-1.345845" lat="43.267803"><ele>80.5</ele></trkpt>
<trkpt lon="-1.346199" lat="43.267983"><ele>81.75</ele></trkpt>
<trkpt lon="-1.346541" lat="43.268177"><ele>82.0</ele></trkpt>
<trkpt lon="-1.347047" lat="43.268530"><ele>80.75</ele></trkpt>
<trkpt lon="-1.347331" lat="43.268713"><ele>81.5</ele></trkpt>
<trkpt lon="-1.347365" lat="43.268777"><ele>80.75</ele></trkpt>
<trkpt lon="-1.347444" lat="43.268804"><ele>81.75</ele></trkpt>
<trkpt lon="-1.347538" lat="43.268862"><ele>82.0</ele></trkpt>
<trkpt lon="-1.347840" lat="43.269142"><ele>80.75</ele></trkpt>
<trkpt lon="-1.348010" lat="43.269222"><ele>80.75</ele></trkpt>
<trkpt lon="-1.348101" lat="43.269242"><ele>80.75</ele></trkpt>
<trkpt lon="-1.348221" lat="43.269243"><ele>80.75</ele></trkpt>
<trkpt lon="-1.348635" lat="43.269149"><ele>78.75</ele></trkpt>
<trkpt lon="-1.348731" lat="43.269136"><ele>78.75</ele></trkpt>
<trkpt lon="-1.348866" lat="43.269128"><ele>78.5</ele></trkpt>
<trkpt lon="-1.349113" lat="43.269135"><ele>78.75</ele></trkpt>
<trkpt lon="-1.349688" lat="43.269109"><ele>80.0</ele></trkpt>
<trkpt lon="-1.349728" lat="43.269415"><ele>80.75</ele></trkpt>
<trkpt lon="-1.349771" lat="43.269463"><ele>80.75</ele></trkpt>
<trkpt lon="-1.349791" lat="43.269481"><ele>80.75</ele></trkpt>
<trkpt lon="-1.349980" lat="43.269557"><ele>80.75</ele></trkpt>
<trkpt lon="-1.350236" lat="43.269629"><ele>81.5</ele></trkpt>
<trkpt lon="-1.350604" lat="43.269660"><ele>81.25</ele></trkpt>
<trkpt lon="-1.350754" lat="43.269661"><ele>81.0</ele></trkpt>
<trkpt lon="-1.350868" lat="43.269646"><ele>81.0</ele></trkpt>
<trkpt lon="-1.351546" lat="43.269493"><ele>82.5</ele></trkpt>
<trkpt lon="-1.351631" lat="43.269514"><ele>82.75</ele></trkpt>
<trkpt lon="-1.351712" lat="43.269477"><ele>83.0</ele></trkpt>
<trkpt lon="-1.353143" lat="43.269201"><ele>85.75</ele></trkpt>
<trkpt lon="-1.353253" lat="43.269146"><ele>84.75</ele></trkpt>
<trkpt lon="-1.353451" lat="43.268916"><ele>84.75</ele></trkpt>
<trkpt lon="-1.353519" lat="43.268868"><ele>84.0</ele></trkpt>
<trkpt lon="-1.353650" lat="43.268826"><ele>83.25</ele></trkpt>
<trkpt lon="-1.354206" lat="43.268717"><ele>84.75</ele></trkpt>
<trkpt lon="-1.355394" lat="43.268413"><ele>87.75</ele></trkpt>
<trkpt lon="-1.355706" lat="43.268366"><ele>86.0</ele></trkpt>
<trkpt lon="-1.357165" lat="43.268301"><ele>88.0</ele></trkpt>
<trkpt lon="-1.357397" lat="43.268275"><ele>87.75</ele></trkpt>
<trkpt lon="-1.357552" lat="43.268248"><ele>88.5</ele></trkpt>
<trkpt lon="-1.357665" lat="43.268245"><ele>89.75</ele></trkpt>
<trkpt lon="-1.358035" lat="43.268311"><ele>92.5</ele></trkpt>
<trkpt lon="-1.358289" lat="43.268317"><ele>93.5</ele></trkpt>
<trkpt lon="-1.358713" lat="43.268375"><ele>97.5</ele></trkpt>
<trkpt lon="-1.358853" lat="43.268379"><ele>97.75</ele></trkpt>
<trkpt lon="-1.359262" lat="43.268535"><ele>100.5</ele></trkpt>
<trkpt lon="-1.359720" lat="43.268701"><ele>103.5</ele></trkpt>
<trkpt lon="-1.359996" lat="43.268783"><ele>104.75</ele></trkpt>
<trkpt lon="-1.360173" lat="43.268811"><ele>106.25</ele></trkpt>
<trkpt lon="-1.360431" lat="43.268812"><ele>108.5</ele></trkpt>
<trkpt lon="-1.360809" lat="43.268757"><ele>114.25</ele></trkpt>
<trkpt lon="-1.361077" lat="43.268674"><ele>118.0</ele></trkpt>
<trkpt lon="-1.361280" lat="43.268646"><ele>120.25</ele></trkpt>
<trkpt lon="-1.361444" lat="43.268663"><ele>121.25</ele></trkpt>
<trkpt lon="-1.361660" lat="43.268711"><ele>122.0</ele></trkpt>
<trkpt lon="-1.361996" lat="43.268786"><ele>124.0</ele></trkpt>
<trkpt lon="-1.362116" lat="43.268808"><ele>126.0</ele></trkpt>
<trkpt lon="-1.362778" lat="43.268739"><ele>140.5</ele></trkpt>
<trkpt lon="-1.362923" lat="43.268672"><ele>145.25</ele></trkpt>
<trkpt lon="-1.363186" lat="43.268393"><ele>155.25</ele></trkpt>
<trkpt lon="-1.363335" lat="43.268436"><ele>160.5</ele></trkpt>
<trkpt lon="-1.363510" lat="43.268569"><ele>167.0</ele></trkpt>
<trkpt lon="-1.363663" lat="43.268719"><ele>172.5</ele></trkpt>
<trkpt lon="-1.363763" lat="43.268871"><ele>176.0</ele></trkpt>
<trkpt lon="-1.363748" lat="43.269041"><ele>175.25</ele></trkpt>
<trkpt lon="-1.363826" lat="43.269412"><ele>179.0</ele></trkpt>
<trkpt lon="-1.364046" lat="43.269758"><ele>185.5</ele></trkpt>
<trkpt lon="-1.364636" lat="43.270524"><ele>204.5</ele></trkpt>
<trkpt lon="-1.364807" lat="43.270657"><ele>206.25</ele></trkpt>
<trkpt lon="-1.365161" lat="43.270727"><ele>214.25</ele></trkpt>
<trkpt lon="-1.365537" lat="43.271250"><ele>225.0</ele></trkpt>
<trkpt lon="-1.365676" lat="43.271305"><ele>230.0</ele></trkpt>
<trkpt lon="-1.366234" lat="43.271820"><ele>244.5</ele></trkpt>
<trkpt lon="-1.366459" lat="43.271977"><ele>250.75</ele></trkpt>
<trkpt lon="-1.366749" lat="43.272063"><ele>257.75</ele></trkpt>
<trkpt lon="-1.366932" lat="43.272219"><ele>254.75</ele></trkpt>
<trkpt lon="-1.367028" lat="43.272344"><ele>257.75</ele></trkpt>
<trkpt lon="-1.367050" lat="43.272570"><ele>256.5</ele></trkpt>
<trkpt lon="-1.367125" lat="43.272766"><ele>257.25</ele></trkpt>
<trkpt lon="-1.367253" lat="43.272914"><ele>258.5</ele></trkpt>
<trkpt lon="-1.367511" lat="43.273055"><ele>263.25</ele></trkpt>
<trkpt lon="-1.368262" lat="43.273219"><ele>276.0</ele></trkpt>
<trkpt lon="-1.368487" lat="43.273367"><ele>278.0</ele></trkpt>
<trkpt lon="-1.368755" lat="43.273578"><ele>283.25</ele></trkpt>
<trkpt lon="-1.369174" lat="43.273894"><ele>286.75</ele></trkpt>
<trkpt lon="-1.369410" lat="43.274012"><ele>286.0</ele></trkpt>
<trkpt lon="-1.369635" lat="43.274031"><ele>289.0</ele></trkpt>
<trkpt lon="-1.369871" lat="43.274008"><ele>292.0</ele></trkpt>
<trkpt lon="-1.370122" lat="43.273909"><ele>293.75</ele></trkpt>
<trkpt lon="-1.370330" lat="43.273762"><ele>295.5</ele></trkpt>
<trkpt lon="-1.370841" lat="43.273232"><ele>297.75</ele></trkpt>
<trkpt lon="-1.371577" lat="43.272840"><ele>289.5</ele></trkpt>
<trkpt lon="-1.371852" lat="43.272708"><ele>292.5</ele></trkpt>
<trkpt lon="-1.371962" lat="43.272674"><ele>293.5</ele></trkpt>
<trkpt lon="-1.372071" lat="43.273242"><ele>299.25</ele></trkpt>
<trkpt lon="-1.372114" lat="43.273367"><ele>300.0</ele></trkpt>
<trkpt lon="-1.372671" lat="43.273875"><ele>309.25</ele></trkpt>
<trkpt lon="-1.372691" lat="43.273976"><ele>310.25</ele></trkpt>
<trkpt lon="-1.372661" lat="43.274047"><ele>310.0</ele></trkpt>
<trkpt lon="-1.372275" lat="43.274250"><ele>311.75</ele></trkpt>
<trkpt lon="-1.372191" lat="43.274315"><ele>312.5</ele></trkpt>
<trkpt lon="-1.372101" lat="43.274412"><ele>313.0</ele></trkpt>
<trkpt lon="-1.372075" lat="43.274482"><ele>313.75</ele></trkpt>
<trkpt lon="-1.372075" lat="43.274596"><ele>314.75</ele></trkpt>
<trkpt lon="-1.372119" lat="43.274686"><ele>316.75</ele></trkpt>
<trkpt lon="-1.372256" lat="43.274779"><ele>319.0</ele></trkpt>
<trkpt lon="-1.372424" lat="43.274850"><ele>321.75</ele></trkpt>
<trkpt lon="-1.372483" lat="43.274833"><ele>322.75</ele></trkpt>
<trkpt lon="-1.372576" lat="43.274830"><ele>323.75</ele></trkpt>
<trkpt lon="-1.372709" lat="43.274837"><ele>325.25</ele></trkpt>
<trkpt lon="-1.372910" lat="43.274866"><ele>327.25</ele></trkpt>
<trkpt lon="-1.373055" lat="43.274915"><ele>328.75</ele></trkpt>
<trkpt lon="-1.373228" lat="43.275001"><ele>329.25</ele></trkpt>
<trkpt lon="-1.373311" lat="43.275033"><ele>329.25</ele></trkpt>
<trkpt lon="-1.373424" lat="43.275096"><ele>329.0</ele></trkpt>
<trkpt lon="-1.373653" lat="43.275249"><ele>328.75</ele></trkpt>
<trkpt lon="-1.373486" lat="43.275375"><ele>331.75</ele></trkpt>
<trkpt lon="-1.373178" lat="43.275627"><ele>334.75</ele></trkpt>
<trkpt lon="-1.373144" lat="43.275699"><ele>335.0</ele></trkpt>
<trkpt lon="-1.373130" lat="43.275772"><ele>335.5</ele></trkpt>
<trkpt lon="-1.373200" lat="43.276024"><ele>337.0</ele></trkpt>
<trkpt lon="-1.373302" lat="43.276233"><ele>338.25</ele></trkpt>
<trkpt lon="-1.373340" lat="43.276390"><ele>338.75</ele></trkpt>
<trkpt lon="-1.373398" lat="43.276541"><ele>340.5</ele></trkpt>
<trkpt lon="-1.373572" lat="43.276734"><ele>342.5</ele></trkpt>
<trkpt lon="-1.373609" lat="43.276783"><ele>343.0</ele></trkpt>
<trkpt lon="-1.373654" lat="43.276873"><ele>344.0</ele></trkpt>
<trkpt lon="-1.373779" lat="43.277483"><ele>355.75</ele></trkpt>
<trkpt lon="-1.373871" lat="43.278291"><ele>373.25</ele></trkpt>
<trkpt lon="-1.373865" lat="43.278374"><ele>375.5</ele></trkpt>
<trkpt lon="-1.373824" lat="43.278412"><ele>377.75</ele></trkpt>
<trkpt lon="-1.373919" lat="43.278728"><ele>384.5</ele></trkpt>
<trkpt lon="-1.374042" lat="43.278960"><ele>389.75</ele></trkpt>
<trkpt lon="-1.374077" lat="43.279109"><ele>391.5</ele></trkpt>
<trkpt lon="-1.374063" lat="43.279270"><ele>393.25</ele></trkpt>
<trkpt lon="-1.373962" lat="43.279459"><ele>396.75</ele></trkpt>
<trkpt lon="-1.373831" lat="43.279620"><ele>401.25</ele></trkpt>
<trkpt lon="-1.373629" lat="43.279772"><ele>408.0</ele></trkpt>
<trkpt lon="-1.373483" lat="43.279922"><ele>411.25</ele></trkpt>
<trkpt lon="-1.373307" lat="43.280173"><ele>416.75</ele></trkpt>
<trkpt lon="-1.373208" lat="43.280378"><ele>421.25</ele></trkpt>
<trkpt lon="-1.373141" lat="43.280583"><ele>425.5</ele></trkpt>
<trkpt lon="-1.373111" lat="43.280826"><ele>426.5</ele></trkpt>
<trkpt lon="-1.373050" lat="43.281136"><ele>431.5</ele></trkpt>
<trkpt lon="-1.373069" lat="43.281323"><ele>433.25</ele></trkpt>
<trkpt lon="-1.373173" lat="43.281546"><ele>434.5</ele></trkpt>
<trkpt lon="-1.373237" lat="43.281763"><ele>440.75</ele></trkpt>
<trkpt lon="-1.373287" lat="43.281812"><ele>441.75</ele></trkpt>
<trkpt lon="-1.373421" lat="43.281842"><ele>441.25</ele></trkpt>
<trkpt lon="-1.373532" lat="43.281840"><ele>440.25</ele></trkpt>
<trkpt lon="-1.373616" lat="43.281853"><ele>440.25</ele></trkpt>
<trkpt lon="-1.373726" lat="43.281931"><ele>443.0</ele></trkpt>
<trkpt lon="-1.373790" lat="43.282011"><ele>446.5</ele></trkpt>
<trkpt lon="-1.373861" lat="43.282045"><ele>447.25</ele></trkpt>
<trkpt lon="-1.373953" lat="43.282042"><ele>448.0</ele></trkpt>
<trkpt lon="-1.374178" lat="43.282006"><ele>451.75</ele></trkpt>
<trkpt lon="-1.374476" lat="43.282007"><ele>457.25</ele></trkpt>
<trkpt lon="-1.374944" lat="43.281985"><ele>464.5</ele></trkpt>
<trkpt lon="-1.375176" lat="43.281999"><ele>467.25</ele></trkpt>
<trkpt lon="-1.375330" lat="43.282027"><ele>469.25</ele></trkpt>
<trkpt lon="-1.375418" lat="43.282068"><ele>470.75</ele></trkpt>
<trkpt lon="-1.375502" lat="43.282147"><ele>473.5</ele></trkpt>
<trkpt lon="-1.375628" lat="43.282405"><ele>482.0</ele></trkpt>
<trkpt lon="-1.375791" lat="43.282652"><ele>488.75</ele></trkpt>
<trkpt lon="-1.375988" lat="43.282883"><ele>492.75</ele></trkpt>
<trkpt lon="-1.376227" lat="43.283260"><ele>499.0</ele></trkpt>
<trkpt lon="-1.376374" lat="43.283760"><ele>509.5</ele></trkpt>
<trkpt lon="-1.376462" lat="43.284199"><ele>520.0</ele></trkpt>
<trkpt lon="-1.376523" lat="43.284321"><ele>522.25</ele></trkpt>
<trkpt lon="-1.376610" lat="43.284457"><ele>524.5</ele></trkpt>
<trkpt lon="-1.376867" lat="43.284675"><ele>528.0</ele></trkpt>
<trkpt lon="-1.376990" lat="43.284860"><ele>530.75</ele></trkpt>
<trkpt lon="-1.377081" lat="43.284969"><ele>533.0</ele></trkpt>
<trkpt lon="-1.377259" lat="43.285056"><ele>535.0</ele></trkpt>
<trkpt lon="-1.377524" lat="43.285040"><ele>540.0</ele></trkpt>
<trkpt lon="-1.377894" lat="43.285071"><ele>546.25</ele></trkpt>
<trkpt lon="-1.378029" lat="43.285088"><ele>547.25</ele></trkpt>
<trkpt lon="-1.379286" lat="43.285392"><ele>556.0</ele></trkpt>
<trkpt lon="-1.379563" lat="43.285424"><ele>557.5</ele></trkpt>
<trkpt lon="-1.379763" lat="43.285494"><ele>560.0</ele></trkpt>
<trkpt lon="-1.380091" lat="43.285638"><ele>568.0</ele></trkpt>
<trkpt lon="-1.380182" lat="43.285666"><ele>570.0</ele></trkpt>
<trkpt lon="-1.380592" lat="43.285699"><ele>575.25</ele></trkpt>
<trkpt lon="-1.381048" lat="43.285789"><ele>579.0</ele></trkpt>
<trkpt lon="-1.381172" lat="43.285870"><ele>580.5</ele></trkpt>
<trkpt lon="-1.381354" lat="43.286060"><ele>583.25</ele></trkpt>
<trkpt lon="-1.381602" lat="43.286245"><ele>585.25</ele></trkpt>
<trkpt lon="-1.381682" lat="43.286290"><ele>585.5</ele></trkpt>
<trkpt lon="-1.381791" lat="43.286524"><ele>586.75</ele></trkpt>
<trkpt lon="-1.381810" lat="43.286681"><ele>587.25</ele></trkpt>
<trkpt lon="-1.381765" lat="43.286923"><ele>587.5</ele></trkpt>
<trkpt lon="-1.381830" lat="43.287141"><ele>588.0</ele></trkpt>
<trkpt lon="-1.381967" lat="43.287302"><ele>588.0</ele></trkpt>
<trkpt lon="-1.382214" lat="43.287382"><ele>587.0</ele></trkpt>
<trkpt lon="-1.382768" lat="43.287596"><ele>586.0</ele></trkpt>
<trkpt lon="-1.383888" lat="43.288060"><ele>581.0</ele></trkpt>
<trkpt lon="-1.384051" lat="43.288203"><ele>580.75</ele></trkpt>
<trkpt lon="-1.384474" lat="43.288364"><ele>577.75</ele></trkpt>
<trkpt lon="-1.384598" lat="43.288449"><ele>576.5</ele></trkpt>
<trkpt lon="-1.384767" lat="43.288646"><ele>575.25</ele></trkpt>
<trkpt lon="-1.384834" lat="43.288687"><ele>575.75</ele></trkpt>
<trkpt lon="-1.384900" lat="43.288683"><ele>575.0</ele></trkpt>
<trkpt lon="-1.385211" lat="43.288618"><ele>571.25</ele></trkpt>
<trkpt lon="-1.385347" lat="43.288629"><ele>571.0</ele></trkpt>
<trkpt lon="-1.385829" lat="43.288791"><ele>572.75</ele></trkpt>
<trkpt lon="-1.386200" lat="43.288862"><ele>573.25</ele></trkpt>
<trkpt lon="-1.386956" lat="43.288975"><ele>572.5</ele></trkpt>
<trkpt lon="-1.387216" lat="43.289051"><ele>573.5</ele></trkpt>
<trkpt lon="-1.387483" lat="43.289184"><ele>574.5</ele></trkpt>
<trkpt lon="-1.387959" lat="43.289445"><ele>576.0</ele></trkpt>
<trkpt lon="-1.388219" lat="43.289606"><ele>576.25</ele></trkpt>
<trkpt lon="-1.388421" lat="43.289772"><ele>577.5</ele></trkpt>
<trkpt lon="-1.388656" lat="43.289938"><ele>579.0</ele></trkpt>
<trkpt lon="-1.388871" lat="43.289990"><ele>579.75</ele></trkpt>
<trkpt lon="-1.389001" lat="43.290052"><ele>581.25</ele></trkpt>
<trkpt lon="-1.389079" lat="43.290161"><ele>582.75</ele></trkpt>
<trkpt lon="-1.389086" lat="43.290198"><ele>583.25</ele></trkpt>
<trkpt lon="-1.389029" lat="43.290337"><ele>585.75</ele></trkpt>
<trkpt lon="-1.388974" lat="43.290580"><ele>589.5</ele></trkpt>
<trkpt lon="-1.388863" lat="43.290852"><ele>592.75</ele></trkpt>
<trkpt lon="-1.388851" lat="43.290957"><ele>592.25</ele></trkpt>
<trkpt lon="-1.388903" lat="43.291114"><ele>591.75</ele></trkpt>
<trkpt lon="-1.389001" lat="43.291251"><ele>590.25</ele></trkpt>
<trkpt lon="-1.389118" lat="43.291393"><ele>588.75</ele></trkpt>
<trkpt lon="-1.389196" lat="43.291640"><ele>584.0</ele></trkpt>
<trkpt lon="-1.389209" lat="43.291772"><ele>581.75</ele></trkpt>
<trkpt lon="-1.389247" lat="43.291974"><ele>578.0</ele></trkpt>
<trkpt lon="-1.389410" lat="43.292106"><ele>575.5</ele></trkpt>
<trkpt lon="-1.389685" lat="43.292560"><ele>566.75</ele></trkpt>
<trkpt lon="-1.389926" lat="43.292844"><ele>561.75</ele></trkpt>
<trkpt lon="-1.390232" lat="43.293166"><ele>555.5</ele></trkpt>
<trkpt lon="-1.390382" lat="43.293399"><ele>551.0</ele></trkpt>
<trkpt lon="-1.390459" lat="43.293487"><ele>549.75</ele></trkpt>
<trkpt lon="-1.390512" lat="43.293546"><ele>549.25</ele></trkpt>
<trkpt lon="-1.390706" lat="43.293636"><ele>547.0</ele></trkpt>
<trkpt lon="-1.390746" lat="43.293675"><ele>546.5</ele></trkpt>
<trkpt lon="-1.390877" lat="43.293887"><ele>545.75</ele></trkpt>
<trkpt lon="-1.390968" lat="43.294110"><ele>543.25</ele></trkpt>
<trkpt lon="-1.391177" lat="43.294537"><ele>537.5</ele></trkpt>
<trkpt lon="-1.391789" lat="43.295414"><ele>528.5</ele></trkpt>
<trkpt lon="-1.391913" lat="43.295949"><ele>519.75</ele></trkpt>
<trkpt lon="-1.391867" lat="43.296106"><ele>516.75</ele></trkpt>
<trkpt lon="-1.391672" lat="43.296499"><ele>507.5</ele></trkpt>
<trkpt lon="-1.391470" lat="43.296722"><ele>500.5</ele></trkpt>
<trkpt lon="-1.391353" lat="43.296864"><ele>498.5</ele></trkpt>
<trkpt lon="-1.390894" lat="43.296459"><ele>493.75</ele></trkpt>
<trkpt lon="-1.390547" lat="43.296652"><ele>483.0</ele></trkpt>
<trkpt lon="-1.390333" lat="43.296703"><ele>476.25</ele></trkpt>
<trkpt lon="-1.389947" lat="43.296554"><ele>467.25</ele></trkpt>
<trkpt lon="-1.389630" lat="43.296310"><ele>462.25</ele></trkpt>
<trkpt lon="-1.389436" lat="43.296108"><ele>459.5</ele></trkpt>
<trkpt lon="-1.389323" lat="43.296005"><ele>457.75</ele></trkpt>
<trkpt lon="-1.389297" lat="43.296877"><ele>433.5</ele></trkpt>
<trkpt lon="-1.389418" lat="43.297120"><ele>428.25</ele></trkpt>
<trkpt lon="-1.389561" lat="43.297340"><ele>425.0</ele></trkpt>
<trkpt lon="-1.389660" lat="43.297601"><ele>419.75</ele></trkpt>
<trkpt lon="-1.389739" lat="43.297955"><ele>409.5</ele></trkpt>
<trkpt lon="-1.389920" lat="43.298331"><ele>399.75</ele></trkpt>
<trkpt lon="-1.389916" lat="43.298438"><ele>395.75</ele></trkpt>
<trkpt lon="-1.390028" lat="43.298735"><ele>388.5</ele></trkpt>
<trkpt lon="-1.389998" lat="43.298899"><ele>382.5</ele></trkpt>
<trkpt lon="-1.390038" lat="43.299145"><ele>375.5</ele></trkpt>
<trkpt lon="-1.390135" lat="43.299312"><ele>372.25</ele></trkpt>
<trkpt lon="-1.390005" lat="43.299340"><ele>367.75</ele></trkpt>
<trkpt lon="-1.389286" lat="43.298986"><ele>356.0</ele></trkpt>
<trkpt lon="-1.389130" lat="43.298888"><ele>354.75</ele></trkpt>
<trkpt lon="-1.389048" lat="43.298928"><ele>350.5</ele></trkpt>
<trkpt lon="-1.389136" lat="43.299056"><ele>348.25</ele></trkpt>
<trkpt lon="-1.389233" lat="43.299294"><ele>342.75</ele></trkpt>
<trkpt lon="-1.389280" lat="43.299498"><ele>337.25</ele></trkpt>
<trkpt lon="-1.389397" lat="43.299748"><ele>332.25</ele></trkpt>
<trkpt lon="-1.389567" lat="43.300058"><ele>326.0</ele></trkpt>
<trkpt lon="-1.389677" lat="43.300390"><ele>315.0</ele></trkpt>
<trkpt lon="-1.389794" lat="43.300573"><ele>309.75</ele></trkpt>
<trkpt lon="-1.389966" lat="43.300726"><ele>305.75</ele></trkpt>
<trkpt lon="-1.389961" lat="43.300796"><ele>302.25</ele></trkpt>
<trkpt lon="-1.389849" lat="43.300794"><ele>300.5</ele></trkpt>
<trkpt lon="-1.389806" lat="43.300818"><ele>298.75</ele></trkpt>
<trkpt lon="-1.389875" lat="43.300858"><ele>298.0</ele></trkpt>
<trkpt lon="-1.389842" lat="43.300940"><ele>294.25</ele></trkpt>
<trkpt lon="-1.390048" lat="43.301242"><ele>286.25</ele></trkpt>
<trkpt lon="-1.390204" lat="43.301344"><ele>285.0</ele></trkpt>
<trkpt lon="-1.390527" lat="43.301669"><ele>279.0</ele></trkpt>
<trkpt lon="-1.390678" lat="43.301935"><ele>273.5</ele></trkpt>
<trkpt lon="-1.390889" lat="43.302251"><ele>267.5</ele></trkpt>
<trkpt lon="-1.391005" lat="43.302365"><ele>263.75</ele></trkpt>
<trkpt lon="-1.391124" lat="43.302522"><ele>258.0</ele></trkpt>
<trkpt lon="-1.391130" lat="43.302579"><ele>255.25</ele></trkpt>
<trkpt lon="-1.390982" lat="43.302588"><ele>252.0</ele></trkpt>
<trkpt lon="-1.390736" lat="43.302564"><ele>247.75</ele></trkpt>
<trkpt lon="-1.390402" lat="43.302513"><ele>240.75</ele></trkpt>
<trkpt lon="-1.390072" lat="43.302454"><ele>235.25</ele></trkpt>
<trkpt lon="-1.389907" lat="43.302448"><ele>232.0</ele></trkpt>
<trkpt lon="-1.389756" lat="43.302458"><ele>228.75</ele></trkpt>
<trkpt lon="-1.389598" lat="43.302522"><ele>223.75</ele></trkpt>
<trkpt lon="-1.389429" lat="43.302579"><ele>219.25</ele></trkpt>
<trkpt lon="-1.389325" lat="43.302586"><ele>216.75</ele></trkpt>
<trkpt lon="-1.389176" lat="43.302660"><ele>212.25</ele></trkpt>
<trkpt lon="-1.389114" lat="43.302739"><ele>209.5</ele></trkpt>
<trkpt lon="-1.389076" lat="43.302837"><ele>206.25</ele></trkpt>
<trkpt lon="-1.388824" lat="43.303087"><ele>193.75</ele></trkpt>
<trkpt lon="-1.388649" lat="43.303228"><ele>186.0</ele></trkpt>
<trkpt lon="-1.388429" lat="43.303341"><ele>177.75</ele></trkpt>
<trkpt lon="-1.388304" lat="43.303482"><ele>171.25</ele></trkpt>
<trkpt lon="-1.388331" lat="43.303549"><ele>169.75</ele></trkpt>
<trkpt lon="-1.388555" lat="43.303658"><ele>169.25</ele></trkpt>
<trkpt lon="-1.388708" lat="43.303783"><ele>166.5</ele></trkpt>
<trkpt lon="-1.388863" lat="43.303899"><ele>164.25</ele></trkpt>
<trkpt lon="-1.389089" lat="43.304009"><ele>161.75</ele></trkpt>
<trkpt lon="-1.389108" lat="43.304036"><ele>161.0</ele></trkpt>
<trkpt lon="-1.389006" lat="43.304300"><ele>151.0</ele></trkpt>
<trkpt lon="-1.388898" lat="43.304390"><ele>147.75</ele></trkpt>
<trkpt lon="-1.388705" lat="43.304436"><ele>142.75</ele></trkpt>
<trkpt lon="-1.388532" lat="43.304415"><ele>141.5</ele></trkpt>
<trkpt lon="-1.388080" lat="43.304542"><ele>134.5</ele></trkpt>
<trkpt lon="-1.388064" lat="43.304616"><ele>133.25</ele></trkpt>
<trkpt lon="-1.388178" lat="43.304790"><ele>129.0</ele></trkpt>
<trkpt lon="-1.388386" lat="43.305006"><ele>123.5</ele></trkpt>
<trkpt lon="-1.388399" lat="43.305273"><ele>117.25</ele></trkpt>
<trkpt lon="-1.388383" lat="43.305490"><ele>112.0</ele></trkpt>
<trkpt lon="-1.388541" lat="43.305526"><ele>109.25</ele></trkpt>
<trkpt lon="-1.388411" lat="43.305713"><ele>105.75</ele></trkpt>
<trkpt lon="-1.388210" lat="43.305844"><ele>102.25</ele></trkpt>
<trkpt lon="-1.388415" lat="43.305922"><ele>100.5</ele></trkpt>
<trkpt lon="-1.388581" lat="43.305914"><ele>99.0</ele></trkpt>
<trkpt lon="-1.388830" lat="43.305841"><ele>97.75</ele></trkpt>
<trkpt lon="-1.388890" lat="43.305884"><ele>96.75</ele></trkpt>
<trkpt lon="-1.388926" lat="43.305941"><ele>97.75</ele></trkpt>
<trkpt lon="-1.388907" lat="43.306181"><ele>96.5</ele></trkpt>
<trkpt lon="-1.388957" lat="43.306274"><ele>97.25</ele></trkpt>
<trkpt lon="-1.389056" lat="43.306377"><ele>97.75</ele></trkpt>
<trkpt lon="-1.389332" lat="43.306594"><ele>93.5</ele></trkpt>
<trkpt lon="-1.389355" lat="43.306637"><ele>92.25</ele></trkpt>
<trkpt lon="-1.389360" lat="43.306686"><ele>91.0</ele></trkpt>
<trkpt lon="-1.389345" lat="43.306798"><ele>89.5</ele></trkpt>
<trkpt lon="-1.389326" lat="43.306855"><ele>88.75</ele></trkpt>
<trkpt lon="-1.389292" lat="43.306954"><ele>87.0</ele></trkpt>
<trkpt lon="-1.389281" lat="43.306988"><ele>86.0</ele></trkpt>
<trkpt lon="-1.389261" lat="43.307138"><ele>82.25</ele></trkpt>
<trkpt lon="-1.389217" lat="43.307272"><ele>80.0</ele></trkpt>
<trkpt lon="-1.389148" lat="43.307350"><ele>79.75</ele></trkpt>
<trkpt lon="-1.389046" lat="43.307538"><ele>78.5</ele></trkpt>
<trkpt lon="-1.388990" lat="43.307664"><ele>78.25</ele></trkpt>
<trkpt lon="-1.388877" lat="43.307866"><ele>78.5</ele></trkpt>
<trkpt lon="-1.388786" lat="43.308093"><ele>78.5</ele></trkpt>
<trkpt lon="-1.388717" lat="43.308196"><ele>77.25</ele></trkpt>
<trkpt lon="-1.388684" lat="43.308289"><ele>77.0</ele></trkpt>
<trkpt lon="-1.388837" lat="43.308384"><ele>76.75</ele></trkpt>
<trkpt lon="-1.389043" lat="43.308399"><ele>75.0</ele></trkpt>
<trkpt lon="-1.389161" lat="43.308398"><ele>73.75</ele></trkpt>
<trkpt lon="-1.389315" lat="43.308357"><ele>74.0</ele></trkpt>
<trkpt lon="-1.389432" lat="43.308324"><ele>74.25</ele></trkpt>
<trkpt lon="-1.390124" lat="43.308078"><ele>67.5</ele></trkpt>
<trkpt lon="-1.390348" lat="43.308071"><ele>64.25</ele></trkpt>
<trkpt lon="-1.390544" lat="43.308133"><ele>65.75</ele></trkpt>
<trkpt lon="-1.390609" lat="43.308220"><ele>66.5</ele></trkpt>
<trkpt lon="-1.390603" lat="43.308241"><ele>66.5</ele></trkpt>
<trkpt lon="-1.390585" lat="43.308301"><ele>66.0</ele></trkpt>
<trkpt lon="-1.390437" lat="43.308403"><ele>68.0</ele></trkpt>
<trkpt lon="-1.390129" lat="43.308563"><ele>70.25</ele></trkpt>
<trkpt lon="-1.389668" lat="43.308725"><ele>66.25</ele></trkpt>
<trkpt lon="-1.389333" lat="43.308956"><ele>65.5</ele></trkpt>
<trkpt lon="-1.389181" lat="43.309075"><ele>65.5</ele></trkpt>
<trkpt lon="-1.389033" lat="43.309278"><ele>65.25</ele></trkpt>
<trkpt lon="-1.389005" lat="43.309351"><ele>66.0</ele></trkpt>
<trkpt lon="-1.388985" lat="43.309501"><ele>66.5</ele></trkpt>
<trkpt lon="-1.389087" lat="43.309593"><ele>66.75</ele></trkpt>
<trkpt lon="-1.389080" lat="43.309640"><ele>65.25</ele></trkpt>
<trkpt lon="-1.389321" lat="43.309851"><ele>65.0</ele></trkpt>
<trkpt lon="-1.389467" lat="43.309952"><ele>66.25</ele></trkpt>
<trkpt lon="-1.389569" lat="43.310007"><ele>66.0</ele></trkpt>
<trkpt lon="-1.389937" lat="43.310112"><ele>66.25</ele></trkpt>
<trkpt lon="-1.390162" lat="43.310148"><ele>68.75</ele></trkpt>
<trkpt lon="-1.390761" lat="43.310149"><ele>74.0</ele></trkpt>
<trkpt lon="-1.390922" lat="43.310144"><ele>75.0</ele></trkpt>
<trkpt lon="-1.391126" lat="43.310074"><ele>77.25</ele></trkpt>
<trkpt lon="-1.391246" lat="43.310073"><ele>78.75</ele></trkpt>
<trkpt lon="-1.391876" lat="43.310158"><ele>83.25</ele></trkpt>
<trkpt lon="-1.392336" lat="43.310247"><ele>87.75</ele></trkpt>
<trkpt lon="-1.392696" lat="43.310374"><ele>90.5</ele></trkpt>
<trkpt lon="-1.393177" lat="43.310575"><ele>92.75</ele></trkpt>
<trkpt lon="-1.393537" lat="43.310781"><ele>96.0</ele></trkpt>
<trkpt lon="-1.393656" lat="43.310825"><ele>97.25</ele></trkpt>
<trkpt lon="-1.394068" lat="43.310932"><ele>102.25</ele></trkpt>
<trkpt lon="-1.394298" lat="43.311004"><ele>101.0</ele></trkpt>
<trkpt lon="-1.394462" lat="43.311094"><ele>98.0</ele></trkpt>
<trkpt lon="-1.394635" lat="43.311219"><ele>96.5</ele></trkpt>
<trkpt lon="-1.394750" lat="43.311233"><ele>96.25</ele></trkpt>
<trkpt lon="-1.395246" lat="43.311107"><ele>98.25</ele></trkpt>
<trkpt lon="-1.395620" lat="43.311035"><ele>98.75</ele></trkpt>
<trkpt lon="-1.396080" lat="43.310990"><ele>97.5</ele></trkpt>
<trkpt lon="-1.396489" lat="43.311012"><ele>94.25</ele></trkpt>
<trkpt lon="-1.397455" lat="43.311116"><ele>87.5</ele></trkpt>
<trkpt lon="-1.397892" lat="43.311198"><ele>82.0</ele></trkpt>
<trkpt lon="-1.398719" lat="43.311491"><ele>78.0</ele></trkpt>
<trkpt lon="-1.398937" lat="43.311552"><ele>77.5</ele></trkpt>
<trkpt lon="-1.399662" lat="43.311686"><ele>75.75</ele></trkpt>
<trkpt lon="-1.399769" lat="43.311718"><ele>75.5</ele></trkpt>
<trkpt lon="-1.399854" lat="43.311766"><ele>75.0</ele></trkpt>
<trkpt lon="-1.400289" lat="43.312149"><ele>67.75</ele></trkpt>
<trkpt lon="-1.400430" lat="43.312303"><ele>64.75</ele></trkpt>
<trkpt lon="-1.400496" lat="43.312421"><ele>64.0</ele></trkpt>
<trkpt lon="-1.400515" lat="43.312492"><ele>63.5</ele></trkpt>
<trkpt lon="-1.400517" lat="43.312543"><ele>63.0</ele></trkpt>
<trkpt lon="-1.400509" lat="43.312584"><ele>62.5</ele></trkpt>
<trkpt lon="-1.400493" lat="43.312609"><ele>62.0</ele></trkpt>
<trkpt lon="-1.400412" lat="43.312730"><ele>60.25</ele></trkpt>
<trkpt lon="-1.400423" lat="43.312776"><ele>60.0</ele></trkpt>
<trkpt lon="-1.400463" lat="43.312812"><ele>59.25</ele></trkpt>
<trkpt lon="-1.400751" lat="43.312984"><ele>55.25</ele></trkpt>
<trkpt lon="-1.401117" lat="43.313155"><ele>51.25</ele></trkpt>
<trkpt lon="-1.401173" lat="43.313206"><ele>50.5</ele></trkpt>
<trkpt lon="-1.401240" lat="43.313322"><ele>49.0</ele></trkpt>
<trkpt lon="-1.401246" lat="43.313353"><ele>49.0</ele></trkpt>
<trkpt lon="-1.401349" lat="43.313307"><ele>49.5</ele></trkpt>
<trkpt lon="-1.401551" lat="43.313186"><ele>51.75</ele></trkpt>
<trkpt lon="-1.401686" lat="43.313124"><ele>50.5</ele></trkpt>
<trkpt lon="-1.402138" lat="43.312919"><ele>54.75</ele></trkpt>
<trkpt lon="-1.402252" lat="43.312881"><ele>55.25</ele></trkpt>
<trkpt lon="-1.402372" lat="43.312854"><ele>55.5</ele></trkpt>
<trkpt lon="-1.402428" lat="43.312920"><ele>58.75</ele></trkpt>
<trkpt lon="-1.402508" lat="43.312939"><ele>60.25</ele></trkpt>
<trkpt lon="-1.402756" lat="43.312948"><ele>60.5</ele></trkpt>
<trkpt lon="-1.403238" lat="43.312988"><ele>67.75</ele></trkpt>
<trkpt lon="-1.403315" lat="43.312985"><ele>69.0</ele></trkpt>
<trkpt lon="-1.403462" lat="43.312956"><ele>71.25</ele></trkpt>
<trkpt lon="-1.403773" lat="43.312917"><ele>75.5</ele></trkpt>
<trkpt lon="-1.404459" lat="43.312902"><ele>86.5</ele></trkpt>
<trkpt lon="-1.404930" lat="43.312900"><ele>94.75</ele></trkpt>
<trkpt lon="-1.405152" lat="43.312903"><ele>97.5</ele></trkpt>
<trkpt lon="-1.405325" lat="43.312915"><ele>99.25</ele></trkpt>
<trkpt lon="-1.405530" lat="43.312959"><ele>101.75</ele></trkpt>
<trkpt lon="-1.405799" lat="43.313064"><ele>106.5</ele></trkpt>
<trkpt lon="-1.405956" lat="43.313132"><ele>109.75</ele></trkpt>
<trkpt lon="-1.406131" lat="43.313261"><ele>116.75</ele></trkpt>
<trkpt lon="-1.406654" lat="43.313315"><ele>119.75</ele></trkpt>
<trkpt lon="-1.406683" lat="43.313356"><ele>122.0</ele></trkpt>
<trkpt lon="-1.406618" lat="43.313386"><ele>123.75</ele></trkpt>
<trkpt lon="-1.406179" lat="43.313415"><ele>126.0</ele></trkpt>
<trkpt lon="-1.405568" lat="43.313521"><ele>133.0</ele></trkpt>
<trkpt lon="-1.405510" lat="43.313555"><ele>135.0</ele></trkpt>
<trkpt lon="-1.405526" lat="43.313590"><ele>136.75</ele></trkpt>
<trkpt lon="-1.405669" lat="43.313600"><ele>137.75</ele></trkpt>
<trkpt lon="-1.406002" lat="43.313703"><ele>144.25</ele></trkpt>
<trkpt lon="-1.406421" lat="43.313916"><ele>153.25</ele></trkpt>
<trkpt lon="-1.406921" lat="43.314165"><ele>162.0</ele></trkpt>
<trkpt lon="-1.407254" lat="43.314304"><ele>167.5</ele></trkpt>
<trkpt lon="-1.407981" lat="43.314638"><ele>176.25</ele></trkpt>
<trkpt lon="-1.408536" lat="43.315088"><ele>182.5</ele></trkpt>
<trkpt lon="-1.408880" lat="43.315322"><ele>189.25</ele></trkpt>
<trkpt lon="-1.409283" lat="43.315465"><ele>192.0</ele></trkpt>
<trkpt lon="-1.409453" lat="43.315552"><ele>194.5</ele></trkpt>
<trkpt lon="-1.409848" lat="43.315678"><ele>202.25</ele></trkpt>
<trkpt lon="-1.410216" lat="43.315819"><ele>210.25</ele></trkpt>
<trkpt lon="-1.410493" lat="43.315917"><ele>211.75</ele></trkpt>
<trkpt lon="-1.410758" lat="43.316036"><ele>213.25</ele></trkpt>
<trkpt lon="-1.411108" lat="43.316251"><ele>220.5</ele></trkpt>
<trkpt lon="-1.411387" lat="43.316344"><ele>224.25</ele></trkpt>
<trkpt lon="-1.411508" lat="43.316414"><ele>227.75</ele></trkpt>
<trkpt lon="-1.411572" lat="43.316474"><ele>230.25</ele></trkpt>
<trkpt lon="-1.411637" lat="43.316500"><ele>231.0</ele></trkpt>
<trkpt lon="-1.411747" lat="43.316505"><ele>231.5</ele></trkpt>
<trkpt lon="-1.412517" lat="43.316688"><ele>242.0</ele></trkpt>
<trkpt lon="-1.412774" lat="43.316801"><ele>247.25</ele></trkpt>
<trkpt lon="-1.413015" lat="43.316927"><ele>251.5</ele></trkpt>
<trkpt lon="-1.413274" lat="43.317078"><ele>256.0</ele></trkpt>
<trkpt lon="-1.413526" lat="43.317207"><ele>261.25</ele></trkpt>
<trkpt lon="-1.413728" lat="43.317257"><ele>264.75</ele></trkpt>
<trkpt lon="-1.414062" lat="43.317203"><ele>265.75</ele></trkpt>
<trkpt lon="-1.414203" lat="43.317197"><ele>267.5</ele></trkpt>
<trkpt lon="-1.414633" lat="43.317236"><ele>269.25</ele></trkpt>
<trkpt lon="-1.414922" lat="43.317286"><ele>271.0</ele></trkpt>
<trkpt lon="-1.415357" lat="43.317363"><ele>273.25</ele></trkpt>
<trkpt lon="-1.415625" lat="43.317480"><ele>277.0</ele></trkpt>
<trkpt lon="-1.415990" lat="43.317620"><ele>280.25</ele></trkpt>
<trkpt lon="-1.416430" lat="43.317730"><ele>284.0</ele></trkpt>
<trkpt lon="-1.416773" lat="43.317769"><ele>286.75</ele></trkpt>
<trkpt lon="-1.416896" lat="43.317796"><ele>288.75</ele></trkpt>
<trkpt lon="-1.416932" lat="43.317804"><ele>289.25</ele></trkpt>
<trkpt lon="-1.416784" lat="43.317845"><ele>291.0</ele></trkpt>
<trkpt lon="-1.416507" lat="43.317949"><ele>297.0</ele></trkpt>
<trkpt lon="-1.416184" lat="43.318053"><ele>305.25</ele></trkpt>
<trkpt lon="-1.415794" lat="43.318134"><ele>310.75</ele></trkpt>
<trkpt lon="-1.415052" lat="43.318418"><ele>328.25</ele></trkpt>
<trkpt lon="-1.414985" lat="43.318734"><ele>337.25</ele></trkpt>
<trkpt lon="-1.414917" lat="43.318838"><ele>339.0</ele></trkpt>
<trkpt lon="-1.414858" lat="43.318969"><ele>339.5</ele></trkpt>
<trkpt lon="-1.414885" lat="43.319056"><ele>339.0</ele></trkpt>
<trkpt lon="-1.414917" lat="43.319160"><ele>338.5</ele></trkpt>
<trkpt lon="-1.414940" lat="43.319280"><ele>334.75</ele></trkpt>
<trkpt lon="-1.414700" lat="43.319476"><ele>327.0</ele></trkpt>
<trkpt lon="-1.414483" lat="43.319710"><ele>314.5</ele></trkpt>
<trkpt lon="-1.414363" lat="43.319765"><ele>310.25</ele></trkpt>
<trkpt lon="-1.414055" lat="43.319749"><ele>305.5</ele></trkpt>
<trkpt lon="-1.413966" lat="43.319770"><ele>302.75</ele></trkpt>
<trkpt lon="-1.414078" lat="43.319852"><ele>301.0</ele></trkpt>
<trkpt lon="-1.414153" lat="43.319972"><ele>297.75</ele></trkpt>
<trkpt lon="-1.414273" lat="43.320059"><ele>293.75</ele></trkpt>
<trkpt lon="-1.414415" lat="43.320119"><ele>290.5</ele></trkpt>
<trkpt lon="-1.414775" lat="43.320245"><ele>284.5</ele></trkpt>
<trkpt lon="-1.414828" lat="43.320321"><ele>282.5</ele></trkpt>
<trkpt lon="-1.414843" lat="43.320545"><ele>274.0</ele></trkpt>
<trkpt lon="-1.414955" lat="43.320632"><ele>275.5</ele></trkpt>
<trkpt lon="-1.415015" lat="43.320926"><ele>265.0</ele></trkpt>
<trkpt lon="-1.415210" lat="43.321128"><ele>261.5</ele></trkpt>
<trkpt lon="-1.415180" lat="43.321259"><ele>257.5</ele></trkpt>
<trkpt lon="-1.414858" lat="43.322093"><ele>227.0</ele></trkpt>
<trkpt lon="-1.414858" lat="43.322192"><ele>225.0</ele></trkpt>
<trkpt lon="-1.414880" lat="43.322350"><ele>220.75</ele></trkpt>
<trkpt lon="-1.414805" lat="43.323293"><ele>189.75</ele></trkpt>
<trkpt lon="-1.414550" lat="43.323457"><ele>182.0</ele></trkpt>
<trkpt lon="-1.414085" lat="43.323735"><ele>168.0</ele></trkpt>
<trkpt lon="-1.413831" lat="43.323953"><ele>158.5</ele></trkpt>
<trkpt lon="-1.413478" lat="43.324804"><ele>135.25</ele></trkpt>
<trkpt lon="-1.413126" lat="43.325158"><ele>127.0</ele></trkpt>
<trkpt lon="-1.412894" lat="43.325229"><ele>124.5</ele></trkpt>
<trkpt lon="-1.412609" lat="43.325365"><ele>123.5</ele></trkpt>
<trkpt lon="-1.412369" lat="43.325529"><ele>120.75</ele></trkpt>
<trkpt lon="-1.412174" lat="43.325878"><ele>116.0</ele></trkpt>
<trkpt lon="-1.412039" lat="43.326079"><ele>112.25</ele></trkpt>
<trkpt lon="-1.412082" lat="43.326298"><ele>110.25</ele></trkpt>
<trkpt lon="-1.411966" lat="43.326221"><ele>109.75</ele></trkpt>
<trkpt lon="-1.411880" lat="43.326141"><ele>109.5</ele></trkpt>
<trkpt lon="-1.411839" lat="43.326077"><ele>109.0</ele></trkpt>
<trkpt lon="-1.411818" lat="43.325963"><ele>107.25</ele></trkpt>
<trkpt lon="-1.411818" lat="43.325758"><ele>104.5</ele></trkpt>
<trkpt lon="-1.411802" lat="43.325672"><ele>103.25</ele></trkpt>
<trkpt lon="-1.411732" lat="43.325560"><ele>101.0</ele></trkpt>
<trkpt lon="-1.411666" lat="43.325508"><ele>101.0</ele></trkpt>
<trkpt lon="-1.411600" lat="43.325483"><ele>101.25</ele></trkpt>
<trkpt lon="-1.411231" lat="43.325471"><ele>98.75</ele></trkpt>
<trkpt lon="-1.411069" lat="43.325471"><ele>97.25</ele></trkpt>
<trkpt lon="-1.410773" lat="43.325421"><ele>93.75</ele></trkpt>
<trkpt lon="-1.410411" lat="43.325328"><ele>87.0</ele></trkpt>
<trkpt lon="-1.410274" lat="43.325305"><ele>85.25</ele></trkpt>
<trkpt lon="-1.410103" lat="43.325319"><ele>83.75</ele></trkpt>
<trkpt lon="-1.409953" lat="43.325344"><ele>82.75</ele></trkpt>
<trkpt lon="-1.409736" lat="43.325346"><ele>80.75</ele></trkpt>
<trkpt lon="-1.409073" lat="43.325337"><ele>76.5</ele></trkpt>
<trkpt lon="-1.408795" lat="43.325287"><ele>73.25</ele></trkpt>
<trkpt lon="-1.408486" lat="43.325257"><ele>72.5</ele></trkpt>
<trkpt lon="-1.408199" lat="43.325216"><ele>71.75</ele></trkpt>
<trkpt lon="-1.407697" lat="43.325218"><ele>69.25</ele></trkpt>
<trkpt lon="-1.407035" lat="43.325115"><ele>63.75</ele></trkpt>
<trkpt lon="-1.406701" lat="43.325110"><ele>62.0</ele></trkpt>
<trkpt lon="-1.406906" lat="43.325238"><ele>65.75</ele></trkpt>
<trkpt lon="-1.407062" lat="43.325320"><ele>68.25</ele></trkpt>
<trkpt lon="-1.407576" lat="43.325547"><ele>74.25</ele></trkpt>
<trkpt lon="-1.407848" lat="43.325816"><ele>82.0</ele></trkpt>
<trkpt lon="-1.408135" lat="43.326061"><ele>85.0</ele></trkpt>
<trkpt lon="-1.408328" lat="43.326295"><ele>85.25</ele></trkpt>
<trkpt lon="-1.408424" lat="43.326661"><ele>85.0</ele></trkpt>
<trkpt lon="-1.408507" lat="43.326818"><ele>84.25</ele></trkpt>
<trkpt lon="-1.408498" lat="43.326866"><ele>84.25</ele></trkpt>
<trkpt lon="-1.408292" lat="43.327375"><ele>82.25</ele></trkpt>
<trkpt lon="-1.408027" lat="43.327627"><ele>80.75</ele></trkpt>
<trkpt lon="-1.407864" lat="43.327928"><ele>80.0</ele></trkpt>
<trkpt lon="-1.407759" lat="43.328291"><ele>80.0</ele></trkpt>
<trkpt lon="-1.407715" lat="43.328325"><ele>80.0</ele></trkpt>
<trkpt lon="-1.407387" lat="43.328468"><ele>80.0</ele></trkpt>
  </trkseg></trk></gpx>
