<?xml version="1.0" encoding="UTF-8"?>
<gpx version="1.1" creator="compostel-brouter" xmlns="http://www.topografix.com/GPX/1/1">
  <metadata><name>ES-01-Bidarray</name></metadata>
  <trk><name>ES-01-Bidarray</name><trkseg>
<trkpt lon="-1.236720" lat="43.163617"><ele>173.25</ele></trkpt>
<trkpt lon="-1.236837" lat="43.163553"><ele>173.25</ele></trkpt>
<trkpt lon="-1.236772" lat="43.163485"><ele>174.5</ele></trkpt>
<trkpt lon="-1.236797" lat="43.163466"><ele>174.25</ele></trkpt>
<trkpt lon="-1.236874" lat="43.163537"><ele>172.75</ele></trkpt>
<trkpt lon="-1.236939" lat="43.163595"><ele>171.25</ele></trkpt>
<trkpt lon="-1.236996" lat="43.163565"><ele>171.0</ele></trkpt>
<trkpt lon="-1.237251" lat="43.163399"><ele>169.5</ele></trkpt>
<trkpt lon="-1.237287" lat="43.163376"><ele>169.25</ele></trkpt>
<trkpt lon="-1.237350" lat="43.163408"><ele>168.5</ele></trkpt>
<trkpt lon="-1.237556" lat="43.163263"><ele>166.0</ele></trkpt>
<trkpt lon="-1.237600" lat="43.163229"><ele>165.5</ele></trkpt>
<trkpt lon="-1.237634" lat="43.163254"><ele>165.5</ele></trkpt>
<trkpt lon="-1.237891" lat="43.163132"><ele>164.0</ele></trkpt>
<trkpt lon="-1.238030" lat="43.163039"><ele>163.75</ele></trkpt>
<trkpt lon="-1.238098" lat="43.163084"><ele>163.75</ele></trkpt>
<trkpt lon="-1.238252" lat="43.163015"><ele>163.25</ele></trkpt>
<trkpt lon="-1.238532" lat="43.163004"><ele>158.75</ele></trkpt>
<trkpt lon="-1.238580" lat="43.163082"><ele>158.0</ele></trkpt>
<trkpt lon="-1.238785" lat="43.163298"><ele>159.75</ele></trkpt>
<trkpt lon="-1.238956" lat="43.163430"><ele>159.25</ele></trkpt>
<trkpt lon="-1.239071" lat="43.163622"><ele>160.25</ele></trkpt>
<trkpt lon="-1.239103" lat="43.163623"><ele>160.0</ele></trkpt>
<trkpt lon="-1.239120" lat="43.163649"><ele>160.0</ele></trkpt>
<trkpt lon="-1.239760" lat="43.163381"><ele>156.5</ele></trkpt>
<trkpt lon="-1.240009" lat="43.163191"><ele>158.5</ele></trkpt>
<trkpt lon="-1.240071" lat="43.163120"><ele>160.0</ele></trkpt>
<trkpt lon="-1.240091" lat="43.163163"><ele>159.25</ele></trkpt>
<trkpt lon="-1.240107" lat="43.163185"><ele>159.0</ele></trkpt>
<trkpt lon="-1.240067" lat="43.163200"><ele>158.75</ele></trkpt>
<trkpt lon="-1.240092" lat="43.163223"><ele>158.5</ele></trkpt>
<trkpt lon="-1.240170" lat="43.163288"><ele>158.25</ele></trkpt>
<trkpt lon="-1.240304" lat="43.163358"><ele>158.75</ele></trkpt>
<trkpt lon="-1.240482" lat="43.163415"><ele>158.75</ele></trkpt>
<trkpt lon="-1.240525" lat="43.163420"><ele>158.75</ele></trkpt>
<trkpt lon="-1.240560" lat="43.163412"><ele>159.0</ele></trkpt>
<trkpt lon="-1.240660" lat="43.163337"><ele>160.5</ele></trkpt>
<trkpt lon="-1.240697" lat="43.163363"><ele>160.5</ele></trkpt>
<trkpt lon="-1.241043" lat="43.163607"><ele>159.0</ele></trkpt>
<trkpt lon="-1.241108" lat="43.163588"><ele>159.25</ele></trkpt>
<trkpt lon="-1.241236" lat="43.163550"><ele>160.5</ele></trkpt>
<trkpt lon="-1.241311" lat="43.163518"><ele>161.25</ele></trkpt>
<trkpt lon="-1.241338" lat="43.163512"><ele>161.5</ele></trkpt>
<trkpt lon="-1.241584" lat="43.163492"><ele>163.75</ele></trkpt>
<trkpt lon="-1.241855" lat="43.163478"><ele>166.5</ele></trkpt>
<trkpt lon="-1.241984" lat="43.163458"><ele>167.75</ele></trkpt>
<trkpt lon="-1.242056" lat="43.163438"><ele>168.0</ele></trkpt>
<trkpt lon="-1.242091" lat="43.163398"><ele>168.5</ele></trkpt>
<trkpt lon="-1.242155" lat="43.163382"><ele>168.5</ele></trkpt>
<trkpt lon="-1.242159" lat="43.163339"><ele>168.75</ele></trkpt>
<trkpt lon="-1.242320" lat="43.163242"><ele>170.25</ele></trkpt>
<trkpt lon="-1.242449" lat="43.163149"><ele>171.75</ele></trkpt>
<trkpt lon="-1.242529" lat="43.163092"><ele>172.5</ele></trkpt>
<trkpt lon="-1.242787" lat="43.162849"><ele>175.25</ele></trkpt>
<trkpt lon="-1.242862" lat="43.162792"><ele>176.0</ele></trkpt>
<trkpt lon="-1.242976" lat="43.162742"><ele>177.0</ele></trkpt>
<trkpt lon="-1.243450" lat="43.162683"><ele>179.0</ele></trkpt>
<trkpt lon="-1.243536" lat="43.162651"><ele>179.25</ele></trkpt>
<trkpt lon="-1.243687" lat="43.162926"><ele>176.5</ele></trkpt>
<trkpt lon="-1.243673" lat="43.162972"><ele>175.75</ele></trkpt>
<trkpt lon="-1.243675" lat="43.163017"><ele>175.25</ele></trkpt>
<trkpt lon="-1.243732" lat="43.163225"><ele>173.0</ele></trkpt>
<trkpt lon="-1.243742" lat="43.163338"><ele>171.75</ele></trkpt>
<trkpt lon="-1.243466" lat="43.164305"><ele>166.25</ele></trkpt>
<trkpt lon="-1.243456" lat="43.164340"><ele>165.75</ele></trkpt>
<trkpt lon="-1.243591" lat="43.164417"><ele>166.0</ele></trkpt>
<trkpt lon="-1.243772" lat="43.164450"><ele>167.5</ele></trkpt>
<trkpt lon="-1.243896" lat="43.164478"><ele>168.5</ele></trkpt>
<trkpt lon="-1.244050" lat="43.164745"><ele>167.25</ele></trkpt>
<trkpt lon="-1.244046" lat="43.164773"><ele>166.75</ele></trkpt>
<trkpt lon="-1.244014" lat="43.164793"><ele>166.25</ele></trkpt>
<trkpt lon="-1.244044" lat="43.164835"><ele>166.0</ele></trkpt>
<trkpt lon="-1.244117" lat="43.165011"><ele>164.0</ele></trkpt>
<trkpt lon="-1.244203" lat="43.165109"><ele>163.0</ele></trkpt>
<trkpt lon="-1.244964" lat="43.165664"><ele>157.0</ele></trkpt>
<trkpt lon="-1.245074" lat="43.165718"><ele>156.75</ele></trkpt>
<trkpt lon="-1.245405" lat="43.165886"><ele>156.75</ele></trkpt>
<trkpt lon="-1.245704" lat="43.165978"><ele>157.0</ele></trkpt>
<trkpt lon="-1.246660" lat="43.166159"><ele>157.75</ele></trkpt>
<trkpt lon="-1.246829" lat="43.166212"><ele>157.75</ele></trkpt>
<trkpt lon="-1.247073" lat="43.166340"><ele>158.0</ele></trkpt>
<trkpt lon="-1.247433" lat="43.166584"><ele>157.25</ele></trkpt>
<trkpt lon="-1.247474" lat="43.166612"><ele>157.0</ele></trkpt>
<trkpt lon="-1.247740" lat="43.166510"><ele>156.0</ele></trkpt>
<trkpt lon="-1.247784" lat="43.166491"><ele>156.0</ele></trkpt>
<trkpt lon="-1.248063" lat="43.166381"><ele>156.75</ele></trkpt>
<trkpt lon="-1.248166" lat="43.166338"><ele>156.75</ele></trkpt>
<trkpt lon="-1.248293" lat="43.166439"><ele>156.5</ele></trkpt>
<trkpt lon="-1.248518" lat="43.166488"><ele>156.0</ele></trkpt>
<trkpt lon="-1.249587" lat="43.166541"><ele>156.0</ele></trkpt>
<trkpt lon="-1.249877" lat="43.166580"><ele>157.75</ele></trkpt>
<trkpt lon="-1.250138" lat="43.166624"><ele>160.5</ele></trkpt>
<trkpt lon="-1.250227" lat="43.166650"><ele>161.5</ele></trkpt>
<trkpt lon="-1.250292" lat="43.166695"><ele>162.25</ele></trkpt>
<trkpt lon="-1.250489" lat="43.166872"><ele>166.5</ele></trkpt>
<trkpt lon="-1.250575" lat="43.166934"><ele>168.0</ele></trkpt>
<trkpt lon="-1.250944" lat="43.167072"><ele>172.5</ele></trkpt>
<trkpt lon="-1.251578" lat="43.167506"><ele>180.0</ele></trkpt>
<trkpt lon="-1.251855" lat="43.167640"><ele>184.5</ele></trkpt>
<trkpt lon="-1.252114" lat="43.167677"><ele>186.5</ele></trkpt>
<trkpt lon="-1.252220" lat="43.167694"><ele>187.25</ele></trkpt>
<trkpt lon="-1.252311" lat="43.167643"><ele>187.75</ele></trkpt>
<trkpt lon="-1.252314" lat="43.167727"><ele>187.25</ele></trkpt>
<trkpt lon="-1.252383" lat="43.167825"><ele>186.75</ele></trkpt>
<trkpt lon="-1.252487" lat="43.167917"><ele>186.5</ele></trkpt>
<trkpt lon="-1.252501" lat="43.168019"><ele>186.0</ele></trkpt>
<trkpt lon="-1.252511" lat="43.168090"><ele>185.5</ele></trkpt>
<trkpt lon="-1.252474" lat="43.168452"><ele>183.25</ele></trkpt>
<trkpt lon="-1.252499" lat="43.168563"><ele>182.25</ele></trkpt>
<trkpt lon="-1.252534" lat="43.168628"><ele>181.5</ele></trkpt>
<trkpt lon="-1.252610" lat="43.168701"><ele>180.25</ele></trkpt>
<trkpt lon="-1.252752" lat="43.168763"><ele>178.5</ele></trkpt>
<trkpt lon="-1.252845" lat="43.168778"><ele>177.75</ele></trkpt>
<trkpt lon="-1.252853" lat="43.168824"><ele>177.5</ele></trkpt>
<trkpt lon="-1.253003" lat="43.169052"><ele>174.75</ele></trkpt>
<trkpt lon="-1.253267" lat="43.169309"><ele>172.5</ele></trkpt>
<trkpt lon="-1.253520" lat="43.169571"><ele>171.5</ele></trkpt>
<trkpt lon="-1.253650" lat="43.169701"><ele>171.0</ele></trkpt>
<trkpt lon="-1.253776" lat="43.169986"><ele>171.0</ele></trkpt>
<trkpt lon="-1.254033" lat="43.170015"><ele>171.0</ele></trkpt>
<trkpt lon="-1.254390" lat="43.170046"><ele>171.0</ele></trkpt>
<trkpt lon="-1.255019" lat="43.170136"><ele>169.75</ele></trkpt>
<trkpt lon="-1.255041" lat="43.170154"><ele>169.75</ele></trkpt>
<trkpt lon="-1.255053" lat="43.170185"><ele>169.5</ele></trkpt>
<trkpt lon="-1.255055" lat="43.170275"><ele>169.5</ele></trkpt>
<trkpt lon="-1.255094" lat="43.170289"><ele>169.0</ele></trkpt>
<trkpt lon="-1.255520" lat="43.170345"><ele>165.75</ele></trkpt>
<trkpt lon="-1.255555" lat="43.170277"><ele>166.0</ele></trkpt>
<trkpt lon="-1.255581" lat="43.170216"><ele>166.0</ele></trkpt>
<trkpt lon="-1.255934" lat="43.170272"><ele>165.25</ele></trkpt>
<trkpt lon="-1.256027" lat="43.170292"><ele>165.5</ele></trkpt>
<trkpt lon="-1.256117" lat="43.170319"><ele>165.5</ele></trkpt>
<trkpt lon="-1.256294" lat="43.170418"><ele>166.5</ele></trkpt>
<trkpt lon="-1.256344" lat="43.170395"><ele>167.0</ele></trkpt>
<trkpt lon="-1.256762" lat="43.170397"><ele>169.25</ele></trkpt>
<trkpt lon="-1.256832" lat="43.170375"><ele>169.75</ele></trkpt>
<trkpt lon="-1.257235" lat="43.170162"><ele>171.75</ele></trkpt>
<trkpt lon="-1.257646" lat="43.169976"><ele>174.0</ele></trkpt>
<trkpt lon="-1.257753" lat="43.169942"><ele>175.0</ele></trkpt>
<trkpt lon="-1.258009" lat="43.169798"><ele>176.5</ele></trkpt>
<trkpt lon="-1.258224" lat="43.169739"><ele>176.75</ele></trkpt>
<trkpt lon="-1.258278" lat="43.169737"><ele>176.75</ele></trkpt>
<trkpt lon="-1.258317" lat="43.169734"><ele>176.75</ele></trkpt>
<trkpt lon="-1.258412" lat="43.169743"><ele>177.0</ele></trkpt>
<trkpt lon="-1.258745" lat="43.169717"><ele>178.5</ele></trkpt>
<trkpt lon="-1.259070" lat="43.169675"><ele>179.75</ele></trkpt>
<trkpt lon="-1.259517" lat="43.169594"><ele>182.0</ele></trkpt>
<trkpt lon="-1.259693" lat="43.169546"><ele>182.5</ele></trkpt>
<trkpt lon="-1.259813" lat="43.169496"><ele>183.25</ele></trkpt>
<trkpt lon="-1.259929" lat="43.169322"><ele>184.25</ele></trkpt>
<trkpt lon="-1.259998" lat="43.169277"><ele>184.25</ele></trkpt>
<trkpt lon="-1.260302" lat="43.169176"><ele>186.0</ele></trkpt>
<trkpt lon="-1.260959" lat="43.168976"><ele>188.25</ele></trkpt>
<trkpt lon="-1.261237" lat="43.168884"><ele>189.0</ele></trkpt>
<trkpt lon="-1.261495" lat="43.168842"><ele>189.5</ele></trkpt>
<trkpt lon="-1.261851" lat="43.168810"><ele>189.75</ele></trkpt>
<trkpt lon="-1.262118" lat="43.168800"><ele>188.75</ele></trkpt>
<trkpt lon="-1.262179" lat="43.168793"><ele>188.5</ele></trkpt>
<trkpt lon="-1.262225" lat="43.168762"><ele>188.25</ele></trkpt>
<trkpt lon="-1.262265" lat="43.168713"><ele>188.25</ele></trkpt>
<trkpt lon="-1.262323" lat="43.168563"><ele>188.5</ele></trkpt>
<trkpt lon="-1.262340" lat="43.168529"><ele>188.5</ele></trkpt>
<trkpt lon="-1.262560" lat="43.168614"><ele>187.75</ele></trkpt>
<trkpt lon="-1.262817" lat="43.168751"><ele>186.25</ele></trkpt>
<trkpt lon="-1.263556" lat="43.169193"><ele>187.0</ele></trkpt>
<trkpt lon="-1.264036" lat="43.169477"><ele>188.0</ele></trkpt>
<trkpt lon="-1.264271" lat="43.169240"><ele>190.25</ele></trkpt>
<trkpt lon="-1.264340" lat="43.169204"><ele>190.5</ele></trkpt>
<trkpt lon="-1.264707" lat="43.169184"><ele>190.75</ele></trkpt>
<trkpt lon="-1.264979" lat="43.169158"><ele>190.0</ele></trkpt>
<trkpt lon="-1.265209" lat="43.169123"><ele>189.75</ele></trkpt>
<trkpt lon="-1.265467" lat="43.169065"><ele>188.5</ele></trkpt>
<trkpt lon="-1.265733" lat="43.168951"><ele>187.25</ele></trkpt>
<trkpt lon="-1.266064" lat="43.168799"><ele>185.25</ele></trkpt>
<trkpt lon="-1.266650" lat="43.168496"><ele>184.75</ele></trkpt>
<trkpt lon="-1.267242" lat="43.168163"><ele>186.5</ele></trkpt>
<trkpt lon="-1.267379" lat="43.168071"><ele>186.0</ele></trkpt>
<trkpt lon="-1.267623" lat="43.168187"><ele>186.0</ele></trkpt>
<trkpt lon="-1.267753" lat="43.168232"><ele>187.0</ele></trkpt>
<trkpt lon="-1.268195" lat="43.168296"><ele>187.75</ele></trkpt>
<trkpt lon="-1.268314" lat="43.168296"><ele>187.25</ele></trkpt>
<trkpt lon="-1.268469" lat="43.168263"><ele>186.5</ele></trkpt>
<trkpt lon="-1.269313" lat="43.167965"><ele>187.75</ele></trkpt>
<trkpt lon="-1.269826" lat="43.167811"><ele>186.25</ele></trkpt>
<trkpt lon="-1.269951" lat="43.167769"><ele>186.75</ele></trkpt>
<trkpt lon="-1.270745" lat="43.167557"><ele>189.5</ele></trkpt>
<trkpt lon="-1.272619" lat="43.167517"><ele>195.75</ele></trkpt>
<trkpt lon="-1.273012" lat="43.167505"><ele>196.75</ele></trkpt>
<trkpt lon="-1.273290" lat="43.167456"><ele>198.25</ele></trkpt>
<trkpt lon="-1.273765" lat="43.167342"><ele>201.25</ele></trkpt>
<trkpt lon="-1.274102" lat="43.167225"><ele>202.75</ele></trkpt>
<trkpt lon="-1.274395" lat="43.167101"><ele>204.0</ele></trkpt>
<trkpt lon="-1.275151" lat="43.166747"><ele>207.5</ele></trkpt>
<trkpt lon="-1.275479" lat="43.166580"><ele>209.0</ele></trkpt>
<trkpt lon="-1.276013" lat="43.166285"><ele>209.5</ele></trkpt>
<trkpt lon="-1.276206" lat="43.166187"><ele>210.0</ele></trkpt>
<trkpt lon="-1.276356" lat="43.166134"><ele>210.0</ele></trkpt>
<trkpt lon="-1.276490" lat="43.166095"><ele>209.75</ele></trkpt>
<trkpt lon="-1.277477" lat="43.165830"><ele>211.0</ele></trkpt>
<trkpt lon="-1.278100" lat="43.165659"><ele>212.25</ele></trkpt>
<trkpt lon="-1.278255" lat="43.165639"><ele>213.25</ele></trkpt>
<trkpt lon="-1.278792" lat="43.165678"><ele>215.0</ele></trkpt>
<trkpt lon="-1.279301" lat="43.165729"><ele>217.0</ele></trkpt>
<trkpt lon="-1.279617" lat="43.165720"><ele>219.0</ele></trkpt>
<trkpt lon="-1.279641" lat="43.165675"><ele>219.25</ele></trkpt>
<trkpt lon="-1.279817" lat="43.165344"><ele>221.0</ele></trkpt>
<trkpt lon="-1.279868" lat="43.165375"><ele>221.25</ele></trkpt>
<trkpt lon="-1.279982" lat="43.165526"><ele>221.75</ele></trkpt>
<trkpt lon="-1.280309" lat="43.165731"><ele>224.0</ele></trkpt>
<trkpt lon="-1.280825" lat="43.165909"><ele>227.5</ele></trkpt>
<trkpt lon="-1.281211" lat="43.166124"><ele>230.5</ele></trkpt>
<trkpt lon="-1.281780" lat="43.166578"><ele>236.25</ele></trkpt>
<trkpt lon="-1.282032" lat="43.166734"><ele>238.25</ele></trkpt>
<trkpt lon="-1.282434" lat="43.166899"><ele>240.5</ele></trkpt>
<trkpt lon="-1.282984" lat="43.167073"><ele>242.5</ele></trkpt>
<trkpt lon="-1.283856" lat="43.167294"><ele>247.5</ele></trkpt>
<trkpt lon="-1.283984" lat="43.167321"><ele>248.0</ele></trkpt>
<trkpt lon="-1.284309" lat="43.167344"><ele>250.0</ele></trkpt>
<trkpt lon="-1.284605" lat="43.167357"><ele>251.5</ele></trkpt>
<trkpt lon="-1.284666" lat="43.167367"><ele>252.0</ele></trkpt>
<trkpt lon="-1.284693" lat="43.167377"><ele>252.0</ele></trkpt>
<trkpt lon="-1.284776" lat="43.167373"><ele>252.5</ele></trkpt>
<trkpt lon="-1.284846" lat="43.167389"><ele>252.75</ele></trkpt>
<trkpt lon="-1.284928" lat="43.167439"><ele>252.5</ele></trkpt>
<trkpt lon="-1.285862" lat="43.168119"><ele>254.75</ele></trkpt>
<trkpt lon="-1.285998" lat="43.168162"><ele>255.25</ele></trkpt>
<trkpt lon="-1.286148" lat="43.168227"><ele>255.0</ele></trkpt>
<trkpt lon="-1.286318" lat="43.168253"><ele>254.0</ele></trkpt>
<trkpt lon="-1.286475" lat="43.168260"><ele>253.0</ele></trkpt>
<trkpt lon="-1.286746" lat="43.168235"><ele>251.0</ele></trkpt>
<trkpt lon="-1.287495" lat="43.168056"><ele>244.0</ele></trkpt>
<trkpt lon="-1.288105" lat="43.167937"><ele>236.5</ele></trkpt>
<trkpt lon="-1.288460" lat="43.167842"><ele>233.5</ele></trkpt>
<trkpt lon="-1.288934" lat="43.167652"><ele>231.5</ele></trkpt>
<trkpt lon="-1.289058" lat="43.167598"><ele>230.5</ele></trkpt>
<trkpt lon="-1.289288" lat="43.167425"><ele>229.75</ele></trkpt>
<trkpt lon="-1.289600" lat="43.167169"><ele>225.75</ele></trkpt>
<trkpt lon="-1.289673" lat="43.167167"><ele>224.25</ele></trkpt>
<trkpt lon="-1.289762" lat="43.167192"><ele>222.5</ele></trkpt>
<trkpt lon="-1.289813" lat="43.167251"><ele>221.25</ele></trkpt>
<trkpt lon="-1.289861" lat="43.167487"><ele>217.5</ele></trkpt>
<trkpt lon="-1.289825" lat="43.167764"><ele>214.25</ele></trkpt>
<trkpt lon="-1.289794" lat="43.167884"><ele>212.5</ele></trkpt>
<trkpt lon="-1.289710" lat="43.168035"><ele>210.5</ele></trkpt>
<trkpt lon="-1.289724" lat="43.168100"><ele>209.5</ele></trkpt>
<trkpt lon="-1.289865" lat="43.168218"><ele>207.5</ele></trkpt>
<trkpt lon="-1.289900" lat="43.168329"><ele>206.25</ele></trkpt>
<trkpt lon="-1.290223" lat="43.168449"><ele>205.5</ele></trkpt>
<trkpt lon="-1.290413" lat="43.168542"><ele>205.0</ele></trkpt>
<trkpt lon="-1.290497" lat="43.168613"><ele>204.75</ele></trkpt>
<trkpt lon="-1.290661" lat="43.168812"><ele>205.5</ele></trkpt>
<trkpt lon="-1.290734" lat="43.168814"><ele>206.0</ele></trkpt>
<trkpt lon="-1.290961" lat="43.168873"><ele>206.75</ele></trkpt>
<trkpt lon="-1.291104" lat="43.168936"><ele>207.5</ele></trkpt>
<trkpt lon="-1.291136" lat="43.168960"><ele>207.75</ele></trkpt>
<trkpt lon="-1.291311" lat="43.169091"><ele>209.75</ele></trkpt>
<trkpt lon="-1.291286" lat="43.169114"><ele>209.75</ele></trkpt>
<trkpt lon="-1.291130" lat="43.169253"><ele>210.0</ele></trkpt>
<trkpt lon="-1.290873" lat="43.169331"><ele>208.75</ele></trkpt>
<trkpt lon="-1.290732" lat="43.169424"><ele>208.0</ele></trkpt>
<trkpt lon="-1.290680" lat="43.169433"><ele>207.75</ele></trkpt>
<trkpt lon="-1.290662" lat="43.169576"><ele>207.5</ele></trkpt>
<trkpt lon="-1.290615" lat="43.169780"><ele>207.0</ele></trkpt>
<trkpt lon="-1.290536" lat="43.169988"><ele>205.75</ele></trkpt>
<trkpt lon="-1.290506" lat="43.170220"><ele>205.75</ele></trkpt>
<trkpt lon="-1.290471" lat="43.170354"><ele>204.75</ele></trkpt>
<trkpt lon="-1.290384" lat="43.170517"><ele>203.25</ele></trkpt>
<trkpt lon="-1.290611" lat="43.170736"><ele>201.75</ele></trkpt>
<trkpt lon="-1.290803" lat="43.170905"><ele>200.25</ele></trkpt>
<trkpt lon="-1.291012" lat="43.171023"><ele>198.5</ele></trkpt>
<trkpt lon="-1.291339" lat="43.171289"><ele>195.75</ele></trkpt>
<trkpt lon="-1.292306" lat="43.171941"><ele>194.25</ele></trkpt>
<trkpt lon="-1.292659" lat="43.172122"><ele>194.0</ele></trkpt>
<trkpt lon="-1.292994" lat="43.172305"><ele>194.0</ele></trkpt>
<trkpt lon="-1.293280" lat="43.172519"><ele>194.25</ele></trkpt>
<trkpt lon="-1.293727" lat="43.172791"><ele>193.75</ele></trkpt>
<trkpt lon="-1.294020" lat="43.172995"><ele>194.0</ele></trkpt>
<trkpt lon="-1.294146" lat="43.173095"><ele>193.75</ele></trkpt>
<trkpt lon="-1.294412" lat="43.173268"><ele>194.75</ele></trkpt>
<trkpt lon="-1.294568" lat="43.173339"><ele>195.25</ele></trkpt>
<trkpt lon="-1.294683" lat="43.173381"><ele>195.5</ele></trkpt>
<trkpt lon="-1.294820" lat="43.173432"><ele>195.75</ele></trkpt>
<trkpt lon="-1.294936" lat="43.173491"><ele>196.0</ele></trkpt>
<trkpt lon="-1.295807" lat="43.174300"><ele>198.25</ele></trkpt>
<trkpt lon="-1.296128" lat="43.174642"><ele>199.5</ele></trkpt>
<trkpt lon="-1.296223" lat="43.174731"><ele>199.75</ele></trkpt>
<trkpt lon="-1.296344" lat="43.174789"><ele>200.25</ele></trkpt>
<trkpt lon="-1.296459" lat="43.174887"><ele>201.75</ele></trkpt>
<trkpt lon="-1.296599" lat="43.175361"><ele>202.75</ele></trkpt>
<trkpt lon="-1.296615" lat="43.175481"><ele>202.0</ele></trkpt>
<trkpt lon="-1.296586" lat="43.175573"><ele>200.75</ele></trkpt>
<trkpt lon="-1.296553" lat="43.175637"><ele>200.0</ele></trkpt>
<trkpt lon="-1.296565" lat="43.175749"><ele>200.0</ele></trkpt>
<trkpt lon="-1.296635" lat="43.175873"><ele>200.0</ele></trkpt>
<trkpt lon="-1.296825" lat="43.176058"><ele>199.75</ele></trkpt>
<trkpt lon="-1.296888" lat="43.176144"><ele>199.25</ele></trkpt>
<trkpt lon="-1.296875" lat="43.176198"><ele>198.5</ele></trkpt>
<trkpt lon="-1.297432" lat="43.176406"><ele>199.25</ele></trkpt>
<trkpt lon="-1.297606" lat="43.176453"><ele>200.5</ele></trkpt>
<trkpt lon="-1.297926" lat="43.176513"><ele>202.0</ele></trkpt>
<trkpt lon="-1.297924" lat="43.176534"><ele>201.75</ele></trkpt>
<trkpt lon="-1.297917" lat="43.176597"><ele>201.25</ele></trkpt>
<trkpt lon="-1.297946" lat="43.176662"><ele>200.5</ele></trkpt>
<trkpt lon="-1.298060" lat="43.176764"><ele>201.5</ele></trkpt>
<trkpt lon="-1.298458" lat="43.176927"><ele>204.25</ele></trkpt>
<trkpt lon="-1.298602" lat="43.177011"><ele>205.25</ele></trkpt>
<trkpt lon="-1.298715" lat="43.177102"><ele>206.5</ele></trkpt>
<trkpt lon="-1.298816" lat="43.177253"><ele>207.5</ele></trkpt>
<trkpt lon="-1.299473" lat="43.177468"><ele>209.0</ele></trkpt>
<trkpt lon="-1.299855" lat="43.177607"><ele>211.0</ele></trkpt>
<trkpt lon="-1.300000" lat="43.177601"><ele>211.25</ele></trkpt>
<trkpt lon="-1.300111" lat="43.177621"><ele>211.5</ele></trkpt>
<trkpt lon="-1.300340" lat="43.177694"><ele>212.0</ele></trkpt>
<trkpt lon="-1.300405" lat="43.177773"><ele>212.25</ele></trkpt>
<trkpt lon="-1.300331" lat="43.177875"><ele>212.25</ele></trkpt>
<trkpt lon="-1.300279" lat="43.177947"><ele>212.5</ele></trkpt>
<trkpt lon="-1.300202" lat="43.178143"><ele>212.75</ele></trkpt>
<trkpt lon="-1.300179" lat="43.178202"><ele>212.75</ele></trkpt>
<trkpt lon="-1.300159" lat="43.178253"><ele>212.75</ele></trkpt>
<trkpt lon="-1.300148" lat="43.178385"><ele>212.75</ele></trkpt>
<trkpt lon="-1.300164" lat="43.178534"><ele>212.25</ele></trkpt>
<trkpt lon="-1.300165" lat="43.178602"><ele>212.0</ele></trkpt>
<trkpt lon="-1.300154" lat="43.178680"><ele>212.0</ele></trkpt>
<trkpt lon="-1.300101" lat="43.178748"><ele>211.5</ele></trkpt>
<trkpt lon="-1.300086" lat="43.178856"><ele>211.25</ele></trkpt>
<trkpt lon="-1.300070" lat="43.178975"><ele>210.75</ele></trkpt>
<trkpt lon="-1.300030" lat="43.179066"><ele>210.25</ele></trkpt>
<trkpt lon="-1.299992" lat="43.179152"><ele>209.75</ele></trkpt>
<trkpt lon="-1.299958" lat="43.179507"><ele>208.75</ele></trkpt>
<trkpt lon="-1.299934" lat="43.179672"><ele>209.5</ele></trkpt>
<trkpt lon="-1.299945" lat="43.179692"><ele>209.5</ele></trkpt>
<trkpt lon="-1.299986" lat="43.179767"><ele>209.75</ele></trkpt>
<trkpt lon="-1.300177" lat="43.180003"><ele>211.25</ele></trkpt>
<trkpt lon="-1.300202" lat="43.180108"><ele>211.5</ele></trkpt>
<trkpt lon="-1.300155" lat="43.180423"><ele>213.25</ele></trkpt>
<trkpt lon="-1.300177" lat="43.180627"><ele>215.0</ele></trkpt>
<trkpt lon="-1.300212" lat="43.180752"><ele>216.0</ele></trkpt>
<trkpt lon="-1.300581" lat="43.180889"><ele>218.75</ele></trkpt>
<trkpt lon="-1.300754" lat="43.181167"><ele>222.25</ele></trkpt>
<trkpt lon="-1.300859" lat="43.181266"><ele>223.0</ele></trkpt>
<trkpt lon="-1.300916" lat="43.181307"><ele>223.5</ele></trkpt>
<trkpt lon="-1.301251" lat="43.181543"><ele>225.0</ele></trkpt>
<trkpt lon="-1.302624" lat="43.182707"><ele>232.5</ele></trkpt>
<trkpt lon="-1.302892" lat="43.182992"><ele>238.5</ele></trkpt>
<trkpt lon="-1.303464" lat="43.183416"><ele>250.5</ele></trkpt>
<trkpt lon="-1.303618" lat="43.183615"><ele>253.0</ele></trkpt>
<trkpt lon="-1.303685" lat="43.183726"><ele>254.0</ele></trkpt>
<trkpt lon="-1.303867" lat="43.183945"><ele>256.5</ele></trkpt>
<trkpt lon="-1.304014" lat="43.184105"><ele>257.75</ele></trkpt>
<trkpt lon="-1.304206" lat="43.184254"><ele>258.25</ele></trkpt>
<trkpt lon="-1.304306" lat="43.184205"><ele>258.5</ele></trkpt>
<trkpt lon="-1.304436" lat="43.184155"><ele>258.75</ele></trkpt>
<trkpt lon="-1.304592" lat="43.184195"><ele>258.75</ele></trkpt>
<trkpt lon="-1.304938" lat="43.184163"><ele>259.75</ele></trkpt>
<trkpt lon="-1.305099" lat="43.184199"><ele>261.0</ele></trkpt>
<trkpt lon="-1.305437" lat="43.184346"><ele>262.75</ele></trkpt>
<trkpt lon="-1.305881" lat="43.184446"><ele>266.75</ele></trkpt>
<trkpt lon="-1.306214" lat="43.184550"><ele>269.75</ele></trkpt>
<trkpt lon="-1.306486" lat="43.184619"><ele>271.75</ele></trkpt>
<trkpt lon="-1.306774" lat="43.184608"><ele>274.25</ele></trkpt>
<trkpt lon="-1.307006" lat="43.184561"><ele>277.5</ele></trkpt>
<trkpt lon="-1.307154" lat="43.184552"><ele>279.0</ele></trkpt>
<trkpt lon="-1.307241" lat="43.184611"><ele>279.0</ele></trkpt>
<trkpt lon="-1.307416" lat="43.184972"><ele>281.0</ele></trkpt>
<trkpt lon="-1.307529" lat="43.185066"><ele>282.75</ele></trkpt>
<trkpt lon="-1.307896" lat="43.185253"><ele>286.75</ele></trkpt>
<trkpt lon="-1.308295" lat="43.185436"><ele>290.5</ele></trkpt>
<trkpt lon="-1.308565" lat="43.185524"><ele>292.5</ele></trkpt>
<trkpt lon="-1.309428" lat="43.185798"><ele>301.0</ele></trkpt>
<trkpt lon="-1.309743" lat="43.185867"><ele>302.5</ele></trkpt>
<trkpt lon="-1.309938" lat="43.185859"><ele>305.75</ele></trkpt>
<trkpt lon="-1.310131" lat="43.185832"><ele>309.0</ele></trkpt>
<trkpt lon="-1.310488" lat="43.186013"><ele>305.5</ele></trkpt>
<trkpt lon="-1.310959" lat="43.186360"><ele>299.5</ele></trkpt>
<trkpt lon="-1.312322" lat="43.187195"><ele>285.75</ele></trkpt>
<trkpt lon="-1.312890" lat="43.187460"><ele>279.25</ele></trkpt>
<trkpt lon="-1.313235" lat="43.187529"><ele>277.25</ele></trkpt>
<trkpt lon="-1.313684" lat="43.187471"><ele>276.75</ele></trkpt>
<trkpt lon="-1.314104" lat="43.187569"><ele>271.75</ele></trkpt>
<trkpt lon="-1.314865" lat="43.187876"><ele>265.25</ele></trkpt>
<trkpt lon="-1.315580" lat="43.188128"><ele>258.0</ele></trkpt>
<trkpt lon="-1.316112" lat="43.188189"><ele>255.75</ele></trkpt>
<trkpt lon="-1.316486" lat="43.188128"><ele>253.75</ele></trkpt>
<trkpt lon="-1.316696" lat="43.188155"><ele>250.25</ele></trkpt>
<trkpt lon="-1.316892" lat="43.188254"><ele>248.75</ele></trkpt>
<trkpt lon="-1.317173" lat="43.188268"><ele>249.0</ele></trkpt>
<trkpt lon="-1.317735" lat="43.188176"><ele>243.75</ele></trkpt>
<trkpt lon="-1.317848" lat="43.188158"><ele>242.75</ele></trkpt>
<trkpt lon="-1.318157" lat="43.188160"><ele>240.25</ele></trkpt>
<trkpt lon="-1.318500" lat="43.188230"><ele>236.5</ele></trkpt>
<trkpt lon="-1.318677" lat="43.188243"><ele>235.0</ele></trkpt>
<trkpt lon="-1.318914" lat="43.188217"><ele>233.25</ele></trkpt>
<trkpt lon="-1.320146" lat="43.187933"><ele>220.5</ele></trkpt>
<trkpt lon="-1.320408" lat="43.187801"><ele>220.75</ele></trkpt>
<trkpt lon="-1.320719" lat="43.187796"><ele>217.75</ele></trkpt>
<trkpt lon="-1.321215" lat="43.187701"><ele>215.25</ele></trkpt>
<trkpt lon="-1.322245" lat="43.187632"><ele>208.5</ele></trkpt>
<trkpt lon="-1.322616" lat="43.187597"><ele>204.75</ele></trkpt>
<trkpt lon="-1.322969" lat="43.187525"><ele>202.25</ele></trkpt>
<trkpt lon="-1.323148" lat="43.187477"><ele>201.0</ele></trkpt>
<trkpt lon="-1.323547" lat="43.187332"><ele>197.0</ele></trkpt>
<trkpt lon="-1.323803" lat="43.187202"><ele>194.75</ele></trkpt>
<trkpt lon="-1.324097" lat="43.187082"><ele>192.25</ele></trkpt>
<trkpt lon="-1.324294" lat="43.187023"><ele>191.0</ele></trkpt>
<trkpt lon="-1.324422" lat="43.187006"><ele>189.75</ele></trkpt>
<trkpt lon="-1.324543" lat="43.187022"><ele>188.75</ele></trkpt>
<trkpt lon="-1.324747" lat="43.187093"><ele>186.0</ele></trkpt>
<trkpt lon="-1.324888" lat="43.187119"><ele>184.5</ele></trkpt>
<trkpt lon="-1.325055" lat="43.187124"><ele>183.5</ele></trkpt>
<trkpt lon="-1.325310" lat="43.187100"><ele>182.0</ele></trkpt>
<trkpt lon="-1.325601" lat="43.187083"><ele>179.75</ele></trkpt>
<trkpt lon="-1.325722" lat="43.187104"><ele>178.75</ele></trkpt>
<trkpt lon="-1.325904" lat="43.187160"><ele>177.0</ele></trkpt>
<trkpt lon="-1.326048" lat="43.187192"><ele>176.5</ele></trkpt>
<trkpt lon="-1.326203" lat="43.187198"><ele>175.5</ele></trkpt>
<trkpt lon="-1.326512" lat="43.187154"><ele>174.0</ele></trkpt>
<trkpt lon="-1.326603" lat="43.187174"><ele>173.0</ele></trkpt>
<trkpt lon="-1.326686" lat="43.187223"><ele>170.75</ele></trkpt>
<trkpt lon="-1.326737" lat="43.187264"><ele>170.25</ele></trkpt>
<trkpt lon="-1.326805" lat="43.187305"><ele>169.75</ele></trkpt>
<trkpt lon="-1.326908" lat="43.187391"><ele>168.5</ele></trkpt>
<trkpt lon="-1.327044" lat="43.187547"><ele>166.0</ele></trkpt>
<trkpt lon="-1.327164" lat="43.187652"><ele>164.5</ele></trkpt>
<trkpt lon="-1.327246" lat="43.187711"><ele>163.75</ele></trkpt>
<trkpt lon="-1.327371" lat="43.187762"><ele>163.0</ele></trkpt>
<trkpt lon="-1.327529" lat="43.187807"><ele>161.5</ele></trkpt>
<trkpt lon="-1.327857" lat="43.187885"><ele>159.0</ele></trkpt>
<trkpt lon="-1.327946" lat="43.187929"><ele>158.25</ele></trkpt>
<trkpt lon="-1.327978" lat="43.187963"><ele>157.5</ele></trkpt>
<trkpt lon="-1.328210" lat="43.188305"><ele>152.5</ele></trkpt>
<trkpt lon="-1.328302" lat="43.188413"><ele>152.25</ele></trkpt>
<trkpt lon="-1.328369" lat="43.188482"><ele>151.75</ele></trkpt>
<trkpt lon="-1.328556" lat="43.188642"><ele>148.75</ele></trkpt>
<trkpt lon="-1.328600" lat="43.188686"><ele>148.25</ele></trkpt>
<trkpt lon="-1.328702" lat="43.188707"><ele>147.5</ele></trkpt>
<trkpt lon="-1.328944" lat="43.188691"><ele>146.0</ele></trkpt>
<trkpt lon="-1.329148" lat="43.188683"><ele>145.0</ele></trkpt>
<trkpt lon="-1.329175" lat="43.188702"><ele>144.75</ele></trkpt>
<trkpt lon="-1.329249" lat="43.188928"><ele>144.5</ele></trkpt>
<trkpt lon="-1.329399" lat="43.189278"><ele>144.5</ele></trkpt>
<trkpt lon="-1.329515" lat="43.189493"><ele>144.0</ele></trkpt>
<trkpt lon="-1.330043" lat="43.190084"><ele>143.25</ele></trkpt>
<trkpt lon="-1.331001" lat="43.191099"><ele>145.0</ele></trkpt>
<trkpt lon="-1.331631" lat="43.191795"><ele>141.5</ele></trkpt>
<trkpt lon="-1.331993" lat="43.192221"><ele>141.25</ele></trkpt>
<trkpt lon="-1.332245" lat="43.192630"><ele>144.75</ele></trkpt>
<trkpt lon="-1.332412" lat="43.192916"><ele>142.5</ele></trkpt>
<trkpt lon="-1.332696" lat="43.193516"><ele>141.0</ele></trkpt>
<trkpt lon="-1.332876" lat="43.194057"><ele>139.75</ele></trkpt>
<trkpt lon="-1.332953" lat="43.194417"><ele>136.5</ele></trkpt>
<trkpt lon="-1.332996" lat="43.194685"><ele>137.5</ele></trkpt>
<trkpt lon="-1.333028" lat="43.195082"><ele>140.25</ele></trkpt>
<trkpt lon="-1.333035" lat="43.195788"><ele>138.75</ele></trkpt>
<trkpt lon="-1.333026" lat="43.196013"><ele>139.25</ele></trkpt>
<trkpt lon="-1.333039" lat="43.196244"><ele>139.75</ele></trkpt>
<trkpt lon="-1.333023" lat="43.196351"><ele>139.75</ele></trkpt>
<trkpt lon="-1.333042" lat="43.196957"><ele>138.75</ele></trkpt>
<trkpt lon="-1.333058" lat="43.197075"><ele>138.5</ele></trkpt>
<trkpt lon="-1.333125" lat="43.197307"><ele>137.75</ele></trkpt>
<trkpt lon="-1.333431" lat="43.198502"><ele>136.5</ele></trkpt>
<trkpt lon="-1.333460" lat="43.198756"><ele>136.0</ele></trkpt>
<trkpt lon="-1.333463" lat="43.199132"><ele>136.25</ele></trkpt>
<trkpt lon="-1.333382" lat="43.199583"><ele>136.5</ele></trkpt>
<trkpt lon="-1.333310" lat="43.199885"><ele>135.75</ele></trkpt>
<trkpt lon="-1.333391" lat="43.199958"><ele>137.0</ele></trkpt>
<trkpt lon="-1.333428" lat="43.199975"><ele>138.0</ele></trkpt>
<trkpt lon="-1.333499" lat="43.200034"><ele>139.25</ele></trkpt>
<trkpt lon="-1.333730" lat="43.200442"><ele>139.25</ele></trkpt>
<trkpt lon="-1.333928" lat="43.200823"><ele>140.5</ele></trkpt>
<trkpt lon="-1.333978" lat="43.200976"><ele>140.75</ele></trkpt>
<trkpt lon="-1.333990" lat="43.201151"><ele>140.5</ele></trkpt>
<trkpt lon="-1.333901" lat="43.201959"><ele>140.25</ele></trkpt>
<trkpt lon="-1.333732" lat="43.202310"><ele>141.5</ele></trkpt>
<trkpt lon="-1.333444" lat="43.202658"><ele>144.25</ele></trkpt>
<trkpt lon="-1.333335" lat="43.202840"><ele>147.0</ele></trkpt>
<trkpt lon="-1.333194" lat="43.202963"><ele>149.25</ele></trkpt>
<trkpt lon="-1.332859" lat="43.203146"><ele>151.25</ele></trkpt>
<trkpt lon="-1.332704" lat="43.203240"><ele>151.5</ele></trkpt>
<trkpt lon="-1.332611" lat="43.203368"><ele>153.25</ele></trkpt>
<trkpt lon="-1.332556" lat="43.203471"><ele>154.0</ele></trkpt>
<trkpt lon="-1.332537" lat="43.203568"><ele>155.0</ele></trkpt>
<trkpt lon="-1.332555" lat="43.203707"><ele>155.5</ele></trkpt>
<trkpt lon="-1.332666" lat="43.203866"><ele>157.0</ele></trkpt>
<trkpt lon="-1.332816" lat="43.203945"><ele>158.5</ele></trkpt>
<trkpt lon="-1.332938" lat="43.203989"><ele>159.5</ele></trkpt>
<trkpt lon="-1.333372" lat="43.204063"><ele>163.0</ele></trkpt>
<trkpt lon="-1.333698" lat="43.204137"><ele>163.75</ele></trkpt>
<trkpt lon="-1.334030" lat="43.204245"><ele>163.25</ele></trkpt>
<trkpt lon="-1.334314" lat="43.204373"><ele>162.5</ele></trkpt>
<trkpt lon="-1.334430" lat="43.204445"><ele>161.75</ele></trkpt>
<trkpt lon="-1.334615" lat="43.204608"><ele>160.75</ele></trkpt>
<trkpt lon="-1.335013" lat="43.204927"><ele>159.25</ele></trkpt>
<trkpt lon="-1.335577" lat="43.205361"><ele>158.75</ele></trkpt>
<trkpt lon="-1.335853" lat="43.205524"><ele>157.5</ele></trkpt>
<trkpt lon="-1.336044" lat="43.205591"><ele>155.0</ele></trkpt>
<trkpt lon="-1.336480" lat="43.205684"><ele>150.75</ele></trkpt>
<trkpt lon="-1.336593" lat="43.205807"><ele>145.25</ele></trkpt>
<trkpt lon="-1.336654" lat="43.205894"><ele>144.75</ele></trkpt>
<trkpt lon="-1.336673" lat="43.206041"><ele>147.0</ele></trkpt>
<trkpt lon="-1.336654" lat="43.206153"><ele>148.5</ele></trkpt>
<trkpt lon="-1.336655" lat="43.206196"><ele>149.25</ele></trkpt>
<trkpt lon="-1.336604" lat="43.206342"><ele>151.5</ele></trkpt>
<trkpt lon="-1.336435" lat="43.206503"><ele>152.0</ele></trkpt>
<trkpt lon="-1.336431" lat="43.206604"><ele>153.5</ele></trkpt>
<trkpt lon="-1.336676" lat="43.206779"><ele>153.75</ele></trkpt>
<trkpt lon="-1.337106" lat="43.207050"><ele>156.25</ele></trkpt>
<trkpt lon="-1.337320" lat="43.207273"><ele>157.5</ele></trkpt>
<trkpt lon="-1.337469" lat="43.207570"><ele>157.0</ele></trkpt>
<trkpt lon="-1.337599" lat="43.207725"><ele>156.25</ele></trkpt>
<trkpt lon="-1.337658" lat="43.207743"><ele>156.25</ele></trkpt>
<trkpt lon="-1.337739" lat="43.207747"><ele>156.75</ele></trkpt>
<trkpt lon="-1.338048" lat="43.207721"><ele>157.0</ele></trkpt>
<trkpt lon="-1.338125" lat="43.207727"><ele>157.25</ele></trkpt>
<trkpt lon="-1.338585" lat="43.207816"><ele>158.5</ele></trkpt>
<trkpt lon="-1.338719" lat="43.207877"><ele>160.5</ele></trkpt>
<trkpt lon="-1.339050" lat="43.208174"><ele>161.75</ele></trkpt>
<trkpt lon="-1.339266" lat="43.208302"><ele>161.25</ele></trkpt>
<trkpt lon="-1.339705" lat="43.208340"><ele>160.75</ele></trkpt>
<trkpt lon="-1.339852" lat="43.208371"><ele>162.75</ele></trkpt>
<trkpt lon="-1.339891" lat="43.208409"><ele>163.75</ele></trkpt>
<trkpt lon="-1.339915" lat="43.208448"><ele>164.75</ele></trkpt>
<trkpt lon="-1.339915" lat="43.208491"><ele>164.75</ele></trkpt>
<trkpt lon="-1.339903" lat="43.208537"><ele>165.0</ele></trkpt>
<trkpt lon="-1.339372" lat="43.208807"><ele>166.25</ele></trkpt>
<trkpt lon="-1.339129" lat="43.208980"><ele>169.25</ele></trkpt>
<trkpt lon="-1.339018" lat="43.209048"><ele>171.25</ele></trkpt>
<trkpt lon="-1.338857" lat="43.209092"><ele>172.25</ele></trkpt>
<trkpt lon="-1.338710" lat="43.209105"><ele>173.0</ele></trkpt>
<trkpt lon="-1.338320" lat="43.209053"><ele>173.5</ele></trkpt>
<trkpt lon="-1.338249" lat="43.209062"><ele>173.75</ele></trkpt>
<trkpt lon="-1.338187" lat="43.209089"><ele>174.25</ele></trkpt>
<trkpt lon="-1.338135" lat="43.209127"><ele>174.75</ele></trkpt>
<trkpt lon="-1.338114" lat="43.209183"><ele>175.25</ele></trkpt>
<trkpt lon="-1.338114" lat="43.209226"><ele>174.75</ele></trkpt>
<trkpt lon="-1.338136" lat="43.209269"><ele>174.75</ele></trkpt>
<trkpt lon="-1.338217" lat="43.209348"><ele>175.5</ele></trkpt>
<trkpt lon="-1.338263" lat="43.209560"><ele>176.75</ele></trkpt>
<trkpt lon="-1.338288" lat="43.209722"><ele>178.0</ele></trkpt>
<trkpt lon="-1.338268" lat="43.209836"><ele>179.25</ele></trkpt>
<trkpt lon="-1.338169" lat="43.210001"><ele>180.0</ele></trkpt>
<trkpt lon="-1.338145" lat="43.210122"><ele>181.0</ele></trkpt>
<trkpt lon="-1.338208" lat="43.210316"><ele>183.75</ele></trkpt>
<trkpt lon="-1.338410" lat="43.210541"><ele>186.5</ele></trkpt>
<trkpt lon="-1.338662" lat="43.210685"><ele>187.25</ele></trkpt>
<trkpt lon="-1.338695" lat="43.210786"><ele>182.75</ele></trkpt>
<trkpt lon="-1.338758" lat="43.210911"><ele>182.0</ele></trkpt>
<trkpt lon="-1.338706" lat="43.211835"><ele>174.25</ele></trkpt>
<trkpt lon="-1.338809" lat="43.212109"><ele>172.5</ele></trkpt>
<trkpt lon="-1.339100" lat="43.212355"><ele>176.25</ele></trkpt>
<trkpt lon="-1.339260" lat="43.212589"><ele>172.5</ele></trkpt>
<trkpt lon="-1.339317" lat="43.212728"><ele>170.0</ele></trkpt>
<trkpt lon="-1.339248" lat="43.212858"><ele>167.5</ele></trkpt>
<trkpt lon="-1.339177" lat="43.212954"><ele>167.0</ele></trkpt>
<trkpt lon="-1.339106" lat="43.213036"><ele>167.0</ele></trkpt>
<trkpt lon="-1.339003" lat="43.213220"><ele>169.5</ele></trkpt>
<trkpt lon="-1.338984" lat="43.213324"><ele>171.0</ele></trkpt>
<trkpt lon="-1.339008" lat="43.213407"><ele>172.75</ele></trkpt>
<trkpt lon="-1.339050" lat="43.213485"><ele>173.75</ele></trkpt>
<trkpt lon="-1.339189" lat="43.213634"><ele>174.5</ele></trkpt>
<trkpt lon="-1.339300" lat="43.213713"><ele>175.25</ele></trkpt>
<trkpt lon="-1.339483" lat="43.213890"><ele>175.25</ele></trkpt>
<trkpt lon="-1.339533" lat="43.213961"><ele>175.5</ele></trkpt>
<trkpt lon="-1.339570" lat="43.214066"><ele>176.25</ele></trkpt>
<trkpt lon="-1.339576" lat="43.214263"><ele>178.5</ele></trkpt>
<trkpt lon="-1.339619" lat="43.214416"><ele>178.25</ele></trkpt>
<trkpt lon="-1.339662" lat="43.214504"><ele>178.0</ele></trkpt>
<trkpt lon="-1.339727" lat="43.214592"><ele>177.0</ele></trkpt>
<trkpt lon="-1.339891" lat="43.214772"><ele>178.0</ele></trkpt>
<trkpt lon="-1.340159" lat="43.215091"><ele>181.5</ele></trkpt>
<trkpt lon="-1.340260" lat="43.215222"><ele>182.0</ele></trkpt>
<trkpt lon="-1.340442" lat="43.215599"><ele>184.0</ele></trkpt>
<trkpt lon="-1.340575" lat="43.215908"><ele>183.25</ele></trkpt>
<trkpt lon="-1.340701" lat="43.216113"><ele>183.75</ele></trkpt>
<trkpt lon="-1.340827" lat="43.216271"><ele>184.75</ele></trkpt>
<trkpt lon="-1.341106" lat="43.216590"><ele>187.75</ele></trkpt>
<trkpt lon="-1.341217" lat="43.216733"><ele>188.75</ele></trkpt>
<trkpt lon="-1.341286" lat="43.216863"><ele>189.0</ele></trkpt>
<trkpt lon="-1.341324" lat="43.217007"><ele>189.25</ele></trkpt>
<trkpt lon="-1.341319" lat="43.217292"><ele>191.0</ele></trkpt>
<trkpt lon="-1.341340" lat="43.217417"><ele>191.0</ele></trkpt>
<trkpt lon="-1.341409" lat="43.217523"><ele>189.75</ele></trkpt>
<trkpt lon="-1.341499" lat="43.217606"><ele>189.0</ele></trkpt>
<trkpt lon="-1.341790" lat="43.217768"><ele>188.0</ele></trkpt>
<trkpt lon="-1.341956" lat="43.217866"><ele>187.5</ele></trkpt>
<trkpt lon="-1.342063" lat="43.217956"><ele>188.0</ele></trkpt>
<trkpt lon="-1.342105" lat="43.218013"><ele>188.0</ele></trkpt>
<trkpt lon="-1.342124" lat="43.218091"><ele>188.5</ele></trkpt>
<trkpt lon="-1.342144" lat="43.218267"><ele>189.25</ele></trkpt>
<trkpt lon="-1.342210" lat="43.218407"><ele>190.0</ele></trkpt>
<trkpt lon="-1.342299" lat="43.218539"><ele>191.5</ele></trkpt>
<trkpt lon="-1.342400" lat="43.218735"><ele>192.75</ele></trkpt>
<trkpt lon="-1.342549" lat="43.218991"><ele>194.0</ele></trkpt>
<trkpt lon="-1.342655" lat="43.219222"><ele>195.75</ele></trkpt>
<trkpt lon="-1.342920" lat="43.219555"><ele>197.5</ele></trkpt>
<trkpt lon="-1.343030" lat="43.219736"><ele>199.5</ele></trkpt>
<trkpt lon="-1.343085" lat="43.219788"><ele>200.0</ele></trkpt>
<trkpt lon="-1.343317" lat="43.219931"><ele>201.75</ele></trkpt>
<trkpt lon="-1.343387" lat="43.219994"><ele>202.25</ele></trkpt>
<trkpt lon="-1.343491" lat="43.220105"><ele>204.0</ele></trkpt>
<trkpt lon="-1.343669" lat="43.220320"><ele>204.75</ele></trkpt>
<trkpt lon="-1.343846" lat="43.220568"><ele>205.25</ele></trkpt>
<trkpt lon="-1.343919" lat="43.220648"><ele>205.25</ele></trkpt>
<trkpt lon="-1.343970" lat="43.220818"><ele>204.75</ele></trkpt>
<trkpt lon="-1.344021" lat="43.221050"><ele>206.0</ele></trkpt>
<trkpt lon="-1.344009" lat="43.221160"><ele>206.75</ele></trkpt>
<trkpt lon="-1.343968" lat="43.221313"><ele>209.25</ele></trkpt>
<trkpt lon="-1.343951" lat="43.221565"><ele>213.0</ele></trkpt>
<trkpt lon="-1.343958" lat="43.221643"><ele>214.0</ele></trkpt>
<trkpt lon="-1.344014" lat="43.221766"><ele>215.75</ele></trkpt>
<trkpt lon="-1.344135" lat="43.222063"><ele>218.75</ele></trkpt>
<trkpt lon="-1.344144" lat="43.222157"><ele>220.25</ele></trkpt>
<trkpt lon="-1.344136" lat="43.222325"><ele>223.0</ele></trkpt>
<trkpt lon="-1.344111" lat="43.222415"><ele>224.5</ele></trkpt>
<trkpt lon="-1.344125" lat="43.222539"><ele>226.0</ele></trkpt>
<trkpt lon="-1.344185" lat="43.222606"><ele>226.75</ele></trkpt>
<trkpt lon="-1.344196" lat="43.222670"><ele>227.75</ele></trkpt>
<trkpt lon="-1.344178" lat="43.222824"><ele>230.0</ele></trkpt>
<trkpt lon="-1.344131" lat="43.222959"><ele>231.5</ele></trkpt>
<trkpt lon="-1.344018" lat="43.223175"><ele>234.5</ele></trkpt>
<trkpt lon="-1.343963" lat="43.223300"><ele>236.0</ele></trkpt>
<trkpt lon="-1.343915" lat="43.223674"><ele>241.25</ele></trkpt>
<trkpt lon="-1.343864" lat="43.223883"><ele>244.0</ele></trkpt>
<trkpt lon="-1.343855" lat="43.223964"><ele>245.0</ele></trkpt>
<trkpt lon="-1.343868" lat="43.224029"><ele>245.5</ele></trkpt>
<trkpt lon="-1.343942" lat="43.224140"><ele>246.0</ele></trkpt>
<trkpt lon="-1.343968" lat="43.224210"><ele>247.0</ele></trkpt>
<trkpt lon="-1.343998" lat="43.224240"><ele>247.5</ele></trkpt>
<trkpt lon="-1.344135" lat="43.224309"><ele>247.25</ele></trkpt>
<trkpt lon="-1.344265" lat="43.224405"><ele>247.0</ele></trkpt>
<trkpt lon="-1.344648" lat="43.224860"><ele>247.0</ele></trkpt>
<trkpt lon="-1.345111" lat="43.225364"><ele>250.0</ele></trkpt>
<trkpt lon="-1.345420" lat="43.225628"><ele>249.25</ele></trkpt>
<trkpt lon="-1.345677" lat="43.225793"><ele>247.5</ele></trkpt>
<trkpt lon="-1.345755" lat="43.225878"><ele>247.25</ele></trkpt>
<trkpt lon="-1.345882" lat="43.226177"><ele>250.25</ele></trkpt>
<trkpt lon="-1.345937" lat="43.226221"><ele>250.5</ele></trkpt>
<trkpt lon="-1.346030" lat="43.226276"><ele>251.0</ele></trkpt>
<trkpt lon="-1.346261" lat="43.226334"><ele>251.5</ele></trkpt>
<trkpt lon="-1.346398" lat="43.226424"><ele>254.5</ele></trkpt>
<trkpt lon="-1.346702" lat="43.226807"><ele>264.25</ele></trkpt>
<trkpt lon="-1.346878" lat="43.226985"><ele>268.0</ele></trkpt>
<trkpt lon="-1.347318" lat="43.227241"><ele>272.75</ele></trkpt>
<trkpt lon="-1.347578" lat="43.227485"><ele>275.25</ele></trkpt>
<trkpt lon="-1.347914" lat="43.227749"><ele>278.5</ele></trkpt>
<trkpt lon="-1.348005" lat="43.227837"><ele>279.75</ele></trkpt>
<trkpt lon="-1.348172" lat="43.228036"><ele>279.25</ele></trkpt>
<trkpt lon="-1.348367" lat="43.228451"><ele>278.5</ele></trkpt>
<trkpt lon="-1.348376" lat="43.228530"><ele>278.5</ele></trkpt>
<trkpt lon="-1.348358" lat="43.228624"><ele>279.5</ele></trkpt>
<trkpt lon="-1.348367" lat="43.228682"><ele>281.25</ele></trkpt>
<trkpt lon="-1.348416" lat="43.228724"><ele>282.0</ele></trkpt>
<trkpt lon="-1.348475" lat="43.228747"><ele>282.5</ele></trkpt>
<trkpt lon="-1.348571" lat="43.228750"><ele>282.0</ele></trkpt>
<trkpt lon="-1.348830" lat="43.228721"><ele>281.25</ele></trkpt>
<trkpt lon="-1.348972" lat="43.228712"><ele>281.25</ele></trkpt>
<trkpt lon="-1.349201" lat="43.228729"><ele>283.25</ele></trkpt>
<trkpt lon="-1.349683" lat="43.228812"><ele>288.25</ele></trkpt>
<trkpt lon="-1.349968" lat="43.228850"><ele>288.5</ele></trkpt>
<trkpt lon="-1.350208" lat="43.228856"><ele>290.0</ele></trkpt>
<trkpt lon="-1.350443" lat="43.228877"><ele>292.75</ele></trkpt>
<trkpt lon="-1.350684" lat="43.228927"><ele>295.75</ele></trkpt>
<trkpt lon="-1.351065" lat="43.229037"><ele>299.5</ele></trkpt>
<trkpt lon="-1.351395" lat="43.229164"><ele>303.75</ele></trkpt>
<trkpt lon="-1.351654" lat="43.229223"><ele>308.75</ele></trkpt>
<trkpt lon="-1.351758" lat="43.229256"><ele>308.75</ele></trkpt>
<trkpt lon="-1.351847" lat="43.229315"><ele>309.0</ele></trkpt>
<trkpt lon="-1.352030" lat="43.229514"><ele>311.75</ele></trkpt>
<trkpt lon="-1.352199" lat="43.229626"><ele>312.75</ele></trkpt>
<trkpt lon="-1.352453" lat="43.229758"><ele>317.5</ele></trkpt>
<trkpt lon="-1.352595" lat="43.229806"><ele>317.75</ele></trkpt>
<trkpt lon="-1.352773" lat="43.229877"><ele>317.25</ele></trkpt>
<trkpt lon="-1.352945" lat="43.230034"><ele>321.5</ele></trkpt>
<trkpt lon="-1.353186" lat="43.230294"><ele>324.5</ele></trkpt>
<trkpt lon="-1.353473" lat="43.230707"><ele>330.5</ele></trkpt>
<trkpt lon="-1.353695" lat="43.230948"><ele>333.5</ele></trkpt>
<trkpt lon="-1.353772" lat="43.231091"><ele>334.5</ele></trkpt>
<trkpt lon="-1.353807" lat="43.231240"><ele>335.5</ele></trkpt>
<trkpt lon="-1.353865" lat="43.231582"><ele>338.25</ele></trkpt>
<trkpt lon="-1.353913" lat="43.231714"><ele>339.0</ele></trkpt>
<trkpt lon="-1.353974" lat="43.231840"><ele>339.25</ele></trkpt>
<trkpt lon="-1.354019" lat="43.231959"><ele>339.5</ele></trkpt>
<trkpt lon="-1.354064" lat="43.232110"><ele>339.5</ele></trkpt>
<trkpt lon="-1.354109" lat="43.232220"><ele>339.25</ele></trkpt>
<trkpt lon="-1.354239" lat="43.232372"><ele>338.0</ele></trkpt>
<trkpt lon="-1.354355" lat="43.232441"><ele>337.5</ele></trkpt>
<trkpt lon="-1.354469" lat="43.232488"><ele>337.0</ele></trkpt>
<trkpt lon="-1.354584" lat="43.232568"><ele>338.25</ele></trkpt>
<trkpt lon="-1.354919" lat="43.232919"><ele>343.25</ele></trkpt>
<trkpt lon="-1.355096" lat="43.233126"><ele>345.25</ele></trkpt>
<trkpt lon="-1.355330" lat="43.233347"><ele>346.0</ele></trkpt>
<trkpt lon="-1.355378" lat="43.233462"><ele>347.0</ele></trkpt>
<trkpt lon="-1.355675" lat="43.233788"><ele>345.5</ele></trkpt>
<trkpt lon="-1.355779" lat="43.233870"><ele>343.25</ele></trkpt>
<trkpt lon="-1.355845" lat="43.233899"><ele>342.0</ele></trkpt>
<trkpt lon="-1.356059" lat="43.233961"><ele>343.25</ele></trkpt>
<trkpt lon="-1.356161" lat="43.234050"><ele>343.5</ele></trkpt>
<trkpt lon="-1.356315" lat="43.234339"><ele>339.5</ele></trkpt>
<trkpt lon="-1.356463" lat="43.234572"><ele>337.5</ele></trkpt>
<trkpt lon="-1.356633" lat="43.234942"><ele>331.25</ele></trkpt>
<trkpt lon="-1.356683" lat="43.235096"><ele>329.0</ele></trkpt>
<trkpt lon="-1.356697" lat="43.235376"><ele>328.25</ele></trkpt>
<trkpt lon="-1.356842" lat="43.235663"><ele>326.5</ele></trkpt>
<trkpt lon="-1.356960" lat="43.236128"><ele>319.75</ele></trkpt>
<trkpt lon="-1.356977" lat="43.236309"><ele>317.5</ele></trkpt>
<trkpt lon="-1.356947" lat="43.236540"><ele>313.75</ele></trkpt>
<trkpt lon="-1.356869" lat="43.236762"><ele>312.5</ele></trkpt>
<trkpt lon="-1.356840" lat="43.236816"><ele>312.0</ele></trkpt>
<trkpt lon="-1.356691" lat="43.237046"><ele>308.5</ele></trkpt>
<trkpt lon="-1.356487" lat="43.237210"><ele>307.0</ele></trkpt>
<trkpt lon="-1.356282" lat="43.237423"><ele>304.75</ele></trkpt>
<trkpt lon="-1.356122" lat="43.237630"><ele>301.25</ele></trkpt>
<trkpt lon="-1.355658" lat="43.238352"><ele>286.25</ele></trkpt>
<trkpt lon="-1.355564" lat="43.238431"><ele>284.5</ele></trkpt>
<trkpt lon="-1.355501" lat="43.238507"><ele>282.75</ele></trkpt>
<trkpt lon="-1.355414" lat="43.238637"><ele>281.0</ele></trkpt>
<trkpt lon="-1.355420" lat="43.238821"><ele>281.5</ele></trkpt>
<trkpt lon="-1.355528" lat="43.238998"><ele>279.0</ele></trkpt>
<trkpt lon="-1.355674" lat="43.239182"><ele>279.0</ele></trkpt>
<trkpt lon="-1.355766" lat="43.239334"><ele>278.0</ele></trkpt>
<trkpt lon="-1.355913" lat="43.239632"><ele>277.0</ele></trkpt>
<trkpt lon="-1.356062" lat="43.239887"><ele>274.75</ele></trkpt>
<trkpt lon="-1.356170" lat="43.240150"><ele>273.75</ele></trkpt>
<trkpt lon="-1.356279" lat="43.240481"><ele>272.0</ele></trkpt>
<trkpt lon="-1.356288" lat="43.240588"><ele>271.0</ele></trkpt>
<trkpt lon="-1.356282" lat="43.240642"><ele>270.0</ele></trkpt>
<trkpt lon="-1.356257" lat="43.240714"><ele>269.0</ele></trkpt>
<trkpt lon="-1.356224" lat="43.240772"><ele>268.75</ele></trkpt>
<trkpt lon="-1.356110" lat="43.240904"><ele>269.25</ele></trkpt>
<trkpt lon="-1.356028" lat="43.241032"><ele>268.25</ele></trkpt>
<trkpt lon="-1.355853" lat="43.241355"><ele>264.25</ele></trkpt>
<trkpt lon="-1.355692" lat="43.241715"><ele>262.75</ele></trkpt>
<trkpt lon="-1.355534" lat="43.241951"><ele>258.75</ele></trkpt>
<trkpt lon="-1.355527" lat="43.242017"><ele>257.75</ele></trkpt>
<trkpt lon="-1.355613" lat="43.242408"><ele>249.25</ele></trkpt>
<trkpt lon="-1.355632" lat="43.242561"><ele>247.0</ele></trkpt>
<trkpt lon="-1.355626" lat="43.242639"><ele>246.0</ele></trkpt>
<trkpt lon="-1.355604" lat="43.242712"><ele>246.0</ele></trkpt>
<trkpt lon="-1.355567" lat="43.242786"><ele>246.25</ele></trkpt>
<trkpt lon="-1.355501" lat="43.242888"><ele>244.0</ele></trkpt>
<trkpt lon="-1.355417" lat="43.242986"><ele>242.5</ele></trkpt>
<trkpt lon="-1.355368" lat="43.243030"><ele>242.25</ele></trkpt>
<trkpt lon="-1.355315" lat="43.243065"><ele>242.5</ele></trkpt>
<trkpt lon="-1.355041" lat="43.243189"><ele>239.25</ele></trkpt>
<trkpt lon="-1.354681" lat="43.243410"><ele>230.25</ele></trkpt>
<trkpt lon="-1.354496" lat="43.243500"><ele>227.25</ele></trkpt>
<trkpt lon="-1.353966" lat="43.243706"><ele>224.25</ele></trkpt>
<trkpt lon="-1.353854" lat="43.243772"><ele>223.0</ele></trkpt>
<trkpt lon="-1.353789" lat="43.243826"><ele>221.75</ele></trkpt>
<trkpt lon="-1.353755" lat="43.243908"><ele>219.5</ele></trkpt>
<trkpt lon="-1.353747" lat="43.243991"><ele>219.25</ele></trkpt>
<trkpt lon="-1.353802" lat="43.244221"><ele>214.0</ele></trkpt>
<trkpt lon="-1.353797" lat="43.244292"><ele>211.5</ele></trkpt>
<trkpt lon="-1.353755" lat="43.244340"><ele>210.5</ele></trkpt>
<trkpt lon="-1.353628" lat="43.244376"><ele>212.0</ele></trkpt>
<trkpt lon="-1.353188" lat="43.244453"><ele>204.5</ele></trkpt>
<trkpt lon="-1.353074" lat="43.244486"><ele>203.25</ele></trkpt>
<trkpt lon="-1.352882" lat="43.244591"><ele>198.25</ele></trkpt>
<trkpt lon="-1.352596" lat="43.244821"><ele>195.0</ele></trkpt>
<trkpt lon="-1.352485" lat="43.244892"><ele>193.0</ele></trkpt>
<trkpt lon="-1.352288" lat="43.245004"><ele>189.25</ele></trkpt>
<trkpt lon="-1.352210" lat="43.245060"><ele>189.0</ele></trkpt>
<trkpt lon="-1.351875" lat="43.245405"><ele>187.5</ele></trkpt>
<trkpt lon="-1.351772" lat="43.245548"><ele>186.75</ele></trkpt>
<trkpt lon="-1.351694" lat="43.245636"><ele>186.0</ele></trkpt>
<trkpt lon="-1.351617" lat="43.245703"><ele>185.5</ele></trkpt>
<trkpt lon="-1.351405" lat="43.245832"><ele>181.0</ele></trkpt>
<trkpt lon="-1.351241" lat="43.245944"><ele>183.0</ele></trkpt>
<trkpt lon="-1.351132" lat="43.246006"><ele>182.25</ele></trkpt>
<trkpt lon="-1.351039" lat="43.246128"><ele>180.75</ele></trkpt>
<trkpt lon="-1.351003" lat="43.246243"><ele>179.75</ele></trkpt>
<trkpt lon="-1.350979" lat="43.246357"><ele>177.5</ele></trkpt>
<trkpt lon="-1.350913" lat="43.246475"><ele>177.0</ele></trkpt>
<trkpt lon="-1.350850" lat="43.246567"><ele>175.25</ele></trkpt>
<trkpt lon="-1.350543" lat="43.246966"><ele>172.0</ele></trkpt>
<trkpt lon="-1.350429" lat="43.247049"><ele>173.0</ele></trkpt>
<trkpt lon="-1.350270" lat="43.247129"><ele>173.0</ele></trkpt>
<trkpt lon="-1.350223" lat="43.247173"><ele>173.5</ele></trkpt>
<trkpt lon="-1.350197" lat="43.247295"><ele>173.0</ele></trkpt>
<trkpt lon="-1.350200" lat="43.247446"><ele>171.5</ele></trkpt>
<trkpt lon="-1.350224" lat="43.247669"><ele>169.0</ele></trkpt>
<trkpt lon="-1.350205" lat="43.247804"><ele>169.0</ele></trkpt>
<trkpt lon="-1.350148" lat="43.247960"><ele>168.25</ele></trkpt>
<trkpt lon="-1.349839" lat="43.248323"><ele>166.0</ele></trkpt>
<trkpt lon="-1.349779" lat="43.248437"><ele>165.5</ele></trkpt>
<trkpt lon="-1.349741" lat="43.248542"><ele>163.75</ele></trkpt>
<trkpt lon="-1.349606" lat="43.248772"><ele>164.0</ele></trkpt>
<trkpt lon="-1.349183" lat="43.249973"><ele>152.75</ele></trkpt>
<trkpt lon="-1.349193" lat="43.250085"><ele>152.25</ele></trkpt>
<trkpt lon="-1.349205" lat="43.250110"><ele>152.5</ele></trkpt>
<trkpt lon="-1.349242" lat="43.250184"><ele>153.5</ele></trkpt>
<trkpt lon="-1.349276" lat="43.250252"><ele>154.75</ele></trkpt>
<trkpt lon="-1.349278" lat="43.250453"><ele>152.5</ele></trkpt>
<trkpt lon="-1.349466" lat="43.250728"><ele>151.0</ele></trkpt>
<trkpt lon="-1.349535" lat="43.250866"><ele>151.5</ele></trkpt>
<trkpt lon="-1.349551" lat="43.250943"><ele>151.5</ele></trkpt>
<trkpt lon="-1.349543" lat="43.251071"><ele>149.75</ele></trkpt>
<trkpt lon="-1.349396" lat="43.251247"><ele>145.75</ele></trkpt>
<trkpt lon="-1.349349" lat="43.251423"><ele>144.75</ele></trkpt>
<trkpt lon="-1.349384" lat="43.251649"><ele>144.0</ele></trkpt>
<trkpt lon="-1.349437" lat="43.251877"><ele>142.25</ele></trkpt>
<trkpt lon="-1.349432" lat="43.251970"><ele>141.75</ele></trkpt>
<trkpt lon="-1.349393" lat="43.252097"><ele>141.0</ele></trkpt>
<trkpt lon="-1.349252" lat="43.252374"><ele>139.25</ele></trkpt>
<trkpt lon="-1.349192" lat="43.252562"><ele>138.75</ele></trkpt>
<trkpt lon="-1.349086" lat="43.252782"><ele>137.5</ele></trkpt>
<trkpt lon="-1.349072" lat="43.252877"><ele>137.0</ele></trkpt>
<trkpt lon="-1.349083" lat="43.252980"><ele>136.75</ele></trkpt>
<trkpt lon="-1.349195" lat="43.253313"><ele>136.75</ele></trkpt>
<trkpt lon="-1.349186" lat="43.253535"><ele>138.25</ele></trkpt>
<trkpt lon="-1.349206" lat="43.253641"><ele>139.0</ele></trkpt>
<trkpt lon="-1.349245" lat="43.253766"><ele>138.25</ele></trkpt>
<trkpt lon="-1.349343" lat="43.253935"><ele>137.0</ele></trkpt>
<trkpt lon="-1.349385" lat="43.254231"><ele>136.75</ele></trkpt>
<trkpt lon="-1.349445" lat="43.254398"><ele>135.5</ele></trkpt>
<trkpt lon="-1.349252" lat="43.255014"><ele>127.75</ele></trkpt>
<trkpt lon="-1.349241" lat="43.255113"><ele>127.25</ele></trkpt>
<trkpt lon="-1.349238" lat="43.255595"><ele>125.75</ele></trkpt>
<trkpt lon="-1.349197" lat="43.255984"><ele>123.75</ele></trkpt>
<trkpt lon="-1.349219" lat="43.256115"><ele>122.75</ele></trkpt>
<trkpt lon="-1.349392" lat="43.256771"><ele>119.5</ele></trkpt>
<trkpt lon="-1.349472" lat="43.257037"><ele>118.25</ele></trkpt>
<trkpt lon="-1.349527" lat="43.257174"><ele>117.5</ele></trkpt>
<trkpt lon="-1.349587" lat="43.257253"><ele>117.25</ele></trkpt>
<trkpt lon="-1.349684" lat="43.257351"><ele>117.0</ele></trkpt>
<trkpt lon="-1.349936" lat="43.257551"><ele>117.0</ele></trkpt>
<trkpt lon="-1.349929" lat="43.257585"><ele>117.0</ele></trkpt>
<trkpt lon="-1.349927" lat="43.257718"><ele>117.5</ele></trkpt>
<trkpt lon="-1.349907" lat="43.257824"><ele>117.75</ele></trkpt>
<trkpt lon="-1.349780" lat="43.257988"><ele>115.75</ele></trkpt>
<trkpt lon="-1.349699" lat="43.258052"><ele>114.75</ele></trkpt>
<trkpt lon="-1.349527" lat="43.258156"><ele>113.75</ele></trkpt>
<trkpt lon="-1.349430" lat="43.258225"><ele>113.5</ele></trkpt>
<trkpt lon="-1.349361" lat="43.258324"><ele>113.25</ele></trkpt>
<trkpt lon="-1.349180" lat="43.258658"><ele>112.75</ele></trkpt>
<trkpt lon="-1.348771" lat="43.259037"><ele>114.25</ele></trkpt>
<trkpt lon="-1.348441" lat="43.259675"><ele>109.75</ele></trkpt>
<trkpt lon="-1.348316" lat="43.259936"><ele>108.75</ele></trkpt>
<trkpt lon="-1.348253" lat="43.260165"><ele>111.75</ele></trkpt>
<trkpt lon="-1.348194" lat="43.260689"><ele>113.5</ele></trkpt>
<trkpt lon="-1.348079" lat="43.260983"><ele>113.0</ele></trkpt>
<trkpt lon="-1.347746" lat="43.261444"><ele>111.0</ele></trkpt>
<trkpt lon="-1.347550" lat="43.261820"><ele>105.25</ele></trkpt>
<trkpt lon="-1.347344" lat="43.262658"><ele>103.25</ele></trkpt>
<trkpt lon="-1.346723" lat="43.263551"><ele>97.5</ele></trkpt>
<trkpt lon="-1.346485" lat="43.263835"><ele>96.75</ele></trkpt>
<trkpt lon="-1.346168" lat="43.264286"><ele>97.25</ele></trkpt>
<trkpt lon="-1.346243" lat="43.264338"><ele>99.75</ele></trkpt>
<trkpt lon="-1.346346" lat="43.264503"><ele>103.25</ele></trkpt>
<trkpt lon="-1.346362" lat="43.264570"><ele>105.0</ele></trkpt>
<trkpt lon="-1.346222" lat="43.264794"><ele>106.25</ele></trkpt>
<trkpt lon="-1.346122" lat="43.264862"><ele>105.75</ele></trkpt>
<trkpt lon="-1.346034" lat="43.264952"><ele>106.75</ele></trkpt>
<trkpt lon="-1.346048" lat="43.265101"><ele>111.5</ele></trkpt>
<trkpt lon="-1.345942" lat="43.265287"><ele>114.0</ele></trkpt>
<trkpt lon="-1.345759" lat="43.265368"><ele>114.0</ele></trkpt>
<trkpt lon="-1.345516" lat="43.265457"><ele>113.25</ele></trkpt>
<trkpt lon="-1.344921" lat="43.265637"><ele>107.5</ele></trkpt>
<trkpt lon="-1.344826" lat="43.265693"><ele>107.0</ele></trkpt>
<trkpt lon="-1.344731" lat="43.265789"><ele>108.25</ele></trkpt>
<trkpt lon="-1.344670" lat="43.265879"><ele>107.5</ele></trkpt>
  </trkseg></trk></gpx>
