<?xml version="1.0" encoding="UTF-8"?>
<gpx version="1.1" creator="compostel-brouter" xmlns="http://www.topografix.com/GPX/1/1">
  <metadata><name>ES-08-Markina</name></metadata>
  <trk><name>ES-08-Markina</name><trkseg>
<trkpt lon="-2.351998" lat="43.294997"><ele>39.0</ele></trkpt>
<trkpt lon="-2.351913" lat="43.295065"><ele>38.25</ele></trkpt>
<trkpt lon="-2.351549" lat="43.295258"><ele>44.0</ele></trkpt>
<trkpt lon="-2.351871" lat="43.295382"><ele>28.0</ele></trkpt>
<trkpt lon="-2.351956" lat="43.295423"><ele>21.5</ele></trkpt>
<trkpt lon="-2.351803" lat="43.295569"><ele>23.0</ele></trkpt>
<trkpt lon="-2.351891" lat="43.295706"><ele>12.75</ele></trkpt>
<trkpt lon="-2.352026" lat="43.295933"><ele>5.25</ele></trkpt>
<trkpt lon="-2.352127" lat="43.296054"><ele>4.75</ele></trkpt>
<trkpt lon="-2.352358" lat="43.295910"><ele>4.0</ele></trkpt>
<trkpt lon="-2.352539" lat="43.295795"><ele>4.0</ele></trkpt>
<trkpt lon="-2.352737" lat="43.295665"><ele>4.25</ele></trkpt>
<trkpt lon="-2.352888" lat="43.295538"><ele>4.0</ele></trkpt>
<trkpt lon="-2.353420" lat="43.295091"><ele>4.5</ele></trkpt>
<trkpt lon="-2.353450" lat="43.295056"><ele>4.5</ele></trkpt>
<trkpt lon="-2.353478" lat="43.294989"><ele>4.25</ele></trkpt>
<trkpt lon="-2.353480" lat="43.294934"><ele>4.25</ele></trkpt>
<trkpt lon="-2.353677" lat="43.294945"><ele>4.0</ele></trkpt>
<trkpt lon="-2.353885" lat="43.294957"><ele>4.0</ele></trkpt>
<trkpt lon="-2.354016" lat="43.294946"><ele>4.0</ele></trkpt>
<trkpt lon="-2.354405" lat="43.294846"><ele>4.0</ele></trkpt>
<trkpt lon="-2.354603" lat="43.294780"><ele>4.0</ele></trkpt>
<trkpt lon="-2.354881" lat="43.294655"><ele>4.0</ele></trkpt>
<trkpt lon="-2.355026" lat="43.294405"><ele>3.75</ele></trkpt>
<trkpt lon="-2.355151" lat="43.294431"><ele>3.25</ele></trkpt>
<trkpt lon="-2.355168" lat="43.294380"><ele>3.25</ele></trkpt>
<trkpt lon="-2.355224" lat="43.294391"><ele>3.0</ele></trkpt>
<trkpt lon="-2.355263" lat="43.294398"><ele>3.0</ele></trkpt>
<trkpt lon="-2.355303" lat="43.294404"><ele>3.0</ele></trkpt>
<trkpt lon="-2.355372" lat="43.294290"><ele>3.0</ele></trkpt>
<trkpt lon="-2.355409" lat="43.294298"><ele>3.0</ele></trkpt>
<trkpt lon="-2.355416" lat="43.294299"><ele>3.25</ele></trkpt>
<trkpt lon="-2.355458" lat="43.294307"><ele>3.25</ele></trkpt>
<trkpt lon="-2.355486" lat="43.294313"><ele>3.25</ele></trkpt>
<trkpt lon="-2.355523" lat="43.294320"><ele>3.25</ele></trkpt>
<trkpt lon="-2.355635" lat="43.294342"><ele>2.75</ele></trkpt>
<trkpt lon="-2.355646" lat="43.294293"><ele>3.0</ele></trkpt>
<trkpt lon="-2.355718" lat="43.294292"><ele>2.5</ele></trkpt>
<trkpt lon="-2.355739" lat="43.294243"><ele>2.75</ele></trkpt>
<trkpt lon="-2.355808" lat="43.293735"><ele>2.5</ele></trkpt>
<trkpt lon="-2.355873" lat="43.293738"><ele>2.25</ele></trkpt>
<trkpt lon="-2.355886" lat="43.293471"><ele>2.25</ele></trkpt>
<trkpt lon="-2.355906" lat="43.293272"><ele>2.25</ele></trkpt>
<trkpt lon="-2.355935" lat="43.293117"><ele>2.0</ele></trkpt>
<trkpt lon="-2.355999" lat="43.292940"><ele>2.0</ele></trkpt>
<trkpt lon="-2.356104" lat="43.292768"><ele>2.5</ele></trkpt>
<trkpt lon="-2.356231" lat="43.292595"><ele>3.5</ele></trkpt>
<trkpt lon="-2.356258" lat="43.292558"><ele>3.5</ele></trkpt>
<trkpt lon="-2.356628" lat="43.292664"><ele>4.75</ele></trkpt>
<trkpt lon="-2.357438" lat="43.292917"><ele>7.25</ele></trkpt>
<trkpt lon="-2.357461" lat="43.292940"><ele>7.25</ele></trkpt>
<trkpt lon="-2.357511" lat="43.293017"><ele>7.75</ele></trkpt>
<trkpt lon="-2.357548" lat="43.293128"><ele>7.75</ele></trkpt>
<trkpt lon="-2.357555" lat="43.293300"><ele>6.5</ele></trkpt>
<trkpt lon="-2.357566" lat="43.293378"><ele>6.75</ele></trkpt>
<trkpt lon="-2.357506" lat="43.293486"><ele>6.0</ele></trkpt>
<trkpt lon="-2.357458" lat="43.293637"><ele>5.0</ele></trkpt>
<trkpt lon="-2.357424" lat="43.293709"><ele>4.5</ele></trkpt>
<trkpt lon="-2.357260" lat="43.293930"><ele>3.0</ele></trkpt>
<trkpt lon="-2.357303" lat="43.293944"><ele>3.0</ele></trkpt>
<trkpt lon="-2.357349" lat="43.293961"><ele>3.75</ele></trkpt>
<trkpt lon="-2.357258" lat="43.294079"><ele>4.75</ele></trkpt>
<trkpt lon="-2.357117" lat="43.294263"><ele>6.25</ele></trkpt>
<trkpt lon="-2.357101" lat="43.294327"><ele>6.75</ele></trkpt>
<trkpt lon="-2.357040" lat="43.294415"><ele>7.5</ele></trkpt>
<trkpt lon="-2.357084" lat="43.294434"><ele>7.75</ele></trkpt>
<trkpt lon="-2.357054" lat="43.294509"><ele>8.5</ele></trkpt>
<trkpt lon="-2.357245" lat="43.294453"><ele>8.5</ele></trkpt>
<trkpt lon="-2.357583" lat="43.294486"><ele>11.5</ele></trkpt>
<trkpt lon="-2.357734" lat="43.294494"><ele>12.25</ele></trkpt>
<trkpt lon="-2.357916" lat="43.294494"><ele>13.75</ele></trkpt>
<trkpt lon="-2.358069" lat="43.294536"><ele>17.75</ele></trkpt>
<trkpt lon="-2.358249" lat="43.294636"><ele>23.75</ele></trkpt>
<trkpt lon="-2.358406" lat="43.294732"><ele>26.0</ele></trkpt>
<trkpt lon="-2.358469" lat="43.294779"><ele>28.25</ele></trkpt>
<trkpt lon="-2.358666" lat="43.294856"><ele>30.75</ele></trkpt>
<trkpt lon="-2.358774" lat="43.294943"><ele>33.0</ele></trkpt>
<trkpt lon="-2.358823" lat="43.295034"><ele>34.75</ele></trkpt>
<trkpt lon="-2.358832" lat="43.295156"><ele>38.75</ele></trkpt>
<trkpt lon="-2.358850" lat="43.295237"><ele>41.0</ele></trkpt>
<trkpt lon="-2.358870" lat="43.295288"><ele>42.0</ele></trkpt>
<trkpt lon="-2.359048" lat="43.295439"><ele>46.75</ele></trkpt>
<trkpt lon="-2.359118" lat="43.295404"><ele>46.5</ele></trkpt>
<trkpt lon="-2.359183" lat="43.295294"><ele>47.25</ele></trkpt>
<trkpt lon="-2.359250" lat="43.295152"><ele>47.5</ele></trkpt>
<trkpt lon="-2.359334" lat="43.295115"><ele>49.0</ele></trkpt>
<trkpt lon="-2.359396" lat="43.295123"><ele>50.5</ele></trkpt>
<trkpt lon="-2.359462" lat="43.295169"><ele>52.75</ele></trkpt>
<trkpt lon="-2.359510" lat="43.295260"><ele>55.0</ele></trkpt>
<trkpt lon="-2.359555" lat="43.295319"><ele>55.25</ele></trkpt>
<trkpt lon="-2.359654" lat="43.295376"><ele>55.75</ele></trkpt>
<trkpt lon="-2.359810" lat="43.295413"><ele>57.5</ele></trkpt>
<trkpt lon="-2.360106" lat="43.295445"><ele>62.0</ele></trkpt>
<trkpt lon="-2.360229" lat="43.295471"><ele>63.75</ele></trkpt>
<trkpt lon="-2.360336" lat="43.295499"><ele>65.0</ele></trkpt>
<trkpt lon="-2.360454" lat="43.295548"><ele>66.25</ele></trkpt>
<trkpt lon="-2.360592" lat="43.295588"><ele>67.0</ele></trkpt>
<trkpt lon="-2.360739" lat="43.295607"><ele>68.0</ele></trkpt>
<trkpt lon="-2.361040" lat="43.295621"><ele>71.5</ele></trkpt>
<trkpt lon="-2.361223" lat="43.295650"><ele>73.25</ele></trkpt>
<trkpt lon="-2.361355" lat="43.295634"><ele>75.75</ele></trkpt>
<trkpt lon="-2.361439" lat="43.295610"><ele>78.0</ele></trkpt>
<trkpt lon="-2.361448" lat="43.295481"><ele>80.75</ele></trkpt>
<trkpt lon="-2.361481" lat="43.295402"><ele>82.5</ele></trkpt>
<trkpt lon="-2.361532" lat="43.295239"><ele>85.75</ele></trkpt>
<trkpt lon="-2.361534" lat="43.295105"><ele>86.75</ele></trkpt>
<trkpt lon="-2.361493" lat="43.294854"><ele>89.25</ele></trkpt>
<trkpt lon="-2.361426" lat="43.294707"><ele>90.5</ele></trkpt>
<trkpt lon="-2.361395" lat="43.294609"><ele>90.0</ele></trkpt>
<trkpt lon="-2.361391" lat="43.294533"><ele>90.0</ele></trkpt>
<trkpt lon="-2.361440" lat="43.294491"><ele>90.0</ele></trkpt>
<trkpt lon="-2.361481" lat="43.294500"><ele>90.25</ele></trkpt>
<trkpt lon="-2.361521" lat="43.294540"><ele>90.75</ele></trkpt>
<trkpt lon="-2.361569" lat="43.294626"><ele>92.0</ele></trkpt>
<trkpt lon="-2.361661" lat="43.294713"><ele>94.5</ele></trkpt>
<trkpt lon="-2.361753" lat="43.294773"><ele>95.25</ele></trkpt>
<trkpt lon="-2.361979" lat="43.294995"><ele>100.25</ele></trkpt>
<trkpt lon="-2.362077" lat="43.295063"><ele>101.0</ele></trkpt>
<trkpt lon="-2.362316" lat="43.295165"><ele>102.5</ele></trkpt>
<trkpt lon="-2.362605" lat="43.295277"><ele>104.25</ele></trkpt>
<trkpt lon="-2.362821" lat="43.295309"><ele>104.25</ele></trkpt>
<trkpt lon="-2.362988" lat="43.295355"><ele>103.0</ele></trkpt>
<trkpt lon="-2.363096" lat="43.295375"><ele>103.0</ele></trkpt>
<trkpt lon="-2.363395" lat="43.295463"><ele>104.25</ele></trkpt>
<trkpt lon="-2.363812" lat="43.295544"><ele>107.25</ele></trkpt>
<trkpt lon="-2.363986" lat="43.295601"><ele>108.75</ele></trkpt>
<trkpt lon="-2.364008" lat="43.295617"><ele>109.0</ele></trkpt>
<trkpt lon="-2.364068" lat="43.295759"><ele>111.5</ele></trkpt>
<trkpt lon="-2.364150" lat="43.295889"><ele>114.5</ele></trkpt>
<trkpt lon="-2.364200" lat="43.296040"><ele>117.5</ele></trkpt>
<trkpt lon="-2.364164" lat="43.296141"><ele>118.75</ele></trkpt>
<trkpt lon="-2.364083" lat="43.296245"><ele>120.25</ele></trkpt>
<trkpt lon="-2.363919" lat="43.296433"><ele>122.75</ele></trkpt>
<trkpt lon="-2.363671" lat="43.296652"><ele>126.0</ele></trkpt>
<trkpt lon="-2.363476" lat="43.296861"><ele>130.25</ele></trkpt>
<trkpt lon="-2.363289" lat="43.297102"><ele>135.0</ele></trkpt>
<trkpt lon="-2.363139" lat="43.297381"><ele>140.25</ele></trkpt>
<trkpt lon="-2.363148" lat="43.297504"><ele>143.0</ele></trkpt>
<trkpt lon="-2.363243" lat="43.297674"><ele>140.75</ele></trkpt>
<trkpt lon="-2.363297" lat="43.297796"><ele>140.0</ele></trkpt>
<trkpt lon="-2.363383" lat="43.297909"><ele>141.75</ele></trkpt>
<trkpt lon="-2.363673" lat="43.298115"><ele>146.25</ele></trkpt>
<trkpt lon="-2.363789" lat="43.298136"><ele>148.5</ele></trkpt>
<trkpt lon="-2.364011" lat="43.298230"><ele>154.5</ele></trkpt>
<trkpt lon="-2.364168" lat="43.298269"><ele>159.5</ele></trkpt>
<trkpt lon="-2.364388" lat="43.298273"><ele>167.5</ele></trkpt>
<trkpt lon="-2.364572" lat="43.298348"><ele>176.0</ele></trkpt>
<trkpt lon="-2.364689" lat="43.298446"><ele>183.0</ele></trkpt>
<trkpt lon="-2.364702" lat="43.298599"><ele>187.75</ele></trkpt>
<trkpt lon="-2.364666" lat="43.298814"><ele>192.5</ele></trkpt>
<trkpt lon="-2.364615" lat="43.298976"><ele>192.25</ele></trkpt>
<trkpt lon="-2.364596" lat="43.299125"><ele>192.0</ele></trkpt>
<trkpt lon="-2.364632" lat="43.299092"><ele>192.75</ele></trkpt>
<trkpt lon="-2.364728" lat="43.299078"><ele>194.75</ele></trkpt>
<trkpt lon="-2.365101" lat="43.299102"><ele>196.5</ele></trkpt>
<trkpt lon="-2.365415" lat="43.299129"><ele>197.25</ele></trkpt>
<trkpt lon="-2.365615" lat="43.299130"><ele>199.0</ele></trkpt>
<trkpt lon="-2.365809" lat="43.299190"><ele>198.75</ele></trkpt>
<trkpt lon="-2.365872" lat="43.299228"><ele>198.0</ele></trkpt>
<trkpt lon="-2.366603" lat="43.299399"><ele>197.0</ele></trkpt>
<trkpt lon="-2.366922" lat="43.299468"><ele>196.75</ele></trkpt>
<trkpt lon="-2.367158" lat="43.299510"><ele>196.0</ele></trkpt>
<trkpt lon="-2.367225" lat="43.299505"><ele>196.5</ele></trkpt>
<trkpt lon="-2.367657" lat="43.299636"><ele>194.5</ele></trkpt>
<trkpt lon="-2.367911" lat="43.299735"><ele>192.75</ele></trkpt>
<trkpt lon="-2.368207" lat="43.299818"><ele>191.75</ele></trkpt>
<trkpt lon="-2.368717" lat="43.299949"><ele>189.75</ele></trkpt>
<trkpt lon="-2.369008" lat="43.300000"><ele>190.5</ele></trkpt>
<trkpt lon="-2.369261" lat="43.300024"><ele>192.75</ele></trkpt>
<trkpt lon="-2.370226" lat="43.300018"><ele>197.5</ele></trkpt>
<trkpt lon="-2.371821" lat="43.299981"><ele>191.75</ele></trkpt>
<trkpt lon="-2.372336" lat="43.299964"><ele>191.75</ele></trkpt>
<trkpt lon="-2.372840" lat="43.300015"><ele>189.5</ele></trkpt>
<trkpt lon="-2.373039" lat="43.299977"><ele>188.5</ele></trkpt>
<trkpt lon="-2.373251" lat="43.299945"><ele>188.75</ele></trkpt>
<trkpt lon="-2.373394" lat="43.299958"><ele>188.0</ele></trkpt>
<trkpt lon="-2.373585" lat="43.299988"><ele>186.5</ele></trkpt>
<trkpt lon="-2.373724" lat="43.300050"><ele>186.5</ele></trkpt>
<trkpt lon="-2.373822" lat="43.300117"><ele>186.5</ele></trkpt>
<trkpt lon="-2.373971" lat="43.300136"><ele>187.25</ele></trkpt>
<trkpt lon="-2.374901" lat="43.300361"><ele>190.75</ele></trkpt>
<trkpt lon="-2.375016" lat="43.300361"><ele>192.0</ele></trkpt>
<trkpt lon="-2.375185" lat="43.300345"><ele>193.5</ele></trkpt>
<trkpt lon="-2.375787" lat="43.300366"><ele>194.5</ele></trkpt>
<trkpt lon="-2.376260" lat="43.300422"><ele>196.75</ele></trkpt>
<trkpt lon="-2.377154" lat="43.300613"><ele>199.25</ele></trkpt>
<trkpt lon="-2.377595" lat="43.300673"><ele>200.5</ele></trkpt>
<trkpt lon="-2.377819" lat="43.300686"><ele>201.0</ele></trkpt>
<trkpt lon="-2.378144" lat="43.300621"><ele>200.0</ele></trkpt>
<trkpt lon="-2.378290" lat="43.300625"><ele>197.75</ele></trkpt>
<trkpt lon="-2.378388" lat="43.300603"><ele>198.5</ele></trkpt>
<trkpt lon="-2.378505" lat="43.300587"><ele>200.5</ele></trkpt>
<trkpt lon="-2.378794" lat="43.300553"><ele>203.75</ele></trkpt>
<trkpt lon="-2.378879" lat="43.300548"><ele>204.25</ele></trkpt>
<trkpt lon="-2.378981" lat="43.300520"><ele>204.25</ele></trkpt>
<trkpt lon="-2.379190" lat="43.300403"><ele>206.25</ele></trkpt>
<trkpt lon="-2.379312" lat="43.300358"><ele>207.75</ele></trkpt>
<trkpt lon="-2.379466" lat="43.300312"><ele>209.0</ele></trkpt>
<trkpt lon="-2.379833" lat="43.300289"><ele>213.25</ele></trkpt>
<trkpt lon="-2.380000" lat="43.300221"><ele>216.0</ele></trkpt>
<trkpt lon="-2.380102" lat="43.300011"><ele>218.0</ele></trkpt>
<trkpt lon="-2.380206" lat="43.299727"><ele>218.5</ele></trkpt>
<trkpt lon="-2.380230" lat="43.299519"><ele>219.0</ele></trkpt>
<trkpt lon="-2.380279" lat="43.299430"><ele>218.5</ele></trkpt>
<trkpt lon="-2.380370" lat="43.299373"><ele>220.25</ele></trkpt>
<trkpt lon="-2.380590" lat="43.299346"><ele>220.5</ele></trkpt>
<trkpt lon="-2.380675" lat="43.299297"><ele>222.25</ele></trkpt>
<trkpt lon="-2.380857" lat="43.299208"><ele>224.25</ele></trkpt>
<trkpt lon="-2.381156" lat="43.299036"><ele>230.75</ele></trkpt>
<trkpt lon="-2.381296" lat="43.298996"><ele>232.5</ele></trkpt>
<trkpt lon="-2.381448" lat="43.298940"><ele>235.0</ele></trkpt>
<trkpt lon="-2.381547" lat="43.298922"><ele>236.0</ele></trkpt>
<trkpt lon="-2.381637" lat="43.298940"><ele>235.75</ele></trkpt>
<trkpt lon="-2.381747" lat="43.298986"><ele>235.5</ele></trkpt>
<trkpt lon="-2.381873" lat="43.299057"><ele>234.75</ele></trkpt>
<trkpt lon="-2.382024" lat="43.299095"><ele>235.25</ele></trkpt>
<trkpt lon="-2.382135" lat="43.299104"><ele>236.0</ele></trkpt>
<trkpt lon="-2.382231" lat="43.299081"><ele>238.0</ele></trkpt>
<trkpt lon="-2.382361" lat="43.299000"><ele>241.25</ele></trkpt>
<trkpt lon="-2.382501" lat="43.298885"><ele>245.0</ele></trkpt>
<trkpt lon="-2.382568" lat="43.298792"><ele>247.0</ele></trkpt>
<trkpt lon="-2.382595" lat="43.298740"><ele>248.0</ele></trkpt>
<trkpt lon="-2.382600" lat="43.298705"><ele>249.0</ele></trkpt>
<trkpt lon="-2.382667" lat="43.298579"><ele>250.5</ele></trkpt>
<trkpt lon="-2.382668" lat="43.298437"><ele>250.0</ele></trkpt>
<trkpt lon="-2.382632" lat="43.298339"><ele>250.5</ele></trkpt>
<trkpt lon="-2.382649" lat="43.298250"><ele>250.0</ele></trkpt>
<trkpt lon="-2.382657" lat="43.298146"><ele>249.5</ele></trkpt>
<trkpt lon="-2.382655" lat="43.297996"><ele>247.75</ele></trkpt>
<trkpt lon="-2.382615" lat="43.297912"><ele>247.0</ele></trkpt>
<trkpt lon="-2.382556" lat="43.297835"><ele>247.25</ele></trkpt>
<trkpt lon="-2.382460" lat="43.297757"><ele>248.0</ele></trkpt>
<trkpt lon="-2.382244" lat="43.297627"><ele>248.5</ele></trkpt>
<trkpt lon="-2.382094" lat="43.297514"><ele>247.75</ele></trkpt>
<trkpt lon="-2.382019" lat="43.297448"><ele>249.25</ele></trkpt>
<trkpt lon="-2.381987" lat="43.297380"><ele>250.25</ele></trkpt>
<trkpt lon="-2.381990" lat="43.297324"><ele>250.0</ele></trkpt>
<trkpt lon="-2.382011" lat="43.297250"><ele>248.75</ele></trkpt>
<trkpt lon="-2.382278" lat="43.296782"><ele>243.75</ele></trkpt>
<trkpt lon="-2.382313" lat="43.296650"><ele>243.75</ele></trkpt>
<trkpt lon="-2.382268" lat="43.296030"><ele>240.0</ele></trkpt>
<trkpt lon="-2.382209" lat="43.295609"><ele>239.0</ele></trkpt>
<trkpt lon="-2.382204" lat="43.295512"><ele>238.75</ele></trkpt>
<trkpt lon="-2.382242" lat="43.295426"><ele>238.75</ele></trkpt>
<trkpt lon="-2.382275" lat="43.295363"><ele>238.75</ele></trkpt>
<trkpt lon="-2.382325" lat="43.295304"><ele>238.75</ele></trkpt>
<trkpt lon="-2.382426" lat="43.295221"><ele>238.25</ele></trkpt>
<trkpt lon="-2.382685" lat="43.295090"><ele>236.75</ele></trkpt>
<trkpt lon="-2.382809" lat="43.295005"><ele>235.75</ele></trkpt>
<trkpt lon="-2.382932" lat="43.294867"><ele>234.5</ele></trkpt>
<trkpt lon="-2.382992" lat="43.294775"><ele>234.25</ele></trkpt>
<trkpt lon="-2.383037" lat="43.294686"><ele>235.0</ele></trkpt>
<trkpt lon="-2.383069" lat="43.294590"><ele>236.0</ele></trkpt>
<trkpt lon="-2.383045" lat="43.294481"><ele>236.5</ele></trkpt>
<trkpt lon="-2.382895" lat="43.294043"><ele>241.0</ele></trkpt>
<trkpt lon="-2.382894" lat="43.293954"><ele>242.75</ele></trkpt>
<trkpt lon="-2.382910" lat="43.293889"><ele>244.25</ele></trkpt>
<trkpt lon="-2.382955" lat="43.293845"><ele>245.5</ele></trkpt>
<trkpt lon="-2.383063" lat="43.293800"><ele>248.0</ele></trkpt>
<trkpt lon="-2.383221" lat="43.293777"><ele>249.25</ele></trkpt>
<trkpt lon="-2.383667" lat="43.293730"><ele>253.75</ele></trkpt>
<trkpt lon="-2.383805" lat="43.293746"><ele>255.5</ele></trkpt>
<trkpt lon="-2.384428" lat="43.293898"><ele>261.5</ele></trkpt>
<trkpt lon="-2.384815" lat="43.294022"><ele>263.75</ele></trkpt>
<trkpt lon="-2.385016" lat="43.294031"><ele>266.5</ele></trkpt>
<trkpt lon="-2.385156" lat="43.294028"><ele>269.25</ele></trkpt>
<trkpt lon="-2.385458" lat="43.294058"><ele>272.0</ele></trkpt>
<trkpt lon="-2.385667" lat="43.294057"><ele>273.0</ele></trkpt>
<trkpt lon="-2.386184" lat="43.294000"><ele>271.5</ele></trkpt>
<trkpt lon="-2.386298" lat="43.293961"><ele>270.0</ele></trkpt>
<trkpt lon="-2.386408" lat="43.293797"><ele>268.0</ele></trkpt>
<trkpt lon="-2.386400" lat="43.293693"><ele>267.25</ele></trkpt>
<trkpt lon="-2.386340" lat="43.293417"><ele>267.5</ele></trkpt>
<trkpt lon="-2.386348" lat="43.293344"><ele>267.25</ele></trkpt>
<trkpt lon="-2.386370" lat="43.293273"><ele>266.5</ele></trkpt>
<trkpt lon="-2.386449" lat="43.293199"><ele>265.75</ele></trkpt>
<trkpt lon="-2.386608" lat="43.293127"><ele>265.25</ele></trkpt>
<trkpt lon="-2.386595" lat="43.293086"><ele>265.5</ele></trkpt>
<trkpt lon="-2.386649" lat="43.292996"><ele>266.75</ele></trkpt>
<trkpt lon="-2.386883" lat="43.292874"><ele>269.0</ele></trkpt>
<trkpt lon="-2.387143" lat="43.292778"><ele>271.75</ele></trkpt>
<trkpt lon="-2.387572" lat="43.292715"><ele>274.75</ele></trkpt>
<trkpt lon="-2.388169" lat="43.292677"><ele>280.25</ele></trkpt>
<trkpt lon="-2.388431" lat="43.292639"><ele>282.75</ele></trkpt>
<trkpt lon="-2.388570" lat="43.292583"><ele>285.0</ele></trkpt>
<trkpt lon="-2.388728" lat="43.292503"><ele>286.5</ele></trkpt>
<trkpt lon="-2.388890" lat="43.292392"><ele>289.5</ele></trkpt>
<trkpt lon="-2.389037" lat="43.292316"><ele>290.25</ele></trkpt>
<trkpt lon="-2.389187" lat="43.292245"><ele>290.75</ele></trkpt>
<trkpt lon="-2.389252" lat="43.292222"><ele>291.25</ele></trkpt>
<trkpt lon="-2.389440" lat="43.292001"><ele>301.0</ele></trkpt>
<trkpt lon="-2.389503" lat="43.291914"><ele>305.0</ele></trkpt>
<trkpt lon="-2.389503" lat="43.291857"><ele>307.5</ele></trkpt>
<trkpt lon="-2.389485" lat="43.291828"><ele>308.75</ele></trkpt>
<trkpt lon="-2.389493" lat="43.291790"><ele>310.25</ele></trkpt>
<trkpt lon="-2.389546" lat="43.291733"><ele>312.75</ele></trkpt>
<trkpt lon="-2.389630" lat="43.291685"><ele>314.5</ele></trkpt>
<trkpt lon="-2.389659" lat="43.291650"><ele>315.75</ele></trkpt>
<trkpt lon="-2.389632" lat="43.291526"><ele>320.0</ele></trkpt>
<trkpt lon="-2.389660" lat="43.291467"><ele>322.25</ele></trkpt>
<trkpt lon="-2.389693" lat="43.291435"><ele>323.25</ele></trkpt>
<trkpt lon="-2.389766" lat="43.291406"><ele>324.25</ele></trkpt>
<trkpt lon="-2.389796" lat="43.291383"><ele>325.0</ele></trkpt>
<trkpt lon="-2.389799" lat="43.291330"><ele>326.75</ele></trkpt>
<trkpt lon="-2.389848" lat="43.291240"><ele>330.0</ele></trkpt>
<trkpt lon="-2.389928" lat="43.291205"><ele>331.25</ele></trkpt>
<trkpt lon="-2.390038" lat="43.291197"><ele>332.5</ele></trkpt>
<trkpt lon="-2.390218" lat="43.291196"><ele>335.75</ele></trkpt>
<trkpt lon="-2.390336" lat="43.291188"><ele>336.75</ele></trkpt>
<trkpt lon="-2.390426" lat="43.291169"><ele>337.25</ele></trkpt>
<trkpt lon="-2.390488" lat="43.291071"><ele>341.25</ele></trkpt>
<trkpt lon="-2.390613" lat="43.290915"><ele>342.75</ele></trkpt>
<trkpt lon="-2.390623" lat="43.290857"><ele>343.75</ele></trkpt>
<trkpt lon="-2.390576" lat="43.290719"><ele>342.75</ele></trkpt>
<trkpt lon="-2.390481" lat="43.290584"><ele>342.0</ele></trkpt>
<trkpt lon="-2.390405" lat="43.290400"><ele>342.0</ele></trkpt>
<trkpt lon="-2.390413" lat="43.290223"><ele>341.75</ele></trkpt>
<trkpt lon="-2.390440" lat="43.290154"><ele>341.75</ele></trkpt>
<trkpt lon="-2.390680" lat="43.289977"><ele>337.0</ele></trkpt>
<trkpt lon="-2.390730" lat="43.289864"><ele>337.5</ele></trkpt>
<trkpt lon="-2.390771" lat="43.289737"><ele>338.5</ele></trkpt>
<trkpt lon="-2.390753" lat="43.289555"><ele>338.25</ele></trkpt>
<trkpt lon="-2.390759" lat="43.289375"><ele>338.25</ele></trkpt>
<trkpt lon="-2.390773" lat="43.289300"><ele>338.5</ele></trkpt>
<trkpt lon="-2.390853" lat="43.289173"><ele>337.0</ele></trkpt>
<trkpt lon="-2.390943" lat="43.289084"><ele>335.75</ele></trkpt>
<trkpt lon="-2.391120" lat="43.288934"><ele>333.25</ele></trkpt>
<trkpt lon="-2.391169" lat="43.288827"><ele>332.25</ele></trkpt>
<trkpt lon="-2.391206" lat="43.288709"><ele>330.5</ele></trkpt>
<trkpt lon="-2.391195" lat="43.288583"><ele>331.0</ele></trkpt>
<trkpt lon="-2.391221" lat="43.288487"><ele>329.0</ele></trkpt>
<trkpt lon="-2.391232" lat="43.288357"><ele>328.25</ele></trkpt>
<trkpt lon="-2.391189" lat="43.288137"><ele>330.5</ele></trkpt>
<trkpt lon="-2.391095" lat="43.287961"><ele>334.5</ele></trkpt>
<trkpt lon="-2.391054" lat="43.287812"><ele>335.5</ele></trkpt>
<trkpt lon="-2.391013" lat="43.287605"><ele>336.75</ele></trkpt>
<trkpt lon="-2.390994" lat="43.287321"><ele>336.0</ele></trkpt>
<trkpt lon="-2.391030" lat="43.287202"><ele>335.0</ele></trkpt>
<trkpt lon="-2.391101" lat="43.287149"><ele>334.25</ele></trkpt>
<trkpt lon="-2.391245" lat="43.287079"><ele>334.75</ele></trkpt>
<trkpt lon="-2.391348" lat="43.287049"><ele>336.0</ele></trkpt>
<trkpt lon="-2.391631" lat="43.287170"><ele>335.0</ele></trkpt>
<trkpt lon="-2.391800" lat="43.287228"><ele>334.0</ele></trkpt>
<trkpt lon="-2.392033" lat="43.287269"><ele>332.75</ele></trkpt>
<trkpt lon="-2.392257" lat="43.287333"><ele>332.25</ele></trkpt>
<trkpt lon="-2.392464" lat="43.287447"><ele>329.75</ele></trkpt>
<trkpt lon="-2.392806" lat="43.287698"><ele>326.5</ele></trkpt>
<trkpt lon="-2.393049" lat="43.287928"><ele>325.0</ele></trkpt>
<trkpt lon="-2.393274" lat="43.288222"><ele>324.25</ele></trkpt>
<trkpt lon="-2.393566" lat="43.288640"><ele>323.5</ele></trkpt>
<trkpt lon="-2.393644" lat="43.288825"><ele>321.0</ele></trkpt>
<trkpt lon="-2.393892" lat="43.289061"><ele>316.25</ele></trkpt>
<trkpt lon="-2.394065" lat="43.289373"><ele>309.0</ele></trkpt>
<trkpt lon="-2.394183" lat="43.289444"><ele>307.75</ele></trkpt>
<trkpt lon="-2.394306" lat="43.289476"><ele>305.5</ele></trkpt>
<trkpt lon="-2.394482" lat="43.289483"><ele>303.25</ele></trkpt>
<trkpt lon="-2.394758" lat="43.289425"><ele>299.25</ele></trkpt>
<trkpt lon="-2.394880" lat="43.289373"><ele>297.5</ele></trkpt>
<trkpt lon="-2.395192" lat="43.289256"><ele>293.5</ele></trkpt>
<trkpt lon="-2.395415" lat="43.289206"><ele>291.75</ele></trkpt>
<trkpt lon="-2.395566" lat="43.289219"><ele>289.25</ele></trkpt>
<trkpt lon="-2.395866" lat="43.289260"><ele>286.5</ele></trkpt>
<trkpt lon="-2.396173" lat="43.289317"><ele>283.5</ele></trkpt>
<trkpt lon="-2.396447" lat="43.289398"><ele>280.5</ele></trkpt>
<trkpt lon="-2.396574" lat="43.289427"><ele>280.0</ele></trkpt>
<trkpt lon="-2.396711" lat="43.289460"><ele>279.5</ele></trkpt>
<trkpt lon="-2.396878" lat="43.289533"><ele>279.0</ele></trkpt>
<trkpt lon="-2.396985" lat="43.289589"><ele>279.0</ele></trkpt>
<trkpt lon="-2.397094" lat="43.289576"><ele>279.75</ele></trkpt>
<trkpt lon="-2.397272" lat="43.289561"><ele>279.75</ele></trkpt>
<trkpt lon="-2.397979" lat="43.289433"><ele>265.75</ele></trkpt>
<trkpt lon="-2.398209" lat="43.289417"><ele>262.25</ele></trkpt>
<trkpt lon="-2.398465" lat="43.289411"><ele>261.0</ele></trkpt>
<trkpt lon="-2.398641" lat="43.289468"><ele>259.75</ele></trkpt>
<trkpt lon="-2.398740" lat="43.289512"><ele>259.75</ele></trkpt>
<trkpt lon="-2.398898" lat="43.289607"><ele>258.0</ele></trkpt>
<trkpt lon="-2.398971" lat="43.289743"><ele>253.5</ele></trkpt>
<trkpt lon="-2.399109" lat="43.289931"><ele>249.25</ele></trkpt>
<trkpt lon="-2.399214" lat="43.289993"><ele>248.0</ele></trkpt>
<trkpt lon="-2.399355" lat="43.290013"><ele>247.25</ele></trkpt>
<trkpt lon="-2.399772" lat="43.290037"><ele>241.0</ele></trkpt>
<trkpt lon="-2.400032" lat="43.290011"><ele>238.75</ele></trkpt>
<trkpt lon="-2.400137" lat="43.290029"><ele>238.75</ele></trkpt>
<trkpt lon="-2.400334" lat="43.290100"><ele>236.25</ele></trkpt>
<trkpt lon="-2.400468" lat="43.290118"><ele>236.5</ele></trkpt>
<trkpt lon="-2.400751" lat="43.290104"><ele>237.5</ele></trkpt>
<trkpt lon="-2.400883" lat="43.290118"><ele>236.5</ele></trkpt>
<trkpt lon="-2.401062" lat="43.290094"><ele>236.75</ele></trkpt>
<trkpt lon="-2.401264" lat="43.290027"><ele>236.25</ele></trkpt>
<trkpt lon="-2.401407" lat="43.290064"><ele>235.0</ele></trkpt>
<trkpt lon="-2.401467" lat="43.290009"><ele>235.0</ele></trkpt>
<trkpt lon="-2.401595" lat="43.289972"><ele>235.0</ele></trkpt>
<trkpt lon="-2.401851" lat="43.289867"><ele>235.5</ele></trkpt>
<trkpt lon="-2.402243" lat="43.289728"><ele>231.0</ele></trkpt>
<trkpt lon="-2.402566" lat="43.289662"><ele>228.75</ele></trkpt>
<trkpt lon="-2.402714" lat="43.289653"><ele>226.5</ele></trkpt>
<trkpt lon="-2.402786" lat="43.289664"><ele>225.0</ele></trkpt>
<trkpt lon="-2.402930" lat="43.289718"><ele>220.0</ele></trkpt>
<trkpt lon="-2.403039" lat="43.289780"><ele>217.0</ele></trkpt>
<trkpt lon="-2.403203" lat="43.289920"><ele>212.5</ele></trkpt>
<trkpt lon="-2.403266" lat="43.289980"><ele>210.5</ele></trkpt>
<trkpt lon="-2.403278" lat="43.290043"><ele>209.0</ele></trkpt>
<trkpt lon="-2.403182" lat="43.290311"><ele>207.75</ele></trkpt>
<trkpt lon="-2.403229" lat="43.290484"><ele>204.25</ele></trkpt>
<trkpt lon="-2.403353" lat="43.290638"><ele>198.5</ele></trkpt>
<trkpt lon="-2.403387" lat="43.290622"><ele>198.75</ele></trkpt>
<trkpt lon="-2.403447" lat="43.290617"><ele>198.5</ele></trkpt>
<trkpt lon="-2.404354" lat="43.290393"><ele>199.0</ele></trkpt>
<trkpt lon="-2.404452" lat="43.290394"><ele>199.0</ele></trkpt>
<trkpt lon="-2.404569" lat="43.290416"><ele>198.5</ele></trkpt>
<trkpt lon="-2.404617" lat="43.290405"><ele>198.5</ele></trkpt>
<trkpt lon="-2.404930" lat="43.290266"><ele>200.0</ele></trkpt>
<trkpt lon="-2.405159" lat="43.290108"><ele>201.25</ele></trkpt>
<trkpt lon="-2.405276" lat="43.290036"><ele>202.0</ele></trkpt>
<trkpt lon="-2.405581" lat="43.289808"><ele>202.25</ele></trkpt>
<trkpt lon="-2.405686" lat="43.289757"><ele>202.5</ele></trkpt>
<trkpt lon="-2.405829" lat="43.289698"><ele>203.5</ele></trkpt>
<trkpt lon="-2.406093" lat="43.289413"><ele>200.5</ele></trkpt>
<trkpt lon="-2.406194" lat="43.289293"><ele>199.75</ele></trkpt>
<trkpt lon="-2.406352" lat="43.289014"><ele>200.5</ele></trkpt>
<trkpt lon="-2.406434" lat="43.288937"><ele>200.25</ele></trkpt>
<trkpt lon="-2.406584" lat="43.288824"><ele>200.25</ele></trkpt>
<trkpt lon="-2.406836" lat="43.288612"><ele>199.0</ele></trkpt>
<trkpt lon="-2.406914" lat="43.288569"><ele>198.75</ele></trkpt>
<trkpt lon="-2.406928" lat="43.288693"><ele>199.5</ele></trkpt>
<trkpt lon="-2.406969" lat="43.288744"><ele>199.75</ele></trkpt>
<trkpt lon="-2.407079" lat="43.288761"><ele>200.0</ele></trkpt>
<trkpt lon="-2.407226" lat="43.288760"><ele>200.0</ele></trkpt>
<trkpt lon="-2.407548" lat="43.288790"><ele>203.0</ele></trkpt>
<trkpt lon="-2.407698" lat="43.288812"><ele>204.75</ele></trkpt>
<trkpt lon="-2.408271" lat="43.288855"><ele>205.75</ele></trkpt>
<trkpt lon="-2.408516" lat="43.288864"><ele>206.25</ele></trkpt>
<trkpt lon="-2.408809" lat="43.288846"><ele>207.75</ele></trkpt>
<trkpt lon="-2.409179" lat="43.288851"><ele>209.5</ele></trkpt>
<trkpt lon="-2.409639" lat="43.288951"><ele>213.5</ele></trkpt>
<trkpt lon="-2.410118" lat="43.289101"><ele>219.0</ele></trkpt>
<trkpt lon="-2.410461" lat="43.289149"><ele>221.5</ele></trkpt>
<trkpt lon="-2.410722" lat="43.289200"><ele>223.5</ele></trkpt>
<trkpt lon="-2.410850" lat="43.289195"><ele>225.0</ele></trkpt>
<trkpt lon="-2.411050" lat="43.289223"><ele>226.5</ele></trkpt>
<trkpt lon="-2.411120" lat="43.289244"><ele>227.25</ele></trkpt>
<trkpt lon="-2.411223" lat="43.289243"><ele>229.0</ele></trkpt>
<trkpt lon="-2.411295" lat="43.289251"><ele>230.25</ele></trkpt>
<trkpt lon="-2.411378" lat="43.289276"><ele>232.0</ele></trkpt>
<trkpt lon="-2.411456" lat="43.289263"><ele>232.75</ele></trkpt>
<trkpt lon="-2.411550" lat="43.289278"><ele>234.5</ele></trkpt>
<trkpt lon="-2.411853" lat="43.289276"><ele>239.0</ele></trkpt>
<trkpt lon="-2.411981" lat="43.289269"><ele>240.5</ele></trkpt>
<trkpt lon="-2.411995" lat="43.289290"><ele>241.5</ele></trkpt>
<trkpt lon="-2.412081" lat="43.289315"><ele>243.25</ele></trkpt>
<trkpt lon="-2.412432" lat="43.289347"><ele>248.0</ele></trkpt>
<trkpt lon="-2.412551" lat="43.289368"><ele>249.75</ele></trkpt>
<trkpt lon="-2.412714" lat="43.289417"><ele>252.0</ele></trkpt>
<trkpt lon="-2.412792" lat="43.289426"><ele>252.75</ele></trkpt>
<trkpt lon="-2.412897" lat="43.289415"><ele>255.0</ele></trkpt>
<trkpt lon="-2.412953" lat="43.289385"><ele>255.75</ele></trkpt>
<trkpt lon="-2.413119" lat="43.289256"><ele>258.25</ele></trkpt>
<trkpt lon="-2.413194" lat="43.289124"><ele>257.75</ele></trkpt>
<trkpt lon="-2.413251" lat="43.289065"><ele>258.0</ele></trkpt>
<trkpt lon="-2.413318" lat="43.289014"><ele>258.25</ele></trkpt>
<trkpt lon="-2.413468" lat="43.288942"><ele>259.0</ele></trkpt>
<trkpt lon="-2.413631" lat="43.288885"><ele>260.0</ele></trkpt>
<trkpt lon="-2.413782" lat="43.288852"><ele>260.75</ele></trkpt>
<trkpt lon="-2.413902" lat="43.288831"><ele>261.75</ele></trkpt>
<trkpt lon="-2.414012" lat="43.288831"><ele>263.25</ele></trkpt>
<trkpt lon="-2.414173" lat="43.288850"><ele>266.0</ele></trkpt>
<trkpt lon="-2.414358" lat="43.288895"><ele>266.75</ele></trkpt>
<trkpt lon="-2.414782" lat="43.289030"><ele>269.5</ele></trkpt>
<trkpt lon="-2.414911" lat="43.289034"><ele>269.25</ele></trkpt>
<trkpt lon="-2.414997" lat="43.289022"><ele>268.75</ele></trkpt>
<trkpt lon="-2.415195" lat="43.288940"><ele>269.75</ele></trkpt>
<trkpt lon="-2.415474" lat="43.288772"><ele>273.75</ele></trkpt>
<trkpt lon="-2.415603" lat="43.288720"><ele>275.5</ele></trkpt>
<trkpt lon="-2.415782" lat="43.288675"><ele>276.25</ele></trkpt>
<trkpt lon="-2.415968" lat="43.288640"><ele>276.75</ele></trkpt>
<trkpt lon="-2.416228" lat="43.288607"><ele>277.0</ele></trkpt>
<trkpt lon="-2.416397" lat="43.288599"><ele>277.25</ele></trkpt>
<trkpt lon="-2.416590" lat="43.288616"><ele>276.75</ele></trkpt>
<trkpt lon="-2.416794" lat="43.288648"><ele>277.25</ele></trkpt>
<trkpt lon="-2.416922" lat="43.288638"><ele>276.25</ele></trkpt>
<trkpt lon="-2.417086" lat="43.288601"><ele>276.0</ele></trkpt>
<trkpt lon="-2.417207" lat="43.288564"><ele>275.5</ele></trkpt>
<trkpt lon="-2.417373" lat="43.288501"><ele>275.25</ele></trkpt>
<trkpt lon="-2.417529" lat="43.288458"><ele>276.0</ele></trkpt>
<trkpt lon="-2.417628" lat="43.288411"><ele>277.25</ele></trkpt>
<trkpt lon="-2.417674" lat="43.288353"><ele>276.75</ele></trkpt>
<trkpt lon="-2.417711" lat="43.288251"><ele>278.0</ele></trkpt>
<trkpt lon="-2.417741" lat="43.288122"><ele>280.0</ele></trkpt>
<trkpt lon="-2.417810" lat="43.288015"><ele>284.0</ele></trkpt>
<trkpt lon="-2.417826" lat="43.287927"><ele>285.75</ele></trkpt>
<trkpt lon="-2.417829" lat="43.287806"><ele>287.25</ele></trkpt>
<trkpt lon="-2.417875" lat="43.287673"><ele>289.25</ele></trkpt>
<trkpt lon="-2.417934" lat="43.287575"><ele>291.0</ele></trkpt>
<trkpt lon="-2.418062" lat="43.287478"><ele>294.25</ele></trkpt>
<trkpt lon="-2.418170" lat="43.287425"><ele>295.25</ele></trkpt>
<trkpt lon="-2.418315" lat="43.287390"><ele>297.5</ele></trkpt>
<trkpt lon="-2.418516" lat="43.287372"><ele>299.75</ele></trkpt>
<trkpt lon="-2.418773" lat="43.287380"><ele>303.5</ele></trkpt>
<trkpt lon="-2.419007" lat="43.287441"><ele>309.75</ele></trkpt>
<trkpt lon="-2.419200" lat="43.287464"><ele>312.75</ele></trkpt>
<trkpt lon="-2.419379" lat="43.287472"><ele>315.25</ele></trkpt>
<trkpt lon="-2.419484" lat="43.287443"><ele>317.0</ele></trkpt>
<trkpt lon="-2.419570" lat="43.287380"><ele>318.75</ele></trkpt>
<trkpt lon="-2.419656" lat="43.287329"><ele>321.25</ele></trkpt>
<trkpt lon="-2.419790" lat="43.287285"><ele>324.25</ele></trkpt>
<trkpt lon="-2.420047" lat="43.287275"><ele>328.5</ele></trkpt>
<trkpt lon="-2.420232" lat="43.287326"><ele>331.25</ele></trkpt>
<trkpt lon="-2.420613" lat="43.287446"><ele>336.5</ele></trkpt>
<trkpt lon="-2.420806" lat="43.287495"><ele>339.5</ele></trkpt>
<trkpt lon="-2.421040" lat="43.287527"><ele>343.25</ele></trkpt>
<trkpt lon="-2.421388" lat="43.287525"><ele>349.5</ele></trkpt>
<trkpt lon="-2.421565" lat="43.287544"><ele>353.5</ele></trkpt>
<trkpt lon="-2.421632" lat="43.287519"><ele>354.5</ele></trkpt>
<trkpt lon="-2.421686" lat="43.287482"><ele>355.0</ele></trkpt>
<trkpt lon="-2.422008" lat="43.287238"><ele>360.75</ele></trkpt>
<trkpt lon="-2.422145" lat="43.287175"><ele>362.25</ele></trkpt>
<trkpt lon="-2.422252" lat="43.287144"><ele>362.75</ele></trkpt>
<trkpt lon="-2.422450" lat="43.287121"><ele>364.0</ele></trkpt>
<trkpt lon="-2.422659" lat="43.287105"><ele>366.5</ele></trkpt>
<trkpt lon="-2.422861" lat="43.287100"><ele>368.0</ele></trkpt>
<trkpt lon="-2.423158" lat="43.287103"><ele>367.25</ele></trkpt>
<trkpt lon="-2.423370" lat="43.287134"><ele>366.5</ele></trkpt>
<trkpt lon="-2.423531" lat="43.287127"><ele>365.75</ele></trkpt>
<trkpt lon="-2.423781" lat="43.287097"><ele>365.0</ele></trkpt>
<trkpt lon="-2.423977" lat="43.287048"><ele>365.75</ele></trkpt>
<trkpt lon="-2.424146" lat="43.287039"><ele>367.25</ele></trkpt>
<trkpt lon="-2.424515" lat="43.287051"><ele>370.75</ele></trkpt>
<trkpt lon="-2.424660" lat="43.287080"><ele>372.0</ele></trkpt>
<trkpt lon="-2.424744" lat="43.287109"><ele>372.5</ele></trkpt>
<trkpt lon="-2.425333" lat="43.287113"><ele>380.25</ele></trkpt>
<trkpt lon="-2.425664" lat="43.287109"><ele>383.25</ele></trkpt>
<trkpt lon="-2.426010" lat="43.287064"><ele>386.75</ele></trkpt>
<trkpt lon="-2.426136" lat="43.287047"><ele>387.5</ele></trkpt>
<trkpt lon="-2.426262" lat="43.287040"><ele>388.0</ele></trkpt>
<trkpt lon="-2.426511" lat="43.287041"><ele>389.0</ele></trkpt>
<trkpt lon="-2.426782" lat="43.287066"><ele>391.5</ele></trkpt>
<trkpt lon="-2.426935" lat="43.287074"><ele>393.0</ele></trkpt>
<trkpt lon="-2.427042" lat="43.287072"><ele>394.0</ele></trkpt>
<trkpt lon="-2.427187" lat="43.287054"><ele>395.25</ele></trkpt>
<trkpt lon="-2.427368" lat="43.286998"><ele>395.75</ele></trkpt>
<trkpt lon="-2.427469" lat="43.286932"><ele>396.0</ele></trkpt>
<trkpt lon="-2.427552" lat="43.286867"><ele>395.25</ele></trkpt>
<trkpt lon="-2.427911" lat="43.286533"><ele>392.75</ele></trkpt>
<trkpt lon="-2.428003" lat="43.286435"><ele>391.25</ele></trkpt>
<trkpt lon="-2.428186" lat="43.286093"><ele>391.0</ele></trkpt>
<trkpt lon="-2.428300" lat="43.285957"><ele>392.75</ele></trkpt>
<trkpt lon="-2.428381" lat="43.285801"><ele>395.0</ele></trkpt>
<trkpt lon="-2.428544" lat="43.285736"><ele>395.75</ele></trkpt>
<trkpt lon="-2.428609" lat="43.285703"><ele>396.25</ele></trkpt>
<trkpt lon="-2.428804" lat="43.285470"><ele>398.25</ele></trkpt>
<trkpt lon="-2.429092" lat="43.285244"><ele>401.0</ele></trkpt>
<trkpt lon="-2.429459" lat="43.285001"><ele>402.25</ele></trkpt>
<trkpt lon="-2.429552" lat="43.284871"><ele>402.25</ele></trkpt>
<trkpt lon="-2.429581" lat="43.284766"><ele>401.25</ele></trkpt>
<trkpt lon="-2.429585" lat="43.284471"><ele>399.5</ele></trkpt>
<trkpt lon="-2.429635" lat="43.284098"><ele>403.5</ele></trkpt>
<trkpt lon="-2.429679" lat="43.283866"><ele>403.25</ele></trkpt>
<trkpt lon="-2.429745" lat="43.283769"><ele>402.75</ele></trkpt>
<trkpt lon="-2.429848" lat="43.283692"><ele>402.5</ele></trkpt>
<trkpt lon="-2.429981" lat="43.283640"><ele>402.5</ele></trkpt>
<trkpt lon="-2.430169" lat="43.283600"><ele>404.75</ele></trkpt>
<trkpt lon="-2.430368" lat="43.283522"><ele>408.0</ele></trkpt>
<trkpt lon="-2.430482" lat="43.283449"><ele>409.5</ele></trkpt>
<trkpt lon="-2.430708" lat="43.283231"><ele>414.25</ele></trkpt>
<trkpt lon="-2.430852" lat="43.282997"><ele>418.5</ele></trkpt>
<trkpt lon="-2.430862" lat="43.282937"><ele>419.75</ele></trkpt>
<trkpt lon="-2.430837" lat="43.282853"><ele>420.0</ele></trkpt>
<trkpt lon="-2.430670" lat="43.282541"><ele>419.0</ele></trkpt>
<trkpt lon="-2.430575" lat="43.282429"><ele>418.0</ele></trkpt>
<trkpt lon="-2.430255" lat="43.282277"><ele>417.0</ele></trkpt>
<trkpt lon="-2.430417" lat="43.282262"><ele>418.25</ele></trkpt>
<trkpt lon="-2.430606" lat="43.282260"><ele>419.75</ele></trkpt>
<trkpt lon="-2.430802" lat="43.282280"><ele>421.25</ele></trkpt>
<trkpt lon="-2.430921" lat="43.282302"><ele>422.25</ele></trkpt>
<trkpt lon="-2.431192" lat="43.282301"><ele>423.75</ele></trkpt>
<trkpt lon="-2.431333" lat="43.282308"><ele>424.5</ele></trkpt>
<trkpt lon="-2.431524" lat="43.282337"><ele>425.75</ele></trkpt>
<trkpt lon="-2.431677" lat="43.282375"><ele>427.25</ele></trkpt>
<trkpt lon="-2.431955" lat="43.282428"><ele>429.0</ele></trkpt>
<trkpt lon="-2.432310" lat="43.282472"><ele>430.75</ele></trkpt>
<trkpt lon="-2.432654" lat="43.282493"><ele>432.75</ele></trkpt>
<trkpt lon="-2.433021" lat="43.282495"><ele>433.75</ele></trkpt>
<trkpt lon="-2.433373" lat="43.282465"><ele>433.25</ele></trkpt>
<trkpt lon="-2.433706" lat="43.282419"><ele>433.75</ele></trkpt>
<trkpt lon="-2.433853" lat="43.282373"><ele>433.75</ele></trkpt>
<trkpt lon="-2.434096" lat="43.282249"><ele>432.0</ele></trkpt>
<trkpt lon="-2.434237" lat="43.282196"><ele>431.5</ele></trkpt>
<trkpt lon="-2.434431" lat="43.282158"><ele>432.5</ele></trkpt>
<trkpt lon="-2.434593" lat="43.282165"><ele>433.0</ele></trkpt>
<trkpt lon="-2.434983" lat="43.282217"><ele>434.75</ele></trkpt>
<trkpt lon="-2.435130" lat="43.282186"><ele>435.25</ele></trkpt>
<trkpt lon="-2.435772" lat="43.281992"><ele>433.25</ele></trkpt>
<trkpt lon="-2.435864" lat="43.281923"><ele>432.25</ele></trkpt>
<trkpt lon="-2.435928" lat="43.281805"><ele>431.0</ele></trkpt>
<trkpt lon="-2.435985" lat="43.281725"><ele>430.25</ele></trkpt>
<trkpt lon="-2.436061" lat="43.281666"><ele>430.5</ele></trkpt>
<trkpt lon="-2.436260" lat="43.281603"><ele>429.75</ele></trkpt>
<trkpt lon="-2.436375" lat="43.281597"><ele>429.5</ele></trkpt>
<trkpt lon="-2.436500" lat="43.281607"><ele>428.5</ele></trkpt>
<trkpt lon="-2.436653" lat="43.281654"><ele>427.75</ele></trkpt>
<trkpt lon="-2.437028" lat="43.281837"><ele>425.25</ele></trkpt>
<trkpt lon="-2.437303" lat="43.281925"><ele>422.75</ele></trkpt>
<trkpt lon="-2.437416" lat="43.281977"><ele>421.25</ele></trkpt>
<trkpt lon="-2.437442" lat="43.282060"><ele>420.5</ele></trkpt>
<trkpt lon="-2.437532" lat="43.281964"><ele>419.0</ele></trkpt>
<trkpt lon="-2.437341" lat="43.281804"><ele>417.5</ele></trkpt>
<trkpt lon="-2.437224" lat="43.281672"><ele>414.0</ele></trkpt>
<trkpt lon="-2.437107" lat="43.281447"><ele>411.75</ele></trkpt>
<trkpt lon="-2.437079" lat="43.281267"><ele>409.0</ele></trkpt>
<trkpt lon="-2.437140" lat="43.281070"><ele>404.0</ele></trkpt>
<trkpt lon="-2.437528" lat="43.280359"><ele>380.5</ele></trkpt>
<trkpt lon="-2.437644" lat="43.280159"><ele>373.0</ele></trkpt>
<trkpt lon="-2.437770" lat="43.279999"><ele>368.0</ele></trkpt>
<trkpt lon="-2.437798" lat="43.279866"><ele>364.0</ele></trkpt>
<trkpt lon="-2.437887" lat="43.279730"><ele>359.5</ele></trkpt>
<trkpt lon="-2.438144" lat="43.279424"><ele>349.5</ele></trkpt>
<trkpt lon="-2.438378" lat="43.279237"><ele>342.25</ele></trkpt>
<trkpt lon="-2.438929" lat="43.278832"><ele>328.5</ele></trkpt>
<trkpt lon="-2.439321" lat="43.278506"><ele>319.75</ele></trkpt>
<trkpt lon="-2.439699" lat="43.278268"><ele>310.75</ele></trkpt>
<trkpt lon="-2.440026" lat="43.278007"><ele>300.25</ele></trkpt>
<trkpt lon="-2.440246" lat="43.277803"><ele>291.25</ele></trkpt>
<trkpt lon="-2.440460" lat="43.277578"><ele>278.5</ele></trkpt>
<trkpt lon="-2.440589" lat="43.277470"><ele>273.25</ele></trkpt>
<trkpt lon="-2.440661" lat="43.277367"><ele>267.25</ele></trkpt>
<trkpt lon="-2.440810" lat="43.277215"><ele>262.25</ele></trkpt>
<trkpt lon="-2.441226" lat="43.276840"><ele>243.5</ele></trkpt>
<trkpt lon="-2.441400" lat="43.276621"><ele>238.0</ele></trkpt>
<trkpt lon="-2.441672" lat="43.276468"><ele>231.0</ele></trkpt>
<trkpt lon="-2.442083" lat="43.276198"><ele>218.25</ele></trkpt>
<trkpt lon="-2.442159" lat="43.276073"><ele>217.25</ele></trkpt>
<trkpt lon="-2.442315" lat="43.275975"><ele>211.75</ele></trkpt>
<trkpt lon="-2.442589" lat="43.275827"><ele>207.75</ele></trkpt>
<trkpt lon="-2.442751" lat="43.275748"><ele>202.0</ele></trkpt>
<trkpt lon="-2.443204" lat="43.275194"><ele>186.5</ele></trkpt>
<trkpt lon="-2.443547" lat="43.274906"><ele>180.75</ele></trkpt>
<trkpt lon="-2.443596" lat="43.274844"><ele>181.0</ele></trkpt>
<trkpt lon="-2.443590" lat="43.274803"><ele>181.5</ele></trkpt>
<trkpt lon="-2.443518" lat="43.274787"><ele>180.75</ele></trkpt>
<trkpt lon="-2.443187" lat="43.274915"><ele>178.75</ele></trkpt>
<trkpt lon="-2.442775" lat="43.275009"><ele>171.25</ele></trkpt>
<trkpt lon="-2.442187" lat="43.275119"><ele>166.5</ele></trkpt>
<trkpt lon="-2.442044" lat="43.275140"><ele>165.75</ele></trkpt>
<trkpt lon="-2.441959" lat="43.275137"><ele>164.5</ele></trkpt>
<trkpt lon="-2.441933" lat="43.275105"><ele>162.75</ele></trkpt>
<trkpt lon="-2.441964" lat="43.275042"><ele>160.0</ele></trkpt>
<trkpt lon="-2.442097" lat="43.274981"><ele>159.25</ele></trkpt>
<trkpt lon="-2.442335" lat="43.274858"><ele>156.75</ele></trkpt>
<trkpt lon="-2.442654" lat="43.274631"><ele>153.25</ele></trkpt>
<trkpt lon="-2.442790" lat="43.274507"><ele>152.0</ele></trkpt>
<trkpt lon="-2.442929" lat="43.274327"><ele>150.75</ele></trkpt>
<trkpt lon="-2.443064" lat="43.274200"><ele>147.75</ele></trkpt>
<trkpt lon="-2.443243" lat="43.274077"><ele>146.0</ele></trkpt>
<trkpt lon="-2.443412" lat="43.274014"><ele>144.0</ele></trkpt>
<trkpt lon="-2.443816" lat="43.273921"><ele>136.75</ele></trkpt>
<trkpt lon="-2.443963" lat="43.273857"><ele>134.25</ele></trkpt>
<trkpt lon="-2.444105" lat="43.273765"><ele>134.0</ele></trkpt>
<trkpt lon="-2.444213" lat="43.273744"><ele>132.5</ele></trkpt>
<trkpt lon="-2.444321" lat="43.273761"><ele>131.5</ele></trkpt>
<trkpt lon="-2.444602" lat="43.273763"><ele>129.0</ele></trkpt>
<trkpt lon="-2.444430" lat="43.273246"><ele>129.0</ele></trkpt>
<trkpt lon="-2.444273" lat="43.272730"><ele>130.5</ele></trkpt>
<trkpt lon="-2.444228" lat="43.272442"><ele>131.75</ele></trkpt>
<trkpt lon="-2.444149" lat="43.271724"><ele>134.5</ele></trkpt>
<trkpt lon="-2.444093" lat="43.271333"><ele>138.5</ele></trkpt>
<trkpt lon="-2.444047" lat="43.271198"><ele>139.5</ele></trkpt>
<trkpt lon="-2.443979" lat="43.271086"><ele>140.25</ele></trkpt>
<trkpt lon="-2.443680" lat="43.270733"><ele>142.25</ele></trkpt>
<trkpt lon="-2.443627" lat="43.270649"><ele>141.75</ele></trkpt>
<trkpt lon="-2.443630" lat="43.270616"><ele>141.0</ele></trkpt>
<trkpt lon="-2.443599" lat="43.270563"><ele>140.25</ele></trkpt>
<trkpt lon="-2.443676" lat="43.270550"><ele>139.25</ele></trkpt>
<trkpt lon="-2.443788" lat="43.270591"><ele>138.25</ele></trkpt>
<trkpt lon="-2.443949" lat="43.270616"><ele>137.25</ele></trkpt>
<trkpt lon="-2.444113" lat="43.270602"><ele>137.5</ele></trkpt>
<trkpt lon="-2.444222" lat="43.270564"><ele>139.25</ele></trkpt>
<trkpt lon="-2.444328" lat="43.270507"><ele>142.5</ele></trkpt>
<trkpt lon="-2.444371" lat="43.270404"><ele>143.5</ele></trkpt>
<trkpt lon="-2.444479" lat="43.270291"><ele>144.5</ele></trkpt>
<trkpt lon="-2.444566" lat="43.270243"><ele>146.25</ele></trkpt>
<trkpt lon="-2.444581" lat="43.270235"><ele>146.75</ele></trkpt>
<trkpt lon="-2.444739" lat="43.270228"><ele>149.75</ele></trkpt>
<trkpt lon="-2.444837" lat="43.270195"><ele>152.25</ele></trkpt>
<trkpt lon="-2.444853" lat="43.270172"><ele>153.5</ele></trkpt>
<trkpt lon="-2.444867" lat="43.270121"><ele>155.75</ele></trkpt>
<trkpt lon="-2.444847" lat="43.269981"><ele>159.5</ele></trkpt>
<trkpt lon="-2.444883" lat="43.269921"><ele>158.75</ele></trkpt>
<trkpt lon="-2.444977" lat="43.269863"><ele>160.25</ele></trkpt>
<trkpt lon="-2.445281" lat="43.269757"><ele>168.75</ele></trkpt>
<trkpt lon="-2.445442" lat="43.269680"><ele>171.0</ele></trkpt>
<trkpt lon="-2.445804" lat="43.269547"><ele>179.0</ele></trkpt>
<trkpt lon="-2.445902" lat="43.269477"><ele>181.75</ele></trkpt>
<trkpt lon="-2.446088" lat="43.269322"><ele>182.0</ele></trkpt>
<trkpt lon="-2.446172" lat="43.269290"><ele>183.5</ele></trkpt>
<trkpt lon="-2.446287" lat="43.269278"><ele>186.0</ele></trkpt>
<trkpt lon="-2.446458" lat="43.269237"><ele>190.5</ele></trkpt>
<trkpt lon="-2.446590" lat="43.269197"><ele>195.0</ele></trkpt>
<trkpt lon="-2.446772" lat="43.269127"><ele>198.75</ele></trkpt>
<trkpt lon="-2.447104" lat="43.269029"><ele>204.25</ele></trkpt>
<trkpt lon="-2.447349" lat="43.268978"><ele>209.5</ele></trkpt>
<trkpt lon="-2.447542" lat="43.268959"><ele>214.0</ele></trkpt>
<trkpt lon="-2.447775" lat="43.268968"><ele>218.25</ele></trkpt>
<trkpt lon="-2.448078" lat="43.269045"><ele>222.75</ele></trkpt>
<trkpt lon="-2.448191" lat="43.269045"><ele>224.75</ele></trkpt>
<trkpt lon="-2.448282" lat="43.269026"><ele>225.5</ele></trkpt>
<trkpt lon="-2.448558" lat="43.268942"><ele>229.0</ele></trkpt>
<trkpt lon="-2.449387" lat="43.268684"><ele>243.25</ele></trkpt>
<trkpt lon="-2.449482" lat="43.268684"><ele>245.5</ele></trkpt>
<trkpt lon="-2.449535" lat="43.268696"><ele>246.5</ele></trkpt>
<trkpt lon="-2.449600" lat="43.268721"><ele>247.75</ele></trkpt>
<trkpt lon="-2.449677" lat="43.268747"><ele>249.75</ele></trkpt>
<trkpt lon="-2.450060" lat="43.268837"><ele>257.5</ele></trkpt>
<trkpt lon="-2.450278" lat="43.268879"><ele>260.5</ele></trkpt>
<trkpt lon="-2.450600" lat="43.268914"><ele>264.75</ele></trkpt>
<trkpt lon="-2.450732" lat="43.268912"><ele>266.25</ele></trkpt>
<trkpt lon="-2.450774" lat="43.268901"><ele>266.5</ele></trkpt>
<trkpt lon="-2.450846" lat="43.268884"><ele>267.0</ele></trkpt>
<trkpt lon="-2.451021" lat="43.268812"><ele>268.25</ele></trkpt>
<trkpt lon="-2.451580" lat="43.268540"><ele>274.5</ele></trkpt>
<trkpt lon="-2.451749" lat="43.268477"><ele>277.5</ele></trkpt>
<trkpt lon="-2.451890" lat="43.268443"><ele>280.0</ele></trkpt>
<trkpt lon="-2.451970" lat="43.268415"><ele>281.25</ele></trkpt>
<trkpt lon="-2.452633" lat="43.268085"><ele>289.0</ele></trkpt>
<trkpt lon="-2.452760" lat="43.267999"><ele>290.5</ele></trkpt>
<trkpt lon="-2.452821" lat="43.267939"><ele>290.75</ele></trkpt>
<trkpt lon="-2.452859" lat="43.267881"><ele>290.0</ele></trkpt>
<trkpt lon="-2.452921" lat="43.267848"><ele>291.0</ele></trkpt>
<trkpt lon="-2.453177" lat="43.267612"><ele>292.25</ele></trkpt>
<trkpt lon="-2.453503" lat="43.267420"><ele>294.25</ele></trkpt>
<trkpt lon="-2.453675" lat="43.267273"><ele>293.25</ele></trkpt>
<trkpt lon="-2.453795" lat="43.267183"><ele>292.75</ele></trkpt>
<trkpt lon="-2.453871" lat="43.267135"><ele>293.25</ele></trkpt>
<trkpt lon="-2.453960" lat="43.267091"><ele>294.75</ele></trkpt>
<trkpt lon="-2.453999" lat="43.267063"><ele>295.25</ele></trkpt>
<trkpt lon="-2.454012" lat="43.267005"><ele>294.5</ele></trkpt>
<trkpt lon="-2.453987" lat="43.266951"><ele>292.5</ele></trkpt>
<trkpt lon="-2.453962" lat="43.266863"><ele>291.25</ele></trkpt>
<trkpt lon="-2.454106" lat="43.266624"><ele>297.75</ele></trkpt>
<trkpt lon="-2.454211" lat="43.266545"><ele>301.5</ele></trkpt>
<trkpt lon="-2.454230" lat="43.266513"><ele>302.0</ele></trkpt>
<trkpt lon="-2.454324" lat="43.266444"><ele>304.0</ele></trkpt>
<trkpt lon="-2.454347" lat="43.266386"><ele>304.25</ele></trkpt>
<trkpt lon="-2.454298" lat="43.266348"><ele>305.75</ele></trkpt>
<trkpt lon="-2.454130" lat="43.266281"><ele>306.25</ele></trkpt>
<trkpt lon="-2.454065" lat="43.266213"><ele>309.0</ele></trkpt>
<trkpt lon="-2.454006" lat="43.266169"><ele>310.5</ele></trkpt>
<trkpt lon="-2.453682" lat="43.266097"><ele>313.75</ele></trkpt>
<trkpt lon="-2.453518" lat="43.266069"><ele>315.75</ele></trkpt>
<trkpt lon="-2.453433" lat="43.266035"><ele>316.75</ele></trkpt>
<trkpt lon="-2.453410" lat="43.265986"><ele>317.5</ele></trkpt>
<trkpt lon="-2.453415" lat="43.265953"><ele>318.0</ele></trkpt>
<trkpt lon="-2.453465" lat="43.265903"><ele>318.75</ele></trkpt>
<trkpt lon="-2.453543" lat="43.265860"><ele>319.75</ele></trkpt>
<trkpt lon="-2.453905" lat="43.265733"><ele>322.25</ele></trkpt>
<trkpt lon="-2.454084" lat="43.265704"><ele>324.5</ele></trkpt>
<trkpt lon="-2.454214" lat="43.265705"><ele>326.25</ele></trkpt>
<trkpt lon="-2.454367" lat="43.265726"><ele>329.25</ele></trkpt>
<trkpt lon="-2.454430" lat="43.265746"><ele>330.75</ele></trkpt>
<trkpt lon="-2.454512" lat="43.265728"><ele>332.25</ele></trkpt>
<trkpt lon="-2.454691" lat="43.265658"><ele>335.25</ele></trkpt>
<trkpt lon="-2.454982" lat="43.265570"><ele>341.5</ele></trkpt>
<trkpt lon="-2.455122" lat="43.265520"><ele>343.5</ele></trkpt>
<trkpt lon="-2.455234" lat="43.265490"><ele>345.25</ele></trkpt>
<trkpt lon="-2.455211" lat="43.265546"><ele>346.25</ele></trkpt>
<trkpt lon="-2.455201" lat="43.265619"><ele>346.0</ele></trkpt>
<trkpt lon="-2.455222" lat="43.265660"><ele>346.25</ele></trkpt>
<trkpt lon="-2.455270" lat="43.265685"><ele>346.75</ele></trkpt>
<trkpt lon="-2.455338" lat="43.265695"><ele>347.25</ele></trkpt>
<trkpt lon="-2.455380" lat="43.265689"><ele>347.75</ele></trkpt>
<trkpt lon="-2.455516" lat="43.265643"><ele>350.0</ele></trkpt>
<trkpt lon="-2.455624" lat="43.265633"><ele>351.75</ele></trkpt>
<trkpt lon="-2.455707" lat="43.265635"><ele>353.0</ele></trkpt>
<trkpt lon="-2.455776" lat="43.265612"><ele>354.5</ele></trkpt>
<trkpt lon="-2.455831" lat="43.265606"><ele>355.5</ele></trkpt>
<trkpt lon="-2.456109" lat="43.265723"><ele>361.5</ele></trkpt>
<trkpt lon="-2.456579" lat="43.266037"><ele>371.0</ele></trkpt>
<trkpt lon="-2.456903" lat="43.266194"><ele>375.75</ele></trkpt>
<trkpt lon="-2.456869" lat="43.266267"><ele>376.75</ele></trkpt>
<trkpt lon="-2.456858" lat="43.266317"><ele>377.5</ele></trkpt>
<trkpt lon="-2.457156" lat="43.266337"><ele>380.25</ele></trkpt>
<trkpt lon="-2.457699" lat="43.266433"><ele>387.5</ele></trkpt>
<trkpt lon="-2.458187" lat="43.266477"><ele>391.25</ele></trkpt>
<trkpt lon="-2.458330" lat="43.266501"><ele>393.0</ele></trkpt>
<trkpt lon="-2.458604" lat="43.266594"><ele>396.25</ele></trkpt>
<trkpt lon="-2.458726" lat="43.266663"><ele>398.0</ele></trkpt>
<trkpt lon="-2.458887" lat="43.266776"><ele>400.0</ele></trkpt>
<trkpt lon="-2.459437" lat="43.267393"><ele>405.75</ele></trkpt>
<trkpt lon="-2.459655" lat="43.267582"><ele>407.0</ele></trkpt>
<trkpt lon="-2.459705" lat="43.267645"><ele>407.5</ele></trkpt>
<trkpt lon="-2.459754" lat="43.267729"><ele>408.25</ele></trkpt>
<trkpt lon="-2.459811" lat="43.267827"><ele>408.0</ele></trkpt>
<trkpt lon="-2.459932" lat="43.267948"><ele>406.25</ele></trkpt>
<trkpt lon="-2.460241" lat="43.268090"><ele>404.25</ele></trkpt>
<trkpt lon="-2.460399" lat="43.268148"><ele>402.25</ele></trkpt>
<trkpt lon="-2.460631" lat="43.268168"><ele>401.5</ele></trkpt>
<trkpt lon="-2.461361" lat="43.268256"><ele>401.25</ele></trkpt>
<trkpt lon="-2.461816" lat="43.268253"><ele>400.0</ele></trkpt>
<trkpt lon="-2.462276" lat="43.268403"><ele>399.5</ele></trkpt>
<trkpt lon="-2.462509" lat="43.268511"><ele>399.75</ele></trkpt>
<trkpt lon="-2.462681" lat="43.268576"><ele>399.0</ele></trkpt>
<trkpt lon="-2.462904" lat="43.268636"><ele>398.25</ele></trkpt>
<trkpt lon="-2.463142" lat="43.268661"><ele>397.0</ele></trkpt>
<trkpt lon="-2.463411" lat="43.268699"><ele>394.5</ele></trkpt>
<trkpt lon="-2.463591" lat="43.268756"><ele>392.25</ele></trkpt>
<trkpt lon="-2.463788" lat="43.268837"><ele>389.5</ele></trkpt>
<trkpt lon="-2.464025" lat="43.268893"><ele>387.0</ele></trkpt>
<trkpt lon="-2.464564" lat="43.269017"><ele>381.75</ele></trkpt>
<trkpt lon="-2.464852" lat="43.269073"><ele>381.25</ele></trkpt>
<trkpt lon="-2.465174" lat="43.269118"><ele>380.75</ele></trkpt>
<trkpt lon="-2.465344" lat="43.269122"><ele>380.25</ele></trkpt>
<trkpt lon="-2.465529" lat="43.269115"><ele>380.25</ele></trkpt>
<trkpt lon="-2.465639" lat="43.269102"><ele>380.0</ele></trkpt>
<trkpt lon="-2.465835" lat="43.269046"><ele>380.0</ele></trkpt>
<trkpt lon="-2.466044" lat="43.268979"><ele>379.75</ele></trkpt>
<trkpt lon="-2.466248" lat="43.268897"><ele>378.75</ele></trkpt>
<trkpt lon="-2.466350" lat="43.268873"><ele>378.25</ele></trkpt>
<trkpt lon="-2.466826" lat="43.268828"><ele>377.5</ele></trkpt>
<trkpt lon="-2.467057" lat="43.268813"><ele>378.0</ele></trkpt>
<trkpt lon="-2.467250" lat="43.268810"><ele>378.25</ele></trkpt>
<trkpt lon="-2.467357" lat="43.268842"><ele>378.25</ele></trkpt>
<trkpt lon="-2.467469" lat="43.268902"><ele>378.5</ele></trkpt>
<trkpt lon="-2.467631" lat="43.269028"><ele>378.25</ele></trkpt>
<trkpt lon="-2.467719" lat="43.269120"><ele>378.5</ele></trkpt>
<trkpt lon="-2.468126" lat="43.269399"><ele>380.75</ele></trkpt>
<trkpt lon="-2.468214" lat="43.269470"><ele>381.5</ele></trkpt>
<trkpt lon="-2.468328" lat="43.269526"><ele>382.75</ele></trkpt>
<trkpt lon="-2.468498" lat="43.269563"><ele>383.5</ele></trkpt>
<trkpt lon="-2.468552" lat="43.269581"><ele>383.75</ele></trkpt>
<trkpt lon="-2.468651" lat="43.269626"><ele>383.75</ele></trkpt>
<trkpt lon="-2.468820" lat="43.269724"><ele>383.75</ele></trkpt>
<trkpt lon="-2.468931" lat="43.269782"><ele>383.5</ele></trkpt>
<trkpt lon="-2.469083" lat="43.269836"><ele>383.25</ele></trkpt>
<trkpt lon="-2.469308" lat="43.269886"><ele>383.75</ele></trkpt>
<trkpt lon="-2.469858" lat="43.269971"><ele>389.25</ele></trkpt>
<trkpt lon="-2.470145" lat="43.270003"><ele>392.25</ele></trkpt>
<trkpt lon="-2.470532" lat="43.270009"><ele>393.5</ele></trkpt>
<trkpt lon="-2.470644" lat="43.270015"><ele>393.25</ele></trkpt>
<trkpt lon="-2.470800" lat="43.270038"><ele>392.25</ele></trkpt>
<trkpt lon="-2.471886" lat="43.270329"><ele>387.5</ele></trkpt>
<trkpt lon="-2.472227" lat="43.270449"><ele>386.75</ele></trkpt>
<trkpt lon="-2.472334" lat="43.270521"><ele>388.0</ele></trkpt>
<trkpt lon="-2.472561" lat="43.270799"><ele>388.25</ele></trkpt>
<trkpt lon="-2.472635" lat="43.270863"><ele>388.5</ele></trkpt>
<trkpt lon="-2.472812" lat="43.270983"><ele>387.75</ele></trkpt>
<trkpt lon="-2.473101" lat="43.271110"><ele>389.0</ele></trkpt>
<trkpt lon="-2.473986" lat="43.271605"><ele>387.0</ele></trkpt>
<trkpt lon="-2.474284" lat="43.271700"><ele>387.0</ele></trkpt>
<trkpt lon="-2.474566" lat="43.271772"><ele>387.5</ele></trkpt>
<trkpt lon="-2.475077" lat="43.271854"><ele>389.0</ele></trkpt>
<trkpt lon="-2.475298" lat="43.271860"><ele>389.5</ele></trkpt>
<trkpt lon="-2.475488" lat="43.271897"><ele>389.25</ele></trkpt>
<trkpt lon="-2.475574" lat="43.271939"><ele>389.5</ele></trkpt>
<trkpt lon="-2.475633" lat="43.272001"><ele>388.75</ele></trkpt>
<trkpt lon="-2.475809" lat="43.272116"><ele>385.25</ele></trkpt>
<trkpt lon="-2.475941" lat="43.272247"><ele>381.5</ele></trkpt>
<trkpt lon="-2.476033" lat="43.272382"><ele>380.0</ele></trkpt>
<trkpt lon="-2.476148" lat="43.272469"><ele>377.5</ele></trkpt>
<trkpt lon="-2.476305" lat="43.272560"><ele>374.5</ele></trkpt>
<trkpt lon="-2.476404" lat="43.272605"><ele>373.0</ele></trkpt>
<trkpt lon="-2.476611" lat="43.272682"><ele>369.0</ele></trkpt>
<trkpt lon="-2.476850" lat="43.272732"><ele>365.0</ele></trkpt>
<trkpt lon="-2.476936" lat="43.272739"><ele>363.75</ele></trkpt>
<trkpt lon="-2.477062" lat="43.272710"><ele>362.75</ele></trkpt>
<trkpt lon="-2.477236" lat="43.272639"><ele>359.5</ele></trkpt>
<trkpt lon="-2.477484" lat="43.272504"><ele>355.0</ele></trkpt>
<trkpt lon="-2.477781" lat="43.272311"><ele>351.0</ele></trkpt>
<trkpt lon="-2.477876" lat="43.272262"><ele>349.5</ele></trkpt>
<trkpt lon="-2.478308" lat="43.272095"><ele>344.0</ele></trkpt>
<trkpt lon="-2.478424" lat="43.272021"><ele>341.0</ele></trkpt>
<trkpt lon="-2.478659" lat="43.271810"><ele>337.25</ele></trkpt>
<trkpt lon="-2.478820" lat="43.271691"><ele>337.25</ele></trkpt>
<trkpt lon="-2.479081" lat="43.271484"><ele>331.75</ele></trkpt>
<trkpt lon="-2.479300" lat="43.271422"><ele>331.5</ele></trkpt>
<trkpt lon="-2.479782" lat="43.271270"><ele>327.0</ele></trkpt>
<trkpt lon="-2.479909" lat="43.271185"><ele>325.75</ele></trkpt>
<trkpt lon="-2.480072" lat="43.271057"><ele>323.5</ele></trkpt>
<trkpt lon="-2.480279" lat="43.270854"><ele>319.25</ele></trkpt>
<trkpt lon="-2.480495" lat="43.270702"><ele>317.5</ele></trkpt>
<trkpt lon="-2.480762" lat="43.270604"><ele>313.25</ele></trkpt>
<trkpt lon="-2.481098" lat="43.270541"><ele>308.25</ele></trkpt>
<trkpt lon="-2.481475" lat="43.270516"><ele>305.75</ele></trkpt>
<trkpt lon="-2.482168" lat="43.270579"><ele>301.5</ele></trkpt>
<trkpt lon="-2.482319" lat="43.270583"><ele>301.0</ele></trkpt>
<trkpt lon="-2.482504" lat="43.270541"><ele>302.5</ele></trkpt>
<trkpt lon="-2.482720" lat="43.270437"><ele>302.25</ele></trkpt>
<trkpt lon="-2.482946" lat="43.270350"><ele>299.75</ele></trkpt>
<trkpt lon="-2.483061" lat="43.270289"><ele>299.25</ele></trkpt>
<trkpt lon="-2.483251" lat="43.270249"><ele>300.75</ele></trkpt>
<trkpt lon="-2.483528" lat="43.270280"><ele>298.5</ele></trkpt>
<trkpt lon="-2.483857" lat="43.270287"><ele>297.25</ele></trkpt>
<trkpt lon="-2.484213" lat="43.270263"><ele>297.25</ele></trkpt>
<trkpt lon="-2.484376" lat="43.270241"><ele>297.25</ele></trkpt>
<trkpt lon="-2.484480" lat="43.270214"><ele>297.25</ele></trkpt>
<trkpt lon="-2.484698" lat="43.270073"><ele>295.25</ele></trkpt>
<trkpt lon="-2.485044" lat="43.270026"><ele>286.75</ele></trkpt>
<trkpt lon="-2.485336" lat="43.270057"><ele>281.75</ele></trkpt>
<trkpt lon="-2.485533" lat="43.270088"><ele>278.0</ele></trkpt>
<trkpt lon="-2.485706" lat="43.270163"><ele>276.25</ele></trkpt>
<trkpt lon="-2.485948" lat="43.270241"><ele>273.25</ele></trkpt>
<trkpt lon="-2.486077" lat="43.270266"><ele>270.5</ele></trkpt>
<trkpt lon="-2.486282" lat="43.270361"><ele>268.75</ele></trkpt>
<trkpt lon="-2.486429" lat="43.270415"><ele>267.25</ele></trkpt>
<trkpt lon="-2.486641" lat="43.270439"><ele>262.5</ele></trkpt>
<trkpt lon="-2.486932" lat="43.270416"><ele>256.0</ele></trkpt>
<trkpt lon="-2.487202" lat="43.270382"><ele>251.75</ele></trkpt>
<trkpt lon="-2.487647" lat="43.270304"><ele>242.5</ele></trkpt>
<trkpt lon="-2.487998" lat="43.270204"><ele>234.0</ele></trkpt>
<trkpt lon="-2.488290" lat="43.270135"><ele>228.0</ele></trkpt>
<trkpt lon="-2.488582" lat="43.270032"><ele>220.0</ele></trkpt>
<trkpt lon="-2.489033" lat="43.269900"><ele>205.5</ele></trkpt>
<trkpt lon="-2.489181" lat="43.269831"><ele>201.25</ele></trkpt>
<trkpt lon="-2.489211" lat="43.269792"><ele>200.75</ele></trkpt>
<trkpt lon="-2.489252" lat="43.269757"><ele>200.25</ele></trkpt>
<trkpt lon="-2.489395" lat="43.269694"><ele>198.5</ele></trkpt>
<trkpt lon="-2.489639" lat="43.269594"><ele>195.25</ele></trkpt>
<trkpt lon="-2.489872" lat="43.269530"><ele>193.25</ele></trkpt>
<trkpt lon="-2.490040" lat="43.269506"><ele>191.75</ele></trkpt>
<trkpt lon="-2.490081" lat="43.269500"><ele>191.5</ele></trkpt>
<trkpt lon="-2.490167" lat="43.269465"><ele>191.25</ele></trkpt>
<trkpt lon="-2.490215" lat="43.269413"><ele>190.5</ele></trkpt>
<trkpt lon="-2.490250" lat="43.269317"><ele>188.0</ele></trkpt>
<trkpt lon="-2.490277" lat="43.269184"><ele>185.25</ele></trkpt>
<trkpt lon="-2.490323" lat="43.269057"><ele>181.5</ele></trkpt>
<trkpt lon="-2.490360" lat="43.269004"><ele>180.0</ele></trkpt>
<trkpt lon="-2.490529" lat="43.268840"><ele>174.75</ele></trkpt>
<trkpt lon="-2.490594" lat="43.268752"><ele>171.0</ele></trkpt>
<trkpt lon="-2.490602" lat="43.268649"><ele>167.0</ele></trkpt>
<trkpt lon="-2.490569" lat="43.268479"><ele>163.0</ele></trkpt>
<trkpt lon="-2.490556" lat="43.268321"><ele>159.75</ele></trkpt>
<trkpt lon="-2.490559" lat="43.268262"><ele>158.5</ele></trkpt>
<trkpt lon="-2.490508" lat="43.268172"><ele>156.75</ele></trkpt>
<trkpt lon="-2.490395" lat="43.268057"><ele>153.75</ele></trkpt>
<trkpt lon="-2.490280" lat="43.268001"><ele>150.75</ele></trkpt>
<trkpt lon="-2.490164" lat="43.268008"><ele>149.25</ele></trkpt>
<trkpt lon="-2.489826" lat="43.268082"><ele>147.25</ele></trkpt>
<trkpt lon="-2.489542" lat="43.268090"><ele>140.75</ele></trkpt>
<trkpt lon="-2.489370" lat="43.268142"><ele>139.0</ele></trkpt>
<trkpt lon="-2.489340" lat="43.268146"><ele>138.75</ele></trkpt>
<trkpt lon="-2.489279" lat="43.268124"><ele>136.5</ele></trkpt>
<trkpt lon="-2.489438" lat="43.267980"><ele>132.25</ele></trkpt>
<trkpt lon="-2.489519" lat="43.267882"><ele>129.75</ele></trkpt>
<trkpt lon="-2.489607" lat="43.267819"><ele>129.0</ele></trkpt>
<trkpt lon="-2.489959" lat="43.267647"><ele>125.75</ele></trkpt>
<trkpt lon="-2.490291" lat="43.267404"><ele>116.25</ele></trkpt>
<trkpt lon="-2.490545" lat="43.267281"><ele>112.25</ele></trkpt>
<trkpt lon="-2.490645" lat="43.267198"><ele>111.0</ele></trkpt>
<trkpt lon="-2.490719" lat="43.267071"><ele>108.25</ele></trkpt>
<trkpt lon="-2.490857" lat="43.266980"><ele>105.25</ele></trkpt>
<trkpt lon="-2.491004" lat="43.266901"><ele>105.0</ele></trkpt>
<trkpt lon="-2.491161" lat="43.266839"><ele>104.25</ele></trkpt>
<trkpt lon="-2.491395" lat="43.266789"><ele>101.25</ele></trkpt>
<trkpt lon="-2.491610" lat="43.266776"><ele>98.75</ele></trkpt>
<trkpt lon="-2.491773" lat="43.266778"><ele>97.0</ele></trkpt>
<trkpt lon="-2.491907" lat="43.266770"><ele>95.5</ele></trkpt>
<trkpt lon="-2.492184" lat="43.266750"><ele>93.25</ele></trkpt>
<trkpt lon="-2.492529" lat="43.266766"><ele>90.75</ele></trkpt>
<trkpt lon="-2.492728" lat="43.266789"><ele>90.0</ele></trkpt>
<trkpt lon="-2.492931" lat="43.266835"><ele>89.0</ele></trkpt>
<trkpt lon="-2.493067" lat="43.266885"><ele>88.0</ele></trkpt>
<trkpt lon="-2.493184" lat="43.266939"><ele>87.5</ele></trkpt>
<trkpt lon="-2.493327" lat="43.267028"><ele>86.5</ele></trkpt>
<trkpt lon="-2.493379" lat="43.267054"><ele>86.5</ele></trkpt>
<trkpt lon="-2.493658" lat="43.267083"><ele>85.5</ele></trkpt>
<trkpt lon="-2.494160" lat="43.267135"><ele>83.25</ele></trkpt>
<trkpt lon="-2.494474" lat="43.267164"><ele>82.25</ele></trkpt>
<trkpt lon="-2.494740" lat="43.267190"><ele>81.0</ele></trkpt>
<trkpt lon="-2.495017" lat="43.267217"><ele>80.0</ele></trkpt>
<trkpt lon="-2.495351" lat="43.267264"><ele>79.25</ele></trkpt>
<trkpt lon="-2.495439" lat="43.267272"><ele>78.75</ele></trkpt>
<trkpt lon="-2.495614" lat="43.267288"><ele>78.25</ele></trkpt>
<trkpt lon="-2.495938" lat="43.267318"><ele>79.5</ele></trkpt>
<trkpt lon="-2.496654" lat="43.267328"><ele>80.25</ele></trkpt>
<trkpt lon="-2.496723" lat="43.267251"><ele>80.0</ele></trkpt>
<trkpt lon="-2.496787" lat="43.267220"><ele>80.0</ele></trkpt>
<trkpt lon="-2.496849" lat="43.267205"><ele>80.0</ele></trkpt>
<trkpt lon="-2.496976" lat="43.267170"><ele>80.0</ele></trkpt>
<trkpt lon="-2.496950" lat="43.267004"><ele>80.5</ele></trkpt>
  </trkseg></trk></gpx>
