<?xml version="1.0" encoding="UTF-8"?>
<gpx version="1.1" creator="compostel-brouter" xmlns="http://www.topografix.com/GPX/1/1">
  <metadata><name>ES-14-Santona</name></metadata>
  <trk><name>ES-14-Santona</name><trkseg>
<trkpt lon="-3.409989" lat="43.414954"><ele>49.5</ele></trkpt>
<trkpt lon="-3.410075" lat="43.414942"><ele>50.25</ele></trkpt>
<trkpt lon="-3.410713" lat="43.414833"><ele>50.5</ele></trkpt>
<trkpt lon="-3.410937" lat="43.414786"><ele>53.0</ele></trkpt>
<trkpt lon="-3.411004" lat="43.413906"><ele>36.0</ele></trkpt>
<trkpt lon="-3.411025" lat="43.413529"><ele>32.5</ele></trkpt>
<trkpt lon="-3.411017" lat="43.413460"><ele>32.25</ele></trkpt>
<trkpt lon="-3.410929" lat="43.413439"><ele>31.75</ele></trkpt>
<trkpt lon="-3.410858" lat="43.413402"><ele>31.5</ele></trkpt>
<trkpt lon="-3.410820" lat="43.413360"><ele>31.0</ele></trkpt>
<trkpt lon="-3.410802" lat="43.413297"><ele>30.25</ele></trkpt>
<trkpt lon="-3.410826" lat="43.413233"><ele>29.75</ele></trkpt>
<trkpt lon="-3.410901" lat="43.413168"><ele>29.25</ele></trkpt>
<trkpt lon="-3.410983" lat="43.413120"><ele>28.75</ele></trkpt>
<trkpt lon="-3.410992" lat="43.413073"><ele>28.0</ele></trkpt>
<trkpt lon="-3.411129" lat="43.413000"><ele>26.75</ele></trkpt>
<trkpt lon="-3.411073" lat="43.412934"><ele>25.25</ele></trkpt>
<trkpt lon="-3.411074" lat="43.412709"><ele>20.75</ele></trkpt>
<trkpt lon="-3.411686" lat="43.412632"><ele>18.75</ele></trkpt>
<trkpt lon="-3.412136" lat="43.412619"><ele>14.25</ele></trkpt>
<trkpt lon="-3.412137" lat="43.412536"><ele>14.0</ele></trkpt>
<trkpt lon="-3.412157" lat="43.412349"><ele>12.5</ele></trkpt>
<trkpt lon="-3.412178" lat="43.412269"><ele>11.75</ele></trkpt>
<trkpt lon="-3.412181" lat="43.412259"><ele>11.5</ele></trkpt>
<trkpt lon="-3.412200" lat="43.412067"><ele>11.0</ele></trkpt>
<trkpt lon="-3.412259" lat="43.411814"><ele>9.75</ele></trkpt>
<trkpt lon="-3.412327" lat="43.411538"><ele>7.0</ele></trkpt>
<trkpt lon="-3.412343" lat="43.411422"><ele>5.75</ele></trkpt>
<trkpt lon="-3.412342" lat="43.411376"><ele>5.5</ele></trkpt>
<trkpt lon="-3.412342" lat="43.411272"><ele>5.0</ele></trkpt>
<trkpt lon="-3.412527" lat="43.411080"><ele>4.0</ele></trkpt>
<trkpt lon="-3.412495" lat="43.411050"><ele>4.0</ele></trkpt>
<trkpt lon="-3.412506" lat="43.411043"><ele>4.0</ele></trkpt>
<trkpt lon="-3.412680" lat="43.410951"><ele>4.0</ele></trkpt>
<trkpt lon="-3.412756" lat="43.410934"><ele>4.0</ele></trkpt>
<trkpt lon="-3.412852" lat="43.410933"><ele>4.0</ele></trkpt>
<trkpt lon="-3.413026" lat="43.410938"><ele>4.0</ele></trkpt>
<trkpt lon="-3.413804" lat="43.410953"><ele>4.0</ele></trkpt>
<trkpt lon="-3.413826" lat="43.410953"><ele>4.0</ele></trkpt>
<trkpt lon="-3.413975" lat="43.410951"><ele>4.0</ele></trkpt>
<trkpt lon="-3.414379" lat="43.410955"><ele>4.0</ele></trkpt>
<trkpt lon="-3.414504" lat="43.410958"><ele>4.0</ele></trkpt>
<trkpt lon="-3.415089" lat="43.410973"><ele>4.0</ele></trkpt>
<trkpt lon="-3.415612" lat="43.410987"><ele>3.75</ele></trkpt>
<trkpt lon="-3.415763" lat="43.410993"><ele>3.5</ele></trkpt>
<trkpt lon="-3.416064" lat="43.411000"><ele>3.5</ele></trkpt>
<trkpt lon="-3.416538" lat="43.411009"><ele>3.5</ele></trkpt>
<trkpt lon="-3.417395" lat="43.411026"><ele>3.25</ele></trkpt>
<trkpt lon="-3.417590" lat="43.411003"><ele>3.5</ele></trkpt>
<trkpt lon="-3.418031" lat="43.410914"><ele>3.0</ele></trkpt>
<trkpt lon="-3.418423" lat="43.410837"><ele>3.0</ele></trkpt>
<trkpt lon="-3.419173" lat="43.410697"><ele>4.0</ele></trkpt>
<trkpt lon="-3.419309" lat="43.410672"><ele>4.0</ele></trkpt>
<trkpt lon="-3.420369" lat="43.410479"><ele>3.75</ele></trkpt>
<trkpt lon="-3.420573" lat="43.410442"><ele>3.5</ele></trkpt>
<trkpt lon="-3.421508" lat="43.410269"><ele>3.25</ele></trkpt>
<trkpt lon="-3.422442" lat="43.410099"><ele>3.25</ele></trkpt>
<trkpt lon="-3.422485" lat="43.410155"><ele>3.5</ele></trkpt>
<trkpt lon="-3.422459" lat="43.410160"><ele>3.5</ele></trkpt>
<trkpt lon="-3.422521" lat="43.410394"><ele>4.0</ele></trkpt>
<trkpt lon="-3.423847" lat="43.410429"><ele>3.5</ele></trkpt>
<trkpt lon="-3.425091" lat="43.410456"><ele>4.0</ele></trkpt>
<trkpt lon="-3.425122" lat="43.410457"><ele>4.0</ele></trkpt>
<trkpt lon="-3.425151" lat="43.410607"><ele>4.0</ele></trkpt>
<trkpt lon="-3.425181" lat="43.410712"><ele>4.0</ele></trkpt>
<trkpt lon="-3.425213" lat="43.410743"><ele>4.0</ele></trkpt>
<trkpt lon="-3.425274" lat="43.410775"><ele>4.0</ele></trkpt>
<trkpt lon="-3.425332" lat="43.410781"><ele>4.0</ele></trkpt>
<trkpt lon="-3.425674" lat="43.410791"><ele>4.0</ele></trkpt>
<trkpt lon="-3.426272" lat="43.410809"><ele>3.5</ele></trkpt>
<trkpt lon="-3.426347" lat="43.410812"><ele>3.75</ele></trkpt>
<trkpt lon="-3.426599" lat="43.410823"><ele>4.0</ele></trkpt>
<trkpt lon="-3.427570" lat="43.410856"><ele>3.75</ele></trkpt>
<trkpt lon="-3.428172" lat="43.410875"><ele>4.0</ele></trkpt>
<trkpt lon="-3.428261" lat="43.410862"><ele>4.0</ele></trkpt>
<trkpt lon="-3.428328" lat="43.410827"><ele>4.0</ele></trkpt>
<trkpt lon="-3.428352" lat="43.410800"><ele>3.75</ele></trkpt>
<trkpt lon="-3.428367" lat="43.410766"><ele>3.75</ele></trkpt>
<trkpt lon="-3.428394" lat="43.410635"><ele>3.75</ele></trkpt>
<trkpt lon="-3.428612" lat="43.410643"><ele>3.25</ele></trkpt>
<trkpt lon="-3.428621" lat="43.410644"><ele>3.25</ele></trkpt>
<trkpt lon="-3.428782" lat="43.410650"><ele>3.5</ele></trkpt>
<trkpt lon="-3.428811" lat="43.410663"><ele>3.75</ele></trkpt>
<trkpt lon="-3.428820" lat="43.410683"><ele>3.75</ele></trkpt>
<trkpt lon="-3.428821" lat="43.410764"><ele>3.5</ele></trkpt>
<trkpt lon="-3.428834" lat="43.410795"><ele>3.5</ele></trkpt>
<trkpt lon="-3.428856" lat="43.410829"><ele>3.75</ele></trkpt>
<trkpt lon="-3.428884" lat="43.410854"><ele>3.75</ele></trkpt>
<trkpt lon="-3.428922" lat="43.410872"><ele>4.0</ele></trkpt>
<trkpt lon="-3.428971" lat="43.410883"><ele>4.0</ele></trkpt>
<trkpt lon="-3.429210" lat="43.410899"><ele>4.25</ele></trkpt>
<trkpt lon="-3.429257" lat="43.410910"><ele>4.25</ele></trkpt>
<trkpt lon="-3.429933" lat="43.411164"><ele>4.0</ele></trkpt>
<trkpt lon="-3.430948" lat="43.411546"><ele>4.0</ele></trkpt>
<trkpt lon="-3.432273" lat="43.412178"><ele>4.0</ele></trkpt>
<trkpt lon="-3.432901" lat="43.412516"><ele>4.0</ele></trkpt>
<trkpt lon="-3.433504" lat="43.412991"><ele>4.0</ele></trkpt>
<trkpt lon="-3.434236" lat="43.413550"><ele>4.0</ele></trkpt>
<trkpt lon="-3.435707" lat="43.414673"><ele>4.0</ele></trkpt>
<trkpt lon="-3.435905" lat="43.414822"><ele>4.0</ele></trkpt>
<trkpt lon="-3.436571" lat="43.415327"><ele>4.0</ele></trkpt>
<trkpt lon="-3.437483" lat="43.416025"><ele>4.0</ele></trkpt>
<trkpt lon="-3.437632" lat="43.416141"><ele>4.0</ele></trkpt>
<trkpt lon="-3.438399" lat="43.416739"><ele>4.25</ele></trkpt>
<trkpt lon="-3.438686" lat="43.417001"><ele>4.25</ele></trkpt>
<trkpt lon="-3.438703" lat="43.417017"><ele>4.25</ele></trkpt>
<trkpt lon="-3.438719" lat="43.417033"><ele>4.5</ele></trkpt>
<trkpt lon="-3.438763" lat="43.417074"><ele>4.5</ele></trkpt>
<trkpt lon="-3.438774" lat="43.417087"><ele>4.5</ele></trkpt>
<trkpt lon="-3.438794" lat="43.417106"><ele>4.75</ele></trkpt>
<trkpt lon="-3.439183" lat="43.417488"><ele>4.75</ele></trkpt>
<trkpt lon="-3.439205" lat="43.417509"><ele>4.75</ele></trkpt>
<trkpt lon="-3.439208" lat="43.417512"><ele>4.75</ele></trkpt>
<trkpt lon="-3.439239" lat="43.417542"><ele>4.5</ele></trkpt>
<trkpt lon="-3.439278" lat="43.417581"><ele>4.5</ele></trkpt>
<trkpt lon="-3.439294" lat="43.417597"><ele>4.5</ele></trkpt>
<trkpt lon="-3.440633" lat="43.418951"><ele>4.0</ele></trkpt>
<trkpt lon="-3.441368" lat="43.419688"><ele>4.0</ele></trkpt>
<trkpt lon="-3.442411" lat="43.420724"><ele>4.0</ele></trkpt>
<trkpt lon="-3.442428" lat="43.420742"><ele>4.0</ele></trkpt>
<trkpt lon="-3.442792" lat="43.421100"><ele>4.0</ele></trkpt>
<trkpt lon="-3.443112" lat="43.421460"><ele>4.0</ele></trkpt>
<trkpt lon="-3.443197" lat="43.421527"><ele>4.0</ele></trkpt>
<trkpt lon="-3.444097" lat="43.422415"><ele>4.0</ele></trkpt>
<trkpt lon="-3.444156" lat="43.422444"><ele>4.0</ele></trkpt>
<trkpt lon="-3.444506" lat="43.422566"><ele>4.0</ele></trkpt>
<trkpt lon="-3.444587" lat="43.422611"><ele>4.0</ele></trkpt>
<trkpt lon="-3.444612" lat="43.422634"><ele>4.0</ele></trkpt>
<trkpt lon="-3.445020" lat="43.423535"><ele>4.0</ele></trkpt>
<trkpt lon="-3.445526" lat="43.424684"><ele>4.0</ele></trkpt>
<trkpt lon="-3.445885" lat="43.425505"><ele>4.0</ele></trkpt>
<trkpt lon="-3.446408" lat="43.426695"><ele>4.0</ele></trkpt>
<trkpt lon="-3.446416" lat="43.426712"><ele>4.0</ele></trkpt>
<trkpt lon="-3.446422" lat="43.426725"><ele>4.0</ele></trkpt>
<trkpt lon="-3.446429" lat="43.426741"><ele>4.0</ele></trkpt>
<trkpt lon="-3.446450" lat="43.426791"><ele>4.0</ele></trkpt>
<trkpt lon="-3.446504" lat="43.426922"><ele>4.0</ele></trkpt>
<trkpt lon="-3.446589" lat="43.427111"><ele>4.0</ele></trkpt>
<trkpt lon="-3.446779" lat="43.427538"><ele>4.0</ele></trkpt>
<trkpt lon="-3.446827" lat="43.427651"><ele>4.0</ele></trkpt>
<trkpt lon="-3.446901" lat="43.427826"><ele>4.0</ele></trkpt>
<trkpt lon="-3.446912" lat="43.427855"><ele>4.0</ele></trkpt>
<trkpt lon="-3.446924" lat="43.427881"><ele>4.0</ele></trkpt>
<trkpt lon="-3.447018" lat="43.428095"><ele>3.75</ele></trkpt>
<trkpt lon="-3.447346" lat="43.428837"><ele>4.0</ele></trkpt>
<trkpt lon="-3.447409" lat="43.428979"><ele>4.25</ele></trkpt>
<trkpt lon="-3.447441" lat="43.429040"><ele>4.5</ele></trkpt>
<trkpt lon="-3.447470" lat="43.429049"><ele>4.5</ele></trkpt>
<trkpt lon="-3.447782" lat="43.428982"><ele>4.25</ele></trkpt>
<trkpt lon="-3.448433" lat="43.428835"><ele>4.0</ele></trkpt>
<trkpt lon="-3.448517" lat="43.428817"><ele>4.0</ele></trkpt>
<trkpt lon="-3.448539" lat="43.428837"><ele>4.0</ele></trkpt>
<trkpt lon="-3.448564" lat="43.428847"><ele>4.0</ele></trkpt>
<trkpt lon="-3.448616" lat="43.428849"><ele>3.75</ele></trkpt>
<trkpt lon="-3.448635" lat="43.428901"><ele>3.75</ele></trkpt>
<trkpt lon="-3.448794" lat="43.429257"><ele>3.75</ele></trkpt>
<trkpt lon="-3.449850" lat="43.431607"><ele>4.0</ele></trkpt>
<trkpt lon="-3.449973" lat="43.431878"><ele>4.0</ele></trkpt>
<trkpt lon="-3.450043" lat="43.432032"><ele>4.0</ele></trkpt>
<trkpt lon="-3.450374" lat="43.432774"><ele>4.25</ele></trkpt>
<trkpt lon="-3.450394" lat="43.432814"><ele>4.25</ele></trkpt>
<trkpt lon="-3.450414" lat="43.432853"><ele>4.25</ele></trkpt>
<trkpt lon="-3.450492" lat="43.433008"><ele>4.0</ele></trkpt>
<trkpt lon="-3.450565" lat="43.433151"><ele>4.0</ele></trkpt>
<trkpt lon="-3.450586" lat="43.433194"><ele>4.0</ele></trkpt>
<trkpt lon="-3.450606" lat="43.433239"><ele>4.0</ele></trkpt>
<trkpt lon="-3.450603" lat="43.433261"><ele>4.0</ele></trkpt>
<trkpt lon="-3.450699" lat="43.433416"><ele>4.25</ele></trkpt>
<trkpt lon="-3.450887" lat="43.433605"><ele>4.0</ele></trkpt>
<trkpt lon="-3.450969" lat="43.433647"><ele>4.0</ele></trkpt>
<trkpt lon="-3.451156" lat="43.433708"><ele>3.75</ele></trkpt>
<trkpt lon="-3.451215" lat="43.433718"><ele>3.75</ele></trkpt>
<trkpt lon="-3.451334" lat="43.433717"><ele>3.75</ele></trkpt>
<trkpt lon="-3.451415" lat="43.433726"><ele>3.5</ele></trkpt>
<trkpt lon="-3.451685" lat="43.433761"><ele>3.5</ele></trkpt>
<trkpt lon="-3.452082" lat="43.433882"><ele>3.5</ele></trkpt>
<trkpt lon="-3.452171" lat="43.433897"><ele>3.5</ele></trkpt>
<trkpt lon="-3.452803" lat="43.434070"><ele>3.5</ele></trkpt>
<trkpt lon="-3.453586" lat="43.434525"><ele>3.25</ele></trkpt>
<trkpt lon="-3.455011" lat="43.438995"><ele>2.5</ele></trkpt>
<trkpt lon="-3.455068" lat="43.439432"><ele>2.25</ele></trkpt>
<trkpt lon="-3.455397" lat="43.439400"><ele>2.5</ele></trkpt>
<trkpt lon="-3.455414" lat="43.439517"><ele>3.25</ele></trkpt>
<trkpt lon="-3.455477" lat="43.439525"><ele>3.25</ele></trkpt>
<trkpt lon="-3.455532" lat="43.439547"><ele>3.25</ele></trkpt>
<trkpt lon="-3.455574" lat="43.439582"><ele>3.25</ele></trkpt>
<trkpt lon="-3.455598" lat="43.439624"><ele>3.5</ele></trkpt>
<trkpt lon="-3.455602" lat="43.439670"><ele>3.75</ele></trkpt>
<trkpt lon="-3.455584" lat="43.439715"><ele>3.75</ele></trkpt>
<trkpt lon="-3.455548" lat="43.439752"><ele>4.0</ele></trkpt>
<trkpt lon="-3.455507" lat="43.439775"><ele>4.0</ele></trkpt>
<trkpt lon="-3.455460" lat="43.439788"><ele>4.0</ele></trkpt>
<trkpt lon="-3.455410" lat="43.439793"><ele>4.0</ele></trkpt>
<trkpt lon="-3.455413" lat="43.440042"><ele>4.0</ele></trkpt>
<trkpt lon="-3.455441" lat="43.440447"><ele>4.5</ele></trkpt>
<trkpt lon="-3.455463" lat="43.440771"><ele>5.0</ele></trkpt>
<trkpt lon="-3.455480" lat="43.441026"><ele>5.0</ele></trkpt>
<trkpt lon="-3.456542" lat="43.441081"><ele>4.25</ele></trkpt>
<trkpt lon="-3.456993" lat="43.441099"><ele>4.0</ele></trkpt>
  </trkseg></trk></gpx>
