<?xml version="1.0" encoding="UTF-8"?>
<gpx version="1.1" creator="compostel-brouter" xmlns="http://www.topografix.com/GPX/1/1">
  <metadata><name>ES-11-Portugalete</name></metadata>
  <trk><name>ES-11-Portugalete</name><trkseg>
<trkpt lon="-2.935023" lat="43.262919"><ele>17.0</ele></trkpt>
<trkpt lon="-2.935052" lat="43.262924"><ele>17.0</ele></trkpt>
<trkpt lon="-2.935083" lat="43.262941"><ele>17.0</ele></trkpt>
<trkpt lon="-2.935106" lat="43.262964"><ele>17.0</ele></trkpt>
<trkpt lon="-2.935373" lat="43.262843"><ele>17.0</ele></trkpt>
<trkpt lon="-2.935425" lat="43.262828"><ele>17.0</ele></trkpt>
<trkpt lon="-2.935514" lat="43.262785"><ele>17.0</ele></trkpt>
<trkpt lon="-2.935561" lat="43.262761"><ele>16.75</ele></trkpt>
<trkpt lon="-2.936682" lat="43.262219"><ele>15.0</ele></trkpt>
<trkpt lon="-2.936819" lat="43.262250"><ele>14.75</ele></trkpt>
<trkpt lon="-2.936789" lat="43.262329"><ele>15.0</ele></trkpt>
<trkpt lon="-2.936647" lat="43.262707"><ele>15.75</ele></trkpt>
<trkpt lon="-2.936450" lat="43.263185"><ele>16.0</ele></trkpt>
<trkpt lon="-2.936393" lat="43.263322"><ele>16.0</ele></trkpt>
<trkpt lon="-2.936105" lat="43.264025"><ele>16.0</ele></trkpt>
<trkpt lon="-2.936091" lat="43.264060"><ele>16.0</ele></trkpt>
<trkpt lon="-2.935965" lat="43.264323"><ele>16.0</ele></trkpt>
<trkpt lon="-2.936114" lat="43.264574"><ele>15.5</ele></trkpt>
<trkpt lon="-2.936704" lat="43.265395"><ele>13.75</ele></trkpt>
<trkpt lon="-2.936914" lat="43.265666"><ele>14.0</ele></trkpt>
<trkpt lon="-2.937028" lat="43.265758"><ele>14.0</ele></trkpt>
<trkpt lon="-2.937170" lat="43.265938"><ele>14.0</ele></trkpt>
<trkpt lon="-2.937311" lat="43.266115"><ele>13.75</ele></trkpt>
<trkpt lon="-2.937428" lat="43.266185"><ele>13.5</ele></trkpt>
<trkpt lon="-2.937594" lat="43.266309"><ele>13.25</ele></trkpt>
<trkpt lon="-2.937649" lat="43.266281"><ele>13.25</ele></trkpt>
<trkpt lon="-2.937674" lat="43.266268"><ele>13.25</ele></trkpt>
<trkpt lon="-2.937796" lat="43.266300"><ele>13.25</ele></trkpt>
<trkpt lon="-2.937847" lat="43.266305"><ele>13.25</ele></trkpt>
<trkpt lon="-2.937974" lat="43.266297"><ele>13.25</ele></trkpt>
<trkpt lon="-2.938115" lat="43.266297"><ele>13.25</ele></trkpt>
<trkpt lon="-2.938235" lat="43.266322"><ele>13.0</ele></trkpt>
<trkpt lon="-2.938332" lat="43.266347"><ele>13.0</ele></trkpt>
<trkpt lon="-2.938437" lat="43.266405"><ele>12.75</ele></trkpt>
<trkpt lon="-2.938471" lat="43.266429"><ele>12.75</ele></trkpt>
<trkpt lon="-2.938593" lat="43.266530"><ele>12.75</ele></trkpt>
<trkpt lon="-2.938659" lat="43.266603"><ele>12.75</ele></trkpt>
<trkpt lon="-2.938692" lat="43.266707"><ele>12.5</ele></trkpt>
<trkpt lon="-2.938722" lat="43.266907"><ele>12.5</ele></trkpt>
<trkpt lon="-2.938709" lat="43.266948"><ele>12.5</ele></trkpt>
<trkpt lon="-2.938694" lat="43.266977"><ele>12.5</ele></trkpt>
<trkpt lon="-2.938672" lat="43.267020"><ele>12.75</ele></trkpt>
<trkpt lon="-2.938666" lat="43.267051"><ele>12.75</ele></trkpt>
<trkpt lon="-2.938654" lat="43.267085"><ele>12.75</ele></trkpt>
<trkpt lon="-2.938652" lat="43.267115"><ele>12.75</ele></trkpt>
<trkpt lon="-2.938741" lat="43.267114"><ele>12.75</ele></trkpt>
<trkpt lon="-2.939011" lat="43.267279"><ele>12.75</ele></trkpt>
<trkpt lon="-2.939152" lat="43.267400"><ele>12.75</ele></trkpt>
<trkpt lon="-2.939252" lat="43.267343"><ele>12.5</ele></trkpt>
<trkpt lon="-2.939312" lat="43.267307"><ele>12.25</ele></trkpt>
<trkpt lon="-2.939367" lat="43.267280"><ele>12.25</ele></trkpt>
<trkpt lon="-2.939416" lat="43.267319"><ele>12.0</ele></trkpt>
<trkpt lon="-2.939512" lat="43.267377"><ele>12.0</ele></trkpt>
<trkpt lon="-2.939645" lat="43.267459"><ele>12.5</ele></trkpt>
<trkpt lon="-2.939661" lat="43.267484"><ele>12.5</ele></trkpt>
<trkpt lon="-2.939726" lat="43.267600"><ele>13.0</ele></trkpt>
<trkpt lon="-2.939740" lat="43.267660"><ele>13.0</ele></trkpt>
<trkpt lon="-2.939785" lat="43.267761"><ele>13.0</ele></trkpt>
<trkpt lon="-2.940177" lat="43.268460"><ele>9.75</ele></trkpt>
<trkpt lon="-2.940192" lat="43.268490"><ele>9.75</ele></trkpt>
<trkpt lon="-2.940413" lat="43.268902"><ele>10.25</ele></trkpt>
<trkpt lon="-2.940535" lat="43.269121"><ele>10.75</ele></trkpt>
<trkpt lon="-2.940853" lat="43.269698"><ele>11.75</ele></trkpt>
<trkpt lon="-2.941011" lat="43.269970"><ele>12.0</ele></trkpt>
<trkpt lon="-2.941022" lat="43.269994"><ele>12.25</ele></trkpt>
<trkpt lon="-2.941342" lat="43.270556"><ele>12.75</ele></trkpt>
<trkpt lon="-2.941407" lat="43.270671"><ele>13.0</ele></trkpt>
<trkpt lon="-2.941418" lat="43.270689"><ele>13.0</ele></trkpt>
<trkpt lon="-2.941456" lat="43.270728"><ele>13.0</ele></trkpt>
<trkpt lon="-2.941495" lat="43.270763"><ele>13.0</ele></trkpt>
<trkpt lon="-2.941536" lat="43.270789"><ele>13.0</ele></trkpt>
<trkpt lon="-2.941580" lat="43.270811"><ele>13.0</ele></trkpt>
<trkpt lon="-2.941590" lat="43.270813"><ele>13.0</ele></trkpt>
<trkpt lon="-2.941640" lat="43.270824"><ele>13.0</ele></trkpt>
<trkpt lon="-2.941678" lat="43.270831"><ele>12.75</ele></trkpt>
<trkpt lon="-2.941717" lat="43.270851"><ele>12.75</ele></trkpt>
<trkpt lon="-2.941747" lat="43.270874"><ele>12.75</ele></trkpt>
<trkpt lon="-2.941804" lat="43.270917"><ele>12.75</ele></trkpt>
<trkpt lon="-2.941839" lat="43.270951"><ele>13.0</ele></trkpt>
<trkpt lon="-2.941828" lat="43.270961"><ele>13.0</ele></trkpt>
<trkpt lon="-2.941818" lat="43.271005"><ele>13.25</ele></trkpt>
<trkpt lon="-2.941965" lat="43.271266"><ele>14.5</ele></trkpt>
<trkpt lon="-2.941999" lat="43.271296"><ele>14.5</ele></trkpt>
<trkpt lon="-2.942034" lat="43.271309"><ele>14.5</ele></trkpt>
<trkpt lon="-2.942203" lat="43.271336"><ele>14.5</ele></trkpt>
<trkpt lon="-2.942605" lat="43.271389"><ele>15.0</ele></trkpt>
<trkpt lon="-2.943506" lat="43.271504"><ele>15.0</ele></trkpt>
<trkpt lon="-2.943622" lat="43.271522"><ele>15.25</ele></trkpt>
<trkpt lon="-2.943710" lat="43.271537"><ele>15.5</ele></trkpt>
<trkpt lon="-2.943819" lat="43.271560"><ele>15.5</ele></trkpt>
<trkpt lon="-2.944571" lat="43.271665"><ele>17.0</ele></trkpt>
<trkpt lon="-2.944885" lat="43.271707"><ele>16.75</ele></trkpt>
<trkpt lon="-2.945190" lat="43.271745"><ele>17.0</ele></trkpt>
<trkpt lon="-2.945671" lat="43.271774"><ele>17.0</ele></trkpt>
<trkpt lon="-2.945720" lat="43.271730"><ele>17.0</ele></trkpt>
<trkpt lon="-2.945773" lat="43.271730"><ele>17.0</ele></trkpt>
<trkpt lon="-2.945822" lat="43.271730"><ele>17.0</ele></trkpt>
<trkpt lon="-2.945846" lat="43.271751"><ele>17.25</ele></trkpt>
<trkpt lon="-2.945879" lat="43.271768"><ele>17.25</ele></trkpt>
<trkpt lon="-2.946001" lat="43.271778"><ele>17.25</ele></trkpt>
<trkpt lon="-2.947266" lat="43.271808"><ele>17.5</ele></trkpt>
<trkpt lon="-2.947320" lat="43.271810"><ele>17.5</ele></trkpt>
<trkpt lon="-2.947363" lat="43.271811"><ele>17.5</ele></trkpt>
<trkpt lon="-2.947419" lat="43.271814"><ele>17.5</ele></trkpt>
<trkpt lon="-2.948275" lat="43.271854"><ele>18.0</ele></trkpt>
<trkpt lon="-2.948273" lat="43.271905"><ele>18.0</ele></trkpt>
<trkpt lon="-2.948272" lat="43.271930"><ele>18.0</ele></trkpt>
<trkpt lon="-2.948271" lat="43.271964"><ele>18.0</ele></trkpt>
<trkpt lon="-2.948270" lat="43.272000"><ele>18.25</ele></trkpt>
<trkpt lon="-2.948271" lat="43.272021"><ele>18.25</ele></trkpt>
<trkpt lon="-2.948270" lat="43.272062"><ele>18.5</ele></trkpt>
<trkpt lon="-2.949522" lat="43.272107"><ele>19.75</ele></trkpt>
<trkpt lon="-2.949597" lat="43.272111"><ele>20.0</ele></trkpt>
<trkpt lon="-2.950348" lat="43.272146"><ele>20.0</ele></trkpt>
<trkpt lon="-2.950658" lat="43.272164"><ele>19.75</ele></trkpt>
<trkpt lon="-2.951585" lat="43.272284"><ele>19.5</ele></trkpt>
<trkpt lon="-2.951684" lat="43.272298"><ele>19.75</ele></trkpt>
<trkpt lon="-2.952508" lat="43.272414"><ele>21.25</ele></trkpt>
<trkpt lon="-2.953177" lat="43.272528"><ele>23.0</ele></trkpt>
<trkpt lon="-2.953493" lat="43.272593"><ele>24.75</ele></trkpt>
<trkpt lon="-2.954418" lat="43.272801"><ele>27.0</ele></trkpt>
<trkpt lon="-2.954497" lat="43.272821"><ele>27.5</ele></trkpt>
<trkpt lon="-2.954789" lat="43.272930"><ele>29.0</ele></trkpt>
<trkpt lon="-2.954907" lat="43.272984"><ele>29.5</ele></trkpt>
<trkpt lon="-2.954984" lat="43.273109"><ele>30.25</ele></trkpt>
<trkpt lon="-2.954986" lat="43.273215"><ele>31.0</ele></trkpt>
<trkpt lon="-2.955035" lat="43.273233"><ele>31.25</ele></trkpt>
<trkpt lon="-2.955074" lat="43.273247"><ele>31.25</ele></trkpt>
<trkpt lon="-2.955112" lat="43.273259"><ele>31.25</ele></trkpt>
<trkpt lon="-2.955157" lat="43.273285"><ele>31.5</ele></trkpt>
<trkpt lon="-2.955212" lat="43.273316"><ele>31.75</ele></trkpt>
<trkpt lon="-2.955298" lat="43.273351"><ele>32.0</ele></trkpt>
<trkpt lon="-2.955345" lat="43.273370"><ele>32.0</ele></trkpt>
<trkpt lon="-2.955428" lat="43.273391"><ele>31.75</ele></trkpt>
<trkpt lon="-2.955517" lat="43.273412"><ele>31.5</ele></trkpt>
<trkpt lon="-2.955588" lat="43.273420"><ele>31.25</ele></trkpt>
<trkpt lon="-2.955644" lat="43.273426"><ele>31.25</ele></trkpt>
<trkpt lon="-2.955681" lat="43.273438"><ele>31.25</ele></trkpt>
<trkpt lon="-2.955716" lat="43.273448"><ele>31.25</ele></trkpt>
<trkpt lon="-2.955751" lat="43.273458"><ele>31.25</ele></trkpt>
<trkpt lon="-2.955863" lat="43.273392"><ele>31.0</ele></trkpt>
<trkpt lon="-2.955963" lat="43.273369"><ele>31.0</ele></trkpt>
<trkpt lon="-2.956072" lat="43.273368"><ele>31.0</ele></trkpt>
<trkpt lon="-2.956220" lat="43.273408"><ele>31.25</ele></trkpt>
<trkpt lon="-2.956799" lat="43.273621"><ele>30.5</ele></trkpt>
<trkpt lon="-2.956877" lat="43.273650"><ele>30.25</ele></trkpt>
<trkpt lon="-2.957053" lat="43.273727"><ele>30.0</ele></trkpt>
<trkpt lon="-2.957213" lat="43.273825"><ele>29.25</ele></trkpt>
<trkpt lon="-2.957682" lat="43.274112"><ele>26.75</ele></trkpt>
<trkpt lon="-2.957889" lat="43.274249"><ele>27.0</ele></trkpt>
<trkpt lon="-2.957907" lat="43.274273"><ele>27.0</ele></trkpt>
<trkpt lon="-2.957907" lat="43.274290"><ele>27.0</ele></trkpt>
<trkpt lon="-2.957889" lat="43.274318"><ele>27.0</ele></trkpt>
<trkpt lon="-2.957934" lat="43.274352"><ele>27.0</ele></trkpt>
<trkpt lon="-2.957970" lat="43.274377"><ele>27.0</ele></trkpt>
<trkpt lon="-2.958005" lat="43.274402"><ele>27.0</ele></trkpt>
<trkpt lon="-2.958079" lat="43.274345"><ele>26.75</ele></trkpt>
<trkpt lon="-2.958113" lat="43.274345"><ele>26.5</ele></trkpt>
<trkpt lon="-2.958135" lat="43.274363"><ele>26.5</ele></trkpt>
<trkpt lon="-2.958181" lat="43.274393"><ele>26.0</ele></trkpt>
<trkpt lon="-2.958182" lat="43.274420"><ele>26.0</ele></trkpt>
<trkpt lon="-2.958463" lat="43.274643"><ele>22.5</ele></trkpt>
<trkpt lon="-2.958518" lat="43.274694"><ele>22.5</ele></trkpt>
<trkpt lon="-2.958579" lat="43.274751"><ele>22.5</ele></trkpt>
<trkpt lon="-2.959041" lat="43.275186"><ele>20.25</ele></trkpt>
<trkpt lon="-2.959118" lat="43.275271"><ele>20.0</ele></trkpt>
<trkpt lon="-2.959309" lat="43.275483"><ele>18.25</ele></trkpt>
<trkpt lon="-2.959367" lat="43.275446"><ele>18.5</ele></trkpt>
<trkpt lon="-2.959421" lat="43.275423"><ele>18.5</ele></trkpt>
<trkpt lon="-2.959445" lat="43.275409"><ele>18.5</ele></trkpt>
<trkpt lon="-2.959528" lat="43.275506"><ele>18.0</ele></trkpt>
<trkpt lon="-2.959647" lat="43.275451"><ele>18.0</ele></trkpt>
<trkpt lon="-2.959666" lat="43.275477"><ele>18.0</ele></trkpt>
<trkpt lon="-2.959695" lat="43.275527"><ele>18.0</ele></trkpt>
<trkpt lon="-2.959782" lat="43.275681"><ele>17.25</ele></trkpt>
<trkpt lon="-2.959812" lat="43.275734"><ele>17.0</ele></trkpt>
<trkpt lon="-2.959962" lat="43.275996"><ele>16.25</ele></trkpt>
<trkpt lon="-2.960080" lat="43.276206"><ele>15.5</ele></trkpt>
<trkpt lon="-2.960146" lat="43.276324"><ele>15.0</ele></trkpt>
<trkpt lon="-2.960258" lat="43.276528"><ele>14.0</ele></trkpt>
<trkpt lon="-2.960320" lat="43.276642"><ele>13.25</ele></trkpt>
<trkpt lon="-2.960499" lat="43.276954"><ele>13.0</ele></trkpt>
<trkpt lon="-2.960556" lat="43.277052"><ele>13.0</ele></trkpt>
<trkpt lon="-2.960567" lat="43.277073"><ele>13.0</ele></trkpt>
<trkpt lon="-2.960581" lat="43.277099"><ele>13.0</ele></trkpt>
<trkpt lon="-2.960559" lat="43.277124"><ele>13.0</ele></trkpt>
<trkpt lon="-2.960755" lat="43.277506"><ele>12.0</ele></trkpt>
<trkpt lon="-2.961009" lat="43.277946"><ele>11.25</ele></trkpt>
<trkpt lon="-2.961036" lat="43.277992"><ele>11.0</ele></trkpt>
<trkpt lon="-2.961108" lat="43.277970"><ele>11.25</ele></trkpt>
<trkpt lon="-2.961152" lat="43.278053"><ele>10.75</ele></trkpt>
<trkpt lon="-2.961191" lat="43.278125"><ele>10.5</ele></trkpt>
<trkpt lon="-2.961160" lat="43.278137"><ele>10.5</ele></trkpt>
<trkpt lon="-2.961370" lat="43.278500"><ele>10.0</ele></trkpt>
<trkpt lon="-2.961434" lat="43.278613"><ele>9.75</ele></trkpt>
<trkpt lon="-2.961737" lat="43.279164"><ele>9.0</ele></trkpt>
<trkpt lon="-2.962080" lat="43.279778"><ele>8.5</ele></trkpt>
<trkpt lon="-2.962103" lat="43.279772"><ele>8.5</ele></trkpt>
<trkpt lon="-2.962136" lat="43.279831"><ele>8.25</ele></trkpt>
<trkpt lon="-2.962177" lat="43.279901"><ele>7.75</ele></trkpt>
<trkpt lon="-2.962163" lat="43.279905"><ele>7.75</ele></trkpt>
<trkpt lon="-2.962532" lat="43.280576"><ele>7.75</ele></trkpt>
<trkpt lon="-2.962584" lat="43.280665"><ele>7.5</ele></trkpt>
<trkpt lon="-2.962650" lat="43.280780"><ele>7.5</ele></trkpt>
<trkpt lon="-2.963033" lat="43.281448"><ele>7.0</ele></trkpt>
<trkpt lon="-2.963103" lat="43.281575"><ele>7.0</ele></trkpt>
<trkpt lon="-2.963149" lat="43.281664"><ele>7.0</ele></trkpt>
<trkpt lon="-2.963388" lat="43.282093"><ele>6.25</ele></trkpt>
<trkpt lon="-2.963458" lat="43.282219"><ele>6.0</ele></trkpt>
<trkpt lon="-2.963473" lat="43.282243"><ele>5.75</ele></trkpt>
<trkpt lon="-2.963492" lat="43.282272"><ele>6.0</ele></trkpt>
<trkpt lon="-2.963517" lat="43.282317"><ele>6.0</ele></trkpt>
<trkpt lon="-2.963554" lat="43.282385"><ele>6.0</ele></trkpt>
<trkpt lon="-2.963786" lat="43.282811"><ele>6.0</ele></trkpt>
<trkpt lon="-2.963668" lat="43.282839"><ele>6.0</ele></trkpt>
<trkpt lon="-2.963651" lat="43.282843"><ele>6.0</ele></trkpt>
<trkpt lon="-2.963602" lat="43.282880"><ele>6.0</ele></trkpt>
<trkpt lon="-2.963642" lat="43.282986"><ele>6.0</ele></trkpt>
<trkpt lon="-2.963628" lat="43.283040"><ele>6.0</ele></trkpt>
<trkpt lon="-2.963612" lat="43.283069"><ele>6.0</ele></trkpt>
<trkpt lon="-2.963653" lat="43.283108"><ele>6.0</ele></trkpt>
<trkpt lon="-2.964075" lat="43.283281"><ele>5.75</ele></trkpt>
<trkpt lon="-2.965152" lat="43.283446"><ele>4.25</ele></trkpt>
<trkpt lon="-2.965237" lat="43.283361"><ele>4.0</ele></trkpt>
<trkpt lon="-2.965515" lat="43.283385"><ele>3.25</ele></trkpt>
<trkpt lon="-2.965684" lat="43.283359"><ele>3.0</ele></trkpt>
<trkpt lon="-2.965714" lat="43.283446"><ele>3.0</ele></trkpt>
<trkpt lon="-2.965717" lat="43.283465"><ele>3.0</ele></trkpt>
<trkpt lon="-2.965697" lat="43.283556"><ele>3.25</ele></trkpt>
<trkpt lon="-2.965782" lat="43.283584"><ele>3.0</ele></trkpt>
<trkpt lon="-2.965847" lat="43.283612"><ele>3.0</ele></trkpt>
<trkpt lon="-2.965896" lat="43.283597"><ele>3.0</ele></trkpt>
<trkpt lon="-2.965920" lat="43.283606"><ele>3.0</ele></trkpt>
<trkpt lon="-2.966641" lat="43.283897"><ele>3.0</ele></trkpt>
<trkpt lon="-2.966687" lat="43.283915"><ele>3.0</ele></trkpt>
<trkpt lon="-2.966725" lat="43.283997"><ele>3.0</ele></trkpt>
<trkpt lon="-2.966636" lat="43.284119"><ele>3.0</ele></trkpt>
<trkpt lon="-2.966676" lat="43.284141"><ele>3.0</ele></trkpt>
<trkpt lon="-2.966696" lat="43.284154"><ele>3.0</ele></trkpt>
<trkpt lon="-2.966719" lat="43.284130"><ele>3.0</ele></trkpt>
<trkpt lon="-2.966773" lat="43.284100"><ele>3.0</ele></trkpt>
<trkpt lon="-2.966824" lat="43.284108"><ele>3.0</ele></trkpt>
<trkpt lon="-2.966849" lat="43.284143"><ele>3.0</ele></trkpt>
<trkpt lon="-2.966966" lat="43.284360"><ele>3.5</ele></trkpt>
<trkpt lon="-2.966942" lat="43.284404"><ele>3.75</ele></trkpt>
<trkpt lon="-2.966846" lat="43.284414"><ele>3.5</ele></trkpt>
<trkpt lon="-2.966845" lat="43.284445"><ele>3.5</ele></trkpt>
<trkpt lon="-2.966845" lat="43.284478"><ele>3.5</ele></trkpt>
<trkpt lon="-2.966936" lat="43.284478"><ele>3.75</ele></trkpt>
<trkpt lon="-2.966935" lat="43.284739"><ele>3.75</ele></trkpt>
<trkpt lon="-2.966956" lat="43.284782"><ele>3.75</ele></trkpt>
<trkpt lon="-2.967039" lat="43.285503"><ele>3.5</ele></trkpt>
<trkpt lon="-2.967205" lat="43.285988"><ele>3.5</ele></trkpt>
<trkpt lon="-2.967414" lat="43.286435"><ele>3.25</ele></trkpt>
<trkpt lon="-2.967440" lat="43.286540"><ele>3.5</ele></trkpt>
<trkpt lon="-2.967389" lat="43.286563"><ele>3.75</ele></trkpt>
<trkpt lon="-2.967448" lat="43.286643"><ele>3.75</ele></trkpt>
<trkpt lon="-2.967550" lat="43.286802"><ele>3.75</ele></trkpt>
<trkpt lon="-2.967856" lat="43.287203"><ele>3.75</ele></trkpt>
<trkpt lon="-2.967951" lat="43.287284"><ele>4.0</ele></trkpt>
<trkpt lon="-2.968004" lat="43.287329"><ele>4.0</ele></trkpt>
<trkpt lon="-2.968030" lat="43.287365"><ele>4.0</ele></trkpt>
<trkpt lon="-2.968118" lat="43.287483"><ele>3.75</ele></trkpt>
<trkpt lon="-2.968505" lat="43.287873"><ele>3.5</ele></trkpt>
<trkpt lon="-2.968508" lat="43.287892"><ele>3.5</ele></trkpt>
<trkpt lon="-2.968551" lat="43.287947"><ele>3.5</ele></trkpt>
<trkpt lon="-2.968611" lat="43.288007"><ele>3.75</ele></trkpt>
<trkpt lon="-2.968686" lat="43.287976"><ele>3.25</ele></trkpt>
<trkpt lon="-2.968721" lat="43.287989"><ele>3.25</ele></trkpt>
<trkpt lon="-2.969176" lat="43.288439"><ele>3.25</ele></trkpt>
<trkpt lon="-2.969447" lat="43.288702"><ele>3.5</ele></trkpt>
<trkpt lon="-2.969798" lat="43.289065"><ele>8.5</ele></trkpt>
<trkpt lon="-2.969900" lat="43.289140"><ele>7.25</ele></trkpt>
<trkpt lon="-2.970177" lat="43.289425"><ele>7.25</ele></trkpt>
<trkpt lon="-2.970397" lat="43.289637"><ele>7.5</ele></trkpt>
<trkpt lon="-2.970514" lat="43.289797"><ele>5.25</ele></trkpt>
<trkpt lon="-2.970599" lat="43.289960"><ele>3.5</ele></trkpt>
<trkpt lon="-2.970785" lat="43.290309"><ele>4.0</ele></trkpt>
<trkpt lon="-2.970883" lat="43.290510"><ele>4.0</ele></trkpt>
<trkpt lon="-2.971017" lat="43.290836"><ele>2.25</ele></trkpt>
<trkpt lon="-2.971239" lat="43.291369"><ele>2.75</ele></trkpt>
<trkpt lon="-2.971224" lat="43.291385"><ele>2.75</ele></trkpt>
<trkpt lon="-2.971196" lat="43.291400"><ele>3.0</ele></trkpt>
<trkpt lon="-2.971195" lat="43.291461"><ele>3.0</ele></trkpt>
<trkpt lon="-2.971192" lat="43.291511"><ele>3.0</ele></trkpt>
<trkpt lon="-2.971253" lat="43.291515"><ele>2.75</ele></trkpt>
<trkpt lon="-2.971438" lat="43.291879"><ele>2.5</ele></trkpt>
<trkpt lon="-2.971655" lat="43.292404"><ele>2.75</ele></trkpt>
<trkpt lon="-2.971672" lat="43.292443"><ele>2.75</ele></trkpt>
<trkpt lon="-2.971879" lat="43.292933"><ele>3.0</ele></trkpt>
<trkpt lon="-2.971917" lat="43.293043"><ele>3.0</ele></trkpt>
<trkpt lon="-2.972070" lat="43.293404"><ele>3.25</ele></trkpt>
<trkpt lon="-2.972006" lat="43.293432"><ele>3.25</ele></trkpt>
<trkpt lon="-2.972037" lat="43.293532"><ele>3.25</ele></trkpt>
<trkpt lon="-2.972079" lat="43.293614"><ele>3.25</ele></trkpt>
<trkpt lon="-2.972135" lat="43.293609"><ele>3.5</ele></trkpt>
<trkpt lon="-2.972151" lat="43.293677"><ele>3.5</ele></trkpt>
<trkpt lon="-2.972261" lat="43.294134"><ele>3.5</ele></trkpt>
<trkpt lon="-2.972202" lat="43.294201"><ele>4.0</ele></trkpt>
<trkpt lon="-2.971969" lat="43.294409"><ele>4.0</ele></trkpt>
<trkpt lon="-2.972035" lat="43.294644"><ele>5.25</ele></trkpt>
<trkpt lon="-2.972000" lat="43.294694"><ele>5.75</ele></trkpt>
<trkpt lon="-2.971925" lat="43.294723"><ele>5.75</ele></trkpt>
<trkpt lon="-2.971903" lat="43.294741"><ele>6.0</ele></trkpt>
<trkpt lon="-2.971897" lat="43.294761"><ele>6.0</ele></trkpt>
<trkpt lon="-2.971913" lat="43.294797"><ele>6.25</ele></trkpt>
<trkpt lon="-2.971970" lat="43.294830"><ele>6.5</ele></trkpt>
<trkpt lon="-2.972104" lat="43.294913"><ele>5.75</ele></trkpt>
<trkpt lon="-2.972143" lat="43.294932"><ele>5.25</ele></trkpt>
<trkpt lon="-2.972313" lat="43.294749"><ele>4.75</ele></trkpt>
<trkpt lon="-2.972394" lat="43.294681"><ele>4.0</ele></trkpt>
<trkpt lon="-2.972433" lat="43.294664"><ele>3.75</ele></trkpt>
<trkpt lon="-2.972472" lat="43.294658"><ele>3.25</ele></trkpt>
<trkpt lon="-2.972555" lat="43.294667"><ele>3.0</ele></trkpt>
<trkpt lon="-2.972629" lat="43.294701"><ele>3.0</ele></trkpt>
<trkpt lon="-2.972673" lat="43.294736"><ele>3.0</ele></trkpt>
<trkpt lon="-2.972731" lat="43.294797"><ele>3.0</ele></trkpt>
<trkpt lon="-2.972782" lat="43.294861"><ele>3.0</ele></trkpt>
<trkpt lon="-2.972978" lat="43.295186"><ele>3.0</ele></trkpt>
<trkpt lon="-2.972945" lat="43.295196"><ele>3.0</ele></trkpt>
<trkpt lon="-2.973085" lat="43.295403"><ele>2.75</ele></trkpt>
<trkpt lon="-2.973277" lat="43.295720"><ele>3.0</ele></trkpt>
<trkpt lon="-2.973596" lat="43.296161"><ele>3.0</ele></trkpt>
<trkpt lon="-2.973985" lat="43.296680"><ele>2.25</ele></trkpt>
<trkpt lon="-2.974374" lat="43.297191"><ele>3.0</ele></trkpt>
<trkpt lon="-2.975206" lat="43.298239"><ele>3.0</ele></trkpt>
<trkpt lon="-2.975328" lat="43.298403"><ele>3.0</ele></trkpt>
<trkpt lon="-2.975561" lat="43.298740"><ele>3.25</ele></trkpt>
<trkpt lon="-2.975574" lat="43.298780"><ele>3.25</ele></trkpt>
<trkpt lon="-2.975603" lat="43.298848"><ele>3.25</ele></trkpt>
<trkpt lon="-2.975631" lat="43.298908"><ele>3.0</ele></trkpt>
<trkpt lon="-2.975872" lat="43.299530"><ele>3.0</ele></trkpt>
<trkpt lon="-2.976406" lat="43.300948"><ele>2.75</ele></trkpt>
<trkpt lon="-2.976415" lat="43.300970"><ele>2.75</ele></trkpt>
<trkpt lon="-2.976431" lat="43.301012"><ele>2.75</ele></trkpt>
<trkpt lon="-2.976442" lat="43.301014"><ele>2.75</ele></trkpt>
<trkpt lon="-2.976644" lat="43.301586"><ele>2.75</ele></trkpt>
<trkpt lon="-2.976616" lat="43.301585"><ele>2.75</ele></trkpt>
<trkpt lon="-2.976517" lat="43.301603"><ele>2.75</ele></trkpt>
<trkpt lon="-2.976530" lat="43.301641"><ele>2.75</ele></trkpt>
<trkpt lon="-2.976550" lat="43.301700"><ele>3.0</ele></trkpt>
<trkpt lon="-2.976665" lat="43.301677"><ele>3.0</ele></trkpt>
<trkpt lon="-2.976757" lat="43.301994"><ele>2.25</ele></trkpt>
<trkpt lon="-2.976813" lat="43.302230"><ele>2.25</ele></trkpt>
<trkpt lon="-2.976948" lat="43.302756"><ele>2.5</ele></trkpt>
<trkpt lon="-2.976959" lat="43.302829"><ele>2.75</ele></trkpt>
<trkpt lon="-2.976978" lat="43.302984"><ele>2.75</ele></trkpt>
<trkpt lon="-2.976486" lat="43.303071"><ele>2.0</ele></trkpt>
<trkpt lon="-2.976481" lat="43.303058"><ele>2.0</ele></trkpt>
<trkpt lon="-2.976072" lat="43.303135"><ele>2.0</ele></trkpt>
<trkpt lon="-2.975589" lat="43.303226"><ele>2.25</ele></trkpt>
<trkpt lon="-2.975596" lat="43.303240"><ele>2.25</ele></trkpt>
<trkpt lon="-2.975619" lat="43.303277"><ele>2.0</ele></trkpt>
<trkpt lon="-2.974681" lat="43.303457"><ele>2.0</ele></trkpt>
<trkpt lon="-2.974684" lat="43.303501"><ele>2.0</ele></trkpt>
<trkpt lon="-2.974638" lat="43.303521"><ele>2.0</ele></trkpt>
<trkpt lon="-2.974581" lat="43.303564"><ele>2.0</ele></trkpt>
<trkpt lon="-2.974614" lat="43.303695"><ele>2.0</ele></trkpt>
<trkpt lon="-2.974763" lat="43.304219"><ele>2.0</ele></trkpt>
<trkpt lon="-2.974842" lat="43.304506"><ele>2.5</ele></trkpt>
<trkpt lon="-2.974861" lat="43.304579"><ele>2.5</ele></trkpt>
<trkpt lon="-2.974661" lat="43.304620"><ele>2.25</ele></trkpt>
<trkpt lon="-2.974670" lat="43.304685"><ele>2.0</ele></trkpt>
<trkpt lon="-2.974685" lat="43.304732"><ele>2.0</ele></trkpt>
<trkpt lon="-2.974630" lat="43.304750"><ele>1.75</ele></trkpt>
<trkpt lon="-2.974536" lat="43.304781"><ele>2.0</ele></trkpt>
<trkpt lon="-2.974431" lat="43.304857"><ele>2.0</ele></trkpt>
<trkpt lon="-2.974140" lat="43.305417"><ele>2.0</ele></trkpt>
<trkpt lon="-2.974097" lat="43.305404"><ele>2.0</ele></trkpt>
<trkpt lon="-2.974069" lat="43.305456"><ele>2.0</ele></trkpt>
<trkpt lon="-2.974053" lat="43.305515"><ele>2.0</ele></trkpt>
<trkpt lon="-2.974100" lat="43.305526"><ele>2.0</ele></trkpt>
<trkpt lon="-2.974014" lat="43.305928"><ele>2.0</ele></trkpt>
<trkpt lon="-2.973924" lat="43.306387"><ele>2.0</ele></trkpt>
<trkpt lon="-2.973856" lat="43.306735"><ele>2.0</ele></trkpt>
<trkpt lon="-2.973767" lat="43.307201"><ele>2.5</ele></trkpt>
<trkpt lon="-2.973654" lat="43.307740"><ele>2.0</ele></trkpt>
<trkpt lon="-2.973599" lat="43.307733"><ele>2.0</ele></trkpt>
<trkpt lon="-2.973588" lat="43.307782"><ele>2.0</ele></trkpt>
<trkpt lon="-2.973548" lat="43.307844"><ele>2.0</ele></trkpt>
<trkpt lon="-2.973511" lat="43.307896"><ele>2.0</ele></trkpt>
<trkpt lon="-2.973536" lat="43.307916"><ele>2.0</ele></trkpt>
<trkpt lon="-2.973549" lat="43.307942"><ele>2.0</ele></trkpt>
<trkpt lon="-2.973551" lat="43.307969"><ele>2.0</ele></trkpt>
<trkpt lon="-2.973539" lat="43.307995"><ele>2.0</ele></trkpt>
<trkpt lon="-2.973517" lat="43.308016"><ele>2.0</ele></trkpt>
<trkpt lon="-2.973486" lat="43.308031"><ele>2.0</ele></trkpt>
<trkpt lon="-2.973535" lat="43.308072"><ele>2.0</ele></trkpt>
<trkpt lon="-2.973725" lat="43.308215"><ele>2.0</ele></trkpt>
<trkpt lon="-2.973856" lat="43.308301"><ele>2.0</ele></trkpt>
<trkpt lon="-2.973932" lat="43.308350"><ele>2.25</ele></trkpt>
<trkpt lon="-2.974173" lat="43.308508"><ele>3.75</ele></trkpt>
<trkpt lon="-2.974272" lat="43.308587"><ele>3.5</ele></trkpt>
<trkpt lon="-2.974625" lat="43.308871"><ele>3.75</ele></trkpt>
<trkpt lon="-2.974641" lat="43.308883"><ele>3.5</ele></trkpt>
<trkpt lon="-2.974970" lat="43.309149"><ele>3.25</ele></trkpt>
<trkpt lon="-2.975092" lat="43.309233"><ele>4.25</ele></trkpt>
<trkpt lon="-2.975224" lat="43.309299"><ele>5.0</ele></trkpt>
<trkpt lon="-2.976096" lat="43.309569"><ele>7.25</ele></trkpt>
<trkpt lon="-2.977476" lat="43.310011"><ele>3.25</ele></trkpt>
<trkpt lon="-2.977852" lat="43.310143"><ele>3.75</ele></trkpt>
<trkpt lon="-2.977966" lat="43.310147"><ele>3.5</ele></trkpt>
<trkpt lon="-2.977989" lat="43.310205"><ele>3.75</ele></trkpt>
<trkpt lon="-2.978813" lat="43.310805"><ele>4.25</ele></trkpt>
<trkpt lon="-2.979138" lat="43.311034"><ele>4.5</ele></trkpt>
<trkpt lon="-2.979757" lat="43.311421"><ele>4.0</ele></trkpt>
<trkpt lon="-2.979770" lat="43.311449"><ele>4.25</ele></trkpt>
<trkpt lon="-2.979843" lat="43.311498"><ele>4.25</ele></trkpt>
<trkpt lon="-2.979933" lat="43.311529"><ele>4.25</ele></trkpt>
<trkpt lon="-2.980351" lat="43.311764"><ele>5.0</ele></trkpt>
<trkpt lon="-2.980908" lat="43.312039"><ele>4.25</ele></trkpt>
<trkpt lon="-2.981235" lat="43.312211"><ele>3.75</ele></trkpt>
<trkpt lon="-2.981361" lat="43.312260"><ele>3.75</ele></trkpt>
<trkpt lon="-2.981694" lat="43.312413"><ele>3.75</ele></trkpt>
<trkpt lon="-2.981993" lat="43.312558"><ele>4.75</ele></trkpt>
<trkpt lon="-2.982291" lat="43.312681"><ele>5.25</ele></trkpt>
<trkpt lon="-2.982662" lat="43.312824"><ele>4.25</ele></trkpt>
<trkpt lon="-2.982764" lat="43.312862"><ele>4.5</ele></trkpt>
<trkpt lon="-2.982841" lat="43.312879"><ele>4.5</ele></trkpt>
<trkpt lon="-2.983054" lat="43.312952"><ele>5.25</ele></trkpt>
<trkpt lon="-2.983207" lat="43.313023"><ele>5.25</ele></trkpt>
<trkpt lon="-2.983416" lat="43.313152"><ele>5.75</ele></trkpt>
<trkpt lon="-2.983531" lat="43.313218"><ele>6.5</ele></trkpt>
<trkpt lon="-2.983786" lat="43.313280"><ele>7.25</ele></trkpt>
<trkpt lon="-2.983811" lat="43.313236"><ele>6.75</ele></trkpt>
<trkpt lon="-2.983826" lat="43.313205"><ele>6.5</ele></trkpt>
<trkpt lon="-2.983862" lat="43.313158"><ele>6.0</ele></trkpt>
<trkpt lon="-2.983822" lat="43.313132"><ele>5.75</ele></trkpt>
<trkpt lon="-2.983803" lat="43.313108"><ele>5.5</ele></trkpt>
<trkpt lon="-2.983796" lat="43.313079"><ele>5.25</ele></trkpt>
<trkpt lon="-2.983899" lat="43.313089"><ele>5.0</ele></trkpt>
<trkpt lon="-2.983916" lat="43.313036"><ele>5.0</ele></trkpt>
<trkpt lon="-2.983950" lat="43.313004"><ele>5.0</ele></trkpt>
<trkpt lon="-2.984046" lat="43.312995"><ele>4.75</ele></trkpt>
<trkpt lon="-2.984181" lat="43.313004"><ele>4.75</ele></trkpt>
<trkpt lon="-2.984378" lat="43.313037"><ele>4.5</ele></trkpt>
<trkpt lon="-2.984865" lat="43.313093"><ele>4.25</ele></trkpt>
<trkpt lon="-2.984960" lat="43.313098"><ele>4.25</ele></trkpt>
<trkpt lon="-2.984976" lat="43.313078"><ele>4.0</ele></trkpt>
<trkpt lon="-2.985162" lat="43.313110"><ele>4.0</ele></trkpt>
<trkpt lon="-2.985360" lat="43.313151"><ele>4.0</ele></trkpt>
<trkpt lon="-2.985592" lat="43.313226"><ele>4.0</ele></trkpt>
<trkpt lon="-2.985669" lat="43.313255"><ele>4.0</ele></trkpt>
<trkpt lon="-2.985696" lat="43.313279"><ele>4.0</ele></trkpt>
<trkpt lon="-2.985705" lat="43.313317"><ele>4.0</ele></trkpt>
<trkpt lon="-2.986551" lat="43.313666"><ele>4.0</ele></trkpt>
<trkpt lon="-2.986655" lat="43.313663"><ele>4.0</ele></trkpt>
<trkpt lon="-2.986769" lat="43.313707"><ele>3.75</ele></trkpt>
<trkpt lon="-2.986782" lat="43.313759"><ele>3.75</ele></trkpt>
<trkpt lon="-2.986902" lat="43.313808"><ele>3.75</ele></trkpt>
<trkpt lon="-2.986920" lat="43.313855"><ele>3.75</ele></trkpt>
<trkpt lon="-2.986899" lat="43.313906"><ele>4.0</ele></trkpt>
<trkpt lon="-2.986966" lat="43.313939"><ele>4.0</ele></trkpt>
<trkpt lon="-2.987038" lat="43.313963"><ele>4.0</ele></trkpt>
<trkpt lon="-2.987164" lat="43.313922"><ele>4.0</ele></trkpt>
<trkpt lon="-2.987295" lat="43.313963"><ele>3.75</ele></trkpt>
<trkpt lon="-2.988396" lat="43.314405"><ele>3.5</ele></trkpt>
<trkpt lon="-2.988584" lat="43.314481"><ele>3.0</ele></trkpt>
<trkpt lon="-2.988760" lat="43.314551"><ele>2.75</ele></trkpt>
<trkpt lon="-2.989706" lat="43.314839"><ele>3.0</ele></trkpt>
<trkpt lon="-2.989725" lat="43.314870"><ele>3.0</ele></trkpt>
<trkpt lon="-2.989776" lat="43.314887"><ele>3.0</ele></trkpt>
<trkpt lon="-2.989823" lat="43.314904"><ele>3.0</ele></trkpt>
<trkpt lon="-2.989855" lat="43.314893"><ele>3.0</ele></trkpt>
<trkpt lon="-2.990530" lat="43.315093"><ele>3.5</ele></trkpt>
<trkpt lon="-2.991046" lat="43.315238"><ele>3.5</ele></trkpt>
<trkpt lon="-2.991450" lat="43.315341"><ele>3.75</ele></trkpt>
<trkpt lon="-2.991649" lat="43.315422"><ele>3.25</ele></trkpt>
<trkpt lon="-2.991714" lat="43.315531"><ele>3.0</ele></trkpt>
<trkpt lon="-2.991809" lat="43.315558"><ele>2.75</ele></trkpt>
<trkpt lon="-2.991928" lat="43.315586"><ele>2.5</ele></trkpt>
<trkpt lon="-2.992001" lat="43.315520"><ele>2.5</ele></trkpt>
<trkpt lon="-2.992106" lat="43.315523"><ele>2.25</ele></trkpt>
<trkpt lon="-2.992225" lat="43.315552"><ele>2.0</ele></trkpt>
<trkpt lon="-2.992317" lat="43.315571"><ele>2.0</ele></trkpt>
<trkpt lon="-2.992329" lat="43.315541"><ele>2.0</ele></trkpt>
<trkpt lon="-2.992357" lat="43.315465"><ele>2.0</ele></trkpt>
<trkpt lon="-2.993354" lat="43.315711"><ele>2.0</ele></trkpt>
<trkpt lon="-2.994251" lat="43.315919"><ele>2.0</ele></trkpt>
<trkpt lon="-2.996954" lat="43.316578"><ele>2.25</ele></trkpt>
<trkpt lon="-3.002583" lat="43.317989"><ele>3.0</ele></trkpt>
<trkpt lon="-3.002689" lat="43.318005"><ele>3.0</ele></trkpt>
<trkpt lon="-3.003306" lat="43.318159"><ele>3.0</ele></trkpt>
<trkpt lon="-3.003295" lat="43.318192"><ele>3.0</ele></trkpt>
<trkpt lon="-3.003277" lat="43.318249"><ele>3.0</ele></trkpt>
<trkpt lon="-3.003585" lat="43.318324"><ele>3.0</ele></trkpt>
<trkpt lon="-3.004418" lat="43.318541"><ele>2.25</ele></trkpt>
<trkpt lon="-3.004602" lat="43.318577"><ele>2.25</ele></trkpt>
<trkpt lon="-3.004820" lat="43.318644"><ele>2.25</ele></trkpt>
<trkpt lon="-3.005236" lat="43.318789"><ele>2.25</ele></trkpt>
<trkpt lon="-3.005394" lat="43.318836"><ele>2.5</ele></trkpt>
<trkpt lon="-3.005448" lat="43.318826"><ele>2.5</ele></trkpt>
<trkpt lon="-3.005908" lat="43.318978"><ele>2.75</ele></trkpt>
<trkpt lon="-3.005878" lat="43.319059"><ele>2.75</ele></trkpt>
<trkpt lon="-3.005926" lat="43.319070"><ele>2.75</ele></trkpt>
<trkpt lon="-3.005975" lat="43.319085"><ele>2.75</ele></trkpt>
<trkpt lon="-3.006023" lat="43.319035"><ele>2.5</ele></trkpt>
<trkpt lon="-3.006107" lat="43.319053"><ele>2.5</ele></trkpt>
<trkpt lon="-3.006513" lat="43.319189"><ele>2.75</ele></trkpt>
<trkpt lon="-3.007063" lat="43.319362"><ele>3.25</ele></trkpt>
<trkpt lon="-3.007241" lat="43.319423"><ele>3.5</ele></trkpt>
<trkpt lon="-3.007475" lat="43.319512"><ele>3.25</ele></trkpt>
<trkpt lon="-3.007926" lat="43.319670"><ele>3.25</ele></trkpt>
<trkpt lon="-3.008512" lat="43.319868"><ele>3.25</ele></trkpt>
<trkpt lon="-3.008527" lat="43.319832"><ele>3.25</ele></trkpt>
<trkpt lon="-3.008551" lat="43.319798"><ele>2.75</ele></trkpt>
<trkpt lon="-3.008580" lat="43.319761"><ele>2.5</ele></trkpt>
<trkpt lon="-3.008969" lat="43.319901"><ele>2.5</ele></trkpt>
<trkpt lon="-3.010163" lat="43.320323"><ele>2.25</ele></trkpt>
<trkpt lon="-3.010614" lat="43.320490"><ele>2.25</ele></trkpt>
<trkpt lon="-3.010703" lat="43.320523"><ele>2.25</ele></trkpt>
<trkpt lon="-3.011184" lat="43.320710"><ele>2.25</ele></trkpt>
<trkpt lon="-3.011550" lat="43.320852"><ele>2.25</ele></trkpt>
<trkpt lon="-3.012109" lat="43.320908"><ele>2.25</ele></trkpt>
<trkpt lon="-3.013655" lat="43.321436"><ele>2.5</ele></trkpt>
<trkpt lon="-3.013936" lat="43.321539"><ele>2.75</ele></trkpt>
<trkpt lon="-3.014713" lat="43.321963"><ele>3.0</ele></trkpt>
<trkpt lon="-3.014767" lat="43.322000"><ele>3.0</ele></trkpt>
<trkpt lon="-3.015059" lat="43.322290"><ele>3.25</ele></trkpt>
<trkpt lon="-3.015097" lat="43.322330"><ele>3.25</ele></trkpt>
<trkpt lon="-3.015230" lat="43.322472"><ele>3.5</ele></trkpt>
<trkpt lon="-3.015716" lat="43.322989"><ele>4.0</ele></trkpt>
<trkpt lon="-3.015986" lat="43.323275"><ele>4.0</ele></trkpt>
<trkpt lon="-3.016232" lat="43.323536"><ele>4.25</ele></trkpt>
<trkpt lon="-3.016311" lat="43.323620"><ele>4.25</ele></trkpt>
<trkpt lon="-3.016377" lat="43.323587"><ele>4.25</ele></trkpt>
<trkpt lon="-3.017884" lat="43.322832"><ele>4.25</ele></trkpt>
<trkpt lon="-3.017950" lat="43.322799"><ele>4.25</ele></trkpt>
<trkpt lon="-3.017921" lat="43.322769"><ele>4.5</ele></trkpt>
<trkpt lon="-3.017781" lat="43.322611"><ele>4.25</ele></trkpt>
<trkpt lon="-3.017771" lat="43.322599"><ele>4.25</ele></trkpt>
<trkpt lon="-3.017701" lat="43.322520"><ele>4.0</ele></trkpt>
<trkpt lon="-3.017565" lat="43.322366"><ele>3.75</ele></trkpt>
<trkpt lon="-3.017527" lat="43.322323"><ele>4.0</ele></trkpt>
<trkpt lon="-3.017842" lat="43.322156"><ele>4.0</ele></trkpt>
<trkpt lon="-3.017908" lat="43.322222"><ele>4.0</ele></trkpt>
<trkpt lon="-3.017948" lat="43.322204"><ele>4.0</ele></trkpt>
<trkpt lon="-3.017973" lat="43.322193"><ele>4.0</ele></trkpt>
<trkpt lon="-3.017907" lat="43.322119"><ele>4.0</ele></trkpt>
<trkpt lon="-3.017948" lat="43.322054"><ele>4.25</ele></trkpt>
<trkpt lon="-3.018061" lat="43.321898"><ele>5.25</ele></trkpt>
<trkpt lon="-3.018098" lat="43.321844"><ele>6.25</ele></trkpt>
<trkpt lon="-3.018157" lat="43.321760"><ele>7.75</ele></trkpt>
<trkpt lon="-3.018214" lat="43.321684"><ele>9.5</ele></trkpt>
<trkpt lon="-3.018275" lat="43.321605"><ele>10.75</ele></trkpt>
<trkpt lon="-3.018297" lat="43.321582"><ele>11.0</ele></trkpt>
<trkpt lon="-3.018436" lat="43.321397"><ele>13.0</ele></trkpt>
<trkpt lon="-3.018452" lat="43.321379"><ele>13.5</ele></trkpt>
<trkpt lon="-3.018583" lat="43.321201"><ele>15.75</ele></trkpt>
<trkpt lon="-3.018593" lat="43.321185"><ele>16.0</ele></trkpt>
<trkpt lon="-3.018638" lat="43.321127"><ele>16.25</ele></trkpt>
<trkpt lon="-3.018665" lat="43.321084"><ele>16.75</ele></trkpt>
<trkpt lon="-3.018678" lat="43.321089"><ele>17.0</ele></trkpt>
<trkpt lon="-3.018692" lat="43.321126"><ele>17.0</ele></trkpt>
<trkpt lon="-3.018721" lat="43.321118"><ele>17.5</ele></trkpt>
<trkpt lon="-3.018754" lat="43.321109"><ele>18.0</ele></trkpt>
<trkpt lon="-3.018746" lat="43.321028"><ele>18.5</ele></trkpt>
<trkpt lon="-3.018768" lat="43.320997"><ele>19.0</ele></trkpt>
<trkpt lon="-3.018800" lat="43.320976"><ele>19.5</ele></trkpt>
<trkpt lon="-3.018830" lat="43.320979"><ele>20.0</ele></trkpt>
<trkpt lon="-3.018988" lat="43.320908"><ele>21.75</ele></trkpt>
<trkpt lon="-3.019023" lat="43.320900"><ele>22.0</ele></trkpt>
<trkpt lon="-3.019045" lat="43.320894"><ele>22.0</ele></trkpt>
<trkpt lon="-3.019447" lat="43.320805"><ele>26.25</ele></trkpt>
<trkpt lon="-3.019500" lat="43.320793"><ele>27.0</ele></trkpt>
<trkpt lon="-3.019632" lat="43.320764"><ele>28.5</ele></trkpt>
<trkpt lon="-3.019904" lat="43.320703"><ele>31.0</ele></trkpt>
<trkpt lon="-3.020055" lat="43.320670"><ele>32.5</ele></trkpt>
<trkpt lon="-3.019984" lat="43.320625"><ele>32.25</ele></trkpt>
<trkpt lon="-3.019938" lat="43.320598"><ele>32.0</ele></trkpt>
<trkpt lon="-3.019907" lat="43.320555"><ele>32.25</ele></trkpt>
<trkpt lon="-3.019978" lat="43.320526"><ele>32.75</ele></trkpt>
<trkpt lon="-3.020079" lat="43.320500"><ele>33.5</ele></trkpt>
<trkpt lon="-3.020212" lat="43.320554"><ele>33.75</ele></trkpt>
<trkpt lon="-3.020270" lat="43.320480"><ele>34.5</ele></trkpt>
<trkpt lon="-3.020470" lat="43.320224"><ele>36.75</ele></trkpt>
<trkpt lon="-3.019990" lat="43.320012"><ele>30.75</ele></trkpt>
  </trkseg></trk></gpx>
