<?xml version="1.0" encoding="UTF-8"?>
<gpx version="1.1" creator="compostel-brouter" xmlns="http://www.topografix.com/GPX/1/1">
  <metadata><name>ES-19-Comillas</name></metadata>
  <trk><name>ES-19-Comillas</name><trkseg>
<trkpt lon="-4.105993" lat="43.388011"><ele>93.25</ele></trkpt>
<trkpt lon="-4.106951" lat="43.388341"><ele>87.75</ele></trkpt>
<trkpt lon="-4.107175" lat="43.388415"><ele>87.0</ele></trkpt>
<trkpt lon="-4.107902" lat="43.388656"><ele>84.0</ele></trkpt>
<trkpt lon="-4.108055" lat="43.388709"><ele>83.0</ele></trkpt>
<trkpt lon="-4.108361" lat="43.388443"><ele>79.75</ele></trkpt>
<trkpt lon="-4.108500" lat="43.388014"><ele>76.5</ele></trkpt>
<trkpt lon="-4.108547" lat="43.387892"><ele>75.5</ele></trkpt>
<trkpt lon="-4.108580" lat="43.387835"><ele>75.25</ele></trkpt>
<trkpt lon="-4.109690" lat="43.388148"><ele>76.25</ele></trkpt>
<trkpt lon="-4.109764" lat="43.388147"><ele>76.25</ele></trkpt>
<trkpt lon="-4.109835" lat="43.388170"><ele>76.5</ele></trkpt>
<trkpt lon="-4.110080" lat="43.388045"><ele>77.25</ele></trkpt>
<trkpt lon="-4.110224" lat="43.387954"><ele>78.25</ele></trkpt>
<trkpt lon="-4.110459" lat="43.387725"><ele>80.75</ele></trkpt>
<trkpt lon="-4.110670" lat="43.387573"><ele>82.25</ele></trkpt>
<trkpt lon="-4.110717" lat="43.387534"><ele>82.25</ele></trkpt>
<trkpt lon="-4.110771" lat="43.387475"><ele>82.25</ele></trkpt>
<trkpt lon="-4.110961" lat="43.387211"><ele>85.0</ele></trkpt>
<trkpt lon="-4.111238" lat="43.386897"><ele>84.0</ele></trkpt>
<trkpt lon="-4.111542" lat="43.386611"><ele>83.75</ele></trkpt>
<trkpt lon="-4.111668" lat="43.386501"><ele>84.75</ele></trkpt>
<trkpt lon="-4.111855" lat="43.386406"><ele>84.25</ele></trkpt>
<trkpt lon="-4.112129" lat="43.386354"><ele>84.5</ele></trkpt>
<trkpt lon="-4.112233" lat="43.386287"><ele>85.75</ele></trkpt>
<trkpt lon="-4.112388" lat="43.386118"><ele>88.25</ele></trkpt>
<trkpt lon="-4.112449" lat="43.386019"><ele>88.75</ele></trkpt>
<trkpt lon="-4.112502" lat="43.385895"><ele>89.5</ele></trkpt>
<trkpt lon="-4.112544" lat="43.385646"><ele>92.0</ele></trkpt>
<trkpt lon="-4.112642" lat="43.385231"><ele>94.5</ele></trkpt>
<trkpt lon="-4.112677" lat="43.385126"><ele>94.75</ele></trkpt>
<trkpt lon="-4.112684" lat="43.384875"><ele>94.25</ele></trkpt>
<trkpt lon="-4.112773" lat="43.384512"><ele>92.0</ele></trkpt>
<trkpt lon="-4.112784" lat="43.384394"><ele>92.0</ele></trkpt>
<trkpt lon="-4.112896" lat="43.384248"><ele>93.25</ele></trkpt>
<trkpt lon="-4.112981" lat="43.384078"><ele>93.5</ele></trkpt>
<trkpt lon="-4.113013" lat="43.383920"><ele>93.0</ele></trkpt>
<trkpt lon="-4.112985" lat="43.383780"><ele>92.5</ele></trkpt>
<trkpt lon="-4.112949" lat="43.383678"><ele>92.25</ele></trkpt>
<trkpt lon="-4.112873" lat="43.383571"><ele>91.5</ele></trkpt>
<trkpt lon="-4.112795" lat="43.383502"><ele>90.75</ele></trkpt>
<trkpt lon="-4.112720" lat="43.383118"><ele>89.25</ele></trkpt>
<trkpt lon="-4.112789" lat="43.382588"><ele>86.5</ele></trkpt>
<trkpt lon="-4.112796" lat="43.382492"><ele>86.0</ele></trkpt>
<trkpt lon="-4.112773" lat="43.382396"><ele>86.0</ele></trkpt>
<trkpt lon="-4.112792" lat="43.382361"><ele>86.0</ele></trkpt>
<trkpt lon="-4.112840" lat="43.382186"><ele>85.75</ele></trkpt>
<trkpt lon="-4.112972" lat="43.382168"><ele>85.75</ele></trkpt>
<trkpt lon="-4.113462" lat="43.382151"><ele>84.75</ele></trkpt>
<trkpt lon="-4.113763" lat="43.382118"><ele>84.75</ele></trkpt>
<trkpt lon="-4.114366" lat="43.382194"><ele>81.25</ele></trkpt>
<trkpt lon="-4.114610" lat="43.382182"><ele>79.5</ele></trkpt>
<trkpt lon="-4.114908" lat="43.382055"><ele>78.5</ele></trkpt>
<trkpt lon="-4.115136" lat="43.382026"><ele>78.5</ele></trkpt>
<trkpt lon="-4.115598" lat="43.381986"><ele>76.5</ele></trkpt>
<trkpt lon="-4.115909" lat="43.381885"><ele>75.5</ele></trkpt>
<trkpt lon="-4.116043" lat="43.381745"><ele>75.5</ele></trkpt>
<trkpt lon="-4.116263" lat="43.381601"><ele>77.0</ele></trkpt>
<trkpt lon="-4.116499" lat="43.381382"><ele>77.75</ele></trkpt>
<trkpt lon="-4.116943" lat="43.381173"><ele>77.0</ele></trkpt>
<trkpt lon="-4.117411" lat="43.380969"><ele>76.25</ele></trkpt>
<trkpt lon="-4.117769" lat="43.380841"><ele>75.0</ele></trkpt>
<trkpt lon="-4.118027" lat="43.380623"><ele>73.0</ele></trkpt>
<trkpt lon="-4.118279" lat="43.380370"><ele>71.25</ele></trkpt>
<trkpt lon="-4.118505" lat="43.380271"><ele>71.0</ele></trkpt>
<trkpt lon="-4.118708" lat="43.380319"><ele>71.5</ele></trkpt>
<trkpt lon="-4.118901" lat="43.380444"><ele>73.25</ele></trkpt>
<trkpt lon="-4.119073" lat="43.380584"><ele>76.25</ele></trkpt>
<trkpt lon="-4.119363" lat="43.380666"><ele>82.75</ele></trkpt>
<trkpt lon="-4.119557" lat="43.380630"><ele>86.75</ele></trkpt>
<trkpt lon="-4.119664" lat="43.380450"><ele>87.25</ele></trkpt>
<trkpt lon="-4.119825" lat="43.380353"><ele>89.75</ele></trkpt>
<trkpt lon="-4.119969" lat="43.380331"><ele>92.5</ele></trkpt>
<trkpt lon="-4.120023" lat="43.380435"><ele>94.25</ele></trkpt>
<trkpt lon="-4.120291" lat="43.380693"><ele>99.0</ele></trkpt>
<trkpt lon="-4.120356" lat="43.380911"><ele>100.75</ele></trkpt>
<trkpt lon="-4.120634" lat="43.381181"><ele>103.0</ele></trkpt>
<trkpt lon="-4.121262" lat="43.381426"><ele>107.25</ele></trkpt>
<trkpt lon="-4.121364" lat="43.381543"><ele>107.5</ele></trkpt>
<trkpt lon="-4.121977" lat="43.381660"><ele>112.25</ele></trkpt>
<trkpt lon="-4.122619" lat="43.381726"><ele>116.5</ele></trkpt>
<trkpt lon="-4.122995" lat="43.381659"><ele>119.5</ele></trkpt>
<trkpt lon="-4.123156" lat="43.381519"><ele>120.0</ele></trkpt>
<trkpt lon="-4.123317" lat="43.381519"><ele>121.25</ele></trkpt>
<trkpt lon="-4.123457" lat="43.381425"><ele>122.0</ele></trkpt>
<trkpt lon="-4.123658" lat="43.381387"><ele>123.25</ele></trkpt>
<trkpt lon="-4.124798" lat="43.381172"><ele>128.5</ele></trkpt>
<trkpt lon="-4.125071" lat="43.381152"><ele>131.0</ele></trkpt>
<trkpt lon="-4.125290" lat="43.381204"><ele>133.75</ele></trkpt>
<trkpt lon="-4.125736" lat="43.381441"><ele>139.0</ele></trkpt>
<trkpt lon="-4.125903" lat="43.381460"><ele>140.5</ele></trkpt>
<trkpt lon="-4.126917" lat="43.381359"><ele>150.75</ele></trkpt>
<trkpt lon="-4.127039" lat="43.381251"><ele>151.5</ele></trkpt>
<trkpt lon="-4.127291" lat="43.381091"><ele>153.5</ele></trkpt>
<trkpt lon="-4.127592" lat="43.381025"><ele>156.75</ele></trkpt>
<trkpt lon="-4.127999" lat="43.381181"><ele>160.5</ele></trkpt>
<trkpt lon="-4.128252" lat="43.381246"><ele>162.25</ele></trkpt>
<trkpt lon="-4.128927" lat="43.381243"><ele>168.0</ele></trkpt>
<trkpt lon="-4.130751" lat="43.381106"><ele>188.25</ele></trkpt>
<trkpt lon="-4.130870" lat="43.381031"><ele>190.0</ele></trkpt>
<trkpt lon="-4.131020" lat="43.380822"><ele>193.25</ele></trkpt>
<trkpt lon="-4.130967" lat="43.380680"><ele>193.25</ele></trkpt>
<trkpt lon="-4.130892" lat="43.380540"><ele>192.75</ele></trkpt>
<trkpt lon="-4.130939" lat="43.380397"><ele>193.25</ele></trkpt>
<trkpt lon="-4.131203" lat="43.380318"><ele>195.75</ele></trkpt>
<trkpt lon="-4.131471" lat="43.380287"><ele>197.75</ele></trkpt>
<trkpt lon="-4.131601" lat="43.380149"><ele>198.75</ele></trkpt>
<trkpt lon="-4.131801" lat="43.380153"><ele>200.25</ele></trkpt>
<trkpt lon="-4.132067" lat="43.380136"><ele>201.5</ele></trkpt>
<trkpt lon="-4.132288" lat="43.380099"><ele>202.5</ele></trkpt>
<trkpt lon="-4.132527" lat="43.380051"><ele>203.5</ele></trkpt>
<trkpt lon="-4.132706" lat="43.380027"><ele>204.5</ele></trkpt>
<trkpt lon="-4.132888" lat="43.380025"><ele>205.0</ele></trkpt>
<trkpt lon="-4.132943" lat="43.380002"><ele>205.0</ele></trkpt>
<trkpt lon="-4.133027" lat="43.380120"><ele>205.25</ele></trkpt>
<trkpt lon="-4.133651" lat="43.380922"><ele>205.75</ele></trkpt>
<trkpt lon="-4.133812" lat="43.381160"><ele>206.0</ele></trkpt>
<trkpt lon="-4.133909" lat="43.381231"><ele>206.25</ele></trkpt>
<trkpt lon="-4.134311" lat="43.381369"><ele>207.0</ele></trkpt>
<trkpt lon="-4.135272" lat="43.381934"><ele>208.75</ele></trkpt>
<trkpt lon="-4.135363" lat="43.382020"><ele>210.0</ele></trkpt>
<trkpt lon="-4.135400" lat="43.382122"><ele>211.0</ele></trkpt>
<trkpt lon="-4.135451" lat="43.382541"><ele>210.25</ele></trkpt>
<trkpt lon="-4.135561" lat="43.382703"><ele>208.25</ele></trkpt>
<trkpt lon="-4.135859" lat="43.382989"><ele>204.25</ele></trkpt>
<trkpt lon="-4.135958" lat="43.383170"><ele>200.25</ele></trkpt>
<trkpt lon="-4.136004" lat="43.383222"><ele>199.5</ele></trkpt>
<trkpt lon="-4.136047" lat="43.383324"><ele>197.5</ele></trkpt>
<trkpt lon="-4.136774" lat="43.383226"><ele>210.0</ele></trkpt>
<trkpt lon="-4.138083" lat="43.383453"><ele>222.0</ele></trkpt>
<trkpt lon="-4.138416" lat="43.383694"><ele>219.25</ele></trkpt>
<trkpt lon="-4.138791" lat="43.383741"><ele>223.0</ele></trkpt>
<trkpt lon="-4.139909" lat="43.383633"><ele>226.5</ele></trkpt>
<trkpt lon="-4.140801" lat="43.383211"><ele>231.25</ele></trkpt>
<trkpt lon="-4.141445" lat="43.383010"><ele>236.5</ele></trkpt>
<trkpt lon="-4.141799" lat="43.383051"><ele>238.0</ele></trkpt>
<trkpt lon="-4.142359" lat="43.383003"><ele>240.0</ele></trkpt>
<trkpt lon="-4.142691" lat="43.382830"><ele>243.75</ele></trkpt>
<trkpt lon="-4.143512" lat="43.382861"><ele>245.0</ele></trkpt>
<trkpt lon="-4.144797" lat="43.382190"><ele>255.75</ele></trkpt>
<trkpt lon="-4.144936" lat="43.382070"><ele>256.5</ele></trkpt>
<trkpt lon="-4.145027" lat="43.381940"><ele>258.0</ele></trkpt>
<trkpt lon="-4.145126" lat="43.381831"><ele>258.25</ele></trkpt>
<trkpt lon="-4.145211" lat="43.381782"><ele>258.25</ele></trkpt>
<trkpt lon="-4.145229" lat="43.381831"><ele>258.0</ele></trkpt>
<trkpt lon="-4.145283" lat="43.382123"><ele>254.0</ele></trkpt>
<trkpt lon="-4.145319" lat="43.382450"><ele>247.5</ele></trkpt>
<trkpt lon="-4.145364" lat="43.382518"><ele>246.0</ele></trkpt>
<trkpt lon="-4.145558" lat="43.382719"><ele>240.0</ele></trkpt>
<trkpt lon="-4.145632" lat="43.382836"><ele>236.75</ele></trkpt>
<trkpt lon="-4.145661" lat="43.382911"><ele>234.5</ele></trkpt>
<trkpt lon="-4.145663" lat="43.382987"><ele>232.75</ele></trkpt>
<trkpt lon="-4.145622" lat="43.383079"><ele>230.75</ele></trkpt>
<trkpt lon="-4.145566" lat="43.383128"><ele>229.75</ele></trkpt>
<trkpt lon="-4.145484" lat="43.383184"><ele>228.5</ele></trkpt>
<trkpt lon="-4.145386" lat="43.383274"><ele>225.75</ele></trkpt>
<trkpt lon="-4.145330" lat="43.383357"><ele>223.25</ele></trkpt>
<trkpt lon="-4.145279" lat="43.383465"><ele>220.5</ele></trkpt>
<trkpt lon="-4.145221" lat="43.383621"><ele>217.5</ele></trkpt>
<trkpt lon="-4.145206" lat="43.383714"><ele>215.75</ele></trkpt>
<trkpt lon="-4.145232" lat="43.383797"><ele>214.0</ele></trkpt>
<trkpt lon="-4.145278" lat="43.383862"><ele>212.25</ele></trkpt>
<trkpt lon="-4.145337" lat="43.383916"><ele>210.75</ele></trkpt>
<trkpt lon="-4.145516" lat="43.383978"><ele>208.0</ele></trkpt>
<trkpt lon="-4.145572" lat="43.383987"><ele>207.25</ele></trkpt>
<trkpt lon="-4.145719" lat="43.383990"><ele>204.75</ele></trkpt>
<trkpt lon="-4.145800" lat="43.384006"><ele>203.5</ele></trkpt>
<trkpt lon="-4.145846" lat="43.384037"><ele>202.75</ele></trkpt>
<trkpt lon="-4.145877" lat="43.384078"><ele>202.5</ele></trkpt>
<trkpt lon="-4.145898" lat="43.384141"><ele>202.25</ele></trkpt>
<trkpt lon="-4.145898" lat="43.384194"><ele>202.25</ele></trkpt>
<trkpt lon="-4.145862" lat="43.384252"><ele>202.0</ele></trkpt>
<trkpt lon="-4.145810" lat="43.384294"><ele>202.0</ele></trkpt>
<trkpt lon="-4.145686" lat="43.384361"><ele>200.75</ele></trkpt>
<trkpt lon="-4.145584" lat="43.384401"><ele>199.25</ele></trkpt>
<trkpt lon="-4.145456" lat="43.384436"><ele>197.75</ele></trkpt>
<trkpt lon="-4.145330" lat="43.384445"><ele>197.0</ele></trkpt>
<trkpt lon="-4.145206" lat="43.384433"><ele>196.5</ele></trkpt>
<trkpt lon="-4.145071" lat="43.384437"><ele>195.0</ele></trkpt>
<trkpt lon="-4.144986" lat="43.384455"><ele>193.75</ele></trkpt>
<trkpt lon="-4.144908" lat="43.384500"><ele>193.25</ele></trkpt>
<trkpt lon="-4.144847" lat="43.384582"><ele>191.75</ele></trkpt>
<trkpt lon="-4.144800" lat="43.384708"><ele>189.0</ele></trkpt>
<trkpt lon="-4.144769" lat="43.384937"><ele>185.0</ele></trkpt>
<trkpt lon="-4.144761" lat="43.385200"><ele>181.25</ele></trkpt>
<trkpt lon="-4.144779" lat="43.385322"><ele>180.0</ele></trkpt>
<trkpt lon="-4.144854" lat="43.385551"><ele>179.25</ele></trkpt>
<trkpt lon="-4.144893" lat="43.385787"><ele>177.5</ele></trkpt>
<trkpt lon="-4.144912" lat="43.385857"><ele>177.0</ele></trkpt>
<trkpt lon="-4.144916" lat="43.385936"><ele>176.25</ele></trkpt>
<trkpt lon="-4.144947" lat="43.386116"><ele>174.5</ele></trkpt>
<trkpt lon="-4.144955" lat="43.386191"><ele>174.25</ele></trkpt>
<trkpt lon="-4.144926" lat="43.386468"><ele>173.5</ele></trkpt>
<trkpt lon="-4.144932" lat="43.386754"><ele>172.25</ele></trkpt>
<trkpt lon="-4.144953" lat="43.386911"><ele>171.25</ele></trkpt>
<trkpt lon="-4.144984" lat="43.386986"><ele>171.0</ele></trkpt>
<trkpt lon="-4.145038" lat="43.387048"><ele>170.5</ele></trkpt>
<trkpt lon="-4.145102" lat="43.387082"><ele>169.5</ele></trkpt>
<trkpt lon="-4.145195" lat="43.387076"><ele>168.5</ele></trkpt>
<trkpt lon="-4.145249" lat="43.387050"><ele>167.75</ele></trkpt>
<trkpt lon="-4.145338" lat="43.386968"><ele>166.75</ele></trkpt>
<trkpt lon="-4.145450" lat="43.386921"><ele>164.75</ele></trkpt>
<trkpt lon="-4.145533" lat="43.386933"><ele>163.25</ele></trkpt>
<trkpt lon="-4.145595" lat="43.386993"><ele>162.5</ele></trkpt>
<trkpt lon="-4.145756" lat="43.387261"><ele>161.0</ele></trkpt>
<trkpt lon="-4.145779" lat="43.387386"><ele>161.25</ele></trkpt>
<trkpt lon="-4.145782" lat="43.387652"><ele>162.25</ele></trkpt>
<trkpt lon="-4.145778" lat="43.387815"><ele>163.0</ele></trkpt>
<trkpt lon="-4.145791" lat="43.387871"><ele>163.25</ele></trkpt>
<trkpt lon="-4.145867" lat="43.388016"><ele>163.75</ele></trkpt>
<trkpt lon="-4.145874" lat="43.388187"><ele>164.5</ele></trkpt>
<trkpt lon="-4.145884" lat="43.388321"><ele>165.0</ele></trkpt>
<trkpt lon="-4.145917" lat="43.388383"><ele>165.25</ele></trkpt>
<trkpt lon="-4.145967" lat="43.388445"><ele>165.5</ele></trkpt>
<trkpt lon="-4.146054" lat="43.388529"><ele>165.75</ele></trkpt>
<trkpt lon="-4.146076" lat="43.388574"><ele>165.75</ele></trkpt>
<trkpt lon="-4.146136" lat="43.388621"><ele>166.25</ele></trkpt>
<trkpt lon="-4.146236" lat="43.388686"><ele>167.0</ele></trkpt>
<trkpt lon="-4.146441" lat="43.388780"><ele>167.0</ele></trkpt>
<trkpt lon="-4.146537" lat="43.388807"><ele>166.5</ele></trkpt>
<trkpt lon="-4.146781" lat="43.388835"><ele>166.0</ele></trkpt>
<trkpt lon="-4.146921" lat="43.388854"><ele>165.5</ele></trkpt>
<trkpt lon="-4.147304" lat="43.388945"><ele>163.5</ele></trkpt>
<trkpt lon="-4.147464" lat="43.388959"><ele>163.5</ele></trkpt>
<trkpt lon="-4.148099" lat="43.388970"><ele>162.5</ele></trkpt>
<trkpt lon="-4.148442" lat="43.388984"><ele>160.25</ele></trkpt>
<trkpt lon="-4.148792" lat="43.389031"><ele>155.25</ele></trkpt>
<trkpt lon="-4.148891" lat="43.389037"><ele>153.75</ele></trkpt>
<trkpt lon="-4.149008" lat="43.389086"><ele>151.75</ele></trkpt>
<trkpt lon="-4.149107" lat="43.389105"><ele>150.5</ele></trkpt>
<trkpt lon="-4.149200" lat="43.389107"><ele>149.5</ele></trkpt>
<trkpt lon="-4.149297" lat="43.389090"><ele>148.25</ele></trkpt>
<trkpt lon="-4.149411" lat="43.389041"><ele>147.25</ele></trkpt>
<trkpt lon="-4.149611" lat="43.388884"><ele>146.0</ele></trkpt>
<trkpt lon="-4.149784" lat="43.388717"><ele>145.5</ele></trkpt>
<trkpt lon="-4.149869" lat="43.388659"><ele>144.25</ele></trkpt>
<trkpt lon="-4.149936" lat="43.388595"><ele>143.75</ele></trkpt>
<trkpt lon="-4.149982" lat="43.388501"><ele>144.0</ele></trkpt>
<trkpt lon="-4.149986" lat="43.388448"><ele>144.75</ele></trkpt>
<trkpt lon="-4.150012" lat="43.388381"><ele>145.0</ele></trkpt>
<trkpt lon="-4.150077" lat="43.388327"><ele>144.75</ele></trkpt>
<trkpt lon="-4.150325" lat="43.388205"><ele>144.0</ele></trkpt>
<trkpt lon="-4.150426" lat="43.388139"><ele>144.25</ele></trkpt>
<trkpt lon="-4.150579" lat="43.387979"><ele>144.0</ele></trkpt>
<trkpt lon="-4.150709" lat="43.387693"><ele>144.25</ele></trkpt>
<trkpt lon="-4.150781" lat="43.387460"><ele>146.0</ele></trkpt>
<trkpt lon="-4.150757" lat="43.387243"><ele>147.75</ele></trkpt>
<trkpt lon="-4.150785" lat="43.386985"><ele>148.5</ele></trkpt>
<trkpt lon="-4.150779" lat="43.386905"><ele>148.75</ele></trkpt>
<trkpt lon="-4.150749" lat="43.386750"><ele>149.0</ele></trkpt>
<trkpt lon="-4.150769" lat="43.386570"><ele>148.75</ele></trkpt>
<trkpt lon="-4.150820" lat="43.386330"><ele>147.75</ele></trkpt>
<trkpt lon="-4.150806" lat="43.386239"><ele>147.75</ele></trkpt>
<trkpt lon="-4.150775" lat="43.386184"><ele>148.5</ele></trkpt>
<trkpt lon="-4.150719" lat="43.386108"><ele>150.25</ele></trkpt>
<trkpt lon="-4.150668" lat="43.386008"><ele>151.25</ele></trkpt>
<trkpt lon="-4.150422" lat="43.385605"><ele>155.0</ele></trkpt>
<trkpt lon="-4.150337" lat="43.385484"><ele>157.25</ele></trkpt>
<trkpt lon="-4.150315" lat="43.385433"><ele>157.5</ele></trkpt>
<trkpt lon="-4.150301" lat="43.385365"><ele>157.75</ele></trkpt>
<trkpt lon="-4.150315" lat="43.385297"><ele>157.25</ele></trkpt>
<trkpt lon="-4.150380" lat="43.385226"><ele>158.25</ele></trkpt>
<trkpt lon="-4.150505" lat="43.385163"><ele>159.0</ele></trkpt>
<trkpt lon="-4.150692" lat="43.385090"><ele>160.25</ele></trkpt>
<trkpt lon="-4.151106" lat="43.384952"><ele>163.0</ele></trkpt>
<trkpt lon="-4.151318" lat="43.384839"><ele>162.5</ele></trkpt>
<trkpt lon="-4.151467" lat="43.384714"><ele>162.25</ele></trkpt>
<trkpt lon="-4.151516" lat="43.384612"><ele>161.5</ele></trkpt>
<trkpt lon="-4.151542" lat="43.384537"><ele>161.25</ele></trkpt>
<trkpt lon="-4.151572" lat="43.384488"><ele>161.0</ele></trkpt>
<trkpt lon="-4.151623" lat="43.384433"><ele>160.75</ele></trkpt>
<trkpt lon="-4.151825" lat="43.384358"><ele>160.0</ele></trkpt>
<trkpt lon="-4.152028" lat="43.384252"><ele>161.0</ele></trkpt>
<trkpt lon="-4.152117" lat="43.384179"><ele>162.25</ele></trkpt>
<trkpt lon="-4.152396" lat="43.383990"><ele>163.75</ele></trkpt>
<trkpt lon="-4.152521" lat="43.383859"><ele>163.75</ele></trkpt>
<trkpt lon="-4.152567" lat="43.383776"><ele>163.25</ele></trkpt>
<trkpt lon="-4.152620" lat="43.383598"><ele>162.75</ele></trkpt>
<trkpt lon="-4.152678" lat="43.383353"><ele>160.75</ele></trkpt>
<trkpt lon="-4.152688" lat="43.383261"><ele>160.5</ele></trkpt>
<trkpt lon="-4.152682" lat="43.383132"><ele>160.5</ele></trkpt>
<trkpt lon="-4.152664" lat="43.383082"><ele>161.0</ele></trkpt>
<trkpt lon="-4.152622" lat="43.383011"><ele>161.5</ele></trkpt>
<trkpt lon="-4.152559" lat="43.382940"><ele>162.25</ele></trkpt>
<trkpt lon="-4.152527" lat="43.382863"><ele>162.25</ele></trkpt>
<trkpt lon="-4.152551" lat="43.382793"><ele>161.5</ele></trkpt>
<trkpt lon="-4.152579" lat="43.382747"><ele>161.5</ele></trkpt>
<trkpt lon="-4.152622" lat="43.382692"><ele>162.0</ele></trkpt>
<trkpt lon="-4.152684" lat="43.382629"><ele>162.25</ele></trkpt>
<trkpt lon="-4.152759" lat="43.382579"><ele>162.0</ele></trkpt>
<trkpt lon="-4.153443" lat="43.382350"><ele>162.25</ele></trkpt>
<trkpt lon="-4.153512" lat="43.382307"><ele>162.0</ele></trkpt>
<trkpt lon="-4.153586" lat="43.382234"><ele>162.25</ele></trkpt>
<trkpt lon="-4.153691" lat="43.382111"><ele>163.25</ele></trkpt>
<trkpt lon="-4.153899" lat="43.381821"><ele>166.5</ele></trkpt>
<trkpt lon="-4.154012" lat="43.381772"><ele>166.5</ele></trkpt>
<trkpt lon="-4.154109" lat="43.381747"><ele>166.25</ele></trkpt>
<trkpt lon="-4.154482" lat="43.381721"><ele>165.25</ele></trkpt>
<trkpt lon="-4.154628" lat="43.381691"><ele>165.0</ele></trkpt>
<trkpt lon="-4.154767" lat="43.381646"><ele>165.25</ele></trkpt>
<trkpt lon="-4.154951" lat="43.381567"><ele>165.75</ele></trkpt>
<trkpt lon="-4.155227" lat="43.381404"><ele>164.5</ele></trkpt>
<trkpt lon="-4.155552" lat="43.381227"><ele>163.75</ele></trkpt>
<trkpt lon="-4.155738" lat="43.381093"><ele>165.0</ele></trkpt>
<trkpt lon="-4.155822" lat="43.381014"><ele>163.25</ele></trkpt>
<trkpt lon="-4.155911" lat="43.380960"><ele>162.75</ele></trkpt>
<trkpt lon="-4.156050" lat="43.380920"><ele>163.0</ele></trkpt>
<trkpt lon="-4.156119" lat="43.380891"><ele>163.5</ele></trkpt>
<trkpt lon="-4.156256" lat="43.380754"><ele>165.5</ele></trkpt>
<trkpt lon="-4.156333" lat="43.380580"><ele>166.75</ele></trkpt>
<trkpt lon="-4.156343" lat="43.380499"><ele>167.75</ele></trkpt>
<trkpt lon="-4.156333" lat="43.380213"><ele>172.0</ele></trkpt>
<trkpt lon="-4.156301" lat="43.380040"><ele>175.25</ele></trkpt>
<trkpt lon="-4.156274" lat="43.379657"><ele>180.75</ele></trkpt>
<trkpt lon="-4.156287" lat="43.379527"><ele>182.5</ele></trkpt>
<trkpt lon="-4.156333" lat="43.379359"><ele>183.0</ele></trkpt>
<trkpt lon="-4.156369" lat="43.379326"><ele>182.25</ele></trkpt>
<trkpt lon="-4.156551" lat="43.379219"><ele>179.5</ele></trkpt>
<trkpt lon="-4.156650" lat="43.379076"><ele>179.5</ele></trkpt>
<trkpt lon="-4.156739" lat="43.378975"><ele>181.25</ele></trkpt>
<trkpt lon="-4.156858" lat="43.378897"><ele>183.25</ele></trkpt>
<trkpt lon="-4.156999" lat="43.378871"><ele>185.75</ele></trkpt>
<trkpt lon="-4.157080" lat="43.378893"><ele>186.75</ele></trkpt>
<trkpt lon="-4.157227" lat="43.378916"><ele>189.25</ele></trkpt>
<trkpt lon="-4.157401" lat="43.378952"><ele>190.5</ele></trkpt>
<trkpt lon="-4.157536" lat="43.378966"><ele>191.5</ele></trkpt>
<trkpt lon="-4.157627" lat="43.378960"><ele>192.0</ele></trkpt>
<trkpt lon="-4.157727" lat="43.378925"><ele>193.0</ele></trkpt>
<trkpt lon="-4.157863" lat="43.378858"><ele>195.5</ele></trkpt>
<trkpt lon="-4.157953" lat="43.378797"><ele>197.5</ele></trkpt>
<trkpt lon="-4.158081" lat="43.378754"><ele>198.75</ele></trkpt>
<trkpt lon="-4.158196" lat="43.378682"><ele>199.5</ele></trkpt>
<trkpt lon="-4.158307" lat="43.378588"><ele>200.5</ele></trkpt>
<trkpt lon="-4.158432" lat="43.378384"><ele>202.75</ele></trkpt>
<trkpt lon="-4.158726" lat="43.378008"><ele>206.0</ele></trkpt>
<trkpt lon="-4.158781" lat="43.377928"><ele>207.0</ele></trkpt>
<trkpt lon="-4.158874" lat="43.377681"><ele>209.75</ele></trkpt>
<trkpt lon="-4.158926" lat="43.377618"><ele>210.0</ele></trkpt>
<trkpt lon="-4.159031" lat="43.377558"><ele>210.75</ele></trkpt>
<trkpt lon="-4.159261" lat="43.377404"><ele>214.0</ele></trkpt>
<trkpt lon="-4.159366" lat="43.377326"><ele>215.5</ele></trkpt>
<trkpt lon="-4.159455" lat="43.377244"><ele>216.5</ele></trkpt>
<trkpt lon="-4.159727" lat="43.377023"><ele>219.0</ele></trkpt>
<trkpt lon="-4.159826" lat="43.376924"><ele>219.0</ele></trkpt>
<trkpt lon="-4.159867" lat="43.376858"><ele>219.25</ele></trkpt>
<trkpt lon="-4.159887" lat="43.376803"><ele>219.5</ele></trkpt>
<trkpt lon="-4.159978" lat="43.376649"><ele>218.25</ele></trkpt>
<trkpt lon="-4.160056" lat="43.376402"><ele>215.0</ele></trkpt>
<trkpt lon="-4.160125" lat="43.376333"><ele>213.0</ele></trkpt>
<trkpt lon="-4.160236" lat="43.376267"><ele>211.0</ele></trkpt>
<trkpt lon="-4.160347" lat="43.376228"><ele>209.5</ele></trkpt>
<trkpt lon="-4.160411" lat="43.376159"><ele>208.5</ele></trkpt>
<trkpt lon="-4.160462" lat="43.376090"><ele>207.75</ele></trkpt>
<trkpt lon="-4.160573" lat="43.375858"><ele>205.75</ele></trkpt>
<trkpt lon="-4.160631" lat="43.375773"><ele>205.0</ele></trkpt>
<trkpt lon="-4.160718" lat="43.375719"><ele>204.0</ele></trkpt>
<trkpt lon="-4.160908" lat="43.375581"><ele>202.0</ele></trkpt>
<trkpt lon="-4.160948" lat="43.375500"><ele>201.25</ele></trkpt>
<trkpt lon="-4.160995" lat="43.375277"><ele>199.75</ele></trkpt>
<trkpt lon="-4.161061" lat="43.375142"><ele>198.75</ele></trkpt>
<trkpt lon="-4.161134" lat="43.375067"><ele>197.5</ele></trkpt>
<trkpt lon="-4.161267" lat="43.374944"><ele>196.75</ele></trkpt>
<trkpt lon="-4.161463" lat="43.374834"><ele>196.0</ele></trkpt>
<trkpt lon="-4.161580" lat="43.374800"><ele>195.0</ele></trkpt>
<trkpt lon="-4.161915" lat="43.374771"><ele>193.75</ele></trkpt>
<trkpt lon="-4.162371" lat="43.374693"><ele>190.0</ele></trkpt>
<trkpt lon="-4.162480" lat="43.374707"><ele>187.75</ele></trkpt>
<trkpt lon="-4.162522" lat="43.374734"><ele>186.5</ele></trkpt>
<trkpt lon="-4.162514" lat="43.374790"><ele>185.5</ele></trkpt>
<trkpt lon="-4.162490" lat="43.374837"><ele>185.0</ele></trkpt>
<trkpt lon="-4.162395" lat="43.374949"><ele>184.25</ele></trkpt>
<trkpt lon="-4.162315" lat="43.375038"><ele>183.25</ele></trkpt>
<trkpt lon="-4.162212" lat="43.375125"><ele>182.25</ele></trkpt>
<trkpt lon="-4.162139" lat="43.375174"><ele>181.0</ele></trkpt>
<trkpt lon="-4.162131" lat="43.375238"><ele>179.0</ele></trkpt>
<trkpt lon="-4.162216" lat="43.375292"><ele>177.25</ele></trkpt>
<trkpt lon="-4.162317" lat="43.375283"><ele>175.5</ele></trkpt>
<trkpt lon="-4.162454" lat="43.375254"><ele>173.75</ele></trkpt>
<trkpt lon="-4.162563" lat="43.375194"><ele>173.5</ele></trkpt>
<trkpt lon="-4.162722" lat="43.375066"><ele>172.0</ele></trkpt>
<trkpt lon="-4.162898" lat="43.374990"><ele>170.0</ele></trkpt>
<trkpt lon="-4.162699" lat="43.375224"><ele>170.0</ele></trkpt>
<trkpt lon="-4.162518" lat="43.375356"><ele>168.75</ele></trkpt>
<trkpt lon="-4.162419" lat="43.375403"><ele>168.75</ele></trkpt>
<trkpt lon="-4.162583" lat="43.375434"><ele>165.5</ele></trkpt>
<trkpt lon="-4.162710" lat="43.375423"><ele>164.75</ele></trkpt>
<trkpt lon="-4.162949" lat="43.375439"><ele>161.5</ele></trkpt>
<trkpt lon="-4.163048" lat="43.375471"><ele>160.25</ele></trkpt>
<trkpt lon="-4.163190" lat="43.375543"><ele>159.5</ele></trkpt>
<trkpt lon="-4.163400" lat="43.375747"><ele>157.0</ele></trkpt>
<trkpt lon="-4.163578" lat="43.375875"><ele>153.75</ele></trkpt>
<trkpt lon="-4.163860" lat="43.376005"><ele>151.5</ele></trkpt>
<trkpt lon="-4.164007" lat="43.376054"><ele>150.0</ele></trkpt>
<trkpt lon="-4.164403" lat="43.376114"><ele>146.25</ele></trkpt>
<trkpt lon="-4.164561" lat="43.376111"><ele>144.25</ele></trkpt>
<trkpt lon="-4.165011" lat="43.376043"><ele>139.5</ele></trkpt>
<trkpt lon="-4.165266" lat="43.376007"><ele>135.75</ele></trkpt>
<trkpt lon="-4.165426" lat="43.376013"><ele>134.75</ele></trkpt>
<trkpt lon="-4.165507" lat="43.376054"><ele>134.25</ele></trkpt>
<trkpt lon="-4.165525" lat="43.376103"><ele>134.0</ele></trkpt>
<trkpt lon="-4.165473" lat="43.376147"><ele>133.5</ele></trkpt>
<trkpt lon="-4.165376" lat="43.376203"><ele>132.75</ele></trkpt>
<trkpt lon="-4.165254" lat="43.376312"><ele>132.0</ele></trkpt>
<trkpt lon="-4.165223" lat="43.376393"><ele>130.75</ele></trkpt>
<trkpt lon="-4.165224" lat="43.376477"><ele>130.5</ele></trkpt>
<trkpt lon="-4.165232" lat="43.376517"><ele>130.25</ele></trkpt>
<trkpt lon="-4.165295" lat="43.376613"><ele>128.75</ele></trkpt>
<trkpt lon="-4.165728" lat="43.377075"><ele>121.0</ele></trkpt>
<trkpt lon="-4.165766" lat="43.377162"><ele>120.75</ele></trkpt>
<trkpt lon="-4.165784" lat="43.377295"><ele>119.75</ele></trkpt>
<trkpt lon="-4.165722" lat="43.377723"><ele>115.0</ele></trkpt>
<trkpt lon="-4.165643" lat="43.378558"><ele>107.25</ele></trkpt>
<trkpt lon="-4.165654" lat="43.378767"><ele>105.5</ele></trkpt>
<trkpt lon="-4.165669" lat="43.378838"><ele>105.0</ele></trkpt>
<trkpt lon="-4.165700" lat="43.378868"><ele>104.5</ele></trkpt>
<trkpt lon="-4.165730" lat="43.378877"><ele>104.0</ele></trkpt>
<trkpt lon="-4.165794" lat="43.378868"><ele>103.5</ele></trkpt>
<trkpt lon="-4.165842" lat="43.378831"><ele>103.0</ele></trkpt>
<trkpt lon="-4.165942" lat="43.378668"><ele>101.0</ele></trkpt>
<trkpt lon="-4.166174" lat="43.378391"><ele>96.75</ele></trkpt>
<trkpt lon="-4.166495" lat="43.378058"><ele>91.75</ele></trkpt>
<trkpt lon="-4.166981" lat="43.377583"><ele>86.0</ele></trkpt>
<trkpt lon="-4.167158" lat="43.377456"><ele>84.25</ele></trkpt>
<trkpt lon="-4.167322" lat="43.377351"><ele>83.75</ele></trkpt>
<trkpt lon="-4.167524" lat="43.377267"><ele>82.0</ele></trkpt>
<trkpt lon="-4.167655" lat="43.377201"><ele>81.0</ele></trkpt>
<trkpt lon="-4.167859" lat="43.377039"><ele>80.0</ele></trkpt>
<trkpt lon="-4.168017" lat="43.376966"><ele>79.25</ele></trkpt>
<trkpt lon="-4.168136" lat="43.376964"><ele>78.25</ele></trkpt>
<trkpt lon="-4.168222" lat="43.376998"><ele>77.5</ele></trkpt>
<trkpt lon="-4.168341" lat="43.377064"><ele>76.75</ele></trkpt>
<trkpt lon="-4.168394" lat="43.377109"><ele>76.75</ele></trkpt>
<trkpt lon="-4.168574" lat="43.377184"><ele>76.75</ele></trkpt>
<trkpt lon="-4.168751" lat="43.377243"><ele>77.25</ele></trkpt>
<trkpt lon="-4.168942" lat="43.377280"><ele>77.5</ele></trkpt>
<trkpt lon="-4.169276" lat="43.377410"><ele>79.0</ele></trkpt>
<trkpt lon="-4.169484" lat="43.377504"><ele>80.0</ele></trkpt>
<trkpt lon="-4.169776" lat="43.377600"><ele>80.0</ele></trkpt>
<trkpt lon="-4.169997" lat="43.377629"><ele>79.5</ele></trkpt>
<trkpt lon="-4.170282" lat="43.377624"><ele>76.75</ele></trkpt>
<trkpt lon="-4.170802" lat="43.377570"><ele>72.5</ele></trkpt>
<trkpt lon="-4.171024" lat="43.377576"><ele>71.75</ele></trkpt>
<trkpt lon="-4.171356" lat="43.377637"><ele>70.0</ele></trkpt>
<trkpt lon="-4.171610" lat="43.377660"><ele>69.25</ele></trkpt>
<trkpt lon="-4.172035" lat="43.377740"><ele>67.25</ele></trkpt>
<trkpt lon="-4.172451" lat="43.377849"><ele>66.25</ele></trkpt>
<trkpt lon="-4.172760" lat="43.377942"><ele>65.0</ele></trkpt>
<trkpt lon="-4.172937" lat="43.378012"><ele>64.25</ele></trkpt>
<trkpt lon="-4.173258" lat="43.378054"><ele>62.5</ele></trkpt>
<trkpt lon="-4.173330" lat="43.378062"><ele>62.0</ele></trkpt>
<trkpt lon="-4.173846" lat="43.378086"><ele>59.25</ele></trkpt>
<trkpt lon="-4.174304" lat="43.378119"><ele>58.5</ele></trkpt>
<trkpt lon="-4.174473" lat="43.378116"><ele>58.0</ele></trkpt>
<trkpt lon="-4.174553" lat="43.378108"><ele>58.0</ele></trkpt>
<trkpt lon="-4.174699" lat="43.378066"><ele>57.75</ele></trkpt>
<trkpt lon="-4.175293" lat="43.377827"><ele>56.75</ele></trkpt>
<trkpt lon="-4.175409" lat="43.377792"><ele>56.75</ele></trkpt>
<trkpt lon="-4.175648" lat="43.377720"><ele>56.75</ele></trkpt>
<trkpt lon="-4.175850" lat="43.377689"><ele>57.25</ele></trkpt>
<trkpt lon="-4.175966" lat="43.377683"><ele>57.25</ele></trkpt>
<trkpt lon="-4.176229" lat="43.377712"><ele>56.25</ele></trkpt>
<trkpt lon="-4.176333" lat="43.377729"><ele>55.25</ele></trkpt>
<trkpt lon="-4.176335" lat="43.377637"><ele>54.5</ele></trkpt>
<trkpt lon="-4.176385" lat="43.377489"><ele>53.0</ele></trkpt>
<trkpt lon="-4.176443" lat="43.377370"><ele>52.5</ele></trkpt>
<trkpt lon="-4.176471" lat="43.377328"><ele>52.25</ele></trkpt>
<trkpt lon="-4.176615" lat="43.377337"><ele>52.25</ele></trkpt>
<trkpt lon="-4.177182" lat="43.377397"><ele>50.5</ele></trkpt>
<trkpt lon="-4.177325" lat="43.377431"><ele>49.75</ele></trkpt>
<trkpt lon="-4.177393" lat="43.377472"><ele>49.25</ele></trkpt>
<trkpt lon="-4.177426" lat="43.377528"><ele>49.25</ele></trkpt>
<trkpt lon="-4.177702" lat="43.377465"><ele>48.25</ele></trkpt>
<trkpt lon="-4.177835" lat="43.377467"><ele>47.75</ele></trkpt>
<trkpt lon="-4.177896" lat="43.377457"><ele>47.5</ele></trkpt>
<trkpt lon="-4.177998" lat="43.377480"><ele>47.25</ele></trkpt>
<trkpt lon="-4.178045" lat="43.377481"><ele>47.0</ele></trkpt>
<trkpt lon="-4.178164" lat="43.377415"><ele>48.25</ele></trkpt>
<trkpt lon="-4.178195" lat="43.377772"><ele>47.5</ele></trkpt>
<trkpt lon="-4.178239" lat="43.377811"><ele>47.5</ele></trkpt>
<trkpt lon="-4.178345" lat="43.377865"><ele>47.5</ele></trkpt>
<trkpt lon="-4.178669" lat="43.377929"><ele>47.75</ele></trkpt>
<trkpt lon="-4.178755" lat="43.377944"><ele>47.25</ele></trkpt>
<trkpt lon="-4.178957" lat="43.378018"><ele>46.25</ele></trkpt>
<trkpt lon="-4.179005" lat="43.378138"><ele>45.75</ele></trkpt>
<trkpt lon="-4.179117" lat="43.378107"><ele>45.75</ele></trkpt>
<trkpt lon="-4.179258" lat="43.378274"><ele>45.25</ele></trkpt>
<trkpt lon="-4.179391" lat="43.378383"><ele>45.5</ele></trkpt>
<trkpt lon="-4.179576" lat="43.378500"><ele>44.75</ele></trkpt>
<trkpt lon="-4.179726" lat="43.378636"><ele>43.75</ele></trkpt>
<trkpt lon="-4.179977" lat="43.378760"><ele>43.5</ele></trkpt>
<trkpt lon="-4.180039" lat="43.378696"><ele>43.5</ele></trkpt>
<trkpt lon="-4.180147" lat="43.378657"><ele>43.75</ele></trkpt>
<trkpt lon="-4.180263" lat="43.378629"><ele>43.75</ele></trkpt>
<trkpt lon="-4.180406" lat="43.378629"><ele>43.75</ele></trkpt>
<trkpt lon="-4.180569" lat="43.378639"><ele>43.75</ele></trkpt>
<trkpt lon="-4.180582" lat="43.378646"><ele>43.75</ele></trkpt>
<trkpt lon="-4.180887" lat="43.378783"><ele>43.25</ele></trkpt>
<trkpt lon="-4.181060" lat="43.378880"><ele>43.0</ele></trkpt>
<trkpt lon="-4.181141" lat="43.378968"><ele>42.5</ele></trkpt>
<trkpt lon="-4.181270" lat="43.379136"><ele>41.75</ele></trkpt>
<trkpt lon="-4.181493" lat="43.379136"><ele>41.5</ele></trkpt>
<trkpt lon="-4.181639" lat="43.379154"><ele>41.0</ele></trkpt>
<trkpt lon="-4.181798" lat="43.379185"><ele>40.5</ele></trkpt>
<trkpt lon="-4.182034" lat="43.379286"><ele>40.25</ele></trkpt>
<trkpt lon="-4.182101" lat="43.379639"><ele>40.5</ele></trkpt>
<trkpt lon="-4.182193" lat="43.379920"><ele>40.0</ele></trkpt>
<trkpt lon="-4.182281" lat="43.380046"><ele>39.25</ele></trkpt>
<trkpt lon="-4.182307" lat="43.380079"><ele>39.0</ele></trkpt>
<trkpt lon="-4.182489" lat="43.380295"><ele>36.75</ele></trkpt>
<trkpt lon="-4.182617" lat="43.380432"><ele>36.25</ele></trkpt>
<trkpt lon="-4.182769" lat="43.380728"><ele>36.5</ele></trkpt>
<trkpt lon="-4.182807" lat="43.380859"><ele>36.75</ele></trkpt>
<trkpt lon="-4.182995" lat="43.380837"><ele>36.75</ele></trkpt>
<trkpt lon="-4.183111" lat="43.380859"><ele>37.25</ele></trkpt>
<trkpt lon="-4.183196" lat="43.380888"><ele>37.75</ele></trkpt>
<trkpt lon="-4.183722" lat="43.380885"><ele>40.25</ele></trkpt>
<trkpt lon="-4.184155" lat="43.380907"><ele>41.5</ele></trkpt>
<trkpt lon="-4.184323" lat="43.380892"><ele>42.25</ele></trkpt>
<trkpt lon="-4.184357" lat="43.381065"><ele>42.25</ele></trkpt>
<trkpt lon="-4.184401" lat="43.381211"><ele>42.25</ele></trkpt>
<trkpt lon="-4.184470" lat="43.381445"><ele>42.0</ele></trkpt>
<trkpt lon="-4.184507" lat="43.381852"><ele>42.0</ele></trkpt>
<trkpt lon="-4.184561" lat="43.382051"><ele>42.25</ele></trkpt>
<trkpt lon="-4.184680" lat="43.382054"><ele>42.5</ele></trkpt>
<trkpt lon="-4.184766" lat="43.382069"><ele>42.25</ele></trkpt>
<trkpt lon="-4.184805" lat="43.382086"><ele>42.0</ele></trkpt>
<trkpt lon="-4.184828" lat="43.382122"><ele>41.75</ele></trkpt>
<trkpt lon="-4.184906" lat="43.382333"><ele>40.75</ele></trkpt>
<trkpt lon="-4.184937" lat="43.382359"><ele>40.5</ele></trkpt>
<trkpt lon="-4.184987" lat="43.382355"><ele>40.5</ele></trkpt>
<trkpt lon="-4.185050" lat="43.382339"><ele>40.25</ele></trkpt>
<trkpt lon="-4.185244" lat="43.382237"><ele>40.0</ele></trkpt>
<trkpt lon="-4.185377" lat="43.382176"><ele>39.5</ele></trkpt>
<trkpt lon="-4.185614" lat="43.382112"><ele>38.5</ele></trkpt>
<trkpt lon="-4.185851" lat="43.382126"><ele>37.0</ele></trkpt>
<trkpt lon="-4.185932" lat="43.382123"><ele>36.5</ele></trkpt>
<trkpt lon="-4.185981" lat="43.382098"><ele>36.25</ele></trkpt>
<trkpt lon="-4.186172" lat="43.381998"><ele>35.5</ele></trkpt>
<trkpt lon="-4.186278" lat="43.381954"><ele>35.25</ele></trkpt>
<trkpt lon="-4.186389" lat="43.381919"><ele>35.0</ele></trkpt>
<trkpt lon="-4.186636" lat="43.381914"><ele>35.0</ele></trkpt>
<trkpt lon="-4.186782" lat="43.381923"><ele>34.5</ele></trkpt>
<trkpt lon="-4.186930" lat="43.381957"><ele>34.0</ele></trkpt>
<trkpt lon="-4.187161" lat="43.382297"><ele>33.5</ele></trkpt>
<trkpt lon="-4.187210" lat="43.382304"><ele>33.25</ele></trkpt>
<trkpt lon="-4.187272" lat="43.382288"><ele>33.5</ele></trkpt>
<trkpt lon="-4.187451" lat="43.382240"><ele>34.5</ele></trkpt>
<trkpt lon="-4.187574" lat="43.382240"><ele>34.75</ele></trkpt>
<trkpt lon="-4.187769" lat="43.382280"><ele>34.5</ele></trkpt>
<trkpt lon="-4.188129" lat="43.382450"><ele>33.75</ele></trkpt>
<trkpt lon="-4.188279" lat="43.382503"><ele>34.5</ele></trkpt>
<trkpt lon="-4.188394" lat="43.382662"><ele>34.0</ele></trkpt>
<trkpt lon="-4.188537" lat="43.382735"><ele>34.5</ele></trkpt>
<trkpt lon="-4.188572" lat="43.382935"><ele>34.75</ele></trkpt>
<trkpt lon="-4.188760" lat="43.383211"><ele>35.25</ele></trkpt>
<trkpt lon="-4.188919" lat="43.383392"><ele>35.5</ele></trkpt>
<trkpt lon="-4.189053" lat="43.383482"><ele>36.25</ele></trkpt>
<trkpt lon="-4.189145" lat="43.383482"><ele>36.25</ele></trkpt>
<trkpt lon="-4.189225" lat="43.383513"><ele>37.25</ele></trkpt>
<trkpt lon="-4.189256" lat="43.383558"><ele>37.5</ele></trkpt>
<trkpt lon="-4.189309" lat="43.383686"><ele>38.75</ele></trkpt>
<trkpt lon="-4.189379" lat="43.383893"><ele>41.75</ele></trkpt>
<trkpt lon="-4.189379" lat="43.384008"><ele>44.0</ele></trkpt>
<trkpt lon="-4.189357" lat="43.384118"><ele>46.0</ele></trkpt>
<trkpt lon="-4.189278" lat="43.384264"><ele>48.75</ele></trkpt>
<trkpt lon="-4.189173" lat="43.384410"><ele>51.0</ele></trkpt>
<trkpt lon="-4.189114" lat="43.384543"><ele>54.25</ele></trkpt>
<trkpt lon="-4.189022" lat="43.384601"><ele>55.5</ele></trkpt>
<trkpt lon="-4.188897" lat="43.384641"><ele>55.75</ele></trkpt>
<trkpt lon="-4.188837" lat="43.384672"><ele>56.0</ele></trkpt>
<trkpt lon="-4.188821" lat="43.384697"><ele>56.25</ele></trkpt>
<trkpt lon="-4.188832" lat="43.384737"><ele>57.0</ele></trkpt>
<trkpt lon="-4.188892" lat="43.384768"><ele>58.0</ele></trkpt>
<trkpt lon="-4.188995" lat="43.384788"><ele>59.0</ele></trkpt>
<trkpt lon="-4.189334" lat="43.384788"><ele>60.0</ele></trkpt>
<trkpt lon="-4.189461" lat="43.384823"><ele>60.0</ele></trkpt>
<trkpt lon="-4.189587" lat="43.384781"><ele>60.25</ele></trkpt>
<trkpt lon="-4.189755" lat="43.384675"><ele>61.0</ele></trkpt>
<trkpt lon="-4.189795" lat="43.384709"><ele>61.75</ele></trkpt>
<trkpt lon="-4.190039" lat="43.384829"><ele>63.75</ele></trkpt>
<trkpt lon="-4.190586" lat="43.385009"><ele>65.25</ele></trkpt>
<trkpt lon="-4.190679" lat="43.385054"><ele>66.0</ele></trkpt>
<trkpt lon="-4.190777" lat="43.385120"><ele>67.0</ele></trkpt>
<trkpt lon="-4.190908" lat="43.385290"><ele>68.0</ele></trkpt>
<trkpt lon="-4.190938" lat="43.385329"><ele>68.75</ele></trkpt>
<trkpt lon="-4.191020" lat="43.385363"><ele>69.75</ele></trkpt>
<trkpt lon="-4.191164" lat="43.385411"><ele>71.25</ele></trkpt>
<trkpt lon="-4.191374" lat="43.385417"><ele>73.25</ele></trkpt>
<trkpt lon="-4.192364" lat="43.385357"><ele>74.75</ele></trkpt>
<trkpt lon="-4.192557" lat="43.385360"><ele>74.75</ele></trkpt>
<trkpt lon="-4.192797" lat="43.385416"><ele>75.5</ele></trkpt>
<trkpt lon="-4.192938" lat="43.385482"><ele>75.5</ele></trkpt>
<trkpt lon="-4.193261" lat="43.385657"><ele>76.5</ele></trkpt>
<trkpt lon="-4.193445" lat="43.385708"><ele>77.25</ele></trkpt>
<trkpt lon="-4.193660" lat="43.385711"><ele>77.75</ele></trkpt>
<trkpt lon="-4.194438" lat="43.385646"><ele>80.75</ele></trkpt>
<trkpt lon="-4.194823" lat="43.385601"><ele>81.25</ele></trkpt>
<trkpt lon="-4.195053" lat="43.385563"><ele>81.75</ele></trkpt>
<trkpt lon="-4.195538" lat="43.385452"><ele>84.0</ele></trkpt>
<trkpt lon="-4.195900" lat="43.385379"><ele>85.0</ele></trkpt>
<trkpt lon="-4.196262" lat="43.385253"><ele>84.75</ele></trkpt>
<trkpt lon="-4.196772" lat="43.385127"><ele>86.75</ele></trkpt>
<trkpt lon="-4.197156" lat="43.385059"><ele>88.25</ele></trkpt>
<trkpt lon="-4.197807" lat="43.384961"><ele>90.75</ele></trkpt>
<trkpt lon="-4.198215" lat="43.384930"><ele>92.0</ele></trkpt>
<trkpt lon="-4.199471" lat="43.384936"><ele>93.75</ele></trkpt>
<trkpt lon="-4.199686" lat="43.384924"><ele>93.75</ele></trkpt>
<trkpt lon="-4.199895" lat="43.384907"><ele>93.75</ele></trkpt>
<trkpt lon="-4.201866" lat="43.384457"><ele>94.0</ele></trkpt>
<trkpt lon="-4.202568" lat="43.384271"><ele>94.25</ele></trkpt>
<trkpt lon="-4.202796" lat="43.384190"><ele>93.75</ele></trkpt>
<trkpt lon="-4.202983" lat="43.384092"><ele>93.25</ele></trkpt>
<trkpt lon="-4.203203" lat="43.383916"><ele>91.75</ele></trkpt>
<trkpt lon="-4.203272" lat="43.384003"><ele>90.75</ele></trkpt>
<trkpt lon="-4.203336" lat="43.384149"><ele>89.0</ele></trkpt>
<trkpt lon="-4.203475" lat="43.384377"><ele>87.0</ele></trkpt>
<trkpt lon="-4.203530" lat="43.384440"><ele>86.0</ele></trkpt>
<trkpt lon="-4.203605" lat="43.384551"><ele>85.25</ele></trkpt>
<trkpt lon="-4.203708" lat="43.384634"><ele>84.5</ele></trkpt>
<trkpt lon="-4.203773" lat="43.384676"><ele>84.0</ele></trkpt>
<trkpt lon="-4.203844" lat="43.384712"><ele>83.25</ele></trkpt>
<trkpt lon="-4.203890" lat="43.384728"><ele>82.75</ele></trkpt>
<trkpt lon="-4.203936" lat="43.384765"><ele>82.25</ele></trkpt>
<trkpt lon="-4.203943" lat="43.384820"><ele>81.5</ele></trkpt>
<trkpt lon="-4.203911" lat="43.385019"><ele>79.5</ele></trkpt>
<trkpt lon="-4.203886" lat="43.385095"><ele>77.75</ele></trkpt>
<trkpt lon="-4.203857" lat="43.385142"><ele>77.0</ele></trkpt>
<trkpt lon="-4.203792" lat="43.385206"><ele>76.25</ele></trkpt>
<trkpt lon="-4.203777" lat="43.385266"><ele>75.0</ele></trkpt>
<trkpt lon="-4.203800" lat="43.385294"><ele>74.25</ele></trkpt>
<trkpt lon="-4.203961" lat="43.385292"><ele>73.0</ele></trkpt>
<trkpt lon="-4.204447" lat="43.385337"><ele>69.25</ele></trkpt>
<trkpt lon="-4.204667" lat="43.385343"><ele>67.5</ele></trkpt>
<trkpt lon="-4.204806" lat="43.385358"><ele>65.75</ele></trkpt>
<trkpt lon="-4.204895" lat="43.385373"><ele>64.75</ele></trkpt>
<trkpt lon="-4.204959" lat="43.385391"><ele>63.5</ele></trkpt>
<trkpt lon="-4.205003" lat="43.385425"><ele>62.0</ele></trkpt>
<trkpt lon="-4.205030" lat="43.385447"><ele>61.25</ele></trkpt>
<trkpt lon="-4.205279" lat="43.385466"><ele>59.75</ele></trkpt>
<trkpt lon="-4.205430" lat="43.385439"><ele>59.75</ele></trkpt>
<trkpt lon="-4.205649" lat="43.385366"><ele>59.5</ele></trkpt>
<trkpt lon="-4.205778" lat="43.385327"><ele>58.75</ele></trkpt>
<trkpt lon="-4.206087" lat="43.385216"><ele>56.25</ele></trkpt>
<trkpt lon="-4.206362" lat="43.385138"><ele>51.75</ele></trkpt>
<trkpt lon="-4.206432" lat="43.385147"><ele>50.5</ele></trkpt>
<trkpt lon="-4.206485" lat="43.385188"><ele>49.25</ele></trkpt>
<trkpt lon="-4.206559" lat="43.385266"><ele>48.25</ele></trkpt>
<trkpt lon="-4.206625" lat="43.385360"><ele>46.0</ele></trkpt>
<trkpt lon="-4.206635" lat="43.385581"><ele>43.5</ele></trkpt>
<trkpt lon="-4.206676" lat="43.385548"><ele>43.0</ele></trkpt>
<trkpt lon="-4.206700" lat="43.385495"><ele>43.5</ele></trkpt>
<trkpt lon="-4.206738" lat="43.385447"><ele>43.75</ele></trkpt>
<trkpt lon="-4.206806" lat="43.385398"><ele>43.75</ele></trkpt>
<trkpt lon="-4.206882" lat="43.385290"><ele>43.5</ele></trkpt>
<trkpt lon="-4.206925" lat="43.385264"><ele>43.0</ele></trkpt>
<trkpt lon="-4.207013" lat="43.385257"><ele>43.75</ele></trkpt>
<trkpt lon="-4.207178" lat="43.385287"><ele>45.25</ele></trkpt>
<trkpt lon="-4.207290" lat="43.385298"><ele>47.0</ele></trkpt>
<trkpt lon="-4.207354" lat="43.385321"><ele>48.0</ele></trkpt>
<trkpt lon="-4.207386" lat="43.385364"><ele>48.25</ele></trkpt>
<trkpt lon="-4.207425" lat="43.385438"><ele>48.0</ele></trkpt>
<trkpt lon="-4.207444" lat="43.385528"><ele>47.5</ele></trkpt>
<trkpt lon="-4.207481" lat="43.385615"><ele>47.25</ele></trkpt>
<trkpt lon="-4.207542" lat="43.385685"><ele>47.5</ele></trkpt>
<trkpt lon="-4.207587" lat="43.385761"><ele>47.5</ele></trkpt>
<trkpt lon="-4.207613" lat="43.386066"><ele>45.5</ele></trkpt>
<trkpt lon="-4.207668" lat="43.386127"><ele>45.5</ele></trkpt>
<trkpt lon="-4.207787" lat="43.386216"><ele>45.75</ele></trkpt>
<trkpt lon="-4.207872" lat="43.386249"><ele>45.5</ele></trkpt>
<trkpt lon="-4.207903" lat="43.386200"><ele>46.0</ele></trkpt>
<trkpt lon="-4.208103" lat="43.385991"><ele>49.5</ele></trkpt>
<trkpt lon="-4.208179" lat="43.385956"><ele>50.5</ele></trkpt>
<trkpt lon="-4.208343" lat="43.385946"><ele>51.75</ele></trkpt>
<trkpt lon="-4.208490" lat="43.385907"><ele>52.25</ele></trkpt>
<trkpt lon="-4.208566" lat="43.385861"><ele>52.75</ele></trkpt>
<trkpt lon="-4.208804" lat="43.385584"><ele>56.5</ele></trkpt>
<trkpt lon="-4.208998" lat="43.385298"><ele>62.5</ele></trkpt>
<trkpt lon="-4.209164" lat="43.385130"><ele>67.75</ele></trkpt>
<trkpt lon="-4.209249" lat="43.385092"><ele>69.25</ele></trkpt>
<trkpt lon="-4.209621" lat="43.385006"><ele>72.75</ele></trkpt>
<trkpt lon="-4.209707" lat="43.384966"><ele>73.75</ele></trkpt>
<trkpt lon="-4.209882" lat="43.384926"><ele>76.75</ele></trkpt>
<trkpt lon="-4.210078" lat="43.384907"><ele>78.75</ele></trkpt>
<trkpt lon="-4.210218" lat="43.384884"><ele>79.75</ele></trkpt>
<trkpt lon="-4.210283" lat="43.384859"><ele>80.5</ele></trkpt>
<trkpt lon="-4.210421" lat="43.384900"><ele>80.5</ele></trkpt>
<trkpt lon="-4.210517" lat="43.384952"><ele>79.75</ele></trkpt>
<trkpt lon="-4.210680" lat="43.384879"><ele>82.0</ele></trkpt>
<trkpt lon="-4.211097" lat="43.384668"><ele>83.0</ele></trkpt>
<trkpt lon="-4.211250" lat="43.384646"><ele>83.5</ele></trkpt>
<trkpt lon="-4.211683" lat="43.384556"><ele>83.75</ele></trkpt>
<trkpt lon="-4.211942" lat="43.384522"><ele>82.5</ele></trkpt>
<trkpt lon="-4.212823" lat="43.384536"><ele>81.5</ele></trkpt>
<trkpt lon="-4.212937" lat="43.384526"><ele>81.25</ele></trkpt>
<trkpt lon="-4.213139" lat="43.384476"><ele>81.75</ele></trkpt>
<trkpt lon="-4.213393" lat="43.384439"><ele>82.0</ele></trkpt>
<trkpt lon="-4.213547" lat="43.384451"><ele>81.75</ele></trkpt>
<trkpt lon="-4.213897" lat="43.384453"><ele>79.75</ele></trkpt>
<trkpt lon="-4.214287" lat="43.384439"><ele>81.75</ele></trkpt>
<trkpt lon="-4.214858" lat="43.384443"><ele>86.25</ele></trkpt>
<trkpt lon="-4.215020" lat="43.384445"><ele>88.0</ele></trkpt>
<trkpt lon="-4.215213" lat="43.384363"><ele>89.0</ele></trkpt>
<trkpt lon="-4.215335" lat="43.384332"><ele>89.75</ele></trkpt>
<trkpt lon="-4.215385" lat="43.384308"><ele>89.75</ele></trkpt>
<trkpt lon="-4.215507" lat="43.384226"><ele>89.75</ele></trkpt>
<trkpt lon="-4.215523" lat="43.384135"><ele>89.0</ele></trkpt>
<trkpt lon="-4.215562" lat="43.384074"><ele>89.25</ele></trkpt>
<trkpt lon="-4.215638" lat="43.384015"><ele>89.75</ele></trkpt>
<trkpt lon="-4.215756" lat="43.383960"><ele>90.0</ele></trkpt>
<trkpt lon="-4.216038" lat="43.383906"><ele>88.5</ele></trkpt>
<trkpt lon="-4.216140" lat="43.383905"><ele>88.0</ele></trkpt>
<trkpt lon="-4.216229" lat="43.383904"><ele>87.25</ele></trkpt>
<trkpt lon="-4.216440" lat="43.383943"><ele>86.5</ele></trkpt>
<trkpt lon="-4.216797" lat="43.383986"><ele>84.25</ele></trkpt>
<trkpt lon="-4.216908" lat="43.384041"><ele>83.5</ele></trkpt>
<trkpt lon="-4.216987" lat="43.384111"><ele>82.75</ele></trkpt>
<trkpt lon="-4.217053" lat="43.384221"><ele>81.75</ele></trkpt>
<trkpt lon="-4.217078" lat="43.384311"><ele>80.5</ele></trkpt>
<trkpt lon="-4.217036" lat="43.384563"><ele>80.75</ele></trkpt>
<trkpt lon="-4.217065" lat="43.384619"><ele>80.5</ele></trkpt>
<trkpt lon="-4.217170" lat="43.384750"><ele>79.25</ele></trkpt>
<trkpt lon="-4.217260" lat="43.384820"><ele>78.25</ele></trkpt>
<trkpt lon="-4.217406" lat="43.384899"><ele>77.0</ele></trkpt>
<trkpt lon="-4.217567" lat="43.384945"><ele>75.75</ele></trkpt>
<trkpt lon="-4.217543" lat="43.384903"><ele>75.0</ele></trkpt>
<trkpt lon="-4.217438" lat="43.384855"><ele>75.75</ele></trkpt>
<trkpt lon="-4.217361" lat="43.384777"><ele>75.75</ele></trkpt>
<trkpt lon="-4.217324" lat="43.384692"><ele>75.25</ele></trkpt>
<trkpt lon="-4.217311" lat="43.384529"><ele>74.0</ele></trkpt>
<trkpt lon="-4.217335" lat="43.384438"><ele>72.25</ele></trkpt>
<trkpt lon="-4.217482" lat="43.384248"><ele>71.0</ele></trkpt>
<trkpt lon="-4.217753" lat="43.384024"><ele>66.5</ele></trkpt>
<trkpt lon="-4.218170" lat="43.383819"><ele>62.25</ele></trkpt>
<trkpt lon="-4.218508" lat="43.383664"><ele>61.0</ele></trkpt>
<trkpt lon="-4.218694" lat="43.383611"><ele>61.0</ele></trkpt>
<trkpt lon="-4.218871" lat="43.383625"><ele>60.5</ele></trkpt>
<trkpt lon="-4.219236" lat="43.383685"><ele>58.75</ele></trkpt>
<trkpt lon="-4.219584" lat="43.383685"><ele>59.0</ele></trkpt>
<trkpt lon="-4.219876" lat="43.383620"><ele>59.75</ele></trkpt>
<trkpt lon="-4.220296" lat="43.383657"><ele>62.5</ele></trkpt>
<trkpt lon="-4.220707" lat="43.383670"><ele>65.25</ele></trkpt>
<trkpt lon="-4.221101" lat="43.383630"><ele>66.25</ele></trkpt>
<trkpt lon="-4.221233" lat="43.383539"><ele>67.5</ele></trkpt>
<trkpt lon="-4.221388" lat="43.383404"><ele>69.25</ele></trkpt>
<trkpt lon="-4.221611" lat="43.383264"><ele>70.0</ele></trkpt>
<trkpt lon="-4.221706" lat="43.383184"><ele>70.0</ele></trkpt>
<trkpt lon="-4.221891" lat="43.383081"><ele>69.75</ele></trkpt>
<trkpt lon="-4.222025" lat="43.382956"><ele>68.75</ele></trkpt>
<trkpt lon="-4.222181" lat="43.382834"><ele>66.75</ele></trkpt>
<trkpt lon="-4.222374" lat="43.382715"><ele>64.25</ele></trkpt>
<trkpt lon="-4.222498" lat="43.382607"><ele>61.5</ele></trkpt>
<trkpt lon="-4.222577" lat="43.382496"><ele>58.0</ele></trkpt>
<trkpt lon="-4.222647" lat="43.382217"><ele>60.0</ele></trkpt>
<trkpt lon="-4.222829" lat="43.381897"><ele>63.0</ele></trkpt>
<trkpt lon="-4.222967" lat="43.381632"><ele>65.5</ele></trkpt>
<trkpt lon="-4.223030" lat="43.381347"><ele>68.0</ele></trkpt>
<trkpt lon="-4.222999" lat="43.381136"><ele>70.75</ele></trkpt>
<trkpt lon="-4.222911" lat="43.380717"><ele>73.0</ele></trkpt>
<trkpt lon="-4.223089" lat="43.380382"><ele>73.5</ele></trkpt>
<trkpt lon="-4.223196" lat="43.380322"><ele>73.75</ele></trkpt>
<trkpt lon="-4.223661" lat="43.380175"><ele>74.75</ele></trkpt>
<trkpt lon="-4.223877" lat="43.380088"><ele>76.25</ele></trkpt>
<trkpt lon="-4.224085" lat="43.379928"><ele>79.25</ele></trkpt>
<trkpt lon="-4.224414" lat="43.379745"><ele>82.75</ele></trkpt>
<trkpt lon="-4.224678" lat="43.379522"><ele>85.25</ele></trkpt>
<trkpt lon="-4.224835" lat="43.379326"><ele>89.0</ele></trkpt>
<trkpt lon="-4.224895" lat="43.379231"><ele>91.25</ele></trkpt>
<trkpt lon="-4.225259" lat="43.379061"><ele>91.5</ele></trkpt>
<trkpt lon="-4.225527" lat="43.378912"><ele>90.75</ele></trkpt>
<trkpt lon="-4.225673" lat="43.378819"><ele>91.0</ele></trkpt>
<trkpt lon="-4.225762" lat="43.378730"><ele>91.75</ele></trkpt>
<trkpt lon="-4.225892" lat="43.378577"><ele>92.25</ele></trkpt>
<trkpt lon="-4.226064" lat="43.378401"><ele>91.5</ele></trkpt>
<trkpt lon="-4.226240" lat="43.378253"><ele>93.5</ele></trkpt>
<trkpt lon="-4.226381" lat="43.377955"><ele>98.75</ele></trkpt>
<trkpt lon="-4.226494" lat="43.377817"><ele>98.75</ele></trkpt>
<trkpt lon="-4.226553" lat="43.377722"><ele>99.5</ele></trkpt>
<trkpt lon="-4.226557" lat="43.377621"><ele>102.25</ele></trkpt>
<trkpt lon="-4.226619" lat="43.377413"><ele>107.0</ele></trkpt>
<trkpt lon="-4.226663" lat="43.377294"><ele>109.75</ele></trkpt>
<trkpt lon="-4.226856" lat="43.377028"><ele>115.5</ele></trkpt>
<trkpt lon="-4.226984" lat="43.376741"><ele>119.5</ele></trkpt>
<trkpt lon="-4.226973" lat="43.376611"><ele>120.75</ele></trkpt>
<trkpt lon="-4.226904" lat="43.376454"><ele>120.5</ele></trkpt>
<trkpt lon="-4.226896" lat="43.376369"><ele>120.5</ele></trkpt>
<trkpt lon="-4.226929" lat="43.376335"><ele>120.75</ele></trkpt>
<trkpt lon="-4.227028" lat="43.376300"><ele>121.25</ele></trkpt>
<trkpt lon="-4.227273" lat="43.376229"><ele>122.0</ele></trkpt>
<trkpt lon="-4.227313" lat="43.376157"><ele>122.25</ele></trkpt>
<trkpt lon="-4.227317" lat="43.376064"><ele>122.5</ele></trkpt>
<trkpt lon="-4.227339" lat="43.375982"><ele>122.5</ele></trkpt>
<trkpt lon="-4.227386" lat="43.375926"><ele>122.5</ele></trkpt>
<trkpt lon="-4.227478" lat="43.375865"><ele>122.75</ele></trkpt>
<trkpt lon="-4.227529" lat="43.375796"><ele>122.75</ele></trkpt>
<trkpt lon="-4.227536" lat="43.375679"><ele>123.0</ele></trkpt>
<trkpt lon="-4.227529" lat="43.375599"><ele>123.5</ele></trkpt>
<trkpt lon="-4.227547" lat="43.375517"><ele>123.75</ele></trkpt>
<trkpt lon="-4.227525" lat="43.375426"><ele>125.0</ele></trkpt>
<trkpt lon="-4.227445" lat="43.375312"><ele>126.75</ele></trkpt>
<trkpt lon="-4.227357" lat="43.375238"><ele>128.25</ele></trkpt>
<trkpt lon="-4.227262" lat="43.375097"><ele>131.5</ele></trkpt>
<trkpt lon="-4.227174" lat="43.374972"><ele>134.25</ele></trkpt>
<trkpt lon="-4.227050" lat="43.374627"><ele>138.25</ele></trkpt>
<trkpt lon="-4.227035" lat="43.374531"><ele>139.75</ele></trkpt>
<trkpt lon="-4.227065" lat="43.374388"><ele>141.25</ele></trkpt>
<trkpt lon="-4.227072" lat="43.374255"><ele>142.0</ele></trkpt>
<trkpt lon="-4.227024" lat="43.374154"><ele>143.5</ele></trkpt>
<trkpt lon="-4.227039" lat="43.374064"><ele>144.5</ele></trkpt>
<trkpt lon="-4.226973" lat="43.373894"><ele>147.5</ele></trkpt>
<trkpt lon="-4.226973" lat="43.373801"><ele>149.0</ele></trkpt>
<trkpt lon="-4.227002" lat="43.373665"><ele>151.0</ele></trkpt>
<trkpt lon="-4.227002" lat="43.373543"><ele>153.0</ele></trkpt>
<trkpt lon="-4.226988" lat="43.373426"><ele>155.0</ele></trkpt>
<trkpt lon="-4.226999" lat="43.373272"><ele>157.75</ele></trkpt>
<trkpt lon="-4.227050" lat="43.373166"><ele>160.0</ele></trkpt>
<trkpt lon="-4.227229" lat="43.372980"><ele>163.75</ele></trkpt>
<trkpt lon="-4.227430" lat="43.372841"><ele>165.75</ele></trkpt>
<trkpt lon="-4.227492" lat="43.372775"><ele>167.0</ele></trkpt>
<trkpt lon="-4.227613" lat="43.372738"><ele>167.25</ele></trkpt>
<trkpt lon="-4.227770" lat="43.372626"><ele>169.25</ele></trkpt>
<trkpt lon="-4.227971" lat="43.372560"><ele>170.0</ele></trkpt>
<trkpt lon="-4.228059" lat="43.372504"><ele>170.75</ele></trkpt>
<trkpt lon="-4.228157" lat="43.372416"><ele>172.5</ele></trkpt>
<trkpt lon="-4.228245" lat="43.372385"><ele>172.75</ele></trkpt>
<trkpt lon="-4.228596" lat="43.372387"><ele>172.5</ele></trkpt>
<trkpt lon="-4.228841" lat="43.372363"><ele>172.75</ele></trkpt>
<trkpt lon="-4.229130" lat="43.372302"><ele>174.0</ele></trkpt>
<trkpt lon="-4.229415" lat="43.372233"><ele>173.75</ele></trkpt>
<trkpt lon="-4.229469" lat="43.372191"><ele>174.5</ele></trkpt>
<trkpt lon="-4.229468" lat="43.372120"><ele>176.0</ele></trkpt>
<trkpt lon="-4.229471" lat="43.371946"><ele>179.75</ele></trkpt>
<trkpt lon="-4.229484" lat="43.371837"><ele>181.5</ele></trkpt>
<trkpt lon="-4.229570" lat="43.371696"><ele>183.5</ele></trkpt>
<trkpt lon="-4.229860" lat="43.371712"><ele>183.5</ele></trkpt>
<trkpt lon="-4.230326" lat="43.371572"><ele>185.0</ele></trkpt>
<trkpt lon="-4.230632" lat="43.371330"><ele>188.75</ele></trkpt>
<trkpt lon="-4.230938" lat="43.371112"><ele>191.5</ele></trkpt>
<trkpt lon="-4.231131" lat="43.371006"><ele>189.0</ele></trkpt>
<trkpt lon="-4.231158" lat="43.370905"><ele>190.0</ele></trkpt>
<trkpt lon="-4.231136" lat="43.370683"><ele>191.0</ele></trkpt>
<trkpt lon="-4.231244" lat="43.370569"><ele>190.5</ele></trkpt>
<trkpt lon="-4.231485" lat="43.370453"><ele>188.0</ele></trkpt>
<trkpt lon="-4.232081" lat="43.370195"><ele>187.0</ele></trkpt>
<trkpt lon="-4.232370" lat="43.370128"><ele>188.0</ele></trkpt>
<trkpt lon="-4.232500" lat="43.370034"><ele>188.75</ele></trkpt>
<trkpt lon="-4.232598" lat="43.369971"><ele>189.5</ele></trkpt>
<trkpt lon="-4.233078" lat="43.369743"><ele>194.25</ele></trkpt>
<trkpt lon="-4.233320" lat="43.369638"><ele>197.75</ele></trkpt>
<trkpt lon="-4.233446" lat="43.369628"><ele>198.75</ele></trkpt>
<trkpt lon="-4.233741" lat="43.369688"><ele>200.75</ele></trkpt>
<trkpt lon="-4.234030" lat="43.369715"><ele>201.0</ele></trkpt>
<trkpt lon="-4.234226" lat="43.369661"><ele>201.5</ele></trkpt>
<trkpt lon="-4.234382" lat="43.369638"><ele>202.25</ele></trkpt>
<trkpt lon="-4.234650" lat="43.369632"><ele>203.5</ele></trkpt>
<trkpt lon="-4.234991" lat="43.369649"><ele>204.0</ele></trkpt>
<trkpt lon="-4.235224" lat="43.369712"><ele>202.25</ele></trkpt>
<trkpt lon="-4.235538" lat="43.369817"><ele>199.25</ele></trkpt>
<trkpt lon="-4.235803" lat="43.369796"><ele>201.25</ele></trkpt>
<trkpt lon="-4.236152" lat="43.369729"><ele>207.25</ele></trkpt>
<trkpt lon="-4.236611" lat="43.369604"><ele>211.75</ele></trkpt>
<trkpt lon="-4.237375" lat="43.369487"><ele>215.25</ele></trkpt>
<trkpt lon="-4.237719" lat="43.369491"><ele>217.5</ele></trkpt>
<trkpt lon="-4.237879" lat="43.369525"><ele>218.75</ele></trkpt>
<trkpt lon="-4.237992" lat="43.369538"><ele>219.75</ele></trkpt>
<trkpt lon="-4.238330" lat="43.369525"><ele>222.5</ele></trkpt>
<trkpt lon="-4.238512" lat="43.369491"><ele>224.0</ele></trkpt>
<trkpt lon="-4.238775" lat="43.369304"><ele>227.75</ele></trkpt>
<trkpt lon="-4.238966" lat="43.369248"><ele>229.75</ele></trkpt>
<trkpt lon="-4.239406" lat="43.369191"><ele>234.25</ele></trkpt>
<trkpt lon="-4.239596" lat="43.369140"><ele>237.25</ele></trkpt>
<trkpt lon="-4.239880" lat="43.369006"><ele>242.0</ele></trkpt>
<trkpt lon="-4.239982" lat="43.368982"><ele>243.25</ele></trkpt>
<trkpt lon="-4.240490" lat="43.369190"><ele>245.25</ele></trkpt>
<trkpt lon="-4.240583" lat="43.369528"><ele>242.0</ele></trkpt>
<trkpt lon="-4.240739" lat="43.370000"><ele>236.25</ele></trkpt>
<trkpt lon="-4.240717" lat="43.370234"><ele>232.75</ele></trkpt>
<trkpt lon="-4.240567" lat="43.370605"><ele>224.0</ele></trkpt>
<trkpt lon="-4.240417" lat="43.370940"><ele>215.0</ele></trkpt>
<trkpt lon="-4.240264" lat="43.371392"><ele>203.0</ele></trkpt>
<trkpt lon="-4.240258" lat="43.371408"><ele>202.75</ele></trkpt>
<trkpt lon="-4.240210" lat="43.371534"><ele>200.75</ele></trkpt>
<trkpt lon="-4.240682" lat="43.371940"><ele>196.75</ele></trkpt>
<trkpt lon="-4.241098" lat="43.372266"><ele>191.75</ele></trkpt>
<trkpt lon="-4.241308" lat="43.372418"><ele>188.0</ele></trkpt>
<trkpt lon="-4.241431" lat="43.372438"><ele>187.25</ele></trkpt>
<trkpt lon="-4.241545" lat="43.372484"><ele>185.25</ele></trkpt>
<trkpt lon="-4.242006" lat="43.372624"><ele>180.75</ele></trkpt>
<trkpt lon="-4.242095" lat="43.372640"><ele>180.0</ele></trkpt>
<trkpt lon="-4.242138" lat="43.372641"><ele>179.75</ele></trkpt>
<trkpt lon="-4.242212" lat="43.372642"><ele>179.25</ele></trkpt>
<trkpt lon="-4.242271" lat="43.372632"><ele>178.75</ele></trkpt>
<trkpt lon="-4.242327" lat="43.372612"><ele>178.25</ele></trkpt>
<trkpt lon="-4.242439" lat="43.372539"><ele>177.5</ele></trkpt>
<trkpt lon="-4.242567" lat="43.372410"><ele>178.0</ele></trkpt>
<trkpt lon="-4.242654" lat="43.372372"><ele>177.25</ele></trkpt>
<trkpt lon="-4.242804" lat="43.372363"><ele>174.5</ele></trkpt>
<trkpt lon="-4.242985" lat="43.372387"><ele>172.75</ele></trkpt>
<trkpt lon="-4.243039" lat="43.372409"><ele>172.25</ele></trkpt>
<trkpt lon="-4.243082" lat="43.372442"><ele>172.0</ele></trkpt>
<trkpt lon="-4.243140" lat="43.372545"><ele>170.75</ele></trkpt>
<trkpt lon="-4.243164" lat="43.372569"><ele>170.25</ele></trkpt>
<trkpt lon="-4.243225" lat="43.372594"><ele>169.5</ele></trkpt>
<trkpt lon="-4.243285" lat="43.372610"><ele>168.75</ele></trkpt>
<trkpt lon="-4.243326" lat="43.372607"><ele>168.75</ele></trkpt>
<trkpt lon="-4.243494" lat="43.372579"><ele>168.0</ele></trkpt>
<trkpt lon="-4.243594" lat="43.372544"><ele>168.5</ele></trkpt>
<trkpt lon="-4.243683" lat="43.372521"><ele>168.5</ele></trkpt>
<trkpt lon="-4.243812" lat="43.372510"><ele>168.0</ele></trkpt>
<trkpt lon="-4.243999" lat="43.372507"><ele>168.5</ele></trkpt>
<trkpt lon="-4.244098" lat="43.372526"><ele>168.5</ele></trkpt>
<trkpt lon="-4.244153" lat="43.372564"><ele>168.0</ele></trkpt>
<trkpt lon="-4.244249" lat="43.372656"><ele>165.5</ele></trkpt>
<trkpt lon="-4.244297" lat="43.372673"><ele>165.0</ele></trkpt>
<trkpt lon="-4.244346" lat="43.372677"><ele>165.0</ele></trkpt>
<trkpt lon="-4.244642" lat="43.372652"><ele>163.75</ele></trkpt>
<trkpt lon="-4.244933" lat="43.372691"><ele>160.0</ele></trkpt>
<trkpt lon="-4.245030" lat="43.372728"><ele>158.75</ele></trkpt>
<trkpt lon="-4.245138" lat="43.372884"><ele>156.0</ele></trkpt>
<trkpt lon="-4.245191" lat="43.372917"><ele>155.75</ele></trkpt>
<trkpt lon="-4.245308" lat="43.372975"><ele>155.5</ele></trkpt>
<trkpt lon="-4.245375" lat="43.373026"><ele>154.75</ele></trkpt>
<trkpt lon="-4.245486" lat="43.373091"><ele>153.5</ele></trkpt>
<trkpt lon="-4.245568" lat="43.373111"><ele>153.25</ele></trkpt>
<trkpt lon="-4.245711" lat="43.373152"><ele>153.5</ele></trkpt>
<trkpt lon="-4.245855" lat="43.373232"><ele>153.5</ele></trkpt>
<trkpt lon="-4.245962" lat="43.373312"><ele>152.75</ele></trkpt>
<trkpt lon="-4.246129" lat="43.373489"><ele>152.25</ele></trkpt>
<trkpt lon="-4.246191" lat="43.373532"><ele>152.5</ele></trkpt>
<trkpt lon="-4.246238" lat="43.373554"><ele>152.75</ele></trkpt>
<trkpt lon="-4.246322" lat="43.373575"><ele>153.0</ele></trkpt>
<trkpt lon="-4.246406" lat="43.373584"><ele>153.25</ele></trkpt>
<trkpt lon="-4.246638" lat="43.373587"><ele>153.75</ele></trkpt>
<trkpt lon="-4.246726" lat="43.373611"><ele>153.75</ele></trkpt>
<trkpt lon="-4.246788" lat="43.373647"><ele>153.5</ele></trkpt>
<trkpt lon="-4.246916" lat="43.373746"><ele>152.5</ele></trkpt>
<trkpt lon="-4.246980" lat="43.373774"><ele>152.0</ele></trkpt>
<trkpt lon="-4.247025" lat="43.373805"><ele>151.5</ele></trkpt>
<trkpt lon="-4.247047" lat="43.373840"><ele>151.25</ele></trkpt>
<trkpt lon="-4.247048" lat="43.373925"><ele>150.25</ele></trkpt>
<trkpt lon="-4.246993" lat="43.374358"><ele>144.25</ele></trkpt>
<trkpt lon="-4.247006" lat="43.374447"><ele>143.0</ele></trkpt>
<trkpt lon="-4.246988" lat="43.374565"><ele>141.25</ele></trkpt>
<trkpt lon="-4.246950" lat="43.374651"><ele>140.0</ele></trkpt>
<trkpt lon="-4.246975" lat="43.374696"><ele>139.25</ele></trkpt>
<trkpt lon="-4.247130" lat="43.374785"><ele>137.75</ele></trkpt>
<trkpt lon="-4.247306" lat="43.374916"><ele>134.5</ele></trkpt>
<trkpt lon="-4.247452" lat="43.374994"><ele>132.75</ele></trkpt>
<trkpt lon="-4.247513" lat="43.375036"><ele>132.0</ele></trkpt>
<trkpt lon="-4.247599" lat="43.375083"><ele>130.25</ele></trkpt>
<trkpt lon="-4.247688" lat="43.375109"><ele>129.0</ele></trkpt>
<trkpt lon="-4.247795" lat="43.375127"><ele>128.25</ele></trkpt>
<trkpt lon="-4.247836" lat="43.375151"><ele>127.5</ele></trkpt>
<trkpt lon="-4.247852" lat="43.375176"><ele>127.0</ele></trkpt>
<trkpt lon="-4.247849" lat="43.375194"><ele>126.5</ele></trkpt>
<trkpt lon="-4.247847" lat="43.375208"><ele>126.25</ele></trkpt>
<trkpt lon="-4.247803" lat="43.375249"><ele>125.5</ele></trkpt>
<trkpt lon="-4.247617" lat="43.375375"><ele>122.75</ele></trkpt>
<trkpt lon="-4.247523" lat="43.375435"><ele>121.25</ele></trkpt>
<trkpt lon="-4.247282" lat="43.375563"><ele>117.75</ele></trkpt>
<trkpt lon="-4.247170" lat="43.375630"><ele>116.25</ele></trkpt>
<trkpt lon="-4.247055" lat="43.375772"><ele>113.25</ele></trkpt>
<trkpt lon="-4.246976" lat="43.375846"><ele>111.5</ele></trkpt>
<trkpt lon="-4.246906" lat="43.375897"><ele>110.75</ele></trkpt>
<trkpt lon="-4.246746" lat="43.376006"><ele>109.25</ele></trkpt>
<trkpt lon="-4.246687" lat="43.376053"><ele>108.25</ele></trkpt>
<trkpt lon="-4.246526" lat="43.376131"><ele>107.5</ele></trkpt>
<trkpt lon="-4.246266" lat="43.376266"><ele>106.25</ele></trkpt>
<trkpt lon="-4.246242" lat="43.376294"><ele>105.75</ele></trkpt>
<trkpt lon="-4.246243" lat="43.376326"><ele>105.0</ele></trkpt>
<trkpt lon="-4.246280" lat="43.376355"><ele>104.0</ele></trkpt>
<trkpt lon="-4.246398" lat="43.376395"><ele>102.5</ele></trkpt>
<trkpt lon="-4.246898" lat="43.376426"><ele>96.5</ele></trkpt>
<trkpt lon="-4.247222" lat="43.376459"><ele>92.25</ele></trkpt>
<trkpt lon="-4.247409" lat="43.376449"><ele>91.25</ele></trkpt>
<trkpt lon="-4.247476" lat="43.376464"><ele>90.5</ele></trkpt>
<trkpt lon="-4.247496" lat="43.376509"><ele>89.25</ele></trkpt>
<trkpt lon="-4.247482" lat="43.376556"><ele>88.5</ele></trkpt>
<trkpt lon="-4.247445" lat="43.376611"><ele>87.5</ele></trkpt>
<trkpt lon="-4.247383" lat="43.376678"><ele>86.5</ele></trkpt>
<trkpt lon="-4.247276" lat="43.376777"><ele>84.75</ele></trkpt>
<trkpt lon="-4.247030" lat="43.376949"><ele>81.5</ele></trkpt>
<trkpt lon="-4.246878" lat="43.377070"><ele>79.0</ele></trkpt>
<trkpt lon="-4.246652" lat="43.377235"><ele>75.5</ele></trkpt>
<trkpt lon="-4.246548" lat="43.377300"><ele>74.25</ele></trkpt>
<trkpt lon="-4.246462" lat="43.377363"><ele>73.25</ele></trkpt>
<trkpt lon="-4.246420" lat="43.377438"><ele>72.0</ele></trkpt>
<trkpt lon="-4.246364" lat="43.377638"><ele>69.25</ele></trkpt>
<trkpt lon="-4.246313" lat="43.377773"><ele>68.0</ele></trkpt>
<trkpt lon="-4.246118" lat="43.378059"><ele>63.75</ele></trkpt>
<trkpt lon="-4.246134" lat="43.378125"><ele>63.0</ele></trkpt>
<trkpt lon="-4.246227" lat="43.378179"><ele>62.25</ele></trkpt>
<trkpt lon="-4.246333" lat="43.378203"><ele>61.5</ele></trkpt>
<trkpt lon="-4.246406" lat="43.378202"><ele>61.0</ele></trkpt>
<trkpt lon="-4.246474" lat="43.378177"><ele>60.0</ele></trkpt>
<trkpt lon="-4.246539" lat="43.378134"><ele>59.5</ele></trkpt>
<trkpt lon="-4.246652" lat="43.378080"><ele>58.0</ele></trkpt>
<trkpt lon="-4.246747" lat="43.378047"><ele>57.25</ele></trkpt>
<trkpt lon="-4.246953" lat="43.378028"><ele>55.25</ele></trkpt>
<trkpt lon="-4.247091" lat="43.378036"><ele>54.5</ele></trkpt>
<trkpt lon="-4.247247" lat="43.378054"><ele>53.5</ele></trkpt>
<trkpt lon="-4.247540" lat="43.378068"><ele>50.5</ele></trkpt>
<trkpt lon="-4.247849" lat="43.378068"><ele>48.5</ele></trkpt>
<trkpt lon="-4.248012" lat="43.378090"><ele>47.25</ele></trkpt>
<trkpt lon="-4.248064" lat="43.378104"><ele>47.0</ele></trkpt>
<trkpt lon="-4.248132" lat="43.378149"><ele>47.0</ele></trkpt>
<trkpt lon="-4.248294" lat="43.378297"><ele>47.0</ele></trkpt>
<trkpt lon="-4.248420" lat="43.378367"><ele>47.0</ele></trkpt>
<trkpt lon="-4.248525" lat="43.378413"><ele>47.0</ele></trkpt>
<trkpt lon="-4.248587" lat="43.378465"><ele>46.5</ele></trkpt>
<trkpt lon="-4.248646" lat="43.378564"><ele>45.5</ele></trkpt>
<trkpt lon="-4.249005" lat="43.378822"><ele>42.75</ele></trkpt>
<trkpt lon="-4.249324" lat="43.378851"><ele>41.0</ele></trkpt>
<trkpt lon="-4.249691" lat="43.379051"><ele>41.25</ele></trkpt>
<trkpt lon="-4.249890" lat="43.379116"><ele>42.75</ele></trkpt>
<trkpt lon="-4.249931" lat="43.379130"><ele>42.75</ele></trkpt>
<trkpt lon="-4.250078" lat="43.379238"><ele>43.25</ele></trkpt>
<trkpt lon="-4.250218" lat="43.379386"><ele>43.75</ele></trkpt>
<trkpt lon="-4.250304" lat="43.379553"><ele>43.75</ele></trkpt>
<trkpt lon="-4.250400" lat="43.379918"><ele>44.5</ele></trkpt>
<trkpt lon="-4.250317" lat="43.380301"><ele>41.75</ele></trkpt>
<trkpt lon="-4.250576" lat="43.380485"><ele>39.5</ele></trkpt>
<trkpt lon="-4.250752" lat="43.380610"><ele>38.0</ele></trkpt>
<trkpt lon="-4.250924" lat="43.380768"><ele>36.0</ele></trkpt>
<trkpt lon="-4.251014" lat="43.380823"><ele>34.75</ele></trkpt>
<trkpt lon="-4.251249" lat="43.380904"><ele>34.5</ele></trkpt>
<trkpt lon="-4.251768" lat="43.381053"><ele>32.25</ele></trkpt>
<trkpt lon="-4.251815" lat="43.381093"><ele>32.0</ele></trkpt>
<trkpt lon="-4.251959" lat="43.381162"><ele>32.0</ele></trkpt>
<trkpt lon="-4.252024" lat="43.381035"><ele>32.25</ele></trkpt>
<trkpt lon="-4.252571" lat="43.381077"><ele>31.75</ele></trkpt>
<trkpt lon="-4.252824" lat="43.381083"><ele>31.0</ele></trkpt>
<trkpt lon="-4.252978" lat="43.381104"><ele>31.0</ele></trkpt>
<trkpt lon="-4.253133" lat="43.381170"><ele>31.0</ele></trkpt>
<trkpt lon="-4.253799" lat="43.381214"><ele>30.0</ele></trkpt>
<trkpt lon="-4.254022" lat="43.381071"><ele>29.5</ele></trkpt>
<trkpt lon="-4.254096" lat="43.381077"><ele>29.25</ele></trkpt>
<trkpt lon="-4.254493" lat="43.381198"><ele>29.5</ele></trkpt>
<trkpt lon="-4.255239" lat="43.381352"><ele>28.0</ele></trkpt>
<trkpt lon="-4.255369" lat="43.381369"><ele>28.0</ele></trkpt>
<trkpt lon="-4.255559" lat="43.381366"><ele>28.0</ele></trkpt>
<trkpt lon="-4.255702" lat="43.381338"><ele>28.5</ele></trkpt>
<trkpt lon="-4.255807" lat="43.381296"><ele>28.75</ele></trkpt>
<trkpt lon="-4.255871" lat="43.381252"><ele>29.0</ele></trkpt>
<trkpt lon="-4.256847" lat="43.380270"><ele>32.0</ele></trkpt>
<trkpt lon="-4.256917" lat="43.380198"><ele>32.5</ele></trkpt>
<trkpt lon="-4.256975" lat="43.380114"><ele>33.25</ele></trkpt>
<trkpt lon="-4.257011" lat="43.380080"><ele>33.5</ele></trkpt>
<trkpt lon="-4.257127" lat="43.379990"><ele>34.75</ele></trkpt>
<trkpt lon="-4.257238" lat="43.379939"><ele>35.5</ele></trkpt>
<trkpt lon="-4.257443" lat="43.379885"><ele>37.0</ele></trkpt>
<trkpt lon="-4.257760" lat="43.379850"><ele>39.75</ele></trkpt>
<trkpt lon="-4.258467" lat="43.379749"><ele>44.0</ele></trkpt>
<trkpt lon="-4.259139" lat="43.379714"><ele>46.75</ele></trkpt>
<trkpt lon="-4.259236" lat="43.379703"><ele>48.0</ele></trkpt>
<trkpt lon="-4.259315" lat="43.379662"><ele>49.5</ele></trkpt>
<trkpt lon="-4.259511" lat="43.379543"><ele>52.0</ele></trkpt>
<trkpt lon="-4.259737" lat="43.379451"><ele>54.0</ele></trkpt>
<trkpt lon="-4.259884" lat="43.379400"><ele>54.75</ele></trkpt>
<trkpt lon="-4.260002" lat="43.379256"><ele>55.5</ele></trkpt>
<trkpt lon="-4.260048" lat="43.379142"><ele>56.5</ele></trkpt>
<trkpt lon="-4.260131" lat="43.379083"><ele>57.5</ele></trkpt>
<trkpt lon="-4.260254" lat="43.379039"><ele>58.5</ele></trkpt>
<trkpt lon="-4.260391" lat="43.379017"><ele>59.75</ele></trkpt>
<trkpt lon="-4.260570" lat="43.379010"><ele>61.25</ele></trkpt>
<trkpt lon="-4.260688" lat="43.379021"><ele>62.5</ele></trkpt>
<trkpt lon="-4.260927" lat="43.379092"><ele>65.5</ele></trkpt>
<trkpt lon="-4.261044" lat="43.379147"><ele>67.5</ele></trkpt>
<trkpt lon="-4.261128" lat="43.379203"><ele>68.75</ele></trkpt>
<trkpt lon="-4.261313" lat="43.379346"><ele>70.75</ele></trkpt>
<trkpt lon="-4.261398" lat="43.379415"><ele>72.0</ele></trkpt>
<trkpt lon="-4.261468" lat="43.379512"><ele>71.75</ele></trkpt>
<trkpt lon="-4.261558" lat="43.379595"><ele>72.25</ele></trkpt>
<trkpt lon="-4.261645" lat="43.379729"><ele>72.5</ele></trkpt>
<trkpt lon="-4.261769" lat="43.379811"><ele>71.5</ele></trkpt>
<trkpt lon="-4.261881" lat="43.379853"><ele>71.0</ele></trkpt>
<trkpt lon="-4.262004" lat="43.379867"><ele>70.75</ele></trkpt>
<trkpt lon="-4.262150" lat="43.379844"><ele>70.75</ele></trkpt>
<trkpt lon="-4.262261" lat="43.379800"><ele>71.0</ele></trkpt>
<trkpt lon="-4.262363" lat="43.379811"><ele>71.0</ele></trkpt>
<trkpt lon="-4.262632" lat="43.379873"><ele>70.5</ele></trkpt>
<trkpt lon="-4.262767" lat="43.379950"><ele>69.5</ele></trkpt>
<trkpt lon="-4.263016" lat="43.380145"><ele>68.5</ele></trkpt>
<trkpt lon="-4.263122" lat="43.380237"><ele>68.0</ele></trkpt>
<trkpt lon="-4.263207" lat="43.380341"><ele>68.0</ele></trkpt>
<trkpt lon="-4.263250" lat="43.380402"><ele>68.25</ele></trkpt>
<trkpt lon="-4.263285" lat="43.380501"><ele>69.25</ele></trkpt>
<trkpt lon="-4.263327" lat="43.380697"><ele>69.25</ele></trkpt>
<trkpt lon="-4.263331" lat="43.380776"><ele>69.0</ele></trkpt>
<trkpt lon="-4.263664" lat="43.380789"><ele>68.75</ele></trkpt>
<trkpt lon="-4.263935" lat="43.380812"><ele>69.75</ele></trkpt>
<trkpt lon="-4.264245" lat="43.380860"><ele>69.5</ele></trkpt>
<trkpt lon="-4.264436" lat="43.380864"><ele>69.5</ele></trkpt>
<trkpt lon="-4.265026" lat="43.380814"><ele>71.0</ele></trkpt>
<trkpt lon="-4.265315" lat="43.380797"><ele>71.5</ele></trkpt>
<trkpt lon="-4.265541" lat="43.380817"><ele>71.75</ele></trkpt>
<trkpt lon="-4.265741" lat="43.380884"><ele>70.0</ele></trkpt>
<trkpt lon="-4.265854" lat="43.380973"><ele>68.5</ele></trkpt>
<trkpt lon="-4.265961" lat="43.381181"><ele>66.0</ele></trkpt>
<trkpt lon="-4.266066" lat="43.381575"><ele>60.5</ele></trkpt>
<trkpt lon="-4.266154" lat="43.381643"><ele>58.5</ele></trkpt>
<trkpt lon="-4.266137" lat="43.381779"><ele>58.0</ele></trkpt>
<trkpt lon="-4.266198" lat="43.381971"><ele>56.0</ele></trkpt>
<trkpt lon="-4.266479" lat="43.382000"><ele>51.5</ele></trkpt>
<trkpt lon="-4.266766" lat="43.381887"><ele>49.5</ele></trkpt>
<trkpt lon="-4.267411" lat="43.382172"><ele>44.25</ele></trkpt>
<trkpt lon="-4.267525" lat="43.382408"><ele>43.0</ele></trkpt>
<trkpt lon="-4.267500" lat="43.382553"><ele>42.75</ele></trkpt>
<trkpt lon="-4.267280" lat="43.382733"><ele>39.75</ele></trkpt>
<trkpt lon="-4.266800" lat="43.382925"><ele>33.0</ele></trkpt>
<trkpt lon="-4.266761" lat="43.383102"><ele>35.75</ele></trkpt>
<trkpt lon="-4.266833" lat="43.383330"><ele>41.5</ele></trkpt>
<trkpt lon="-4.267037" lat="43.383563"><ele>48.75</ele></trkpt>
<trkpt lon="-4.266993" lat="43.384124"><ele>39.25</ele></trkpt>
<trkpt lon="-4.267059" lat="43.384392"><ele>37.5</ele></trkpt>
<trkpt lon="-4.267346" lat="43.384593"><ele>38.5</ele></trkpt>
<trkpt lon="-4.267567" lat="43.384613"><ele>38.5</ele></trkpt>
<trkpt lon="-4.267732" lat="43.384553"><ele>39.5</ele></trkpt>
<trkpt lon="-4.268030" lat="43.384408"><ele>42.25</ele></trkpt>
<trkpt lon="-4.268581" lat="43.384513"><ele>44.0</ele></trkpt>
<trkpt lon="-4.268841" lat="43.384597"><ele>45.75</ele></trkpt>
<trkpt lon="-4.269015" lat="43.384694"><ele>46.5</ele></trkpt>
<trkpt lon="-4.269025" lat="43.384802"><ele>47.0</ele></trkpt>
<trkpt lon="-4.269000" lat="43.384956"><ele>47.75</ele></trkpt>
<trkpt lon="-4.269041" lat="43.385003"><ele>48.5</ele></trkpt>
<trkpt lon="-4.269052" lat="43.385084"><ele>48.75</ele></trkpt>
<trkpt lon="-4.269110" lat="43.385201"><ele>49.25</ele></trkpt>
<trkpt lon="-4.269415" lat="43.385303"><ele>51.75</ele></trkpt>
<trkpt lon="-4.269871" lat="43.385414"><ele>49.75</ele></trkpt>
<trkpt lon="-4.270049" lat="43.385419"><ele>50.0</ele></trkpt>
<trkpt lon="-4.270193" lat="43.385431"><ele>50.25</ele></trkpt>
<trkpt lon="-4.270354" lat="43.385421"><ele>50.25</ele></trkpt>
<trkpt lon="-4.270539" lat="43.385431"><ele>50.25</ele></trkpt>
<trkpt lon="-4.270829" lat="43.385482"><ele>50.75</ele></trkpt>
<trkpt lon="-4.271352" lat="43.385598"><ele>49.75</ele></trkpt>
<trkpt lon="-4.271989" lat="43.385716"><ele>51.5</ele></trkpt>
<trkpt lon="-4.272130" lat="43.385723"><ele>54.0</ele></trkpt>
<trkpt lon="-4.272314" lat="43.385702"><ele>55.25</ele></trkpt>
<trkpt lon="-4.272558" lat="43.385702"><ele>55.0</ele></trkpt>
<trkpt lon="-4.272668" lat="43.385727"><ele>54.75</ele></trkpt>
<trkpt lon="-4.272794" lat="43.385772"><ele>54.75</ele></trkpt>
<trkpt lon="-4.272979" lat="43.385879"><ele>54.25</ele></trkpt>
<trkpt lon="-4.273169" lat="43.385934"><ele>53.5</ele></trkpt>
<trkpt lon="-4.273392" lat="43.385963"><ele>53.5</ele></trkpt>
<trkpt lon="-4.273867" lat="43.385981"><ele>55.0</ele></trkpt>
<trkpt lon="-4.273993" lat="43.386010"><ele>53.75</ele></trkpt>
<trkpt lon="-4.274202" lat="43.386104"><ele>51.75</ele></trkpt>
<trkpt lon="-4.274367" lat="43.386166"><ele>51.5</ele></trkpt>
<trkpt lon="-4.274497" lat="43.386232"><ele>52.0</ele></trkpt>
<trkpt lon="-4.274540" lat="43.386287"><ele>53.0</ele></trkpt>
<trkpt lon="-4.274600" lat="43.386444"><ele>53.75</ele></trkpt>
<trkpt lon="-4.274618" lat="43.386492"><ele>53.5</ele></trkpt>
<trkpt lon="-4.274679" lat="43.386568"><ele>53.25</ele></trkpt>
<trkpt lon="-4.274788" lat="43.386581"><ele>53.75</ele></trkpt>
<trkpt lon="-4.274961" lat="43.386550"><ele>54.25</ele></trkpt>
<trkpt lon="-4.275259" lat="43.386531"><ele>55.75</ele></trkpt>
<trkpt lon="-4.275486" lat="43.386489"><ele>54.0</ele></trkpt>
<trkpt lon="-4.275772" lat="43.386481"><ele>52.75</ele></trkpt>
<trkpt lon="-4.276018" lat="43.386517"><ele>50.25</ele></trkpt>
<trkpt lon="-4.276159" lat="43.386527"><ele>49.0</ele></trkpt>
<trkpt lon="-4.276255" lat="43.386552"><ele>48.75</ele></trkpt>
<trkpt lon="-4.276338" lat="43.386605"><ele>48.25</ele></trkpt>
<trkpt lon="-4.276434" lat="43.386805"><ele>47.0</ele></trkpt>
<trkpt lon="-4.276485" lat="43.386961"><ele>45.5</ele></trkpt>
<trkpt lon="-4.276549" lat="43.387000"><ele>45.0</ele></trkpt>
<trkpt lon="-4.276643" lat="43.387043"><ele>44.25</ele></trkpt>
<trkpt lon="-4.276702" lat="43.387100"><ele>43.0</ele></trkpt>
<trkpt lon="-4.276739" lat="43.387176"><ele>41.5</ele></trkpt>
<trkpt lon="-4.276865" lat="43.387260"><ele>39.75</ele></trkpt>
<trkpt lon="-4.276941" lat="43.387298"><ele>39.0</ele></trkpt>
<trkpt lon="-4.277156" lat="43.387339"><ele>36.75</ele></trkpt>
<trkpt lon="-4.277348" lat="43.387316"><ele>35.25</ele></trkpt>
<trkpt lon="-4.277520" lat="43.387314"><ele>34.0</ele></trkpt>
<trkpt lon="-4.278209" lat="43.387353"><ele>27.5</ele></trkpt>
<trkpt lon="-4.278394" lat="43.387382"><ele>25.0</ele></trkpt>
<trkpt lon="-4.278638" lat="43.387410"><ele>23.25</ele></trkpt>
<trkpt lon="-4.279652" lat="43.387472"><ele>19.25</ele></trkpt>
<trkpt lon="-4.280103" lat="43.387429"><ele>18.25</ele></trkpt>
<trkpt lon="-4.280257" lat="43.387402"><ele>17.0</ele></trkpt>
<trkpt lon="-4.280369" lat="43.387391"><ele>13.5</ele></trkpt>
<trkpt lon="-4.280398" lat="43.387361"><ele>13.25</ele></trkpt>
<trkpt lon="-4.280569" lat="43.387137"><ele>11.25</ele></trkpt>
<trkpt lon="-4.280641" lat="43.387100"><ele>10.25</ele></trkpt>
<trkpt lon="-4.280719" lat="43.387062"><ele>11.0</ele></trkpt>
<trkpt lon="-4.280905" lat="43.387013"><ele>12.5</ele></trkpt>
<trkpt lon="-4.281215" lat="43.387001"><ele>15.0</ele></trkpt>
<trkpt lon="-4.281333" lat="43.387007"><ele>16.25</ele></trkpt>
<trkpt lon="-4.281394" lat="43.387015"><ele>16.25</ele></trkpt>
<trkpt lon="-4.281497" lat="43.387042"><ele>18.0</ele></trkpt>
<trkpt lon="-4.281678" lat="43.387109"><ele>19.75</ele></trkpt>
<trkpt lon="-4.281931" lat="43.387235"><ele>15.75</ele></trkpt>
<trkpt lon="-4.282154" lat="43.387280"><ele>16.75</ele></trkpt>
<trkpt lon="-4.282279" lat="43.387275"><ele>17.5</ele></trkpt>
<trkpt lon="-4.282347" lat="43.387273"><ele>17.5</ele></trkpt>
<trkpt lon="-4.282554" lat="43.387237"><ele>18.75</ele></trkpt>
<trkpt lon="-4.283300" lat="43.387151"><ele>21.75</ele></trkpt>
<trkpt lon="-4.284406" lat="43.387140"><ele>23.75</ele></trkpt>
<trkpt lon="-4.285638" lat="43.387167"><ele>26.75</ele></trkpt>
<trkpt lon="-4.287240" lat="43.386967"><ele>30.5</ele></trkpt>
<trkpt lon="-4.287901" lat="43.386885"><ele>35.5</ele></trkpt>
<trkpt lon="-4.288391" lat="43.386828"><ele>38.0</ele></trkpt>
<trkpt lon="-4.288516" lat="43.386804"><ele>37.5</ele></trkpt>
<trkpt lon="-4.288619" lat="43.386785"><ele>36.75</ele></trkpt>
<trkpt lon="-4.289185" lat="43.386732"><ele>34.75</ele></trkpt>
<trkpt lon="-4.289259" lat="43.386726"><ele>34.75</ele></trkpt>
<trkpt lon="-4.289686" lat="43.386686"><ele>33.25</ele></trkpt>
<trkpt lon="-4.289805" lat="43.386668"><ele>33.25</ele></trkpt>
<trkpt lon="-4.289868" lat="43.386662"><ele>33.25</ele></trkpt>
<trkpt lon="-4.290171" lat="43.386642"><ele>33.0</ele></trkpt>
<trkpt lon="-4.290311" lat="43.386698"><ele>33.0</ele></trkpt>
<trkpt lon="-4.290388" lat="43.386604"><ele>31.25</ele></trkpt>
<trkpt lon="-4.290511" lat="43.386409"><ele>27.5</ele></trkpt>
<trkpt lon="-4.290586" lat="43.386248"><ele>25.75</ele></trkpt>
<trkpt lon="-4.290757" lat="43.386130"><ele>24.25</ele></trkpt>
<trkpt lon="-4.290918" lat="43.386035"><ele>23.25</ele></trkpt>
<trkpt lon="-4.291061" lat="43.386053"><ele>22.75</ele></trkpt>
<trkpt lon="-4.291044" lat="43.385993"><ele>22.5</ele></trkpt>
  </trkseg></trk></gpx>
