<?xml version="1.0" encoding="UTF-8"?>
<gpx version="1.1" creator="compostel-brouter" xmlns="http://www.topografix.com/GPX/1/1">
  <metadata><name>ES-16-Santander</name></metadata>
  <trk><name>ES-16-Santander</name><trkseg>
<trkpt lon="-3.640069" lat="43.455193"><ele>68.5</ele></trkpt>
<trkpt lon="-3.640732" lat="43.455071"><ele>68.25</ele></trkpt>
<trkpt lon="-3.641389" lat="43.454873"><ele>68.0</ele></trkpt>
<trkpt lon="-3.641444" lat="43.454827"><ele>68.0</ele></trkpt>
<trkpt lon="-3.641675" lat="43.454680"><ele>68.75</ele></trkpt>
<trkpt lon="-3.641767" lat="43.454626"><ele>69.0</ele></trkpt>
<trkpt lon="-3.641904" lat="43.454519"><ele>69.0</ele></trkpt>
<trkpt lon="-3.642597" lat="43.454053"><ele>67.5</ele></trkpt>
<trkpt lon="-3.642774" lat="43.453907"><ele>66.25</ele></trkpt>
<trkpt lon="-3.642820" lat="43.453840"><ele>66.25</ele></trkpt>
<trkpt lon="-3.642764" lat="43.453707"><ele>65.25</ele></trkpt>
<trkpt lon="-3.642633" lat="43.453541"><ele>64.25</ele></trkpt>
<trkpt lon="-3.642538" lat="43.453472"><ele>63.75</ele></trkpt>
<trkpt lon="-3.642381" lat="43.453236"><ele>61.25</ele></trkpt>
<trkpt lon="-3.642357" lat="43.453129"><ele>60.25</ele></trkpt>
<trkpt lon="-3.642368" lat="43.453041"><ele>59.75</ele></trkpt>
<trkpt lon="-3.642452" lat="43.452962"><ele>59.5</ele></trkpt>
<trkpt lon="-3.642648" lat="43.452829"><ele>59.5</ele></trkpt>
<trkpt lon="-3.642792" lat="43.452751"><ele>59.75</ele></trkpt>
<trkpt lon="-3.643003" lat="43.452680"><ele>59.75</ele></trkpt>
<trkpt lon="-3.643222" lat="43.452680"><ele>60.25</ele></trkpt>
<trkpt lon="-3.643629" lat="43.452734"><ele>61.25</ele></trkpt>
<trkpt lon="-3.643837" lat="43.452815"><ele>61.5</ele></trkpt>
<trkpt lon="-3.644145" lat="43.452627"><ele>59.75</ele></trkpt>
<trkpt lon="-3.644438" lat="43.452503"><ele>59.75</ele></trkpt>
<trkpt lon="-3.644619" lat="43.452407"><ele>59.75</ele></trkpt>
<trkpt lon="-3.644724" lat="43.452302"><ele>59.0</ele></trkpt>
<trkpt lon="-3.644882" lat="43.452110"><ele>59.75</ele></trkpt>
<trkpt lon="-3.645109" lat="43.451756"><ele>58.25</ele></trkpt>
<trkpt lon="-3.645229" lat="43.451567"><ele>57.25</ele></trkpt>
<trkpt lon="-3.645312" lat="43.451353"><ele>56.25</ele></trkpt>
<trkpt lon="-3.645273" lat="43.451167"><ele>55.0</ele></trkpt>
<trkpt lon="-3.645211" lat="43.451036"><ele>54.75</ele></trkpt>
<trkpt lon="-3.645126" lat="43.450916"><ele>55.5</ele></trkpt>
<trkpt lon="-3.644956" lat="43.450689"><ele>56.5</ele></trkpt>
<trkpt lon="-3.645130" lat="43.450613"><ele>59.25</ele></trkpt>
<trkpt lon="-3.645206" lat="43.450593"><ele>60.25</ele></trkpt>
<trkpt lon="-3.645527" lat="43.450587"><ele>64.75</ele></trkpt>
<trkpt lon="-3.645681" lat="43.450562"><ele>66.5</ele></trkpt>
<trkpt lon="-3.645928" lat="43.450481"><ele>69.25</ele></trkpt>
<trkpt lon="-3.646222" lat="43.450371"><ele>72.5</ele></trkpt>
<trkpt lon="-3.646319" lat="43.450323"><ele>74.25</ele></trkpt>
<trkpt lon="-3.646433" lat="43.450248"><ele>76.25</ele></trkpt>
<trkpt lon="-3.646583" lat="43.450087"><ele>78.0</ele></trkpt>
<trkpt lon="-3.646713" lat="43.449913"><ele>80.0</ele></trkpt>
<trkpt lon="-3.646822" lat="43.449813"><ele>81.5</ele></trkpt>
<trkpt lon="-3.646957" lat="43.449734"><ele>83.0</ele></trkpt>
<trkpt lon="-3.647080" lat="43.449651"><ele>84.5</ele></trkpt>
<trkpt lon="-3.647194" lat="43.449553"><ele>85.75</ele></trkpt>
<trkpt lon="-3.647270" lat="43.449416"><ele>86.5</ele></trkpt>
<trkpt lon="-3.647346" lat="43.449314"><ele>87.75</ele></trkpt>
<trkpt lon="-3.647443" lat="43.449253"><ele>89.5</ele></trkpt>
<trkpt lon="-3.647737" lat="43.449227"><ele>94.0</ele></trkpt>
<trkpt lon="-3.648035" lat="43.449170"><ele>98.5</ele></trkpt>
<trkpt lon="-3.648263" lat="43.449089"><ele>101.5</ele></trkpt>
<trkpt lon="-3.648510" lat="43.448971"><ele>106.0</ele></trkpt>
<trkpt lon="-3.648614" lat="43.448947"><ele>108.5</ele></trkpt>
<trkpt lon="-3.648758" lat="43.448882"><ele>111.0</ele></trkpt>
<trkpt lon="-3.648877" lat="43.448784"><ele>112.25</ele></trkpt>
<trkpt lon="-3.649276" lat="43.448482"><ele>118.0</ele></trkpt>
<trkpt lon="-3.649377" lat="43.448461"><ele>119.5</ele></trkpt>
<trkpt lon="-3.649439" lat="43.448480"><ele>121.0</ele></trkpt>
<trkpt lon="-3.649491" lat="43.448545"><ele>123.25</ele></trkpt>
<trkpt lon="-3.649504" lat="43.448713"><ele>126.0</ele></trkpt>
<trkpt lon="-3.649496" lat="43.448837"><ele>127.25</ele></trkpt>
<trkpt lon="-3.649531" lat="43.448951"><ele>128.5</ele></trkpt>
<trkpt lon="-3.649588" lat="43.449024"><ele>129.5</ele></trkpt>
<trkpt lon="-3.649683" lat="43.449062"><ele>131.0</ele></trkpt>
<trkpt lon="-3.649781" lat="43.449058"><ele>132.25</ele></trkpt>
<trkpt lon="-3.649898" lat="43.449026"><ele>133.75</ele></trkpt>
<trkpt lon="-3.649996" lat="43.448963"><ele>135.75</ele></trkpt>
<trkpt lon="-3.650140" lat="43.448811"><ele>139.0</ele></trkpt>
<trkpt lon="-3.650262" lat="43.448666"><ele>141.25</ele></trkpt>
<trkpt lon="-3.650378" lat="43.448553"><ele>143.0</ele></trkpt>
<trkpt lon="-3.650463" lat="43.448506"><ele>144.0</ele></trkpt>
<trkpt lon="-3.650552" lat="43.448476"><ele>144.75</ele></trkpt>
<trkpt lon="-3.651055" lat="43.448366"><ele>148.25</ele></trkpt>
<trkpt lon="-3.651682" lat="43.448157"><ele>153.25</ele></trkpt>
<trkpt lon="-3.651910" lat="43.448064"><ele>154.5</ele></trkpt>
<trkpt lon="-3.652151" lat="43.447936"><ele>157.5</ele></trkpt>
<trkpt lon="-3.652811" lat="43.447625"><ele>164.25</ele></trkpt>
<trkpt lon="-3.653007" lat="43.447554"><ele>166.0</ele></trkpt>
<trkpt lon="-3.653257" lat="43.447512"><ele>168.75</ele></trkpt>
<trkpt lon="-3.653512" lat="43.447502"><ele>171.75</ele></trkpt>
<trkpt lon="-3.653737" lat="43.447510"><ele>173.75</ele></trkpt>
<trkpt lon="-3.654036" lat="43.447546"><ele>176.25</ele></trkpt>
<trkpt lon="-3.654280" lat="43.447619"><ele>178.0</ele></trkpt>
<trkpt lon="-3.654506" lat="43.447706"><ele>179.5</ele></trkpt>
<trkpt lon="-3.654620" lat="43.447790"><ele>181.25</ele></trkpt>
<trkpt lon="-3.654696" lat="43.447865"><ele>182.0</ele></trkpt>
<trkpt lon="-3.654820" lat="43.448021"><ele>183.0</ele></trkpt>
<trkpt lon="-3.654903" lat="43.448158"><ele>184.0</ele></trkpt>
<trkpt lon="-3.657330" lat="43.447928"><ele>170.25</ele></trkpt>
<trkpt lon="-3.657265" lat="43.448094"><ele>171.5</ele></trkpt>
<trkpt lon="-3.657109" lat="43.448379"><ele>173.75</ele></trkpt>
<trkpt lon="-3.656963" lat="43.448701"><ele>176.0</ele></trkpt>
<trkpt lon="-3.656897" lat="43.448885"><ele>177.25</ele></trkpt>
<trkpt lon="-3.656867" lat="43.449013"><ele>176.75</ele></trkpt>
<trkpt lon="-3.656778" lat="43.449252"><ele>176.0</ele></trkpt>
<trkpt lon="-3.656735" lat="43.449309"><ele>176.0</ele></trkpt>
<trkpt lon="-3.656629" lat="43.449408"><ele>176.0</ele></trkpt>
<trkpt lon="-3.656505" lat="43.449477"><ele>175.25</ele></trkpt>
<trkpt lon="-3.656178" lat="43.449582"><ele>174.25</ele></trkpt>
<trkpt lon="-3.655967" lat="43.449639"><ele>174.25</ele></trkpt>
<trkpt lon="-3.655885" lat="43.449673"><ele>174.25</ele></trkpt>
<trkpt lon="-3.655726" lat="43.449771"><ele>174.0</ele></trkpt>
<trkpt lon="-3.655610" lat="43.449835"><ele>174.25</ele></trkpt>
<trkpt lon="-3.655575" lat="43.449846"><ele>174.25</ele></trkpt>
<trkpt lon="-3.655510" lat="43.449953"><ele>173.75</ele></trkpt>
<trkpt lon="-3.655515" lat="43.449983"><ele>173.5</ele></trkpt>
<trkpt lon="-3.655549" lat="43.450054"><ele>173.0</ele></trkpt>
<trkpt lon="-3.655636" lat="43.450176"><ele>171.75</ele></trkpt>
<trkpt lon="-3.655739" lat="43.450368"><ele>170.0</ele></trkpt>
<trkpt lon="-3.655832" lat="43.450599"><ele>168.75</ele></trkpt>
<trkpt lon="-3.655904" lat="43.450810"><ele>167.25</ele></trkpt>
<trkpt lon="-3.655982" lat="43.451077"><ele>166.25</ele></trkpt>
<trkpt lon="-3.656200" lat="43.451479"><ele>165.75</ele></trkpt>
<trkpt lon="-3.656374" lat="43.451685"><ele>166.25</ele></trkpt>
<trkpt lon="-3.656652" lat="43.452094"><ele>167.5</ele></trkpt>
<trkpt lon="-3.656804" lat="43.452301"><ele>166.75</ele></trkpt>
<trkpt lon="-3.657482" lat="43.453013"><ele>154.25</ele></trkpt>
<trkpt lon="-3.657656" lat="43.453174"><ele>150.25</ele></trkpt>
<trkpt lon="-3.657717" lat="43.453210"><ele>149.0</ele></trkpt>
<trkpt lon="-3.657815" lat="43.453299"><ele>147.25</ele></trkpt>
<trkpt lon="-3.657985" lat="43.453659"><ele>143.25</ele></trkpt>
<trkpt lon="-3.658048" lat="43.453729"><ele>142.75</ele></trkpt>
<trkpt lon="-3.658194" lat="43.453846"><ele>142.5</ele></trkpt>
<trkpt lon="-3.658257" lat="43.453921"><ele>142.5</ele></trkpt>
<trkpt lon="-3.658403" lat="43.454145"><ele>143.5</ele></trkpt>
<trkpt lon="-3.658486" lat="43.454227"><ele>143.5</ele></trkpt>
<trkpt lon="-3.658564" lat="43.454289"><ele>143.5</ele></trkpt>
<trkpt lon="-3.658633" lat="43.454325"><ele>143.25</ele></trkpt>
<trkpt lon="-3.659199" lat="43.454522"><ele>141.25</ele></trkpt>
<trkpt lon="-3.659761" lat="43.454646"><ele>138.0</ele></trkpt>
<trkpt lon="-3.660244" lat="43.454610"><ele>134.5</ele></trkpt>
<trkpt lon="-3.661248" lat="43.454422"><ele>127.0</ele></trkpt>
<trkpt lon="-3.662070" lat="43.454370"><ele>119.75</ele></trkpt>
<trkpt lon="-3.662127" lat="43.454372"><ele>119.25</ele></trkpt>
<trkpt lon="-3.663481" lat="43.454796"><ele>105.0</ele></trkpt>
<trkpt lon="-3.663510" lat="43.454803"><ele>104.75</ele></trkpt>
<trkpt lon="-3.663578" lat="43.454802"><ele>104.25</ele></trkpt>
<trkpt lon="-3.664915" lat="43.454287"><ele>90.25</ele></trkpt>
<trkpt lon="-3.665317" lat="43.454218"><ele>86.25</ele></trkpt>
<trkpt lon="-3.665644" lat="43.454153"><ele>83.5</ele></trkpt>
<trkpt lon="-3.665958" lat="43.454114"><ele>81.0</ele></trkpt>
<trkpt lon="-3.666565" lat="43.454084"><ele>73.5</ele></trkpt>
<trkpt lon="-3.666851" lat="43.454035"><ele>70.75</ele></trkpt>
<trkpt lon="-3.667056" lat="43.453891"><ele>70.75</ele></trkpt>
<trkpt lon="-3.667294" lat="43.453678"><ele>71.0</ele></trkpt>
<trkpt lon="-3.667332" lat="43.453633"><ele>71.0</ele></trkpt>
<trkpt lon="-3.667458" lat="43.453480"><ele>70.5</ele></trkpt>
<trkpt lon="-3.667887" lat="43.453203"><ele>69.25</ele></trkpt>
<trkpt lon="-3.668092" lat="43.453055"><ele>67.25</ele></trkpt>
<trkpt lon="-3.668269" lat="43.452970"><ele>64.25</ele></trkpt>
<trkpt lon="-3.668399" lat="43.452946"><ele>61.75</ele></trkpt>
<trkpt lon="-3.668576" lat="43.452990"><ele>59.0</ele></trkpt>
<trkpt lon="-3.668726" lat="43.453079"><ele>58.0</ele></trkpt>
<trkpt lon="-3.668862" lat="43.453203"><ele>55.5</ele></trkpt>
<trkpt lon="-3.668944" lat="43.453317"><ele>53.25</ele></trkpt>
<trkpt lon="-3.668972" lat="43.453443"><ele>52.0</ele></trkpt>
<trkpt lon="-3.669133" lat="43.453497"><ele>48.25</ele></trkpt>
<trkpt lon="-3.669264" lat="43.453567"><ele>44.75</ele></trkpt>
<trkpt lon="-3.669370" lat="43.453637"><ele>41.75</ele></trkpt>
<trkpt lon="-3.669509" lat="43.453742"><ele>38.5</ele></trkpt>
<trkpt lon="-3.669553" lat="43.453763"><ele>38.0</ele></trkpt>
<trkpt lon="-3.669873" lat="43.453849"><ele>37.75</ele></trkpt>
<trkpt lon="-3.670105" lat="43.453999"><ele>39.5</ele></trkpt>
<trkpt lon="-3.670278" lat="43.454085"><ele>40.25</ele></trkpt>
<trkpt lon="-3.670358" lat="43.454132"><ele>39.5</ele></trkpt>
<trkpt lon="-3.670668" lat="43.454219"><ele>39.0</ele></trkpt>
<trkpt lon="-3.671038" lat="43.454257"><ele>39.25</ele></trkpt>
<trkpt lon="-3.671197" lat="43.454266"><ele>39.25</ele></trkpt>
<trkpt lon="-3.671251" lat="43.454289"><ele>39.25</ele></trkpt>
<trkpt lon="-3.671302" lat="43.454312"><ele>39.25</ele></trkpt>
<trkpt lon="-3.671350" lat="43.454434"><ele>38.0</ele></trkpt>
<trkpt lon="-3.671437" lat="43.454531"><ele>37.0</ele></trkpt>
<trkpt lon="-3.671531" lat="43.454609"><ele>36.75</ele></trkpt>
<trkpt lon="-3.671432" lat="43.454665"><ele>35.75</ele></trkpt>
<trkpt lon="-3.671353" lat="43.454834"><ele>34.5</ele></trkpt>
<trkpt lon="-3.671334" lat="43.454977"><ele>33.75</ele></trkpt>
<trkpt lon="-3.671378" lat="43.455459"><ele>29.5</ele></trkpt>
<trkpt lon="-3.671435" lat="43.455937"><ele>26.75</ele></trkpt>
<trkpt lon="-3.671422" lat="43.456103"><ele>25.5</ele></trkpt>
<trkpt lon="-3.671376" lat="43.456251"><ele>25.0</ele></trkpt>
<trkpt lon="-3.671399" lat="43.456422"><ele>25.0</ele></trkpt>
<trkpt lon="-3.671462" lat="43.456725"><ele>25.0</ele></trkpt>
<trkpt lon="-3.671490" lat="43.456998"><ele>25.0</ele></trkpt>
<trkpt lon="-3.671373" lat="43.457102"><ele>25.5</ele></trkpt>
<trkpt lon="-3.671261" lat="43.457227"><ele>26.0</ele></trkpt>
<trkpt lon="-3.671131" lat="43.457309"><ele>26.0</ele></trkpt>
<trkpt lon="-3.671310" lat="43.457446"><ele>26.0</ele></trkpt>
<trkpt lon="-3.671633" lat="43.457755"><ele>26.75</ele></trkpt>
<trkpt lon="-3.671930" lat="43.458027"><ele>26.0</ele></trkpt>
<trkpt lon="-3.672222" lat="43.458194"><ele>26.25</ele></trkpt>
<trkpt lon="-3.672382" lat="43.458291"><ele>27.25</ele></trkpt>
<trkpt lon="-3.672440" lat="43.458368"><ele>27.75</ele></trkpt>
<trkpt lon="-3.672465" lat="43.458476"><ele>28.25</ele></trkpt>
<trkpt lon="-3.672475" lat="43.458601"><ele>28.75</ele></trkpt>
<trkpt lon="-3.672472" lat="43.458782"><ele>29.5</ele></trkpt>
<trkpt lon="-3.672486" lat="43.458877"><ele>29.75</ele></trkpt>
<trkpt lon="-3.672558" lat="43.458985"><ele>30.0</ele></trkpt>
<trkpt lon="-3.672767" lat="43.459165"><ele>30.75</ele></trkpt>
<trkpt lon="-3.674310" lat="43.460361"><ele>28.5</ele></trkpt>
<trkpt lon="-3.674289" lat="43.460433"><ele>28.25</ele></trkpt>
<trkpt lon="-3.674662" lat="43.460628"><ele>28.25</ele></trkpt>
<trkpt lon="-3.674837" lat="43.460718"><ele>28.0</ele></trkpt>
<trkpt lon="-3.675073" lat="43.460806"><ele>26.75</ele></trkpt>
<trkpt lon="-3.675491" lat="43.460894"><ele>25.5</ele></trkpt>
<trkpt lon="-3.675728" lat="43.460930"><ele>24.75</ele></trkpt>
<trkpt lon="-3.675987" lat="43.460932"><ele>24.5</ele></trkpt>
<trkpt lon="-3.676123" lat="43.460947"><ele>24.5</ele></trkpt>
<trkpt lon="-3.676213" lat="43.461013"><ele>24.25</ele></trkpt>
<trkpt lon="-3.676568" lat="43.461404"><ele>23.5</ele></trkpt>
<trkpt lon="-3.676727" lat="43.461447"><ele>23.5</ele></trkpt>
<trkpt lon="-3.677023" lat="43.461494"><ele>22.5</ele></trkpt>
<trkpt lon="-3.677329" lat="43.461544"><ele>22.0</ele></trkpt>
<trkpt lon="-3.677540" lat="43.461627"><ele>21.75</ele></trkpt>
<trkpt lon="-3.677900" lat="43.461785"><ele>20.25</ele></trkpt>
<trkpt lon="-3.678200" lat="43.461860"><ele>19.5</ele></trkpt>
<trkpt lon="-3.678386" lat="43.461893"><ele>19.0</ele></trkpt>
<trkpt lon="-3.678507" lat="43.461893"><ele>19.0</ele></trkpt>
<trkpt lon="-3.678628" lat="43.461870"><ele>19.25</ele></trkpt>
<trkpt lon="-3.679488" lat="43.461659"><ele>18.75</ele></trkpt>
<trkpt lon="-3.680057" lat="43.461497"><ele>17.5</ele></trkpt>
<trkpt lon="-3.681095" lat="43.461239"><ele>17.5</ele></trkpt>
<trkpt lon="-3.681160" lat="43.461247"><ele>17.25</ele></trkpt>
<trkpt lon="-3.681378" lat="43.461470"><ele>17.0</ele></trkpt>
<trkpt lon="-3.681625" lat="43.461748"><ele>17.0</ele></trkpt>
<trkpt lon="-3.681736" lat="43.461918"><ele>16.75</ele></trkpt>
<trkpt lon="-3.681912" lat="43.462261"><ele>16.0</ele></trkpt>
<trkpt lon="-3.682143" lat="43.462667"><ele>15.5</ele></trkpt>
<trkpt lon="-3.682218" lat="43.462800"><ele>15.75</ele></trkpt>
<trkpt lon="-3.682298" lat="43.462938"><ele>15.25</ele></trkpt>
<trkpt lon="-3.682378" lat="43.463079"><ele>15.0</ele></trkpt>
<trkpt lon="-3.682488" lat="43.463248"><ele>15.0</ele></trkpt>
<trkpt lon="-3.682515" lat="43.463289"><ele>14.75</ele></trkpt>
<trkpt lon="-3.684541" lat="43.462815"><ele>14.5</ele></trkpt>
<trkpt lon="-3.686352" lat="43.462365"><ele>14.5</ele></trkpt>
<trkpt lon="-3.687333" lat="43.462128"><ele>14.5</ele></trkpt>
<trkpt lon="-3.688890" lat="43.461752"><ele>15.5</ele></trkpt>
<trkpt lon="-3.690466" lat="43.461378"><ele>17.25</ele></trkpt>
<trkpt lon="-3.691450" lat="43.461130"><ele>18.75</ele></trkpt>
<trkpt lon="-3.692539" lat="43.460883"><ele>19.5</ele></trkpt>
<trkpt lon="-3.693102" lat="43.460736"><ele>20.0</ele></trkpt>
<trkpt lon="-3.694725" lat="43.460349"><ele>22.5</ele></trkpt>
<trkpt lon="-3.695907" lat="43.460060"><ele>24.5</ele></trkpt>
<trkpt lon="-3.696913" lat="43.459834"><ele>25.0</ele></trkpt>
<trkpt lon="-3.697120" lat="43.459782"><ele>25.5</ele></trkpt>
<trkpt lon="-3.699167" lat="43.459313"><ele>27.25</ele></trkpt>
<trkpt lon="-3.699329" lat="43.459343"><ele>27.25</ele></trkpt>
<trkpt lon="-3.699441" lat="43.459351"><ele>27.25</ele></trkpt>
<trkpt lon="-3.699610" lat="43.459407"><ele>27.0</ele></trkpt>
<trkpt lon="-3.699774" lat="43.459536"><ele>26.0</ele></trkpt>
<trkpt lon="-3.699834" lat="43.459597"><ele>25.5</ele></trkpt>
<trkpt lon="-3.699907" lat="43.459567"><ele>25.5</ele></trkpt>
<trkpt lon="-3.699971" lat="43.459536"><ele>25.5</ele></trkpt>
<trkpt lon="-3.699967" lat="43.459370"><ele>26.5</ele></trkpt>
<trkpt lon="-3.699942" lat="43.459147"><ele>28.0</ele></trkpt>
<trkpt lon="-3.699957" lat="43.459124"><ele>28.0</ele></trkpt>
<trkpt lon="-3.699987" lat="43.459101"><ele>28.0</ele></trkpt>
<trkpt lon="-3.700583" lat="43.458951"><ele>27.75</ele></trkpt>
<trkpt lon="-3.705264" lat="43.457710"><ele>19.5</ele></trkpt>
<trkpt lon="-3.707253" lat="43.457192"><ele>15.75</ele></trkpt>
<trkpt lon="-3.708778" lat="43.456792"><ele>12.25</ele></trkpt>
<trkpt lon="-3.708913" lat="43.456755"><ele>12.25</ele></trkpt>
<trkpt lon="-3.709565" lat="43.456578"><ele>11.25</ele></trkpt>
<trkpt lon="-3.710228" lat="43.456414"><ele>11.5</ele></trkpt>
<trkpt lon="-3.712063" lat="43.455945"><ele>10.25</ele></trkpt>
<trkpt lon="-3.712157" lat="43.455921"><ele>10.75</ele></trkpt>
<trkpt lon="-3.712294" lat="43.455887"><ele>11.25</ele></trkpt>
<trkpt lon="-3.712383" lat="43.455864"><ele>11.5</ele></trkpt>
<trkpt lon="-3.712488" lat="43.455837"><ele>11.75</ele></trkpt>
<trkpt lon="-3.714733" lat="43.455251"><ele>13.0</ele></trkpt>
<trkpt lon="-3.715364" lat="43.455097"><ele>12.25</ele></trkpt>
<trkpt lon="-3.716214" lat="43.454903"><ele>11.0</ele></trkpt>
<trkpt lon="-3.716764" lat="43.454765"><ele>12.75</ele></trkpt>
<trkpt lon="-3.717148" lat="43.454666"><ele>11.75</ele></trkpt>
<trkpt lon="-3.717807" lat="43.454477"><ele>13.25</ele></trkpt>
<trkpt lon="-3.718532" lat="43.454293"><ele>14.25</ele></trkpt>
<trkpt lon="-3.719100" lat="43.454155"><ele>16.75</ele></trkpt>
<trkpt lon="-3.719261" lat="43.454166"><ele>17.25</ele></trkpt>
<trkpt lon="-3.719391" lat="43.454212"><ele>17.75</ele></trkpt>
<trkpt lon="-3.719558" lat="43.454231"><ele>18.25</ele></trkpt>
<trkpt lon="-3.719688" lat="43.454254"><ele>18.5</ele></trkpt>
<trkpt lon="-3.719824" lat="43.454319"><ele>18.25</ele></trkpt>
<trkpt lon="-3.720141" lat="43.454590"><ele>15.5</ele></trkpt>
<trkpt lon="-3.720240" lat="43.454693"><ele>15.0</ele></trkpt>
<trkpt lon="-3.720279" lat="43.454719"><ele>15.0</ele></trkpt>
<trkpt lon="-3.720340" lat="43.454716"><ele>15.0</ele></trkpt>
<trkpt lon="-3.720390" lat="43.454785"><ele>14.75</ele></trkpt>
<trkpt lon="-3.720443" lat="43.454888"><ele>14.25</ele></trkpt>
<trkpt lon="-3.720512" lat="43.455111"><ele>13.5</ele></trkpt>
<trkpt lon="-3.720527" lat="43.455216"><ele>13.25</ele></trkpt>
<trkpt lon="-3.720540" lat="43.455471"><ele>12.75</ele></trkpt>
<trkpt lon="-3.721668" lat="43.456176"><ele>14.0</ele></trkpt>
<trkpt lon="-3.721750" lat="43.456277"><ele>14.25</ele></trkpt>
<trkpt lon="-3.721936" lat="43.456248"><ele>14.75</ele></trkpt>
<trkpt lon="-3.722409" lat="43.456171"><ele>17.0</ele></trkpt>
<trkpt lon="-3.722534" lat="43.456172"><ele>17.75</ele></trkpt>
<trkpt lon="-3.722825" lat="43.456218"><ele>19.25</ele></trkpt>
<trkpt lon="-3.722870" lat="43.456210"><ele>19.75</ele></trkpt>
<trkpt lon="-3.723264" lat="43.456135"><ele>22.5</ele></trkpt>
<trkpt lon="-3.723464" lat="43.456104"><ele>22.75</ele></trkpt>
<trkpt lon="-3.723610" lat="43.456135"><ele>23.0</ele></trkpt>
<trkpt lon="-3.723613" lat="43.456162"><ele>23.0</ele></trkpt>
<trkpt lon="-3.723629" lat="43.456187"><ele>23.0</ele></trkpt>
<trkpt lon="-3.723656" lat="43.456206"><ele>23.0</ele></trkpt>
<trkpt lon="-3.723690" lat="43.456218"><ele>23.25</ele></trkpt>
<trkpt lon="-3.723727" lat="43.456220"><ele>23.25</ele></trkpt>
<trkpt lon="-3.723763" lat="43.456213"><ele>23.5</ele></trkpt>
<trkpt lon="-3.723794" lat="43.456197"><ele>23.5</ele></trkpt>
<trkpt lon="-3.723815" lat="43.456175"><ele>23.5</ele></trkpt>
<trkpt lon="-3.723825" lat="43.456149"><ele>23.75</ele></trkpt>
<trkpt lon="-3.724037" lat="43.456158"><ele>24.5</ele></trkpt>
<trkpt lon="-3.724183" lat="43.456159"><ele>25.0</ele></trkpt>
<trkpt lon="-3.725262" lat="43.456021"><ele>24.5</ele></trkpt>
<trkpt lon="-3.725727" lat="43.455929"><ele>26.5</ele></trkpt>
<trkpt lon="-3.726082" lat="43.455850"><ele>28.5</ele></trkpt>
<trkpt lon="-3.726812" lat="43.455674"><ele>34.25</ele></trkpt>
<trkpt lon="-3.727180" lat="43.455623"><ele>35.75</ele></trkpt>
<trkpt lon="-3.727645" lat="43.455562"><ele>37.0</ele></trkpt>
<trkpt lon="-3.727953" lat="43.455522"><ele>37.0</ele></trkpt>
<trkpt lon="-3.728135" lat="43.455497"><ele>37.5</ele></trkpt>
<trkpt lon="-3.728707" lat="43.455428"><ele>38.75</ele></trkpt>
<trkpt lon="-3.729033" lat="43.455447"><ele>38.75</ele></trkpt>
<trkpt lon="-3.729906" lat="43.455449"><ele>39.75</ele></trkpt>
<trkpt lon="-3.730594" lat="43.455393"><ele>42.0</ele></trkpt>
<trkpt lon="-3.731257" lat="43.455383"><ele>43.0</ele></trkpt>
<trkpt lon="-3.731669" lat="43.455412"><ele>44.0</ele></trkpt>
<trkpt lon="-3.731944" lat="43.455407"><ele>44.0</ele></trkpt>
<trkpt lon="-3.732198" lat="43.455387"><ele>44.5</ele></trkpt>
<trkpt lon="-3.732292" lat="43.455380"><ele>44.5</ele></trkpt>
<trkpt lon="-3.732676" lat="43.455351"><ele>45.0</ele></trkpt>
<trkpt lon="-3.733928" lat="43.455297"><ele>47.25</ele></trkpt>
<trkpt lon="-3.734514" lat="43.455252"><ele>47.25</ele></trkpt>
<trkpt lon="-3.734641" lat="43.455230"><ele>46.5</ele></trkpt>
<trkpt lon="-3.734722" lat="43.455216"><ele>46.25</ele></trkpt>
<trkpt lon="-3.735469" lat="43.455042"><ele>42.75</ele></trkpt>
<trkpt lon="-3.735793" lat="43.454936"><ele>39.75</ele></trkpt>
<trkpt lon="-3.735892" lat="43.454897"><ele>39.25</ele></trkpt>
<trkpt lon="-3.735959" lat="43.454856"><ele>38.75</ele></trkpt>
<trkpt lon="-3.736174" lat="43.454821"><ele>38.5</ele></trkpt>
<trkpt lon="-3.736491" lat="43.454784"><ele>38.0</ele></trkpt>
<trkpt lon="-3.737420" lat="43.454728"><ele>35.25</ele></trkpt>
<trkpt lon="-3.737932" lat="43.454723"><ele>31.25</ele></trkpt>
<trkpt lon="-3.738372" lat="43.454696"><ele>28.0</ele></trkpt>
<trkpt lon="-3.738520" lat="43.454670"><ele>28.0</ele></trkpt>
<trkpt lon="-3.738743" lat="43.454633"><ele>27.0</ele></trkpt>
<trkpt lon="-3.739054" lat="43.454559"><ele>24.5</ele></trkpt>
<trkpt lon="-3.739290" lat="43.454507"><ele>22.25</ele></trkpt>
<trkpt lon="-3.739652" lat="43.454403"><ele>18.5</ele></trkpt>
<trkpt lon="-3.739897" lat="43.454335"><ele>15.75</ele></trkpt>
<trkpt lon="-3.740192" lat="43.454163"><ele>11.25</ele></trkpt>
<trkpt lon="-3.740342" lat="43.454068"><ele>11.25</ele></trkpt>
<trkpt lon="-3.740412" lat="43.454049"><ele>11.25</ele></trkpt>
<trkpt lon="-3.740691" lat="43.454061"><ele>10.0</ele></trkpt>
<trkpt lon="-3.740807" lat="43.454034"><ele>9.5</ele></trkpt>
<trkpt lon="-3.740828" lat="43.454019"><ele>9.5</ele></trkpt>
<trkpt lon="-3.741159" lat="43.453855"><ele>8.0</ele></trkpt>
<trkpt lon="-3.741206" lat="43.453842"><ele>8.0</ele></trkpt>
<trkpt lon="-3.741283" lat="43.453831"><ele>8.25</ele></trkpt>
<trkpt lon="-3.741880" lat="43.454022"><ele>6.5</ele></trkpt>
<trkpt lon="-3.741937" lat="43.454025"><ele>6.5</ele></trkpt>
<trkpt lon="-3.742058" lat="43.454012"><ele>6.25</ele></trkpt>
<trkpt lon="-3.742187" lat="43.453998"><ele>6.0</ele></trkpt>
<trkpt lon="-3.742176" lat="43.454040"><ele>6.0</ele></trkpt>
<trkpt lon="-3.742424" lat="43.454003"><ele>5.5</ele></trkpt>
<trkpt lon="-3.742600" lat="43.453952"><ele>5.75</ele></trkpt>
<trkpt lon="-3.742675" lat="43.453935"><ele>5.75</ele></trkpt>
<trkpt lon="-3.742768" lat="43.453904"><ele>5.75</ele></trkpt>
<trkpt lon="-3.743026" lat="43.453679"><ele>5.25</ele></trkpt>
<trkpt lon="-3.743149" lat="43.453643"><ele>5.0</ele></trkpt>
<trkpt lon="-3.743274" lat="43.453607"><ele>5.0</ele></trkpt>
<trkpt lon="-3.743413" lat="43.453566"><ele>5.0</ele></trkpt>
<trkpt lon="-3.743512" lat="43.453537"><ele>5.0</ele></trkpt>
<trkpt lon="-3.743788" lat="43.453460"><ele>4.25</ele></trkpt>
<trkpt lon="-3.744348" lat="43.453304"><ele>4.0</ele></trkpt>
<trkpt lon="-3.744416" lat="43.453286"><ele>4.0</ele></trkpt>
<trkpt lon="-3.744473" lat="43.453270"><ele>4.0</ele></trkpt>
<trkpt lon="-3.745379" lat="43.453027"><ele>4.0</ele></trkpt>
<trkpt lon="-3.745452" lat="43.453008"><ele>4.0</ele></trkpt>
<trkpt lon="-3.745615" lat="43.452970"><ele>4.25</ele></trkpt>
<trkpt lon="-3.746142" lat="43.452875"><ele>5.0</ele></trkpt>
<trkpt lon="-3.746242" lat="43.452828"><ele>5.0</ele></trkpt>
<trkpt lon="-3.746281" lat="43.452790"><ele>4.75</ele></trkpt>
<trkpt lon="-3.746303" lat="43.452735"><ele>5.0</ele></trkpt>
<trkpt lon="-3.746315" lat="43.452649"><ele>5.0</ele></trkpt>
<trkpt lon="-3.746028" lat="43.452234"><ele>5.0</ele></trkpt>
<trkpt lon="-3.746140" lat="43.452195"><ele>4.75</ele></trkpt>
<trkpt lon="-3.746121" lat="43.452165"><ele>4.75</ele></trkpt>
<trkpt lon="-3.746362" lat="43.452086"><ele>4.5</ele></trkpt>
<trkpt lon="-3.746263" lat="43.451940"><ele>4.5</ele></trkpt>
<trkpt lon="-3.746442" lat="43.451875"><ele>4.5</ele></trkpt>
<trkpt lon="-3.746427" lat="43.451842"><ele>4.5</ele></trkpt>
<trkpt lon="-3.746460" lat="43.451673"><ele>4.5</ele></trkpt>
<trkpt lon="-3.746547" lat="43.451535"><ele>4.5</ele></trkpt>
<trkpt lon="-3.746816" lat="43.451351"><ele>4.5</ele></trkpt>
<trkpt lon="-3.747592" lat="43.451087"><ele>4.5</ele></trkpt>
<trkpt lon="-3.748871" lat="43.450697"><ele>4.5</ele></trkpt>
<trkpt lon="-3.749737" lat="43.450419"><ele>4.5</ele></trkpt>
<trkpt lon="-3.751235" lat="43.449923"><ele>4.25</ele></trkpt>
<trkpt lon="-3.753007" lat="43.449392"><ele>4.25</ele></trkpt>
<trkpt lon="-3.753703" lat="43.449231"><ele>4.25</ele></trkpt>
<trkpt lon="-3.754333" lat="43.449143"><ele>4.25</ele></trkpt>
<trkpt lon="-3.754968" lat="43.449096"><ele>4.25</ele></trkpt>
<trkpt lon="-3.755622" lat="43.449143"><ele>4.25</ele></trkpt>
<trkpt lon="-3.756174" lat="43.449170"><ele>4.25</ele></trkpt>
<trkpt lon="-3.756878" lat="43.449215"><ele>4.0</ele></trkpt>
<trkpt lon="-3.757736" lat="43.449253"><ele>4.0</ele></trkpt>
<trkpt lon="-3.758183" lat="43.449288"><ele>4.0</ele></trkpt>
<trkpt lon="-3.758660" lat="43.449334"><ele>4.0</ele></trkpt>
<trkpt lon="-3.759204" lat="43.449330"><ele>4.0</ele></trkpt>
<trkpt lon="-3.760120" lat="43.449174"><ele>4.0</ele></trkpt>
<trkpt lon="-3.760947" lat="43.448851"><ele>4.0</ele></trkpt>
<trkpt lon="-3.762374" lat="43.448262"><ele>3.75</ele></trkpt>
<trkpt lon="-3.763711" lat="43.447879"><ele>3.75</ele></trkpt>
<trkpt lon="-3.764493" lat="43.447693"><ele>3.75</ele></trkpt>
<trkpt lon="-3.765169" lat="43.447658"><ele>3.75</ele></trkpt>
<trkpt lon="-3.765685" lat="43.447719"><ele>3.75</ele></trkpt>
<trkpt lon="-3.766057" lat="43.447849"><ele>3.75</ele></trkpt>
<trkpt lon="-3.766356" lat="43.448000"><ele>3.75</ele></trkpt>
<trkpt lon="-3.766963" lat="43.448401"><ele>3.75</ele></trkpt>
<trkpt lon="-3.767993" lat="43.448915"><ele>3.5</ele></trkpt>
<trkpt lon="-3.768307" lat="43.448996"><ele>3.5</ele></trkpt>
<trkpt lon="-3.768585" lat="43.448972"><ele>3.5</ele></trkpt>
<trkpt lon="-3.768834" lat="43.448912"><ele>3.5</ele></trkpt>
<trkpt lon="-3.768893" lat="43.449065"><ele>3.5</ele></trkpt>
<trkpt lon="-3.768996" lat="43.449218"><ele>3.5</ele></trkpt>
<trkpt lon="-3.769148" lat="43.449338"><ele>3.5</ele></trkpt>
<trkpt lon="-3.769351" lat="43.449403"><ele>3.5</ele></trkpt>
<trkpt lon="-3.769687" lat="43.449458"><ele>3.5</ele></trkpt>
<trkpt lon="-3.770252" lat="43.449459"><ele>3.5</ele></trkpt>
<trkpt lon="-3.770939" lat="43.449407"><ele>3.5</ele></trkpt>
<trkpt lon="-3.772770" lat="43.449143"><ele>3.25</ele></trkpt>
<trkpt lon="-3.774291" lat="43.448939"><ele>3.25</ele></trkpt>
<trkpt lon="-3.774644" lat="43.448937"><ele>3.25</ele></trkpt>
<trkpt lon="-3.774968" lat="43.448992"><ele>3.25</ele></trkpt>
<trkpt lon="-3.775278" lat="43.449127"><ele>3.25</ele></trkpt>
<trkpt lon="-3.775546" lat="43.449285"><ele>3.25</ele></trkpt>
<trkpt lon="-3.776400" lat="43.450135"><ele>3.25</ele></trkpt>
<trkpt lon="-3.777113" lat="43.451328"><ele>3.0</ele></trkpt>
<trkpt lon="-3.777641" lat="43.452342"><ele>3.0</ele></trkpt>
<trkpt lon="-3.777967" lat="43.453074"><ele>3.0</ele></trkpt>
<trkpt lon="-3.778169" lat="43.453470"><ele>3.0</ele></trkpt>
<trkpt lon="-3.778478" lat="43.453761"><ele>3.0</ele></trkpt>
<trkpt lon="-3.778840" lat="43.453979"><ele>3.0</ele></trkpt>
<trkpt lon="-3.779271" lat="43.454207"><ele>3.0</ele></trkpt>
<trkpt lon="-3.779737" lat="43.454399"><ele>3.0</ele></trkpt>
<trkpt lon="-3.781531" lat="43.454921"><ele>2.75</ele></trkpt>
<trkpt lon="-3.783406" lat="43.455378"><ele>2.75</ele></trkpt>
<trkpt lon="-3.786869" lat="43.456009"><ele>2.5</ele></trkpt>
<trkpt lon="-3.790041" lat="43.456755"><ele>2.5</ele></trkpt>
<trkpt lon="-3.796385" lat="43.458823"><ele>2.25</ele></trkpt>
<trkpt lon="-3.798120" lat="43.459512"><ele>2.0</ele></trkpt>
<trkpt lon="-3.799790" lat="43.460503"><ele>2.0</ele></trkpt>
<trkpt lon="-3.800506" lat="43.460913"><ele>2.0</ele></trkpt>
<trkpt lon="-3.801071" lat="43.461306"><ele>2.0</ele></trkpt>
<trkpt lon="-3.801309" lat="43.461411"><ele>2.0</ele></trkpt>
<trkpt lon="-3.801476" lat="43.461467"><ele>2.0</ele></trkpt>
<trkpt lon="-3.801638" lat="43.461511"><ele>2.75</ele></trkpt>
<trkpt lon="-3.801646" lat="43.461533"><ele>3.0</ele></trkpt>
<trkpt lon="-3.801829" lat="43.461511"><ele>3.5</ele></trkpt>
<trkpt lon="-3.801887" lat="43.461596"><ele>3.75</ele></trkpt>
<trkpt lon="-3.801899" lat="43.461614"><ele>3.75</ele></trkpt>
<trkpt lon="-3.802115" lat="43.461536"><ele>4.0</ele></trkpt>
<trkpt lon="-3.802132" lat="43.461517"><ele>4.0</ele></trkpt>
<trkpt lon="-3.802181" lat="43.461461"><ele>4.0</ele></trkpt>
<trkpt lon="-3.802233" lat="43.461395"><ele>4.0</ele></trkpt>
<trkpt lon="-3.802564" lat="43.461231"><ele>2.25</ele></trkpt>
<trkpt lon="-3.803061" lat="43.461016"><ele>4.0</ele></trkpt>
<trkpt lon="-3.803149" lat="43.461002"><ele>4.0</ele></trkpt>
<trkpt lon="-3.803211" lat="43.461018"><ele>4.0</ele></trkpt>
<trkpt lon="-3.803248" lat="43.461032"><ele>4.0</ele></trkpt>
<trkpt lon="-3.803301" lat="43.461059"><ele>4.0</ele></trkpt>
<trkpt lon="-3.803328" lat="43.461083"><ele>4.0</ele></trkpt>
<trkpt lon="-3.803358" lat="43.461127"><ele>4.0</ele></trkpt>
<trkpt lon="-3.803387" lat="43.461204"><ele>4.0</ele></trkpt>
<trkpt lon="-3.803349" lat="43.461254"><ele>4.0</ele></trkpt>
<trkpt lon="-3.803532" lat="43.461236"><ele>4.0</ele></trkpt>
<trkpt lon="-3.803688" lat="43.461226"><ele>4.0</ele></trkpt>
<trkpt lon="-3.803855" lat="43.461224"><ele>4.0</ele></trkpt>
<trkpt lon="-3.803881" lat="43.461240"><ele>4.0</ele></trkpt>
<trkpt lon="-3.803903" lat="43.461259"><ele>4.0</ele></trkpt>
<trkpt lon="-3.803912" lat="43.461357"><ele>4.0</ele></trkpt>
<trkpt lon="-3.803943" lat="43.461425"><ele>4.0</ele></trkpt>
<trkpt lon="-3.804010" lat="43.461473"><ele>4.0</ele></trkpt>
<trkpt lon="-3.804067" lat="43.461498"><ele>4.0</ele></trkpt>
<trkpt lon="-3.804176" lat="43.461524"><ele>4.0</ele></trkpt>
<trkpt lon="-3.804256" lat="43.461532"><ele>4.0</ele></trkpt>
<trkpt lon="-3.804268" lat="43.461613"><ele>4.0</ele></trkpt>
<trkpt lon="-3.804275" lat="43.461663"><ele>4.0</ele></trkpt>
<trkpt lon="-3.804281" lat="43.461687"><ele>4.0</ele></trkpt>
<trkpt lon="-3.804287" lat="43.461717"><ele>4.0</ele></trkpt>
<trkpt lon="-3.804297" lat="43.461777"><ele>4.0</ele></trkpt>
<trkpt lon="-3.804304" lat="43.461818"><ele>4.25</ele></trkpt>
<trkpt lon="-3.804311" lat="43.461857"><ele>4.25</ele></trkpt>
<trkpt lon="-3.804353" lat="43.462102"><ele>4.75</ele></trkpt>
<trkpt lon="-3.804768" lat="43.462061"><ele>4.25</ele></trkpt>
<trkpt lon="-3.805009" lat="43.462035"><ele>4.5</ele></trkpt>
  </trkseg></trk></gpx>
