<?xml version="1.0" encoding="UTF-8"?>
<gpx version="1.1" creator="compostel-brouter" xmlns="http://www.topografix.com/GPX/1/1">
  <metadata><name>ES-10-Bilbao</name></metadata>
  <trk><name>ES-10-Bilbao</name><trkseg>
<trkpt lon="-2.680102" lat="43.312949"><ele>25.0</ele></trkpt>
<trkpt lon="-2.680173" lat="43.313027"><ele>25.25</ele></trkpt>
<trkpt lon="-2.680435" lat="43.312948"><ele>24.0</ele></trkpt>
<trkpt lon="-2.680662" lat="43.312859"><ele>22.75</ele></trkpt>
<trkpt lon="-2.680722" lat="43.312844"><ele>22.25</ele></trkpt>
<trkpt lon="-2.680845" lat="43.312814"><ele>21.25</ele></trkpt>
<trkpt lon="-2.680978" lat="43.312793"><ele>21.5</ele></trkpt>
<trkpt lon="-2.681082" lat="43.312795"><ele>21.75</ele></trkpt>
<trkpt lon="-2.681248" lat="43.312778"><ele>22.0</ele></trkpt>
<trkpt lon="-2.681448" lat="43.312699"><ele>22.5</ele></trkpt>
<trkpt lon="-2.681509" lat="43.312657"><ele>23.0</ele></trkpt>
<trkpt lon="-2.681582" lat="43.312606"><ele>23.5</ele></trkpt>
<trkpt lon="-2.681665" lat="43.312594"><ele>23.75</ele></trkpt>
<trkpt lon="-2.681663" lat="43.312514"><ele>23.75</ele></trkpt>
<trkpt lon="-2.681652" lat="43.312148"><ele>26.0</ele></trkpt>
<trkpt lon="-2.681641" lat="43.312024"><ele>26.25</ele></trkpt>
<trkpt lon="-2.681616" lat="43.311879"><ele>26.25</ele></trkpt>
<trkpt lon="-2.681605" lat="43.311826"><ele>26.25</ele></trkpt>
<trkpt lon="-2.681597" lat="43.311672"><ele>26.0</ele></trkpt>
<trkpt lon="-2.681563" lat="43.311536"><ele>26.25</ele></trkpt>
<trkpt lon="-2.681536" lat="43.311299"><ele>26.5</ele></trkpt>
<trkpt lon="-2.681613" lat="43.311092"><ele>27.0</ele></trkpt>
<trkpt lon="-2.681685" lat="43.310954"><ele>27.5</ele></trkpt>
<trkpt lon="-2.681738" lat="43.310899"><ele>27.75</ele></trkpt>
<trkpt lon="-2.681877" lat="43.310832"><ele>27.75</ele></trkpt>
<trkpt lon="-2.681852" lat="43.310734"><ele>27.75</ele></trkpt>
<trkpt lon="-2.681905" lat="43.310573"><ele>27.0</ele></trkpt>
<trkpt lon="-2.682088" lat="43.310222"><ele>25.25</ele></trkpt>
<trkpt lon="-2.682209" lat="43.309945"><ele>22.5</ele></trkpt>
<trkpt lon="-2.682267" lat="43.309812"><ele>21.25</ele></trkpt>
<trkpt lon="-2.682305" lat="43.309726"><ele>20.5</ele></trkpt>
<trkpt lon="-2.682431" lat="43.309424"><ele>17.75</ele></trkpt>
<trkpt lon="-2.682476" lat="43.309358"><ele>17.25</ele></trkpt>
<trkpt lon="-2.682494" lat="43.309332"><ele>17.0</ele></trkpt>
<trkpt lon="-2.682542" lat="43.309343"><ele>17.25</ele></trkpt>
<trkpt lon="-2.682567" lat="43.309340"><ele>17.25</ele></trkpt>
<trkpt lon="-2.682607" lat="43.309319"><ele>17.25</ele></trkpt>
<trkpt lon="-2.682625" lat="43.309282"><ele>17.25</ele></trkpt>
<trkpt lon="-2.682605" lat="43.309240"><ele>17.0</ele></trkpt>
<trkpt lon="-2.682613" lat="43.309117"><ele>16.5</ele></trkpt>
<trkpt lon="-2.682641" lat="43.308504"><ele>14.25</ele></trkpt>
<trkpt lon="-2.682647" lat="43.308346"><ele>14.0</ele></trkpt>
<trkpt lon="-2.682659" lat="43.308234"><ele>14.0</ele></trkpt>
<trkpt lon="-2.682692" lat="43.307407"><ele>16.0</ele></trkpt>
<trkpt lon="-2.682697" lat="43.307284"><ele>16.0</ele></trkpt>
<trkpt lon="-2.682710" lat="43.306875"><ele>17.75</ele></trkpt>
<trkpt lon="-2.682711" lat="43.306855"><ele>17.75</ele></trkpt>
<trkpt lon="-2.682722" lat="43.306627"><ele>18.0</ele></trkpt>
<trkpt lon="-2.682748" lat="43.306108"><ele>19.75</ele></trkpt>
<trkpt lon="-2.682752" lat="43.305995"><ele>19.75</ele></trkpt>
<trkpt lon="-2.682753" lat="43.305972"><ele>19.75</ele></trkpt>
<trkpt lon="-2.682789" lat="43.305944"><ele>20.0</ele></trkpt>
<trkpt lon="-2.682797" lat="43.305925"><ele>20.0</ele></trkpt>
<trkpt lon="-2.682929" lat="43.305904"><ele>20.25</ele></trkpt>
<trkpt lon="-2.683061" lat="43.305885"><ele>20.75</ele></trkpt>
<trkpt lon="-2.683137" lat="43.305868"><ele>21.0</ele></trkpt>
<trkpt lon="-2.683233" lat="43.305846"><ele>21.5</ele></trkpt>
<trkpt lon="-2.683662" lat="43.305854"><ele>23.0</ele></trkpt>
<trkpt lon="-2.683777" lat="43.305850"><ele>23.0</ele></trkpt>
<trkpt lon="-2.684077" lat="43.305839"><ele>23.5</ele></trkpt>
<trkpt lon="-2.684531" lat="43.305793"><ele>24.0</ele></trkpt>
<trkpt lon="-2.684649" lat="43.305780"><ele>24.0</ele></trkpt>
<trkpt lon="-2.684755" lat="43.305767"><ele>24.0</ele></trkpt>
<trkpt lon="-2.684911" lat="43.305748"><ele>24.25</ele></trkpt>
<trkpt lon="-2.685447" lat="43.305681"><ele>24.25</ele></trkpt>
<trkpt lon="-2.686016" lat="43.305615"><ele>24.0</ele></trkpt>
<trkpt lon="-2.686084" lat="43.305591"><ele>24.0</ele></trkpt>
<trkpt lon="-2.686370" lat="43.305594"><ele>24.0</ele></trkpt>
<trkpt lon="-2.686506" lat="43.305596"><ele>24.0</ele></trkpt>
<trkpt lon="-2.686925" lat="43.305519"><ele>23.0</ele></trkpt>
<trkpt lon="-2.687159" lat="43.305476"><ele>22.0</ele></trkpt>
<trkpt lon="-2.687243" lat="43.305411"><ele>21.5</ele></trkpt>
<trkpt lon="-2.687213" lat="43.305303"><ele>21.0</ele></trkpt>
<trkpt lon="-2.687552" lat="43.305165"><ele>19.5</ele></trkpt>
<trkpt lon="-2.687744" lat="43.305086"><ele>18.75</ele></trkpt>
<trkpt lon="-2.687994" lat="43.304984"><ele>17.75</ele></trkpt>
<trkpt lon="-2.688082" lat="43.304949"><ele>17.75</ele></trkpt>
<trkpt lon="-2.688131" lat="43.304915"><ele>17.75</ele></trkpt>
<trkpt lon="-2.688366" lat="43.304850"><ele>17.25</ele></trkpt>
<trkpt lon="-2.689056" lat="43.304692"><ele>16.75</ele></trkpt>
<trkpt lon="-2.689379" lat="43.304592"><ele>16.5</ele></trkpt>
<trkpt lon="-2.689494" lat="43.304548"><ele>16.25</ele></trkpt>
<trkpt lon="-2.689670" lat="43.304440"><ele>15.75</ele></trkpt>
<trkpt lon="-2.689784" lat="43.304389"><ele>15.75</ele></trkpt>
<trkpt lon="-2.689854" lat="43.304365"><ele>15.75</ele></trkpt>
<trkpt lon="-2.689931" lat="43.304347"><ele>15.75</ele></trkpt>
<trkpt lon="-2.690115" lat="43.304270"><ele>15.5</ele></trkpt>
<trkpt lon="-2.690515" lat="43.304179"><ele>15.75</ele></trkpt>
<trkpt lon="-2.690645" lat="43.304157"><ele>16.0</ele></trkpt>
<trkpt lon="-2.690954" lat="43.304110"><ele>16.25</ele></trkpt>
<trkpt lon="-2.691226" lat="43.304053"><ele>16.75</ele></trkpt>
<trkpt lon="-2.691308" lat="43.304026"><ele>17.25</ele></trkpt>
<trkpt lon="-2.691402" lat="43.303972"><ele>18.0</ele></trkpt>
<trkpt lon="-2.691521" lat="43.303881"><ele>19.0</ele></trkpt>
<trkpt lon="-2.691571" lat="43.303851"><ele>19.0</ele></trkpt>
<trkpt lon="-2.691655" lat="43.303825"><ele>19.0</ele></trkpt>
<trkpt lon="-2.691765" lat="43.303828"><ele>20.0</ele></trkpt>
<trkpt lon="-2.691830" lat="43.303857"><ele>20.25</ele></trkpt>
<trkpt lon="-2.691880" lat="43.303837"><ele>21.0</ele></trkpt>
<trkpt lon="-2.692017" lat="43.303800"><ele>23.0</ele></trkpt>
<trkpt lon="-2.692145" lat="43.303778"><ele>25.25</ele></trkpt>
<trkpt lon="-2.692204" lat="43.303778"><ele>26.25</ele></trkpt>
<trkpt lon="-2.692273" lat="43.303788"><ele>27.5</ele></trkpt>
<trkpt lon="-2.692470" lat="43.303855"><ele>30.75</ele></trkpt>
<trkpt lon="-2.692666" lat="43.303910"><ele>33.5</ele></trkpt>
<trkpt lon="-2.692763" lat="43.303914"><ele>35.25</ele></trkpt>
<trkpt lon="-2.692820" lat="43.303904"><ele>36.0</ele></trkpt>
<trkpt lon="-2.692881" lat="43.303882"><ele>37.0</ele></trkpt>
<trkpt lon="-2.692951" lat="43.303840"><ele>38.75</ele></trkpt>
<trkpt lon="-2.693064" lat="43.303702"><ele>43.0</ele></trkpt>
<trkpt lon="-2.693126" lat="43.303660"><ele>44.75</ele></trkpt>
<trkpt lon="-2.693238" lat="43.303622"><ele>47.25</ele></trkpt>
<trkpt lon="-2.693422" lat="43.303579"><ele>51.0</ele></trkpt>
<trkpt lon="-2.693477" lat="43.303556"><ele>52.25</ele></trkpt>
<trkpt lon="-2.693497" lat="43.303531"><ele>53.0</ele></trkpt>
<trkpt lon="-2.693507" lat="43.303495"><ele>53.75</ele></trkpt>
<trkpt lon="-2.693508" lat="43.303400"><ele>55.25</ele></trkpt>
<trkpt lon="-2.693532" lat="43.303275"><ele>57.0</ele></trkpt>
<trkpt lon="-2.693622" lat="43.303090"><ele>59.75</ele></trkpt>
<trkpt lon="-2.693718" lat="43.302986"><ele>60.75</ele></trkpt>
<trkpt lon="-2.693755" lat="43.302972"><ele>61.5</ele></trkpt>
<trkpt lon="-2.693839" lat="43.302974"><ele>63.5</ele></trkpt>
<trkpt lon="-2.693904" lat="43.303013"><ele>65.75</ele></trkpt>
<trkpt lon="-2.694057" lat="43.303171"><ele>69.25</ele></trkpt>
<trkpt lon="-2.694195" lat="43.303259"><ele>71.25</ele></trkpt>
<trkpt lon="-2.694390" lat="43.303334"><ele>74.75</ele></trkpt>
<trkpt lon="-2.694460" lat="43.303402"><ele>75.0</ele></trkpt>
<trkpt lon="-2.694509" lat="43.303415"><ele>75.75</ele></trkpt>
<trkpt lon="-2.694550" lat="43.303412"><ele>76.75</ele></trkpt>
<trkpt lon="-2.694615" lat="43.303386"><ele>78.5</ele></trkpt>
<trkpt lon="-2.694631" lat="43.303361"><ele>79.5</ele></trkpt>
<trkpt lon="-2.694681" lat="43.303178"><ele>82.25</ele></trkpt>
<trkpt lon="-2.694745" lat="43.303053"><ele>84.5</ele></trkpt>
<trkpt lon="-2.694862" lat="43.303131"><ele>87.0</ele></trkpt>
<trkpt lon="-2.695002" lat="43.303180"><ele>90.0</ele></trkpt>
<trkpt lon="-2.695248" lat="43.303250"><ele>93.5</ele></trkpt>
<trkpt lon="-2.695446" lat="43.303363"><ele>94.75</ele></trkpt>
<trkpt lon="-2.695866" lat="43.303561"><ele>99.25</ele></trkpt>
<trkpt lon="-2.696203" lat="43.303788"><ele>102.5</ele></trkpt>
<trkpt lon="-2.696392" lat="43.303890"><ele>104.75</ele></trkpt>
<trkpt lon="-2.696486" lat="43.303915"><ele>105.25</ele></trkpt>
<trkpt lon="-2.696643" lat="43.303940"><ele>106.25</ele></trkpt>
<trkpt lon="-2.697104" lat="43.303985"><ele>109.75</ele></trkpt>
<trkpt lon="-2.697296" lat="43.304066"><ele>111.25</ele></trkpt>
<trkpt lon="-2.697398" lat="43.304102"><ele>112.0</ele></trkpt>
<trkpt lon="-2.697620" lat="43.304182"><ele>114.0</ele></trkpt>
<trkpt lon="-2.697964" lat="43.304288"><ele>116.5</ele></trkpt>
<trkpt lon="-2.698530" lat="43.304391"><ele>122.5</ele></trkpt>
<trkpt lon="-2.698766" lat="43.304421"><ele>125.0</ele></trkpt>
<trkpt lon="-2.699141" lat="43.304499"><ele>126.0</ele></trkpt>
<trkpt lon="-2.699735" lat="43.304507"><ele>131.5</ele></trkpt>
<trkpt lon="-2.699975" lat="43.304536"><ele>133.0</ele></trkpt>
<trkpt lon="-2.700317" lat="43.304544"><ele>135.5</ele></trkpt>
<trkpt lon="-2.700643" lat="43.304569"><ele>138.75</ele></trkpt>
<trkpt lon="-2.701185" lat="43.304623"><ele>145.75</ele></trkpt>
<trkpt lon="-2.701388" lat="43.304565"><ele>149.0</ele></trkpt>
<trkpt lon="-2.701975" lat="43.304471"><ele>156.0</ele></trkpt>
<trkpt lon="-2.702294" lat="43.304471"><ele>157.5</ele></trkpt>
<trkpt lon="-2.702651" lat="43.304511"><ele>160.5</ele></trkpt>
<trkpt lon="-2.702729" lat="43.304500"><ele>161.0</ele></trkpt>
<trkpt lon="-2.703712" lat="43.304421"><ele>167.0</ele></trkpt>
<trkpt lon="-2.704055" lat="43.304476"><ele>169.75</ele></trkpt>
<trkpt lon="-2.704678" lat="43.304507"><ele>175.25</ele></trkpt>
<trkpt lon="-2.705836" lat="43.304671"><ele>180.75</ele></trkpt>
<trkpt lon="-2.706496" lat="43.304772"><ele>178.75</ele></trkpt>
<trkpt lon="-2.706376" lat="43.304601"><ele>174.5</ele></trkpt>
<trkpt lon="-2.706202" lat="43.304409"><ele>171.0</ele></trkpt>
<trkpt lon="-2.705990" lat="43.304137"><ele>166.75</ele></trkpt>
<trkpt lon="-2.705726" lat="43.303891"><ele>162.0</ele></trkpt>
<trkpt lon="-2.705445" lat="43.303616"><ele>153.5</ele></trkpt>
<trkpt lon="-2.705279" lat="43.303498"><ele>148.75</ele></trkpt>
<trkpt lon="-2.705462" lat="43.303083"><ele>136.5</ele></trkpt>
<trkpt lon="-2.705547" lat="43.303015"><ele>135.0</ele></trkpt>
<trkpt lon="-2.705672" lat="43.302976"><ele>134.75</ele></trkpt>
<trkpt lon="-2.705604" lat="43.302754"><ele>130.5</ele></trkpt>
<trkpt lon="-2.705552" lat="43.302621"><ele>128.5</ele></trkpt>
<trkpt lon="-2.705493" lat="43.302534"><ele>127.5</ele></trkpt>
<trkpt lon="-2.705374" lat="43.302415"><ele>126.75</ele></trkpt>
<trkpt lon="-2.705433" lat="43.302257"><ele>125.25</ele></trkpt>
<trkpt lon="-2.705517" lat="43.301953"><ele>119.25</ele></trkpt>
<trkpt lon="-2.705508" lat="43.301870"><ele>117.5</ele></trkpt>
<trkpt lon="-2.705475" lat="43.301811"><ele>116.25</ele></trkpt>
<trkpt lon="-2.705447" lat="43.301779"><ele>115.5</ele></trkpt>
<trkpt lon="-2.705268" lat="43.301652"><ele>112.75</ele></trkpt>
<trkpt lon="-2.705221" lat="43.301608"><ele>112.0</ele></trkpt>
<trkpt lon="-2.705184" lat="43.301559"><ele>111.5</ele></trkpt>
<trkpt lon="-2.705105" lat="43.301408"><ele>109.75</ele></trkpt>
<trkpt lon="-2.704836" lat="43.301149"><ele>104.5</ele></trkpt>
<trkpt lon="-2.704683" lat="43.301020"><ele>102.25</ele></trkpt>
<trkpt lon="-2.704475" lat="43.300867"><ele>100.25</ele></trkpt>
<trkpt lon="-2.704282" lat="43.300709"><ele>98.5</ele></trkpt>
<trkpt lon="-2.704236" lat="43.300663"><ele>98.25</ele></trkpt>
<trkpt lon="-2.704066" lat="43.300448"><ele>98.25</ele></trkpt>
<trkpt lon="-2.703988" lat="43.300368"><ele>98.5</ele></trkpt>
<trkpt lon="-2.703884" lat="43.300295"><ele>99.0</ele></trkpt>
<trkpt lon="-2.703433" lat="43.300057"><ele>101.0</ele></trkpt>
<trkpt lon="-2.703208" lat="43.299904"><ele>100.0</ele></trkpt>
<trkpt lon="-2.703023" lat="43.299747"><ele>99.0</ele></trkpt>
<trkpt lon="-2.702919" lat="43.299634"><ele>98.25</ele></trkpt>
<trkpt lon="-2.702670" lat="43.299211"><ele>94.75</ele></trkpt>
<trkpt lon="-2.702661" lat="43.299184"><ele>94.5</ele></trkpt>
<trkpt lon="-2.702613" lat="43.299012"><ele>92.0</ele></trkpt>
<trkpt lon="-2.702603" lat="43.298906"><ele>90.5</ele></trkpt>
<trkpt lon="-2.702626" lat="43.298782"><ele>87.5</ele></trkpt>
<trkpt lon="-2.702665" lat="43.298700"><ele>85.75</ele></trkpt>
<trkpt lon="-2.702721" lat="43.298620"><ele>84.5</ele></trkpt>
<trkpt lon="-2.702999" lat="43.298337"><ele>79.5</ele></trkpt>
<trkpt lon="-2.703139" lat="43.298177"><ele>78.0</ele></trkpt>
<trkpt lon="-2.703361" lat="43.297967"><ele>76.0</ele></trkpt>
<trkpt lon="-2.703403" lat="43.297910"><ele>75.5</ele></trkpt>
<trkpt lon="-2.703446" lat="43.297818"><ele>74.25</ele></trkpt>
<trkpt lon="-2.703515" lat="43.297720"><ele>73.5</ele></trkpt>
<trkpt lon="-2.703608" lat="43.297609"><ele>72.75</ele></trkpt>
<trkpt lon="-2.703910" lat="43.297393"><ele>70.0</ele></trkpt>
<trkpt lon="-2.704263" lat="43.297154"><ele>65.0</ele></trkpt>
<trkpt lon="-2.704525" lat="43.296994"><ele>61.25</ele></trkpt>
<trkpt lon="-2.704602" lat="43.296913"><ele>60.0</ele></trkpt>
<trkpt lon="-2.704691" lat="43.296794"><ele>58.75</ele></trkpt>
<trkpt lon="-2.704735" lat="43.296719"><ele>58.0</ele></trkpt>
<trkpt lon="-2.704794" lat="43.296591"><ele>56.75</ele></trkpt>
<trkpt lon="-2.704869" lat="43.296338"><ele>54.5</ele></trkpt>
<trkpt lon="-2.704888" lat="43.296209"><ele>53.25</ele></trkpt>
<trkpt lon="-2.704897" lat="43.296066"><ele>52.0</ele></trkpt>
<trkpt lon="-2.704976" lat="43.295744"><ele>47.75</ele></trkpt>
<trkpt lon="-2.705031" lat="43.295589"><ele>45.5</ele></trkpt>
<trkpt lon="-2.705166" lat="43.295332"><ele>42.0</ele></trkpt>
<trkpt lon="-2.705271" lat="43.295065"><ele>37.5</ele></trkpt>
<trkpt lon="-2.705362" lat="43.294436"><ele>33.0</ele></trkpt>
<trkpt lon="-2.705390" lat="43.294000"><ele>30.0</ele></trkpt>
<trkpt lon="-2.705431" lat="43.293892"><ele>29.25</ele></trkpt>
<trkpt lon="-2.705517" lat="43.293759"><ele>28.25</ele></trkpt>
<trkpt lon="-2.705622" lat="43.293622"><ele>28.25</ele></trkpt>
<trkpt lon="-2.705723" lat="43.293524"><ele>29.0</ele></trkpt>
<trkpt lon="-2.705785" lat="43.293490"><ele>29.0</ele></trkpt>
<trkpt lon="-2.705873" lat="43.293465"><ele>29.0</ele></trkpt>
<trkpt lon="-2.705992" lat="43.293434"><ele>29.25</ele></trkpt>
<trkpt lon="-2.706237" lat="43.293407"><ele>29.75</ele></trkpt>
<trkpt lon="-2.706438" lat="43.293376"><ele>29.5</ele></trkpt>
<trkpt lon="-2.706627" lat="43.293361"><ele>29.75</ele></trkpt>
<trkpt lon="-2.706902" lat="43.293354"><ele>31.0</ele></trkpt>
<trkpt lon="-2.706986" lat="43.293365"><ele>31.25</ele></trkpt>
<trkpt lon="-2.707227" lat="43.293352"><ele>29.5</ele></trkpt>
<trkpt lon="-2.707724" lat="43.293345"><ele>27.25</ele></trkpt>
<trkpt lon="-2.707817" lat="43.293335"><ele>27.0</ele></trkpt>
<trkpt lon="-2.707892" lat="43.293320"><ele>26.75</ele></trkpt>
<trkpt lon="-2.708025" lat="43.293278"><ele>26.75</ele></trkpt>
<trkpt lon="-2.708097" lat="43.293232"><ele>26.75</ele></trkpt>
<trkpt lon="-2.708237" lat="43.293106"><ele>26.75</ele></trkpt>
<trkpt lon="-2.708278" lat="43.293059"><ele>26.75</ele></trkpt>
<trkpt lon="-2.708340" lat="43.292961"><ele>27.0</ele></trkpt>
<trkpt lon="-2.708383" lat="43.292886"><ele>27.0</ele></trkpt>
<trkpt lon="-2.708597" lat="43.292742"><ele>27.75</ele></trkpt>
<trkpt lon="-2.708712" lat="43.292678"><ele>28.0</ele></trkpt>
<trkpt lon="-2.708919" lat="43.292582"><ele>27.75</ele></trkpt>
<trkpt lon="-2.708966" lat="43.292549"><ele>27.75</ele></trkpt>
<trkpt lon="-2.709039" lat="43.292396"><ele>28.0</ele></trkpt>
<trkpt lon="-2.709063" lat="43.292331"><ele>28.25</ele></trkpt>
<trkpt lon="-2.709064" lat="43.292293"><ele>28.25</ele></trkpt>
<trkpt lon="-2.709234" lat="43.292289"><ele>29.0</ele></trkpt>
<trkpt lon="-2.709245" lat="43.292031"><ele>29.75</ele></trkpt>
<trkpt lon="-2.709330" lat="43.291881"><ele>30.5</ele></trkpt>
<trkpt lon="-2.709428" lat="43.291626"><ele>30.25</ele></trkpt>
<trkpt lon="-2.709529" lat="43.291262"><ele>33.75</ele></trkpt>
<trkpt lon="-2.709554" lat="43.291100"><ele>35.5</ele></trkpt>
<trkpt lon="-2.709622" lat="43.290811"><ele>38.0</ele></trkpt>
<trkpt lon="-2.709723" lat="43.290472"><ele>39.5</ele></trkpt>
<trkpt lon="-2.709802" lat="43.290251"><ele>40.75</ele></trkpt>
<trkpt lon="-2.709860" lat="43.290115"><ele>41.0</ele></trkpt>
<trkpt lon="-2.709922" lat="43.289913"><ele>40.75</ele></trkpt>
<trkpt lon="-2.709973" lat="43.289639"><ele>40.5</ele></trkpt>
<trkpt lon="-2.709988" lat="43.289516"><ele>40.75</ele></trkpt>
<trkpt lon="-2.710031" lat="43.288898"><ele>41.75</ele></trkpt>
<trkpt lon="-2.710084" lat="43.288569"><ele>44.0</ele></trkpt>
<trkpt lon="-2.710372" lat="43.287406"><ele>47.25</ele></trkpt>
<trkpt lon="-2.710403" lat="43.287252"><ele>47.75</ele></trkpt>
<trkpt lon="-2.710422" lat="43.287052"><ele>49.5</ele></trkpt>
<trkpt lon="-2.710419" lat="43.286731"><ele>52.0</ele></trkpt>
<trkpt lon="-2.710514" lat="43.286704"><ele>53.0</ele></trkpt>
<trkpt lon="-2.710811" lat="43.286585"><ele>57.0</ele></trkpt>
<trkpt lon="-2.710921" lat="43.286563"><ele>58.0</ele></trkpt>
<trkpt lon="-2.711317" lat="43.286512"><ele>60.75</ele></trkpt>
<trkpt lon="-2.711696" lat="43.286445"><ele>62.75</ele></trkpt>
<trkpt lon="-2.712290" lat="43.286381"><ele>66.25</ele></trkpt>
<trkpt lon="-2.712445" lat="43.286353"><ele>67.25</ele></trkpt>
<trkpt lon="-2.712512" lat="43.286378"><ele>66.25</ele></trkpt>
<trkpt lon="-2.712649" lat="43.286387"><ele>65.5</ele></trkpt>
<trkpt lon="-2.712847" lat="43.286433"><ele>64.5</ele></trkpt>
<trkpt lon="-2.712891" lat="43.286489"><ele>63.5</ele></trkpt>
<trkpt lon="-2.713263" lat="43.286402"><ele>66.5</ele></trkpt>
<trkpt lon="-2.713911" lat="43.286263"><ele>68.75</ele></trkpt>
<trkpt lon="-2.714386" lat="43.286216"><ele>68.75</ele></trkpt>
<trkpt lon="-2.714725" lat="43.286252"><ele>71.25</ele></trkpt>
<trkpt lon="-2.714913" lat="43.286252"><ele>71.75</ele></trkpt>
<trkpt lon="-2.715259" lat="43.286143"><ele>71.75</ele></trkpt>
<trkpt lon="-2.715436" lat="43.286103"><ele>72.75</ele></trkpt>
<trkpt lon="-2.715649" lat="43.286106"><ele>73.5</ele></trkpt>
<trkpt lon="-2.716102" lat="43.286175"><ele>76.0</ele></trkpt>
<trkpt lon="-2.716315" lat="43.286151"><ele>76.25</ele></trkpt>
<trkpt lon="-2.716702" lat="43.286173"><ele>77.75</ele></trkpt>
<trkpt lon="-2.716945" lat="43.286145"><ele>79.25</ele></trkpt>
<trkpt lon="-2.717195" lat="43.286040"><ele>80.0</ele></trkpt>
<trkpt lon="-2.717435" lat="43.285982"><ele>82.75</ele></trkpt>
<trkpt lon="-2.718057" lat="43.286002"><ele>85.0</ele></trkpt>
<trkpt lon="-2.718340" lat="43.285920"><ele>86.0</ele></trkpt>
<trkpt lon="-2.719694" lat="43.285345"><ele>95.5</ele></trkpt>
<trkpt lon="-2.720401" lat="43.285099"><ele>99.75</ele></trkpt>
<trkpt lon="-2.720682" lat="43.284944"><ele>101.0</ele></trkpt>
<trkpt lon="-2.721206" lat="43.284571"><ele>108.25</ele></trkpt>
<trkpt lon="-2.721501" lat="43.284379"><ele>111.75</ele></trkpt>
<trkpt lon="-2.722003" lat="43.284149"><ele>118.25</ele></trkpt>
<trkpt lon="-2.722689" lat="43.283879"><ele>125.5</ele></trkpt>
<trkpt lon="-2.722836" lat="43.283796"><ele>128.0</ele></trkpt>
<trkpt lon="-2.723138" lat="43.283729"><ele>129.75</ele></trkpt>
<trkpt lon="-2.723533" lat="43.283467"><ele>138.75</ele></trkpt>
<trkpt lon="-2.723763" lat="43.283220"><ele>147.25</ele></trkpt>
<trkpt lon="-2.723802" lat="43.283067"><ele>152.75</ele></trkpt>
<trkpt lon="-2.723907" lat="43.283009"><ele>153.75</ele></trkpt>
<trkpt lon="-2.723957" lat="43.282989"><ele>154.5</ele></trkpt>
<trkpt lon="-2.724061" lat="43.282971"><ele>155.25</ele></trkpt>
<trkpt lon="-2.724147" lat="43.282970"><ele>155.25</ele></trkpt>
<trkpt lon="-2.724335" lat="43.282967"><ele>157.75</ele></trkpt>
<trkpt lon="-2.724590" lat="43.282953"><ele>160.5</ele></trkpt>
<trkpt lon="-2.724726" lat="43.282933"><ele>162.0</ele></trkpt>
<trkpt lon="-2.724920" lat="43.282892"><ele>163.25</ele></trkpt>
<trkpt lon="-2.725099" lat="43.282846"><ele>164.5</ele></trkpt>
<trkpt lon="-2.725466" lat="43.282704"><ele>169.0</ele></trkpt>
<trkpt lon="-2.725584" lat="43.282666"><ele>170.25</ele></trkpt>
<trkpt lon="-2.726086" lat="43.282555"><ele>175.5</ele></trkpt>
<trkpt lon="-2.726161" lat="43.282527"><ele>176.25</ele></trkpt>
<trkpt lon="-2.726400" lat="43.282406"><ele>179.75</ele></trkpt>
<trkpt lon="-2.726469" lat="43.282386"><ele>181.0</ele></trkpt>
<trkpt lon="-2.726543" lat="43.282385"><ele>181.25</ele></trkpt>
<trkpt lon="-2.726611" lat="43.282404"><ele>181.0</ele></trkpt>
<trkpt lon="-2.726659" lat="43.282434"><ele>180.5</ele></trkpt>
<trkpt lon="-2.726802" lat="43.282560"><ele>182.0</ele></trkpt>
<trkpt lon="-2.726894" lat="43.282613"><ele>183.0</ele></trkpt>
<trkpt lon="-2.727134" lat="43.282658"><ele>185.5</ele></trkpt>
<trkpt lon="-2.727291" lat="43.282669"><ele>187.25</ele></trkpt>
<trkpt lon="-2.727583" lat="43.282673"><ele>190.25</ele></trkpt>
<trkpt lon="-2.727989" lat="43.282647"><ele>193.75</ele></trkpt>
<trkpt lon="-2.728408" lat="43.282585"><ele>199.25</ele></trkpt>
<trkpt lon="-2.729407" lat="43.282491"><ele>211.25</ele></trkpt>
<trkpt lon="-2.729738" lat="43.282436"><ele>216.25</ele></trkpt>
<trkpt lon="-2.729821" lat="43.282414"><ele>216.25</ele></trkpt>
<trkpt lon="-2.730081" lat="43.282321"><ele>218.25</ele></trkpt>
<trkpt lon="-2.730266" lat="43.282285"><ele>218.25</ele></trkpt>
<trkpt lon="-2.730417" lat="43.282280"><ele>221.0</ele></trkpt>
<trkpt lon="-2.730696" lat="43.282300"><ele>223.75</ele></trkpt>
<trkpt lon="-2.730785" lat="43.282292"><ele>224.5</ele></trkpt>
<trkpt lon="-2.730853" lat="43.282272"><ele>225.0</ele></trkpt>
<trkpt lon="-2.730909" lat="43.282243"><ele>224.75</ele></trkpt>
<trkpt lon="-2.730962" lat="43.282193"><ele>225.0</ele></trkpt>
<trkpt lon="-2.731262" lat="43.281775"><ele>227.0</ele></trkpt>
<trkpt lon="-2.731433" lat="43.281454"><ele>229.25</ele></trkpt>
<trkpt lon="-2.731473" lat="43.281417"><ele>229.25</ele></trkpt>
<trkpt lon="-2.731523" lat="43.281389"><ele>229.0</ele></trkpt>
<trkpt lon="-2.731609" lat="43.281365"><ele>228.0</ele></trkpt>
<trkpt lon="-2.731683" lat="43.281374"><ele>226.75</ele></trkpt>
<trkpt lon="-2.731724" lat="43.281393"><ele>226.75</ele></trkpt>
<trkpt lon="-2.731747" lat="43.281422"><ele>227.0</ele></trkpt>
<trkpt lon="-2.731928" lat="43.281748"><ele>230.25</ele></trkpt>
<trkpt lon="-2.732185" lat="43.282054"><ele>235.0</ele></trkpt>
<trkpt lon="-2.732231" lat="43.282123"><ele>234.75</ele></trkpt>
<trkpt lon="-2.732353" lat="43.282366"><ele>235.0</ele></trkpt>
<trkpt lon="-2.732468" lat="43.282566"><ele>234.5</ele></trkpt>
<trkpt lon="-2.732523" lat="43.282583"><ele>235.0</ele></trkpt>
<trkpt lon="-2.732582" lat="43.282571"><ele>236.5</ele></trkpt>
<trkpt lon="-2.732659" lat="43.282465"><ele>241.5</ele></trkpt>
<trkpt lon="-2.732671" lat="43.282387"><ele>242.75</ele></trkpt>
<trkpt lon="-2.732665" lat="43.282352"><ele>243.0</ele></trkpt>
<trkpt lon="-2.732400" lat="43.281740"><ele>247.75</ele></trkpt>
<trkpt lon="-2.732398" lat="43.281721"><ele>248.25</ele></trkpt>
<trkpt lon="-2.732418" lat="43.281680"><ele>249.5</ele></trkpt>
<trkpt lon="-2.732501" lat="43.281645"><ele>250.75</ele></trkpt>
<trkpt lon="-2.732601" lat="43.281682"><ele>253.75</ele></trkpt>
<trkpt lon="-2.733523" lat="43.282501"><ele>258.0</ele></trkpt>
<trkpt lon="-2.733578" lat="43.282575"><ele>259.25</ele></trkpt>
<trkpt lon="-2.733749" lat="43.282932"><ele>264.75</ele></trkpt>
<trkpt lon="-2.733806" lat="43.283026"><ele>266.0</ele></trkpt>
<trkpt lon="-2.734108" lat="43.283334"><ele>269.25</ele></trkpt>
<trkpt lon="-2.734392" lat="43.283582"><ele>274.75</ele></trkpt>
<trkpt lon="-2.734616" lat="43.283765"><ele>277.75</ele></trkpt>
<trkpt lon="-2.734712" lat="43.283830"><ele>279.0</ele></trkpt>
<trkpt lon="-2.734811" lat="43.283879"><ele>279.5</ele></trkpt>
<trkpt lon="-2.735143" lat="43.283997"><ele>280.75</ele></trkpt>
<trkpt lon="-2.735296" lat="43.284077"><ele>280.5</ele></trkpt>
<trkpt lon="-2.735337" lat="43.284106"><ele>280.5</ele></trkpt>
<trkpt lon="-2.735358" lat="43.284060"><ele>280.75</ele></trkpt>
<trkpt lon="-2.735424" lat="43.283994"><ele>281.75</ele></trkpt>
<trkpt lon="-2.735570" lat="43.283907"><ele>283.5</ele></trkpt>
<trkpt lon="-2.735674" lat="43.283835"><ele>284.75</ele></trkpt>
<trkpt lon="-2.735853" lat="43.283747"><ele>287.0</ele></trkpt>
<trkpt lon="-2.735928" lat="43.283699"><ele>288.25</ele></trkpt>
<trkpt lon="-2.736103" lat="43.283557"><ele>292.25</ele></trkpt>
<trkpt lon="-2.736227" lat="43.283467"><ele>294.25</ele></trkpt>
<trkpt lon="-2.736289" lat="43.283412"><ele>295.5</ele></trkpt>
<trkpt lon="-2.736326" lat="43.283365"><ele>296.5</ele></trkpt>
<trkpt lon="-2.736337" lat="43.283294"><ele>298.0</ele></trkpt>
<trkpt lon="-2.736301" lat="43.283086"><ele>303.5</ele></trkpt>
<trkpt lon="-2.736256" lat="43.282961"><ele>306.5</ele></trkpt>
<trkpt lon="-2.736192" lat="43.282815"><ele>309.75</ele></trkpt>
<trkpt lon="-2.736183" lat="43.282768"><ele>310.75</ele></trkpt>
<trkpt lon="-2.736187" lat="43.282586"><ele>313.5</ele></trkpt>
<trkpt lon="-2.736180" lat="43.282517"><ele>314.5</ele></trkpt>
<trkpt lon="-2.736173" lat="43.282449"><ele>315.75</ele></trkpt>
<trkpt lon="-2.736183" lat="43.282383"><ele>317.0</ele></trkpt>
<trkpt lon="-2.736232" lat="43.282271"><ele>319.25</ele></trkpt>
<trkpt lon="-2.736285" lat="43.282192"><ele>321.0</ele></trkpt>
<trkpt lon="-2.736349" lat="43.282071"><ele>324.0</ele></trkpt>
<trkpt lon="-2.736410" lat="43.281946"><ele>327.0</ele></trkpt>
<trkpt lon="-2.736539" lat="43.281642"><ele>333.75</ele></trkpt>
<trkpt lon="-2.736615" lat="43.281427"><ele>337.25</ele></trkpt>
<trkpt lon="-2.736674" lat="43.281187"><ele>340.0</ele></trkpt>
<trkpt lon="-2.736727" lat="43.280904"><ele>341.75</ele></trkpt>
<trkpt lon="-2.736799" lat="43.280631"><ele>342.25</ele></trkpt>
<trkpt lon="-2.736922" lat="43.280390"><ele>342.5</ele></trkpt>
<trkpt lon="-2.736936" lat="43.280357"><ele>342.5</ele></trkpt>
<trkpt lon="-2.736967" lat="43.280284"><ele>342.75</ele></trkpt>
<trkpt lon="-2.737033" lat="43.280196"><ele>344.0</ele></trkpt>
<trkpt lon="-2.737214" lat="43.279889"><ele>350.25</ele></trkpt>
<trkpt lon="-2.737361" lat="43.279605"><ele>356.25</ele></trkpt>
<trkpt lon="-2.737455" lat="43.279452"><ele>359.5</ele></trkpt>
<trkpt lon="-2.737692" lat="43.279135"><ele>369.25</ele></trkpt>
<trkpt lon="-2.737927" lat="43.278765"><ele>380.25</ele></trkpt>
<trkpt lon="-2.738089" lat="43.278530"><ele>389.0</ele></trkpt>
<trkpt lon="-2.738184" lat="43.278429"><ele>393.75</ele></trkpt>
<trkpt lon="-2.738290" lat="43.278360"><ele>397.25</ele></trkpt>
<trkpt lon="-2.738483" lat="43.278280"><ele>401.5</ele></trkpt>
<trkpt lon="-2.739011" lat="43.278103"><ele>410.75</ele></trkpt>
<trkpt lon="-2.739510" lat="43.277954"><ele>420.0</ele></trkpt>
<trkpt lon="-2.739959" lat="43.277831"><ele>429.25</ele></trkpt>
<trkpt lon="-2.740633" lat="43.277682"><ele>443.0</ele></trkpt>
<trkpt lon="-2.740843" lat="43.277663"><ele>446.5</ele></trkpt>
<trkpt lon="-2.740983" lat="43.277633"><ele>449.75</ele></trkpt>
<trkpt lon="-2.740526" lat="43.277470"><ele>455.75</ele></trkpt>
<trkpt lon="-2.740193" lat="43.277323"><ele>462.75</ele></trkpt>
<trkpt lon="-2.739919" lat="43.277233"><ele>465.75</ele></trkpt>
<trkpt lon="-2.739843" lat="43.277199"><ele>467.25</ele></trkpt>
<trkpt lon="-2.739945" lat="43.277156"><ele>470.75</ele></trkpt>
<trkpt lon="-2.740161" lat="43.277134"><ele>474.25</ele></trkpt>
<trkpt lon="-2.740358" lat="43.277103"><ele>478.5</ele></trkpt>
<trkpt lon="-2.740691" lat="43.277072"><ele>484.0</ele></trkpt>
<trkpt lon="-2.740963" lat="43.277028"><ele>489.5</ele></trkpt>
<trkpt lon="-2.741270" lat="43.276982"><ele>494.25</ele></trkpt>
<trkpt lon="-2.741911" lat="43.276995"><ele>496.25</ele></trkpt>
<trkpt lon="-2.742011" lat="43.276968"><ele>497.25</ele></trkpt>
<trkpt lon="-2.742081" lat="43.276924"><ele>498.5</ele></trkpt>
<trkpt lon="-2.742116" lat="43.276917"><ele>498.5</ele></trkpt>
<trkpt lon="-2.742282" lat="43.277085"><ele>493.75</ele></trkpt>
<trkpt lon="-2.742559" lat="43.277144"><ele>489.25</ele></trkpt>
<trkpt lon="-2.742699" lat="43.277139"><ele>487.0</ele></trkpt>
<trkpt lon="-2.742806" lat="43.277095"><ele>485.5</ele></trkpt>
<trkpt lon="-2.742926" lat="43.276994"><ele>483.25</ele></trkpt>
<trkpt lon="-2.743004" lat="43.276843"><ele>480.75</ele></trkpt>
<trkpt lon="-2.743064" lat="43.276606"><ele>477.75</ele></trkpt>
<trkpt lon="-2.743154" lat="43.276302"><ele>476.0</ele></trkpt>
<trkpt lon="-2.743317" lat="43.275916"><ele>476.25</ele></trkpt>
<trkpt lon="-2.743809" lat="43.275785"><ele>472.25</ele></trkpt>
<trkpt lon="-2.744376" lat="43.275654"><ele>462.5</ele></trkpt>
<trkpt lon="-2.745572" lat="43.275461"><ele>441.25</ele></trkpt>
<trkpt lon="-2.745824" lat="43.275414"><ele>437.5</ele></trkpt>
<trkpt lon="-2.745954" lat="43.275408"><ele>435.0</ele></trkpt>
<trkpt lon="-2.746070" lat="43.275427"><ele>432.75</ele></trkpt>
<trkpt lon="-2.747167" lat="43.275591"><ele>412.75</ele></trkpt>
<trkpt lon="-2.747926" lat="43.275698"><ele>402.75</ele></trkpt>
<trkpt lon="-2.748423" lat="43.275841"><ele>399.75</ele></trkpt>
<trkpt lon="-2.748564" lat="43.275838"><ele>398.25</ele></trkpt>
<trkpt lon="-2.748755" lat="43.275851"><ele>396.25</ele></trkpt>
<trkpt lon="-2.748879" lat="43.275835"><ele>395.0</ele></trkpt>
<trkpt lon="-2.749453" lat="43.275387"><ele>382.25</ele></trkpt>
<trkpt lon="-2.749599" lat="43.275353"><ele>378.5</ele></trkpt>
<trkpt lon="-2.749714" lat="43.275203"><ele>374.0</ele></trkpt>
<trkpt lon="-2.750140" lat="43.274841"><ele>360.25</ele></trkpt>
<trkpt lon="-2.751417" lat="43.273991"><ele>329.25</ele></trkpt>
<trkpt lon="-2.751695" lat="43.273857"><ele>324.25</ele></trkpt>
<trkpt lon="-2.751888" lat="43.273727"><ele>320.75</ele></trkpt>
<trkpt lon="-2.752103" lat="43.273596"><ele>318.5</ele></trkpt>
<trkpt lon="-2.752282" lat="43.273553"><ele>317.5</ele></trkpt>
<trkpt lon="-2.752341" lat="43.273531"><ele>317.25</ele></trkpt>
<trkpt lon="-2.752422" lat="43.273475"><ele>316.75</ele></trkpt>
<trkpt lon="-2.752548" lat="43.273351"><ele>316.0</ele></trkpt>
<trkpt lon="-2.752707" lat="43.273270"><ele>315.5</ele></trkpt>
<trkpt lon="-2.752889" lat="43.273187"><ele>314.5</ele></trkpt>
<trkpt lon="-2.753072" lat="43.273186"><ele>313.75</ele></trkpt>
<trkpt lon="-2.753339" lat="43.273212"><ele>312.75</ele></trkpt>
<trkpt lon="-2.753509" lat="43.273262"><ele>311.75</ele></trkpt>
<trkpt lon="-2.753658" lat="43.273282"><ele>310.75</ele></trkpt>
<trkpt lon="-2.753861" lat="43.273342"><ele>309.0</ele></trkpt>
<trkpt lon="-2.754050" lat="43.273374"><ele>307.25</ele></trkpt>
<trkpt lon="-2.754548" lat="43.273369"><ele>301.0</ele></trkpt>
<trkpt lon="-2.754702" lat="43.273390"><ele>298.5</ele></trkpt>
<trkpt lon="-2.755076" lat="43.273499"><ele>292.5</ele></trkpt>
<trkpt lon="-2.755157" lat="43.273536"><ele>290.75</ele></trkpt>
<trkpt lon="-2.755336" lat="43.273706"><ele>285.5</ele></trkpt>
<trkpt lon="-2.755540" lat="43.273841"><ele>280.0</ele></trkpt>
<trkpt lon="-2.755848" lat="43.273901"><ele>275.5</ele></trkpt>
<trkpt lon="-2.756239" lat="43.274138"><ele>267.0</ele></trkpt>
<trkpt lon="-2.756365" lat="43.274198"><ele>266.0</ele></trkpt>
<trkpt lon="-2.756805" lat="43.274418"><ele>259.0</ele></trkpt>
<trkpt lon="-2.756896" lat="43.274450"><ele>257.25</ele></trkpt>
<trkpt lon="-2.757081" lat="43.274488"><ele>254.5</ele></trkpt>
<trkpt lon="-2.757205" lat="43.274483"><ele>253.25</ele></trkpt>
<trkpt lon="-2.757627" lat="43.274406"><ele>249.5</ele></trkpt>
<trkpt lon="-2.757894" lat="43.274371"><ele>247.5</ele></trkpt>
<trkpt lon="-2.758304" lat="43.274231"><ele>245.5</ele></trkpt>
<trkpt lon="-2.758754" lat="43.273997"><ele>243.0</ele></trkpt>
<trkpt lon="-2.758917" lat="43.273952"><ele>242.25</ele></trkpt>
<trkpt lon="-2.759564" lat="43.273961"><ele>237.75</ele></trkpt>
<trkpt lon="-2.759730" lat="43.273940"><ele>237.25</ele></trkpt>
<trkpt lon="-2.759936" lat="43.273906"><ele>236.75</ele></trkpt>
<trkpt lon="-2.760468" lat="43.273719"><ele>234.25</ele></trkpt>
<trkpt lon="-2.760643" lat="43.273678"><ele>232.75</ele></trkpt>
<trkpt lon="-2.760893" lat="43.273639"><ele>230.75</ele></trkpt>
<trkpt lon="-2.761201" lat="43.273617"><ele>228.5</ele></trkpt>
<trkpt lon="-2.761587" lat="43.273522"><ele>225.25</ele></trkpt>
<trkpt lon="-2.762168" lat="43.273403"><ele>221.5</ele></trkpt>
<trkpt lon="-2.762309" lat="43.273374"><ele>220.75</ele></trkpt>
<trkpt lon="-2.762571" lat="43.273347"><ele>219.0</ele></trkpt>
<trkpt lon="-2.762799" lat="43.273313"><ele>216.75</ele></trkpt>
<trkpt lon="-2.763143" lat="43.273309"><ele>213.0</ele></trkpt>
<trkpt lon="-2.763315" lat="43.273284"><ele>211.5</ele></trkpt>
<trkpt lon="-2.763465" lat="43.273206"><ele>211.0</ele></trkpt>
<trkpt lon="-2.763654" lat="43.273119"><ele>211.0</ele></trkpt>
<trkpt lon="-2.763822" lat="43.273058"><ele>211.0</ele></trkpt>
<trkpt lon="-2.763930" lat="43.273053"><ele>210.75</ele></trkpt>
<trkpt lon="-2.764000" lat="43.273043"><ele>210.5</ele></trkpt>
<trkpt lon="-2.764196" lat="43.272900"><ele>209.25</ele></trkpt>
<trkpt lon="-2.764238" lat="43.272835"><ele>209.25</ele></trkpt>
<trkpt lon="-2.764294" lat="43.272653"><ele>208.25</ele></trkpt>
<trkpt lon="-2.764287" lat="43.272538"><ele>207.0</ele></trkpt>
<trkpt lon="-2.764231" lat="43.272444"><ele>205.5</ele></trkpt>
<trkpt lon="-2.764030" lat="43.272283"><ele>202.0</ele></trkpt>
<trkpt lon="-2.763803" lat="43.272179"><ele>198.25</ele></trkpt>
<trkpt lon="-2.763526" lat="43.272065"><ele>194.5</ele></trkpt>
<trkpt lon="-2.763479" lat="43.272021"><ele>193.5</ele></trkpt>
<trkpt lon="-2.763507" lat="43.272005"><ele>192.5</ele></trkpt>
<trkpt lon="-2.763607" lat="43.271970"><ele>190.0</ele></trkpt>
<trkpt lon="-2.763535" lat="43.271841"><ele>187.5</ele></trkpt>
<trkpt lon="-2.763498" lat="43.271744"><ele>185.5</ele></trkpt>
<trkpt lon="-2.763520" lat="43.271536"><ele>182.0</ele></trkpt>
<trkpt lon="-2.763677" lat="43.271464"><ele>180.5</ele></trkpt>
<trkpt lon="-2.764024" lat="43.271398"><ele>177.75</ele></trkpt>
<trkpt lon="-2.764113" lat="43.271368"><ele>177.0</ele></trkpt>
<trkpt lon="-2.764343" lat="43.271235"><ele>174.75</ele></trkpt>
<trkpt lon="-2.764493" lat="43.271169"><ele>174.0</ele></trkpt>
<trkpt lon="-2.764613" lat="43.271133"><ele>173.25</ele></trkpt>
<trkpt lon="-2.764738" lat="43.271119"><ele>173.0</ele></trkpt>
<trkpt lon="-2.764896" lat="43.271124"><ele>172.5</ele></trkpt>
<trkpt lon="-2.765024" lat="43.271144"><ele>172.25</ele></trkpt>
<trkpt lon="-2.765202" lat="43.271182"><ele>171.0</ele></trkpt>
<trkpt lon="-2.765532" lat="43.271286"><ele>169.75</ele></trkpt>
<trkpt lon="-2.765633" lat="43.271301"><ele>170.0</ele></trkpt>
<trkpt lon="-2.765770" lat="43.271301"><ele>169.75</ele></trkpt>
<trkpt lon="-2.765899" lat="43.271277"><ele>169.75</ele></trkpt>
<trkpt lon="-2.765993" lat="43.271233"><ele>169.75</ele></trkpt>
<trkpt lon="-2.766041" lat="43.271189"><ele>169.5</ele></trkpt>
<trkpt lon="-2.766164" lat="43.271031"><ele>170.5</ele></trkpt>
<trkpt lon="-2.766262" lat="43.270867"><ele>172.0</ele></trkpt>
<trkpt lon="-2.766746" lat="43.270217"><ele>171.75</ele></trkpt>
<trkpt lon="-2.766870" lat="43.270064"><ele>170.25</ele></trkpt>
<trkpt lon="-2.767021" lat="43.269912"><ele>169.25</ele></trkpt>
<trkpt lon="-2.767114" lat="43.269854"><ele>169.25</ele></trkpt>
<trkpt lon="-2.767217" lat="43.269812"><ele>169.75</ele></trkpt>
<trkpt lon="-2.767328" lat="43.269784"><ele>169.5</ele></trkpt>
<trkpt lon="-2.767876" lat="43.269724"><ele>169.0</ele></trkpt>
<trkpt lon="-2.768073" lat="43.269716"><ele>168.75</ele></trkpt>
<trkpt lon="-2.768230" lat="43.269721"><ele>169.5</ele></trkpt>
<trkpt lon="-2.768330" lat="43.269708"><ele>169.75</ele></trkpt>
<trkpt lon="-2.768397" lat="43.269689"><ele>170.75</ele></trkpt>
<trkpt lon="-2.768476" lat="43.269652"><ele>171.5</ele></trkpt>
<trkpt lon="-2.768531" lat="43.269612"><ele>172.0</ele></trkpt>
<trkpt lon="-2.768626" lat="43.269522"><ele>172.25</ele></trkpt>
<trkpt lon="-2.768826" lat="43.269356"><ele>171.5</ele></trkpt>
<trkpt lon="-2.768855" lat="43.269316"><ele>170.5</ele></trkpt>
<trkpt lon="-2.768925" lat="43.269320"><ele>170.75</ele></trkpt>
<trkpt lon="-2.769242" lat="43.269339"><ele>171.25</ele></trkpt>
<trkpt lon="-2.769528" lat="43.269368"><ele>170.5</ele></trkpt>
<trkpt lon="-2.769745" lat="43.269369"><ele>169.75</ele></trkpt>
<trkpt lon="-2.769911" lat="43.269346"><ele>169.75</ele></trkpt>
<trkpt lon="-2.770056" lat="43.269303"><ele>169.5</ele></trkpt>
<trkpt lon="-2.770180" lat="43.269240"><ele>169.25</ele></trkpt>
<trkpt lon="-2.770359" lat="43.269018"><ele>167.5</ele></trkpt>
<trkpt lon="-2.770673" lat="43.268742"><ele>165.0</ele></trkpt>
<trkpt lon="-2.770860" lat="43.268559"><ele>164.0</ele></trkpt>
<trkpt lon="-2.771005" lat="43.268465"><ele>163.25</ele></trkpt>
<trkpt lon="-2.771156" lat="43.268390"><ele>162.0</ele></trkpt>
<trkpt lon="-2.771386" lat="43.268315"><ele>159.5</ele></trkpt>
<trkpt lon="-2.771581" lat="43.268234"><ele>158.0</ele></trkpt>
<trkpt lon="-2.771781" lat="43.268122"><ele>156.0</ele></trkpt>
<trkpt lon="-2.772021" lat="43.267954"><ele>152.75</ele></trkpt>
<trkpt lon="-2.772474" lat="43.267701"><ele>151.25</ele></trkpt>
<trkpt lon="-2.772993" lat="43.267438"><ele>150.25</ele></trkpt>
<trkpt lon="-2.773137" lat="43.267378"><ele>149.25</ele></trkpt>
<trkpt lon="-2.773357" lat="43.267306"><ele>148.25</ele></trkpt>
<trkpt lon="-2.773481" lat="43.267259"><ele>148.0</ele></trkpt>
<trkpt lon="-2.773639" lat="43.267170"><ele>147.5</ele></trkpt>
<trkpt lon="-2.773955" lat="43.266965"><ele>146.75</ele></trkpt>
<trkpt lon="-2.774146" lat="43.266824"><ele>145.25</ele></trkpt>
<trkpt lon="-2.774452" lat="43.266620"><ele>140.5</ele></trkpt>
<trkpt lon="-2.774801" lat="43.266408"><ele>138.75</ele></trkpt>
<trkpt lon="-2.774856" lat="43.266368"><ele>139.0</ele></trkpt>
<trkpt lon="-2.774895" lat="43.266300"><ele>139.5</ele></trkpt>
<trkpt lon="-2.774906" lat="43.266232"><ele>139.75</ele></trkpt>
<trkpt lon="-2.774931" lat="43.266154"><ele>140.25</ele></trkpt>
<trkpt lon="-2.774982" lat="43.266072"><ele>141.0</ele></trkpt>
<trkpt lon="-2.775043" lat="43.266003"><ele>141.5</ele></trkpt>
<trkpt lon="-2.775308" lat="43.265814"><ele>141.5</ele></trkpt>
<trkpt lon="-2.775424" lat="43.265760"><ele>140.5</ele></trkpt>
<trkpt lon="-2.775544" lat="43.265730"><ele>139.5</ele></trkpt>
<trkpt lon="-2.776110" lat="43.265757"><ele>132.25</ele></trkpt>
<trkpt lon="-2.776585" lat="43.265839"><ele>126.25</ele></trkpt>
<trkpt lon="-2.776842" lat="43.265895"><ele>122.75</ele></trkpt>
<trkpt lon="-2.777201" lat="43.265959"><ele>118.25</ele></trkpt>
<trkpt lon="-2.777568" lat="43.266009"><ele>113.5</ele></trkpt>
<trkpt lon="-2.777995" lat="43.266039"><ele>108.25</ele></trkpt>
<trkpt lon="-2.778658" lat="43.266142"><ele>99.5</ele></trkpt>
<trkpt lon="-2.778867" lat="43.266182"><ele>95.75</ele></trkpt>
<trkpt lon="-2.779061" lat="43.266211"><ele>93.5</ele></trkpt>
<trkpt lon="-2.779429" lat="43.266229"><ele>90.75</ele></trkpt>
<trkpt lon="-2.779760" lat="43.266228"><ele>89.25</ele></trkpt>
<trkpt lon="-2.779886" lat="43.266228"><ele>88.75</ele></trkpt>
<trkpt lon="-2.780174" lat="43.266267"><ele>88.5</ele></trkpt>
<trkpt lon="-2.780503" lat="43.266297"><ele>89.0</ele></trkpt>
<trkpt lon="-2.780705" lat="43.266311"><ele>88.75</ele></trkpt>
<trkpt lon="-2.780886" lat="43.266340"><ele>88.25</ele></trkpt>
<trkpt lon="-2.781010" lat="43.266381"><ele>88.25</ele></trkpt>
<trkpt lon="-2.781845" lat="43.266754"><ele>86.0</ele></trkpt>
<trkpt lon="-2.782053" lat="43.266778"><ele>85.75</ele></trkpt>
<trkpt lon="-2.782155" lat="43.266795"><ele>85.75</ele></trkpt>
<trkpt lon="-2.782330" lat="43.266854"><ele>86.5</ele></trkpt>
<trkpt lon="-2.782519" lat="43.266947"><ele>88.0</ele></trkpt>
<trkpt lon="-2.782721" lat="43.267090"><ele>88.75</ele></trkpt>
<trkpt lon="-2.782790" lat="43.267186"><ele>89.0</ele></trkpt>
<trkpt lon="-2.782834" lat="43.267274"><ele>89.25</ele></trkpt>
<trkpt lon="-2.783282" lat="43.267155"><ele>89.75</ele></trkpt>
<trkpt lon="-2.783530" lat="43.267105"><ele>90.25</ele></trkpt>
<trkpt lon="-2.783546" lat="43.267109"><ele>90.25</ele></trkpt>
<trkpt lon="-2.783605" lat="43.267121"><ele>90.5</ele></trkpt>
<trkpt lon="-2.783702" lat="43.267141"><ele>90.5</ele></trkpt>
<trkpt lon="-2.784111" lat="43.267153"><ele>91.25</ele></trkpt>
<trkpt lon="-2.784111" lat="43.267189"><ele>91.5</ele></trkpt>
<trkpt lon="-2.784429" lat="43.267195"><ele>91.75</ele></trkpt>
<trkpt lon="-2.784440" lat="43.267196"><ele>91.75</ele></trkpt>
<trkpt lon="-2.784467" lat="43.267214"><ele>91.75</ele></trkpt>
<trkpt lon="-2.784471" lat="43.267256"><ele>92.0</ele></trkpt>
<trkpt lon="-2.784458" lat="43.267291"><ele>92.25</ele></trkpt>
<trkpt lon="-2.784476" lat="43.267311"><ele>92.5</ele></trkpt>
<trkpt lon="-2.784504" lat="43.267342"><ele>92.75</ele></trkpt>
<trkpt lon="-2.784547" lat="43.267361"><ele>92.75</ele></trkpt>
<trkpt lon="-2.784947" lat="43.267217"><ele>92.75</ele></trkpt>
<trkpt lon="-2.785075" lat="43.267163"><ele>92.0</ele></trkpt>
<trkpt lon="-2.785192" lat="43.267126"><ele>91.5</ele></trkpt>
<trkpt lon="-2.785174" lat="43.267098"><ele>91.5</ele></trkpt>
<trkpt lon="-2.785582" lat="43.266993"><ele>91.25</ele></trkpt>
<trkpt lon="-2.786448" lat="43.266799"><ele>90.75</ele></trkpt>
<trkpt lon="-2.787322" lat="43.266589"><ele>88.0</ele></trkpt>
<trkpt lon="-2.787408" lat="43.266568"><ele>87.75</ele></trkpt>
<trkpt lon="-2.787838" lat="43.266468"><ele>86.5</ele></trkpt>
<trkpt lon="-2.787872" lat="43.266459"><ele>86.5</ele></trkpt>
<trkpt lon="-2.787920" lat="43.266447"><ele>86.25</ele></trkpt>
<trkpt lon="-2.788771" lat="43.266251"><ele>84.0</ele></trkpt>
<trkpt lon="-2.788919" lat="43.266205"><ele>83.5</ele></trkpt>
<trkpt lon="-2.789157" lat="43.266157"><ele>82.25</ele></trkpt>
<trkpt lon="-2.789452" lat="43.266093"><ele>79.75</ele></trkpt>
<trkpt lon="-2.789767" lat="43.266047"><ele>77.25</ele></trkpt>
<trkpt lon="-2.789847" lat="43.266033"><ele>77.25</ele></trkpt>
<trkpt lon="-2.789906" lat="43.266021"><ele>77.25</ele></trkpt>
<trkpt lon="-2.789977" lat="43.266012"><ele>77.25</ele></trkpt>
<trkpt lon="-2.790611" lat="43.265946"><ele>77.5</ele></trkpt>
<trkpt lon="-2.790938" lat="43.265944"><ele>76.25</ele></trkpt>
<trkpt lon="-2.791435" lat="43.265889"><ele>76.0</ele></trkpt>
<trkpt lon="-2.791690" lat="43.265843"><ele>76.0</ele></trkpt>
<trkpt lon="-2.791867" lat="43.265799"><ele>77.5</ele></trkpt>
<trkpt lon="-2.792068" lat="43.265733"><ele>78.75</ele></trkpt>
<trkpt lon="-2.792337" lat="43.265629"><ele>78.0</ele></trkpt>
<trkpt lon="-2.792577" lat="43.265506"><ele>77.25</ele></trkpt>
<trkpt lon="-2.792692" lat="43.265431"><ele>77.0</ele></trkpt>
<trkpt lon="-2.792796" lat="43.265364"><ele>76.0</ele></trkpt>
<trkpt lon="-2.793088" lat="43.265114"><ele>75.25</ele></trkpt>
<trkpt lon="-2.793281" lat="43.264919"><ele>74.75</ele></trkpt>
<trkpt lon="-2.793363" lat="43.264803"><ele>74.75</ele></trkpt>
<trkpt lon="-2.793396" lat="43.264757"><ele>74.5</ele></trkpt>
<trkpt lon="-2.793498" lat="43.264548"><ele>74.5</ele></trkpt>
<trkpt lon="-2.793610" lat="43.264203"><ele>75.75</ele></trkpt>
<trkpt lon="-2.793636" lat="43.263954"><ele>75.5</ele></trkpt>
<trkpt lon="-2.793640" lat="43.263826"><ele>75.75</ele></trkpt>
<trkpt lon="-2.793691" lat="43.263709"><ele>75.75</ele></trkpt>
<trkpt lon="-2.793822" lat="43.263586"><ele>75.5</ele></trkpt>
<trkpt lon="-2.793912" lat="43.263519"><ele>75.0</ele></trkpt>
<trkpt lon="-2.794057" lat="43.263388"><ele>74.5</ele></trkpt>
<trkpt lon="-2.794169" lat="43.263261"><ele>73.75</ele></trkpt>
<trkpt lon="-2.794383" lat="43.262978"><ele>72.5</ele></trkpt>
<trkpt lon="-2.794502" lat="43.262766"><ele>72.75</ele></trkpt>
<trkpt lon="-2.794545" lat="43.262745"><ele>72.5</ele></trkpt>
<trkpt lon="-2.794553" lat="43.262719"><ele>72.25</ele></trkpt>
<trkpt lon="-2.794567" lat="43.262683"><ele>72.0</ele></trkpt>
<trkpt lon="-2.794873" lat="43.262108"><ele>70.5</ele></trkpt>
<trkpt lon="-2.794830" lat="43.262095"><ele>70.75</ele></trkpt>
<trkpt lon="-2.794793" lat="43.262081"><ele>70.75</ele></trkpt>
<trkpt lon="-2.794873" lat="43.261920"><ele>71.0</ele></trkpt>
<trkpt lon="-2.794918" lat="43.261903"><ele>71.0</ele></trkpt>
<trkpt lon="-2.795012" lat="43.261868"><ele>71.0</ele></trkpt>
<trkpt lon="-2.795072" lat="43.261843"><ele>71.0</ele></trkpt>
<trkpt lon="-2.795114" lat="43.261825"><ele>71.0</ele></trkpt>
<trkpt lon="-2.795216" lat="43.261833"><ele>71.0</ele></trkpt>
<trkpt lon="-2.795290" lat="43.261832"><ele>71.0</ele></trkpt>
<trkpt lon="-2.795373" lat="43.261811"><ele>71.0</ele></trkpt>
<trkpt lon="-2.795445" lat="43.261838"><ele>71.25</ele></trkpt>
<trkpt lon="-2.795558" lat="43.261865"><ele>71.5</ele></trkpt>
<trkpt lon="-2.795632" lat="43.261733"><ele>71.5</ele></trkpt>
<trkpt lon="-2.795768" lat="43.261692"><ele>71.75</ele></trkpt>
<trkpt lon="-2.796068" lat="43.261588"><ele>72.25</ele></trkpt>
<trkpt lon="-2.796150" lat="43.261572"><ele>73.0</ele></trkpt>
<trkpt lon="-2.796195" lat="43.261573"><ele>73.5</ele></trkpt>
<trkpt lon="-2.796222" lat="43.261605"><ele>73.75</ele></trkpt>
<trkpt lon="-2.796139" lat="43.261788"><ele>73.0</ele></trkpt>
<trkpt lon="-2.796198" lat="43.261801"><ele>73.75</ele></trkpt>
<trkpt lon="-2.796293" lat="43.261577"><ele>74.75</ele></trkpt>
<trkpt lon="-2.796393" lat="43.261492"><ele>76.0</ele></trkpt>
<trkpt lon="-2.796432" lat="43.261525"><ele>76.0</ele></trkpt>
<trkpt lon="-2.796482" lat="43.261560"><ele>76.25</ele></trkpt>
<trkpt lon="-2.796515" lat="43.261540"><ele>76.25</ele></trkpt>
<trkpt lon="-2.796557" lat="43.261537"><ele>76.5</ele></trkpt>
<trkpt lon="-2.796755" lat="43.261617"><ele>77.25</ele></trkpt>
<trkpt lon="-2.797082" lat="43.261684"><ele>77.75</ele></trkpt>
<trkpt lon="-2.797099" lat="43.261643"><ele>78.0</ele></trkpt>
<trkpt lon="-2.797114" lat="43.261604"><ele>78.25</ele></trkpt>
<trkpt lon="-2.797391" lat="43.261660"><ele>78.5</ele></trkpt>
<trkpt lon="-2.797405" lat="43.261632"><ele>78.75</ele></trkpt>
<trkpt lon="-2.798119" lat="43.261797"><ele>82.0</ele></trkpt>
<trkpt lon="-2.798132" lat="43.261800"><ele>82.0</ele></trkpt>
<trkpt lon="-2.798298" lat="43.261843"><ele>82.75</ele></trkpt>
<trkpt lon="-2.798765" lat="43.261949"><ele>84.0</ele></trkpt>
<trkpt lon="-2.799353" lat="43.262055"><ele>86.5</ele></trkpt>
<trkpt lon="-2.799338" lat="43.262121"><ele>86.25</ele></trkpt>
<trkpt lon="-2.799319" lat="43.262168"><ele>86.0</ele></trkpt>
<trkpt lon="-2.799298" lat="43.262225"><ele>85.75</ele></trkpt>
<trkpt lon="-2.799654" lat="43.262309"><ele>87.25</ele></trkpt>
<trkpt lon="-2.800056" lat="43.262428"><ele>89.25</ele></trkpt>
<trkpt lon="-2.800200" lat="43.262481"><ele>90.25</ele></trkpt>
<trkpt lon="-2.800332" lat="43.262542"><ele>90.75</ele></trkpt>
<trkpt lon="-2.800410" lat="43.262596"><ele>90.75</ele></trkpt>
<trkpt lon="-2.800897" lat="43.262813"><ele>93.0</ele></trkpt>
<trkpt lon="-2.801531" lat="43.263060"><ele>96.25</ele></trkpt>
<trkpt lon="-2.801681" lat="43.263125"><ele>97.0</ele></trkpt>
<trkpt lon="-2.801727" lat="43.263161"><ele>97.75</ele></trkpt>
<trkpt lon="-2.801758" lat="43.263156"><ele>98.0</ele></trkpt>
<trkpt lon="-2.801852" lat="43.263200"><ele>99.25</ele></trkpt>
<trkpt lon="-2.801950" lat="43.263248"><ele>100.25</ele></trkpt>
<trkpt lon="-2.802074" lat="43.263303"><ele>100.0</ele></trkpt>
<trkpt lon="-2.802304" lat="43.263379"><ele>100.0</ele></trkpt>
<trkpt lon="-2.802570" lat="43.263435"><ele>100.75</ele></trkpt>
<trkpt lon="-2.802633" lat="43.263447"><ele>101.0</ele></trkpt>
<trkpt lon="-2.802693" lat="43.263460"><ele>101.25</ele></trkpt>
<trkpt lon="-2.802779" lat="43.263491"><ele>101.5</ele></trkpt>
<trkpt lon="-2.803271" lat="43.263657"><ele>100.5</ele></trkpt>
<trkpt lon="-2.803303" lat="43.263671"><ele>100.5</ele></trkpt>
<trkpt lon="-2.803373" lat="43.263695"><ele>100.5</ele></trkpt>
<trkpt lon="-2.803708" lat="43.263821"><ele>99.5</ele></trkpt>
<trkpt lon="-2.804094" lat="43.263979"><ele>98.5</ele></trkpt>
<trkpt lon="-2.804564" lat="43.264135"><ele>97.25</ele></trkpt>
<trkpt lon="-2.805293" lat="43.264295"><ele>96.25</ele></trkpt>
<trkpt lon="-2.806069" lat="43.264444"><ele>96.0</ele></trkpt>
<trkpt lon="-2.806767" lat="43.264594"><ele>95.75</ele></trkpt>
<trkpt lon="-2.806911" lat="43.264630"><ele>95.5</ele></trkpt>
<trkpt lon="-2.806941" lat="43.264640"><ele>95.5</ele></trkpt>
<trkpt lon="-2.807059" lat="43.264661"><ele>95.25</ele></trkpt>
<trkpt lon="-2.807451" lat="43.264755"><ele>94.25</ele></trkpt>
<trkpt lon="-2.807545" lat="43.264794"><ele>94.5</ele></trkpt>
<trkpt lon="-2.807785" lat="43.264848"><ele>94.75</ele></trkpt>
<trkpt lon="-2.807887" lat="43.264854"><ele>94.5</ele></trkpt>
<trkpt lon="-2.808155" lat="43.264915"><ele>94.0</ele></trkpt>
<trkpt lon="-2.808547" lat="43.265027"><ele>93.25</ele></trkpt>
<trkpt lon="-2.808968" lat="43.265200"><ele>92.0</ele></trkpt>
<trkpt lon="-2.809093" lat="43.265267"><ele>91.25</ele></trkpt>
<trkpt lon="-2.809122" lat="43.265283"><ele>91.25</ele></trkpt>
<trkpt lon="-2.809143" lat="43.265293"><ele>91.25</ele></trkpt>
<trkpt lon="-2.809199" lat="43.265294"><ele>90.75</ele></trkpt>
<trkpt lon="-2.809359" lat="43.265375"><ele>90.75</ele></trkpt>
<trkpt lon="-2.810178" lat="43.265710"><ele>88.5</ele></trkpt>
<trkpt lon="-2.810324" lat="43.265763"><ele>87.75</ele></trkpt>
<trkpt lon="-2.810366" lat="43.265773"><ele>87.75</ele></trkpt>
<trkpt lon="-2.810430" lat="43.265794"><ele>87.75</ele></trkpt>
<trkpt lon="-2.811450" lat="43.266015"><ele>84.5</ele></trkpt>
<trkpt lon="-2.811612" lat="43.266055"><ele>84.5</ele></trkpt>
<trkpt lon="-2.811689" lat="43.266074"><ele>84.75</ele></trkpt>
<trkpt lon="-2.812266" lat="43.266184"><ele>89.25</ele></trkpt>
<trkpt lon="-2.812609" lat="43.266258"><ele>91.75</ele></trkpt>
<trkpt lon="-2.813121" lat="43.266372"><ele>93.0</ele></trkpt>
<trkpt lon="-2.813549" lat="43.266500"><ele>94.25</ele></trkpt>
<trkpt lon="-2.813897" lat="43.266618"><ele>94.0</ele></trkpt>
<trkpt lon="-2.813935" lat="43.266631"><ele>94.0</ele></trkpt>
<trkpt lon="-2.813999" lat="43.266654"><ele>94.0</ele></trkpt>
<trkpt lon="-2.815541" lat="43.267225"><ele>96.0</ele></trkpt>
<trkpt lon="-2.816209" lat="43.267484"><ele>97.5</ele></trkpt>
<trkpt lon="-2.816637" lat="43.267658"><ele>98.0</ele></trkpt>
<trkpt lon="-2.817213" lat="43.267904"><ele>97.5</ele></trkpt>
<trkpt lon="-2.817328" lat="43.267961"><ele>97.25</ele></trkpt>
<trkpt lon="-2.817410" lat="43.267997"><ele>97.25</ele></trkpt>
<trkpt lon="-2.817529" lat="43.268040"><ele>96.75</ele></trkpt>
<trkpt lon="-2.817935" lat="43.268199"><ele>96.0</ele></trkpt>
<trkpt lon="-2.819333" lat="43.268780"><ele>92.5</ele></trkpt>
<trkpt lon="-2.820188" lat="43.269150"><ele>87.5</ele></trkpt>
<trkpt lon="-2.820771" lat="43.269409"><ele>85.0</ele></trkpt>
<trkpt lon="-2.821270" lat="43.269664"><ele>82.25</ele></trkpt>
<trkpt lon="-2.821741" lat="43.269894"><ele>79.5</ele></trkpt>
<trkpt lon="-2.821946" lat="43.270002"><ele>79.0</ele></trkpt>
<trkpt lon="-2.822389" lat="43.270209"><ele>77.25</ele></trkpt>
<trkpt lon="-2.822690" lat="43.270333"><ele>75.25</ele></trkpt>
<trkpt lon="-2.822921" lat="43.270397"><ele>74.25</ele></trkpt>
<trkpt lon="-2.823172" lat="43.270437"><ele>74.75</ele></trkpt>
<trkpt lon="-2.823631" lat="43.270498"><ele>73.75</ele></trkpt>
<trkpt lon="-2.823686" lat="43.270509"><ele>73.5</ele></trkpt>
<trkpt lon="-2.823719" lat="43.270514"><ele>73.5</ele></trkpt>
<trkpt lon="-2.823777" lat="43.270526"><ele>73.25</ele></trkpt>
<trkpt lon="-2.824144" lat="43.270629"><ele>73.25</ele></trkpt>
<trkpt lon="-2.824300" lat="43.270637"><ele>72.75</ele></trkpt>
<trkpt lon="-2.825227" lat="43.271081"><ele>71.0</ele></trkpt>
<trkpt lon="-2.825848" lat="43.271397"><ele>70.0</ele></trkpt>
<trkpt lon="-2.826248" lat="43.271590"><ele>69.5</ele></trkpt>
<trkpt lon="-2.826310" lat="43.271625"><ele>69.25</ele></trkpt>
<trkpt lon="-2.826383" lat="43.271655"><ele>69.0</ele></trkpt>
<trkpt lon="-2.827135" lat="43.271982"><ele>68.0</ele></trkpt>
<trkpt lon="-2.827521" lat="43.272136"><ele>67.5</ele></trkpt>
<trkpt lon="-2.828002" lat="43.272307"><ele>67.25</ele></trkpt>
<trkpt lon="-2.828493" lat="43.272473"><ele>66.25</ele></trkpt>
<trkpt lon="-2.828543" lat="43.272492"><ele>66.0</ele></trkpt>
<trkpt lon="-2.828615" lat="43.272509"><ele>65.75</ele></trkpt>
<trkpt lon="-2.828687" lat="43.272534"><ele>65.75</ele></trkpt>
<trkpt lon="-2.828738" lat="43.272550"><ele>65.75</ele></trkpt>
<trkpt lon="-2.828823" lat="43.272575"><ele>65.5</ele></trkpt>
<trkpt lon="-2.829129" lat="43.272671"><ele>65.0</ele></trkpt>
<trkpt lon="-2.829169" lat="43.272690"><ele>64.75</ele></trkpt>
<trkpt lon="-2.829224" lat="43.272706"><ele>64.75</ele></trkpt>
<trkpt lon="-2.829325" lat="43.272738"><ele>64.75</ele></trkpt>
<trkpt lon="-2.829379" lat="43.272762"><ele>64.75</ele></trkpt>
<trkpt lon="-2.829501" lat="43.272803"><ele>64.75</ele></trkpt>
<trkpt lon="-2.830659" lat="43.273144"><ele>63.25</ele></trkpt>
<trkpt lon="-2.831240" lat="43.273324"><ele>63.0</ele></trkpt>
<trkpt lon="-2.831645" lat="43.273441"><ele>62.5</ele></trkpt>
<trkpt lon="-2.832281" lat="43.273626"><ele>61.5</ele></trkpt>
<trkpt lon="-2.832300" lat="43.273632"><ele>61.5</ele></trkpt>
<trkpt lon="-2.832332" lat="43.273642"><ele>61.25</ele></trkpt>
<trkpt lon="-2.832643" lat="43.273732"><ele>60.75</ele></trkpt>
<trkpt lon="-2.832676" lat="43.273768"><ele>60.75</ele></trkpt>
<trkpt lon="-2.832665" lat="43.273803"><ele>60.5</ele></trkpt>
<trkpt lon="-2.832614" lat="43.273830"><ele>60.5</ele></trkpt>
<trkpt lon="-2.832635" lat="43.273846"><ele>60.5</ele></trkpt>
<trkpt lon="-2.832684" lat="43.273885"><ele>60.5</ele></trkpt>
<trkpt lon="-2.832779" lat="43.273854"><ele>61.0</ele></trkpt>
<trkpt lon="-2.832943" lat="43.273849"><ele>61.0</ele></trkpt>
<trkpt lon="-2.833034" lat="43.273869"><ele>61.0</ele></trkpt>
<trkpt lon="-2.833090" lat="43.273886"><ele>60.75</ele></trkpt>
<trkpt lon="-2.833121" lat="43.273896"><ele>60.75</ele></trkpt>
<trkpt lon="-2.833162" lat="43.273937"><ele>60.75</ele></trkpt>
<trkpt lon="-2.833270" lat="43.273969"><ele>60.5</ele></trkpt>
<trkpt lon="-2.833363" lat="43.274005"><ele>60.5</ele></trkpt>
<trkpt lon="-2.833419" lat="43.273992"><ele>60.5</ele></trkpt>
<trkpt lon="-2.833444" lat="43.273999"><ele>60.25</ele></trkpt>
<trkpt lon="-2.833954" lat="43.274154"><ele>60.25</ele></trkpt>
<trkpt lon="-2.834217" lat="43.274237"><ele>60.5</ele></trkpt>
<trkpt lon="-2.834363" lat="43.274283"><ele>60.5</ele></trkpt>
<trkpt lon="-2.834467" lat="43.274313"><ele>60.25</ele></trkpt>
<trkpt lon="-2.835139" lat="43.274524"><ele>60.0</ele></trkpt>
<trkpt lon="-2.835233" lat="43.274595"><ele>59.75</ele></trkpt>
<trkpt lon="-2.835263" lat="43.274679"><ele>59.75</ele></trkpt>
<trkpt lon="-2.835218" lat="43.274771"><ele>59.25</ele></trkpt>
<trkpt lon="-2.835269" lat="43.274786"><ele>59.25</ele></trkpt>
<trkpt lon="-2.835324" lat="43.274804"><ele>59.0</ele></trkpt>
<trkpt lon="-2.835356" lat="43.274752"><ele>59.0</ele></trkpt>
<trkpt lon="-2.835402" lat="43.274705"><ele>59.0</ele></trkpt>
<trkpt lon="-2.835451" lat="43.274681"><ele>58.75</ele></trkpt>
<trkpt lon="-2.835539" lat="43.274671"><ele>58.25</ele></trkpt>
<trkpt lon="-2.835696" lat="43.274702"><ele>58.5</ele></trkpt>
<trkpt lon="-2.836819" lat="43.275035"><ele>56.5</ele></trkpt>
<trkpt lon="-2.837375" lat="43.275190"><ele>56.0</ele></trkpt>
<trkpt lon="-2.837415" lat="43.275212"><ele>56.25</ele></trkpt>
<trkpt lon="-2.837440" lat="43.275217"><ele>56.25</ele></trkpt>
<trkpt lon="-2.837524" lat="43.275236"><ele>56.75</ele></trkpt>
<trkpt lon="-2.837703" lat="43.275276"><ele>56.0</ele></trkpt>
<trkpt lon="-2.837829" lat="43.275311"><ele>55.75</ele></trkpt>
<trkpt lon="-2.838069" lat="43.275376"><ele>54.25</ele></trkpt>
<trkpt lon="-2.838602" lat="43.275502"><ele>54.25</ele></trkpt>
<trkpt lon="-2.838959" lat="43.275575"><ele>53.0</ele></trkpt>
<trkpt lon="-2.839562" lat="43.275676"><ele>52.25</ele></trkpt>
<trkpt lon="-2.840025" lat="43.275737"><ele>50.5</ele></trkpt>
<trkpt lon="-2.840496" lat="43.275783"><ele>50.75</ele></trkpt>
<trkpt lon="-2.841217" lat="43.275844"><ele>49.75</ele></trkpt>
<trkpt lon="-2.841372" lat="43.275887"><ele>50.0</ele></trkpt>
<trkpt lon="-2.841394" lat="43.275916"><ele>49.75</ele></trkpt>
<trkpt lon="-2.841446" lat="43.275929"><ele>49.75</ele></trkpt>
<trkpt lon="-2.841500" lat="43.275942"><ele>49.75</ele></trkpt>
<trkpt lon="-2.841549" lat="43.275952"><ele>49.75</ele></trkpt>
<trkpt lon="-2.841632" lat="43.275916"><ele>49.5</ele></trkpt>
<trkpt lon="-2.841999" lat="43.275895"><ele>49.25</ele></trkpt>
<trkpt lon="-2.842683" lat="43.275932"><ele>47.75</ele></trkpt>
<trkpt lon="-2.843027" lat="43.275975"><ele>47.25</ele></trkpt>
<trkpt lon="-2.843438" lat="43.276059"><ele>47.0</ele></trkpt>
<trkpt lon="-2.843818" lat="43.276168"><ele>47.0</ele></trkpt>
<trkpt lon="-2.843918" lat="43.276225"><ele>47.0</ele></trkpt>
<trkpt lon="-2.843936" lat="43.276282"><ele>47.0</ele></trkpt>
<trkpt lon="-2.843939" lat="43.276332"><ele>46.75</ele></trkpt>
<trkpt lon="-2.843963" lat="43.276375"><ele>46.75</ele></trkpt>
<trkpt lon="-2.844057" lat="43.276442"><ele>46.0</ele></trkpt>
<trkpt lon="-2.844092" lat="43.276454"><ele>46.0</ele></trkpt>
<trkpt lon="-2.844142" lat="43.276468"><ele>46.0</ele></trkpt>
<trkpt lon="-2.844201" lat="43.276467"><ele>46.0</ele></trkpt>
<trkpt lon="-2.844237" lat="43.276465"><ele>46.0</ele></trkpt>
<trkpt lon="-2.844317" lat="43.276446"><ele>46.25</ele></trkpt>
<trkpt lon="-2.844481" lat="43.276385"><ele>47.0</ele></trkpt>
<trkpt lon="-2.844605" lat="43.276403"><ele>46.75</ele></trkpt>
<trkpt lon="-2.844920" lat="43.276479"><ele>46.5</ele></trkpt>
<trkpt lon="-2.845181" lat="43.276577"><ele>46.5</ele></trkpt>
<trkpt lon="-2.845270" lat="43.276627"><ele>46.25</ele></trkpt>
<trkpt lon="-2.845489" lat="43.276696"><ele>46.5</ele></trkpt>
<trkpt lon="-2.845557" lat="43.276692"><ele>46.75</ele></trkpt>
<trkpt lon="-2.845922" lat="43.276831"><ele>47.0</ele></trkpt>
<trkpt lon="-2.845948" lat="43.276788"><ele>47.25</ele></trkpt>
<trkpt lon="-2.845979" lat="43.276742"><ele>47.5</ele></trkpt>
<trkpt lon="-2.845992" lat="43.276726"><ele>47.5</ele></trkpt>
<trkpt lon="-2.846393" lat="43.276894"><ele>47.25</ele></trkpt>
<trkpt lon="-2.847794" lat="43.277577"><ele>45.75</ele></trkpt>
<trkpt lon="-2.848093" lat="43.277716"><ele>45.25</ele></trkpt>
<trkpt lon="-2.848520" lat="43.277920"><ele>44.75</ele></trkpt>
<trkpt lon="-2.849101" lat="43.278205"><ele>44.25</ele></trkpt>
<trkpt lon="-2.849423" lat="43.278352"><ele>42.75</ele></trkpt>
<trkpt lon="-2.849539" lat="43.278364"><ele>42.5</ele></trkpt>
<trkpt lon="-2.849642" lat="43.278348"><ele>42.25</ele></trkpt>
<trkpt lon="-2.849757" lat="43.278305"><ele>42.0</ele></trkpt>
<trkpt lon="-2.849796" lat="43.278269"><ele>42.25</ele></trkpt>
<trkpt lon="-2.849849" lat="43.278300"><ele>41.75</ele></trkpt>
<trkpt lon="-2.849902" lat="43.278331"><ele>41.25</ele></trkpt>
<trkpt lon="-2.850004" lat="43.278345"><ele>41.0</ele></trkpt>
<trkpt lon="-2.850094" lat="43.278360"><ele>42.0</ele></trkpt>
<trkpt lon="-2.850063" lat="43.278270"><ele>41.75</ele></trkpt>
<trkpt lon="-2.850050" lat="43.278198"><ele>42.0</ele></trkpt>
<trkpt lon="-2.850077" lat="43.278103"><ele>42.75</ele></trkpt>
<trkpt lon="-2.850224" lat="43.277872"><ele>43.25</ele></trkpt>
<trkpt lon="-2.850693" lat="43.277253"><ele>45.25</ele></trkpt>
<trkpt lon="-2.850827" lat="43.277085"><ele>45.0</ele></trkpt>
<trkpt lon="-2.851276" lat="43.276493"><ele>47.5</ele></trkpt>
<trkpt lon="-2.851694" lat="43.275982"><ele>49.5</ele></trkpt>
<trkpt lon="-2.851824" lat="43.275805"><ele>50.0</ele></trkpt>
<trkpt lon="-2.851879" lat="43.275827"><ele>50.0</ele></trkpt>
<trkpt lon="-2.852103" lat="43.275552"><ele>51.0</ele></trkpt>
<trkpt lon="-2.852115" lat="43.275461"><ele>51.0</ele></trkpt>
<trkpt lon="-2.852252" lat="43.275338"><ele>51.0</ele></trkpt>
<trkpt lon="-2.852292" lat="43.275301"><ele>50.75</ele></trkpt>
<trkpt lon="-2.852373" lat="43.275306"><ele>51.0</ele></trkpt>
<trkpt lon="-2.852452" lat="43.275294"><ele>51.0</ele></trkpt>
<trkpt lon="-2.852527" lat="43.275266"><ele>51.0</ele></trkpt>
<trkpt lon="-2.852579" lat="43.275232"><ele>51.0</ele></trkpt>
<trkpt lon="-2.852623" lat="43.275184"><ele>51.25</ele></trkpt>
<trkpt lon="-2.852648" lat="43.275132"><ele>51.5</ele></trkpt>
<trkpt lon="-2.852654" lat="43.275082"><ele>51.5</ele></trkpt>
<trkpt lon="-2.852752" lat="43.274995"><ele>52.0</ele></trkpt>
<trkpt lon="-2.852848" lat="43.274896"><ele>52.0</ele></trkpt>
<trkpt lon="-2.853009" lat="43.274792"><ele>52.5</ele></trkpt>
<trkpt lon="-2.853212" lat="43.274692"><ele>52.25</ele></trkpt>
<trkpt lon="-2.853414" lat="43.274576"><ele>53.25</ele></trkpt>
<trkpt lon="-2.853699" lat="43.274510"><ele>53.0</ele></trkpt>
<trkpt lon="-2.853897" lat="43.274487"><ele>52.0</ele></trkpt>
<trkpt lon="-2.853994" lat="43.274412"><ele>52.75</ele></trkpt>
<trkpt lon="-2.854244" lat="43.274352"><ele>53.75</ele></trkpt>
<trkpt lon="-2.854369" lat="43.274269"><ele>54.0</ele></trkpt>
<trkpt lon="-2.854537" lat="43.274131"><ele>54.25</ele></trkpt>
<trkpt lon="-2.854651" lat="43.273980"><ele>55.25</ele></trkpt>
<trkpt lon="-2.854728" lat="43.273979"><ele>54.5</ele></trkpt>
<trkpt lon="-2.854821" lat="43.273990"><ele>54.5</ele></trkpt>
<trkpt lon="-2.855059" lat="43.273986"><ele>54.5</ele></trkpt>
<trkpt lon="-2.855348" lat="43.273916"><ele>55.25</ele></trkpt>
<trkpt lon="-2.855789" lat="43.273863"><ele>56.75</ele></trkpt>
<trkpt lon="-2.856162" lat="43.273867"><ele>57.0</ele></trkpt>
<trkpt lon="-2.856401" lat="43.273780"><ele>58.0</ele></trkpt>
<trkpt lon="-2.856804" lat="43.273710"><ele>59.75</ele></trkpt>
<trkpt lon="-2.857590" lat="43.273740"><ele>61.5</ele></trkpt>
<trkpt lon="-2.858193" lat="43.273891"><ele>64.0</ele></trkpt>
<trkpt lon="-2.858799" lat="43.273968"><ele>65.25</ele></trkpt>
<trkpt lon="-2.859128" lat="43.274035"><ele>67.25</ele></trkpt>
<trkpt lon="-2.859435" lat="43.273998"><ele>68.5</ele></trkpt>
<trkpt lon="-2.859738" lat="43.273906"><ele>69.75</ele></trkpt>
<trkpt lon="-2.860076" lat="43.273818"><ele>71.75</ele></trkpt>
<trkpt lon="-2.860537" lat="43.273855"><ele>72.5</ele></trkpt>
<trkpt lon="-2.860927" lat="43.273862"><ele>72.75</ele></trkpt>
<trkpt lon="-2.861123" lat="43.273831"><ele>74.25</ele></trkpt>
<trkpt lon="-2.861515" lat="43.273695"><ele>78.25</ele></trkpt>
<trkpt lon="-2.861763" lat="43.273505"><ele>80.25</ele></trkpt>
<trkpt lon="-2.861940" lat="43.273311"><ele>80.75</ele></trkpt>
<trkpt lon="-2.862061" lat="43.273066"><ele>86.0</ele></trkpt>
<trkpt lon="-2.862243" lat="43.273143"><ele>83.25</ele></trkpt>
<trkpt lon="-2.863174" lat="43.273356"><ele>95.0</ele></trkpt>
<trkpt lon="-2.863748" lat="43.273506"><ele>106.75</ele></trkpt>
<trkpt lon="-2.864691" lat="43.273802"><ele>119.5</ele></trkpt>
<trkpt lon="-2.865362" lat="43.274095"><ele>122.0</ele></trkpt>
<trkpt lon="-2.866061" lat="43.274474"><ele>121.25</ele></trkpt>
<trkpt lon="-2.866259" lat="43.274620"><ele>117.75</ele></trkpt>
<trkpt lon="-2.866642" lat="43.274901"><ele>112.75</ele></trkpt>
<trkpt lon="-2.866910" lat="43.275182"><ele>105.75</ele></trkpt>
<trkpt lon="-2.867127" lat="43.275314"><ele>102.0</ele></trkpt>
<trkpt lon="-2.867241" lat="43.275303"><ele>101.75</ele></trkpt>
<trkpt lon="-2.867543" lat="43.275433"><ele>95.0</ele></trkpt>
<trkpt lon="-2.867877" lat="43.275563"><ele>93.0</ele></trkpt>
<trkpt lon="-2.868337" lat="43.275718"><ele>94.0</ele></trkpt>
<trkpt lon="-2.868512" lat="43.275767"><ele>96.25</ele></trkpt>
<trkpt lon="-2.868676" lat="43.275788"><ele>97.75</ele></trkpt>
<trkpt lon="-2.869308" lat="43.275791"><ele>99.0</ele></trkpt>
<trkpt lon="-2.869600" lat="43.275781"><ele>101.25</ele></trkpt>
<trkpt lon="-2.870033" lat="43.275748"><ele>103.25</ele></trkpt>
<trkpt lon="-2.870649" lat="43.275787"><ele>108.5</ele></trkpt>
<trkpt lon="-2.870846" lat="43.275787"><ele>110.25</ele></trkpt>
<trkpt lon="-2.871159" lat="43.275733"><ele>113.75</ele></trkpt>
<trkpt lon="-2.871284" lat="43.275683"><ele>114.25</ele></trkpt>
<trkpt lon="-2.871429" lat="43.275563"><ele>114.75</ele></trkpt>
<trkpt lon="-2.871490" lat="43.275479"><ele>116.25</ele></trkpt>
<trkpt lon="-2.871447" lat="43.275327"><ele>118.5</ele></trkpt>
<trkpt lon="-2.871483" lat="43.275243"><ele>119.75</ele></trkpt>
<trkpt lon="-2.871517" lat="43.275198"><ele>120.5</ele></trkpt>
<trkpt lon="-2.871655" lat="43.274963"><ele>123.5</ele></trkpt>
<trkpt lon="-2.871791" lat="43.274761"><ele>123.75</ele></trkpt>
<trkpt lon="-2.871993" lat="43.274531"><ele>123.25</ele></trkpt>
<trkpt lon="-2.872517" lat="43.274338"><ele>125.75</ele></trkpt>
<trkpt lon="-2.872977" lat="43.274219"><ele>127.5</ele></trkpt>
<trkpt lon="-2.873424" lat="43.274181"><ele>129.0</ele></trkpt>
<trkpt lon="-2.873614" lat="43.274114"><ele>130.0</ele></trkpt>
<trkpt lon="-2.873688" lat="43.274060"><ele>131.75</ele></trkpt>
<trkpt lon="-2.873830" lat="43.273934"><ele>133.0</ele></trkpt>
<trkpt lon="-2.874039" lat="43.273873"><ele>134.5</ele></trkpt>
<trkpt lon="-2.874394" lat="43.273806"><ele>137.0</ele></trkpt>
<trkpt lon="-2.874481" lat="43.273769"><ele>137.0</ele></trkpt>
<trkpt lon="-2.874548" lat="43.273751"><ele>137.25</ele></trkpt>
<trkpt lon="-2.874632" lat="43.273729"><ele>138.0</ele></trkpt>
<trkpt lon="-2.874794" lat="43.273702"><ele>139.5</ele></trkpt>
<trkpt lon="-2.875188" lat="43.273824"><ele>147.25</ele></trkpt>
<trkpt lon="-2.875405" lat="43.273834"><ele>154.25</ele></trkpt>
<trkpt lon="-2.875559" lat="43.273810"><ele>159.0</ele></trkpt>
<trkpt lon="-2.875824" lat="43.273551"><ele>167.25</ele></trkpt>
<trkpt lon="-2.876103" lat="43.273073"><ele>173.75</ele></trkpt>
<trkpt lon="-2.876183" lat="43.272951"><ele>179.0</ele></trkpt>
<trkpt lon="-2.876150" lat="43.272730"><ele>182.0</ele></trkpt>
<trkpt lon="-2.876119" lat="43.272648"><ele>183.75</ele></trkpt>
<trkpt lon="-2.876035" lat="43.272562"><ele>183.75</ele></trkpt>
<trkpt lon="-2.875963" lat="43.272376"><ele>184.5</ele></trkpt>
<trkpt lon="-2.875923" lat="43.272140"><ele>186.5</ele></trkpt>
<trkpt lon="-2.875873" lat="43.272087"><ele>186.25</ele></trkpt>
<trkpt lon="-2.875813" lat="43.272022"><ele>187.0</ele></trkpt>
<trkpt lon="-2.875680" lat="43.271953"><ele>189.25</ele></trkpt>
<trkpt lon="-2.875541" lat="43.271677"><ele>200.5</ele></trkpt>
<trkpt lon="-2.875466" lat="43.271404"><ele>215.0</ele></trkpt>
<trkpt lon="-2.875527" lat="43.271270"><ele>219.25</ele></trkpt>
<trkpt lon="-2.876057" lat="43.270096"><ele>252.25</ele></trkpt>
<trkpt lon="-2.876900" lat="43.270003"><ele>258.5</ele></trkpt>
<trkpt lon="-2.877144" lat="43.269931"><ele>261.0</ele></trkpt>
<trkpt lon="-2.877318" lat="43.269856"><ele>262.75</ele></trkpt>
<trkpt lon="-2.877479" lat="43.269773"><ele>263.75</ele></trkpt>
<trkpt lon="-2.877667" lat="43.269616"><ele>265.25</ele></trkpt>
<trkpt lon="-2.877912" lat="43.269491"><ele>265.25</ele></trkpt>
<trkpt lon="-2.878614" lat="43.269325"><ele>268.5</ele></trkpt>
<trkpt lon="-2.879925" lat="43.269115"><ele>270.75</ele></trkpt>
<trkpt lon="-2.880200" lat="43.269079"><ele>272.0</ele></trkpt>
<trkpt lon="-2.880518" lat="43.269092"><ele>274.0</ele></trkpt>
<trkpt lon="-2.881848" lat="43.269282"><ele>282.0</ele></trkpt>
<trkpt lon="-2.882169" lat="43.269313"><ele>283.5</ele></trkpt>
<trkpt lon="-2.883030" lat="43.269317"><ele>287.25</ele></trkpt>
<trkpt lon="-2.883386" lat="43.269311"><ele>288.25</ele></trkpt>
<trkpt lon="-2.883686" lat="43.269359"><ele>290.25</ele></trkpt>
<trkpt lon="-2.884303" lat="43.269486"><ele>296.0</ele></trkpt>
<trkpt lon="-2.884471" lat="43.269505"><ele>297.5</ele></trkpt>
<trkpt lon="-2.885034" lat="43.269542"><ele>300.75</ele></trkpt>
<trkpt lon="-2.885325" lat="43.269579"><ele>302.75</ele></trkpt>
<trkpt lon="-2.885867" lat="43.269722"><ele>307.5</ele></trkpt>
<trkpt lon="-2.886520" lat="43.269882"><ele>315.0</ele></trkpt>
<trkpt lon="-2.886816" lat="43.269906"><ele>318.25</ele></trkpt>
<trkpt lon="-2.887083" lat="43.269899"><ele>322.5</ele></trkpt>
<trkpt lon="-2.887394" lat="43.269865"><ele>325.75</ele></trkpt>
<trkpt lon="-2.887465" lat="43.269817"><ele>326.25</ele></trkpt>
<trkpt lon="-2.887438" lat="43.269730"><ele>326.75</ele></trkpt>
<trkpt lon="-2.887390" lat="43.269663"><ele>328.0</ele></trkpt>
<trkpt lon="-2.887296" lat="43.269587"><ele>329.25</ele></trkpt>
<trkpt lon="-2.887237" lat="43.269519"><ele>330.5</ele></trkpt>
<trkpt lon="-2.887232" lat="43.269472"><ele>331.5</ele></trkpt>
<trkpt lon="-2.887337" lat="43.269473"><ele>331.25</ele></trkpt>
<trkpt lon="-2.887875" lat="43.269370"><ele>335.0</ele></trkpt>
<trkpt lon="-2.888899" lat="43.269087"><ele>342.25</ele></trkpt>
<trkpt lon="-2.888984" lat="43.269035"><ele>343.5</ele></trkpt>
<trkpt lon="-2.889024" lat="43.268945"><ele>345.0</ele></trkpt>
<trkpt lon="-2.889138" lat="43.268954"><ele>345.0</ele></trkpt>
<trkpt lon="-2.889187" lat="43.268958"><ele>345.0</ele></trkpt>
<trkpt lon="-2.889456" lat="43.268984"><ele>347.0</ele></trkpt>
<trkpt lon="-2.890465" lat="43.268942"><ele>355.0</ele></trkpt>
<trkpt lon="-2.890734" lat="43.268858"><ele>356.25</ele></trkpt>
<trkpt lon="-2.890780" lat="43.268839"><ele>356.75</ele></trkpt>
<trkpt lon="-2.890821" lat="43.268821"><ele>356.75</ele></trkpt>
<trkpt lon="-2.890920" lat="43.268836"><ele>357.0</ele></trkpt>
<trkpt lon="-2.891139" lat="43.268809"><ele>356.75</ele></trkpt>
<trkpt lon="-2.891260" lat="43.268774"><ele>355.75</ele></trkpt>
<trkpt lon="-2.891426" lat="43.268726"><ele>354.5</ele></trkpt>
<trkpt lon="-2.891754" lat="43.268675"><ele>353.75</ele></trkpt>
<trkpt lon="-2.891990" lat="43.268658"><ele>353.75</ele></trkpt>
<trkpt lon="-2.892448" lat="43.268629"><ele>356.0</ele></trkpt>
<trkpt lon="-2.892544" lat="43.268622"><ele>356.25</ele></trkpt>
<trkpt lon="-2.893236" lat="43.268576"><ele>354.0</ele></trkpt>
<trkpt lon="-2.893506" lat="43.268548"><ele>352.5</ele></trkpt>
<trkpt lon="-2.893912" lat="43.268426"><ele>347.75</ele></trkpt>
<trkpt lon="-2.894089" lat="43.268403"><ele>345.75</ele></trkpt>
<trkpt lon="-2.894347" lat="43.268391"><ele>343.0</ele></trkpt>
<trkpt lon="-2.894542" lat="43.268426"><ele>341.25</ele></trkpt>
<trkpt lon="-2.894705" lat="43.268514"><ele>339.0</ele></trkpt>
<trkpt lon="-2.894900" lat="43.268653"><ele>335.75</ele></trkpt>
<trkpt lon="-2.895217" lat="43.268785"><ele>329.5</ele></trkpt>
<trkpt lon="-2.895542" lat="43.268870"><ele>324.0</ele></trkpt>
<trkpt lon="-2.895843" lat="43.268917"><ele>319.0</ele></trkpt>
<trkpt lon="-2.896192" lat="43.268989"><ele>312.75</ele></trkpt>
<trkpt lon="-2.896393" lat="43.269037"><ele>310.5</ele></trkpt>
<trkpt lon="-2.896590" lat="43.269037"><ele>308.75</ele></trkpt>
<trkpt lon="-2.896743" lat="43.268996"><ele>306.5</ele></trkpt>
<trkpt lon="-2.896848" lat="43.268938"><ele>304.25</ele></trkpt>
<trkpt lon="-2.897005" lat="43.268808"><ele>300.25</ele></trkpt>
<trkpt lon="-2.897092" lat="43.268757"><ele>298.75</ele></trkpt>
<trkpt lon="-2.897274" lat="43.268667"><ele>295.5</ele></trkpt>
<trkpt lon="-2.897430" lat="43.268592"><ele>293.0</ele></trkpt>
<trkpt lon="-2.897676" lat="43.268591"><ele>292.0</ele></trkpt>
<trkpt lon="-2.897896" lat="43.268628"><ele>291.25</ele></trkpt>
<trkpt lon="-2.898349" lat="43.268659"><ele>289.0</ele></trkpt>
<trkpt lon="-2.898720" lat="43.268667"><ele>287.25</ele></trkpt>
<trkpt lon="-2.898830" lat="43.268675"><ele>286.75</ele></trkpt>
<trkpt lon="-2.899130" lat="43.268789"><ele>285.75</ele></trkpt>
<trkpt lon="-2.899197" lat="43.268726"><ele>285.25</ele></trkpt>
<trkpt lon="-2.899305" lat="43.268730"><ele>284.5</ele></trkpt>
<trkpt lon="-2.899333" lat="43.268645"><ele>284.25</ele></trkpt>
<trkpt lon="-2.899444" lat="43.268556"><ele>283.75</ele></trkpt>
<trkpt lon="-2.899591" lat="43.268463"><ele>283.25</ele></trkpt>
<trkpt lon="-2.899768" lat="43.268635"><ele>284.0</ele></trkpt>
<trkpt lon="-2.899983" lat="43.268595"><ele>284.75</ele></trkpt>
<trkpt lon="-2.900852" lat="43.268339"><ele>292.0</ele></trkpt>
<trkpt lon="-2.901950" lat="43.268200"><ele>291.5</ele></trkpt>
<trkpt lon="-2.902324" lat="43.268146"><ele>291.75</ele></trkpt>
<trkpt lon="-2.902430" lat="43.268113"><ele>291.25</ele></trkpt>
<trkpt lon="-2.902500" lat="43.268091"><ele>291.0</ele></trkpt>
<trkpt lon="-2.902676" lat="43.267974"><ele>290.0</ele></trkpt>
<trkpt lon="-2.902764" lat="43.267880"><ele>289.0</ele></trkpt>
<trkpt lon="-2.902947" lat="43.267765"><ele>287.0</ele></trkpt>
<trkpt lon="-2.903029" lat="43.267726"><ele>286.25</ele></trkpt>
<trkpt lon="-2.903344" lat="43.267396"><ele>279.0</ele></trkpt>
<trkpt lon="-2.903405" lat="43.267321"><ele>277.0</ele></trkpt>
<trkpt lon="-2.903413" lat="43.267247"><ele>275.5</ele></trkpt>
<trkpt lon="-2.903651" lat="43.267266"><ele>273.25</ele></trkpt>
<trkpt lon="-2.903921" lat="43.267296"><ele>270.75</ele></trkpt>
<trkpt lon="-2.904313" lat="43.267409"><ele>268.25</ele></trkpt>
<trkpt lon="-2.904844" lat="43.267363"><ele>265.5</ele></trkpt>
<trkpt lon="-2.905359" lat="43.267247"><ele>264.25</ele></trkpt>
<trkpt lon="-2.905693" lat="43.267085"><ele>260.0</ele></trkpt>
<trkpt lon="-2.905833" lat="43.266990"><ele>257.75</ele></trkpt>
<trkpt lon="-2.905884" lat="43.266946"><ele>256.75</ele></trkpt>
<trkpt lon="-2.906332" lat="43.266421"><ele>245.5</ele></trkpt>
<trkpt lon="-2.906417" lat="43.266350"><ele>243.75</ele></trkpt>
<trkpt lon="-2.906587" lat="43.266313"><ele>241.25</ele></trkpt>
<trkpt lon="-2.906698" lat="43.266281"><ele>239.5</ele></trkpt>
<trkpt lon="-2.907115" lat="43.266111"><ele>232.0</ele></trkpt>
<trkpt lon="-2.907260" lat="43.266039"><ele>229.0</ele></trkpt>
<trkpt lon="-2.907405" lat="43.265939"><ele>226.0</ele></trkpt>
<trkpt lon="-2.907528" lat="43.265802"><ele>226.0</ele></trkpt>
<trkpt lon="-2.907622" lat="43.265626"><ele>223.25</ele></trkpt>
<trkpt lon="-2.907663" lat="43.265495"><ele>221.25</ele></trkpt>
<trkpt lon="-2.907640" lat="43.265422"><ele>219.75</ele></trkpt>
<trkpt lon="-2.907490" lat="43.265260"><ele>218.75</ele></trkpt>
<trkpt lon="-2.907400" lat="43.265146"><ele>216.75</ele></trkpt>
<trkpt lon="-2.907348" lat="43.265096"><ele>215.75</ele></trkpt>
<trkpt lon="-2.907320" lat="43.265005"><ele>213.5</ele></trkpt>
<trkpt lon="-2.907328" lat="43.264812"><ele>209.0</ele></trkpt>
<trkpt lon="-2.907376" lat="43.264627"><ele>204.5</ele></trkpt>
<trkpt lon="-2.907423" lat="43.264559"><ele>202.75</ele></trkpt>
<trkpt lon="-2.907469" lat="43.264522"><ele>201.5</ele></trkpt>
<trkpt lon="-2.907532" lat="43.264491"><ele>200.25</ele></trkpt>
<trkpt lon="-2.907582" lat="43.264477"><ele>200.25</ele></trkpt>
<trkpt lon="-2.907653" lat="43.264476"><ele>200.25</ele></trkpt>
<trkpt lon="-2.907724" lat="43.264485"><ele>200.5</ele></trkpt>
<trkpt lon="-2.907788" lat="43.264511"><ele>201.0</ele></trkpt>
<trkpt lon="-2.907839" lat="43.264558"><ele>201.25</ele></trkpt>
<trkpt lon="-2.907867" lat="43.264613"><ele>202.0</ele></trkpt>
<trkpt lon="-2.907864" lat="43.264648"><ele>202.5</ele></trkpt>
<trkpt lon="-2.907891" lat="43.264648"><ele>202.25</ele></trkpt>
<trkpt lon="-2.907887" lat="43.264694"><ele>202.75</ele></trkpt>
<trkpt lon="-2.907877" lat="43.264718"><ele>203.5</ele></trkpt>
<trkpt lon="-2.907894" lat="43.264731"><ele>203.25</ele></trkpt>
<trkpt lon="-2.907933" lat="43.264761"><ele>203.25</ele></trkpt>
<trkpt lon="-2.907953" lat="43.264760"><ele>203.0</ele></trkpt>
<trkpt lon="-2.907960" lat="43.264747"><ele>202.75</ele></trkpt>
<trkpt lon="-2.907972" lat="43.264716"><ele>202.0</ele></trkpt>
<trkpt lon="-2.908051" lat="43.264658"><ele>200.25</ele></trkpt>
<trkpt lon="-2.908099" lat="43.264617"><ele>199.25</ele></trkpt>
<trkpt lon="-2.908329" lat="43.264425"><ele>193.5</ele></trkpt>
<trkpt lon="-2.908583" lat="43.264254"><ele>186.5</ele></trkpt>
<trkpt lon="-2.908612" lat="43.264188"><ele>185.25</ele></trkpt>
<trkpt lon="-2.908647" lat="43.264201"><ele>185.0</ele></trkpt>
<trkpt lon="-2.908712" lat="43.264196"><ele>184.5</ele></trkpt>
<trkpt lon="-2.908861" lat="43.264158"><ele>183.0</ele></trkpt>
<trkpt lon="-2.909275" lat="43.264049"><ele>177.0</ele></trkpt>
<trkpt lon="-2.909518" lat="43.263995"><ele>173.75</ele></trkpt>
<trkpt lon="-2.909544" lat="43.263991"><ele>173.5</ele></trkpt>
<trkpt lon="-2.909779" lat="43.263957"><ele>170.25</ele></trkpt>
<trkpt lon="-2.909858" lat="43.263943"><ele>169.25</ele></trkpt>
<trkpt lon="-2.910032" lat="43.263894"><ele>167.5</ele></trkpt>
<trkpt lon="-2.910112" lat="43.263865"><ele>166.25</ele></trkpt>
<trkpt lon="-2.910310" lat="43.263756"><ele>162.75</ele></trkpt>
<trkpt lon="-2.910339" lat="43.263729"><ele>162.0</ele></trkpt>
<trkpt lon="-2.910379" lat="43.263660"><ele>161.0</ele></trkpt>
<trkpt lon="-2.910435" lat="43.263546"><ele>159.0</ele></trkpt>
<trkpt lon="-2.910448" lat="43.263432"><ele>157.25</ele></trkpt>
<trkpt lon="-2.910418" lat="43.263330"><ele>155.75</ele></trkpt>
<trkpt lon="-2.910488" lat="43.263253"><ele>154.75</ele></trkpt>
<trkpt lon="-2.910561" lat="43.263211"><ele>154.0</ele></trkpt>
<trkpt lon="-2.910740" lat="43.263097"><ele>150.5</ele></trkpt>
<trkpt lon="-2.910773" lat="43.263076"><ele>149.75</ele></trkpt>
<trkpt lon="-2.911004" lat="43.262967"><ele>146.0</ele></trkpt>
<trkpt lon="-2.911210" lat="43.263000"><ele>144.25</ele></trkpt>
<trkpt lon="-2.911595" lat="43.262918"><ele>138.5</ele></trkpt>
<trkpt lon="-2.911667" lat="43.262884"><ele>136.75</ele></trkpt>
<trkpt lon="-2.911754" lat="43.262843"><ele>134.75</ele></trkpt>
<trkpt lon="-2.911846" lat="43.262783"><ele>132.5</ele></trkpt>
<trkpt lon="-2.911993" lat="43.262655"><ele>128.25</ele></trkpt>
<trkpt lon="-2.912032" lat="43.262623"><ele>127.25</ele></trkpt>
<trkpt lon="-2.912174" lat="43.262529"><ele>124.0</ele></trkpt>
<trkpt lon="-2.912195" lat="43.262518"><ele>123.5</ele></trkpt>
<trkpt lon="-2.912214" lat="43.262508"><ele>123.0</ele></trkpt>
<trkpt lon="-2.912040" lat="43.262295"><ele>121.5</ele></trkpt>
<trkpt lon="-2.911956" lat="43.262188"><ele>121.5</ele></trkpt>
<trkpt lon="-2.911923" lat="43.262022"><ele>120.75</ele></trkpt>
<trkpt lon="-2.912019" lat="43.262035"><ele>119.25</ele></trkpt>
<trkpt lon="-2.912055" lat="43.262012"><ele>118.75</ele></trkpt>
<trkpt lon="-2.912082" lat="43.262006"><ele>118.25</ele></trkpt>
<trkpt lon="-2.912109" lat="43.262008"><ele>117.75</ele></trkpt>
<trkpt lon="-2.912251" lat="43.262029"><ele>115.5</ele></trkpt>
<trkpt lon="-2.912305" lat="43.262042"><ele>114.5</ele></trkpt>
<trkpt lon="-2.912345" lat="43.262062"><ele>114.0</ele></trkpt>
<trkpt lon="-2.912425" lat="43.262081"><ele>113.0</ele></trkpt>
<trkpt lon="-2.912486" lat="43.262066"><ele>111.5</ele></trkpt>
<trkpt lon="-2.912511" lat="43.262053"><ele>110.75</ele></trkpt>
<trkpt lon="-2.912541" lat="43.262055"><ele>110.5</ele></trkpt>
<trkpt lon="-2.912650" lat="43.262081"><ele>109.5</ele></trkpt>
<trkpt lon="-2.912765" lat="43.262123"><ele>108.5</ele></trkpt>
<trkpt lon="-2.912843" lat="43.262160"><ele>109.0</ele></trkpt>
<trkpt lon="-2.912915" lat="43.262201"><ele>109.75</ele></trkpt>
<trkpt lon="-2.912842" lat="43.262236"><ele>111.0</ele></trkpt>
<trkpt lon="-2.912822" lat="43.262219"><ele>110.75</ele></trkpt>
<trkpt lon="-2.913151" lat="43.261993"><ele>101.0</ele></trkpt>
<trkpt lon="-2.913029" lat="43.261923"><ele>100.75</ele></trkpt>
<trkpt lon="-2.913052" lat="43.261901"><ele>100.0</ele></trkpt>
<trkpt lon="-2.913131" lat="43.261929"><ele>99.5</ele></trkpt>
<trkpt lon="-2.913207" lat="43.261934"><ele>98.5</ele></trkpt>
<trkpt lon="-2.913239" lat="43.261875"><ele>97.0</ele></trkpt>
<trkpt lon="-2.913452" lat="43.261728"><ele>92.5</ele></trkpt>
<trkpt lon="-2.913507" lat="43.261707"><ele>91.5</ele></trkpt>
<trkpt lon="-2.913656" lat="43.261854"><ele>91.5</ele></trkpt>
<trkpt lon="-2.913859" lat="43.262075"><ele>91.75</ele></trkpt>
<trkpt lon="-2.913942" lat="43.262092"><ele>91.0</ele></trkpt>
<trkpt lon="-2.914047" lat="43.262261"><ele>91.0</ele></trkpt>
<trkpt lon="-2.914114" lat="43.262346"><ele>91.0</ele></trkpt>
<trkpt lon="-2.914177" lat="43.262384"><ele>90.25</ele></trkpt>
<trkpt lon="-2.914291" lat="43.262387"><ele>88.5</ele></trkpt>
<trkpt lon="-2.914537" lat="43.262377"><ele>84.75</ele></trkpt>
<trkpt lon="-2.915000" lat="43.262324"><ele>75.25</ele></trkpt>
<trkpt lon="-2.915275" lat="43.262273"><ele>72.75</ele></trkpt>
<trkpt lon="-2.915347" lat="43.262236"><ele>72.0</ele></trkpt>
<trkpt lon="-2.915373" lat="43.262270"><ele>71.75</ele></trkpt>
<trkpt lon="-2.915442" lat="43.262230"><ele>71.0</ele></trkpt>
<trkpt lon="-2.915460" lat="43.262234"><ele>71.0</ele></trkpt>
<trkpt lon="-2.915474" lat="43.262233"><ele>70.75</ele></trkpt>
<trkpt lon="-2.915484" lat="43.262217"><ele>70.75</ele></trkpt>
<trkpt lon="-2.915528" lat="43.261919"><ele>70.25</ele></trkpt>
<trkpt lon="-2.915567" lat="43.261923"><ele>69.75</ele></trkpt>
<trkpt lon="-2.915585" lat="43.261924"><ele>69.75</ele></trkpt>
<trkpt lon="-2.915611" lat="43.261927"><ele>69.5</ele></trkpt>
<trkpt lon="-2.915656" lat="43.261931"><ele>69.25</ele></trkpt>
<trkpt lon="-2.915670" lat="43.261910"><ele>69.0</ele></trkpt>
<trkpt lon="-2.915688" lat="43.261912"><ele>69.0</ele></trkpt>
<trkpt lon="-2.915745" lat="43.261980"><ele>68.5</ele></trkpt>
<trkpt lon="-2.915792" lat="43.262035"><ele>68.0</ele></trkpt>
<trkpt lon="-2.915829" lat="43.262016"><ele>67.75</ele></trkpt>
<trkpt lon="-2.915866" lat="43.261997"><ele>67.5</ele></trkpt>
<trkpt lon="-2.915937" lat="43.261960"><ele>67.5</ele></trkpt>
<trkpt lon="-2.915996" lat="43.261929"><ele>67.25</ele></trkpt>
<trkpt lon="-2.916100" lat="43.261875"><ele>66.75</ele></trkpt>
<trkpt lon="-2.916171" lat="43.261838"><ele>66.0</ele></trkpt>
<trkpt lon="-2.916190" lat="43.261827"><ele>65.75</ele></trkpt>
<trkpt lon="-2.916226" lat="43.261809"><ele>65.25</ele></trkpt>
<trkpt lon="-2.916151" lat="43.261738"><ele>65.75</ele></trkpt>
<trkpt lon="-2.916300" lat="43.261697"><ele>64.5</ele></trkpt>
<trkpt lon="-2.916334" lat="43.261672"><ele>64.25</ele></trkpt>
<trkpt lon="-2.916694" lat="43.261464"><ele>62.75</ele></trkpt>
<trkpt lon="-2.916761" lat="43.261407"><ele>62.5</ele></trkpt>
<trkpt lon="-2.916784" lat="43.261373"><ele>62.5</ele></trkpt>
<trkpt lon="-2.916746" lat="43.261309"><ele>62.25</ele></trkpt>
<trkpt lon="-2.916754" lat="43.261269"><ele>62.25</ele></trkpt>
<trkpt lon="-2.916813" lat="43.261228"><ele>61.75</ele></trkpt>
<trkpt lon="-2.916881" lat="43.261199"><ele>61.5</ele></trkpt>
<trkpt lon="-2.916975" lat="43.261147"><ele>61.0</ele></trkpt>
<trkpt lon="-2.917666" lat="43.261009"><ele>57.75</ele></trkpt>
<trkpt lon="-2.918290" lat="43.260885"><ele>58.75</ele></trkpt>
<trkpt lon="-2.918325" lat="43.260895"><ele>58.75</ele></trkpt>
<trkpt lon="-2.918365" lat="43.260790"><ele>59.0</ele></trkpt>
<trkpt lon="-2.918454" lat="43.260722"><ele>59.25</ele></trkpt>
<trkpt lon="-2.918533" lat="43.260672"><ele>59.5</ele></trkpt>
<trkpt lon="-2.918820" lat="43.260610"><ele>60.5</ele></trkpt>
<trkpt lon="-2.918942" lat="43.260603"><ele>60.75</ele></trkpt>
<trkpt lon="-2.919045" lat="43.260553"><ele>60.75</ele></trkpt>
<trkpt lon="-2.919148" lat="43.260503"><ele>60.75</ele></trkpt>
<trkpt lon="-2.919390" lat="43.260371"><ele>60.0</ele></trkpt>
<trkpt lon="-2.919514" lat="43.260297"><ele>59.5</ele></trkpt>
<trkpt lon="-2.919688" lat="43.260303"><ele>59.0</ele></trkpt>
<trkpt lon="-2.919888" lat="43.260310"><ele>58.25</ele></trkpt>
<trkpt lon="-2.919956" lat="43.260314"><ele>58.25</ele></trkpt>
<trkpt lon="-2.919999" lat="43.260316"><ele>58.0</ele></trkpt>
<trkpt lon="-2.920214" lat="43.260320"><ele>58.0</ele></trkpt>
<trkpt lon="-2.920285" lat="43.260324"><ele>58.0</ele></trkpt>
<trkpt lon="-2.920446" lat="43.260334"><ele>57.5</ele></trkpt>
<trkpt lon="-2.920696" lat="43.260346"><ele>56.0</ele></trkpt>
<trkpt lon="-2.920708" lat="43.260596"><ele>56.0</ele></trkpt>
<trkpt lon="-2.920691" lat="43.260759"><ele>55.75</ele></trkpt>
<trkpt lon="-2.920732" lat="43.260762"><ele>55.25</ele></trkpt>
<trkpt lon="-2.921239" lat="43.260774"><ele>50.25</ele></trkpt>
<trkpt lon="-2.921395" lat="43.260767"><ele>43.25</ele></trkpt>
<trkpt lon="-2.921857" lat="43.260680"><ele>22.75</ele></trkpt>
<trkpt lon="-2.922028" lat="43.260573"><ele>13.25</ele></trkpt>
<trkpt lon="-2.922025" lat="43.260544"><ele>13.5</ele></trkpt>
<trkpt lon="-2.922099" lat="43.260535"><ele>10.5</ele></trkpt>
<trkpt lon="-2.922126" lat="43.260554"><ele>9.75</ele></trkpt>
<trkpt lon="-2.922243" lat="43.260541"><ele>5.75</ele></trkpt>
<trkpt lon="-2.922201" lat="43.260080"><ele>5.0</ele></trkpt>
<trkpt lon="-2.922231" lat="43.260080"><ele>5.0</ele></trkpt>
<trkpt lon="-2.922289" lat="43.260102"><ele>5.0</ele></trkpt>
<trkpt lon="-2.922360" lat="43.260084"><ele>5.0</ele></trkpt>
<trkpt lon="-2.922346" lat="43.260045"><ele>5.0</ele></trkpt>
<trkpt lon="-2.922739" lat="43.259954"><ele>4.75</ele></trkpt>
<trkpt lon="-2.922718" lat="43.259919"><ele>4.75</ele></trkpt>
<trkpt lon="-2.922714" lat="43.259892"><ele>4.5</ele></trkpt>
<trkpt lon="-2.922962" lat="43.259936"><ele>4.75</ele></trkpt>
<trkpt lon="-2.923019" lat="43.259951"><ele>4.75</ele></trkpt>
<trkpt lon="-2.923047" lat="43.259934"><ele>4.75</ele></trkpt>
<trkpt lon="-2.923111" lat="43.259866"><ele>4.75</ele></trkpt>
<trkpt lon="-2.923274" lat="43.259799"><ele>4.25</ele></trkpt>
<trkpt lon="-2.923379" lat="43.259770"><ele>4.0</ele></trkpt>
<trkpt lon="-2.923683" lat="43.259640"><ele>4.0</ele></trkpt>
<trkpt lon="-2.923902" lat="43.259538"><ele>4.25</ele></trkpt>
<trkpt lon="-2.923925" lat="43.259572"><ele>4.5</ele></trkpt>
<trkpt lon="-2.923976" lat="43.259642"><ele>4.75</ele></trkpt>
<trkpt lon="-2.924048" lat="43.259708"><ele>4.75</ele></trkpt>
<trkpt lon="-2.924131" lat="43.259754"><ele>5.0</ele></trkpt>
<trkpt lon="-2.924414" lat="43.259901"><ele>5.5</ele></trkpt>
<trkpt lon="-2.924465" lat="43.259927"><ele>5.5</ele></trkpt>
<trkpt lon="-2.925441" lat="43.260425"><ele>6.5</ele></trkpt>
<trkpt lon="-2.925457" lat="43.260433"><ele>6.75</ele></trkpt>
<trkpt lon="-2.925561" lat="43.260481"><ele>8.5</ele></trkpt>
<trkpt lon="-2.925608" lat="43.260505"><ele>8.75</ele></trkpt>
<trkpt lon="-2.926257" lat="43.260832"><ele>10.5</ele></trkpt>
<trkpt lon="-2.926349" lat="43.260879"><ele>10.75</ele></trkpt>
<trkpt lon="-2.926774" lat="43.261104"><ele>13.25</ele></trkpt>
<trkpt lon="-2.926841" lat="43.261140"><ele>13.5</ele></trkpt>
<trkpt lon="-2.926886" lat="43.261162"><ele>13.75</ele></trkpt>
<trkpt lon="-2.927000" lat="43.261241"><ele>14.0</ele></trkpt>
<trkpt lon="-2.927031" lat="43.261204"><ele>14.0</ele></trkpt>
<trkpt lon="-2.927077" lat="43.261175"><ele>14.0</ele></trkpt>
<trkpt lon="-2.927132" lat="43.261158"><ele>14.0</ele></trkpt>
<trkpt lon="-2.927192" lat="43.261154"><ele>14.0</ele></trkpt>
<trkpt lon="-2.927251" lat="43.261164"><ele>14.0</ele></trkpt>
<trkpt lon="-2.927302" lat="43.261187"><ele>14.25</ele></trkpt>
<trkpt lon="-2.927343" lat="43.261224"><ele>14.25</ele></trkpt>
<trkpt lon="-2.927363" lat="43.261259"><ele>14.5</ele></trkpt>
<trkpt lon="-2.927369" lat="43.261297"><ele>14.5</ele></trkpt>
<trkpt lon="-2.927360" lat="43.261335"><ele>14.25</ele></trkpt>
<trkpt lon="-2.927616" lat="43.261388"><ele>15.0</ele></trkpt>
<trkpt lon="-2.928166" lat="43.261515"><ele>16.0</ele></trkpt>
<trkpt lon="-2.928282" lat="43.261542"><ele>16.0</ele></trkpt>
<trkpt lon="-2.928914" lat="43.261681"><ele>16.0</ele></trkpt>
<trkpt lon="-2.929281" lat="43.261763"><ele>17.0</ele></trkpt>
<trkpt lon="-2.929351" lat="43.261777"><ele>17.0</ele></trkpt>
<trkpt lon="-2.929388" lat="43.261786"><ele>17.0</ele></trkpt>
<trkpt lon="-2.929576" lat="43.261828"><ele>17.0</ele></trkpt>
<trkpt lon="-2.929804" lat="43.261881"><ele>17.25</ele></trkpt>
<trkpt lon="-2.931488" lat="43.262248"><ele>19.0</ele></trkpt>
<trkpt lon="-2.931600" lat="43.262272"><ele>19.0</ele></trkpt>
<trkpt lon="-2.931715" lat="43.262297"><ele>19.0</ele></trkpt>
<trkpt lon="-2.932218" lat="43.262408"><ele>19.0</ele></trkpt>
<trkpt lon="-2.932321" lat="43.262431"><ele>19.0</ele></trkpt>
<trkpt lon="-2.933041" lat="43.262590"><ele>19.0</ele></trkpt>
<trkpt lon="-2.933162" lat="43.262616"><ele>19.0</ele></trkpt>
<trkpt lon="-2.934096" lat="43.262823"><ele>18.0</ele></trkpt>
<trkpt lon="-2.934157" lat="43.262836"><ele>18.0</ele></trkpt>
<trkpt lon="-2.934264" lat="43.262832"><ele>17.75</ele></trkpt>
<trkpt lon="-2.934341" lat="43.262815"><ele>17.75</ele></trkpt>
<trkpt lon="-2.934416" lat="43.262787"><ele>17.75</ele></trkpt>
<trkpt lon="-2.934429" lat="43.262778"><ele>17.75</ele></trkpt>
<trkpt lon="-2.934499" lat="43.262812"><ele>17.75</ele></trkpt>
<trkpt lon="-2.934548" lat="43.262837"><ele>17.75</ele></trkpt>
<trkpt lon="-2.934911" lat="43.262932"><ele>17.0</ele></trkpt>
<trkpt lon="-2.934940" lat="43.262920"><ele>17.0</ele></trkpt>
<trkpt lon="-2.934978" lat="43.262913"><ele>17.0</ele></trkpt>
<trkpt lon="-2.935023" lat="43.262919"><ele>17.0</ele></trkpt>
  </trkseg></trk></gpx>
