<?xml version="1.0" encoding="UTF-8"?>
<gpx version="1.1" creator="compostel-brouter" xmlns="http://www.topografix.com/GPX/1/1">
  <metadata><name>ES-17-Requejada</name></metadata>
  <trk><name>ES-17-Requejada</name><trkseg>
<trkpt lon="-3.805009" lat="43.462035"><ele>4.25</ele></trkpt>
<trkpt lon="-3.805181" lat="43.462017"><ele>4.5</ele></trkpt>
<trkpt lon="-3.805186" lat="43.462042"><ele>4.75</ele></trkpt>
<trkpt lon="-3.805626" lat="43.462001"><ele>5.0</ele></trkpt>
<trkpt lon="-3.805667" lat="43.461998"><ele>5.0</ele></trkpt>
<trkpt lon="-3.805870" lat="43.461983"><ele>5.0</ele></trkpt>
<trkpt lon="-3.805920" lat="43.461981"><ele>5.0</ele></trkpt>
<trkpt lon="-3.806199" lat="43.461961"><ele>5.0</ele></trkpt>
<trkpt lon="-3.806500" lat="43.461942"><ele>4.75</ele></trkpt>
<trkpt lon="-3.806527" lat="43.461940"><ele>4.75</ele></trkpt>
<trkpt lon="-3.806666" lat="43.461929"><ele>4.75</ele></trkpt>
<trkpt lon="-3.807448" lat="43.461864"><ele>5.5</ele></trkpt>
<trkpt lon="-3.807519" lat="43.461860"><ele>5.5</ele></trkpt>
<trkpt lon="-3.807604" lat="43.461856"><ele>5.5</ele></trkpt>
<trkpt lon="-3.808366" lat="43.461839"><ele>5.5</ele></trkpt>
<trkpt lon="-3.808434" lat="43.461838"><ele>5.5</ele></trkpt>
<trkpt lon="-3.808523" lat="43.461835"><ele>5.5</ele></trkpt>
<trkpt lon="-3.809507" lat="43.461802"><ele>5.0</ele></trkpt>
<trkpt lon="-3.809518" lat="43.461802"><ele>5.0</ele></trkpt>
<trkpt lon="-3.809537" lat="43.461802"><ele>5.0</ele></trkpt>
<trkpt lon="-3.809576" lat="43.461802"><ele>5.0</ele></trkpt>
<trkpt lon="-3.809619" lat="43.461801"><ele>5.0</ele></trkpt>
<trkpt lon="-3.809883" lat="43.461812"><ele>5.0</ele></trkpt>
<trkpt lon="-3.810324" lat="43.461902"><ele>4.75</ele></trkpt>
<trkpt lon="-3.810325" lat="43.461956"><ele>4.75</ele></trkpt>
<trkpt lon="-3.810345" lat="43.462082"><ele>4.75</ele></trkpt>
<trkpt lon="-3.810449" lat="43.462072"><ele>4.5</ele></trkpt>
<trkpt lon="-3.811334" lat="43.461986"><ele>5.75</ele></trkpt>
<trkpt lon="-3.811653" lat="43.461977"><ele>6.0</ele></trkpt>
<trkpt lon="-3.811713" lat="43.461975"><ele>6.0</ele></trkpt>
<trkpt lon="-3.811742" lat="43.461977"><ele>6.0</ele></trkpt>
<trkpt lon="-3.812186" lat="43.461975"><ele>6.0</ele></trkpt>
<trkpt lon="-3.812810" lat="43.461974"><ele>7.0</ele></trkpt>
<trkpt lon="-3.813480" lat="43.461914"><ele>7.25</ele></trkpt>
<trkpt lon="-3.814022" lat="43.461865"><ele>7.75</ele></trkpt>
<trkpt lon="-3.814134" lat="43.461855"><ele>8.25</ele></trkpt>
<trkpt lon="-3.814177" lat="43.461830"><ele>8.5</ele></trkpt>
<trkpt lon="-3.814206" lat="43.461810"><ele>8.25</ele></trkpt>
<trkpt lon="-3.814170" lat="43.461589"><ele>8.75</ele></trkpt>
<trkpt lon="-3.814670" lat="43.461525"><ele>10.0</ele></trkpt>
<trkpt lon="-3.815350" lat="43.461449"><ele>10.25</ele></trkpt>
<trkpt lon="-3.815686" lat="43.461402"><ele>11.0</ele></trkpt>
<trkpt lon="-3.815836" lat="43.461366"><ele>11.0</ele></trkpt>
<trkpt lon="-3.816299" lat="43.461238"><ele>12.5</ele></trkpt>
<trkpt lon="-3.817152" lat="43.461011"><ele>14.25</ele></trkpt>
<trkpt lon="-3.817263" lat="43.460871"><ele>14.75</ele></trkpt>
<trkpt lon="-3.817302" lat="43.460861"><ele>14.75</ele></trkpt>
<trkpt lon="-3.817343" lat="43.460848"><ele>14.75</ele></trkpt>
<trkpt lon="-3.817486" lat="43.460804"><ele>15.0</ele></trkpt>
<trkpt lon="-3.817532" lat="43.460791"><ele>15.25</ele></trkpt>
<trkpt lon="-3.817564" lat="43.460781"><ele>15.25</ele></trkpt>
<trkpt lon="-3.817657" lat="43.460760"><ele>15.25</ele></trkpt>
<trkpt lon="-3.820220" lat="43.460086"><ele>20.5</ele></trkpt>
<trkpt lon="-3.821316" lat="43.459801"><ele>22.75</ele></trkpt>
<trkpt lon="-3.821466" lat="43.459761"><ele>23.0</ele></trkpt>
<trkpt lon="-3.821501" lat="43.459754"><ele>23.25</ele></trkpt>
<trkpt lon="-3.821718" lat="43.459692"><ele>24.0</ele></trkpt>
<trkpt lon="-3.821770" lat="43.459675"><ele>24.25</ele></trkpt>
<trkpt lon="-3.821852" lat="43.459653"><ele>24.25</ele></trkpt>
<trkpt lon="-3.821986" lat="43.459616"><ele>24.25</ele></trkpt>
<trkpt lon="-3.822004" lat="43.459651"><ele>24.25</ele></trkpt>
<trkpt lon="-3.822134" lat="43.459615"><ele>24.75</ele></trkpt>
<trkpt lon="-3.822116" lat="43.459580"><ele>24.75</ele></trkpt>
<trkpt lon="-3.822220" lat="43.459551"><ele>24.75</ele></trkpt>
<trkpt lon="-3.825869" lat="43.458561"><ele>34.25</ele></trkpt>
<trkpt lon="-3.825834" lat="43.458494"><ele>34.25</ele></trkpt>
<trkpt lon="-3.825823" lat="43.458451"><ele>34.5</ele></trkpt>
<trkpt lon="-3.825822" lat="43.458411"><ele>34.5</ele></trkpt>
<trkpt lon="-3.825845" lat="43.458395"><ele>34.75</ele></trkpt>
<trkpt lon="-3.825856" lat="43.458377"><ele>34.75</ele></trkpt>
<trkpt lon="-3.825837" lat="43.458330"><ele>35.0</ele></trkpt>
<trkpt lon="-3.825853" lat="43.458285"><ele>35.25</ele></trkpt>
<trkpt lon="-3.825867" lat="43.458251"><ele>35.5</ele></trkpt>
<trkpt lon="-3.825877" lat="43.458226"><ele>35.75</ele></trkpt>
<trkpt lon="-3.825995" lat="43.458254"><ele>35.5</ele></trkpt>
<trkpt lon="-3.826114" lat="43.458261"><ele>35.5</ele></trkpt>
<trkpt lon="-3.826158" lat="43.458247"><ele>35.25</ele></trkpt>
<trkpt lon="-3.826187" lat="43.458218"><ele>35.25</ele></trkpt>
<trkpt lon="-3.826207" lat="43.458172"><ele>35.5</ele></trkpt>
<trkpt lon="-3.826249" lat="43.458119"><ele>35.25</ele></trkpt>
<trkpt lon="-3.826281" lat="43.458125"><ele>35.0</ele></trkpt>
<trkpt lon="-3.826354" lat="43.458140"><ele>34.5</ele></trkpt>
<trkpt lon="-3.826423" lat="43.458153"><ele>34.25</ele></trkpt>
<trkpt lon="-3.826470" lat="43.458162"><ele>34.0</ele></trkpt>
<trkpt lon="-3.826453" lat="43.458245"><ele>34.5</ele></trkpt>
<trkpt lon="-3.826462" lat="43.458282"><ele>34.75</ele></trkpt>
<trkpt lon="-3.826521" lat="43.458321"><ele>34.75</ele></trkpt>
<trkpt lon="-3.826580" lat="43.458339"><ele>35.0</ele></trkpt>
<trkpt lon="-3.826671" lat="43.458350"><ele>35.0</ele></trkpt>
<trkpt lon="-3.826965" lat="43.458281"><ele>34.75</ele></trkpt>
<trkpt lon="-3.827139" lat="43.458238"><ele>34.0</ele></trkpt>
<trkpt lon="-3.827167" lat="43.458224"><ele>34.0</ele></trkpt>
<trkpt lon="-3.828149" lat="43.457991"><ele>30.25</ele></trkpt>
<trkpt lon="-3.828197" lat="43.457978"><ele>30.0</ele></trkpt>
<trkpt lon="-3.828262" lat="43.457964"><ele>29.75</ele></trkpt>
<trkpt lon="-3.829151" lat="43.457756"><ele>27.75</ele></trkpt>
<trkpt lon="-3.829255" lat="43.457702"><ele>27.0</ele></trkpt>
<trkpt lon="-3.829329" lat="43.457676"><ele>26.5</ele></trkpt>
<trkpt lon="-3.829354" lat="43.457667"><ele>26.5</ele></trkpt>
<trkpt lon="-3.829425" lat="43.457641"><ele>26.5</ele></trkpt>
<trkpt lon="-3.829441" lat="43.457632"><ele>26.25</ele></trkpt>
<trkpt lon="-3.829471" lat="43.457614"><ele>26.25</ele></trkpt>
<trkpt lon="-3.829512" lat="43.457592"><ele>26.25</ele></trkpt>
<trkpt lon="-3.829551" lat="43.457562"><ele>26.0</ele></trkpt>
<trkpt lon="-3.829590" lat="43.457532"><ele>26.0</ele></trkpt>
<trkpt lon="-3.829897" lat="43.457431"><ele>26.0</ele></trkpt>
<trkpt lon="-3.829929" lat="43.457420"><ele>26.0</ele></trkpt>
<trkpt lon="-3.829951" lat="43.457413"><ele>26.0</ele></trkpt>
<trkpt lon="-3.830028" lat="43.457387"><ele>26.0</ele></trkpt>
<trkpt lon="-3.830040" lat="43.457367"><ele>26.0</ele></trkpt>
<trkpt lon="-3.830163" lat="43.457326"><ele>26.0</ele></trkpt>
<trkpt lon="-3.830190" lat="43.457332"><ele>26.25</ele></trkpt>
<trkpt lon="-3.830412" lat="43.457254"><ele>26.5</ele></trkpt>
<trkpt lon="-3.830525" lat="43.457209"><ele>26.75</ele></trkpt>
<trkpt lon="-3.830584" lat="43.457167"><ele>26.75</ele></trkpt>
<trkpt lon="-3.830624" lat="43.457137"><ele>26.75</ele></trkpt>
<trkpt lon="-3.830659" lat="43.457109"><ele>26.75</ele></trkpt>
<trkpt lon="-3.830701" lat="43.457077"><ele>27.0</ele></trkpt>
<trkpt lon="-3.830915" lat="43.456955"><ele>27.25</ele></trkpt>
<trkpt lon="-3.831019" lat="43.456906"><ele>27.25</ele></trkpt>
<trkpt lon="-3.831407" lat="43.456575"><ele>27.0</ele></trkpt>
<trkpt lon="-3.831470" lat="43.456612"><ele>27.5</ele></trkpt>
<trkpt lon="-3.831531" lat="43.456655"><ele>27.75</ele></trkpt>
<trkpt lon="-3.831660" lat="43.456734"><ele>28.0</ele></trkpt>
<trkpt lon="-3.831719" lat="43.456767"><ele>28.5</ele></trkpt>
<trkpt lon="-3.831734" lat="43.456775"><ele>28.75</ele></trkpt>
<trkpt lon="-3.831923" lat="43.456623"><ele>28.5</ele></trkpt>
<trkpt lon="-3.832005" lat="43.456578"><ele>28.5</ele></trkpt>
<trkpt lon="-3.832122" lat="43.456536"><ele>28.5</ele></trkpt>
<trkpt lon="-3.832209" lat="43.456528"><ele>28.75</ele></trkpt>
<trkpt lon="-3.832293" lat="43.456539"><ele>29.5</ele></trkpt>
<trkpt lon="-3.832394" lat="43.456539"><ele>30.0</ele></trkpt>
<trkpt lon="-3.832536" lat="43.456531"><ele>30.25</ele></trkpt>
<trkpt lon="-3.832622" lat="43.456510"><ele>29.25</ele></trkpt>
<trkpt lon="-3.832665" lat="43.456500"><ele>28.75</ele></trkpt>
<trkpt lon="-3.832690" lat="43.456481"><ele>28.5</ele></trkpt>
<trkpt lon="-3.832731" lat="43.456450"><ele>27.75</ele></trkpt>
<trkpt lon="-3.832809" lat="43.456387"><ele>27.0</ele></trkpt>
<trkpt lon="-3.832850" lat="43.456327"><ele>27.0</ele></trkpt>
<trkpt lon="-3.832871" lat="43.456297"><ele>27.0</ele></trkpt>
<trkpt lon="-3.832907" lat="43.456272"><ele>27.0</ele></trkpt>
<trkpt lon="-3.832965" lat="43.456241"><ele>27.25</ele></trkpt>
<trkpt lon="-3.833054" lat="43.456252"><ele>27.25</ele></trkpt>
<trkpt lon="-3.833270" lat="43.456364"><ele>29.0</ele></trkpt>
<trkpt lon="-3.833424" lat="43.456422"><ele>30.25</ele></trkpt>
<trkpt lon="-3.833708" lat="43.456481"><ele>33.0</ele></trkpt>
<trkpt lon="-3.833728" lat="43.456438"><ele>33.0</ele></trkpt>
<trkpt lon="-3.833749" lat="43.456378"><ele>32.75</ele></trkpt>
<trkpt lon="-3.833759" lat="43.456347"><ele>32.0</ele></trkpt>
<trkpt lon="-3.834268" lat="43.456452"><ele>35.75</ele></trkpt>
<trkpt lon="-3.834412" lat="43.456494"><ele>36.25</ele></trkpt>
<trkpt lon="-3.834507" lat="43.456503"><ele>36.5</ele></trkpt>
<trkpt lon="-3.834641" lat="43.456493"><ele>36.25</ele></trkpt>
<trkpt lon="-3.834705" lat="43.456499"><ele>36.5</ele></trkpt>
<trkpt lon="-3.834844" lat="43.456575"><ele>38.5</ele></trkpt>
<trkpt lon="-3.834874" lat="43.456587"><ele>38.75</ele></trkpt>
<trkpt lon="-3.834927" lat="43.456591"><ele>39.25</ele></trkpt>
<trkpt lon="-3.835022" lat="43.456635"><ele>39.75</ele></trkpt>
<trkpt lon="-3.835519" lat="43.456594"><ele>40.5</ele></trkpt>
<trkpt lon="-3.835807" lat="43.456570"><ele>41.75</ele></trkpt>
<trkpt lon="-3.835803" lat="43.456522"><ele>41.25</ele></trkpt>
<trkpt lon="-3.835985" lat="43.456508"><ele>41.25</ele></trkpt>
<trkpt lon="-3.836280" lat="43.456486"><ele>40.25</ele></trkpt>
<trkpt lon="-3.836314" lat="43.456483"><ele>40.0</ele></trkpt>
<trkpt lon="-3.836370" lat="43.456478"><ele>39.5</ele></trkpt>
<trkpt lon="-3.836420" lat="43.456461"><ele>39.25</ele></trkpt>
<trkpt lon="-3.836497" lat="43.456420"><ele>39.0</ele></trkpt>
<trkpt lon="-3.836604" lat="43.456333"><ele>37.75</ele></trkpt>
<trkpt lon="-3.836678" lat="43.456289"><ele>37.5</ele></trkpt>
<trkpt lon="-3.836758" lat="43.456256"><ele>37.75</ele></trkpt>
<trkpt lon="-3.836851" lat="43.456242"><ele>38.5</ele></trkpt>
<trkpt lon="-3.837041" lat="43.456227"><ele>39.25</ele></trkpt>
<trkpt lon="-3.837155" lat="43.456207"><ele>39.5</ele></trkpt>
<trkpt lon="-3.837251" lat="43.456180"><ele>39.5</ele></trkpt>
<trkpt lon="-3.837476" lat="43.456085"><ele>38.5</ele></trkpt>
<trkpt lon="-3.837422" lat="43.456012"><ele>37.25</ele></trkpt>
<trkpt lon="-3.837547" lat="43.455790"><ele>34.0</ele></trkpt>
<trkpt lon="-3.837637" lat="43.455604"><ele>30.0</ele></trkpt>
<trkpt lon="-3.838673" lat="43.455289"><ele>24.0</ele></trkpt>
<trkpt lon="-3.838744" lat="43.455262"><ele>23.25</ele></trkpt>
<trkpt lon="-3.838883" lat="43.455211"><ele>22.0</ele></trkpt>
<trkpt lon="-3.839220" lat="43.455014"><ele>17.5</ele></trkpt>
<trkpt lon="-3.839751" lat="43.454920"><ele>11.75</ele></trkpt>
<trkpt lon="-3.840072" lat="43.455064"><ele>11.75</ele></trkpt>
<trkpt lon="-3.840579" lat="43.455341"><ele>15.75</ele></trkpt>
<trkpt lon="-3.840735" lat="43.455434"><ele>17.0</ele></trkpt>
<trkpt lon="-3.840771" lat="43.455438"><ele>17.25</ele></trkpt>
<trkpt lon="-3.842447" lat="43.455622"><ele>18.75</ele></trkpt>
<trkpt lon="-3.843107" lat="43.455688"><ele>21.0</ele></trkpt>
<trkpt lon="-3.843710" lat="43.455698"><ele>23.5</ele></trkpt>
<trkpt lon="-3.844147" lat="43.455742"><ele>25.75</ele></trkpt>
<trkpt lon="-3.844316" lat="43.455784"><ele>27.25</ele></trkpt>
<trkpt lon="-3.844408" lat="43.455807"><ele>28.25</ele></trkpt>
<trkpt lon="-3.844757" lat="43.455836"><ele>31.25</ele></trkpt>
<trkpt lon="-3.845039" lat="43.455842"><ele>33.0</ele></trkpt>
<trkpt lon="-3.845163" lat="43.455860"><ele>33.75</ele></trkpt>
<trkpt lon="-3.845361" lat="43.455852"><ele>34.0</ele></trkpt>
<trkpt lon="-3.845668" lat="43.455627"><ele>32.25</ele></trkpt>
<trkpt lon="-3.845776" lat="43.455583"><ele>32.0</ele></trkpt>
<trkpt lon="-3.845858" lat="43.455562"><ele>32.0</ele></trkpt>
<trkpt lon="-3.845944" lat="43.455552"><ele>31.75</ele></trkpt>
<trkpt lon="-3.846313" lat="43.455531"><ele>30.75</ele></trkpt>
<trkpt lon="-3.846772" lat="43.455509"><ele>30.0</ele></trkpt>
<trkpt lon="-3.846806" lat="43.455507"><ele>29.75</ele></trkpt>
<trkpt lon="-3.846841" lat="43.455505"><ele>29.5</ele></trkpt>
<trkpt lon="-3.847261" lat="43.455480"><ele>26.75</ele></trkpt>
<trkpt lon="-3.847608" lat="43.455519"><ele>29.25</ele></trkpt>
<trkpt lon="-3.847753" lat="43.455524"><ele>29.75</ele></trkpt>
<trkpt lon="-3.847850" lat="43.455506"><ele>30.25</ele></trkpt>
<trkpt lon="-3.847949" lat="43.455458"><ele>30.75</ele></trkpt>
<trkpt lon="-3.848052" lat="43.455393"><ele>31.5</ele></trkpt>
<trkpt lon="-3.848074" lat="43.455354"><ele>31.75</ele></trkpt>
<trkpt lon="-3.848077" lat="43.455316"><ele>31.75</ele></trkpt>
<trkpt lon="-3.848057" lat="43.455244"><ele>31.75</ele></trkpt>
<trkpt lon="-3.848060" lat="43.455194"><ele>31.5</ele></trkpt>
<trkpt lon="-3.848076" lat="43.455134"><ele>31.5</ele></trkpt>
<trkpt lon="-3.848068" lat="43.455098"><ele>31.25</ele></trkpt>
<trkpt lon="-3.848017" lat="43.455050"><ele>30.75</ele></trkpt>
<trkpt lon="-3.848099" lat="43.455004"><ele>31.0</ele></trkpt>
<trkpt lon="-3.848173" lat="43.454965"><ele>30.0</ele></trkpt>
<trkpt lon="-3.848210" lat="43.454992"><ele>30.75</ele></trkpt>
<trkpt lon="-3.848234" lat="43.455001"><ele>31.0</ele></trkpt>
<trkpt lon="-3.848284" lat="43.455018"><ele>31.0</ele></trkpt>
<trkpt lon="-3.848365" lat="43.455014"><ele>31.0</ele></trkpt>
<trkpt lon="-3.848477" lat="43.455029"><ele>31.5</ele></trkpt>
<trkpt lon="-3.848510" lat="43.455022"><ele>31.5</ele></trkpt>
<trkpt lon="-3.848714" lat="43.454892"><ele>28.75</ele></trkpt>
<trkpt lon="-3.850244" lat="43.454595"><ele>26.5</ele></trkpt>
<trkpt lon="-3.852529" lat="43.454166"><ele>27.0</ele></trkpt>
<trkpt lon="-3.853849" lat="43.453915"><ele>27.25</ele></trkpt>
<trkpt lon="-3.854219" lat="43.453843"><ele>25.75</ele></trkpt>
<trkpt lon="-3.854285" lat="43.453830"><ele>26.0</ele></trkpt>
<trkpt lon="-3.854385" lat="43.453811"><ele>26.25</ele></trkpt>
<trkpt lon="-3.855132" lat="43.453672"><ele>28.0</ele></trkpt>
<trkpt lon="-3.855158" lat="43.453733"><ele>28.0</ele></trkpt>
<trkpt lon="-3.855438" lat="43.453678"><ele>28.75</ele></trkpt>
<trkpt lon="-3.855565" lat="43.453659"><ele>29.0</ele></trkpt>
<trkpt lon="-3.855813" lat="43.453603"><ele>28.75</ele></trkpt>
<trkpt lon="-3.855988" lat="43.453563"><ele>30.0</ele></trkpt>
<trkpt lon="-3.856219" lat="43.453510"><ele>31.0</ele></trkpt>
<trkpt lon="-3.856512" lat="43.453487"><ele>31.75</ele></trkpt>
<trkpt lon="-3.856600" lat="43.453490"><ele>32.25</ele></trkpt>
<trkpt lon="-3.856688" lat="43.453501"><ele>32.5</ele></trkpt>
<trkpt lon="-3.856780" lat="43.453524"><ele>33.0</ele></trkpt>
<trkpt lon="-3.856881" lat="43.453561"><ele>33.5</ele></trkpt>
<trkpt lon="-3.857264" lat="43.453732"><ele>37.5</ele></trkpt>
<trkpt lon="-3.857303" lat="43.453777"><ele>38.0</ele></trkpt>
<trkpt lon="-3.857375" lat="43.453907"><ele>39.25</ele></trkpt>
<trkpt lon="-3.857402" lat="43.453935"><ele>39.75</ele></trkpt>
<trkpt lon="-3.857443" lat="43.453960"><ele>40.25</ele></trkpt>
<trkpt lon="-3.857504" lat="43.453984"><ele>41.0</ele></trkpt>
<trkpt lon="-3.857682" lat="43.454027"><ele>42.25</ele></trkpt>
<trkpt lon="-3.857782" lat="43.454041"><ele>43.0</ele></trkpt>
<trkpt lon="-3.858000" lat="43.454052"><ele>43.75</ele></trkpt>
<trkpt lon="-3.858158" lat="43.454069"><ele>44.25</ele></trkpt>
<trkpt lon="-3.858193" lat="43.454069"><ele>44.25</ele></trkpt>
<trkpt lon="-3.858272" lat="43.453946"><ele>44.0</ele></trkpt>
<trkpt lon="-3.858319" lat="43.453912"><ele>44.0</ele></trkpt>
<trkpt lon="-3.858442" lat="43.453873"><ele>44.0</ele></trkpt>
<trkpt lon="-3.858628" lat="43.453884"><ele>45.0</ele></trkpt>
<trkpt lon="-3.858724" lat="43.453843"><ele>45.25</ele></trkpt>
<trkpt lon="-3.858978" lat="43.453700"><ele>45.25</ele></trkpt>
<trkpt lon="-3.859253" lat="43.453545"><ele>45.75</ele></trkpt>
<trkpt lon="-3.859361" lat="43.453493"><ele>46.25</ele></trkpt>
<trkpt lon="-3.859647" lat="43.453373"><ele>47.5</ele></trkpt>
<trkpt lon="-3.859869" lat="43.453288"><ele>48.5</ele></trkpt>
<trkpt lon="-3.859941" lat="43.453253"><ele>48.75</ele></trkpt>
<trkpt lon="-3.859959" lat="43.453210"><ele>48.75</ele></trkpt>
<trkpt lon="-3.859933" lat="43.453160"><ele>48.25</ele></trkpt>
<trkpt lon="-3.859994" lat="43.453133"><ele>48.5</ele></trkpt>
<trkpt lon="-3.860088" lat="43.453094"><ele>48.5</ele></trkpt>
<trkpt lon="-3.860103" lat="43.453120"><ele>48.75</ele></trkpt>
<trkpt lon="-3.860123" lat="43.453137"><ele>49.0</ele></trkpt>
<trkpt lon="-3.860140" lat="43.453143"><ele>49.0</ele></trkpt>
<trkpt lon="-3.860182" lat="43.453145"><ele>49.25</ele></trkpt>
<trkpt lon="-3.860681" lat="43.452932"><ele>50.25</ele></trkpt>
<trkpt lon="-3.861201" lat="43.452710"><ele>51.75</ele></trkpt>
<trkpt lon="-3.861393" lat="43.452628"><ele>51.75</ele></trkpt>
<trkpt lon="-3.862767" lat="43.452033"><ele>48.75</ele></trkpt>
<trkpt lon="-3.863617" lat="43.451674"><ele>52.0</ele></trkpt>
<trkpt lon="-3.864354" lat="43.451361"><ele>54.0</ele></trkpt>
<trkpt lon="-3.864546" lat="43.451260"><ele>54.25</ele></trkpt>
<trkpt lon="-3.864590" lat="43.451324"><ele>55.0</ele></trkpt>
<trkpt lon="-3.864620" lat="43.451312"><ele>55.0</ele></trkpt>
<trkpt lon="-3.864658" lat="43.451296"><ele>55.0</ele></trkpt>
<trkpt lon="-3.864653" lat="43.451271"><ele>54.75</ele></trkpt>
<trkpt lon="-3.864659" lat="43.451259"><ele>54.75</ele></trkpt>
<trkpt lon="-3.864685" lat="43.451243"><ele>54.75</ele></trkpt>
<trkpt lon="-3.864703" lat="43.451240"><ele>54.75</ele></trkpt>
<trkpt lon="-3.864713" lat="43.451208"><ele>54.5</ele></trkpt>
<trkpt lon="-3.864707" lat="43.451136"><ele>54.0</ele></trkpt>
<trkpt lon="-3.864695" lat="43.451108"><ele>53.75</ele></trkpt>
<trkpt lon="-3.864702" lat="43.451041"><ele>52.75</ele></trkpt>
<trkpt lon="-3.865149" lat="43.450422"><ele>48.0</ele></trkpt>
<trkpt lon="-3.865225" lat="43.450297"><ele>47.25</ele></trkpt>
<trkpt lon="-3.865232" lat="43.450243"><ele>47.0</ele></trkpt>
<trkpt lon="-3.865616" lat="43.450082"><ele>46.0</ele></trkpt>
<trkpt lon="-3.865855" lat="43.449983"><ele>46.75</ele></trkpt>
<trkpt lon="-3.865884" lat="43.449971"><ele>46.75</ele></trkpt>
<trkpt lon="-3.865935" lat="43.449943"><ele>46.75</ele></trkpt>
<trkpt lon="-3.867425" lat="43.449383"><ele>46.25</ele></trkpt>
<trkpt lon="-3.868859" lat="43.448823"><ele>42.5</ele></trkpt>
<trkpt lon="-3.868949" lat="43.448797"><ele>42.5</ele></trkpt>
<trkpt lon="-3.868964" lat="43.448827"><ele>42.75</ele></trkpt>
<trkpt lon="-3.869002" lat="43.448904"><ele>43.5</ele></trkpt>
<trkpt lon="-3.869033" lat="43.448941"><ele>44.25</ele></trkpt>
<trkpt lon="-3.869072" lat="43.448973"><ele>44.75</ele></trkpt>
<trkpt lon="-3.869144" lat="43.448993"><ele>45.25</ele></trkpt>
<trkpt lon="-3.869259" lat="43.449011"><ele>45.75</ele></trkpt>
<trkpt lon="-3.869335" lat="43.449016"><ele>45.75</ele></trkpt>
<trkpt lon="-3.869523" lat="43.449000"><ele>46.0</ele></trkpt>
<trkpt lon="-3.869760" lat="43.448954"><ele>46.5</ele></trkpt>
<trkpt lon="-3.869911" lat="43.448912"><ele>46.75</ele></trkpt>
<trkpt lon="-3.870216" lat="43.448817"><ele>47.5</ele></trkpt>
<trkpt lon="-3.870422" lat="43.448776"><ele>48.5</ele></trkpt>
<trkpt lon="-3.870574" lat="43.448766"><ele>50.0</ele></trkpt>
<trkpt lon="-3.870982" lat="43.448808"><ele>54.5</ele></trkpt>
<trkpt lon="-3.871233" lat="43.448808"><ele>55.25</ele></trkpt>
<trkpt lon="-3.871850" lat="43.448727"><ele>55.5</ele></trkpt>
<trkpt lon="-3.872172" lat="43.448665"><ele>55.5</ele></trkpt>
<trkpt lon="-3.872373" lat="43.448635"><ele>55.75</ele></trkpt>
<trkpt lon="-3.872407" lat="43.448638"><ele>56.0</ele></trkpt>
<trkpt lon="-3.872471" lat="43.448655"><ele>56.5</ele></trkpt>
<trkpt lon="-3.872650" lat="43.448759"><ele>58.75</ele></trkpt>
<trkpt lon="-3.872708" lat="43.448785"><ele>59.25</ele></trkpt>
<trkpt lon="-3.872755" lat="43.448788"><ele>59.5</ele></trkpt>
<trkpt lon="-3.873174" lat="43.448749"><ele>58.75</ele></trkpt>
<trkpt lon="-3.873252" lat="43.448743"><ele>59.0</ele></trkpt>
<trkpt lon="-3.873443" lat="43.448729"><ele>59.0</ele></trkpt>
<trkpt lon="-3.873631" lat="43.448727"><ele>59.0</ele></trkpt>
<trkpt lon="-3.873872" lat="43.448705"><ele>58.5</ele></trkpt>
<trkpt lon="-3.874081" lat="43.448647"><ele>58.0</ele></trkpt>
<trkpt lon="-3.874607" lat="43.448490"><ele>54.75</ele></trkpt>
<trkpt lon="-3.875175" lat="43.448328"><ele>51.5</ele></trkpt>
<trkpt lon="-3.875233" lat="43.448282"><ele>50.75</ele></trkpt>
<trkpt lon="-3.875249" lat="43.448172"><ele>49.5</ele></trkpt>
<trkpt lon="-3.875292" lat="43.447989"><ele>46.75</ele></trkpt>
<trkpt lon="-3.875331" lat="43.447868"><ele>44.75</ele></trkpt>
<trkpt lon="-3.875363" lat="43.447781"><ele>43.25</ele></trkpt>
<trkpt lon="-3.875414" lat="43.447715"><ele>42.5</ele></trkpt>
<trkpt lon="-3.875483" lat="43.447649"><ele>41.5</ele></trkpt>
<trkpt lon="-3.875718" lat="43.447522"><ele>39.25</ele></trkpt>
<trkpt lon="-3.875942" lat="43.447436"><ele>37.75</ele></trkpt>
<trkpt lon="-3.875997" lat="43.447396"><ele>37.0</ele></trkpt>
<trkpt lon="-3.876019" lat="43.447369"><ele>36.5</ele></trkpt>
<trkpt lon="-3.876321" lat="43.447358"><ele>36.0</ele></trkpt>
<trkpt lon="-3.876489" lat="43.447365"><ele>35.75</ele></trkpt>
<trkpt lon="-3.876590" lat="43.447378"><ele>35.75</ele></trkpt>
<trkpt lon="-3.876657" lat="43.447404"><ele>35.75</ele></trkpt>
<trkpt lon="-3.876717" lat="43.447423"><ele>36.0</ele></trkpt>
<trkpt lon="-3.876823" lat="43.447442"><ele>36.25</ele></trkpt>
<trkpt lon="-3.877002" lat="43.447425"><ele>36.0</ele></trkpt>
<trkpt lon="-3.877145" lat="43.447424"><ele>36.25</ele></trkpt>
<trkpt lon="-3.877314" lat="43.447429"><ele>36.0</ele></trkpt>
<trkpt lon="-3.877462" lat="43.447456"><ele>35.5</ele></trkpt>
<trkpt lon="-3.877780" lat="43.447549"><ele>34.5</ele></trkpt>
<trkpt lon="-3.877976" lat="43.447635"><ele>34.5</ele></trkpt>
<trkpt lon="-3.878115" lat="43.447677"><ele>34.25</ele></trkpt>
<trkpt lon="-3.878315" lat="43.447716"><ele>34.0</ele></trkpt>
<trkpt lon="-3.878491" lat="43.447733"><ele>33.75</ele></trkpt>
<trkpt lon="-3.878655" lat="43.447761"><ele>33.5</ele></trkpt>
<trkpt lon="-3.879218" lat="43.447917"><ele>32.75</ele></trkpt>
<trkpt lon="-3.879392" lat="43.447971"><ele>32.75</ele></trkpt>
<trkpt lon="-3.879668" lat="43.448017"><ele>32.5</ele></trkpt>
<trkpt lon="-3.879860" lat="43.448041"><ele>32.25</ele></trkpt>
<trkpt lon="-3.880037" lat="43.448055"><ele>31.75</ele></trkpt>
<trkpt lon="-3.880170" lat="43.448056"><ele>32.0</ele></trkpt>
<trkpt lon="-3.880378" lat="43.448046"><ele>32.25</ele></trkpt>
<trkpt lon="-3.880268" lat="43.447768"><ele>28.0</ele></trkpt>
<trkpt lon="-3.880140" lat="43.447514"><ele>27.5</ele></trkpt>
<trkpt lon="-3.880101" lat="43.447400"><ele>27.0</ele></trkpt>
<trkpt lon="-3.880102" lat="43.447351"><ele>26.75</ele></trkpt>
<trkpt lon="-3.880115" lat="43.447306"><ele>26.5</ele></trkpt>
<trkpt lon="-3.880149" lat="43.447259"><ele>26.5</ele></trkpt>
<trkpt lon="-3.880206" lat="43.447206"><ele>26.75</ele></trkpt>
<trkpt lon="-3.880292" lat="43.447159"><ele>27.5</ele></trkpt>
<trkpt lon="-3.880374" lat="43.447133"><ele>29.5</ele></trkpt>
<trkpt lon="-3.880482" lat="43.447121"><ele>31.75</ele></trkpt>
<trkpt lon="-3.881643" lat="43.447115"><ele>31.75</ele></trkpt>
<trkpt lon="-3.882020" lat="43.447106"><ele>30.5</ele></trkpt>
<trkpt lon="-3.882315" lat="43.447111"><ele>27.5</ele></trkpt>
<trkpt lon="-3.882660" lat="43.447134"><ele>27.75</ele></trkpt>
<trkpt lon="-3.882806" lat="43.447384"><ele>26.25</ele></trkpt>
<trkpt lon="-3.882854" lat="43.447445"><ele>25.5</ele></trkpt>
<trkpt lon="-3.882917" lat="43.447500"><ele>25.0</ele></trkpt>
<trkpt lon="-3.882961" lat="43.447521"><ele>24.75</ele></trkpt>
<trkpt lon="-3.883022" lat="43.447535"><ele>24.75</ele></trkpt>
<trkpt lon="-3.883136" lat="43.447541"><ele>24.75</ele></trkpt>
<trkpt lon="-3.883259" lat="43.447542"><ele>25.0</ele></trkpt>
<trkpt lon="-3.883388" lat="43.447534"><ele>25.0</ele></trkpt>
<trkpt lon="-3.883504" lat="43.447542"><ele>25.25</ele></trkpt>
<trkpt lon="-3.883602" lat="43.447566"><ele>25.75</ele></trkpt>
<trkpt lon="-3.883690" lat="43.447602"><ele>27.0</ele></trkpt>
<trkpt lon="-3.883783" lat="43.447655"><ele>28.25</ele></trkpt>
<trkpt lon="-3.884093" lat="43.447914"><ele>29.0</ele></trkpt>
<trkpt lon="-3.884203" lat="43.447975"><ele>26.75</ele></trkpt>
<trkpt lon="-3.884399" lat="43.448056"><ele>25.75</ele></trkpt>
<trkpt lon="-3.884536" lat="43.448124"><ele>26.25</ele></trkpt>
<trkpt lon="-3.884693" lat="43.448099"><ele>26.75</ele></trkpt>
<trkpt lon="-3.885184" lat="43.448049"><ele>27.5</ele></trkpt>
<trkpt lon="-3.886057" lat="43.447961"><ele>28.5</ele></trkpt>
<trkpt lon="-3.887091" lat="43.447837"><ele>29.0</ele></trkpt>
<trkpt lon="-3.887571" lat="43.447752"><ele>29.0</ele></trkpt>
<trkpt lon="-3.887804" lat="43.447732"><ele>29.75</ele></trkpt>
<trkpt lon="-3.888612" lat="43.447627"><ele>31.75</ele></trkpt>
<trkpt lon="-3.888711" lat="43.447649"><ele>31.75</ele></trkpt>
<trkpt lon="-3.888752" lat="43.447688"><ele>31.75</ele></trkpt>
<trkpt lon="-3.888771" lat="43.447950"><ele>32.75</ele></trkpt>
<trkpt lon="-3.888802" lat="43.448057"><ele>33.5</ele></trkpt>
<trkpt lon="-3.888881" lat="43.448082"><ele>33.75</ele></trkpt>
<trkpt lon="-3.888961" lat="43.448065"><ele>34.25</ele></trkpt>
<trkpt lon="-3.891239" lat="43.447083"><ele>35.75</ele></trkpt>
<trkpt lon="-3.891325" lat="43.446976"><ele>35.75</ele></trkpt>
<trkpt lon="-3.891629" lat="43.446738"><ele>36.25</ele></trkpt>
<trkpt lon="-3.891659" lat="43.446706"><ele>36.25</ele></trkpt>
<trkpt lon="-3.891656" lat="43.446677"><ele>36.0</ele></trkpt>
<trkpt lon="-3.891765" lat="43.446684"><ele>37.0</ele></trkpt>
<trkpt lon="-3.891823" lat="43.446673"><ele>37.5</ele></trkpt>
<trkpt lon="-3.892361" lat="43.446511"><ele>40.25</ele></trkpt>
<trkpt lon="-3.892788" lat="43.446368"><ele>40.75</ele></trkpt>
<trkpt lon="-3.893034" lat="43.446650"><ele>41.0</ele></trkpt>
<trkpt lon="-3.893140" lat="43.446759"><ele>40.0</ele></trkpt>
<trkpt lon="-3.893436" lat="43.446608"><ele>40.25</ele></trkpt>
<trkpt lon="-3.893562" lat="43.446589"><ele>40.5</ele></trkpt>
<trkpt lon="-3.893622" lat="43.446581"><ele>40.5</ele></trkpt>
<trkpt lon="-3.893700" lat="43.446559"><ele>40.25</ele></trkpt>
<trkpt lon="-3.894187" lat="43.446363"><ele>40.0</ele></trkpt>
<trkpt lon="-3.895073" lat="43.446025"><ele>41.25</ele></trkpt>
<trkpt lon="-3.895823" lat="43.445739"><ele>42.0</ele></trkpt>
<trkpt lon="-3.895914" lat="43.445699"><ele>42.25</ele></trkpt>
<trkpt lon="-3.895983" lat="43.445660"><ele>42.5</ele></trkpt>
<trkpt lon="-3.896025" lat="43.445632"><ele>42.5</ele></trkpt>
<trkpt lon="-3.896098" lat="43.445543"><ele>43.0</ele></trkpt>
<trkpt lon="-3.896173" lat="43.445359"><ele>44.25</ele></trkpt>
<trkpt lon="-3.896211" lat="43.445297"><ele>44.75</ele></trkpt>
<trkpt lon="-3.896256" lat="43.445245"><ele>45.25</ele></trkpt>
<trkpt lon="-3.896286" lat="43.445282"><ele>44.75</ele></trkpt>
<trkpt lon="-3.896352" lat="43.445225"><ele>45.5</ele></trkpt>
<trkpt lon="-3.896282" lat="43.445020"><ele>47.25</ele></trkpt>
<trkpt lon="-3.896240" lat="43.444933"><ele>47.25</ele></trkpt>
<trkpt lon="-3.896121" lat="43.444773"><ele>46.0</ele></trkpt>
<trkpt lon="-3.895946" lat="43.444517"><ele>44.5</ele></trkpt>
<trkpt lon="-3.895727" lat="43.444226"><ele>42.0</ele></trkpt>
<trkpt lon="-3.895644" lat="43.444175"><ele>41.25</ele></trkpt>
<trkpt lon="-3.895430" lat="43.443866"><ele>39.5</ele></trkpt>
<trkpt lon="-3.894495" lat="43.443141"><ele>35.0</ele></trkpt>
<trkpt lon="-3.894445" lat="43.443095"><ele>35.0</ele></trkpt>
<trkpt lon="-3.894424" lat="43.443076"><ele>35.0</ele></trkpt>
<trkpt lon="-3.894209" lat="43.442907"><ele>34.5</ele></trkpt>
<trkpt lon="-3.893749" lat="43.442609"><ele>34.0</ele></trkpt>
<trkpt lon="-3.893846" lat="43.442526"><ele>34.0</ele></trkpt>
<trkpt lon="-3.893998" lat="43.442433"><ele>34.0</ele></trkpt>
<trkpt lon="-3.894085" lat="43.442452"><ele>34.0</ele></trkpt>
<trkpt lon="-3.894150" lat="43.442447"><ele>34.0</ele></trkpt>
<trkpt lon="-3.894212" lat="43.442430"><ele>34.25</ele></trkpt>
<trkpt lon="-3.894407" lat="43.442353"><ele>34.5</ele></trkpt>
<trkpt lon="-3.894436" lat="43.442341"><ele>34.5</ele></trkpt>
<trkpt lon="-3.894577" lat="43.442246"><ele>34.75</ele></trkpt>
<trkpt lon="-3.894738" lat="43.442175"><ele>35.0</ele></trkpt>
<trkpt lon="-3.895562" lat="43.441972"><ele>36.0</ele></trkpt>
<trkpt lon="-3.896192" lat="43.441784"><ele>37.0</ele></trkpt>
<trkpt lon="-3.897003" lat="43.441521"><ele>37.0</ele></trkpt>
<trkpt lon="-3.897515" lat="43.441360"><ele>37.0</ele></trkpt>
<trkpt lon="-3.897694" lat="43.441292"><ele>37.0</ele></trkpt>
<trkpt lon="-3.897815" lat="43.441240"><ele>37.0</ele></trkpt>
<trkpt lon="-3.898230" lat="43.441035"><ele>37.5</ele></trkpt>
<trkpt lon="-3.898808" lat="43.440746"><ele>38.0</ele></trkpt>
<trkpt lon="-3.899207" lat="43.440572"><ele>38.0</ele></trkpt>
<trkpt lon="-3.899300" lat="43.440528"><ele>38.0</ele></trkpt>
<trkpt lon="-3.899383" lat="43.440504"><ele>38.0</ele></trkpt>
<trkpt lon="-3.900145" lat="43.440375"><ele>37.5</ele></trkpt>
<trkpt lon="-3.900330" lat="43.440337"><ele>38.0</ele></trkpt>
<trkpt lon="-3.900625" lat="43.440279"><ele>38.0</ele></trkpt>
<trkpt lon="-3.901656" lat="43.440054"><ele>37.25</ele></trkpt>
<trkpt lon="-3.901869" lat="43.440013"><ele>36.25</ele></trkpt>
<trkpt lon="-3.902059" lat="43.439977"><ele>36.25</ele></trkpt>
<trkpt lon="-3.904474" lat="43.439512"><ele>42.0</ele></trkpt>
<trkpt lon="-3.904679" lat="43.439472"><ele>41.75</ele></trkpt>
<trkpt lon="-3.904937" lat="43.439406"><ele>45.5</ele></trkpt>
<trkpt lon="-3.905085" lat="43.439375"><ele>45.5</ele></trkpt>
<trkpt lon="-3.905245" lat="43.439327"><ele>43.5</ele></trkpt>
<trkpt lon="-3.905295" lat="43.439329"><ele>43.25</ele></trkpt>
<trkpt lon="-3.905337" lat="43.439308"><ele>43.25</ele></trkpt>
<trkpt lon="-3.905417" lat="43.439289"><ele>43.25</ele></trkpt>
<trkpt lon="-3.905448" lat="43.439271"><ele>43.25</ele></trkpt>
<trkpt lon="-3.905489" lat="43.439222"><ele>43.25</ele></trkpt>
<trkpt lon="-3.905557" lat="43.439175"><ele>43.0</ele></trkpt>
<trkpt lon="-3.907030" lat="43.438853"><ele>45.0</ele></trkpt>
<trkpt lon="-3.907127" lat="43.438831"><ele>44.75</ele></trkpt>
<trkpt lon="-3.907227" lat="43.438804"><ele>45.0</ele></trkpt>
<trkpt lon="-3.908124" lat="43.438564"><ele>46.0</ele></trkpt>
<trkpt lon="-3.908122" lat="43.438543"><ele>46.0</ele></trkpt>
<trkpt lon="-3.908137" lat="43.438525"><ele>46.0</ele></trkpt>
<trkpt lon="-3.908163" lat="43.438516"><ele>46.0</ele></trkpt>
<trkpt lon="-3.908192" lat="43.438519"><ele>46.0</ele></trkpt>
<trkpt lon="-3.908287" lat="43.438503"><ele>46.0</ele></trkpt>
<trkpt lon="-3.908325" lat="43.438612"><ele>46.0</ele></trkpt>
<trkpt lon="-3.908410" lat="43.438586"><ele>46.25</ele></trkpt>
<trkpt lon="-3.908915" lat="43.438416"><ele>47.25</ele></trkpt>
<trkpt lon="-3.909342" lat="43.438247"><ele>48.0</ele></trkpt>
<trkpt lon="-3.909495" lat="43.438158"><ele>48.0</ele></trkpt>
<trkpt lon="-3.909857" lat="43.437895"><ele>48.25</ele></trkpt>
<trkpt lon="-3.910130" lat="43.437708"><ele>48.75</ele></trkpt>
<trkpt lon="-3.910503" lat="43.437465"><ele>49.0</ele></trkpt>
<trkpt lon="-3.911206" lat="43.437078"><ele>50.25</ele></trkpt>
<trkpt lon="-3.911623" lat="43.436858"><ele>52.25</ele></trkpt>
<trkpt lon="-3.911814" lat="43.436777"><ele>51.75</ele></trkpt>
<trkpt lon="-3.911926" lat="43.436756"><ele>51.75</ele></trkpt>
<trkpt lon="-3.912173" lat="43.436767"><ele>52.5</ele></trkpt>
<trkpt lon="-3.912327" lat="43.436750"><ele>52.5</ele></trkpt>
<trkpt lon="-3.912922" lat="43.436631"><ele>52.25</ele></trkpt>
<trkpt lon="-3.913052" lat="43.436584"><ele>52.25</ele></trkpt>
<trkpt lon="-3.913277" lat="43.436481"><ele>53.75</ele></trkpt>
<trkpt lon="-3.913462" lat="43.436406"><ele>54.0</ele></trkpt>
<trkpt lon="-3.914024" lat="43.436217"><ele>54.0</ele></trkpt>
<trkpt lon="-3.915414" lat="43.435773"><ele>54.75</ele></trkpt>
<trkpt lon="-3.916036" lat="43.435572"><ele>55.0</ele></trkpt>
<trkpt lon="-3.916880" lat="43.435280"><ele>55.75</ele></trkpt>
<trkpt lon="-3.917131" lat="43.435202"><ele>56.75</ele></trkpt>
<trkpt lon="-3.917222" lat="43.435165"><ele>57.0</ele></trkpt>
<trkpt lon="-3.917301" lat="43.435114"><ele>56.75</ele></trkpt>
<trkpt lon="-3.917463" lat="43.435070"><ele>56.5</ele></trkpt>
<trkpt lon="-3.917612" lat="43.435044"><ele>56.25</ele></trkpt>
<trkpt lon="-3.917749" lat="43.435028"><ele>56.0</ele></trkpt>
<trkpt lon="-3.917744" lat="43.434985"><ele>56.0</ele></trkpt>
<trkpt lon="-3.917697" lat="43.434913"><ele>56.0</ele></trkpt>
<trkpt lon="-3.917737" lat="43.434865"><ele>56.0</ele></trkpt>
<trkpt lon="-3.917746" lat="43.434841"><ele>56.0</ele></trkpt>
<trkpt lon="-3.917747" lat="43.434762"><ele>56.0</ele></trkpt>
<trkpt lon="-3.917837" lat="43.434578"><ele>57.75</ele></trkpt>
<trkpt lon="-3.917847" lat="43.434452"><ele>58.5</ele></trkpt>
<trkpt lon="-3.917836" lat="43.434344"><ele>59.0</ele></trkpt>
<trkpt lon="-3.917978" lat="43.434327"><ele>60.0</ele></trkpt>
<trkpt lon="-3.918036" lat="43.434320"><ele>60.25</ele></trkpt>
<trkpt lon="-3.918009" lat="43.434127"><ele>60.0</ele></trkpt>
<trkpt lon="-3.918016" lat="43.434089"><ele>60.0</ele></trkpt>
<trkpt lon="-3.918036" lat="43.434051"><ele>60.0</ele></trkpt>
<trkpt lon="-3.918081" lat="43.434005"><ele>59.75</ele></trkpt>
<trkpt lon="-3.918131" lat="43.433978"><ele>59.75</ele></trkpt>
<trkpt lon="-3.918218" lat="43.433972"><ele>59.75</ele></trkpt>
<trkpt lon="-3.918300" lat="43.434001"><ele>59.5</ele></trkpt>
<trkpt lon="-3.918343" lat="43.433978"><ele>59.5</ele></trkpt>
<trkpt lon="-3.918383" lat="43.433948"><ele>59.5</ele></trkpt>
<trkpt lon="-3.918340" lat="43.433894"><ele>59.75</ele></trkpt>
<trkpt lon="-3.918340" lat="43.433864"><ele>60.0</ele></trkpt>
<trkpt lon="-3.918353" lat="43.433813"><ele>60.0</ele></trkpt>
<trkpt lon="-3.918383" lat="43.433771"><ele>60.25</ele></trkpt>
<trkpt lon="-3.918443" lat="43.433731"><ele>60.25</ele></trkpt>
<trkpt lon="-3.918682" lat="43.433647"><ele>60.75</ele></trkpt>
<trkpt lon="-3.918673" lat="43.433602"><ele>61.0</ele></trkpt>
<trkpt lon="-3.918662" lat="43.433563"><ele>61.5</ele></trkpt>
<trkpt lon="-3.919159" lat="43.433484"><ele>62.25</ele></trkpt>
<trkpt lon="-3.920178" lat="43.433341"><ele>62.0</ele></trkpt>
<trkpt lon="-3.920203" lat="43.433326"><ele>62.0</ele></trkpt>
<trkpt lon="-3.920196" lat="43.433300"><ele>62.0</ele></trkpt>
<trkpt lon="-3.920123" lat="43.433297"><ele>62.25</ele></trkpt>
<trkpt lon="-3.920125" lat="43.433248"><ele>62.5</ele></trkpt>
<trkpt lon="-3.920129" lat="43.433174"><ele>63.0</ele></trkpt>
<trkpt lon="-3.920276" lat="43.433178"><ele>63.0</ele></trkpt>
<trkpt lon="-3.920406" lat="43.433184"><ele>63.0</ele></trkpt>
<trkpt lon="-3.920424" lat="43.433004"><ele>64.0</ele></trkpt>
<trkpt lon="-3.920428" lat="43.432969"><ele>64.0</ele></trkpt>
<trkpt lon="-3.920433" lat="43.432918"><ele>64.0</ele></trkpt>
<trkpt lon="-3.920436" lat="43.432866"><ele>64.0</ele></trkpt>
<trkpt lon="-3.920442" lat="43.432803"><ele>64.0</ele></trkpt>
<trkpt lon="-3.921309" lat="43.432835"><ele>63.75</ele></trkpt>
<trkpt lon="-3.921491" lat="43.432841"><ele>63.75</ele></trkpt>
<trkpt lon="-3.921476" lat="43.433018"><ele>63.0</ele></trkpt>
<trkpt lon="-3.922046" lat="43.432839"><ele>63.25</ele></trkpt>
<trkpt lon="-3.922610" lat="43.432653"><ele>63.0</ele></trkpt>
<trkpt lon="-3.923953" lat="43.432211"><ele>64.0</ele></trkpt>
<trkpt lon="-3.924552" lat="43.432020"><ele>64.0</ele></trkpt>
<trkpt lon="-3.924787" lat="43.431971"><ele>63.0</ele></trkpt>
<trkpt lon="-3.925571" lat="43.431851"><ele>59.75</ele></trkpt>
<trkpt lon="-3.925558" lat="43.431818"><ele>60.25</ele></trkpt>
<trkpt lon="-3.925516" lat="43.431658"><ele>62.25</ele></trkpt>
<trkpt lon="-3.925478" lat="43.431569"><ele>63.75</ele></trkpt>
<trkpt lon="-3.925435" lat="43.431501"><ele>64.5</ele></trkpt>
<trkpt lon="-3.925304" lat="43.431330"><ele>66.75</ele></trkpt>
<trkpt lon="-3.925281" lat="43.431287"><ele>67.25</ele></trkpt>
<trkpt lon="-3.925273" lat="43.431246"><ele>68.0</ele></trkpt>
<trkpt lon="-3.925276" lat="43.431208"><ele>68.5</ele></trkpt>
<trkpt lon="-3.925308" lat="43.431138"><ele>69.5</ele></trkpt>
<trkpt lon="-3.925354" lat="43.431088"><ele>70.25</ele></trkpt>
<trkpt lon="-3.925536" lat="43.430979"><ele>71.0</ele></trkpt>
<trkpt lon="-3.925755" lat="43.430891"><ele>70.5</ele></trkpt>
<trkpt lon="-3.925940" lat="43.430847"><ele>70.75</ele></trkpt>
<trkpt lon="-3.926100" lat="43.430816"><ele>71.0</ele></trkpt>
<trkpt lon="-3.926448" lat="43.430767"><ele>69.75</ele></trkpt>
<trkpt lon="-3.926603" lat="43.430722"><ele>69.25</ele></trkpt>
<trkpt lon="-3.926657" lat="43.430660"><ele>69.0</ele></trkpt>
<trkpt lon="-3.926705" lat="43.430567"><ele>68.75</ele></trkpt>
<trkpt lon="-3.926801" lat="43.430520"><ele>69.0</ele></trkpt>
<trkpt lon="-3.926898" lat="43.430497"><ele>69.25</ele></trkpt>
<trkpt lon="-3.927085" lat="43.430470"><ele>69.5</ele></trkpt>
<trkpt lon="-3.928094" lat="43.430161"><ele>71.0</ele></trkpt>
<trkpt lon="-3.928383" lat="43.430087"><ele>71.75</ele></trkpt>
<trkpt lon="-3.928552" lat="43.430034"><ele>71.75</ele></trkpt>
<trkpt lon="-3.929406" lat="43.429662"><ele>71.5</ele></trkpt>
<trkpt lon="-3.929818" lat="43.429453"><ele>71.0</ele></trkpt>
<trkpt lon="-3.930017" lat="43.429365"><ele>70.25</ele></trkpt>
<trkpt lon="-3.930161" lat="43.429276"><ele>69.5</ele></trkpt>
<trkpt lon="-3.930271" lat="43.429174"><ele>69.0</ele></trkpt>
<trkpt lon="-3.930423" lat="43.429054"><ele>68.75</ele></trkpt>
<trkpt lon="-3.930573" lat="43.428969"><ele>68.75</ele></trkpt>
<trkpt lon="-3.930667" lat="43.428933"><ele>68.5</ele></trkpt>
<trkpt lon="-3.930799" lat="43.428901"><ele>68.0</ele></trkpt>
<trkpt lon="-3.931057" lat="43.428897"><ele>67.0</ele></trkpt>
<trkpt lon="-3.931239" lat="43.428883"><ele>66.0</ele></trkpt>
<trkpt lon="-3.931416" lat="43.428859"><ele>64.5</ele></trkpt>
<trkpt lon="-3.931637" lat="43.428809"><ele>61.75</ele></trkpt>
<trkpt lon="-3.931592" lat="43.428764"><ele>62.75</ele></trkpt>
<trkpt lon="-3.931523" lat="43.428626"><ele>64.25</ele></trkpt>
<trkpt lon="-3.931523" lat="43.428448"><ele>64.5</ele></trkpt>
<trkpt lon="-3.931501" lat="43.428303"><ele>64.75</ele></trkpt>
<trkpt lon="-3.931413" lat="43.428194"><ele>67.0</ele></trkpt>
<trkpt lon="-3.931076" lat="43.427980"><ele>68.0</ele></trkpt>
<trkpt lon="-3.931025" lat="43.427958"><ele>68.25</ele></trkpt>
<trkpt lon="-3.931029" lat="43.427847"><ele>67.75</ele></trkpt>
<trkpt lon="-3.931072" lat="43.427747"><ele>67.0</ele></trkpt>
<trkpt lon="-3.931146" lat="43.427665"><ele>67.25</ele></trkpt>
<trkpt lon="-3.931422" lat="43.427448"><ele>71.25</ele></trkpt>
<trkpt lon="-3.931561" lat="43.427319"><ele>74.0</ele></trkpt>
<trkpt lon="-3.931730" lat="43.427137"><ele>77.75</ele></trkpt>
<trkpt lon="-3.931824" lat="43.426981"><ele>81.5</ele></trkpt>
<trkpt lon="-3.931803" lat="43.426940"><ele>83.0</ele></trkpt>
<trkpt lon="-3.931459" lat="43.426889"><ele>87.25</ele></trkpt>
<trkpt lon="-3.931167" lat="43.426806"><ele>89.75</ele></trkpt>
<trkpt lon="-3.931046" lat="43.426758"><ele>90.75</ele></trkpt>
<trkpt lon="-3.930968" lat="43.426675"><ele>92.75</ele></trkpt>
<trkpt lon="-3.930933" lat="43.426579"><ele>94.25</ele></trkpt>
<trkpt lon="-3.930921" lat="43.426500"><ele>95.5</ele></trkpt>
<trkpt lon="-3.931017" lat="43.426255"><ele>99.5</ele></trkpt>
<trkpt lon="-3.931005" lat="43.426193"><ele>99.75</ele></trkpt>
<trkpt lon="-3.930943" lat="43.426133"><ele>100.0</ele></trkpt>
<trkpt lon="-3.930596" lat="43.425976"><ele>100.5</ele></trkpt>
<trkpt lon="-3.930368" lat="43.425890"><ele>101.0</ele></trkpt>
<trkpt lon="-3.930198" lat="43.425840"><ele>101.5</ele></trkpt>
<trkpt lon="-3.930031" lat="43.425815"><ele>101.25</ele></trkpt>
<trkpt lon="-3.929953" lat="43.425789"><ele>101.25</ele></trkpt>
<trkpt lon="-3.929744" lat="43.425698"><ele>101.5</ele></trkpt>
<trkpt lon="-3.929528" lat="43.425666"><ele>103.0</ele></trkpt>
<trkpt lon="-3.929259" lat="43.425614"><ele>104.75</ele></trkpt>
<trkpt lon="-3.929096" lat="43.425563"><ele>105.75</ele></trkpt>
<trkpt lon="-3.928812" lat="43.425435"><ele>107.0</ele></trkpt>
<trkpt lon="-3.928610" lat="43.425297"><ele>107.5</ele></trkpt>
<trkpt lon="-3.928484" lat="43.425200"><ele>109.0</ele></trkpt>
<trkpt lon="-3.928297" lat="43.425147"><ele>110.25</ele></trkpt>
<trkpt lon="-3.927987" lat="43.425091"><ele>111.5</ele></trkpt>
<trkpt lon="-3.927494" lat="43.424954"><ele>111.75</ele></trkpt>
<trkpt lon="-3.926380" lat="43.424658"><ele>114.25</ele></trkpt>
<trkpt lon="-3.926158" lat="43.424620"><ele>115.5</ele></trkpt>
<trkpt lon="-3.926217" lat="43.424358"><ele>117.5</ele></trkpt>
<trkpt lon="-3.926573" lat="43.424331"><ele>116.75</ele></trkpt>
<trkpt lon="-3.926688" lat="43.424347"><ele>116.75</ele></trkpt>
<trkpt lon="-3.927223" lat="43.424423"><ele>119.0</ele></trkpt>
<trkpt lon="-3.927490" lat="43.424399"><ele>120.0</ele></trkpt>
<trkpt lon="-3.928125" lat="43.424255"><ele>117.75</ele></trkpt>
<trkpt lon="-3.928619" lat="43.424258"><ele>115.25</ele></trkpt>
<trkpt lon="-3.929614" lat="43.424299"><ele>110.0</ele></trkpt>
<trkpt lon="-3.929669" lat="43.424298"><ele>109.5</ele></trkpt>
<trkpt lon="-3.929680" lat="43.424208"><ele>108.5</ele></trkpt>
<trkpt lon="-3.929638" lat="43.424124"><ele>107.75</ele></trkpt>
<trkpt lon="-3.929529" lat="43.423955"><ele>106.5</ele></trkpt>
<trkpt lon="-3.929520" lat="43.423888"><ele>106.0</ele></trkpt>
<trkpt lon="-3.929522" lat="43.423833"><ele>106.25</ele></trkpt>
<trkpt lon="-3.929699" lat="43.423472"><ele>105.25</ele></trkpt>
<trkpt lon="-3.929903" lat="43.423251"><ele>104.5</ele></trkpt>
<trkpt lon="-3.930038" lat="43.423139"><ele>104.0</ele></trkpt>
<trkpt lon="-3.930141" lat="43.423078"><ele>104.0</ele></trkpt>
<trkpt lon="-3.930452" lat="43.422942"><ele>103.0</ele></trkpt>
<trkpt lon="-3.930757" lat="43.422789"><ele>101.5</ele></trkpt>
<trkpt lon="-3.931007" lat="43.422675"><ele>99.75</ele></trkpt>
<trkpt lon="-3.931281" lat="43.422582"><ele>98.5</ele></trkpt>
<trkpt lon="-3.931920" lat="43.422389"><ele>96.0</ele></trkpt>
<trkpt lon="-3.932678" lat="43.422259"><ele>95.0</ele></trkpt>
<trkpt lon="-3.932721" lat="43.422247"><ele>94.75</ele></trkpt>
<trkpt lon="-3.932818" lat="43.422227"><ele>94.5</ele></trkpt>
<trkpt lon="-3.933351" lat="43.422064"><ele>93.0</ele></trkpt>
<trkpt lon="-3.933509" lat="43.422023"><ele>92.5</ele></trkpt>
<trkpt lon="-3.933847" lat="43.421948"><ele>92.0</ele></trkpt>
<trkpt lon="-3.934124" lat="43.421897"><ele>91.25</ele></trkpt>
<trkpt lon="-3.934565" lat="43.421861"><ele>90.75</ele></trkpt>
<trkpt lon="-3.934644" lat="43.421852"><ele>90.75</ele></trkpt>
<trkpt lon="-3.934890" lat="43.421795"><ele>89.75</ele></trkpt>
<trkpt lon="-3.934976" lat="43.421759"><ele>89.25</ele></trkpt>
<trkpt lon="-3.935079" lat="43.421717"><ele>88.75</ele></trkpt>
<trkpt lon="-3.935401" lat="43.421609"><ele>87.0</ele></trkpt>
<trkpt lon="-3.936041" lat="43.421421"><ele>86.75</ele></trkpt>
<trkpt lon="-3.936133" lat="43.421395"><ele>86.75</ele></trkpt>
<trkpt lon="-3.936303" lat="43.421347"><ele>87.25</ele></trkpt>
<trkpt lon="-3.936408" lat="43.421285"><ele>87.5</ele></trkpt>
<trkpt lon="-3.936545" lat="43.421184"><ele>87.75</ele></trkpt>
<trkpt lon="-3.936634" lat="43.421087"><ele>88.0</ele></trkpt>
<trkpt lon="-3.936659" lat="43.421060"><ele>88.0</ele></trkpt>
<trkpt lon="-3.936728" lat="43.420928"><ele>88.75</ele></trkpt>
<trkpt lon="-3.936751" lat="43.420883"><ele>89.0</ele></trkpt>
<trkpt lon="-3.936814" lat="43.420791"><ele>89.5</ele></trkpt>
<trkpt lon="-3.936877" lat="43.420725"><ele>90.0</ele></trkpt>
<trkpt lon="-3.936961" lat="43.420637"><ele>90.5</ele></trkpt>
<trkpt lon="-3.937195" lat="43.420403"><ele>90.75</ele></trkpt>
<trkpt lon="-3.937411" lat="43.420173"><ele>90.75</ele></trkpt>
<trkpt lon="-3.937537" lat="43.419945"><ele>89.0</ele></trkpt>
<trkpt lon="-3.937655" lat="43.419766"><ele>86.25</ele></trkpt>
<trkpt lon="-3.937727" lat="43.419707"><ele>85.5</ele></trkpt>
<trkpt lon="-3.937830" lat="43.419649"><ele>84.25</ele></trkpt>
<trkpt lon="-3.937941" lat="43.419624"><ele>83.5</ele></trkpt>
<trkpt lon="-3.938177" lat="43.419598"><ele>82.25</ele></trkpt>
<trkpt lon="-3.938421" lat="43.419548"><ele>80.5</ele></trkpt>
<trkpt lon="-3.938636" lat="43.419533"><ele>79.5</ele></trkpt>
<trkpt lon="-3.938823" lat="43.419528"><ele>79.25</ele></trkpt>
<trkpt lon="-3.939060" lat="43.419533"><ele>78.5</ele></trkpt>
<trkpt lon="-3.939216" lat="43.419528"><ele>78.0</ele></trkpt>
<trkpt lon="-3.939311" lat="43.419490"><ele>77.5</ele></trkpt>
<trkpt lon="-3.939376" lat="43.419443"><ele>77.0</ele></trkpt>
<trkpt lon="-3.939403" lat="43.419412"><ele>77.0</ele></trkpt>
<trkpt lon="-3.939460" lat="43.419349"><ele>76.75</ele></trkpt>
<trkpt lon="-3.939561" lat="43.419351"><ele>76.25</ele></trkpt>
<trkpt lon="-3.939663" lat="43.419348"><ele>75.75</ele></trkpt>
<trkpt lon="-3.939709" lat="43.419399"><ele>75.25</ele></trkpt>
<trkpt lon="-3.939764" lat="43.419395"><ele>75.0</ele></trkpt>
<trkpt lon="-3.939939" lat="43.419381"><ele>73.75</ele></trkpt>
<trkpt lon="-3.940316" lat="43.419353"><ele>72.0</ele></trkpt>
<trkpt lon="-3.940491" lat="43.419305"><ele>71.25</ele></trkpt>
<trkpt lon="-3.940631" lat="43.419249"><ele>70.25</ele></trkpt>
<trkpt lon="-3.940802" lat="43.419127"><ele>69.75</ele></trkpt>
<trkpt lon="-3.941011" lat="43.418884"><ele>72.25</ele></trkpt>
<trkpt lon="-3.941246" lat="43.418666"><ele>74.5</ele></trkpt>
<trkpt lon="-3.941320" lat="43.418586"><ele>75.75</ele></trkpt>
<trkpt lon="-3.941414" lat="43.418520"><ele>76.5</ele></trkpt>
<trkpt lon="-3.941535" lat="43.418470"><ele>77.5</ele></trkpt>
<trkpt lon="-3.941607" lat="43.418454"><ele>78.0</ele></trkpt>
<trkpt lon="-3.941557" lat="43.418401"><ele>78.25</ele></trkpt>
<trkpt lon="-3.941233" lat="43.418278"><ele>78.0</ele></trkpt>
<trkpt lon="-3.940480" lat="43.417907"><ele>79.5</ele></trkpt>
<trkpt lon="-3.940367" lat="43.417864"><ele>79.5</ele></trkpt>
<trkpt lon="-3.940331" lat="43.417806"><ele>79.75</ele></trkpt>
<trkpt lon="-3.940332" lat="43.417704"><ele>79.75</ele></trkpt>
<trkpt lon="-3.940370" lat="43.417478"><ele>79.0</ele></trkpt>
<trkpt lon="-3.940381" lat="43.417417"><ele>78.75</ele></trkpt>
<trkpt lon="-3.940479" lat="43.417120"><ele>76.0</ele></trkpt>
<trkpt lon="-3.940497" lat="43.417065"><ele>75.5</ele></trkpt>
<trkpt lon="-3.940637" lat="43.416736"><ele>72.0</ele></trkpt>
<trkpt lon="-3.940671" lat="43.416654"><ele>71.0</ele></trkpt>
<trkpt lon="-3.940833" lat="43.416345"><ele>67.25</ele></trkpt>
<trkpt lon="-3.940860" lat="43.416299"><ele>66.25</ele></trkpt>
<trkpt lon="-3.941050" lat="43.415970"><ele>60.25</ele></trkpt>
<trkpt lon="-3.941125" lat="43.415722"><ele>55.25</ele></trkpt>
<trkpt lon="-3.941240" lat="43.415559"><ele>51.0</ele></trkpt>
<trkpt lon="-3.941379" lat="43.415408"><ele>47.0</ele></trkpt>
<trkpt lon="-3.941440" lat="43.415341"><ele>45.5</ele></trkpt>
<trkpt lon="-3.941537" lat="43.415277"><ele>43.25</ele></trkpt>
<trkpt lon="-3.941601" lat="43.415100"><ele>39.5</ele></trkpt>
<trkpt lon="-3.941665" lat="43.414987"><ele>37.75</ele></trkpt>
<trkpt lon="-3.941812" lat="43.414709"><ele>32.75</ele></trkpt>
<trkpt lon="-3.941996" lat="43.414360"><ele>27.0</ele></trkpt>
<trkpt lon="-3.942064" lat="43.414252"><ele>24.75</ele></trkpt>
<trkpt lon="-3.942080" lat="43.414227"><ele>24.25</ele></trkpt>
<trkpt lon="-3.942201" lat="43.414084"><ele>22.25</ele></trkpt>
<trkpt lon="-3.942257" lat="43.414018"><ele>21.75</ele></trkpt>
<trkpt lon="-3.942320" lat="43.413944"><ele>21.0</ele></trkpt>
<trkpt lon="-3.942519" lat="43.413794"><ele>19.25</ele></trkpt>
<trkpt lon="-3.942687" lat="43.413729"><ele>18.25</ele></trkpt>
<trkpt lon="-3.942859" lat="43.413674"><ele>17.25</ele></trkpt>
<trkpt lon="-3.943049" lat="43.413627"><ele>16.0</ele></trkpt>
<trkpt lon="-3.943282" lat="43.413570"><ele>15.75</ele></trkpt>
<trkpt lon="-3.943426" lat="43.413496"><ele>15.25</ele></trkpt>
<trkpt lon="-3.943589" lat="43.413353"><ele>14.0</ele></trkpt>
<trkpt lon="-3.943675" lat="43.413245"><ele>13.25</ele></trkpt>
<trkpt lon="-3.943775" lat="43.413085"><ele>12.0</ele></trkpt>
<trkpt lon="-3.943818" lat="43.412986"><ele>11.0</ele></trkpt>
<trkpt lon="-3.943659" lat="43.412932"><ele>10.5</ele></trkpt>
<trkpt lon="-3.943197" lat="43.412251"><ele>6.5</ele></trkpt>
<trkpt lon="-3.943024" lat="43.411967"><ele>6.0</ele></trkpt>
<trkpt lon="-3.942944" lat="43.411856"><ele>6.0</ele></trkpt>
<trkpt lon="-3.942722" lat="43.411551"><ele>5.75</ele></trkpt>
<trkpt lon="-3.942402" lat="43.411215"><ele>4.75</ele></trkpt>
<trkpt lon="-3.942325" lat="43.411068"><ele>4.5</ele></trkpt>
<trkpt lon="-3.942299" lat="43.410969"><ele>4.25</ele></trkpt>
<trkpt lon="-3.942280" lat="43.410767"><ele>3.75</ele></trkpt>
<trkpt lon="-3.942260" lat="43.410333"><ele>3.0</ele></trkpt>
<trkpt lon="-3.942315" lat="43.410238"><ele>3.5</ele></trkpt>
<trkpt lon="-3.942316" lat="43.409958"><ele>5.25</ele></trkpt>
<trkpt lon="-3.942331" lat="43.409861"><ele>5.75</ele></trkpt>
<trkpt lon="-3.942383" lat="43.409696"><ele>6.75</ele></trkpt>
<trkpt lon="-3.942203" lat="43.409700"><ele>6.0</ele></trkpt>
<trkpt lon="-3.942105" lat="43.409709"><ele>6.0</ele></trkpt>
<trkpt lon="-3.942300" lat="43.409333"><ele>10.0</ele></trkpt>
<trkpt lon="-3.942302" lat="43.409129"><ele>11.0</ele></trkpt>
<trkpt lon="-3.942389" lat="43.408907"><ele>13.0</ele></trkpt>
<trkpt lon="-3.942590" lat="43.408452"><ele>17.25</ele></trkpt>
<trkpt lon="-3.942648" lat="43.408235"><ele>19.75</ele></trkpt>
<trkpt lon="-3.942852" lat="43.408283"><ele>21.0</ele></trkpt>
<trkpt lon="-3.943088" lat="43.408327"><ele>21.25</ele></trkpt>
<trkpt lon="-3.943203" lat="43.408338"><ele>22.0</ele></trkpt>
<trkpt lon="-3.943326" lat="43.408298"><ele>23.25</ele></trkpt>
<trkpt lon="-3.943522" lat="43.408198"><ele>24.75</ele></trkpt>
<trkpt lon="-3.943710" lat="43.408064"><ele>26.75</ele></trkpt>
<trkpt lon="-3.943782" lat="43.407935"><ele>29.5</ele></trkpt>
<trkpt lon="-3.943810" lat="43.407793"><ele>32.5</ele></trkpt>
<trkpt lon="-3.943814" lat="43.407652"><ele>34.25</ele></trkpt>
<trkpt lon="-3.943871" lat="43.407601"><ele>35.25</ele></trkpt>
<trkpt lon="-3.943998" lat="43.407580"><ele>36.0</ele></trkpt>
<trkpt lon="-3.944321" lat="43.407578"><ele>37.5</ele></trkpt>
<trkpt lon="-3.944480" lat="43.407563"><ele>38.5</ele></trkpt>
<trkpt lon="-3.944574" lat="43.407522"><ele>39.75</ele></trkpt>
<trkpt lon="-3.944639" lat="43.407448"><ele>40.5</ele></trkpt>
<trkpt lon="-3.944649" lat="43.407383"><ele>41.0</ele></trkpt>
<trkpt lon="-3.944624" lat="43.407331"><ele>41.5</ele></trkpt>
<trkpt lon="-3.944547" lat="43.407287"><ele>42.75</ele></trkpt>
<trkpt lon="-3.944361" lat="43.407273"><ele>44.5</ele></trkpt>
<trkpt lon="-3.944197" lat="43.407251"><ele>45.75</ele></trkpt>
<trkpt lon="-3.944005" lat="43.407161"><ele>48.25</ele></trkpt>
<trkpt lon="-3.943668" lat="43.406928"><ele>54.0</ele></trkpt>
<trkpt lon="-3.943519" lat="43.406817"><ele>55.25</ele></trkpt>
<trkpt lon="-3.943633" lat="43.406772"><ele>56.25</ele></trkpt>
<trkpt lon="-3.943731" lat="43.406699"><ele>57.0</ele></trkpt>
<trkpt lon="-3.943821" lat="43.406601"><ele>58.0</ele></trkpt>
<trkpt lon="-3.943912" lat="43.406476"><ele>59.25</ele></trkpt>
<trkpt lon="-3.944005" lat="43.406315"><ele>60.5</ele></trkpt>
<trkpt lon="-3.944133" lat="43.406174"><ele>60.5</ele></trkpt>
<trkpt lon="-3.944235" lat="43.406076"><ele>60.0</ele></trkpt>
<trkpt lon="-3.944330" lat="43.405965"><ele>58.0</ele></trkpt>
<trkpt lon="-3.944378" lat="43.405865"><ele>56.25</ele></trkpt>
<trkpt lon="-3.944432" lat="43.405713"><ele>53.25</ele></trkpt>
<trkpt lon="-3.944473" lat="43.405638"><ele>51.5</ele></trkpt>
<trkpt lon="-3.944783" lat="43.405361"><ele>41.5</ele></trkpt>
<trkpt lon="-3.945007" lat="43.405148"><ele>37.5</ele></trkpt>
<trkpt lon="-3.945077" lat="43.405052"><ele>36.0</ele></trkpt>
<trkpt lon="-3.945296" lat="43.404812"><ele>31.5</ele></trkpt>
<trkpt lon="-3.945493" lat="43.404747"><ele>27.5</ele></trkpt>
<trkpt lon="-3.945573" lat="43.404709"><ele>25.5</ele></trkpt>
<trkpt lon="-3.945734" lat="43.404706"><ele>23.75</ele></trkpt>
<trkpt lon="-3.945809" lat="43.404676"><ele>22.5</ele></trkpt>
<trkpt lon="-3.945876" lat="43.404625"><ele>21.25</ele></trkpt>
<trkpt lon="-3.945933" lat="43.404553"><ele>19.75</ele></trkpt>
<trkpt lon="-3.946013" lat="43.404512"><ele>18.5</ele></trkpt>
<trkpt lon="-3.946200" lat="43.404283"><ele>16.0</ele></trkpt>
<trkpt lon="-3.946347" lat="43.404069"><ele>14.0</ele></trkpt>
<trkpt lon="-3.946522" lat="43.403783"><ele>12.0</ele></trkpt>
<trkpt lon="-3.946599" lat="43.403655"><ele>11.25</ele></trkpt>
<trkpt lon="-3.946837" lat="43.403772"><ele>11.0</ele></trkpt>
<trkpt lon="-3.946937" lat="43.403829"><ele>11.0</ele></trkpt>
<trkpt lon="-3.946989" lat="43.403739"><ele>10.75</ele></trkpt>
<trkpt lon="-3.947027" lat="43.403672"><ele>10.25</ele></trkpt>
<trkpt lon="-3.947123" lat="43.403507"><ele>9.5</ele></trkpt>
<trkpt lon="-3.947381" lat="43.403126"><ele>7.75</ele></trkpt>
<trkpt lon="-3.947746" lat="43.402544"><ele>5.5</ele></trkpt>
<trkpt lon="-3.947775" lat="43.402505"><ele>5.25</ele></trkpt>
<trkpt lon="-3.947857" lat="43.402439"><ele>5.0</ele></trkpt>
<trkpt lon="-3.947913" lat="43.402419"><ele>5.0</ele></trkpt>
<trkpt lon="-3.947993" lat="43.402410"><ele>4.5</ele></trkpt>
<trkpt lon="-3.948174" lat="43.402425"><ele>4.5</ele></trkpt>
<trkpt lon="-3.948897" lat="43.402468"><ele>5.0</ele></trkpt>
<trkpt lon="-3.949048" lat="43.402387"><ele>5.0</ele></trkpt>
<trkpt lon="-3.949087" lat="43.402356"><ele>5.0</ele></trkpt>
<trkpt lon="-3.949114" lat="43.402350"><ele>5.0</ele></trkpt>
<trkpt lon="-3.949225" lat="43.402278"><ele>5.0</ele></trkpt>
<trkpt lon="-3.949505" lat="43.402059"><ele>5.5</ele></trkpt>
<trkpt lon="-3.949864" lat="43.401837"><ele>6.0</ele></trkpt>
<trkpt lon="-3.950067" lat="43.401731"><ele>6.0</ele></trkpt>
<trkpt lon="-3.950181" lat="43.401684"><ele>5.75</ele></trkpt>
<trkpt lon="-3.950320" lat="43.401608"><ele>7.0</ele></trkpt>
<trkpt lon="-3.950451" lat="43.401461"><ele>8.75</ele></trkpt>
<trkpt lon="-3.950544" lat="43.401331"><ele>9.25</ele></trkpt>
<trkpt lon="-3.950683" lat="43.401190"><ele>11.5</ele></trkpt>
<trkpt lon="-3.950740" lat="43.401131"><ele>12.25</ele></trkpt>
<trkpt lon="-3.951007" lat="43.400933"><ele>14.0</ele></trkpt>
<trkpt lon="-3.951070" lat="43.400871"><ele>14.0</ele></trkpt>
<trkpt lon="-3.951152" lat="43.400734"><ele>14.75</ele></trkpt>
<trkpt lon="-3.951181" lat="43.400640"><ele>15.25</ele></trkpt>
<trkpt lon="-3.951397" lat="43.400593"><ele>17.75</ele></trkpt>
<trkpt lon="-3.951452" lat="43.400569"><ele>19.0</ele></trkpt>
<trkpt lon="-3.951522" lat="43.400485"><ele>21.25</ele></trkpt>
<trkpt lon="-3.951646" lat="43.400365"><ele>24.0</ele></trkpt>
<trkpt lon="-3.951653" lat="43.400328"><ele>24.5</ele></trkpt>
<trkpt lon="-3.951653" lat="43.400209"><ele>25.75</ele></trkpt>
<trkpt lon="-3.951643" lat="43.400097"><ele>27.25</ele></trkpt>
<trkpt lon="-3.951656" lat="43.400036"><ele>28.25</ele></trkpt>
<trkpt lon="-3.951699" lat="43.399967"><ele>29.0</ele></trkpt>
<trkpt lon="-3.951838" lat="43.399842"><ele>29.5</ele></trkpt>
<trkpt lon="-3.951950" lat="43.399752"><ele>30.0</ele></trkpt>
<trkpt lon="-3.951771" lat="43.399682"><ele>29.25</ele></trkpt>
<trkpt lon="-3.951670" lat="43.399635"><ele>29.0</ele></trkpt>
<trkpt lon="-3.951561" lat="43.399573"><ele>29.0</ele></trkpt>
<trkpt lon="-3.951530" lat="43.399552"><ele>29.0</ele></trkpt>
<trkpt lon="-3.951487" lat="43.399478"><ele>29.0</ele></trkpt>
<trkpt lon="-3.951390" lat="43.399369"><ele>28.0</ele></trkpt>
<trkpt lon="-3.951310" lat="43.399245"><ele>26.25</ele></trkpt>
<trkpt lon="-3.951531" lat="43.399255"><ele>27.25</ele></trkpt>
<trkpt lon="-3.951730" lat="43.399234"><ele>27.5</ele></trkpt>
<trkpt lon="-3.952010" lat="43.399172"><ele>28.75</ele></trkpt>
<trkpt lon="-3.952088" lat="43.399133"><ele>29.75</ele></trkpt>
<trkpt lon="-3.952380" lat="43.398814"><ele>30.25</ele></trkpt>
<trkpt lon="-3.952665" lat="43.398581"><ele>31.5</ele></trkpt>
<trkpt lon="-3.952874" lat="43.398467"><ele>32.75</ele></trkpt>
<trkpt lon="-3.952962" lat="43.398424"><ele>33.0</ele></trkpt>
<trkpt lon="-3.952998" lat="43.398374"><ele>33.0</ele></trkpt>
<trkpt lon="-3.953078" lat="43.398234"><ele>32.5</ele></trkpt>
<trkpt lon="-3.953112" lat="43.398108"><ele>32.25</ele></trkpt>
<trkpt lon="-3.953109" lat="43.398030"><ele>31.5</ele></trkpt>
<trkpt lon="-3.953118" lat="43.397960"><ele>31.5</ele></trkpt>
<trkpt lon="-3.953157" lat="43.397839"><ele>31.0</ele></trkpt>
<trkpt lon="-3.953210" lat="43.397768"><ele>30.25</ele></trkpt>
<trkpt lon="-3.953462" lat="43.397477"><ele>29.25</ele></trkpt>
<trkpt lon="-3.953638" lat="43.397259"><ele>30.0</ele></trkpt>
<trkpt lon="-3.953670" lat="43.397193"><ele>30.5</ele></trkpt>
<trkpt lon="-3.953670" lat="43.397140"><ele>30.5</ele></trkpt>
<trkpt lon="-3.953653" lat="43.397107"><ele>30.5</ele></trkpt>
<trkpt lon="-3.953626" lat="43.397077"><ele>30.5</ele></trkpt>
<trkpt lon="-3.953808" lat="43.397044"><ele>32.0</ele></trkpt>
<trkpt lon="-3.953991" lat="43.397044"><ele>34.0</ele></trkpt>
<trkpt lon="-3.954353" lat="43.397128"><ele>37.0</ele></trkpt>
<trkpt lon="-3.954557" lat="43.397158"><ele>38.25</ele></trkpt>
<trkpt lon="-3.954647" lat="43.397148"><ele>39.0</ele></trkpt>
<trkpt lon="-3.954744" lat="43.397120"><ele>40.25</ele></trkpt>
<trkpt lon="-3.955068" lat="43.397002"><ele>42.75</ele></trkpt>
<trkpt lon="-3.955144" lat="43.396970"><ele>43.5</ele></trkpt>
<trkpt lon="-3.955184" lat="43.396911"><ele>44.5</ele></trkpt>
<trkpt lon="-3.955197" lat="43.396749"><ele>48.0</ele></trkpt>
<trkpt lon="-3.955238" lat="43.396631"><ele>50.5</ele></trkpt>
<trkpt lon="-3.955280" lat="43.396558"><ele>51.5</ele></trkpt>
<trkpt lon="-3.955287" lat="43.396432"><ele>53.25</ele></trkpt>
<trkpt lon="-3.955277" lat="43.396341"><ele>55.5</ele></trkpt>
<trkpt lon="-3.955292" lat="43.396280"><ele>57.5</ele></trkpt>
<trkpt lon="-3.955356" lat="43.396225"><ele>59.5</ele></trkpt>
<trkpt lon="-3.955620" lat="43.396095"><ele>63.75</ele></trkpt>
<trkpt lon="-3.955760" lat="43.396035"><ele>66.0</ele></trkpt>
<trkpt lon="-3.955899" lat="43.396003"><ele>68.25</ele></trkpt>
<trkpt lon="-3.956002" lat="43.396017"><ele>69.25</ele></trkpt>
<trkpt lon="-3.956171" lat="43.396067"><ele>71.0</ele></trkpt>
<trkpt lon="-3.956316" lat="43.396085"><ele>73.25</ele></trkpt>
<trkpt lon="-3.956607" lat="43.396104"><ele>77.25</ele></trkpt>
<trkpt lon="-3.956781" lat="43.396086"><ele>78.25</ele></trkpt>
<trkpt lon="-3.956859" lat="43.396054"><ele>78.75</ele></trkpt>
<trkpt lon="-3.956938" lat="43.395987"><ele>80.0</ele></trkpt>
<trkpt lon="-3.957109" lat="43.395748"><ele>86.5</ele></trkpt>
<trkpt lon="-3.957332" lat="43.395549"><ele>92.75</ele></trkpt>
<trkpt lon="-3.957403" lat="43.395496"><ele>93.0</ele></trkpt>
<trkpt lon="-3.957572" lat="43.395424"><ele>93.25</ele></trkpt>
<trkpt lon="-3.958214" lat="43.395259"><ele>94.0</ele></trkpt>
<trkpt lon="-3.958314" lat="43.395245"><ele>94.25</ele></trkpt>
<trkpt lon="-3.958471" lat="43.395268"><ele>96.25</ele></trkpt>
<trkpt lon="-3.958804" lat="43.395341"><ele>99.5</ele></trkpt>
<trkpt lon="-3.958985" lat="43.395399"><ele>101.0</ele></trkpt>
<trkpt lon="-3.959142" lat="43.395476"><ele>101.75</ele></trkpt>
<trkpt lon="-3.959433" lat="43.395592"><ele>103.0</ele></trkpt>
<trkpt lon="-3.959571" lat="43.395629"><ele>104.25</ele></trkpt>
<trkpt lon="-3.959764" lat="43.395693"><ele>106.0</ele></trkpt>
<trkpt lon="-3.959987" lat="43.395736"><ele>107.5</ele></trkpt>
<trkpt lon="-3.960134" lat="43.395745"><ele>108.25</ele></trkpt>
<trkpt lon="-3.960354" lat="43.395736"><ele>110.0</ele></trkpt>
<trkpt lon="-3.960619" lat="43.395708"><ele>113.25</ele></trkpt>
<trkpt lon="-3.960712" lat="43.395711"><ele>114.5</ele></trkpt>
<trkpt lon="-3.960896" lat="43.395733"><ele>116.75</ele></trkpt>
<trkpt lon="-3.961145" lat="43.395729"><ele>119.25</ele></trkpt>
<trkpt lon="-3.961231" lat="43.395713"><ele>120.75</ele></trkpt>
<trkpt lon="-3.961381" lat="43.395665"><ele>124.0</ele></trkpt>
<trkpt lon="-3.961559" lat="43.395565"><ele>127.75</ele></trkpt>
<trkpt lon="-3.961674" lat="43.395478"><ele>130.25</ele></trkpt>
<trkpt lon="-3.961775" lat="43.395412"><ele>132.5</ele></trkpt>
<trkpt lon="-3.961907" lat="43.395355"><ele>135.5</ele></trkpt>
<trkpt lon="-3.962074" lat="43.395313"><ele>137.25</ele></trkpt>
<trkpt lon="-3.962395" lat="43.395268"><ele>138.5</ele></trkpt>
<trkpt lon="-3.963036" lat="43.395209"><ele>143.5</ele></trkpt>
<trkpt lon="-3.963230" lat="43.395217"><ele>144.5</ele></trkpt>
<trkpt lon="-3.963367" lat="43.395261"><ele>145.25</ele></trkpt>
<trkpt lon="-3.963550" lat="43.395341"><ele>147.0</ele></trkpt>
<trkpt lon="-3.963776" lat="43.395423"><ele>149.75</ele></trkpt>
<trkpt lon="-3.964021" lat="43.395491"><ele>152.0</ele></trkpt>
<trkpt lon="-3.964190" lat="43.395523"><ele>153.5</ele></trkpt>
<trkpt lon="-3.964329" lat="43.395542"><ele>154.75</ele></trkpt>
<trkpt lon="-3.964706" lat="43.395558"><ele>156.75</ele></trkpt>
<trkpt lon="-3.964890" lat="43.395551"><ele>157.0</ele></trkpt>
<trkpt lon="-3.965054" lat="43.395537"><ele>156.75</ele></trkpt>
<trkpt lon="-3.965742" lat="43.395462"><ele>154.5</ele></trkpt>
<trkpt lon="-3.965951" lat="43.395428"><ele>153.25</ele></trkpt>
<trkpt lon="-3.966098" lat="43.395428"><ele>151.75</ele></trkpt>
<trkpt lon="-3.966267" lat="43.395414"><ele>151.25</ele></trkpt>
<trkpt lon="-3.966756" lat="43.395323"><ele>149.75</ele></trkpt>
<trkpt lon="-3.967131" lat="43.395277"><ele>148.25</ele></trkpt>
<trkpt lon="-3.967258" lat="43.395252"><ele>147.75</ele></trkpt>
<trkpt lon="-3.967579" lat="43.395137"><ele>145.5</ele></trkpt>
<trkpt lon="-3.967900" lat="43.394989"><ele>143.0</ele></trkpt>
<trkpt lon="-3.967978" lat="43.394946"><ele>142.25</ele></trkpt>
<trkpt lon="-3.968089" lat="43.394864"><ele>141.25</ele></trkpt>
<trkpt lon="-3.968365" lat="43.394587"><ele>139.75</ele></trkpt>
<trkpt lon="-3.968490" lat="43.394480"><ele>138.75</ele></trkpt>
<trkpt lon="-3.968674" lat="43.394387"><ele>138.0</ele></trkpt>
<trkpt lon="-3.968811" lat="43.394334"><ele>137.75</ele></trkpt>
<trkpt lon="-3.968963" lat="43.394247"><ele>137.5</ele></trkpt>
<trkpt lon="-3.969105" lat="43.394181"><ele>136.5</ele></trkpt>
<trkpt lon="-3.969411" lat="43.394094"><ele>136.25</ele></trkpt>
<trkpt lon="-3.969840" lat="43.393985"><ele>136.75</ele></trkpt>
<trkpt lon="-3.970085" lat="43.393951"><ele>136.75</ele></trkpt>
<trkpt lon="-3.970361" lat="43.393889"><ele>136.5</ele></trkpt>
<trkpt lon="-3.970668" lat="43.393802"><ele>136.25</ele></trkpt>
<trkpt lon="-3.971314" lat="43.393597"><ele>140.0</ele></trkpt>
<trkpt lon="-3.971896" lat="43.393420"><ele>140.0</ele></trkpt>
<trkpt lon="-3.972242" lat="43.393311"><ele>143.0</ele></trkpt>
<trkpt lon="-3.972465" lat="43.393250"><ele>144.0</ele></trkpt>
<trkpt lon="-3.972695" lat="43.393165"><ele>144.5</ele></trkpt>
<trkpt lon="-3.972857" lat="43.393095"><ele>145.75</ele></trkpt>
<trkpt lon="-3.973070" lat="43.392958"><ele>148.0</ele></trkpt>
<trkpt lon="-3.973200" lat="43.392896"><ele>149.5</ele></trkpt>
<trkpt lon="-3.973670" lat="43.392641"><ele>154.5</ele></trkpt>
<trkpt lon="-3.974050" lat="43.392410"><ele>157.5</ele></trkpt>
<trkpt lon="-3.974837" lat="43.392086"><ele>156.75</ele></trkpt>
<trkpt lon="-3.975093" lat="43.391940"><ele>159.25</ele></trkpt>
<trkpt lon="-3.975235" lat="43.391874"><ele>160.5</ele></trkpt>
<trkpt lon="-3.975405" lat="43.391819"><ele>162.25</ele></trkpt>
<trkpt lon="-3.975623" lat="43.391769"><ele>163.25</ele></trkpt>
<trkpt lon="-3.975763" lat="43.391718"><ele>163.5</ele></trkpt>
<trkpt lon="-3.975858" lat="43.391671"><ele>163.75</ele></trkpt>
<trkpt lon="-3.975946" lat="43.391617"><ele>164.0</ele></trkpt>
<trkpt lon="-3.976234" lat="43.391412"><ele>164.75</ele></trkpt>
<trkpt lon="-3.976416" lat="43.391304"><ele>165.25</ele></trkpt>
<trkpt lon="-3.976591" lat="43.391217"><ele>166.0</ele></trkpt>
<trkpt lon="-3.976762" lat="43.391106"><ele>167.25</ele></trkpt>
<trkpt lon="-3.976949" lat="43.390963"><ele>168.0</ele></trkpt>
<trkpt lon="-3.977410" lat="43.390513"><ele>171.75</ele></trkpt>
<trkpt lon="-3.977623" lat="43.390323"><ele>173.25</ele></trkpt>
<trkpt lon="-3.977711" lat="43.390268"><ele>174.0</ele></trkpt>
<trkpt lon="-3.977792" lat="43.390240"><ele>174.75</ele></trkpt>
<trkpt lon="-3.977905" lat="43.390228"><ele>175.5</ele></trkpt>
<trkpt lon="-3.978042" lat="43.390223"><ele>176.5</ele></trkpt>
<trkpt lon="-3.978035" lat="43.390157"><ele>176.25</ele></trkpt>
<trkpt lon="-3.978204" lat="43.389911"><ele>178.0</ele></trkpt>
<trkpt lon="-3.978390" lat="43.389797"><ele>179.75</ele></trkpt>
<trkpt lon="-3.978566" lat="43.389671"><ele>180.75</ele></trkpt>
<trkpt lon="-3.979092" lat="43.389473"><ele>185.25</ele></trkpt>
<trkpt lon="-3.979508" lat="43.389229"><ele>183.25</ele></trkpt>
<trkpt lon="-3.979976" lat="43.388917"><ele>179.5</ele></trkpt>
<trkpt lon="-3.980110" lat="43.388894"><ele>177.75</ele></trkpt>
<trkpt lon="-3.980453" lat="43.388884"><ele>174.5</ele></trkpt>
<trkpt lon="-3.980901" lat="43.388915"><ele>172.0</ele></trkpt>
<trkpt lon="-3.981366" lat="43.388956"><ele>169.0</ele></trkpt>
<trkpt lon="-3.981696" lat="43.389110"><ele>169.0</ele></trkpt>
<trkpt lon="-3.981872" lat="43.389268"><ele>168.25</ele></trkpt>
<trkpt lon="-3.981987" lat="43.389285"><ele>167.0</ele></trkpt>
<trkpt lon="-3.982201" lat="43.389204"><ele>165.25</ele></trkpt>
<trkpt lon="-3.982829" lat="43.389181"><ele>157.0</ele></trkpt>
<trkpt lon="-3.983027" lat="43.389167"><ele>154.25</ele></trkpt>
<trkpt lon="-3.983572" lat="43.388995"><ele>148.5</ele></trkpt>
<trkpt lon="-3.983866" lat="43.388850"><ele>146.5</ele></trkpt>
<trkpt lon="-3.984103" lat="43.388715"><ele>146.75</ele></trkpt>
<trkpt lon="-3.984795" lat="43.388576"><ele>145.0</ele></trkpt>
<trkpt lon="-3.984949" lat="43.388473"><ele>144.75</ele></trkpt>
<trkpt lon="-3.985583" lat="43.388296"><ele>144.0</ele></trkpt>
<trkpt lon="-3.986314" lat="43.387468"><ele>133.0</ele></trkpt>
<trkpt lon="-3.987441" lat="43.386225"><ele>108.75</ele></trkpt>
<trkpt lon="-3.987582" lat="43.386026"><ele>106.75</ele></trkpt>
<trkpt lon="-3.987837" lat="43.386070"><ele>107.0</ele></trkpt>
<trkpt lon="-3.988189" lat="43.385977"><ele>104.75</ele></trkpt>
<trkpt lon="-3.988365" lat="43.385924"><ele>103.5</ele></trkpt>
<trkpt lon="-3.988548" lat="43.385895"><ele>102.25</ele></trkpt>
<trkpt lon="-3.988657" lat="43.385891"><ele>101.25</ele></trkpt>
<trkpt lon="-3.988765" lat="43.385895"><ele>100.5</ele></trkpt>
<trkpt lon="-3.989033" lat="43.385925"><ele>97.5</ele></trkpt>
<trkpt lon="-3.989119" lat="43.385926"><ele>96.25</ele></trkpt>
<trkpt lon="-3.989353" lat="43.385855"><ele>93.0</ele></trkpt>
<trkpt lon="-3.989544" lat="43.385812"><ele>91.0</ele></trkpt>
<trkpt lon="-3.989655" lat="43.385798"><ele>90.0</ele></trkpt>
<trkpt lon="-3.990014" lat="43.385776"><ele>85.0</ele></trkpt>
<trkpt lon="-3.990347" lat="43.385704"><ele>80.75</ele></trkpt>
<trkpt lon="-3.990387" lat="43.385708"><ele>80.25</ele></trkpt>
<trkpt lon="-3.990414" lat="43.385730"><ele>79.5</ele></trkpt>
<trkpt lon="-3.990465" lat="43.385868"><ele>76.75</ele></trkpt>
<trkpt lon="-3.990518" lat="43.385991"><ele>73.0</ele></trkpt>
<trkpt lon="-3.990582" lat="43.386042"><ele>71.25</ele></trkpt>
<trkpt lon="-3.990623" lat="43.386057"><ele>70.75</ele></trkpt>
<trkpt lon="-3.991123" lat="43.386058"><ele>66.5</ele></trkpt>
<trkpt lon="-3.991370" lat="43.386121"><ele>61.75</ele></trkpt>
<trkpt lon="-3.991441" lat="43.386132"><ele>60.75</ele></trkpt>
<trkpt lon="-3.991595" lat="43.386130"><ele>59.0</ele></trkpt>
<trkpt lon="-3.991774" lat="43.386096"><ele>57.75</ele></trkpt>
<trkpt lon="-3.991991" lat="43.386015"><ele>56.5</ele></trkpt>
<trkpt lon="-3.992245" lat="43.385954"><ele>53.25</ele></trkpt>
<trkpt lon="-3.992358" lat="43.385908"><ele>52.0</ele></trkpt>
<trkpt lon="-3.992430" lat="43.385890"><ele>51.0</ele></trkpt>
<trkpt lon="-3.992511" lat="43.385890"><ele>49.5</ele></trkpt>
<trkpt lon="-3.992901" lat="43.385948"><ele>45.0</ele></trkpt>
<trkpt lon="-3.993117" lat="43.385966"><ele>43.25</ele></trkpt>
<trkpt lon="-3.993385" lat="43.385976"><ele>39.75</ele></trkpt>
<trkpt lon="-3.993459" lat="43.385966"><ele>39.25</ele></trkpt>
<trkpt lon="-3.993551" lat="43.385938"><ele>39.0</ele></trkpt>
<trkpt lon="-3.993756" lat="43.385848"><ele>39.25</ele></trkpt>
<trkpt lon="-3.994029" lat="43.385920"><ele>36.5</ele></trkpt>
<trkpt lon="-3.994187" lat="43.385951"><ele>35.0</ele></trkpt>
<trkpt lon="-3.994347" lat="43.386011"><ele>33.75</ele></trkpt>
<trkpt lon="-3.994503" lat="43.386104"><ele>31.75</ele></trkpt>
<trkpt lon="-3.994660" lat="43.386220"><ele>30.25</ele></trkpt>
<trkpt lon="-3.995302" lat="43.386614"><ele>26.0</ele></trkpt>
<trkpt lon="-3.995415" lat="43.386725"><ele>26.0</ele></trkpt>
<trkpt lon="-3.995511" lat="43.386907"><ele>25.0</ele></trkpt>
<trkpt lon="-3.995606" lat="43.387038"><ele>24.75</ele></trkpt>
<trkpt lon="-3.995789" lat="43.387230"><ele>23.25</ele></trkpt>
<trkpt lon="-3.995875" lat="43.387304"><ele>23.0</ele></trkpt>
<trkpt lon="-3.995931" lat="43.387321"><ele>22.5</ele></trkpt>
<trkpt lon="-3.995983" lat="43.387329"><ele>22.0</ele></trkpt>
<trkpt lon="-3.996089" lat="43.387331"><ele>20.75</ele></trkpt>
<trkpt lon="-3.996078" lat="43.387399"><ele>20.75</ele></trkpt>
<trkpt lon="-3.996167" lat="43.387716"><ele>19.5</ele></trkpt>
<trkpt lon="-3.996292" lat="43.388069"><ele>17.75</ele></trkpt>
<trkpt lon="-3.996330" lat="43.388228"><ele>16.75</ele></trkpt>
<trkpt lon="-3.996387" lat="43.388614"><ele>15.0</ele></trkpt>
<trkpt lon="-3.996454" lat="43.388927"><ele>15.0</ele></trkpt>
<trkpt lon="-3.996452" lat="43.388986"><ele>15.0</ele></trkpt>
<trkpt lon="-3.996999" lat="43.389041"><ele>15.0</ele></trkpt>
<trkpt lon="-3.997034" lat="43.389044"><ele>15.25</ele></trkpt>
<trkpt lon="-3.997167" lat="43.389083"><ele>15.25</ele></trkpt>
<trkpt lon="-3.997379" lat="43.389145"><ele>16.25</ele></trkpt>
<trkpt lon="-3.997520" lat="43.389172"><ele>17.0</ele></trkpt>
<trkpt lon="-3.997793" lat="43.389167"><ele>18.0</ele></trkpt>
<trkpt lon="-3.997908" lat="43.389178"><ele>18.75</ele></trkpt>
<trkpt lon="-3.998009" lat="43.389206"><ele>19.5</ele></trkpt>
<trkpt lon="-3.998132" lat="43.389257"><ele>20.75</ele></trkpt>
<trkpt lon="-3.998653" lat="43.389517"><ele>24.5</ele></trkpt>
<trkpt lon="-3.998856" lat="43.389610"><ele>25.25</ele></trkpt>
<trkpt lon="-3.999063" lat="43.389693"><ele>26.25</ele></trkpt>
<trkpt lon="-3.999166" lat="43.389722"><ele>26.75</ele></trkpt>
<trkpt lon="-3.999253" lat="43.389762"><ele>28.0</ele></trkpt>
<trkpt lon="-3.999386" lat="43.389878"><ele>29.5</ele></trkpt>
<trkpt lon="-3.999494" lat="43.389940"><ele>30.5</ele></trkpt>
<trkpt lon="-3.999648" lat="43.389976"><ele>31.5</ele></trkpt>
<trkpt lon="-3.999739" lat="43.389974"><ele>32.25</ele></trkpt>
<trkpt lon="-3.999884" lat="43.389953"><ele>33.5</ele></trkpt>
<trkpt lon="-4.000092" lat="43.389872"><ele>35.25</ele></trkpt>
<trkpt lon="-4.000244" lat="43.389797"><ele>36.5</ele></trkpt>
<trkpt lon="-4.000336" lat="43.389765"><ele>37.25</ele></trkpt>
<trkpt lon="-4.000407" lat="43.389755"><ele>37.5</ele></trkpt>
<trkpt lon="-4.000481" lat="43.389758"><ele>37.5</ele></trkpt>
<trkpt lon="-4.000580" lat="43.389787"><ele>37.5</ele></trkpt>
<trkpt lon="-4.000663" lat="43.389844"><ele>37.75</ele></trkpt>
<trkpt lon="-4.000729" lat="43.389919"><ele>38.0</ele></trkpt>
<trkpt lon="-4.000817" lat="43.390088"><ele>37.75</ele></trkpt>
<trkpt lon="-4.000865" lat="43.390145"><ele>37.75</ele></trkpt>
<trkpt lon="-4.000963" lat="43.390220"><ele>38.0</ele></trkpt>
<trkpt lon="-4.001310" lat="43.390439"><ele>40.25</ele></trkpt>
<trkpt lon="-4.001562" lat="43.390542"><ele>41.75</ele></trkpt>
<trkpt lon="-4.001919" lat="43.390662"><ele>45.25</ele></trkpt>
<trkpt lon="-4.002262" lat="43.390796"><ele>48.75</ele></trkpt>
<trkpt lon="-4.002763" lat="43.390978"><ele>51.75</ele></trkpt>
<trkpt lon="-4.002715" lat="43.391152"><ele>52.25</ele></trkpt>
<trkpt lon="-4.002826" lat="43.391444"><ele>51.5</ele></trkpt>
<trkpt lon="-4.002978" lat="43.391681"><ele>49.0</ele></trkpt>
<trkpt lon="-4.003035" lat="43.391738"><ele>48.0</ele></trkpt>
<trkpt lon="-4.003075" lat="43.391777"><ele>47.5</ele></trkpt>
<trkpt lon="-4.003437" lat="43.391846"><ele>46.0</ele></trkpt>
<trkpt lon="-4.003725" lat="43.391892"><ele>45.0</ele></trkpt>
<trkpt lon="-4.004503" lat="43.391930"><ele>43.75</ele></trkpt>
<trkpt lon="-4.004624" lat="43.391928"><ele>43.5</ele></trkpt>
<trkpt lon="-4.004824" lat="43.391926"><ele>42.75</ele></trkpt>
<trkpt lon="-4.005088" lat="43.391675"><ele>46.5</ele></trkpt>
<trkpt lon="-4.005228" lat="43.391529"><ele>47.5</ele></trkpt>
<trkpt lon="-4.005309" lat="43.391422"><ele>48.25</ele></trkpt>
<trkpt lon="-4.005366" lat="43.391286"><ele>50.0</ele></trkpt>
<trkpt lon="-4.005424" lat="43.391107"><ele>52.75</ele></trkpt>
<trkpt lon="-4.005533" lat="43.390879"><ele>53.25</ele></trkpt>
<trkpt lon="-4.005992" lat="43.390175"><ele>58.75</ele></trkpt>
<trkpt lon="-4.006199" lat="43.389903"><ele>60.0</ele></trkpt>
<trkpt lon="-4.006416" lat="43.389670"><ele>60.25</ele></trkpt>
<trkpt lon="-4.006536" lat="43.389453"><ele>61.25</ele></trkpt>
<trkpt lon="-4.006728" lat="43.389066"><ele>60.25</ele></trkpt>
<trkpt lon="-4.006845" lat="43.388759"><ele>60.25</ele></trkpt>
<trkpt lon="-4.006931" lat="43.388649"><ele>60.5</ele></trkpt>
<trkpt lon="-4.007054" lat="43.388521"><ele>62.0</ele></trkpt>
<trkpt lon="-4.007567" lat="43.388121"><ele>64.0</ele></trkpt>
<trkpt lon="-4.007800" lat="43.387972"><ele>65.0</ele></trkpt>
<trkpt lon="-4.007996" lat="43.387866"><ele>65.0</ele></trkpt>
<trkpt lon="-4.008201" lat="43.387781"><ele>63.75</ele></trkpt>
<trkpt lon="-4.008333" lat="43.387718"><ele>63.75</ele></trkpt>
<trkpt lon="-4.008808" lat="43.387381"><ele>63.75</ele></trkpt>
<trkpt lon="-4.009017" lat="43.387284"><ele>63.5</ele></trkpt>
<trkpt lon="-4.009627" lat="43.387122"><ele>62.75</ele></trkpt>
<trkpt lon="-4.009976" lat="43.387084"><ele>62.0</ele></trkpt>
<trkpt lon="-4.010409" lat="43.387006"><ele>59.5</ele></trkpt>
<trkpt lon="-4.010901" lat="43.386914"><ele>58.75</ele></trkpt>
<trkpt lon="-4.011209" lat="43.386848"><ele>57.25</ele></trkpt>
<trkpt lon="-4.011420" lat="43.386784"><ele>55.75</ele></trkpt>
<trkpt lon="-4.011523" lat="43.386734"><ele>55.25</ele></trkpt>
<trkpt lon="-4.011600" lat="43.386674"><ele>55.0</ele></trkpt>
<trkpt lon="-4.011701" lat="43.386581"><ele>54.25</ele></trkpt>
<trkpt lon="-4.011818" lat="43.386513"><ele>53.25</ele></trkpt>
<trkpt lon="-4.012302" lat="43.386412"><ele>49.0</ele></trkpt>
<trkpt lon="-4.012513" lat="43.385683"><ele>41.75</ele></trkpt>
<trkpt lon="-4.012607" lat="43.385547"><ele>40.0</ele></trkpt>
<trkpt lon="-4.012760" lat="43.385419"><ele>39.0</ele></trkpt>
<trkpt lon="-4.012835" lat="43.385365"><ele>38.75</ele></trkpt>
<trkpt lon="-4.012915" lat="43.385284"><ele>38.5</ele></trkpt>
<trkpt lon="-4.012914" lat="43.385251"><ele>38.5</ele></trkpt>
<trkpt lon="-4.012926" lat="43.385229"><ele>38.5</ele></trkpt>
<trkpt lon="-4.012947" lat="43.385212"><ele>38.75</ele></trkpt>
<trkpt lon="-4.012980" lat="43.385198"><ele>38.75</ele></trkpt>
<trkpt lon="-4.013040" lat="43.385197"><ele>38.5</ele></trkpt>
<trkpt lon="-4.013065" lat="43.385172"><ele>38.75</ele></trkpt>
<trkpt lon="-4.013146" lat="43.385148"><ele>39.75</ele></trkpt>
<trkpt lon="-4.013336" lat="43.384996"><ele>41.0</ele></trkpt>
<trkpt lon="-4.013436" lat="43.384947"><ele>42.0</ele></trkpt>
<trkpt lon="-4.013578" lat="43.384906"><ele>43.25</ele></trkpt>
<trkpt lon="-4.013724" lat="43.384877"><ele>45.25</ele></trkpt>
<trkpt lon="-4.014085" lat="43.384797"><ele>47.5</ele></trkpt>
<trkpt lon="-4.014481" lat="43.384775"><ele>48.0</ele></trkpt>
<trkpt lon="-4.014833" lat="43.384715"><ele>48.25</ele></trkpt>
<trkpt lon="-4.015001" lat="43.384661"><ele>48.25</ele></trkpt>
<trkpt lon="-4.015230" lat="43.384684"><ele>49.25</ele></trkpt>
<trkpt lon="-4.015306" lat="43.384696"><ele>49.5</ele></trkpt>
<trkpt lon="-4.015705" lat="43.384817"><ele>50.75</ele></trkpt>
<trkpt lon="-4.015912" lat="43.384874"><ele>50.75</ele></trkpt>
<trkpt lon="-4.016050" lat="43.384918"><ele>50.75</ele></trkpt>
<trkpt lon="-4.016119" lat="43.384943"><ele>50.75</ele></trkpt>
<trkpt lon="-4.016197" lat="43.384986"><ele>50.5</ele></trkpt>
<trkpt lon="-4.016262" lat="43.384952"><ele>50.25</ele></trkpt>
<trkpt lon="-4.016602" lat="43.384906"><ele>49.75</ele></trkpt>
<trkpt lon="-4.017233" lat="43.384822"><ele>49.25</ele></trkpt>
<trkpt lon="-4.017530" lat="43.384783"><ele>49.75</ele></trkpt>
<trkpt lon="-4.017682" lat="43.384781"><ele>49.25</ele></trkpt>
<trkpt lon="-4.017890" lat="43.384970"><ele>50.25</ele></trkpt>
<trkpt lon="-4.017990" lat="43.384779"><ele>49.75</ele></trkpt>
<trkpt lon="-4.018492" lat="43.384781"><ele>49.25</ele></trkpt>
<trkpt lon="-4.018641" lat="43.384766"><ele>49.25</ele></trkpt>
<trkpt lon="-4.019202" lat="43.384656"><ele>49.5</ele></trkpt>
<trkpt lon="-4.019578" lat="43.384572"><ele>49.75</ele></trkpt>
<trkpt lon="-4.019660" lat="43.384511"><ele>49.75</ele></trkpt>
<trkpt lon="-4.019701" lat="43.384487"><ele>50.0</ele></trkpt>
<trkpt lon="-4.019705" lat="43.384458"><ele>49.75</ele></trkpt>
<trkpt lon="-4.019722" lat="43.384432"><ele>49.75</ele></trkpt>
<trkpt lon="-4.019750" lat="43.384411"><ele>49.75</ele></trkpt>
<trkpt lon="-4.019758" lat="43.384363"><ele>49.5</ele></trkpt>
<trkpt lon="-4.019786" lat="43.384179"><ele>48.25</ele></trkpt>
<trkpt lon="-4.019855" lat="43.384185"><ele>48.5</ele></trkpt>
<trkpt lon="-4.019899" lat="43.384001"><ele>46.25</ele></trkpt>
<trkpt lon="-4.019961" lat="43.383853"><ele>45.0</ele></trkpt>
<trkpt lon="-4.020103" lat="43.383685"><ele>42.75</ele></trkpt>
<trkpt lon="-4.020360" lat="43.383416"><ele>39.0</ele></trkpt>
<trkpt lon="-4.023436" lat="43.380455"><ele>34.25</ele></trkpt>
<trkpt lon="-4.023625" lat="43.380248"><ele>33.75</ele></trkpt>
<trkpt lon="-4.023804" lat="43.380013"><ele>32.75</ele></trkpt>
<trkpt lon="-4.023871" lat="43.380035"><ele>33.25</ele></trkpt>
<trkpt lon="-4.024019" lat="43.380069"><ele>34.75</ele></trkpt>
<trkpt lon="-4.024260" lat="43.380081"><ele>36.75</ele></trkpt>
<trkpt lon="-4.024459" lat="43.380073"><ele>38.0</ele></trkpt>
<trkpt lon="-4.024635" lat="43.380044"><ele>38.5</ele></trkpt>
<trkpt lon="-4.024762" lat="43.380014"><ele>38.5</ele></trkpt>
<trkpt lon="-4.025068" lat="43.379907"><ele>39.75</ele></trkpt>
<trkpt lon="-4.025129" lat="43.379897"><ele>40.0</ele></trkpt>
<trkpt lon="-4.025196" lat="43.379774"><ele>38.75</ele></trkpt>
<trkpt lon="-4.025301" lat="43.379663"><ele>37.25</ele></trkpt>
<trkpt lon="-4.025320" lat="43.379532"><ele>35.75</ele></trkpt>
<trkpt lon="-4.025322" lat="43.379296"><ele>33.25</ele></trkpt>
<trkpt lon="-4.025336" lat="43.379246"><ele>32.5</ele></trkpt>
<trkpt lon="-4.025360" lat="43.379201"><ele>32.0</ele></trkpt>
<trkpt lon="-4.025505" lat="43.379138"><ele>30.75</ele></trkpt>
<trkpt lon="-4.025781" lat="43.379000"><ele>27.75</ele></trkpt>
<trkpt lon="-4.026315" lat="43.378756"><ele>20.0</ele></trkpt>
<trkpt lon="-4.026615" lat="43.378583"><ele>15.0</ele></trkpt>
<trkpt lon="-4.026773" lat="43.378505"><ele>13.75</ele></trkpt>
<trkpt lon="-4.026902" lat="43.378450"><ele>12.75</ele></trkpt>
<trkpt lon="-4.027355" lat="43.378355"><ele>11.5</ele></trkpt>
<trkpt lon="-4.027477" lat="43.378312"><ele>11.0</ele></trkpt>
<trkpt lon="-4.027666" lat="43.378349"><ele>10.75</ele></trkpt>
<trkpt lon="-4.028116" lat="43.378087"><ele>10.75</ele></trkpt>
<trkpt lon="-4.028495" lat="43.377740"><ele>11.25</ele></trkpt>
<trkpt lon="-4.028552" lat="43.377704"><ele>11.25</ele></trkpt>
<trkpt lon="-4.029024" lat="43.377409"><ele>9.75</ele></trkpt>
<trkpt lon="-4.029249" lat="43.377249"><ele>9.75</ele></trkpt>
<trkpt lon="-4.029988" lat="43.377035"><ele>11.0</ele></trkpt>
<trkpt lon="-4.030047" lat="43.377079"><ele>10.75</ele></trkpt>
<trkpt lon="-4.030210" lat="43.377151"><ele>10.25</ele></trkpt>
<trkpt lon="-4.030403" lat="43.377187"><ele>10.0</ele></trkpt>
<trkpt lon="-4.030486" lat="43.377219"><ele>10.0</ele></trkpt>
<trkpt lon="-4.030570" lat="43.377167"><ele>10.0</ele></trkpt>
<trkpt lon="-4.030646" lat="43.377155"><ele>10.0</ele></trkpt>
<trkpt lon="-4.031000" lat="43.377158"><ele>10.5</ele></trkpt>
<trkpt lon="-4.031288" lat="43.377147"><ele>11.0</ele></trkpt>
<trkpt lon="-4.031643" lat="43.377105"><ele>10.25</ele></trkpt>
<trkpt lon="-4.032312" lat="43.376979"><ele>10.5</ele></trkpt>
<trkpt lon="-4.032532" lat="43.376907"><ele>9.75</ele></trkpt>
<trkpt lon="-4.032656" lat="43.376830"><ele>9.5</ele></trkpt>
<trkpt lon="-4.032595" lat="43.376533"><ele>10.75</ele></trkpt>
<trkpt lon="-4.032589" lat="43.376401"><ele>10.75</ele></trkpt>
<trkpt lon="-4.032689" lat="43.375731"><ele>11.5</ele></trkpt>
<trkpt lon="-4.032626" lat="43.375695"><ele>11.75</ele></trkpt>
<trkpt lon="-4.033143" lat="43.375083"><ele>12.5</ele></trkpt>
<trkpt lon="-4.033160" lat="43.375063"><ele>12.75</ele></trkpt>
<trkpt lon="-4.033418" lat="43.374769"><ele>13.75</ele></trkpt>
<trkpt lon="-4.033652" lat="43.374644"><ele>14.25</ele></trkpt>
<trkpt lon="-4.034035" lat="43.374480"><ele>13.75</ele></trkpt>
<trkpt lon="-4.034622" lat="43.374284"><ele>13.5</ele></trkpt>
<trkpt lon="-4.034882" lat="43.374208"><ele>13.0</ele></trkpt>
<trkpt lon="-4.035179" lat="43.374127"><ele>12.5</ele></trkpt>
<trkpt lon="-4.035317" lat="43.374083"><ele>12.5</ele></trkpt>
<trkpt lon="-4.035528" lat="43.374005"><ele>12.5</ele></trkpt>
<trkpt lon="-4.036055" lat="43.373773"><ele>12.5</ele></trkpt>
<trkpt lon="-4.036297" lat="43.373670"><ele>12.0</ele></trkpt>
<trkpt lon="-4.036453" lat="43.373586"><ele>11.75</ele></trkpt>
<trkpt lon="-4.036555" lat="43.373520"><ele>11.5</ele></trkpt>
<trkpt lon="-4.036711" lat="43.373402"><ele>11.75</ele></trkpt>
<trkpt lon="-4.036871" lat="43.373258"><ele>12.0</ele></trkpt>
<trkpt lon="-4.036900" lat="43.373218"><ele>12.0</ele></trkpt>
<trkpt lon="-4.036911" lat="43.373185"><ele>12.0</ele></trkpt>
<trkpt lon="-4.036927" lat="43.372940"><ele>12.75</ele></trkpt>
<trkpt lon="-4.037009" lat="43.372823"><ele>13.75</ele></trkpt>
<trkpt lon="-4.037486" lat="43.372870"><ele>12.75</ele></trkpt>
<trkpt lon="-4.037611" lat="43.372826"><ele>12.25</ele></trkpt>
<trkpt lon="-4.037729" lat="43.372766"><ele>12.25</ele></trkpt>
<trkpt lon="-4.037862" lat="43.372686"><ele>12.25</ele></trkpt>
<trkpt lon="-4.038275" lat="43.372327"><ele>12.75</ele></trkpt>
<trkpt lon="-4.038393" lat="43.372237"><ele>12.5</ele></trkpt>
<trkpt lon="-4.038915" lat="43.371871"><ele>13.25</ele></trkpt>
<trkpt lon="-4.039005" lat="43.371820"><ele>13.25</ele></trkpt>
<trkpt lon="-4.039297" lat="43.371703"><ele>13.25</ele></trkpt>
<trkpt lon="-4.039413" lat="43.371627"><ele>13.0</ele></trkpt>
<trkpt lon="-4.039644" lat="43.371423"><ele>12.0</ele></trkpt>
<trkpt lon="-4.040157" lat="43.370843"><ele>11.25</ele></trkpt>
<trkpt lon="-4.040203" lat="43.370867"><ele>11.0</ele></trkpt>
<trkpt lon="-4.040400" lat="43.370442"><ele>11.75</ele></trkpt>
<trkpt lon="-4.040474" lat="43.370262"><ele>12.25</ele></trkpt>
<trkpt lon="-4.040608" lat="43.369959"><ele>12.75</ele></trkpt>
<trkpt lon="-4.040617" lat="43.369937"><ele>13.0</ele></trkpt>
<trkpt lon="-4.040706" lat="43.369737"><ele>13.25</ele></trkpt>
<trkpt lon="-4.040929" lat="43.369734"><ele>12.75</ele></trkpt>
<trkpt lon="-4.041154" lat="43.369723"><ele>12.75</ele></trkpt>
<trkpt lon="-4.041520" lat="43.369662"><ele>12.25</ele></trkpt>
<trkpt lon="-4.041869" lat="43.369582"><ele>11.75</ele></trkpt>
<trkpt lon="-4.042136" lat="43.369510"><ele>11.0</ele></trkpt>
<trkpt lon="-4.042331" lat="43.369495"><ele>11.25</ele></trkpt>
<trkpt lon="-4.042514" lat="43.369490"><ele>11.75</ele></trkpt>
<trkpt lon="-4.042568" lat="43.369493"><ele>11.5</ele></trkpt>
<trkpt lon="-4.042634" lat="43.369515"><ele>11.25</ele></trkpt>
<trkpt lon="-4.042709" lat="43.369365"><ele>11.25</ele></trkpt>
<trkpt lon="-4.042742" lat="43.369294"><ele>11.5</ele></trkpt>
<trkpt lon="-4.042836" lat="43.369316"><ele>11.25</ele></trkpt>
<trkpt lon="-4.042909" lat="43.369296"><ele>11.25</ele></trkpt>
<trkpt lon="-4.043150" lat="43.369203"><ele>10.75</ele></trkpt>
<trkpt lon="-4.043330" lat="43.369148"><ele>11.0</ele></trkpt>
<trkpt lon="-4.043491" lat="43.369136"><ele>11.0</ele></trkpt>
<trkpt lon="-4.043723" lat="43.369130"><ele>11.0</ele></trkpt>
<trkpt lon="-4.043821" lat="43.369116"><ele>11.0</ele></trkpt>
<trkpt lon="-4.043898" lat="43.369099"><ele>11.0</ele></trkpt>
<trkpt lon="-4.043967" lat="43.369081"><ele>11.0</ele></trkpt>
<trkpt lon="-4.044145" lat="43.369023"><ele>11.0</ele></trkpt>
<trkpt lon="-4.044302" lat="43.369135"><ele>11.0</ele></trkpt>
<trkpt lon="-4.044577" lat="43.369281"><ele>10.0</ele></trkpt>
<trkpt lon="-4.044633" lat="43.369300"><ele>9.75</ele></trkpt>
<trkpt lon="-4.044731" lat="43.369115"><ele>9.25</ele></trkpt>
<trkpt lon="-4.044879" lat="43.369154"><ele>9.5</ele></trkpt>
<trkpt lon="-4.044742" lat="43.369405"><ele>9.75</ele></trkpt>
<trkpt lon="-4.044780" lat="43.369421"><ele>9.5</ele></trkpt>
<trkpt lon="-4.044813" lat="43.369431"><ele>9.5</ele></trkpt>
<trkpt lon="-4.044987" lat="43.369166"><ele>9.75</ele></trkpt>
<trkpt lon="-4.044970" lat="43.369088"><ele>9.75</ele></trkpt>
<trkpt lon="-4.045396" lat="43.368340"><ele>9.75</ele></trkpt>
<trkpt lon="-4.045760" lat="43.367722"><ele>10.25</ele></trkpt>
<trkpt lon="-4.045984" lat="43.367283"><ele>11.5</ele></trkpt>
<trkpt lon="-4.046211" lat="43.366795"><ele>11.0</ele></trkpt>
<trkpt lon="-4.046226" lat="43.366713"><ele>11.0</ele></trkpt>
<trkpt lon="-4.046234" lat="43.366594"><ele>11.0</ele></trkpt>
<trkpt lon="-4.046373" lat="43.366272"><ele>11.0</ele></trkpt>
<trkpt lon="-4.046406" lat="43.366089"><ele>11.0</ele></trkpt>
<trkpt lon="-4.046397" lat="43.365923"><ele>11.0</ele></trkpt>
<trkpt lon="-4.046422" lat="43.365749"><ele>11.0</ele></trkpt>
<trkpt lon="-4.046517" lat="43.365283"><ele>11.0</ele></trkpt>
<trkpt lon="-4.046550" lat="43.365090"><ele>11.25</ele></trkpt>
<trkpt lon="-4.046572" lat="43.364966"><ele>11.25</ele></trkpt>
<trkpt lon="-4.046727" lat="43.364350"><ele>11.25</ele></trkpt>
<trkpt lon="-4.046861" lat="43.364070"><ele>11.5</ele></trkpt>
<trkpt lon="-4.046946" lat="43.363966"><ele>12.0</ele></trkpt>
<trkpt lon="-4.047045" lat="43.363871"><ele>12.25</ele></trkpt>
<trkpt lon="-4.047122" lat="43.363811"><ele>12.5</ele></trkpt>
<trkpt lon="-4.047211" lat="43.363767"><ele>12.75</ele></trkpt>
<trkpt lon="-4.047307" lat="43.363616"><ele>12.75</ele></trkpt>
<trkpt lon="-4.047613" lat="43.363523"><ele>12.75</ele></trkpt>
<trkpt lon="-4.049371" lat="43.363114"><ele>13.5</ele></trkpt>
<trkpt lon="-4.049541" lat="43.363081"><ele>13.75</ele></trkpt>
<trkpt lon="-4.049702" lat="43.363051"><ele>13.75</ele></trkpt>
<trkpt lon="-4.049633" lat="43.363985"><ele>12.0</ele></trkpt>
<trkpt lon="-4.049653" lat="43.364135"><ele>12.0</ele></trkpt>
<trkpt lon="-4.049650" lat="43.364266"><ele>11.5</ele></trkpt>
<trkpt lon="-4.049625" lat="43.364372"><ele>11.25</ele></trkpt>
<trkpt lon="-4.049558" lat="43.364573"><ele>10.5</ele></trkpt>
<trkpt lon="-4.049547" lat="43.364657"><ele>10.5</ele></trkpt>
<trkpt lon="-4.049553" lat="43.364743"><ele>10.25</ele></trkpt>
<trkpt lon="-4.049750" lat="43.365212"><ele>10.0</ele></trkpt>
<trkpt lon="-4.049843" lat="43.365328"><ele>9.5</ele></trkpt>
<trkpt lon="-4.049806" lat="43.365350"><ele>9.75</ele></trkpt>
<trkpt lon="-4.049794" lat="43.365365"><ele>9.75</ele></trkpt>
<trkpt lon="-4.049798" lat="43.365395"><ele>9.75</ele></trkpt>
<trkpt lon="-4.049907" lat="43.365592"><ele>9.75</ele></trkpt>
<trkpt lon="-4.049975" lat="43.365827"><ele>9.75</ele></trkpt>
<trkpt lon="-4.050004" lat="43.365869"><ele>9.5</ele></trkpt>
<trkpt lon="-4.050053" lat="43.365911"><ele>9.0</ele></trkpt>
<trkpt lon="-4.050153" lat="43.365961"><ele>8.5</ele></trkpt>
<trkpt lon="-4.050226" lat="43.365991"><ele>8.5</ele></trkpt>
<trkpt lon="-4.050289" lat="43.366036"><ele>8.0</ele></trkpt>
<trkpt lon="-4.050343" lat="43.366122"><ele>7.75</ele></trkpt>
<trkpt lon="-4.050397" lat="43.366282"><ele>7.75</ele></trkpt>
<trkpt lon="-4.050415" lat="43.366370"><ele>7.5</ele></trkpt>
<trkpt lon="-4.050422" lat="43.366493"><ele>7.5</ele></trkpt>
<trkpt lon="-4.050390" lat="43.366729"><ele>7.5</ele></trkpt>
<trkpt lon="-4.050402" lat="43.366788"><ele>7.75</ele></trkpt>
<trkpt lon="-4.050480" lat="43.366951"><ele>8.5</ele></trkpt>
<trkpt lon="-4.050467" lat="43.367009"><ele>8.25</ele></trkpt>
<trkpt lon="-4.050434" lat="43.367049"><ele>8.0</ele></trkpt>
<trkpt lon="-4.050389" lat="43.367138"><ele>7.5</ele></trkpt>
<trkpt lon="-4.050354" lat="43.367238"><ele>7.25</ele></trkpt>
<trkpt lon="-4.050348" lat="43.367575"><ele>7.0</ele></trkpt>
<trkpt lon="-4.050407" lat="43.367939"><ele>7.0</ele></trkpt>
<trkpt lon="-4.050391" lat="43.367990"><ele>7.0</ele></trkpt>
<trkpt lon="-4.050341" lat="43.368795"><ele>7.0</ele></trkpt>
<trkpt lon="-4.050369" lat="43.368966"><ele>6.75</ele></trkpt>
<trkpt lon="-4.050497" lat="43.369451"><ele>6.25</ele></trkpt>
<trkpt lon="-4.050523" lat="43.369589"><ele>6.5</ele></trkpt>
<trkpt lon="-4.050541" lat="43.369970"><ele>6.75</ele></trkpt>
<trkpt lon="-4.050568" lat="43.370077"><ele>7.0</ele></trkpt>
<trkpt lon="-4.050681" lat="43.370389"><ele>6.5</ele></trkpt>
<trkpt lon="-4.050707" lat="43.370521"><ele>6.0</ele></trkpt>
<trkpt lon="-4.050759" lat="43.371284"><ele>5.5</ele></trkpt>
<trkpt lon="-4.050818" lat="43.371586"><ele>5.75</ele></trkpt>
<trkpt lon="-4.050735" lat="43.372330"><ele>5.5</ele></trkpt>
<trkpt lon="-4.050751" lat="43.372700"><ele>5.75</ele></trkpt>
<trkpt lon="-4.050601" lat="43.373123"><ele>6.75</ele></trkpt>
<trkpt lon="-4.050118" lat="43.374155"><ele>5.25</ele></trkpt>
<trkpt lon="-4.049482" lat="43.374970"><ele>5.5</ele></trkpt>
<trkpt lon="-4.049326" lat="43.375131"><ele>5.25</ele></trkpt>
<trkpt lon="-4.049861" lat="43.375291"><ele>5.75</ele></trkpt>
<trkpt lon="-4.050206" lat="43.375306"><ele>5.75</ele></trkpt>
<trkpt lon="-4.050462" lat="43.375340"><ele>5.25</ele></trkpt>
<trkpt lon="-4.050684" lat="43.375357"><ele>5.25</ele></trkpt>
<trkpt lon="-4.051003" lat="43.375476"><ele>6.25</ele></trkpt>
<trkpt lon="-4.051064" lat="43.375379"><ele>6.25</ele></trkpt>
<trkpt lon="-4.051225" lat="43.375193"><ele>9.5</ele></trkpt>
<trkpt lon="-4.051222" lat="43.375258"><ele>10.0</ele></trkpt>
<trkpt lon="-4.051204" lat="43.375345"><ele>8.75</ele></trkpt>
<trkpt lon="-4.051176" lat="43.375432"><ele>7.25</ele></trkpt>
<trkpt lon="-4.051131" lat="43.375489"><ele>6.25</ele></trkpt>
<trkpt lon="-4.050995" lat="43.375650"><ele>7.5</ele></trkpt>
<trkpt lon="-4.050863" lat="43.375753"><ele>9.0</ele></trkpt>
<trkpt lon="-4.050828" lat="43.375818"><ele>9.75</ele></trkpt>
<trkpt lon="-4.050794" lat="43.375850"><ele>9.75</ele></trkpt>
<trkpt lon="-4.050985" lat="43.375849"><ele>10.0</ele></trkpt>
<trkpt lon="-4.051450" lat="43.375860"><ele>9.75</ele></trkpt>
<trkpt lon="-4.051660" lat="43.375870"><ele>9.25</ele></trkpt>
<trkpt lon="-4.051748" lat="43.375880"><ele>9.0</ele></trkpt>
<trkpt lon="-4.051928" lat="43.375917"><ele>8.75</ele></trkpt>
<trkpt lon="-4.052021" lat="43.375945"><ele>9.25</ele></trkpt>
<trkpt lon="-4.052296" lat="43.376046"><ele>11.0</ele></trkpt>
<trkpt lon="-4.052320" lat="43.376072"><ele>11.5</ele></trkpt>
<trkpt lon="-4.052438" lat="43.376120"><ele>12.75</ele></trkpt>
<trkpt lon="-4.052507" lat="43.376165"><ele>13.5</ele></trkpt>
<trkpt lon="-4.052514" lat="43.376221"><ele>14.0</ele></trkpt>
<trkpt lon="-4.052504" lat="43.376262"><ele>14.5</ele></trkpt>
<trkpt lon="-4.052490" lat="43.376301"><ele>15.0</ele></trkpt>
<trkpt lon="-4.052473" lat="43.376339"><ele>15.25</ele></trkpt>
<trkpt lon="-4.052387" lat="43.376341"><ele>15.25</ele></trkpt>
<trkpt lon="-4.052236" lat="43.376341"><ele>15.25</ele></trkpt>
<trkpt lon="-4.052224" lat="43.376377"><ele>15.75</ele></trkpt>
<trkpt lon="-4.052195" lat="43.376422"><ele>16.5</ele></trkpt>
<trkpt lon="-4.052057" lat="43.376598"><ele>19.25</ele></trkpt>
<trkpt lon="-4.052003" lat="43.376638"><ele>19.75</ele></trkpt>
<trkpt lon="-4.052004" lat="43.376676"><ele>20.25</ele></trkpt>
<trkpt lon="-4.052075" lat="43.376678"><ele>20.5</ele></trkpt>
<trkpt lon="-4.052155" lat="43.376717"><ele>21.25</ele></trkpt>
<trkpt lon="-4.052534" lat="43.377060"><ele>26.0</ele></trkpt>
<trkpt lon="-4.052794" lat="43.377284"><ele>28.25</ele></trkpt>
<trkpt lon="-4.052835" lat="43.377355"><ele>28.75</ele></trkpt>
<trkpt lon="-4.052938" lat="43.377420"><ele>29.25</ele></trkpt>
<trkpt lon="-4.053267" lat="43.377558"><ele>31.0</ele></trkpt>
<trkpt lon="-4.053457" lat="43.377624"><ele>32.0</ele></trkpt>
<trkpt lon="-4.053632" lat="43.377636"><ele>32.5</ele></trkpt>
<trkpt lon="-4.054140" lat="43.377807"><ele>35.75</ele></trkpt>
<trkpt lon="-4.054290" lat="43.377806"><ele>35.75</ele></trkpt>
<trkpt lon="-4.054595" lat="43.379322"><ele>40.25</ele></trkpt>
<trkpt lon="-4.054603" lat="43.379363"><ele>40.75</ele></trkpt>
<trkpt lon="-4.054774" lat="43.379358"><ele>41.25</ele></trkpt>
<trkpt lon="-4.054820" lat="43.379350"><ele>41.0</ele></trkpt>
<trkpt lon="-4.054692" lat="43.379716"><ele>44.75</ele></trkpt>
<trkpt lon="-4.055031" lat="43.379846"><ele>45.25</ele></trkpt>
<trkpt lon="-4.055189" lat="43.379959"><ele>46.25</ele></trkpt>
<trkpt lon="-4.055288" lat="43.380072"><ele>47.25</ele></trkpt>
<trkpt lon="-4.055398" lat="43.380257"><ele>48.75</ele></trkpt>
<trkpt lon="-4.055481" lat="43.380562"><ele>52.25</ele></trkpt>
<trkpt lon="-4.055500" lat="43.380672"><ele>52.5</ele></trkpt>
<trkpt lon="-4.055559" lat="43.381066"><ele>53.75</ele></trkpt>
<trkpt lon="-4.054755" lat="43.381619"><ele>55.0</ele></trkpt>
<trkpt lon="-4.054447" lat="43.381861"><ele>55.25</ele></trkpt>
<trkpt lon="-4.054419" lat="43.381943"><ele>55.75</ele></trkpt>
<trkpt lon="-4.054465" lat="43.382100"><ele>56.0</ele></trkpt>
<trkpt lon="-4.054592" lat="43.382342"><ele>57.5</ele></trkpt>
<trkpt lon="-4.054720" lat="43.382617"><ele>58.75</ele></trkpt>
<trkpt lon="-4.054700" lat="43.382944"><ele>59.0</ele></trkpt>
<trkpt lon="-4.055005" lat="43.382961"><ele>59.75</ele></trkpt>
  </trkseg></trk></gpx>
