<?xml version="1.0" encoding="UTF-8"?>
<gpx version="1.1" creator="compostel-brouter" xmlns="http://www.topografix.com/GPX/1/1">
  <metadata><name>ES-18-Santillana</name></metadata>
  <trk><name>ES-18-Santillana</name><trkseg>
<trkpt lon="-4.055005" lat="43.382961"><ele>59.5</ele></trkpt>
<trkpt lon="-4.055007" lat="43.382962"><ele>59.75</ele></trkpt>
<trkpt lon="-4.055175" lat="43.382981"><ele>59.25</ele></trkpt>
<trkpt lon="-4.055631" lat="43.383062"><ele>56.75</ele></trkpt>
<trkpt lon="-4.055744" lat="43.383075"><ele>56.25</ele></trkpt>
<trkpt lon="-4.055901" lat="43.383115"><ele>55.5</ele></trkpt>
<trkpt lon="-4.055954" lat="43.383134"><ele>55.25</ele></trkpt>
<trkpt lon="-4.056028" lat="43.383161"><ele>54.75</ele></trkpt>
<trkpt lon="-4.056298" lat="43.383306"><ele>54.0</ele></trkpt>
<trkpt lon="-4.056662" lat="43.383473"><ele>52.0</ele></trkpt>
<trkpt lon="-4.056791" lat="43.383508"><ele>51.25</ele></trkpt>
<trkpt lon="-4.057307" lat="43.383683"><ele>49.25</ele></trkpt>
<trkpt lon="-4.058365" lat="43.384025"><ele>44.75</ele></trkpt>
<trkpt lon="-4.058478" lat="43.384067"><ele>44.0</ele></trkpt>
<trkpt lon="-4.058573" lat="43.384106"><ele>43.25</ele></trkpt>
<trkpt lon="-4.058675" lat="43.384158"><ele>43.0</ele></trkpt>
<trkpt lon="-4.058780" lat="43.384216"><ele>42.5</ele></trkpt>
<trkpt lon="-4.058900" lat="43.384300"><ele>41.5</ele></trkpt>
<trkpt lon="-4.059038" lat="43.384432"><ele>40.5</ele></trkpt>
<trkpt lon="-4.059127" lat="43.384530"><ele>40.25</ele></trkpt>
<trkpt lon="-4.059311" lat="43.384761"><ele>38.25</ele></trkpt>
<trkpt lon="-4.059481" lat="43.384985"><ele>36.75</ele></trkpt>
<trkpt lon="-4.059622" lat="43.385218"><ele>36.25</ele></trkpt>
<trkpt lon="-4.059692" lat="43.385348"><ele>37.0</ele></trkpt>
<trkpt lon="-4.059733" lat="43.385460"><ele>37.5</ele></trkpt>
<trkpt lon="-4.059764" lat="43.385605"><ele>38.0</ele></trkpt>
<trkpt lon="-4.059890" lat="43.386005"><ele>41.0</ele></trkpt>
<trkpt lon="-4.059923" lat="43.386136"><ele>42.5</ele></trkpt>
<trkpt lon="-4.059937" lat="43.386441"><ele>45.5</ele></trkpt>
<trkpt lon="-4.059929" lat="43.386573"><ele>46.25</ele></trkpt>
<trkpt lon="-4.059900" lat="43.386658"><ele>46.75</ele></trkpt>
<trkpt lon="-4.059850" lat="43.386732"><ele>47.25</ele></trkpt>
<trkpt lon="-4.059710" lat="43.387031"><ele>50.5</ele></trkpt>
<trkpt lon="-4.059716" lat="43.387162"><ele>51.5</ele></trkpt>
<trkpt lon="-4.059752" lat="43.387228"><ele>52.25</ele></trkpt>
<trkpt lon="-4.059821" lat="43.387301"><ele>53.5</ele></trkpt>
<trkpt lon="-4.059980" lat="43.387429"><ele>55.25</ele></trkpt>
<trkpt lon="-4.060185" lat="43.387539"><ele>56.75</ele></trkpt>
<trkpt lon="-4.060270" lat="43.387600"><ele>57.5</ele></trkpt>
<trkpt lon="-4.060406" lat="43.387663"><ele>58.5</ele></trkpt>
<trkpt lon="-4.060504" lat="43.387696"><ele>58.75</ele></trkpt>
<trkpt lon="-4.060604" lat="43.387720"><ele>59.0</ele></trkpt>
<trkpt lon="-4.060718" lat="43.387734"><ele>59.25</ele></trkpt>
<trkpt lon="-4.060848" lat="43.387740"><ele>59.75</ele></trkpt>
<trkpt lon="-4.061064" lat="43.387771"><ele>59.75</ele></trkpt>
<trkpt lon="-4.061318" lat="43.387843"><ele>59.5</ele></trkpt>
<trkpt lon="-4.061464" lat="43.387909"><ele>59.75</ele></trkpt>
<trkpt lon="-4.062200" lat="43.388277"><ele>62.25</ele></trkpt>
<trkpt lon="-4.062320" lat="43.388341"><ele>62.5</ele></trkpt>
<trkpt lon="-4.062529" lat="43.388433"><ele>62.5</ele></trkpt>
<trkpt lon="-4.062663" lat="43.388464"><ele>62.5</ele></trkpt>
<trkpt lon="-4.063024" lat="43.388517"><ele>63.0</ele></trkpt>
<trkpt lon="-4.063140" lat="43.388542"><ele>63.0</ele></trkpt>
<trkpt lon="-4.063238" lat="43.388563"><ele>62.75</ele></trkpt>
<trkpt lon="-4.063318" lat="43.388591"><ele>62.75</ele></trkpt>
<trkpt lon="-4.063392" lat="43.388635"><ele>62.75</ele></trkpt>
<trkpt lon="-4.063459" lat="43.388687"><ele>63.0</ele></trkpt>
<trkpt lon="-4.063502" lat="43.388740"><ele>63.25</ele></trkpt>
<trkpt lon="-4.063537" lat="43.388812"><ele>63.5</ele></trkpt>
<trkpt lon="-4.063563" lat="43.388892"><ele>64.0</ele></trkpt>
<trkpt lon="-4.063583" lat="43.389076"><ele>65.25</ele></trkpt>
<trkpt lon="-4.063573" lat="43.389502"><ele>67.25</ele></trkpt>
<trkpt lon="-4.063585" lat="43.389599"><ele>67.5</ele></trkpt>
<trkpt lon="-4.063608" lat="43.389702"><ele>67.75</ele></trkpt>
<trkpt lon="-4.063634" lat="43.389763"><ele>68.0</ele></trkpt>
<trkpt lon="-4.063671" lat="43.389824"><ele>68.25</ele></trkpt>
<trkpt lon="-4.063878" lat="43.390131"><ele>69.25</ele></trkpt>
<trkpt lon="-4.064063" lat="43.390413"><ele>70.0</ele></trkpt>
<trkpt lon="-4.064142" lat="43.390510"><ele>70.0</ele></trkpt>
<trkpt lon="-4.064184" lat="43.390575"><ele>69.75</ele></trkpt>
<trkpt lon="-4.064315" lat="43.390702"><ele>69.5</ele></trkpt>
<trkpt lon="-4.064719" lat="43.391028"><ele>70.0</ele></trkpt>
<trkpt lon="-4.064947" lat="43.391195"><ele>70.5</ele></trkpt>
<trkpt lon="-4.065117" lat="43.391292"><ele>70.5</ele></trkpt>
<trkpt lon="-4.066835" lat="43.392053"><ele>72.75</ele></trkpt>
<trkpt lon="-4.067156" lat="43.392190"><ele>74.5</ele></trkpt>
<trkpt lon="-4.067857" lat="43.392502"><ele>78.5</ele></trkpt>
<trkpt lon="-4.067979" lat="43.392535"><ele>79.25</ele></trkpt>
<trkpt lon="-4.068084" lat="43.392556"><ele>80.25</ele></trkpt>
<trkpt lon="-4.068374" lat="43.392597"><ele>82.75</ele></trkpt>
<trkpt lon="-4.068459" lat="43.392620"><ele>83.0</ele></trkpt>
<trkpt lon="-4.068539" lat="43.392654"><ele>83.0</ele></trkpt>
<trkpt lon="-4.068641" lat="43.392703"><ele>83.25</ele></trkpt>
<trkpt lon="-4.068776" lat="43.392785"><ele>83.5</ele></trkpt>
<trkpt lon="-4.069504" lat="43.393301"><ele>81.75</ele></trkpt>
<trkpt lon="-4.069764" lat="43.393485"><ele>80.75</ele></trkpt>
<trkpt lon="-4.070224" lat="43.393829"><ele>80.0</ele></trkpt>
<trkpt lon="-4.071224" lat="43.394592"><ele>76.75</ele></trkpt>
<trkpt lon="-4.071420" lat="43.394724"><ele>76.75</ele></trkpt>
<trkpt lon="-4.071512" lat="43.394754"><ele>76.5</ele></trkpt>
<trkpt lon="-4.071685" lat="43.394797"><ele>76.5</ele></trkpt>
<trkpt lon="-4.071991" lat="43.394879"><ele>78.0</ele></trkpt>
<trkpt lon="-4.072250" lat="43.394969"><ele>77.75</ele></trkpt>
<trkpt lon="-4.072757" lat="43.395233"><ele>78.75</ele></trkpt>
<trkpt lon="-4.072850" lat="43.395291"><ele>79.25</ele></trkpt>
<trkpt lon="-4.073018" lat="43.395432"><ele>79.75</ele></trkpt>
<trkpt lon="-4.073124" lat="43.395510"><ele>79.75</ele></trkpt>
<trkpt lon="-4.073503" lat="43.395886"><ele>81.25</ele></trkpt>
<trkpt lon="-4.073640" lat="43.395997"><ele>82.0</ele></trkpt>
<trkpt lon="-4.073698" lat="43.396034"><ele>82.5</ele></trkpt>
<trkpt lon="-4.073766" lat="43.396076"><ele>82.75</ele></trkpt>
<trkpt lon="-4.073918" lat="43.396145"><ele>83.0</ele></trkpt>
<trkpt lon="-4.074339" lat="43.396259"><ele>83.75</ele></trkpt>
<trkpt lon="-4.074541" lat="43.396305"><ele>83.75</ele></trkpt>
<trkpt lon="-4.075979" lat="43.396635"><ele>85.0</ele></trkpt>
<trkpt lon="-4.076344" lat="43.396691"><ele>85.25</ele></trkpt>
<trkpt lon="-4.076559" lat="43.396695"><ele>85.75</ele></trkpt>
<trkpt lon="-4.076713" lat="43.396695"><ele>86.25</ele></trkpt>
<trkpt lon="-4.077031" lat="43.396677"><ele>87.5</ele></trkpt>
<trkpt lon="-4.077191" lat="43.396664"><ele>88.75</ele></trkpt>
<trkpt lon="-4.077396" lat="43.396631"><ele>90.0</ele></trkpt>
<trkpt lon="-4.077536" lat="43.396581"><ele>91.25</ele></trkpt>
<trkpt lon="-4.077694" lat="43.396507"><ele>92.25</ele></trkpt>
<trkpt lon="-4.077957" lat="43.396362"><ele>94.0</ele></trkpt>
<trkpt lon="-4.078047" lat="43.396320"><ele>94.5</ele></trkpt>
<trkpt lon="-4.078254" lat="43.396205"><ele>95.5</ele></trkpt>
<trkpt lon="-4.078739" lat="43.395962"><ele>96.0</ele></trkpt>
<trkpt lon="-4.078895" lat="43.395897"><ele>96.0</ele></trkpt>
<trkpt lon="-4.079230" lat="43.395736"><ele>96.0</ele></trkpt>
<trkpt lon="-4.079727" lat="43.395520"><ele>94.75</ele></trkpt>
<trkpt lon="-4.079978" lat="43.395427"><ele>95.0</ele></trkpt>
<trkpt lon="-4.080148" lat="43.395396"><ele>94.75</ele></trkpt>
<trkpt lon="-4.080254" lat="43.395382"><ele>94.75</ele></trkpt>
<trkpt lon="-4.080456" lat="43.395378"><ele>94.25</ele></trkpt>
<trkpt lon="-4.080520" lat="43.395385"><ele>94.0</ele></trkpt>
<trkpt lon="-4.081160" lat="43.395451"><ele>93.0</ele></trkpt>
<trkpt lon="-4.081659" lat="43.395522"><ele>94.0</ele></trkpt>
<trkpt lon="-4.081988" lat="43.395585"><ele>94.0</ele></trkpt>
<trkpt lon="-4.082056" lat="43.395604"><ele>94.0</ele></trkpt>
<trkpt lon="-4.082094" lat="43.395625"><ele>93.75</ele></trkpt>
<trkpt lon="-4.082115" lat="43.395635"><ele>93.75</ele></trkpt>
<trkpt lon="-4.082162" lat="43.395675"><ele>93.75</ele></trkpt>
<trkpt lon="-4.082225" lat="43.395742"><ele>93.25</ele></trkpt>
<trkpt lon="-4.082398" lat="43.395948"><ele>89.5</ele></trkpt>
<trkpt lon="-4.082468" lat="43.396025"><ele>88.25</ele></trkpt>
<trkpt lon="-4.082572" lat="43.396101"><ele>87.0</ele></trkpt>
<trkpt lon="-4.082616" lat="43.396121"><ele>86.75</ele></trkpt>
<trkpt lon="-4.082727" lat="43.396152"><ele>85.5</ele></trkpt>
<trkpt lon="-4.082852" lat="43.396155"><ele>84.75</ele></trkpt>
<trkpt lon="-4.082948" lat="43.396137"><ele>84.25</ele></trkpt>
<trkpt lon="-4.083047" lat="43.396096"><ele>83.75</ele></trkpt>
<trkpt lon="-4.083203" lat="43.395965"><ele>84.0</ele></trkpt>
<trkpt lon="-4.083296" lat="43.395902"><ele>84.75</ele></trkpt>
<trkpt lon="-4.083430" lat="43.395833"><ele>85.5</ele></trkpt>
<trkpt lon="-4.083585" lat="43.395784"><ele>86.5</ele></trkpt>
<trkpt lon="-4.083775" lat="43.395765"><ele>87.75</ele></trkpt>
<trkpt lon="-4.083918" lat="43.395761"><ele>88.75</ele></trkpt>
<trkpt lon="-4.084105" lat="43.395785"><ele>89.25</ele></trkpt>
<trkpt lon="-4.085015" lat="43.395810"><ele>91.5</ele></trkpt>
<trkpt lon="-4.085436" lat="43.395800"><ele>91.5</ele></trkpt>
<trkpt lon="-4.085580" lat="43.395791"><ele>91.5</ele></trkpt>
<trkpt lon="-4.085696" lat="43.395774"><ele>91.75</ele></trkpt>
<trkpt lon="-4.086410" lat="43.395679"><ele>91.0</ele></trkpt>
<trkpt lon="-4.086687" lat="43.395635"><ele>90.25</ele></trkpt>
<trkpt lon="-4.086793" lat="43.395626"><ele>90.0</ele></trkpt>
<trkpt lon="-4.087146" lat="43.395637"><ele>89.25</ele></trkpt>
<trkpt lon="-4.087533" lat="43.395672"><ele>89.5</ele></trkpt>
<trkpt lon="-4.088236" lat="43.395710"><ele>86.75</ele></trkpt>
<trkpt lon="-4.088398" lat="43.395722"><ele>86.0</ele></trkpt>
<trkpt lon="-4.088711" lat="43.395762"><ele>84.5</ele></trkpt>
<trkpt lon="-4.088818" lat="43.395769"><ele>83.75</ele></trkpt>
<trkpt lon="-4.088940" lat="43.395772"><ele>83.5</ele></trkpt>
<trkpt lon="-4.089077" lat="43.395759"><ele>83.75</ele></trkpt>
<trkpt lon="-4.089177" lat="43.395743"><ele>84.0</ele></trkpt>
<trkpt lon="-4.089680" lat="43.395564"><ele>84.75</ele></trkpt>
<trkpt lon="-4.089778" lat="43.395542"><ele>85.25</ele></trkpt>
<trkpt lon="-4.089892" lat="43.395525"><ele>85.75</ele></trkpt>
<trkpt lon="-4.090238" lat="43.395502"><ele>88.25</ele></trkpt>
<trkpt lon="-4.090437" lat="43.395479"><ele>89.75</ele></trkpt>
<trkpt lon="-4.090631" lat="43.395435"><ele>91.5</ele></trkpt>
<trkpt lon="-4.090697" lat="43.395398"><ele>92.25</ele></trkpt>
<trkpt lon="-4.090832" lat="43.395264"><ele>94.0</ele></trkpt>
<trkpt lon="-4.091008" lat="43.395072"><ele>97.5</ele></trkpt>
<trkpt lon="-4.091069" lat="43.394995"><ele>98.25</ele></trkpt>
<trkpt lon="-4.091110" lat="43.394926"><ele>98.75</ele></trkpt>
<trkpt lon="-4.091257" lat="43.394696"><ele>102.25</ele></trkpt>
<trkpt lon="-4.091316" lat="43.394576"><ele>102.25</ele></trkpt>
<trkpt lon="-4.091374" lat="43.394423"><ele>101.75</ele></trkpt>
<trkpt lon="-4.091452" lat="43.394185"><ele>104.25</ele></trkpt>
<trkpt lon="-4.091558" lat="43.394073"><ele>105.75</ele></trkpt>
<trkpt lon="-4.091635" lat="43.394004"><ele>106.75</ele></trkpt>
<trkpt lon="-4.092256" lat="43.393425"><ele>113.25</ele></trkpt>
<trkpt lon="-4.092413" lat="43.393266"><ele>113.75</ele></trkpt>
<trkpt lon="-4.092476" lat="43.393189"><ele>114.25</ele></trkpt>
<trkpt lon="-4.092627" lat="43.392956"><ele>117.25</ele></trkpt>
<trkpt lon="-4.092845" lat="43.392708"><ele>118.75</ele></trkpt>
<trkpt lon="-4.092997" lat="43.392597"><ele>119.75</ele></trkpt>
<trkpt lon="-4.093132" lat="43.392522"><ele>120.5</ele></trkpt>
<trkpt lon="-4.093570" lat="43.392335"><ele>122.5</ele></trkpt>
<trkpt lon="-4.093766" lat="43.392249"><ele>122.75</ele></trkpt>
<trkpt lon="-4.093816" lat="43.392225"><ele>122.75</ele></trkpt>
<trkpt lon="-4.094003" lat="43.392086"><ele>123.5</ele></trkpt>
<trkpt lon="-4.094113" lat="43.391970"><ele>123.75</ele></trkpt>
<trkpt lon="-4.094695" lat="43.391291"><ele>122.5</ele></trkpt>
<trkpt lon="-4.094668" lat="43.391280"><ele>122.25</ele></trkpt>
<trkpt lon="-4.094924" lat="43.391005"><ele>122.5</ele></trkpt>
<trkpt lon="-4.095066" lat="43.390889"><ele>122.75</ele></trkpt>
<trkpt lon="-4.095324" lat="43.390670"><ele>122.25</ele></trkpt>
<trkpt lon="-4.095407" lat="43.390607"><ele>122.0</ele></trkpt>
<trkpt lon="-4.095524" lat="43.390489"><ele>121.75</ele></trkpt>
<trkpt lon="-4.095768" lat="43.390238"><ele>122.25</ele></trkpt>
<trkpt lon="-4.096277" lat="43.389667"><ele>121.25</ele></trkpt>
<trkpt lon="-4.096372" lat="43.389544"><ele>122.25</ele></trkpt>
<trkpt lon="-4.096426" lat="43.389459"><ele>122.75</ele></trkpt>
<trkpt lon="-4.096474" lat="43.389373"><ele>123.0</ele></trkpt>
<trkpt lon="-4.096507" lat="43.389268"><ele>123.0</ele></trkpt>
<trkpt lon="-4.096511" lat="43.389159"><ele>123.0</ele></trkpt>
<trkpt lon="-4.096506" lat="43.389084"><ele>123.0</ele></trkpt>
<trkpt lon="-4.096499" lat="43.389019"><ele>123.0</ele></trkpt>
<trkpt lon="-4.096503" lat="43.388935"><ele>123.25</ele></trkpt>
<trkpt lon="-4.096533" lat="43.388865"><ele>123.5</ele></trkpt>
<trkpt lon="-4.096641" lat="43.388674"><ele>123.75</ele></trkpt>
<trkpt lon="-4.096854" lat="43.388362"><ele>123.75</ele></trkpt>
<trkpt lon="-4.096893" lat="43.388379"><ele>124.0</ele></trkpt>
<trkpt lon="-4.096914" lat="43.388350"><ele>124.0</ele></trkpt>
<trkpt lon="-4.097222" lat="43.388487"><ele>123.25</ele></trkpt>
<trkpt lon="-4.097429" lat="43.388568"><ele>122.75</ele></trkpt>
<trkpt lon="-4.097640" lat="43.388633"><ele>122.5</ele></trkpt>
<trkpt lon="-4.097832" lat="43.388707"><ele>122.0</ele></trkpt>
<trkpt lon="-4.098039" lat="43.388812"><ele>122.25</ele></trkpt>
<trkpt lon="-4.098283" lat="43.388924"><ele>121.25</ele></trkpt>
<trkpt lon="-4.098468" lat="43.388986"><ele>120.25</ele></trkpt>
<trkpt lon="-4.098740" lat="43.389106"><ele>119.0</ele></trkpt>
<trkpt lon="-4.098814" lat="43.389097"><ele>118.75</ele></trkpt>
<trkpt lon="-4.099017" lat="43.389014"><ele>116.75</ele></trkpt>
<trkpt lon="-4.099176" lat="43.388972"><ele>115.0</ele></trkpt>
<trkpt lon="-4.099359" lat="43.388950"><ele>113.75</ele></trkpt>
<trkpt lon="-4.099511" lat="43.388905"><ele>113.0</ele></trkpt>
<trkpt lon="-4.099727" lat="43.388831"><ele>112.75</ele></trkpt>
<trkpt lon="-4.099916" lat="43.388791"><ele>112.75</ele></trkpt>
<trkpt lon="-4.100215" lat="43.388747"><ele>112.5</ele></trkpt>
<trkpt lon="-4.100452" lat="43.388690"><ele>112.0</ele></trkpt>
<trkpt lon="-4.100789" lat="43.388583"><ele>112.0</ele></trkpt>
<trkpt lon="-4.100898" lat="43.388619"><ele>111.75</ele></trkpt>
<trkpt lon="-4.101035" lat="43.388649"><ele>111.75</ele></trkpt>
<trkpt lon="-4.101211" lat="43.388658"><ele>111.75</ele></trkpt>
<trkpt lon="-4.101336" lat="43.388653"><ele>111.75</ele></trkpt>
<trkpt lon="-4.101441" lat="43.388634"><ele>112.0</ele></trkpt>
<trkpt lon="-4.101559" lat="43.388596"><ele>111.75</ele></trkpt>
<trkpt lon="-4.101687" lat="43.388564"><ele>111.75</ele></trkpt>
<trkpt lon="-4.101880" lat="43.388565"><ele>111.75</ele></trkpt>
<trkpt lon="-4.102239" lat="43.388581"><ele>111.0</ele></trkpt>
<trkpt lon="-4.102761" lat="43.388565"><ele>110.0</ele></trkpt>
<trkpt lon="-4.103070" lat="43.388565"><ele>109.0</ele></trkpt>
<trkpt lon="-4.103261" lat="43.388588"><ele>108.25</ele></trkpt>
<trkpt lon="-4.103761" lat="43.388685"><ele>106.75</ele></trkpt>
<trkpt lon="-4.103876" lat="43.388715"><ele>106.5</ele></trkpt>
<trkpt lon="-4.103998" lat="43.388759"><ele>105.5</ele></trkpt>
<trkpt lon="-4.104126" lat="43.388795"><ele>105.0</ele></trkpt>
<trkpt lon="-4.104305" lat="43.388816"><ele>104.25</ele></trkpt>
<trkpt lon="-4.104507" lat="43.388794"><ele>103.5</ele></trkpt>
<trkpt lon="-4.104771" lat="43.388716"><ele>102.5</ele></trkpt>
<trkpt lon="-4.104867" lat="43.388669"><ele>102.25</ele></trkpt>
<trkpt lon="-4.104906" lat="43.388641"><ele>102.25</ele></trkpt>
<trkpt lon="-4.104947" lat="43.388592"><ele>102.25</ele></trkpt>
<trkpt lon="-4.105071" lat="43.388335"><ele>101.25</ele></trkpt>
<trkpt lon="-4.105094" lat="43.388266"><ele>101.25</ele></trkpt>
<trkpt lon="-4.105125" lat="43.388211"><ele>101.0</ele></trkpt>
<trkpt lon="-4.105159" lat="43.388191"><ele>100.75</ele></trkpt>
<trkpt lon="-4.105239" lat="43.388166"><ele>99.75</ele></trkpt>
<trkpt lon="-4.105405" lat="43.388153"><ele>98.25</ele></trkpt>
<trkpt lon="-4.105683" lat="43.388174"><ele>96.25</ele></trkpt>
<trkpt lon="-4.105813" lat="43.388197"><ele>95.0</ele></trkpt>
<trkpt lon="-4.105983" lat="43.388244"><ele>93.5</ele></trkpt>
<trkpt lon="-4.106279" lat="43.388352"><ele>91.5</ele></trkpt>
<trkpt lon="-4.106343" lat="43.388369"><ele>91.0</ele></trkpt>
<trkpt lon="-4.106405" lat="43.388378"><ele>90.5</ele></trkpt>
<trkpt lon="-4.106734" lat="43.388389"><ele>89.0</ele></trkpt>
<trkpt lon="-4.106814" lat="43.388385"><ele>88.5</ele></trkpt>
<trkpt lon="-4.106911" lat="43.388362"><ele>88.0</ele></trkpt>
<trkpt lon="-4.106951" lat="43.388341"><ele>87.75</ele></trkpt>
<trkpt lon="-4.105993" lat="43.388011"><ele>93.75</ele></trkpt>
  </trkseg></trk></gpx>
