<?xml version="1.0" encoding="UTF-8"?>
<gpx version="1.1" creator="compostel-brouter" xmlns="http://www.topografix.com/GPX/1/1">
  <metadata><name>ES-29-Luarca</name></metadata>
  <trk><name>ES-29-Luarca</name><trkseg>
<trkpt lon="-6.242606" lat="43.558526"><ele>160.5</ele></trkpt>
<trkpt lon="-6.243176" lat="43.558275"><ele>161.25</ele></trkpt>
<trkpt lon="-6.243266" lat="43.558175"><ele>163.75</ele></trkpt>
<trkpt lon="-6.242698" lat="43.556644"><ele>175.75</ele></trkpt>
<trkpt lon="-6.242564" lat="43.555554"><ele>182.25</ele></trkpt>
<trkpt lon="-6.242098" lat="43.554866"><ele>186.25</ele></trkpt>
<trkpt lon="-6.242145" lat="43.554783"><ele>186.75</ele></trkpt>
<trkpt lon="-6.242254" lat="43.554729"><ele>186.75</ele></trkpt>
<trkpt lon="-6.242426" lat="43.554697"><ele>187.0</ele></trkpt>
<trkpt lon="-6.243255" lat="43.554949"><ele>187.5</ele></trkpt>
<trkpt lon="-6.243808" lat="43.555008"><ele>191.0</ele></trkpt>
<trkpt lon="-6.244361" lat="43.554908"><ele>193.5</ele></trkpt>
<trkpt lon="-6.245071" lat="43.554669"><ele>195.25</ele></trkpt>
<trkpt lon="-6.245528" lat="43.554403"><ele>195.25</ele></trkpt>
<trkpt lon="-6.245867" lat="43.554058"><ele>195.0</ele></trkpt>
<trkpt lon="-6.246434" lat="43.553633"><ele>195.25</ele></trkpt>
<trkpt lon="-6.247210" lat="43.553388"><ele>198.75</ele></trkpt>
<trkpt lon="-6.247954" lat="43.553347"><ele>200.75</ele></trkpt>
<trkpt lon="-6.248278" lat="43.553198"><ele>200.0</ele></trkpt>
<trkpt lon="-6.248456" lat="43.553099"><ele>200.75</ele></trkpt>
<trkpt lon="-6.248759" lat="43.552929"><ele>199.5</ele></trkpt>
<trkpt lon="-6.248951" lat="43.552892"><ele>199.5</ele></trkpt>
<trkpt lon="-6.249045" lat="43.552967"><ele>199.5</ele></trkpt>
<trkpt lon="-6.249021" lat="43.553152"><ele>200.0</ele></trkpt>
<trkpt lon="-6.248843" lat="43.553470"><ele>201.75</ele></trkpt>
<trkpt lon="-6.248580" lat="43.553838"><ele>202.75</ele></trkpt>
<trkpt lon="-6.248253" lat="43.554014"><ele>203.25</ele></trkpt>
<trkpt lon="-6.248155" lat="43.554088"><ele>202.75</ele></trkpt>
<trkpt lon="-6.248102" lat="43.554188"><ele>201.75</ele></trkpt>
<trkpt lon="-6.248152" lat="43.554295"><ele>203.75</ele></trkpt>
<trkpt lon="-6.248634" lat="43.554527"><ele>202.0</ele></trkpt>
<trkpt lon="-6.249173" lat="43.554967"><ele>200.5</ele></trkpt>
<trkpt lon="-6.249631" lat="43.555189"><ele>201.5</ele></trkpt>
<trkpt lon="-6.249786" lat="43.555250"><ele>202.25</ele></trkpt>
<trkpt lon="-6.249934" lat="43.555240"><ele>202.75</ele></trkpt>
<trkpt lon="-6.250005" lat="43.555160"><ele>200.25</ele></trkpt>
<trkpt lon="-6.250214" lat="43.554952"><ele>199.5</ele></trkpt>
<trkpt lon="-6.250416" lat="43.554936"><ele>201.25</ele></trkpt>
<trkpt lon="-6.250773" lat="43.555016"><ele>201.75</ele></trkpt>
<trkpt lon="-6.251181" lat="43.555201"><ele>201.75</ele></trkpt>
<trkpt lon="-6.251508" lat="43.555379"><ele>202.0</ele></trkpt>
<trkpt lon="-6.251778" lat="43.555558"><ele>203.75</ele></trkpt>
<trkpt lon="-6.251999" lat="43.555613"><ele>205.0</ele></trkpt>
<trkpt lon="-6.252168" lat="43.555592"><ele>205.0</ele></trkpt>
<trkpt lon="-6.252357" lat="43.555344"><ele>204.0</ele></trkpt>
<trkpt lon="-6.252519" lat="43.555164"><ele>206.75</ele></trkpt>
<trkpt lon="-6.252445" lat="43.554913"><ele>203.5</ele></trkpt>
<trkpt lon="-6.252350" lat="43.554283"><ele>199.25</ele></trkpt>
<trkpt lon="-6.252421" lat="43.554178"><ele>199.75</ele></trkpt>
<trkpt lon="-6.252640" lat="43.554102"><ele>200.75</ele></trkpt>
<trkpt lon="-6.253032" lat="43.554090"><ele>203.25</ele></trkpt>
<trkpt lon="-6.253361" lat="43.554071"><ele>204.0</ele></trkpt>
<trkpt lon="-6.253580" lat="43.554040"><ele>205.75</ele></trkpt>
<trkpt lon="-6.253668" lat="43.553942"><ele>206.0</ele></trkpt>
<trkpt lon="-6.253573" lat="43.553444"><ele>203.75</ele></trkpt>
<trkpt lon="-6.253543" lat="43.553192"><ele>201.75</ele></trkpt>
<trkpt lon="-6.253755" lat="43.553012"><ele>202.75</ele></trkpt>
<trkpt lon="-6.254092" lat="43.552833"><ele>204.75</ele></trkpt>
<trkpt lon="-6.254305" lat="43.552831"><ele>205.25</ele></trkpt>
<trkpt lon="-6.254611" lat="43.552899"><ele>205.75</ele></trkpt>
<trkpt lon="-6.254975" lat="43.552956"><ele>206.25</ele></trkpt>
<trkpt lon="-6.255137" lat="43.552958"><ele>207.75</ele></trkpt>
<trkpt lon="-6.255211" lat="43.552865"><ele>206.75</ele></trkpt>
<trkpt lon="-6.255285" lat="43.552570"><ele>205.5</ele></trkpt>
<trkpt lon="-6.255346" lat="43.552499"><ele>205.5</ele></trkpt>
<trkpt lon="-6.255700" lat="43.552399"><ele>204.75</ele></trkpt>
<trkpt lon="-6.256579" lat="43.552189"><ele>205.75</ele></trkpt>
<trkpt lon="-6.256878" lat="43.552179"><ele>204.75</ele></trkpt>
<trkpt lon="-6.257541" lat="43.552376"><ele>206.5</ele></trkpt>
<trkpt lon="-6.257755" lat="43.552399"><ele>207.0</ele></trkpt>
<trkpt lon="-6.257841" lat="43.552356"><ele>206.75</ele></trkpt>
<trkpt lon="-6.257941" lat="43.552243"><ele>205.75</ele></trkpt>
<trkpt lon="-6.258092" lat="43.552051"><ele>203.5</ele></trkpt>
<trkpt lon="-6.258344" lat="43.551917"><ele>203.5</ele></trkpt>
<trkpt lon="-6.258606" lat="43.551869"><ele>207.25</ele></trkpt>
<trkpt lon="-6.258684" lat="43.551791"><ele>208.25</ele></trkpt>
<trkpt lon="-6.258699" lat="43.551715"><ele>207.0</ele></trkpt>
<trkpt lon="-6.258637" lat="43.551301"><ele>204.0</ele></trkpt>
<trkpt lon="-6.258760" lat="43.551202"><ele>204.75</ele></trkpt>
<trkpt lon="-6.259108" lat="43.551107"><ele>206.25</ele></trkpt>
<trkpt lon="-6.259513" lat="43.551128"><ele>207.5</ele></trkpt>
<trkpt lon="-6.260676" lat="43.551287"><ele>211.5</ele></trkpt>
<trkpt lon="-6.260838" lat="43.551299"><ele>211.75</ele></trkpt>
<trkpt lon="-6.260929" lat="43.551259"><ele>212.5</ele></trkpt>
<trkpt lon="-6.261053" lat="43.551055"><ele>210.5</ele></trkpt>
<trkpt lon="-6.261085" lat="43.550767"><ele>209.75</ele></trkpt>
<trkpt lon="-6.261131" lat="43.550700"><ele>209.75</ele></trkpt>
<trkpt lon="-6.261244" lat="43.550650"><ele>210.0</ele></trkpt>
<trkpt lon="-6.261715" lat="43.550631"><ele>211.75</ele></trkpt>
<trkpt lon="-6.262134" lat="43.550682"><ele>211.0</ele></trkpt>
<trkpt lon="-6.262511" lat="43.550869"><ele>213.25</ele></trkpt>
<trkpt lon="-6.262906" lat="43.551038"><ele>214.75</ele></trkpt>
<trkpt lon="-6.263044" lat="43.551042"><ele>214.0</ele></trkpt>
<trkpt lon="-6.263159" lat="43.551007"><ele>215.0</ele></trkpt>
<trkpt lon="-6.263735" lat="43.550696"><ele>217.75</ele></trkpt>
<trkpt lon="-6.263801" lat="43.550581"><ele>216.0</ele></trkpt>
<trkpt lon="-6.264036" lat="43.550402"><ele>217.75</ele></trkpt>
<trkpt lon="-6.264410" lat="43.550273"><ele>220.0</ele></trkpt>
<trkpt lon="-6.264465" lat="43.550326"><ele>224.5</ele></trkpt>
<trkpt lon="-6.264595" lat="43.550298"><ele>226.5</ele></trkpt>
<trkpt lon="-6.264879" lat="43.550148"><ele>229.75</ele></trkpt>
<trkpt lon="-6.265471" lat="43.549907"><ele>242.25</ele></trkpt>
<trkpt lon="-6.265583" lat="43.549842"><ele>244.75</ele></trkpt>
<trkpt lon="-6.265648" lat="43.549818"><ele>246.75</ele></trkpt>
<trkpt lon="-6.265677" lat="43.549838"><ele>248.75</ele></trkpt>
<trkpt lon="-6.265649" lat="43.549917"><ele>250.5</ele></trkpt>
<trkpt lon="-6.265454" lat="43.550054"><ele>248.25</ele></trkpt>
<trkpt lon="-6.265337" lat="43.550237"><ele>251.75</ele></trkpt>
<trkpt lon="-6.265219" lat="43.550361"><ele>252.25</ele></trkpt>
<trkpt lon="-6.265039" lat="43.550481"><ele>250.75</ele></trkpt>
<trkpt lon="-6.265029" lat="43.550540"><ele>253.25</ele></trkpt>
<trkpt lon="-6.264879" lat="43.550708"><ele>256.75</ele></trkpt>
<trkpt lon="-6.264684" lat="43.550849"><ele>258.5</ele></trkpt>
<trkpt lon="-6.264708" lat="43.550873"><ele>260.5</ele></trkpt>
<trkpt lon="-6.264992" lat="43.550805"><ele>264.25</ele></trkpt>
<trkpt lon="-6.265300" lat="43.550653"><ele>268.0</ele></trkpt>
<trkpt lon="-6.265655" lat="43.550318"><ele>267.75</ele></trkpt>
<trkpt lon="-6.266080" lat="43.549984"><ele>270.25</ele></trkpt>
<trkpt lon="-6.266325" lat="43.549862"><ele>275.5</ele></trkpt>
<trkpt lon="-6.266362" lat="43.549851"><ele>276.75</ele></trkpt>
<trkpt lon="-6.266341" lat="43.549903"><ele>277.0</ele></trkpt>
<trkpt lon="-6.265570" lat="43.550946"><ele>291.75</ele></trkpt>
<trkpt lon="-6.265034" lat="43.551343"><ele>295.25</ele></trkpt>
<trkpt lon="-6.264553" lat="43.551790"><ele>293.75</ele></trkpt>
<trkpt lon="-6.264686" lat="43.551747"><ele>295.0</ele></trkpt>
<trkpt lon="-6.264999" lat="43.551742"><ele>295.5</ele></trkpt>
<trkpt lon="-6.265304" lat="43.551695"><ele>294.25</ele></trkpt>
<trkpt lon="-6.265682" lat="43.551568"><ele>299.0</ele></trkpt>
<trkpt lon="-6.266530" lat="43.551399"><ele>305.75</ele></trkpt>
<trkpt lon="-6.266689" lat="43.551338"><ele>306.75</ele></trkpt>
<trkpt lon="-6.266974" lat="43.551183"><ele>309.0</ele></trkpt>
<trkpt lon="-6.267433" lat="43.550988"><ele>311.75</ele></trkpt>
<trkpt lon="-6.267576" lat="43.550908"><ele>313.0</ele></trkpt>
<trkpt lon="-6.267697" lat="43.550815"><ele>314.5</ele></trkpt>
<trkpt lon="-6.267878" lat="43.550632"><ele>317.75</ele></trkpt>
<trkpt lon="-6.268180" lat="43.550483"><ele>320.0</ele></trkpt>
<trkpt lon="-6.268377" lat="43.550347"><ele>322.5</ele></trkpt>
<trkpt lon="-6.268821" lat="43.550127"><ele>325.5</ele></trkpt>
<trkpt lon="-6.269049" lat="43.550030"><ele>327.25</ele></trkpt>
<trkpt lon="-6.269372" lat="43.549941"><ele>329.25</ele></trkpt>
<trkpt lon="-6.269551" lat="43.549922"><ele>330.5</ele></trkpt>
<trkpt lon="-6.269730" lat="43.549944"><ele>331.75</ele></trkpt>
<trkpt lon="-6.270142" lat="43.550043"><ele>334.0</ele></trkpt>
<trkpt lon="-6.270380" lat="43.550068"><ele>334.25</ele></trkpt>
<trkpt lon="-6.270882" lat="43.550061"><ele>336.75</ele></trkpt>
<trkpt lon="-6.271522" lat="43.549989"><ele>340.5</ele></trkpt>
<trkpt lon="-6.272057" lat="43.549852"><ele>341.25</ele></trkpt>
<trkpt lon="-6.272567" lat="43.549612"><ele>342.0</ele></trkpt>
<trkpt lon="-6.273026" lat="43.549257"><ele>339.5</ele></trkpt>
<trkpt lon="-6.274342" lat="43.548593"><ele>328.5</ele></trkpt>
<trkpt lon="-6.276045" lat="43.547687"><ele>337.0</ele></trkpt>
<trkpt lon="-6.276250" lat="43.547574"><ele>338.25</ele></trkpt>
<trkpt lon="-6.276375" lat="43.547491"><ele>339.0</ele></trkpt>
<trkpt lon="-6.276481" lat="43.547383"><ele>338.75</ele></trkpt>
<trkpt lon="-6.276679" lat="43.547103"><ele>337.75</ele></trkpt>
<trkpt lon="-6.276816" lat="43.546826"><ele>336.75</ele></trkpt>
<trkpt lon="-6.277175" lat="43.546376"><ele>334.25</ele></trkpt>
<trkpt lon="-6.277288" lat="43.546138"><ele>334.25</ele></trkpt>
<trkpt lon="-6.277417" lat="43.545975"><ele>334.25</ele></trkpt>
<trkpt lon="-6.277707" lat="43.545477"><ele>335.0</ele></trkpt>
<trkpt lon="-6.277896" lat="43.545202"><ele>336.0</ele></trkpt>
<trkpt lon="-6.278051" lat="43.545076"><ele>336.25</ele></trkpt>
<trkpt lon="-6.278294" lat="43.544973"><ele>335.75</ele></trkpt>
<trkpt lon="-6.278846" lat="43.544805"><ele>333.75</ele></trkpt>
<trkpt lon="-6.279013" lat="43.544737"><ele>333.5</ele></trkpt>
<trkpt lon="-6.279350" lat="43.544631"><ele>332.0</ele></trkpt>
<trkpt lon="-6.279516" lat="43.544530"><ele>331.0</ele></trkpt>
<trkpt lon="-6.279722" lat="43.544523"><ele>331.75</ele></trkpt>
<trkpt lon="-6.281079" lat="43.544166"><ele>332.75</ele></trkpt>
<trkpt lon="-6.282010" lat="43.543893"><ele>333.75</ele></trkpt>
<trkpt lon="-6.282599" lat="43.543678"><ele>334.25</ele></trkpt>
<trkpt lon="-6.282827" lat="43.543562"><ele>335.5</ele></trkpt>
<trkpt lon="-6.283062" lat="43.543490"><ele>337.0</ele></trkpt>
<trkpt lon="-6.283198" lat="43.543448"><ele>338.25</ele></trkpt>
<trkpt lon="-6.283769" lat="43.543203"><ele>349.0</ele></trkpt>
<trkpt lon="-6.283877" lat="43.543308"><ele>350.0</ele></trkpt>
<trkpt lon="-6.283996" lat="43.543342"><ele>350.0</ele></trkpt>
<trkpt lon="-6.284533" lat="43.543394"><ele>351.25</ele></trkpt>
<trkpt lon="-6.284806" lat="43.543428"><ele>351.75</ele></trkpt>
<trkpt lon="-6.285509" lat="43.543709"><ele>349.25</ele></trkpt>
<trkpt lon="-6.285701" lat="43.543845"><ele>348.75</ele></trkpt>
<trkpt lon="-6.285900" lat="43.544080"><ele>347.75</ele></trkpt>
<trkpt lon="-6.285947" lat="43.544330"><ele>344.25</ele></trkpt>
<trkpt lon="-6.286913" lat="43.544683"><ele>379.0</ele></trkpt>
<trkpt lon="-6.287115" lat="43.544717"><ele>381.5</ele></trkpt>
<trkpt lon="-6.287645" lat="43.544586"><ele>390.0</ele></trkpt>
<trkpt lon="-6.288700" lat="43.544360"><ele>392.0</ele></trkpt>
<trkpt lon="-6.289091" lat="43.544165"><ele>392.0</ele></trkpt>
<trkpt lon="-6.289289" lat="43.543919"><ele>393.25</ele></trkpt>
<trkpt lon="-6.289318" lat="43.543660"><ele>397.0</ele></trkpt>
<trkpt lon="-6.289146" lat="43.543288"><ele>407.25</ele></trkpt>
<trkpt lon="-6.289121" lat="43.543050"><ele>412.75</ele></trkpt>
<trkpt lon="-6.289087" lat="43.542513"><ele>418.5</ele></trkpt>
<trkpt lon="-6.289213" lat="43.542163"><ele>418.0</ele></trkpt>
<trkpt lon="-6.289310" lat="43.541761"><ele>417.5</ele></trkpt>
<trkpt lon="-6.289310" lat="43.541526"><ele>417.0</ele></trkpt>
<trkpt lon="-6.289173" lat="43.541199"><ele>414.5</ele></trkpt>
<trkpt lon="-6.289590" lat="43.540691"><ele>409.5</ele></trkpt>
<trkpt lon="-6.290010" lat="43.540315"><ele>409.5</ele></trkpt>
<trkpt lon="-6.290281" lat="43.540303"><ele>408.5</ele></trkpt>
<trkpt lon="-6.290640" lat="43.540238"><ele>408.25</ele></trkpt>
<trkpt lon="-6.291467" lat="43.540183"><ele>408.5</ele></trkpt>
<trkpt lon="-6.292358" lat="43.540052"><ele>407.75</ele></trkpt>
<trkpt lon="-6.292573" lat="43.539958"><ele>408.0</ele></trkpt>
<trkpt lon="-6.293166" lat="43.539652"><ele>409.5</ele></trkpt>
<trkpt lon="-6.293605" lat="43.539476"><ele>408.75</ele></trkpt>
<trkpt lon="-6.293905" lat="43.539318"><ele>409.25</ele></trkpt>
<trkpt lon="-6.294392" lat="43.539124"><ele>410.75</ele></trkpt>
<trkpt lon="-6.294815" lat="43.539004"><ele>411.0</ele></trkpt>
<trkpt lon="-6.295313" lat="43.539010"><ele>404.5</ele></trkpt>
<trkpt lon="-6.295458" lat="43.538996"><ele>403.25</ele></trkpt>
<trkpt lon="-6.295994" lat="43.538838"><ele>399.5</ele></trkpt>
<trkpt lon="-6.296425" lat="43.538765"><ele>394.5</ele></trkpt>
<trkpt lon="-6.296499" lat="43.538775"><ele>393.5</ele></trkpt>
<trkpt lon="-6.296796" lat="43.538536"><ele>397.0</ele></trkpt>
<trkpt lon="-6.296922" lat="43.538171"><ele>400.0</ele></trkpt>
<trkpt lon="-6.296906" lat="43.538088"><ele>400.25</ele></trkpt>
<trkpt lon="-6.296956" lat="43.538080"><ele>399.75</ele></trkpt>
<trkpt lon="-6.297221" lat="43.538048"><ele>397.75</ele></trkpt>
<trkpt lon="-6.297773" lat="43.537968"><ele>396.25</ele></trkpt>
<trkpt lon="-6.298173" lat="43.537892"><ele>397.5</ele></trkpt>
<trkpt lon="-6.298423" lat="43.537797"><ele>400.75</ele></trkpt>
<trkpt lon="-6.298581" lat="43.537649"><ele>402.25</ele></trkpt>
<trkpt lon="-6.298814" lat="43.537344"><ele>404.75</ele></trkpt>
<trkpt lon="-6.299335" lat="43.537017"><ele>411.5</ele></trkpt>
<trkpt lon="-6.299479" lat="43.536986"><ele>413.5</ele></trkpt>
<trkpt lon="-6.299576" lat="43.536982"><ele>413.75</ele></trkpt>
<trkpt lon="-6.300161" lat="43.537033"><ele>415.0</ele></trkpt>
<trkpt lon="-6.300614" lat="43.537099"><ele>416.5</ele></trkpt>
<trkpt lon="-6.301558" lat="43.536964"><ele>417.75</ele></trkpt>
<trkpt lon="-6.303482" lat="43.536624"><ele>423.25</ele></trkpt>
<trkpt lon="-6.303764" lat="43.536599"><ele>423.0</ele></trkpt>
<trkpt lon="-6.305926" lat="43.536539"><ele>418.0</ele></trkpt>
<trkpt lon="-6.306626" lat="43.536576"><ele>417.0</ele></trkpt>
<trkpt lon="-6.307541" lat="43.536539"><ele>414.75</ele></trkpt>
<trkpt lon="-6.308930" lat="43.536579"><ele>407.75</ele></trkpt>
<trkpt lon="-6.309070" lat="43.536564"><ele>408.0</ele></trkpt>
<trkpt lon="-6.309217" lat="43.536531"><ele>408.5</ele></trkpt>
<trkpt lon="-6.309386" lat="43.536424"><ele>408.75</ele></trkpt>
<trkpt lon="-6.311436" lat="43.535531"><ele>409.5</ele></trkpt>
<trkpt lon="-6.311492" lat="43.535467"><ele>410.0</ele></trkpt>
<trkpt lon="-6.311532" lat="43.535389"><ele>410.25</ele></trkpt>
<trkpt lon="-6.311793" lat="43.534689"><ele>413.75</ele></trkpt>
<trkpt lon="-6.311887" lat="43.534094"><ele>415.0</ele></trkpt>
<trkpt lon="-6.311992" lat="43.533927"><ele>416.25</ele></trkpt>
<trkpt lon="-6.312078" lat="43.533860"><ele>416.5</ele></trkpt>
<trkpt lon="-6.312277" lat="43.533767"><ele>415.25</ele></trkpt>
<trkpt lon="-6.312640" lat="43.533658"><ele>413.0</ele></trkpt>
<trkpt lon="-6.313061" lat="43.533529"><ele>411.75</ele></trkpt>
<trkpt lon="-6.313178" lat="43.533480"><ele>411.25</ele></trkpt>
<trkpt lon="-6.313276" lat="43.533425"><ele>411.25</ele></trkpt>
<trkpt lon="-6.313407" lat="43.533323"><ele>412.0</ele></trkpt>
<trkpt lon="-6.313610" lat="43.533111"><ele>412.0</ele></trkpt>
<trkpt lon="-6.313899" lat="43.532932"><ele>414.0</ele></trkpt>
<trkpt lon="-6.314645" lat="43.532618"><ele>411.75</ele></trkpt>
<trkpt lon="-6.315072" lat="43.532437"><ele>413.25</ele></trkpt>
<trkpt lon="-6.315318" lat="43.532287"><ele>416.25</ele></trkpt>
<trkpt lon="-6.315516" lat="43.532139"><ele>418.5</ele></trkpt>
<trkpt lon="-6.315942" lat="43.531773"><ele>423.75</ele></trkpt>
<trkpt lon="-6.316109" lat="43.531580"><ele>426.5</ele></trkpt>
<trkpt lon="-6.316157" lat="43.531568"><ele>427.25</ele></trkpt>
<trkpt lon="-6.316240" lat="43.531500"><ele>428.75</ele></trkpt>
<trkpt lon="-6.316465" lat="43.531281"><ele>432.75</ele></trkpt>
<trkpt lon="-6.316671" lat="43.531177"><ele>435.5</ele></trkpt>
<trkpt lon="-6.317733" lat="43.530952"><ele>444.5</ele></trkpt>
<trkpt lon="-6.317996" lat="43.530957"><ele>447.0</ele></trkpt>
<trkpt lon="-6.318611" lat="43.531118"><ele>456.0</ele></trkpt>
<trkpt lon="-6.319311" lat="43.531172"><ele>464.0</ele></trkpt>
<trkpt lon="-6.319745" lat="43.531105"><ele>469.25</ele></trkpt>
<trkpt lon="-6.320101" lat="43.530979"><ele>473.25</ele></trkpt>
<trkpt lon="-6.320383" lat="43.530827"><ele>477.5</ele></trkpt>
<trkpt lon="-6.320509" lat="43.530700"><ele>479.5</ele></trkpt>
<trkpt lon="-6.320719" lat="43.530415"><ele>482.25</ele></trkpt>
<trkpt lon="-6.321163" lat="43.530059"><ele>486.75</ele></trkpt>
<trkpt lon="-6.321552" lat="43.529861"><ele>486.25</ele></trkpt>
<trkpt lon="-6.322021" lat="43.529766"><ele>485.75</ele></trkpt>
<trkpt lon="-6.322504" lat="43.529720"><ele>484.75</ele></trkpt>
<trkpt lon="-6.322868" lat="43.529728"><ele>487.75</ele></trkpt>
<trkpt lon="-6.323003" lat="43.529718"><ele>488.25</ele></trkpt>
<trkpt lon="-6.323121" lat="43.529672"><ele>487.75</ele></trkpt>
<trkpt lon="-6.323502" lat="43.529375"><ele>486.0</ele></trkpt>
<trkpt lon="-6.324103" lat="43.528574"><ele>484.5</ele></trkpt>
<trkpt lon="-6.324301" lat="43.528382"><ele>484.25</ele></trkpt>
<trkpt lon="-6.324391" lat="43.528269"><ele>484.75</ele></trkpt>
<trkpt lon="-6.325071" lat="43.527073"><ele>494.25</ele></trkpt>
<trkpt lon="-6.325212" lat="43.526841"><ele>497.75</ele></trkpt>
<trkpt lon="-6.325363" lat="43.526670"><ele>500.75</ele></trkpt>
<trkpt lon="-6.325747" lat="43.526382"><ele>503.75</ele></trkpt>
<trkpt lon="-6.326069" lat="43.526198"><ele>501.75</ele></trkpt>
<trkpt lon="-6.326551" lat="43.525892"><ele>496.75</ele></trkpt>
<trkpt lon="-6.326738" lat="43.525746"><ele>494.25</ele></trkpt>
<trkpt lon="-6.327220" lat="43.525435"><ele>490.0</ele></trkpt>
<trkpt lon="-6.327400" lat="43.525347"><ele>490.0</ele></trkpt>
<trkpt lon="-6.328050" lat="43.525086"><ele>490.25</ele></trkpt>
<trkpt lon="-6.328139" lat="43.525060"><ele>490.75</ele></trkpt>
<trkpt lon="-6.328297" lat="43.525025"><ele>492.25</ele></trkpt>
<trkpt lon="-6.328373" lat="43.524986"><ele>493.25</ele></trkpt>
<trkpt lon="-6.328477" lat="43.524911"><ele>494.5</ele></trkpt>
<trkpt lon="-6.328708" lat="43.524854"><ele>496.5</ele></trkpt>
<trkpt lon="-6.328977" lat="43.524807"><ele>499.0</ele></trkpt>
<trkpt lon="-6.329145" lat="43.524801"><ele>500.25</ele></trkpt>
<trkpt lon="-6.329315" lat="43.524806"><ele>501.5</ele></trkpt>
<trkpt lon="-6.329461" lat="43.524787"><ele>503.0</ele></trkpt>
<trkpt lon="-6.329752" lat="43.524805"><ele>503.25</ele></trkpt>
<trkpt lon="-6.330162" lat="43.524797"><ele>502.75</ele></trkpt>
<trkpt lon="-6.330480" lat="43.524864"><ele>503.5</ele></trkpt>
<trkpt lon="-6.331116" lat="43.524892"><ele>511.5</ele></trkpt>
<trkpt lon="-6.331465" lat="43.524931"><ele>518.0</ele></trkpt>
<trkpt lon="-6.331880" lat="43.524926"><ele>524.25</ele></trkpt>
<trkpt lon="-6.332300" lat="43.524862"><ele>528.0</ele></trkpt>
<trkpt lon="-6.333219" lat="43.524861"><ele>536.75</ele></trkpt>
<trkpt lon="-6.333608" lat="43.524918"><ele>541.0</ele></trkpt>
<trkpt lon="-6.334029" lat="43.524957"><ele>546.0</ele></trkpt>
<trkpt lon="-6.335164" lat="43.525122"><ele>568.25</ele></trkpt>
<trkpt lon="-6.335282" lat="43.525128"><ele>571.75</ele></trkpt>
<trkpt lon="-6.335414" lat="43.525092"><ele>573.0</ele></trkpt>
<trkpt lon="-6.335646" lat="43.524944"><ele>574.0</ele></trkpt>
<trkpt lon="-6.336372" lat="43.524354"><ele>572.25</ele></trkpt>
<trkpt lon="-6.336563" lat="43.524230"><ele>569.75</ele></trkpt>
<trkpt lon="-6.336751" lat="43.524148"><ele>567.75</ele></trkpt>
<trkpt lon="-6.337149" lat="43.524033"><ele>561.75</ele></trkpt>
<trkpt lon="-6.337591" lat="43.523930"><ele>558.0</ele></trkpt>
<trkpt lon="-6.337916" lat="43.523877"><ele>556.25</ele></trkpt>
<trkpt lon="-6.338368" lat="43.523754"><ele>554.5</ele></trkpt>
<trkpt lon="-6.338754" lat="43.523701"><ele>556.0</ele></trkpt>
<trkpt lon="-6.339061" lat="43.523683"><ele>558.5</ele></trkpt>
<trkpt lon="-6.339351" lat="43.523640"><ele>563.0</ele></trkpt>
<trkpt lon="-6.339659" lat="43.523552"><ele>569.0</ele></trkpt>
<trkpt lon="-6.340204" lat="43.523486"><ele>585.25</ele></trkpt>
<trkpt lon="-6.340542" lat="43.523475"><ele>590.75</ele></trkpt>
<trkpt lon="-6.341105" lat="43.523416"><ele>599.75</ele></trkpt>
<trkpt lon="-6.341421" lat="43.523426"><ele>606.0</ele></trkpt>
<trkpt lon="-6.342497" lat="43.523284"><ele>623.0</ele></trkpt>
<trkpt lon="-6.342801" lat="43.523161"><ele>624.75</ele></trkpt>
<trkpt lon="-6.342977" lat="43.523080"><ele>625.5</ele></trkpt>
<trkpt lon="-6.343080" lat="43.523057"><ele>626.25</ele></trkpt>
<trkpt lon="-6.343208" lat="43.523058"><ele>627.5</ele></trkpt>
<trkpt lon="-6.343408" lat="43.523102"><ele>630.0</ele></trkpt>
<trkpt lon="-6.343665" lat="43.523065"><ele>631.0</ele></trkpt>
<trkpt lon="-6.343907" lat="43.522968"><ele>629.75</ele></trkpt>
<trkpt lon="-6.344604" lat="43.522657"><ele>628.75</ele></trkpt>
<trkpt lon="-6.344812" lat="43.522667"><ele>628.5</ele></trkpt>
<trkpt lon="-6.345096" lat="43.522723"><ele>626.0</ele></trkpt>
<trkpt lon="-6.345370" lat="43.522729"><ele>625.0</ele></trkpt>
<trkpt lon="-6.345649" lat="43.522765"><ele>623.0</ele></trkpt>
<trkpt lon="-6.346057" lat="43.522783"><ele>620.75</ele></trkpt>
<trkpt lon="-6.346255" lat="43.522758"><ele>622.0</ele></trkpt>
<trkpt lon="-6.346708" lat="43.522758"><ele>622.25</ele></trkpt>
<trkpt lon="-6.346973" lat="43.522788"><ele>621.5</ele></trkpt>
<trkpt lon="-6.347251" lat="43.522770"><ele>622.5</ele></trkpt>
<trkpt lon="-6.347515" lat="43.522795"><ele>622.0</ele></trkpt>
<trkpt lon="-6.347968" lat="43.522861"><ele>618.5</ele></trkpt>
<trkpt lon="-6.348554" lat="43.522842"><ele>618.75</ele></trkpt>
<trkpt lon="-6.348735" lat="43.522815"><ele>619.5</ele></trkpt>
<trkpt lon="-6.349008" lat="43.522822"><ele>618.75</ele></trkpt>
<trkpt lon="-6.349150" lat="43.522796"><ele>620.0</ele></trkpt>
<trkpt lon="-6.350055" lat="43.522825"><ele>616.75</ele></trkpt>
<trkpt lon="-6.350275" lat="43.522856"><ele>615.75</ele></trkpt>
<trkpt lon="-6.351299" lat="43.523121"><ele>615.5</ele></trkpt>
<trkpt lon="-6.351804" lat="43.523288"><ele>618.25</ele></trkpt>
<trkpt lon="-6.352356" lat="43.523244"><ele>621.75</ele></trkpt>
<trkpt lon="-6.352248" lat="43.522813"><ele>624.25</ele></trkpt>
<trkpt lon="-6.352706" lat="43.523084"><ele>620.5</ele></trkpt>
<trkpt lon="-6.352800" lat="43.523156"><ele>621.25</ele></trkpt>
<trkpt lon="-6.353029" lat="43.523280"><ele>620.75</ele></trkpt>
<trkpt lon="-6.353192" lat="43.523322"><ele>618.75</ele></trkpt>
<trkpt lon="-6.353866" lat="43.523309"><ele>614.75</ele></trkpt>
<trkpt lon="-6.354126" lat="43.523319"><ele>614.75</ele></trkpt>
<trkpt lon="-6.354472" lat="43.523345"><ele>614.5</ele></trkpt>
<trkpt lon="-6.354798" lat="43.523338"><ele>614.75</ele></trkpt>
<trkpt lon="-6.354891" lat="43.523325"><ele>615.0</ele></trkpt>
<trkpt lon="-6.355035" lat="43.523354"><ele>614.25</ele></trkpt>
<trkpt lon="-6.355111" lat="43.523430"><ele>611.0</ele></trkpt>
<trkpt lon="-6.355177" lat="43.523462"><ele>609.75</ele></trkpt>
<trkpt lon="-6.355298" lat="43.523483"><ele>609.5</ele></trkpt>
<trkpt lon="-6.355391" lat="43.523518"><ele>608.0</ele></trkpt>
<trkpt lon="-6.355574" lat="43.523520"><ele>608.5</ele></trkpt>
<trkpt lon="-6.356191" lat="43.523615"><ele>606.0</ele></trkpt>
<trkpt lon="-6.356411" lat="43.523681"><ele>604.0</ele></trkpt>
<trkpt lon="-6.356849" lat="43.523939"><ele>594.75</ele></trkpt>
<trkpt lon="-6.357027" lat="43.524004"><ele>593.25</ele></trkpt>
<trkpt lon="-6.357164" lat="43.524035"><ele>592.5</ele></trkpt>
<trkpt lon="-6.357275" lat="43.524113"><ele>589.0</ele></trkpt>
<trkpt lon="-6.357461" lat="43.524171"><ele>586.5</ele></trkpt>
<trkpt lon="-6.357557" lat="43.524209"><ele>584.75</ele></trkpt>
<trkpt lon="-6.357874" lat="43.524281"><ele>585.0</ele></trkpt>
<trkpt lon="-6.357976" lat="43.524358"><ele>584.25</ele></trkpt>
<trkpt lon="-6.358082" lat="43.524500"><ele>583.5</ele></trkpt>
<trkpt lon="-6.358151" lat="43.524575"><ele>584.0</ele></trkpt>
<trkpt lon="-6.358247" lat="43.524623"><ele>585.75</ele></trkpt>
<trkpt lon="-6.358273" lat="43.524651"><ele>585.75</ele></trkpt>
<trkpt lon="-6.358286" lat="43.524719"><ele>583.75</ele></trkpt>
<trkpt lon="-6.358432" lat="43.524843"><ele>585.5</ele></trkpt>
<trkpt lon="-6.358473" lat="43.524974"><ele>584.0</ele></trkpt>
<trkpt lon="-6.358537" lat="43.525014"><ele>584.5</ele></trkpt>
<trkpt lon="-6.358627" lat="43.525050"><ele>585.25</ele></trkpt>
<trkpt lon="-6.358723" lat="43.525130"><ele>584.0</ele></trkpt>
<trkpt lon="-6.359290" lat="43.525332"><ele>582.25</ele></trkpt>
<trkpt lon="-6.359608" lat="43.525409"><ele>580.25</ele></trkpt>
<trkpt lon="-6.359731" lat="43.525408"><ele>581.0</ele></trkpt>
<trkpt lon="-6.359801" lat="43.525435"><ele>579.5</ele></trkpt>
<trkpt lon="-6.359934" lat="43.525434"><ele>580.0</ele></trkpt>
<trkpt lon="-6.360156" lat="43.525492"><ele>576.75</ele></trkpt>
<trkpt lon="-6.360235" lat="43.525488"><ele>577.0</ele></trkpt>
<trkpt lon="-6.360367" lat="43.525508"><ele>575.5</ele></trkpt>
<trkpt lon="-6.360899" lat="43.525489"><ele>575.0</ele></trkpt>
<trkpt lon="-6.361200" lat="43.525453"><ele>575.5</ele></trkpt>
<trkpt lon="-6.361367" lat="43.525398"><ele>577.75</ele></trkpt>
<trkpt lon="-6.361921" lat="43.525424"><ele>572.5</ele></trkpt>
<trkpt lon="-6.362204" lat="43.525404"><ele>572.75</ele></trkpt>
<trkpt lon="-6.362339" lat="43.525373"><ele>573.5</ele></trkpt>
<trkpt lon="-6.362551" lat="43.525416"><ele>569.25</ele></trkpt>
<trkpt lon="-6.362662" lat="43.525414"><ele>568.75</ele></trkpt>
<trkpt lon="-6.362871" lat="43.525391"><ele>569.0</ele></trkpt>
<trkpt lon="-6.363221" lat="43.525395"><ele>566.75</ele></trkpt>
<trkpt lon="-6.363783" lat="43.525465"><ele>559.5</ele></trkpt>
<trkpt lon="-6.363953" lat="43.525500"><ele>557.25</ele></trkpt>
<trkpt lon="-6.364101" lat="43.525492"><ele>557.0</ele></trkpt>
<trkpt lon="-6.364450" lat="43.525535"><ele>553.75</ele></trkpt>
<trkpt lon="-6.364747" lat="43.525593"><ele>549.75</ele></trkpt>
<trkpt lon="-6.364888" lat="43.525648"><ele>546.75</ele></trkpt>
<trkpt lon="-6.365374" lat="43.525749"><ele>544.75</ele></trkpt>
<trkpt lon="-6.365570" lat="43.525835"><ele>545.0</ele></trkpt>
<trkpt lon="-6.365672" lat="43.525898"><ele>545.0</ele></trkpt>
<trkpt lon="-6.365780" lat="43.526015"><ele>544.75</ele></trkpt>
<trkpt lon="-6.365866" lat="43.526231"><ele>545.0</ele></trkpt>
<trkpt lon="-6.365905" lat="43.526592"><ele>545.25</ele></trkpt>
<trkpt lon="-6.365848" lat="43.526844"><ele>545.5</ele></trkpt>
<trkpt lon="-6.365636" lat="43.527208"><ele>544.5</ele></trkpt>
<trkpt lon="-6.365506" lat="43.527547"><ele>542.25</ele></trkpt>
<trkpt lon="-6.365538" lat="43.527740"><ele>541.75</ele></trkpt>
<trkpt lon="-6.365688" lat="43.528071"><ele>537.25</ele></trkpt>
<trkpt lon="-6.365960" lat="43.528288"><ele>529.75</ele></trkpt>
<trkpt lon="-6.366042" lat="43.528327"><ele>528.25</ele></trkpt>
<trkpt lon="-6.366333" lat="43.528508"><ele>523.25</ele></trkpt>
<trkpt lon="-6.366411" lat="43.528592"><ele>521.5</ele></trkpt>
<trkpt lon="-6.366631" lat="43.528702"><ele>518.75</ele></trkpt>
<trkpt lon="-6.366885" lat="43.528785"><ele>516.75</ele></trkpt>
<trkpt lon="-6.367151" lat="43.528833"><ele>515.0</ele></trkpt>
<trkpt lon="-6.367482" lat="43.528849"><ele>512.25</ele></trkpt>
<trkpt lon="-6.367801" lat="43.528973"><ele>507.25</ele></trkpt>
<trkpt lon="-6.368020" lat="43.529017"><ele>504.0</ele></trkpt>
<trkpt lon="-6.368334" lat="43.529095"><ele>499.5</ele></trkpt>
<trkpt lon="-6.368482" lat="43.529109"><ele>498.0</ele></trkpt>
<trkpt lon="-6.368504" lat="43.529206"><ele>495.75</ele></trkpt>
<trkpt lon="-6.368771" lat="43.529525"><ele>487.75</ele></trkpt>
<trkpt lon="-6.368959" lat="43.529815"><ele>482.0</ele></trkpt>
<trkpt lon="-6.369157" lat="43.529700"><ele>483.25</ele></trkpt>
<trkpt lon="-6.369338" lat="43.529514"><ele>482.75</ele></trkpt>
<trkpt lon="-6.369469" lat="43.529567"><ele>480.75</ele></trkpt>
<trkpt lon="-6.369592" lat="43.529570"><ele>479.0</ele></trkpt>
<trkpt lon="-6.369756" lat="43.529507"><ele>477.0</ele></trkpt>
<trkpt lon="-6.370000" lat="43.529475"><ele>473.0</ele></trkpt>
<trkpt lon="-6.370211" lat="43.529517"><ele>469.25</ele></trkpt>
<trkpt lon="-6.370687" lat="43.529632"><ele>460.5</ele></trkpt>
<trkpt lon="-6.370987" lat="43.529731"><ele>455.25</ele></trkpt>
<trkpt lon="-6.371279" lat="43.529783"><ele>449.25</ele></trkpt>
<trkpt lon="-6.371487" lat="43.529883"><ele>447.0</ele></trkpt>
<trkpt lon="-6.371704" lat="43.529997"><ele>445.0</ele></trkpt>
<trkpt lon="-6.373247" lat="43.530642"><ele>422.0</ele></trkpt>
<trkpt lon="-6.373426" lat="43.530730"><ele>418.25</ele></trkpt>
<trkpt lon="-6.373588" lat="43.530840"><ele>414.75</ele></trkpt>
<trkpt lon="-6.373820" lat="43.531101"><ele>409.25</ele></trkpt>
<trkpt lon="-6.374075" lat="43.531565"><ele>398.75</ele></trkpt>
<trkpt lon="-6.374142" lat="43.531938"><ele>392.5</ele></trkpt>
<trkpt lon="-6.374080" lat="43.532296"><ele>385.0</ele></trkpt>
<trkpt lon="-6.374117" lat="43.532317"><ele>383.5</ele></trkpt>
<trkpt lon="-6.374176" lat="43.532297"><ele>382.5</ele></trkpt>
<trkpt lon="-6.374260" lat="43.532207"><ele>383.0</ele></trkpt>
<trkpt lon="-6.374545" lat="43.532045"><ele>378.5</ele></trkpt>
<trkpt lon="-6.374665" lat="43.531921"><ele>377.75</ele></trkpt>
<trkpt lon="-6.374736" lat="43.531558"><ele>377.5</ele></trkpt>
<trkpt lon="-6.374543" lat="43.530853"><ele>376.0</ele></trkpt>
<trkpt lon="-6.374391" lat="43.530173"><ele>368.0</ele></trkpt>
<trkpt lon="-6.374297" lat="43.529955"><ele>366.75</ele></trkpt>
<trkpt lon="-6.374221" lat="43.529836"><ele>366.75</ele></trkpt>
<trkpt lon="-6.374240" lat="43.529794"><ele>365.5</ele></trkpt>
<trkpt lon="-6.374280" lat="43.529804"><ele>364.5</ele></trkpt>
<trkpt lon="-6.374353" lat="43.529851"><ele>363.25</ele></trkpt>
<trkpt lon="-6.374652" lat="43.530084"><ele>357.0</ele></trkpt>
<trkpt lon="-6.375196" lat="43.530613"><ele>343.25</ele></trkpt>
<trkpt lon="-6.375390" lat="43.530787"><ele>339.25</ele></trkpt>
<trkpt lon="-6.376768" lat="43.531764"><ele>303.25</ele></trkpt>
<trkpt lon="-6.377128" lat="43.532107"><ele>293.75</ele></trkpt>
<trkpt lon="-6.377680" lat="43.532573"><ele>279.75</ele></trkpt>
<trkpt lon="-6.378008" lat="43.533071"><ele>271.25</ele></trkpt>
<trkpt lon="-6.378430" lat="43.533223"><ele>267.0</ele></trkpt>
<trkpt lon="-6.378537" lat="43.533231"><ele>266.75</ele></trkpt>
<trkpt lon="-6.378647" lat="43.533219"><ele>266.25</ele></trkpt>
<trkpt lon="-6.379335" lat="43.533072"><ele>260.75</ele></trkpt>
<trkpt lon="-6.379845" lat="43.533029"><ele>257.75</ele></trkpt>
<trkpt lon="-6.380984" lat="43.533082"><ele>250.5</ele></trkpt>
<trkpt lon="-6.381545" lat="43.533129"><ele>247.75</ele></trkpt>
<trkpt lon="-6.381783" lat="43.533129"><ele>247.0</ele></trkpt>
<trkpt lon="-6.382834" lat="43.533035"><ele>244.25</ele></trkpt>
<trkpt lon="-6.383448" lat="43.532930"><ele>241.75</ele></trkpt>
<trkpt lon="-6.383831" lat="43.532910"><ele>240.0</ele></trkpt>
<trkpt lon="-6.384027" lat="43.532875"><ele>238.25</ele></trkpt>
<trkpt lon="-6.384151" lat="43.532892"><ele>237.75</ele></trkpt>
<trkpt lon="-6.385106" lat="43.532876"><ele>232.75</ele></trkpt>
<trkpt lon="-6.385291" lat="43.532858"><ele>231.75</ele></trkpt>
<trkpt lon="-6.385848" lat="43.532702"><ele>226.25</ele></trkpt>
<trkpt lon="-6.386070" lat="43.532655"><ele>224.75</ele></trkpt>
<trkpt lon="-6.386571" lat="43.532602"><ele>221.5</ele></trkpt>
<trkpt lon="-6.386993" lat="43.532545"><ele>218.0</ele></trkpt>
<trkpt lon="-6.387242" lat="43.532492"><ele>215.5</ele></trkpt>
<trkpt lon="-6.387437" lat="43.532483"><ele>214.0</ele></trkpt>
<trkpt lon="-6.387525" lat="43.532487"><ele>213.5</ele></trkpt>
<trkpt lon="-6.387835" lat="43.532566"><ele>212.0</ele></trkpt>
<trkpt lon="-6.388001" lat="43.532579"><ele>211.0</ele></trkpt>
<trkpt lon="-6.388228" lat="43.532574"><ele>210.5</ele></trkpt>
<trkpt lon="-6.388408" lat="43.532539"><ele>210.25</ele></trkpt>
<trkpt lon="-6.388762" lat="43.532412"><ele>208.75</ele></trkpt>
<trkpt lon="-6.389150" lat="43.532300"><ele>206.75</ele></trkpt>
<trkpt lon="-6.389253" lat="43.532259"><ele>206.25</ele></trkpt>
<trkpt lon="-6.389548" lat="43.532114"><ele>204.25</ele></trkpt>
<trkpt lon="-6.389966" lat="43.531938"><ele>201.0</ele></trkpt>
<trkpt lon="-6.390236" lat="43.531853"><ele>199.25</ele></trkpt>
<trkpt lon="-6.390902" lat="43.531704"><ele>195.5</ele></trkpt>
<trkpt lon="-6.391210" lat="43.531623"><ele>193.5</ele></trkpt>
<trkpt lon="-6.391945" lat="43.531398"><ele>191.0</ele></trkpt>
<trkpt lon="-6.392549" lat="43.531232"><ele>187.75</ele></trkpt>
<trkpt lon="-6.392761" lat="43.531416"><ele>185.5</ele></trkpt>
<trkpt lon="-6.392980" lat="43.531524"><ele>180.75</ele></trkpt>
<trkpt lon="-6.393207" lat="43.531540"><ele>178.0</ele></trkpt>
<trkpt lon="-6.393825" lat="43.531486"><ele>170.75</ele></trkpt>
<trkpt lon="-6.394031" lat="43.531434"><ele>170.5</ele></trkpt>
<trkpt lon="-6.394231" lat="43.531298"><ele>170.75</ele></trkpt>
<trkpt lon="-6.394622" lat="43.531003"><ele>168.25</ele></trkpt>
<trkpt lon="-6.394792" lat="43.530884"><ele>167.75</ele></trkpt>
<trkpt lon="-6.395054" lat="43.530763"><ele>168.25</ele></trkpt>
<trkpt lon="-6.395209" lat="43.530672"><ele>168.0</ele></trkpt>
<trkpt lon="-6.395297" lat="43.530604"><ele>168.0</ele></trkpt>
<trkpt lon="-6.395358" lat="43.530532"><ele>168.25</ele></trkpt>
<trkpt lon="-6.395390" lat="43.530316"><ele>169.5</ele></trkpt>
<trkpt lon="-6.395435" lat="43.530259"><ele>169.25</ele></trkpt>
<trkpt lon="-6.395606" lat="43.530167"><ele>166.75</ele></trkpt>
<trkpt lon="-6.395848" lat="43.530007"><ele>163.75</ele></trkpt>
<trkpt lon="-6.395955" lat="43.529976"><ele>163.25</ele></trkpt>
<trkpt lon="-6.396128" lat="43.530065"><ele>161.25</ele></trkpt>
<trkpt lon="-6.396353" lat="43.530133"><ele>159.25</ele></trkpt>
<trkpt lon="-6.396832" lat="43.530201"><ele>154.5</ele></trkpt>
<trkpt lon="-6.397044" lat="43.530244"><ele>153.5</ele></trkpt>
<trkpt lon="-6.397209" lat="43.530300"><ele>152.75</ele></trkpt>
<trkpt lon="-6.397290" lat="43.530341"><ele>152.25</ele></trkpt>
<trkpt lon="-6.397355" lat="43.530368"><ele>152.0</ele></trkpt>
<trkpt lon="-6.397614" lat="43.530520"><ele>152.25</ele></trkpt>
<trkpt lon="-6.397670" lat="43.530535"><ele>152.25</ele></trkpt>
<trkpt lon="-6.397782" lat="43.530532"><ele>151.75</ele></trkpt>
<trkpt lon="-6.397896" lat="43.530515"><ele>151.25</ele></trkpt>
<trkpt lon="-6.397927" lat="43.530518"><ele>151.25</ele></trkpt>
<trkpt lon="-6.398078" lat="43.530480"><ele>150.5</ele></trkpt>
<trkpt lon="-6.398266" lat="43.530388"><ele>150.5</ele></trkpt>
<trkpt lon="-6.398288" lat="43.530361"><ele>150.25</ele></trkpt>
<trkpt lon="-6.398340" lat="43.530394"><ele>150.75</ele></trkpt>
<trkpt lon="-6.398438" lat="43.530432"><ele>152.75</ele></trkpt>
<trkpt lon="-6.398245" lat="43.530721"><ele>155.25</ele></trkpt>
<trkpt lon="-6.398178" lat="43.530879"><ele>157.0</ele></trkpt>
<trkpt lon="-6.398185" lat="43.530926"><ele>158.0</ele></trkpt>
<trkpt lon="-6.398313" lat="43.531023"><ele>162.25</ele></trkpt>
<trkpt lon="-6.398506" lat="43.531116"><ele>165.25</ele></trkpt>
<trkpt lon="-6.398725" lat="43.531174"><ele>168.0</ele></trkpt>
<trkpt lon="-6.398945" lat="43.531147"><ele>170.0</ele></trkpt>
<trkpt lon="-6.399218" lat="43.531073"><ele>172.75</ele></trkpt>
<trkpt lon="-6.399421" lat="43.530986"><ele>177.0</ele></trkpt>
<trkpt lon="-6.399676" lat="43.530800"><ele>179.5</ele></trkpt>
<trkpt lon="-6.400122" lat="43.530511"><ele>181.75</ele></trkpt>
<trkpt lon="-6.400374" lat="43.530340"><ele>182.25</ele></trkpt>
<trkpt lon="-6.400589" lat="43.530181"><ele>183.75</ele></trkpt>
<trkpt lon="-6.400676" lat="43.530040"><ele>182.75</ele></trkpt>
<trkpt lon="-6.400840" lat="43.529696"><ele>180.75</ele></trkpt>
<trkpt lon="-6.401043" lat="43.529432"><ele>179.75</ele></trkpt>
<trkpt lon="-6.401380" lat="43.529102"><ele>178.0</ele></trkpt>
<trkpt lon="-6.401776" lat="43.528819"><ele>176.75</ele></trkpt>
<trkpt lon="-6.402178" lat="43.528640"><ele>181.0</ele></trkpt>
<trkpt lon="-6.402579" lat="43.528497"><ele>184.25</ele></trkpt>
<trkpt lon="-6.402863" lat="43.528442"><ele>184.5</ele></trkpt>
<trkpt lon="-6.403200" lat="43.528489"><ele>187.75</ele></trkpt>
<trkpt lon="-6.403650" lat="43.528594"><ele>192.5</ele></trkpt>
<trkpt lon="-6.403923" lat="43.528501"><ele>188.75</ele></trkpt>
<trkpt lon="-6.404265" lat="43.528528"><ele>187.5</ele></trkpt>
<trkpt lon="-6.404415" lat="43.528516"><ele>188.0</ele></trkpt>
<trkpt lon="-6.404511" lat="43.528423"><ele>187.25</ele></trkpt>
<trkpt lon="-6.404618" lat="43.528272"><ele>187.0</ele></trkpt>
<trkpt lon="-6.404709" lat="43.528027"><ele>187.0</ele></trkpt>
<trkpt lon="-6.404816" lat="43.527851"><ele>187.5</ele></trkpt>
<trkpt lon="-6.404838" lat="43.527755"><ele>186.25</ele></trkpt>
<trkpt lon="-6.405250" lat="43.527449"><ele>186.5</ele></trkpt>
<trkpt lon="-6.405935" lat="43.527022"><ele>181.0</ele></trkpt>
<trkpt lon="-6.406353" lat="43.526802"><ele>173.5</ele></trkpt>
<trkpt lon="-6.406513" lat="43.526990"><ele>174.25</ele></trkpt>
<trkpt lon="-6.406556" lat="43.527203"><ele>175.75</ele></trkpt>
<trkpt lon="-6.406711" lat="43.527327"><ele>176.75</ele></trkpt>
<trkpt lon="-6.406941" lat="43.527432"><ele>179.5</ele></trkpt>
<trkpt lon="-6.407097" lat="43.527646"><ele>183.75</ele></trkpt>
<trkpt lon="-6.407268" lat="43.527976"><ele>189.5</ele></trkpt>
<trkpt lon="-6.407332" lat="43.528189"><ele>193.25</ele></trkpt>
<trkpt lon="-6.407428" lat="43.528344"><ele>194.75</ele></trkpt>
<trkpt lon="-6.407659" lat="43.528643"><ele>197.5</ele></trkpt>
<trkpt lon="-6.407750" lat="43.528833"><ele>199.25</ele></trkpt>
<trkpt lon="-6.407787" lat="43.528895"><ele>200.0</ele></trkpt>
<trkpt lon="-6.407889" lat="43.528903"><ele>200.5</ele></trkpt>
<trkpt lon="-6.407958" lat="43.528860"><ele>200.0</ele></trkpt>
<trkpt lon="-6.408060" lat="43.528709"><ele>198.5</ele></trkpt>
<trkpt lon="-6.408488" lat="43.527991"><ele>205.0</ele></trkpt>
<trkpt lon="-6.408649" lat="43.527684"><ele>209.0</ele></trkpt>
<trkpt lon="-6.408756" lat="43.527677"><ele>209.5</ele></trkpt>
<trkpt lon="-6.408836" lat="43.527719"><ele>210.75</ele></trkpt>
<trkpt lon="-6.408900" lat="43.527789"><ele>212.75</ele></trkpt>
<trkpt lon="-6.409510" lat="43.528705"><ele>226.75</ele></trkpt>
<trkpt lon="-6.410024" lat="43.529656"><ele>238.25</ele></trkpt>
<trkpt lon="-6.410067" lat="43.529982"><ele>244.25</ele></trkpt>
<trkpt lon="-6.410131" lat="43.530184"><ele>248.25</ele></trkpt>
<trkpt lon="-6.410201" lat="43.530269"><ele>249.25</ele></trkpt>
<trkpt lon="-6.410281" lat="43.530308"><ele>249.25</ele></trkpt>
<trkpt lon="-6.410415" lat="43.530292"><ele>250.5</ele></trkpt>
<trkpt lon="-6.410624" lat="43.530172"><ele>249.0</ele></trkpt>
<trkpt lon="-6.410816" lat="43.530021"><ele>247.25</ele></trkpt>
<trkpt lon="-6.411020" lat="43.529799"><ele>245.5</ele></trkpt>
<trkpt lon="-6.411186" lat="43.529636"><ele>244.25</ele></trkpt>
<trkpt lon="-6.411303" lat="43.529345"><ele>241.75</ele></trkpt>
<trkpt lon="-6.411507" lat="43.529085"><ele>244.25</ele></trkpt>
<trkpt lon="-6.411534" lat="43.528639"><ele>239.0</ele></trkpt>
<trkpt lon="-6.411582" lat="43.528185"><ele>234.75</ele></trkpt>
<trkpt lon="-6.411742" lat="43.527913"><ele>232.0</ele></trkpt>
<trkpt lon="-6.412556" lat="43.527060"><ele>222.5</ele></trkpt>
<trkpt lon="-6.412658" lat="43.526889"><ele>223.5</ele></trkpt>
<trkpt lon="-6.412700" lat="43.526710"><ele>224.25</ele></trkpt>
<trkpt lon="-6.412850" lat="43.526536"><ele>224.0</ele></trkpt>
<trkpt lon="-6.413129" lat="43.526443"><ele>225.25</ele></trkpt>
<trkpt lon="-6.413535" lat="43.526415"><ele>224.25</ele></trkpt>
<trkpt lon="-6.413894" lat="43.526446"><ele>222.75</ele></trkpt>
<trkpt lon="-6.414274" lat="43.526489"><ele>223.0</ele></trkpt>
<trkpt lon="-6.414461" lat="43.526408"><ele>220.5</ele></trkpt>
<trkpt lon="-6.414558" lat="43.526334"><ele>222.5</ele></trkpt>
<trkpt lon="-6.414574" lat="43.526027"><ele>218.0</ele></trkpt>
<trkpt lon="-6.414552" lat="43.525651"><ele>211.5</ele></trkpt>
<trkpt lon="-6.414638" lat="43.525445"><ele>211.75</ele></trkpt>
<trkpt lon="-6.414861" lat="43.525437"><ele>215.75</ele></trkpt>
<trkpt lon="-6.415343" lat="43.525514"><ele>223.0</ele></trkpt>
<trkpt lon="-6.415643" lat="43.525569"><ele>226.25</ele></trkpt>
<trkpt lon="-6.415969" lat="43.525600"><ele>231.0</ele></trkpt>
<trkpt lon="-6.416205" lat="43.525561"><ele>233.75</ele></trkpt>
<trkpt lon="-6.416419" lat="43.525565"><ele>238.0</ele></trkpt>
<trkpt lon="-6.416478" lat="43.525588"><ele>240.0</ele></trkpt>
<trkpt lon="-6.416515" lat="43.525674"><ele>243.5</ele></trkpt>
<trkpt lon="-6.416521" lat="43.525887"><ele>249.75</ele></trkpt>
<trkpt lon="-6.416376" lat="43.526396"><ele>260.0</ele></trkpt>
<trkpt lon="-6.416234" lat="43.526931"><ele>270.25</ele></trkpt>
<trkpt lon="-6.416274" lat="43.527040"><ele>270.75</ele></trkpt>
<trkpt lon="-6.416490" lat="43.527287"><ele>272.25</ele></trkpt>
<trkpt lon="-6.417186" lat="43.527820"><ele>285.25</ele></trkpt>
<trkpt lon="-6.417765" lat="43.528204"><ele>291.25</ele></trkpt>
<trkpt lon="-6.418086" lat="43.528323"><ele>293.25</ele></trkpt>
<trkpt lon="-6.418363" lat="43.528483"><ele>295.25</ele></trkpt>
<trkpt lon="-6.418559" lat="43.528676"><ele>296.25</ele></trkpt>
<trkpt lon="-6.418647" lat="43.528914"><ele>297.25</ele></trkpt>
<trkpt lon="-6.418713" lat="43.529154"><ele>297.25</ele></trkpt>
<trkpt lon="-6.418781" lat="43.529291"><ele>297.25</ele></trkpt>
<trkpt lon="-6.418789" lat="43.529591"><ele>298.0</ele></trkpt>
<trkpt lon="-6.418548" lat="43.529923"><ele>298.0</ele></trkpt>
<trkpt lon="-6.418312" lat="43.530166"><ele>297.75</ele></trkpt>
<trkpt lon="-6.418255" lat="43.530400"><ele>297.0</ele></trkpt>
<trkpt lon="-6.418301" lat="43.530616"><ele>296.25</ele></trkpt>
<trkpt lon="-6.418513" lat="43.531057"><ele>294.75</ele></trkpt>
<trkpt lon="-6.419044" lat="43.532062"><ele>286.25</ele></trkpt>
<trkpt lon="-6.419333" lat="43.532624"><ele>281.75</ele></trkpt>
<trkpt lon="-6.419693" lat="43.533081"><ele>279.25</ele></trkpt>
<trkpt lon="-6.419894" lat="43.533293"><ele>278.0</ele></trkpt>
<trkpt lon="-6.420090" lat="43.533322"><ele>277.25</ele></trkpt>
<trkpt lon="-6.420567" lat="43.533338"><ele>273.75</ele></trkpt>
<trkpt lon="-6.420932" lat="43.533422"><ele>270.75</ele></trkpt>
<trkpt lon="-6.421418" lat="43.533636"><ele>267.25</ele></trkpt>
<trkpt lon="-6.421951" lat="43.533748"><ele>259.75</ele></trkpt>
<trkpt lon="-6.422119" lat="43.533756"><ele>256.75</ele></trkpt>
<trkpt lon="-6.422482" lat="43.533653"><ele>251.25</ele></trkpt>
<trkpt lon="-6.422639" lat="43.533598"><ele>249.25</ele></trkpt>
<trkpt lon="-6.422758" lat="43.533586"><ele>247.75</ele></trkpt>
<trkpt lon="-6.423043" lat="43.534059"><ele>244.5</ele></trkpt>
<trkpt lon="-6.423445" lat="43.534437"><ele>237.0</ele></trkpt>
<trkpt lon="-6.424279" lat="43.535051"><ele>228.0</ele></trkpt>
<trkpt lon="-6.424695" lat="43.535331"><ele>229.25</ele></trkpt>
<trkpt lon="-6.425452" lat="43.535211"><ele>223.75</ele></trkpt>
<trkpt lon="-6.426042" lat="43.535051"><ele>216.75</ele></trkpt>
<trkpt lon="-6.426766" lat="43.534981"><ele>212.75</ele></trkpt>
<trkpt lon="-6.427619" lat="43.534697"><ele>204.25</ele></trkpt>
<trkpt lon="-6.428676" lat="43.534437"><ele>189.75</ele></trkpt>
<trkpt lon="-6.429754" lat="43.534032"><ele>176.25</ele></trkpt>
<trkpt lon="-6.430231" lat="43.533900"><ele>170.25</ele></trkpt>
<trkpt lon="-6.431347" lat="43.533371"><ele>159.0</ele></trkpt>
<trkpt lon="-6.430923" lat="43.533433"><ele>154.75</ele></trkpt>
<trkpt lon="-6.430414" lat="43.533441"><ele>146.5</ele></trkpt>
<trkpt lon="-6.429909" lat="43.533433"><ele>140.5</ele></trkpt>
<trkpt lon="-6.429212" lat="43.533441"><ele>136.0</ele></trkpt>
<trkpt lon="-6.428853" lat="43.533507"><ele>136.75</ele></trkpt>
<trkpt lon="-6.428858" lat="43.533441"><ele>133.0</ele></trkpt>
<trkpt lon="-6.429293" lat="43.533328"><ele>130.0</ele></trkpt>
<trkpt lon="-6.430097" lat="43.533021"><ele>118.75</ele></trkpt>
<trkpt lon="-6.430730" lat="43.532819"><ele>116.5</ele></trkpt>
<trkpt lon="-6.431202" lat="43.532535"><ele>114.0</ele></trkpt>
<trkpt lon="-6.431744" lat="43.532146"><ele>109.25</ele></trkpt>
<trkpt lon="-6.431969" lat="43.532068"><ele>108.0</ele></trkpt>
<trkpt lon="-6.432334" lat="43.532088"><ele>103.75</ele></trkpt>
<trkpt lon="-6.432624" lat="43.532185"><ele>100.0</ele></trkpt>
<trkpt lon="-6.432876" lat="43.532445"><ele>98.75</ele></trkpt>
<trkpt lon="-6.433058" lat="43.532679"><ele>98.25</ele></trkpt>
<trkpt lon="-6.433262" lat="43.532753"><ele>97.5</ele></trkpt>
<trkpt lon="-6.433702" lat="43.532764"><ele>95.25</ele></trkpt>
<trkpt lon="-6.434249" lat="43.532760"><ele>88.75</ele></trkpt>
<trkpt lon="-6.434550" lat="43.532788"><ele>84.5</ele></trkpt>
<trkpt lon="-6.434705" lat="43.532881"><ele>81.5</ele></trkpt>
<trkpt lon="-6.434910" lat="43.533036"><ele>76.75</ele></trkpt>
<trkpt lon="-6.434990" lat="43.533231"><ele>79.0</ele></trkpt>
<trkpt lon="-6.435263" lat="43.533280"><ele>79.75</ele></trkpt>
<trkpt lon="-6.435515" lat="43.533239"><ele>77.25</ele></trkpt>
<trkpt lon="-6.435714" lat="43.533161"><ele>75.75</ele></trkpt>
<trkpt lon="-6.435879" lat="43.533088"><ele>75.25</ele></trkpt>
<trkpt lon="-6.435844" lat="43.533033"><ele>73.25</ele></trkpt>
<trkpt lon="-6.435920" lat="43.532920"><ele>70.0</ele></trkpt>
<trkpt lon="-6.436041" lat="43.532857"><ele>69.25</ele></trkpt>
<trkpt lon="-6.436299" lat="43.532803"><ele>67.75</ele></trkpt>
<trkpt lon="-6.436831" lat="43.532725"><ele>62.5</ele></trkpt>
<trkpt lon="-6.437035" lat="43.532672"><ele>60.0</ele></trkpt>
<trkpt lon="-6.437332" lat="43.532569"><ele>57.25</ele></trkpt>
<trkpt lon="-6.437666" lat="43.532444"><ele>54.25</ele></trkpt>
<trkpt lon="-6.437899" lat="43.532398"><ele>52.75</ele></trkpt>
<trkpt lon="-6.438245" lat="43.532361"><ele>50.75</ele></trkpt>
<trkpt lon="-6.439140" lat="43.532283"><ele>46.25</ele></trkpt>
<trkpt lon="-6.439383" lat="43.532254"><ele>43.0</ele></trkpt>
<trkpt lon="-6.439417" lat="43.532261"><ele>42.5</ele></trkpt>
<trkpt lon="-6.439575" lat="43.532011"><ele>39.25</ele></trkpt>
<trkpt lon="-6.439748" lat="43.531839"><ele>34.75</ele></trkpt>
<trkpt lon="-6.439797" lat="43.531708"><ele>32.5</ele></trkpt>
<trkpt lon="-6.439740" lat="43.531582"><ele>30.0</ele></trkpt>
<trkpt lon="-6.439529" lat="43.531381"><ele>26.25</ele></trkpt>
<trkpt lon="-6.439444" lat="43.531341"><ele>26.75</ele></trkpt>
<trkpt lon="-6.439288" lat="43.531309"><ele>24.75</ele></trkpt>
<trkpt lon="-6.439210" lat="43.531313"><ele>24.75</ele></trkpt>
<trkpt lon="-6.439076" lat="43.531307"><ele>23.75</ele></trkpt>
<trkpt lon="-6.439055" lat="43.531276"><ele>22.25</ele></trkpt>
<trkpt lon="-6.439080" lat="43.531246"><ele>21.0</ele></trkpt>
<trkpt lon="-6.439304" lat="43.531153"><ele>18.25</ele></trkpt>
<trkpt lon="-6.439464" lat="43.531036"><ele>16.25</ele></trkpt>
<trkpt lon="-6.439533" lat="43.531124"><ele>17.0</ele></trkpt>
<trkpt lon="-6.439597" lat="43.531180"><ele>18.25</ele></trkpt>
<trkpt lon="-6.439980" lat="43.531166"><ele>16.0</ele></trkpt>
<trkpt lon="-6.440170" lat="43.531161"><ele>14.5</ele></trkpt>
<trkpt lon="-6.440431" lat="43.531245"><ele>13.5</ele></trkpt>
<trkpt lon="-6.440510" lat="43.531290"><ele>13.5</ele></trkpt>
<trkpt lon="-6.440585" lat="43.531280"><ele>12.5</ele></trkpt>
<trkpt lon="-6.440644" lat="43.531262"><ele>11.5</ele></trkpt>
<trkpt lon="-6.441161" lat="43.531059"><ele>9.25</ele></trkpt>
<trkpt lon="-6.441216" lat="43.531019"><ele>9.5</ele></trkpt>
<trkpt lon="-6.441243" lat="43.530956"><ele>9.75</ele></trkpt>
<trkpt lon="-6.441238" lat="43.530892"><ele>9.75</ele></trkpt>
<trkpt lon="-6.441173" lat="43.530762"><ele>10.0</ele></trkpt>
<trkpt lon="-6.440834" lat="43.529944"><ele>11.0</ele></trkpt>
<trkpt lon="-6.440616" lat="43.529468"><ele>10.75</ele></trkpt>
<trkpt lon="-6.440598" lat="43.529379"><ele>11.0</ele></trkpt>
<trkpt lon="-6.440622" lat="43.529310"><ele>11.0</ele></trkpt>
<trkpt lon="-6.440665" lat="43.529242"><ele>11.0</ele></trkpt>
<trkpt lon="-6.440815" lat="43.529080"><ele>10.5</ele></trkpt>
<trkpt lon="-6.440909" lat="43.529006"><ele>10.5</ele></trkpt>
<trkpt lon="-6.440988" lat="43.528987"><ele>10.75</ele></trkpt>
<trkpt lon="-6.441061" lat="43.528948"><ele>11.25</ele></trkpt>
<trkpt lon="-6.441098" lat="43.528914"><ele>11.5</ele></trkpt>
<trkpt lon="-6.441230" lat="43.528913"><ele>12.0</ele></trkpt>
<trkpt lon="-6.441289" lat="43.528907"><ele>12.25</ele></trkpt>
<trkpt lon="-6.441365" lat="43.528872"><ele>13.5</ele></trkpt>
<trkpt lon="-6.441440" lat="43.528805"><ele>16.0</ele></trkpt>
<trkpt lon="-6.441550" lat="43.528683"><ele>18.75</ele></trkpt>
<trkpt lon="-6.441651" lat="43.528622"><ele>18.0</ele></trkpt>
<trkpt lon="-6.441739" lat="43.528600"><ele>19.5</ele></trkpt>
<trkpt lon="-6.441849" lat="43.528612"><ele>20.5</ele></trkpt>
<trkpt lon="-6.441993" lat="43.528705"><ele>22.5</ele></trkpt>
<trkpt lon="-6.442081" lat="43.528742"><ele>24.5</ele></trkpt>
<trkpt lon="-6.442154" lat="43.528763"><ele>26.5</ele></trkpt>
<trkpt lon="-6.442229" lat="43.528763"><ele>28.5</ele></trkpt>
<trkpt lon="-6.442282" lat="43.528737"><ele>29.5</ele></trkpt>
<trkpt lon="-6.442300" lat="43.528702"><ele>30.0</ele></trkpt>
<trkpt lon="-6.442286" lat="43.528546"><ele>30.5</ele></trkpt>
<trkpt lon="-6.442260" lat="43.528414"><ele>30.75</ele></trkpt>
<trkpt lon="-6.442264" lat="43.528345"><ele>31.5</ele></trkpt>
<trkpt lon="-6.442286" lat="43.528304"><ele>33.0</ele></trkpt>
<trkpt lon="-6.442347" lat="43.528289"><ele>34.25</ele></trkpt>
<trkpt lon="-6.442410" lat="43.528291"><ele>35.0</ele></trkpt>
<trkpt lon="-6.442457" lat="43.528332"><ele>35.0</ele></trkpt>
<trkpt lon="-6.442488" lat="43.528394"><ele>35.75</ele></trkpt>
<trkpt lon="-6.442512" lat="43.528491"><ele>36.75</ele></trkpt>
<trkpt lon="-6.442555" lat="43.528557"><ele>37.75</ele></trkpt>
<trkpt lon="-6.442697" lat="43.528720"><ele>38.75</ele></trkpt>
<trkpt lon="-6.442894" lat="43.528876"><ele>41.0</ele></trkpt>
<trkpt lon="-6.443336" lat="43.529100"><ele>47.0</ele></trkpt>
<trkpt lon="-6.443462" lat="43.529196"><ele>48.0</ele></trkpt>
<trkpt lon="-6.443511" lat="43.529264"><ele>49.5</ele></trkpt>
<trkpt lon="-6.443517" lat="43.529414"><ele>51.25</ele></trkpt>
<trkpt lon="-6.443531" lat="43.529472"><ele>51.75</ele></trkpt>
<trkpt lon="-6.443674" lat="43.529746"><ele>55.25</ele></trkpt>
<trkpt lon="-6.443983" lat="43.530441"><ele>61.75</ele></trkpt>
<trkpt lon="-6.444056" lat="43.530481"><ele>62.75</ele></trkpt>
<trkpt lon="-6.444160" lat="43.530490"><ele>64.75</ele></trkpt>
<trkpt lon="-6.444221" lat="43.530473"><ele>65.0</ele></trkpt>
<trkpt lon="-6.444290" lat="43.530419"><ele>66.25</ele></trkpt>
<trkpt lon="-6.444600" lat="43.529815"><ele>75.75</ele></trkpt>
<trkpt lon="-6.444712" lat="43.529765"><ele>77.5</ele></trkpt>
<trkpt lon="-6.445208" lat="43.529585"><ele>81.75</ele></trkpt>
<trkpt lon="-6.445323" lat="43.529485"><ele>82.5</ele></trkpt>
<trkpt lon="-6.445550" lat="43.529142"><ele>84.0</ele></trkpt>
<trkpt lon="-6.445581" lat="43.529009"><ele>86.0</ele></trkpt>
<trkpt lon="-6.445532" lat="43.528925"><ele>86.25</ele></trkpt>
<trkpt lon="-6.445385" lat="43.528873"><ele>85.75</ele></trkpt>
<trkpt lon="-6.445040" lat="43.528673"><ele>89.5</ele></trkpt>
<trkpt lon="-6.445003" lat="43.528625"><ele>90.5</ele></trkpt>
<trkpt lon="-6.444998" lat="43.528550"><ele>91.0</ele></trkpt>
<trkpt lon="-6.445033" lat="43.528482"><ele>91.75</ele></trkpt>
<trkpt lon="-6.445130" lat="43.528451"><ele>93.5</ele></trkpt>
<trkpt lon="-6.445232" lat="43.528453"><ele>95.25</ele></trkpt>
<trkpt lon="-6.445474" lat="43.528507"><ele>98.75</ele></trkpt>
<trkpt lon="-6.445650" lat="43.528515"><ele>101.0</ele></trkpt>
<trkpt lon="-6.445752" lat="43.528496"><ele>102.5</ele></trkpt>
<trkpt lon="-6.446034" lat="43.528510"><ele>105.75</ele></trkpt>
<trkpt lon="-6.446109" lat="43.528477"><ele>107.75</ele></trkpt>
<trkpt lon="-6.446523" lat="43.528338"><ele>115.75</ele></trkpt>
<trkpt lon="-6.446759" lat="43.528246"><ele>118.75</ele></trkpt>
<trkpt lon="-6.446871" lat="43.528165"><ele>121.25</ele></trkpt>
<trkpt lon="-6.447000" lat="43.528095"><ele>124.25</ele></trkpt>
<trkpt lon="-6.447209" lat="43.528040"><ele>128.25</ele></trkpt>
<trkpt lon="-6.447392" lat="43.528005"><ele>131.5</ele></trkpt>
<trkpt lon="-6.447751" lat="43.527896"><ele>135.75</ele></trkpt>
<trkpt lon="-6.447966" lat="43.527671"><ele>138.0</ele></trkpt>
<trkpt lon="-6.448019" lat="43.527593"><ele>139.25</ele></trkpt>
<trkpt lon="-6.448148" lat="43.527453"><ele>142.0</ele></trkpt>
<trkpt lon="-6.448277" lat="43.527328"><ele>144.0</ele></trkpt>
<trkpt lon="-6.448428" lat="43.527214"><ele>146.25</ele></trkpt>
<trkpt lon="-6.448513" lat="43.527137"><ele>149.5</ele></trkpt>
<trkpt lon="-6.448524" lat="43.527056"><ele>150.75</ele></trkpt>
<trkpt lon="-6.448444" lat="43.526841"><ele>152.5</ele></trkpt>
<trkpt lon="-6.448422" lat="43.526823"><ele>152.75</ele></trkpt>
<trkpt lon="-6.448508" lat="43.526822"><ele>153.75</ele></trkpt>
<trkpt lon="-6.449039" lat="43.526990"><ele>160.75</ele></trkpt>
<trkpt lon="-6.449275" lat="43.527076"><ele>164.5</ele></trkpt>
<trkpt lon="-6.449688" lat="43.527150"><ele>169.75</ele></trkpt>
<trkpt lon="-6.449999" lat="43.527181"><ele>172.75</ele></trkpt>
<trkpt lon="-6.450492" lat="43.527270"><ele>180.25</ele></trkpt>
<trkpt lon="-6.450868" lat="43.527352"><ele>185.25</ele></trkpt>
<trkpt lon="-6.451061" lat="43.527414"><ele>187.75</ele></trkpt>
<trkpt lon="-6.451324" lat="43.527523"><ele>192.75</ele></trkpt>
<trkpt lon="-6.451764" lat="43.527507"><ele>198.75</ele></trkpt>
<trkpt lon="-6.451898" lat="43.527457"><ele>200.5</ele></trkpt>
<trkpt lon="-6.451984" lat="43.527410"><ele>202.5</ele></trkpt>
<trkpt lon="-6.451786" lat="43.527597"><ele>204.75</ele></trkpt>
<trkpt lon="-6.451579" lat="43.527722"><ele>208.0</ele></trkpt>
<trkpt lon="-6.451155" lat="43.527774"><ele>209.25</ele></trkpt>
<trkpt lon="-6.450731" lat="43.527881"><ele>215.5</ele></trkpt>
<trkpt lon="-6.450452" lat="43.528179"><ele>226.5</ele></trkpt>
<trkpt lon="-6.450208" lat="43.528424"><ele>231.0</ele></trkpt>
<trkpt lon="-6.450222" lat="43.528447"><ele>232.0</ele></trkpt>
<trkpt lon="-6.450316" lat="43.528428"><ele>233.25</ele></trkpt>
<trkpt lon="-6.450477" lat="43.528416"><ele>235.75</ele></trkpt>
<trkpt lon="-6.450925" lat="43.528449"><ele>241.5</ele></trkpt>
<trkpt lon="-6.451236" lat="43.528531"><ele>246.0</ele></trkpt>
<trkpt lon="-6.451437" lat="43.528605"><ele>250.25</ele></trkpt>
<trkpt lon="-6.451627" lat="43.528615"><ele>252.5</ele></trkpt>
<trkpt lon="-6.451861" lat="43.528657"><ele>254.75</ele></trkpt>
<trkpt lon="-6.451992" lat="43.528710"><ele>255.5</ele></trkpt>
<trkpt lon="-6.452051" lat="43.528712"><ele>256.25</ele></trkpt>
<trkpt lon="-6.452137" lat="43.528686"><ele>257.25</ele></trkpt>
<trkpt lon="-6.452311" lat="43.528652"><ele>259.0</ele></trkpt>
<trkpt lon="-6.452687" lat="43.528615"><ele>261.5</ele></trkpt>
<trkpt lon="-6.452958" lat="43.528607"><ele>262.5</ele></trkpt>
<trkpt lon="-6.453282" lat="43.528572"><ele>264.75</ele></trkpt>
<trkpt lon="-6.453778" lat="43.528478"><ele>266.25</ele></trkpt>
<trkpt lon="-6.454398" lat="43.528416"><ele>261.75</ele></trkpt>
<trkpt lon="-6.455015" lat="43.528317"><ele>259.5</ele></trkpt>
<trkpt lon="-6.455286" lat="43.528251"><ele>258.75</ele></trkpt>
<trkpt lon="-6.455688" lat="43.528128"><ele>261.25</ele></trkpt>
<trkpt lon="-6.456198" lat="43.527866"><ele>263.25</ele></trkpt>
<trkpt lon="-6.456415" lat="43.527773"><ele>264.5</ele></trkpt>
<trkpt lon="-6.456667" lat="43.527778"><ele>262.75</ele></trkpt>
<trkpt lon="-6.457421" lat="43.527761"><ele>266.5</ele></trkpt>
<trkpt lon="-6.457984" lat="43.527802"><ele>273.25</ele></trkpt>
<trkpt lon="-6.458166" lat="43.527778"><ele>274.75</ele></trkpt>
<trkpt lon="-6.458360" lat="43.527790"><ele>276.25</ele></trkpt>
<trkpt lon="-6.458649" lat="43.527846"><ele>281.0</ele></trkpt>
<trkpt lon="-6.458968" lat="43.527897"><ele>286.75</ele></trkpt>
<trkpt lon="-6.459360" lat="43.527922"><ele>291.75</ele></trkpt>
<trkpt lon="-6.460481" lat="43.528025"><ele>321.25</ele></trkpt>
<trkpt lon="-6.461356" lat="43.528132"><ele>349.0</ele></trkpt>
<trkpt lon="-6.461774" lat="43.528126"><ele>356.5</ele></trkpt>
<trkpt lon="-6.462198" lat="43.528033"><ele>362.75</ele></trkpt>
<trkpt lon="-6.463689" lat="43.527473"><ele>399.0</ele></trkpt>
<trkpt lon="-6.464502" lat="43.527111"><ele>416.0</ele></trkpt>
<trkpt lon="-6.464920" lat="43.526880"><ele>421.5</ele></trkpt>
<trkpt lon="-6.465411" lat="43.526689"><ele>421.0</ele></trkpt>
<trkpt lon="-6.466862" lat="43.526285"><ele>412.0</ele></trkpt>
<trkpt lon="-6.467313" lat="43.526170"><ele>411.75</ele></trkpt>
<trkpt lon="-6.467919" lat="43.526044"><ele>414.0</ele></trkpt>
<trkpt lon="-6.468362" lat="43.526009"><ele>415.0</ele></trkpt>
<trkpt lon="-6.468539" lat="43.525966"><ele>415.25</ele></trkpt>
<trkpt lon="-6.468670" lat="43.525857"><ele>415.0</ele></trkpt>
<trkpt lon="-6.468903" lat="43.525522"><ele>409.25</ele></trkpt>
<trkpt lon="-6.469349" lat="43.524958"><ele>398.25</ele></trkpt>
<trkpt lon="-6.469469" lat="43.524764"><ele>395.25</ele></trkpt>
<trkpt lon="-6.469518" lat="43.524597"><ele>393.0</ele></trkpt>
<trkpt lon="-6.469603" lat="43.524515"><ele>392.25</ele></trkpt>
<trkpt lon="-6.469828" lat="43.524460"><ele>391.5</ele></trkpt>
<trkpt lon="-6.469772" lat="43.524313"><ele>391.75</ele></trkpt>
<trkpt lon="-6.469724" lat="43.524064"><ele>392.25</ele></trkpt>
<trkpt lon="-6.469890" lat="43.523976"><ele>393.5</ele></trkpt>
<trkpt lon="-6.470502" lat="43.523688"><ele>397.25</ele></trkpt>
<trkpt lon="-6.470759" lat="43.523536"><ele>398.75</ele></trkpt>
<trkpt lon="-6.471060" lat="43.523353"><ele>400.25</ele></trkpt>
<trkpt lon="-6.471274" lat="43.523198"><ele>402.25</ele></trkpt>
<trkpt lon="-6.471516" lat="43.523054"><ele>403.75</ele></trkpt>
<trkpt lon="-6.471709" lat="43.522883"><ele>404.25</ele></trkpt>
<trkpt lon="-6.471832" lat="43.522708"><ele>405.5</ele></trkpt>
<trkpt lon="-6.471870" lat="43.522618"><ele>406.0</ele></trkpt>
<trkpt lon="-6.471886" lat="43.522478"><ele>407.5</ele></trkpt>
<trkpt lon="-6.471886" lat="43.522338"><ele>409.25</ele></trkpt>
<trkpt lon="-6.471929" lat="43.522287"><ele>408.75</ele></trkpt>
<trkpt lon="-6.471945" lat="43.522175"><ele>409.25</ele></trkpt>
<trkpt lon="-6.471945" lat="43.522023"><ele>411.0</ele></trkpt>
<trkpt lon="-6.471918" lat="43.521836"><ele>413.25</ele></trkpt>
<trkpt lon="-6.471929" lat="43.521677"><ele>413.5</ele></trkpt>
<trkpt lon="-6.471918" lat="43.521513"><ele>416.25</ele></trkpt>
<trkpt lon="-6.471934" lat="43.521346"><ele>417.75</ele></trkpt>
<trkpt lon="-6.471929" lat="43.521159"><ele>419.25</ele></trkpt>
<trkpt lon="-6.471971" lat="43.520973"><ele>419.25</ele></trkpt>
<trkpt lon="-6.471982" lat="43.520774"><ele>421.25</ele></trkpt>
<trkpt lon="-6.472030" lat="43.520541"><ele>423.5</ele></trkpt>
<trkpt lon="-6.472143" lat="43.520160"><ele>427.0</ele></trkpt>
<trkpt lon="-6.472315" lat="43.519767"><ele>430.75</ele></trkpt>
<trkpt lon="-6.472460" lat="43.519514"><ele>433.75</ele></trkpt>
<trkpt lon="-6.472663" lat="43.519257"><ele>436.25</ele></trkpt>
<trkpt lon="-6.472867" lat="43.519055"><ele>437.5</ele></trkpt>
<trkpt lon="-6.473023" lat="43.518822"><ele>441.75</ele></trkpt>
<trkpt lon="-6.473313" lat="43.518549"><ele>445.25</ele></trkpt>
<trkpt lon="-6.473447" lat="43.518444"><ele>446.75</ele></trkpt>
<trkpt lon="-6.473634" lat="43.518324"><ele>447.75</ele></trkpt>
<trkpt lon="-6.473870" lat="43.518191"><ele>450.0</ele></trkpt>
<trkpt lon="-6.474128" lat="43.518024"><ele>451.5</ele></trkpt>
<trkpt lon="-6.474284" lat="43.517884"><ele>453.25</ele></trkpt>
<trkpt lon="-6.474621" lat="43.517448"><ele>458.5</ele></trkpt>
<trkpt lon="-6.474729" lat="43.517230"><ele>462.5</ele></trkpt>
<trkpt lon="-6.474766" lat="43.517176"><ele>463.5</ele></trkpt>
<trkpt lon="-6.474852" lat="43.517091"><ele>464.25</ele></trkpt>
<trkpt lon="-6.474986" lat="43.517001"><ele>464.0</ele></trkpt>
<trkpt lon="-6.475077" lat="43.516900"><ele>465.5</ele></trkpt>
<trkpt lon="-6.475185" lat="43.516795"><ele>467.25</ele></trkpt>
<trkpt lon="-6.475367" lat="43.516682"><ele>468.25</ele></trkpt>
<trkpt lon="-6.475917" lat="43.516408"><ele>471.25</ele></trkpt>
<trkpt lon="-6.475998" lat="43.516350"><ele>472.75</ele></trkpt>
<trkpt lon="-6.476258" lat="43.516250"><ele>472.75</ele></trkpt>
<trkpt lon="-6.476580" lat="43.516141"><ele>471.25</ele></trkpt>
<trkpt lon="-6.476837" lat="43.516013"><ele>471.5</ele></trkpt>
<trkpt lon="-6.477164" lat="43.515916"><ele>468.0</ele></trkpt>
<trkpt lon="-6.477406" lat="43.515834"><ele>466.25</ele></trkpt>
<trkpt lon="-6.477765" lat="43.515690"><ele>466.0</ele></trkpt>
<trkpt lon="-6.478715" lat="43.515425"><ele>462.75</ele></trkpt>
<trkpt lon="-6.479004" lat="43.515375"><ele>460.25</ele></trkpt>
<trkpt lon="-6.479305" lat="43.515270"><ele>461.75</ele></trkpt>
<trkpt lon="-6.479492" lat="43.515243"><ele>462.0</ele></trkpt>
<trkpt lon="-6.479696" lat="43.515227"><ele>462.0</ele></trkpt>
<trkpt lon="-6.480061" lat="43.515246"><ele>461.5</ele></trkpt>
<trkpt lon="-6.480742" lat="43.515332"><ele>460.25</ele></trkpt>
<trkpt lon="-6.480946" lat="43.515332"><ele>461.0</ele></trkpt>
<trkpt lon="-6.481027" lat="43.515304"><ele>461.5</ele></trkpt>
<trkpt lon="-6.481155" lat="43.515226"><ele>461.5</ele></trkpt>
<trkpt lon="-6.481225" lat="43.515164"><ele>460.75</ele></trkpt>
<trkpt lon="-6.481231" lat="43.515105"><ele>460.25</ele></trkpt>
<trkpt lon="-6.481209" lat="43.515020"><ele>460.0</ele></trkpt>
<trkpt lon="-6.480957" lat="43.514592"><ele>456.5</ele></trkpt>
<trkpt lon="-6.480866" lat="43.514464"><ele>455.75</ele></trkpt>
<trkpt lon="-6.480844" lat="43.514417"><ele>455.5</ele></trkpt>
<trkpt lon="-6.480860" lat="43.514332"><ele>454.75</ele></trkpt>
<trkpt lon="-6.480856" lat="43.514301"><ele>454.75</ele></trkpt>
<trkpt lon="-6.480975" lat="43.514480"><ele>454.0</ele></trkpt>
<trkpt lon="-6.481189" lat="43.514659"><ele>453.25</ele></trkpt>
<trkpt lon="-6.481590" lat="43.514868"><ele>452.0</ele></trkpt>
<trkpt lon="-6.482073" lat="43.515063"><ele>453.25</ele></trkpt>
<trkpt lon="-6.482401" lat="43.515165"><ele>453.25</ele></trkpt>
<trkpt lon="-6.482846" lat="43.515265"><ele>454.25</ele></trkpt>
<trkpt lon="-6.483307" lat="43.515327"><ele>454.25</ele></trkpt>
<trkpt lon="-6.484021" lat="43.515399"><ele>453.25</ele></trkpt>
<trkpt lon="-6.484391" lat="43.515421"><ele>453.25</ele></trkpt>
<trkpt lon="-6.485345" lat="43.515382"><ele>451.5</ele></trkpt>
<trkpt lon="-6.485910" lat="43.515321"><ele>450.75</ele></trkpt>
<trkpt lon="-6.486339" lat="43.515297"><ele>451.5</ele></trkpt>
<trkpt lon="-6.486693" lat="43.515266"><ele>451.25</ele></trkpt>
<trkpt lon="-6.487116" lat="43.515296"><ele>452.5</ele></trkpt>
<trkpt lon="-6.487266" lat="43.515343"><ele>453.75</ele></trkpt>
<trkpt lon="-6.487455" lat="43.515359"><ele>454.0</ele></trkpt>
<trkpt lon="-6.487712" lat="43.515399"><ele>453.75</ele></trkpt>
<trkpt lon="-6.488034" lat="43.515507"><ele>454.5</ele></trkpt>
<trkpt lon="-6.488285" lat="43.515623"><ele>453.5</ele></trkpt>
<trkpt lon="-6.488463" lat="43.515733"><ele>453.0</ele></trkpt>
<trkpt lon="-6.488779" lat="43.515825"><ele>452.0</ele></trkpt>
<trkpt lon="-6.489143" lat="43.515919"><ele>452.5</ele></trkpt>
<trkpt lon="-6.489680" lat="43.516035"><ele>452.75</ele></trkpt>
<trkpt lon="-6.490019" lat="43.516122"><ele>452.75</ele></trkpt>
<trkpt lon="-6.490298" lat="43.516332"><ele>451.25</ele></trkpt>
<trkpt lon="-6.490534" lat="43.516597"><ele>449.75</ele></trkpt>
<trkpt lon="-6.490721" lat="43.516837"><ele>448.0</ele></trkpt>
<trkpt lon="-6.490824" lat="43.516955"><ele>448.0</ele></trkpt>
<trkpt lon="-6.491021" lat="43.517078"><ele>447.75</ele></trkpt>
<trkpt lon="-6.491164" lat="43.517142"><ele>448.0</ele></trkpt>
<trkpt lon="-6.491329" lat="43.517181"><ele>447.25</ele></trkpt>
<trkpt lon="-6.491626" lat="43.517218"><ele>446.0</ele></trkpt>
<trkpt lon="-6.491832" lat="43.517273"><ele>444.25</ele></trkpt>
<trkpt lon="-6.492062" lat="43.517405"><ele>442.75</ele></trkpt>
<trkpt lon="-6.492223" lat="43.517537"><ele>441.0</ele></trkpt>
<trkpt lon="-6.492315" lat="43.517725"><ele>440.0</ele></trkpt>
<trkpt lon="-6.492287" lat="43.518035"><ele>439.25</ele></trkpt>
<trkpt lon="-6.492266" lat="43.518463"><ele>437.75</ele></trkpt>
<trkpt lon="-6.492358" lat="43.518744"><ele>437.0</ele></trkpt>
<trkpt lon="-6.492562" lat="43.519001"><ele>436.5</ele></trkpt>
<trkpt lon="-6.492899" lat="43.519186"><ele>432.5</ele></trkpt>
<trkpt lon="-6.493130" lat="43.519343"><ele>431.5</ele></trkpt>
<trkpt lon="-6.493506" lat="43.519522"><ele>427.75</ele></trkpt>
<trkpt lon="-6.494010" lat="43.519872"><ele>428.75</ele></trkpt>
<trkpt lon="-6.494192" lat="43.519973"><ele>429.25</ele></trkpt>
<trkpt lon="-6.494551" lat="43.520058"><ele>428.25</ele></trkpt>
<trkpt lon="-6.494997" lat="43.520082"><ele>424.75</ele></trkpt>
<trkpt lon="-6.495334" lat="43.520081"><ele>422.25</ele></trkpt>
<trkpt lon="-6.495823" lat="43.520051"><ele>418.0</ele></trkpt>
<trkpt lon="-6.496503" lat="43.519988"><ele>411.25</ele></trkpt>
<trkpt lon="-6.496821" lat="43.519965"><ele>409.25</ele></trkpt>
<trkpt lon="-6.497115" lat="43.519964"><ele>408.75</ele></trkpt>
<trkpt lon="-6.497405" lat="43.519933"><ele>406.25</ele></trkpt>
<trkpt lon="-6.497862" lat="43.519973"><ele>406.0</ele></trkpt>
<trkpt lon="-6.498119" lat="43.519934"><ele>402.5</ele></trkpt>
<trkpt lon="-6.498291" lat="43.519934"><ele>400.5</ele></trkpt>
<trkpt lon="-6.498484" lat="43.520004"><ele>401.25</ele></trkpt>
<trkpt lon="-6.498656" lat="43.520129"><ele>401.0</ele></trkpt>
<trkpt lon="-6.498795" lat="43.520292"><ele>400.75</ele></trkpt>
<trkpt lon="-6.498993" lat="43.520695"><ele>399.5</ele></trkpt>
<trkpt lon="-6.499235" lat="43.521109"><ele>396.5</ele></trkpt>
<trkpt lon="-6.499583" lat="43.521676"><ele>391.0</ele></trkpt>
<trkpt lon="-6.499797" lat="43.522041"><ele>389.25</ele></trkpt>
<trkpt lon="-6.499965" lat="43.522276"><ele>388.0</ele></trkpt>
<trkpt lon="-6.500083" lat="43.522416"><ele>386.75</ele></trkpt>
<trkpt lon="-6.500248" lat="43.522788"><ele>385.25</ele></trkpt>
<trkpt lon="-6.500366" lat="43.522983"><ele>384.0</ele></trkpt>
<trkpt lon="-6.500501" lat="43.523723"><ele>381.0</ele></trkpt>
<trkpt lon="-6.500548" lat="43.524546"><ele>379.5</ele></trkpt>
<trkpt lon="-6.500398" lat="43.524982"><ele>373.0</ele></trkpt>
<trkpt lon="-6.500334" lat="43.525208"><ele>370.0</ele></trkpt>
<trkpt lon="-6.500119" lat="43.525480"><ele>363.0</ele></trkpt>
<trkpt lon="-6.499857" lat="43.525699"><ele>356.0</ele></trkpt>
<trkpt lon="-6.499771" lat="43.525882"><ele>353.25</ele></trkpt>
<trkpt lon="-6.499761" lat="43.526064"><ele>350.75</ele></trkpt>
<trkpt lon="-6.499706" lat="43.526238"><ele>348.75</ele></trkpt>
<trkpt lon="-6.499760" lat="43.526378"><ele>348.0</ele></trkpt>
<trkpt lon="-6.499851" lat="43.526503"><ele>345.75</ele></trkpt>
<trkpt lon="-6.499888" lat="43.526643"><ele>343.25</ele></trkpt>
<trkpt lon="-6.500242" lat="43.526833"><ele>338.0</ele></trkpt>
<trkpt lon="-6.500570" lat="43.526954"><ele>332.5</ele></trkpt>
<trkpt lon="-6.500763" lat="43.526989"><ele>329.25</ele></trkpt>
<trkpt lon="-6.500967" lat="43.526981"><ele>326.5</ele></trkpt>
<trkpt lon="-6.501130" lat="43.526989"><ele>323.75</ele></trkpt>
<trkpt lon="-6.501085" lat="43.527070"><ele>322.5</ele></trkpt>
<trkpt lon="-6.500435" lat="43.527494"><ele>317.0</ele></trkpt>
<trkpt lon="-6.499845" lat="43.527899"><ele>308.25</ele></trkpt>
<trkpt lon="-6.499194" lat="43.528289"><ele>295.75</ele></trkpt>
<trkpt lon="-6.499073" lat="43.528366"><ele>293.0</ele></trkpt>
<trkpt lon="-6.498418" lat="43.528677"><ele>281.25</ele></trkpt>
<trkpt lon="-6.497936" lat="43.528891"><ele>270.25</ele></trkpt>
<trkpt lon="-6.497689" lat="43.528965"><ele>266.25</ele></trkpt>
<trkpt lon="-6.496262" lat="43.529140"><ele>242.0</ele></trkpt>
<trkpt lon="-6.495983" lat="43.529194"><ele>237.0</ele></trkpt>
<trkpt lon="-6.495619" lat="43.529411"><ele>228.75</ele></trkpt>
<trkpt lon="-6.495452" lat="43.529435"><ele>226.75</ele></trkpt>
<trkpt lon="-6.495191" lat="43.529503"><ele>222.5</ele></trkpt>
<trkpt lon="-6.495132" lat="43.529525"><ele>221.0</ele></trkpt>
<trkpt lon="-6.494858" lat="43.529809"><ele>216.75</ele></trkpt>
<trkpt lon="-6.494668" lat="43.529996"><ele>215.5</ele></trkpt>
<trkpt lon="-6.494604" lat="43.530128"><ele>213.25</ele></trkpt>
<trkpt lon="-6.494593" lat="43.530225"><ele>212.0</ele></trkpt>
<trkpt lon="-6.494642" lat="43.530315"><ele>210.5</ele></trkpt>
<trkpt lon="-6.494744" lat="43.530447"><ele>208.25</ele></trkpt>
<trkpt lon="-6.494845" lat="43.530556"><ele>206.0</ele></trkpt>
<trkpt lon="-6.494953" lat="43.530645"><ele>203.5</ele></trkpt>
<trkpt lon="-6.495103" lat="43.530754"><ele>201.0</ele></trkpt>
<trkpt lon="-6.495226" lat="43.530894"><ele>198.25</ele></trkpt>
<trkpt lon="-6.495403" lat="43.531139"><ele>194.0</ele></trkpt>
<trkpt lon="-6.495527" lat="43.531283"><ele>191.5</ele></trkpt>
<trkpt lon="-6.495777" lat="43.531584"><ele>185.5</ele></trkpt>
<trkpt lon="-6.496058" lat="43.531894"><ele>180.0</ele></trkpt>
<trkpt lon="-6.496181" lat="43.532046"><ele>177.0</ele></trkpt>
<trkpt lon="-6.496305" lat="43.532146"><ele>175.0</ele></trkpt>
<trkpt lon="-6.496369" lat="43.532189"><ele>174.25</ele></trkpt>
<trkpt lon="-6.496514" lat="43.532310"><ele>173.25</ele></trkpt>
<trkpt lon="-6.496766" lat="43.532562"><ele>169.75</ele></trkpt>
<trkpt lon="-6.496895" lat="43.532664"><ele>168.75</ele></trkpt>
<trkpt lon="-6.497077" lat="43.532795"><ele>166.25</ele></trkpt>
<trkpt lon="-6.497442" lat="43.533037"><ele>160.75</ele></trkpt>
<trkpt lon="-6.497861" lat="43.533282"><ele>157.0</ele></trkpt>
<trkpt lon="-6.498075" lat="43.533379"><ele>153.75</ele></trkpt>
<trkpt lon="-6.498252" lat="43.533468"><ele>152.0</ele></trkpt>
<trkpt lon="-6.498429" lat="43.533516"><ele>149.5</ele></trkpt>
<trkpt lon="-6.498536" lat="43.533531"><ele>147.75</ele></trkpt>
<trkpt lon="-6.498671" lat="43.533538"><ele>146.25</ele></trkpt>
<trkpt lon="-6.499009" lat="43.533507"><ele>144.25</ele></trkpt>
<trkpt lon="-6.499067" lat="43.533496"><ele>144.0</ele></trkpt>
<trkpt lon="-6.499216" lat="43.533489"><ele>142.5</ele></trkpt>
<trkpt lon="-6.499416" lat="43.533441"><ele>141.0</ele></trkpt>
<trkpt lon="-6.500140" lat="43.533317"><ele>134.25</ele></trkpt>
<trkpt lon="-6.500317" lat="43.533309"><ele>133.0</ele></trkpt>
<trkpt lon="-6.500570" lat="43.533328"><ele>129.75</ele></trkpt>
<trkpt lon="-6.500929" lat="43.533364"><ele>126.0</ele></trkpt>
<trkpt lon="-6.501288" lat="43.533442"><ele>121.5</ele></trkpt>
<trkpt lon="-6.501535" lat="43.533508"><ele>120.0</ele></trkpt>
<trkpt lon="-6.501669" lat="43.533573"><ele>119.0</ele></trkpt>
<trkpt lon="-6.501964" lat="43.533632"><ele>117.5</ele></trkpt>
<trkpt lon="-6.502093" lat="43.533674"><ele>117.5</ele></trkpt>
<trkpt lon="-6.502222" lat="43.533748"><ele>117.0</ele></trkpt>
<trkpt lon="-6.502335" lat="43.533774"><ele>116.75</ele></trkpt>
<trkpt lon="-6.502405" lat="43.533825"><ele>116.0</ele></trkpt>
<trkpt lon="-6.502537" lat="43.533887"><ele>115.0</ele></trkpt>
<trkpt lon="-6.502684" lat="43.533912"><ele>115.0</ele></trkpt>
<trkpt lon="-6.502802" lat="43.533924"><ele>115.0</ele></trkpt>
<trkpt lon="-6.503027" lat="43.533938"><ele>114.5</ele></trkpt>
<trkpt lon="-6.503135" lat="43.533936"><ele>114.0</ele></trkpt>
<trkpt lon="-6.503218" lat="43.533928"><ele>113.75</ele></trkpt>
<trkpt lon="-6.503468" lat="43.533824"><ele>114.25</ele></trkpt>
<trkpt lon="-6.503576" lat="43.533818"><ele>114.0</ele></trkpt>
<trkpt lon="-6.503643" lat="43.533824"><ele>114.0</ele></trkpt>
<trkpt lon="-6.503694" lat="43.533855"><ele>113.75</ele></trkpt>
<trkpt lon="-6.503739" lat="43.533919"><ele>113.5</ele></trkpt>
<trkpt lon="-6.503925" lat="43.534359"><ele>111.5</ele></trkpt>
<trkpt lon="-6.503556" lat="43.534487"><ele>112.0</ele></trkpt>
<trkpt lon="-6.503330" lat="43.534596"><ele>112.75</ele></trkpt>
<trkpt lon="-6.503252" lat="43.534675"><ele>112.0</ele></trkpt>
<trkpt lon="-6.503204" lat="43.534771"><ele>111.25</ele></trkpt>
<trkpt lon="-6.503196" lat="43.534856"><ele>110.5</ele></trkpt>
<trkpt lon="-6.503213" lat="43.534957"><ele>109.25</ele></trkpt>
<trkpt lon="-6.503306" lat="43.535071"><ele>107.5</ele></trkpt>
<trkpt lon="-6.504097" lat="43.535688"><ele>103.0</ele></trkpt>
<trkpt lon="-6.504811" lat="43.535945"><ele>100.5</ele></trkpt>
<trkpt lon="-6.505101" lat="43.535984"><ele>100.0</ele></trkpt>
<trkpt lon="-6.505224" lat="43.536126"><ele>99.0</ele></trkpt>
<trkpt lon="-6.506531" lat="43.536942"><ele>97.25</ele></trkpt>
<trkpt lon="-6.506769" lat="43.537068"><ele>96.75</ele></trkpt>
<trkpt lon="-6.507113" lat="43.537166"><ele>96.0</ele></trkpt>
<trkpt lon="-6.508103" lat="43.537585"><ele>92.75</ele></trkpt>
<trkpt lon="-6.508574" lat="43.537807"><ele>91.0</ele></trkpt>
<trkpt lon="-6.509051" lat="43.537964"><ele>90.0</ele></trkpt>
<trkpt lon="-6.509368" lat="43.538078"><ele>89.25</ele></trkpt>
<trkpt lon="-6.509738" lat="43.538214"><ele>87.25</ele></trkpt>
<trkpt lon="-6.510087" lat="43.538416"><ele>86.0</ele></trkpt>
<trkpt lon="-6.510265" lat="43.538555"><ele>86.25</ele></trkpt>
<trkpt lon="-6.510768" lat="43.538993"><ele>86.75</ele></trkpt>
<trkpt lon="-6.510929" lat="43.539066"><ele>86.0</ele></trkpt>
<trkpt lon="-6.511120" lat="43.539135"><ele>85.75</ele></trkpt>
<trkpt lon="-6.511251" lat="43.539197"><ele>86.0</ele></trkpt>
<trkpt lon="-6.511400" lat="43.539289"><ele>86.0</ele></trkpt>
<trkpt lon="-6.511517" lat="43.539320"><ele>86.0</ele></trkpt>
<trkpt lon="-6.511596" lat="43.539318"><ele>86.0</ele></trkpt>
<trkpt lon="-6.511686" lat="43.539295"><ele>86.0</ele></trkpt>
<trkpt lon="-6.512318" lat="43.538849"><ele>84.0</ele></trkpt>
<trkpt lon="-6.512503" lat="43.538794"><ele>82.75</ele></trkpt>
<trkpt lon="-6.513975" lat="43.538659"><ele>76.5</ele></trkpt>
<trkpt lon="-6.514435" lat="43.538665"><ele>74.0</ele></trkpt>
<trkpt lon="-6.514754" lat="43.538686"><ele>76.0</ele></trkpt>
<trkpt lon="-6.514861" lat="43.538689"><ele>76.75</ele></trkpt>
<trkpt lon="-6.514927" lat="43.538669"><ele>77.5</ele></trkpt>
<trkpt lon="-6.515322" lat="43.538452"><ele>79.5</ele></trkpt>
<trkpt lon="-6.516273" lat="43.537940"><ele>71.25</ele></trkpt>
<trkpt lon="-6.516314" lat="43.537962"><ele>70.0</ele></trkpt>
<trkpt lon="-6.516297" lat="43.538040"><ele>68.75</ele></trkpt>
<trkpt lon="-6.516086" lat="43.538264"><ele>67.25</ele></trkpt>
<trkpt lon="-6.516058" lat="43.538589"><ele>63.0</ele></trkpt>
<trkpt lon="-6.516289" lat="43.538991"><ele>58.0</ele></trkpt>
<trkpt lon="-6.516376" lat="43.539054"><ele>56.75</ele></trkpt>
<trkpt lon="-6.516680" lat="43.539210"><ele>56.25</ele></trkpt>
<trkpt lon="-6.516889" lat="43.539360"><ele>56.5</ele></trkpt>
<trkpt lon="-6.517233" lat="43.539964"><ele>61.25</ele></trkpt>
<trkpt lon="-6.517241" lat="43.540149"><ele>63.0</ele></trkpt>
<trkpt lon="-6.517198" lat="43.540311"><ele>63.75</ele></trkpt>
<trkpt lon="-6.517223" lat="43.540425"><ele>66.0</ele></trkpt>
<trkpt lon="-6.517307" lat="43.540494"><ele>68.0</ele></trkpt>
<trkpt lon="-6.517474" lat="43.540542"><ele>69.75</ele></trkpt>
<trkpt lon="-6.517918" lat="43.540550"><ele>74.0</ele></trkpt>
<trkpt lon="-6.518432" lat="43.540700"><ele>77.5</ele></trkpt>
<trkpt lon="-6.519193" lat="43.540802"><ele>79.25</ele></trkpt>
<trkpt lon="-6.519531" lat="43.540806"><ele>80.0</ele></trkpt>
<trkpt lon="-6.519739" lat="43.540757"><ele>80.25</ele></trkpt>
<trkpt lon="-6.519902" lat="43.540749"><ele>80.0</ele></trkpt>
<trkpt lon="-6.521899" lat="43.541573"><ele>77.25</ele></trkpt>
<trkpt lon="-6.521983" lat="43.541624"><ele>77.0</ele></trkpt>
<trkpt lon="-6.522565" lat="43.541852"><ele>76.25</ele></trkpt>
<trkpt lon="-6.523122" lat="43.542081"><ele>74.75</ele></trkpt>
<trkpt lon="-6.524236" lat="43.542529"><ele>72.25</ele></trkpt>
<trkpt lon="-6.524427" lat="43.542606"><ele>70.75</ele></trkpt>
<trkpt lon="-6.524998" lat="43.542842"><ele>70.75</ele></trkpt>
<trkpt lon="-6.526715" lat="43.543524"><ele>72.0</ele></trkpt>
<trkpt lon="-6.526946" lat="43.543626"><ele>72.0</ele></trkpt>
<trkpt lon="-6.528215" lat="43.544542"><ele>71.5</ele></trkpt>
<trkpt lon="-6.528306" lat="43.544595"><ele>71.25</ele></trkpt>
<trkpt lon="-6.528403" lat="43.544653"><ele>71.0</ele></trkpt>
<trkpt lon="-6.528828" lat="43.544852"><ele>70.5</ele></trkpt>
<trkpt lon="-6.528891" lat="43.544886"><ele>70.25</ele></trkpt>
<trkpt lon="-6.529380" lat="43.545110"><ele>69.5</ele></trkpt>
<trkpt lon="-6.529468" lat="43.545163"><ele>69.25</ele></trkpt>
<trkpt lon="-6.529518" lat="43.545212"><ele>69.0</ele></trkpt>
<trkpt lon="-6.529574" lat="43.545266"><ele>69.0</ele></trkpt>
<trkpt lon="-6.529676" lat="43.545395"><ele>68.0</ele></trkpt>
<trkpt lon="-6.529718" lat="43.545474"><ele>67.5</ele></trkpt>
<trkpt lon="-6.529746" lat="43.545559"><ele>66.75</ele></trkpt>
<trkpt lon="-6.529755" lat="43.545628"><ele>66.75</ele></trkpt>
<trkpt lon="-6.529702" lat="43.546012"><ele>65.25</ele></trkpt>
<trkpt lon="-6.529718" lat="43.546040"><ele>65.25</ele></trkpt>
<trkpt lon="-6.529816" lat="43.546243"><ele>64.0</ele></trkpt>
<trkpt lon="-6.529930" lat="43.546469"><ele>61.5</ele></trkpt>
<trkpt lon="-6.530659" lat="43.545885"><ele>51.25</ele></trkpt>
<trkpt lon="-6.530721" lat="43.545835"><ele>51.5</ele></trkpt>
<trkpt lon="-6.530965" lat="43.545579"><ele>48.5</ele></trkpt>
<trkpt lon="-6.531369" lat="43.545117"><ele>43.5</ele></trkpt>
<trkpt lon="-6.531560" lat="43.544962"><ele>41.75</ele></trkpt>
<trkpt lon="-6.531779" lat="43.544834"><ele>41.0</ele></trkpt>
<trkpt lon="-6.532208" lat="43.544692"><ele>35.75</ele></trkpt>
<trkpt lon="-6.532313" lat="43.544670"><ele>34.0</ele></trkpt>
<trkpt lon="-6.532565" lat="43.544640"><ele>29.0</ele></trkpt>
<trkpt lon="-6.532655" lat="43.544629"><ele>28.25</ele></trkpt>
<trkpt lon="-6.532735" lat="43.544582"><ele>29.0</ele></trkpt>
<trkpt lon="-6.532987" lat="43.544404"><ele>29.5</ele></trkpt>
<trkpt lon="-6.533069" lat="43.544367"><ele>27.75</ele></trkpt>
<trkpt lon="-6.533139" lat="43.544366"><ele>26.5</ele></trkpt>
<trkpt lon="-6.533559" lat="43.544353"><ele>20.25</ele></trkpt>
<trkpt lon="-6.533685" lat="43.544350"><ele>18.75</ele></trkpt>
<trkpt lon="-6.534151" lat="43.544340"><ele>14.25</ele></trkpt>
<trkpt lon="-6.534526" lat="43.544339"><ele>7.0</ele></trkpt>
<trkpt lon="-6.534524" lat="43.544254"><ele>5.75</ele></trkpt>
<trkpt lon="-6.534519" lat="43.544102"><ele>4.0</ele></trkpt>
<trkpt lon="-6.534365" lat="43.544063"><ele>4.75</ele></trkpt>
<trkpt lon="-6.534492" lat="43.543791"><ele>2.75</ele></trkpt>
<trkpt lon="-6.534500" lat="43.543754"><ele>3.0</ele></trkpt>
<trkpt lon="-6.534584" lat="43.543639"><ele>3.75</ele></trkpt>
<trkpt lon="-6.534766" lat="43.543500"><ele>4.0</ele></trkpt>
<trkpt lon="-6.534950" lat="43.543285"><ele>4.25</ele></trkpt>
<trkpt lon="-6.534953" lat="43.543222"><ele>4.5</ele></trkpt>
<trkpt lon="-6.534938" lat="43.543032"><ele>5.5</ele></trkpt>
<trkpt lon="-6.535303" lat="43.542826"><ele>10.5</ele></trkpt>
<trkpt lon="-6.535519" lat="43.542675"><ele>14.25</ele></trkpt>
<trkpt lon="-6.535991" lat="43.542317"><ele>16.25</ele></trkpt>
<trkpt lon="-6.536059" lat="43.542297"><ele>17.5</ele></trkpt>
<trkpt lon="-6.536545" lat="43.542295"><ele>21.0</ele></trkpt>
<trkpt lon="-6.537060" lat="43.542071"><ele>13.25</ele></trkpt>
  </trkseg></trk></gpx>
