<?xml version="1.0" encoding="UTF-8"?>
<gpx version="1.1" creator="compostel-brouter" xmlns="http://www.topografix.com/GPX/1/1">
  <metadata><name>ES-27-Aviles</name></metadata>
  <trk><name>ES-27-Aviles</name><trkseg>
<trkpt lon="-5.663874" lat="43.541010"><ele>4.0</ele></trkpt>
<trkpt lon="-5.663859" lat="43.540920"><ele>4.0</ele></trkpt>
<trkpt lon="-5.663878" lat="43.540891"><ele>4.0</ele></trkpt>
<trkpt lon="-5.664253" lat="43.540801"><ele>4.0</ele></trkpt>
<trkpt lon="-5.664273" lat="43.540798"><ele>4.0</ele></trkpt>
<trkpt lon="-5.664314" lat="43.540790"><ele>4.0</ele></trkpt>
<trkpt lon="-5.664355" lat="43.540783"><ele>4.0</ele></trkpt>
<trkpt lon="-5.664638" lat="43.540751"><ele>4.0</ele></trkpt>
<trkpt lon="-5.664998" lat="43.540719"><ele>4.0</ele></trkpt>
<trkpt lon="-5.665070" lat="43.540716"><ele>4.0</ele></trkpt>
<trkpt lon="-5.665644" lat="43.540636"><ele>4.0</ele></trkpt>
<trkpt lon="-5.665660" lat="43.540639"><ele>4.0</ele></trkpt>
<trkpt lon="-5.665670" lat="43.540664"><ele>4.0</ele></trkpt>
<trkpt lon="-5.665619" lat="43.540748"><ele>4.0</ele></trkpt>
<trkpt lon="-5.665657" lat="43.540763"><ele>4.0</ele></trkpt>
<trkpt lon="-5.665693" lat="43.540777"><ele>4.0</ele></trkpt>
<trkpt lon="-5.665707" lat="43.540757"><ele>4.0</ele></trkpt>
<trkpt lon="-5.665785" lat="43.540784"><ele>4.0</ele></trkpt>
<trkpt lon="-5.665946" lat="43.540860"><ele>4.0</ele></trkpt>
<trkpt lon="-5.666004" lat="43.540835"><ele>4.0</ele></trkpt>
<trkpt lon="-5.666043" lat="43.540828"><ele>4.0</ele></trkpt>
<trkpt lon="-5.666095" lat="43.540842"><ele>4.0</ele></trkpt>
<trkpt lon="-5.666612" lat="43.541386"><ele>4.0</ele></trkpt>
<trkpt lon="-5.666795" lat="43.541593"><ele>4.0</ele></trkpt>
<trkpt lon="-5.666810" lat="43.541618"><ele>4.0</ele></trkpt>
<trkpt lon="-5.666827" lat="43.541611"><ele>4.0</ele></trkpt>
<trkpt lon="-5.666848" lat="43.541619"><ele>4.0</ele></trkpt>
<trkpt lon="-5.667107" lat="43.541906"><ele>4.0</ele></trkpt>
<trkpt lon="-5.667143" lat="43.541947"><ele>4.0</ele></trkpt>
<trkpt lon="-5.667154" lat="43.541973"><ele>4.0</ele></trkpt>
<trkpt lon="-5.667112" lat="43.542006"><ele>4.0</ele></trkpt>
<trkpt lon="-5.667124" lat="43.542020"><ele>4.0</ele></trkpt>
<trkpt lon="-5.667189" lat="43.542099"><ele>4.25</ele></trkpt>
<trkpt lon="-5.667241" lat="43.542155"><ele>4.75</ele></trkpt>
<trkpt lon="-5.667278" lat="43.542142"><ele>4.5</ele></trkpt>
<trkpt lon="-5.667311" lat="43.542178"><ele>4.75</ele></trkpt>
<trkpt lon="-5.667529" lat="43.542414"><ele>5.0</ele></trkpt>
<trkpt lon="-5.667584" lat="43.542387"><ele>5.0</ele></trkpt>
<trkpt lon="-5.667628" lat="43.542367"><ele>5.0</ele></trkpt>
<trkpt lon="-5.667656" lat="43.542397"><ele>5.0</ele></trkpt>
<trkpt lon="-5.667711" lat="43.542407"><ele>5.0</ele></trkpt>
<trkpt lon="-5.667720" lat="43.542403"><ele>5.0</ele></trkpt>
<trkpt lon="-5.667751" lat="43.542438"><ele>5.0</ele></trkpt>
<trkpt lon="-5.667774" lat="43.542465"><ele>5.0</ele></trkpt>
<trkpt lon="-5.667792" lat="43.542486"><ele>5.0</ele></trkpt>
<trkpt lon="-5.667810" lat="43.542507"><ele>5.0</ele></trkpt>
<trkpt lon="-5.667869" lat="43.542582"><ele>4.25</ele></trkpt>
<trkpt lon="-5.669030" lat="43.542210"><ele>5.25</ele></trkpt>
<trkpt lon="-5.669324" lat="43.542132"><ele>5.25</ele></trkpt>
<trkpt lon="-5.669350" lat="43.542117"><ele>5.0</ele></trkpt>
<trkpt lon="-5.669445" lat="43.542062"><ele>5.0</ele></trkpt>
<trkpt lon="-5.669481" lat="43.542055"><ele>5.0</ele></trkpt>
<trkpt lon="-5.669600" lat="43.542029"><ele>5.0</ele></trkpt>
<trkpt lon="-5.671373" lat="43.541644"><ele>5.0</ele></trkpt>
<trkpt lon="-5.671462" lat="43.541647"><ele>5.0</ele></trkpt>
<trkpt lon="-5.671629" lat="43.541688"><ele>4.75</ele></trkpt>
<trkpt lon="-5.671639" lat="43.541690"><ele>4.75</ele></trkpt>
<trkpt lon="-5.671656" lat="43.541693"><ele>4.75</ele></trkpt>
<trkpt lon="-5.672647" lat="43.541812"><ele>4.75</ele></trkpt>
<trkpt lon="-5.672793" lat="43.541818"><ele>5.0</ele></trkpt>
<trkpt lon="-5.672933" lat="43.541824"><ele>5.0</ele></trkpt>
<trkpt lon="-5.673029" lat="43.541828"><ele>5.0</ele></trkpt>
<trkpt lon="-5.673130" lat="43.541800"><ele>5.0</ele></trkpt>
<trkpt lon="-5.673274" lat="43.541761"><ele>5.0</ele></trkpt>
<trkpt lon="-5.673411" lat="43.541724"><ele>5.0</ele></trkpt>
<trkpt lon="-5.673629" lat="43.541790"><ele>5.0</ele></trkpt>
<trkpt lon="-5.673932" lat="43.541881"><ele>5.0</ele></trkpt>
<trkpt lon="-5.674326" lat="43.541891"><ele>5.0</ele></trkpt>
<trkpt lon="-5.674481" lat="43.541894"><ele>5.0</ele></trkpt>
<trkpt lon="-5.674945" lat="43.541807"><ele>5.0</ele></trkpt>
<trkpt lon="-5.675072" lat="43.541783"><ele>5.0</ele></trkpt>
<trkpt lon="-5.675118" lat="43.541740"><ele>5.0</ele></trkpt>
<trkpt lon="-5.675284" lat="43.541421"><ele>5.0</ele></trkpt>
<trkpt lon="-5.675306" lat="43.541382"><ele>5.0</ele></trkpt>
<trkpt lon="-5.675458" lat="43.541124"><ele>5.0</ele></trkpt>
<trkpt lon="-5.675650" lat="43.540801"><ele>4.25</ele></trkpt>
<trkpt lon="-5.675663" lat="43.540778"><ele>4.5</ele></trkpt>
<trkpt lon="-5.675678" lat="43.540752"><ele>4.75</ele></trkpt>
<trkpt lon="-5.675930" lat="43.540673"><ele>4.5</ele></trkpt>
<trkpt lon="-5.676044" lat="43.540640"><ele>4.0</ele></trkpt>
<trkpt lon="-5.676117" lat="43.540619"><ele>4.0</ele></trkpt>
<trkpt lon="-5.676222" lat="43.540588"><ele>4.0</ele></trkpt>
<trkpt lon="-5.676387" lat="43.540540"><ele>4.0</ele></trkpt>
<trkpt lon="-5.676850" lat="43.540407"><ele>4.5</ele></trkpt>
<trkpt lon="-5.677771" lat="43.540137"><ele>4.0</ele></trkpt>
<trkpt lon="-5.678062" lat="43.540090"><ele>4.5</ele></trkpt>
<trkpt lon="-5.678082" lat="43.540051"><ele>4.75</ele></trkpt>
<trkpt lon="-5.678149" lat="43.540045"><ele>4.5</ele></trkpt>
<trkpt lon="-5.678275" lat="43.540038"><ele>4.25</ele></trkpt>
<trkpt lon="-5.678354" lat="43.540043"><ele>4.0</ele></trkpt>
<trkpt lon="-5.678430" lat="43.540048"><ele>4.0</ele></trkpt>
<trkpt lon="-5.678461" lat="43.540076"><ele>4.0</ele></trkpt>
<trkpt lon="-5.678513" lat="43.540080"><ele>4.0</ele></trkpt>
<trkpt lon="-5.678977" lat="43.540120"><ele>4.0</ele></trkpt>
<trkpt lon="-5.680040" lat="43.540215"><ele>4.0</ele></trkpt>
<trkpt lon="-5.680119" lat="43.540222"><ele>4.0</ele></trkpt>
<trkpt lon="-5.680355" lat="43.540242"><ele>4.0</ele></trkpt>
<trkpt lon="-5.680700" lat="43.540272"><ele>4.0</ele></trkpt>
<trkpt lon="-5.680757" lat="43.540277"><ele>4.0</ele></trkpt>
<trkpt lon="-5.681561" lat="43.540349"><ele>4.0</ele></trkpt>
<trkpt lon="-5.681556" lat="43.540384"><ele>4.0</ele></trkpt>
<trkpt lon="-5.682200" lat="43.540442"><ele>5.0</ele></trkpt>
<trkpt lon="-5.682212" lat="43.540405"><ele>5.0</ele></trkpt>
<trkpt lon="-5.682367" lat="43.540418"><ele>5.0</ele></trkpt>
<trkpt lon="-5.682560" lat="43.540436"><ele>5.0</ele></trkpt>
<trkpt lon="-5.683401" lat="43.540516"><ele>6.0</ele></trkpt>
<trkpt lon="-5.683481" lat="43.540523"><ele>6.5</ele></trkpt>
<trkpt lon="-5.684278" lat="43.540587"><ele>8.25</ele></trkpt>
<trkpt lon="-5.684353" lat="43.540593"><ele>8.5</ele></trkpt>
<trkpt lon="-5.684428" lat="43.540599"><ele>8.75</ele></trkpt>
<trkpt lon="-5.684556" lat="43.540601"><ele>9.0</ele></trkpt>
<trkpt lon="-5.684658" lat="43.540599"><ele>9.0</ele></trkpt>
<trkpt lon="-5.684908" lat="43.540581"><ele>9.75</ele></trkpt>
<trkpt lon="-5.685144" lat="43.540553"><ele>10.5</ele></trkpt>
<trkpt lon="-5.685231" lat="43.540543"><ele>10.75</ele></trkpt>
<trkpt lon="-5.685382" lat="43.540529"><ele>11.25</ele></trkpt>
<trkpt lon="-5.685742" lat="43.540487"><ele>12.5</ele></trkpt>
<trkpt lon="-5.685824" lat="43.540478"><ele>12.75</ele></trkpt>
<trkpt lon="-5.686587" lat="43.540387"><ele>15.0</ele></trkpt>
<trkpt lon="-5.686648" lat="43.540380"><ele>15.0</ele></trkpt>
<trkpt lon="-5.686741" lat="43.540368"><ele>15.0</ele></trkpt>
<trkpt lon="-5.687499" lat="43.540281"><ele>15.0</ele></trkpt>
<trkpt lon="-5.688358" lat="43.540179"><ele>14.5</ele></trkpt>
<trkpt lon="-5.688443" lat="43.540169"><ele>14.5</ele></trkpt>
<trkpt lon="-5.688543" lat="43.540157"><ele>14.5</ele></trkpt>
<trkpt lon="-5.689469" lat="43.540052"><ele>13.75</ele></trkpt>
<trkpt lon="-5.689863" lat="43.540007"><ele>12.5</ele></trkpt>
<trkpt lon="-5.689995" lat="43.539992"><ele>12.0</ele></trkpt>
<trkpt lon="-5.690107" lat="43.539979"><ele>12.0</ele></trkpt>
<trkpt lon="-5.690096" lat="43.539928"><ele>12.0</ele></trkpt>
<trkpt lon="-5.691272" lat="43.539782"><ele>10.75</ele></trkpt>
<trkpt lon="-5.691317" lat="43.539776"><ele>11.0</ele></trkpt>
<trkpt lon="-5.691380" lat="43.539770"><ele>11.0</ele></trkpt>
<trkpt lon="-5.691412" lat="43.539767"><ele>10.75</ele></trkpt>
<trkpt lon="-5.691910" lat="43.539713"><ele>10.0</ele></trkpt>
<trkpt lon="-5.691948" lat="43.539708"><ele>10.0</ele></trkpt>
<trkpt lon="-5.691963" lat="43.539767"><ele>10.0</ele></trkpt>
<trkpt lon="-5.692619" lat="43.539693"><ele>9.5</ele></trkpt>
<trkpt lon="-5.692841" lat="43.539666"><ele>9.0</ele></trkpt>
<trkpt lon="-5.692984" lat="43.539649"><ele>9.25</ele></trkpt>
<trkpt lon="-5.693249" lat="43.539618"><ele>9.25</ele></trkpt>
<trkpt lon="-5.693322" lat="43.539610"><ele>9.25</ele></trkpt>
<trkpt lon="-5.693363" lat="43.539605"><ele>9.25</ele></trkpt>
<trkpt lon="-5.693402" lat="43.539602"><ele>9.25</ele></trkpt>
<trkpt lon="-5.693487" lat="43.539592"><ele>9.0</ele></trkpt>
<trkpt lon="-5.694022" lat="43.539526"><ele>9.0</ele></trkpt>
<trkpt lon="-5.694196" lat="43.539504"><ele>8.75</ele></trkpt>
<trkpt lon="-5.694285" lat="43.539494"><ele>8.5</ele></trkpt>
<trkpt lon="-5.694719" lat="43.539445"><ele>8.0</ele></trkpt>
<trkpt lon="-5.694789" lat="43.539439"><ele>8.0</ele></trkpt>
<trkpt lon="-5.694987" lat="43.539417"><ele>8.0</ele></trkpt>
<trkpt lon="-5.695135" lat="43.539401"><ele>8.0</ele></trkpt>
<trkpt lon="-5.695569" lat="43.539351"><ele>8.0</ele></trkpt>
<trkpt lon="-5.695758" lat="43.539329"><ele>8.0</ele></trkpt>
<trkpt lon="-5.695785" lat="43.539326"><ele>8.0</ele></trkpt>
<trkpt lon="-5.696383" lat="43.539257"><ele>8.0</ele></trkpt>
<trkpt lon="-5.696603" lat="43.539231"><ele>7.75</ele></trkpt>
<trkpt lon="-5.696592" lat="43.539192"><ele>7.75</ele></trkpt>
<trkpt lon="-5.696667" lat="43.539183"><ele>7.75</ele></trkpt>
<trkpt lon="-5.696723" lat="43.539167"><ele>7.75</ele></trkpt>
<trkpt lon="-5.696779" lat="43.539171"><ele>7.75</ele></trkpt>
<trkpt lon="-5.697704" lat="43.539062"><ele>7.25</ele></trkpt>
<trkpt lon="-5.698279" lat="43.538993"><ele>7.75</ele></trkpt>
<trkpt lon="-5.698348" lat="43.538985"><ele>8.0</ele></trkpt>
<trkpt lon="-5.698457" lat="43.538971"><ele>8.0</ele></trkpt>
<trkpt lon="-5.698470" lat="43.538970"><ele>8.0</ele></trkpt>
<trkpt lon="-5.698622" lat="43.538951"><ele>8.0</ele></trkpt>
<trkpt lon="-5.698767" lat="43.538933"><ele>8.0</ele></trkpt>
<trkpt lon="-5.698784" lat="43.538931"><ele>8.0</ele></trkpt>
<trkpt lon="-5.698852" lat="43.538922"><ele>8.0</ele></trkpt>
<trkpt lon="-5.698979" lat="43.538907"><ele>8.0</ele></trkpt>
<trkpt lon="-5.699786" lat="43.538812"><ele>8.25</ele></trkpt>
<trkpt lon="-5.699903" lat="43.538794"><ele>8.25</ele></trkpt>
<trkpt lon="-5.699964" lat="43.538786"><ele>8.25</ele></trkpt>
<trkpt lon="-5.699992" lat="43.538800"><ele>8.25</ele></trkpt>
<trkpt lon="-5.700273" lat="43.538767"><ele>8.75</ele></trkpt>
<trkpt lon="-5.700535" lat="43.538736"><ele>9.0</ele></trkpt>
<trkpt lon="-5.700565" lat="43.538721"><ele>9.0</ele></trkpt>
<trkpt lon="-5.700574" lat="43.538699"><ele>9.0</ele></trkpt>
<trkpt lon="-5.700544" lat="43.538527"><ele>9.0</ele></trkpt>
<trkpt lon="-5.700533" lat="43.538466"><ele>9.0</ele></trkpt>
<trkpt lon="-5.700600" lat="43.538458"><ele>9.0</ele></trkpt>
<trkpt lon="-5.700626" lat="43.538455"><ele>9.0</ele></trkpt>
<trkpt lon="-5.700677" lat="43.538448"><ele>9.0</ele></trkpt>
<trkpt lon="-5.700713" lat="43.538484"><ele>9.0</ele></trkpt>
<trkpt lon="-5.700760" lat="43.538505"><ele>9.0</ele></trkpt>
<trkpt lon="-5.700846" lat="43.538524"><ele>9.0</ele></trkpt>
<trkpt lon="-5.701128" lat="43.538560"><ele>9.0</ele></trkpt>
<trkpt lon="-5.701385" lat="43.538596"><ele>9.0</ele></trkpt>
<trkpt lon="-5.701664" lat="43.538589"><ele>9.75</ele></trkpt>
<trkpt lon="-5.701748" lat="43.538579"><ele>10.0</ele></trkpt>
<trkpt lon="-5.702824" lat="43.538457"><ele>10.5</ele></trkpt>
<trkpt lon="-5.702922" lat="43.538446"><ele>10.75</ele></trkpt>
<trkpt lon="-5.703388" lat="43.538393"><ele>11.75</ele></trkpt>
<trkpt lon="-5.703772" lat="43.538356"><ele>11.75</ele></trkpt>
<trkpt lon="-5.703853" lat="43.538345"><ele>11.75</ele></trkpt>
<trkpt lon="-5.703903" lat="43.538339"><ele>11.75</ele></trkpt>
<trkpt lon="-5.704024" lat="43.538326"><ele>12.0</ele></trkpt>
<trkpt lon="-5.704487" lat="43.538266"><ele>13.0</ele></trkpt>
<trkpt lon="-5.705014" lat="43.538198"><ele>13.5</ele></trkpt>
<trkpt lon="-5.705101" lat="43.538186"><ele>13.75</ele></trkpt>
<trkpt lon="-5.705459" lat="43.538139"><ele>14.5</ele></trkpt>
<trkpt lon="-5.705479" lat="43.538127"><ele>14.5</ele></trkpt>
<trkpt lon="-5.705485" lat="43.538111"><ele>14.75</ele></trkpt>
<trkpt lon="-5.705555" lat="43.538099"><ele>14.75</ele></trkpt>
<trkpt lon="-5.705608" lat="43.538090"><ele>14.75</ele></trkpt>
<trkpt lon="-5.705630" lat="43.538102"><ele>14.75</ele></trkpt>
<trkpt lon="-5.705922" lat="43.538082"><ele>15.25</ele></trkpt>
<trkpt lon="-5.706023" lat="43.538060"><ele>15.5</ele></trkpt>
<trkpt lon="-5.706114" lat="43.538044"><ele>16.0</ele></trkpt>
<trkpt lon="-5.706563" lat="43.537995"><ele>16.5</ele></trkpt>
<trkpt lon="-5.706688" lat="43.537981"><ele>17.0</ele></trkpt>
<trkpt lon="-5.707142" lat="43.537925"><ele>18.0</ele></trkpt>
<trkpt lon="-5.707187" lat="43.537919"><ele>18.25</ele></trkpt>
<trkpt lon="-5.707179" lat="43.537876"><ele>18.25</ele></trkpt>
<trkpt lon="-5.707997" lat="43.537781"><ele>19.75</ele></trkpt>
<trkpt lon="-5.707992" lat="43.537760"><ele>20.0</ele></trkpt>
<trkpt lon="-5.708110" lat="43.537745"><ele>20.25</ele></trkpt>
<trkpt lon="-5.708167" lat="43.537740"><ele>20.25</ele></trkpt>
<trkpt lon="-5.708184" lat="43.537785"><ele>20.25</ele></trkpt>
<trkpt lon="-5.708214" lat="43.537811"><ele>20.25</ele></trkpt>
<trkpt lon="-5.708247" lat="43.537820"><ele>20.5</ele></trkpt>
<trkpt lon="-5.708313" lat="43.537818"><ele>20.75</ele></trkpt>
<trkpt lon="-5.710486" lat="43.537570"><ele>28.75</ele></trkpt>
<trkpt lon="-5.710499" lat="43.537605"><ele>28.75</ele></trkpt>
<trkpt lon="-5.710717" lat="43.537579"><ele>29.75</ele></trkpt>
<trkpt lon="-5.710965" lat="43.537549"><ele>31.25</ele></trkpt>
<trkpt lon="-5.711456" lat="43.537472"><ele>33.0</ele></trkpt>
<trkpt lon="-5.711756" lat="43.537426"><ele>33.5</ele></trkpt>
<trkpt lon="-5.712031" lat="43.537375"><ele>33.75</ele></trkpt>
<trkpt lon="-5.712062" lat="43.537475"><ele>34.25</ele></trkpt>
<trkpt lon="-5.712074" lat="43.537542"><ele>34.5</ele></trkpt>
<trkpt lon="-5.712092" lat="43.537681"><ele>34.75</ele></trkpt>
<trkpt lon="-5.712078" lat="43.537876"><ele>35.0</ele></trkpt>
<trkpt lon="-5.712092" lat="43.538037"><ele>35.25</ele></trkpt>
<trkpt lon="-5.712112" lat="43.538147"><ele>35.75</ele></trkpt>
<trkpt lon="-5.712154" lat="43.538216"><ele>36.0</ele></trkpt>
<trkpt lon="-5.712218" lat="43.538272"><ele>36.75</ele></trkpt>
<trkpt lon="-5.712556" lat="43.538494"><ele>38.75</ele></trkpt>
<trkpt lon="-5.712718" lat="43.538563"><ele>40.25</ele></trkpt>
<trkpt lon="-5.712882" lat="43.538609"><ele>41.5</ele></trkpt>
<trkpt lon="-5.713227" lat="43.538635"><ele>44.0</ele></trkpt>
<trkpt lon="-5.713407" lat="43.538667"><ele>45.5</ele></trkpt>
<trkpt lon="-5.713481" lat="43.538698"><ele>46.0</ele></trkpt>
<trkpt lon="-5.713583" lat="43.538739"><ele>46.75</ele></trkpt>
<trkpt lon="-5.713857" lat="43.538919"><ele>48.5</ele></trkpt>
<trkpt lon="-5.714157" lat="43.539138"><ele>49.0</ele></trkpt>
<trkpt lon="-5.714879" lat="43.539912"><ele>51.5</ele></trkpt>
<trkpt lon="-5.715109" lat="43.540111"><ele>51.75</ele></trkpt>
<trkpt lon="-5.715264" lat="43.540220"><ele>53.0</ele></trkpt>
<trkpt lon="-5.715288" lat="43.540235"><ele>53.0</ele></trkpt>
<trkpt lon="-5.715306" lat="43.540245"><ele>53.0</ele></trkpt>
<trkpt lon="-5.715799" lat="43.540570"><ele>54.25</ele></trkpt>
<trkpt lon="-5.716079" lat="43.540837"><ele>54.5</ele></trkpt>
<trkpt lon="-5.716319" lat="43.541118"><ele>56.5</ele></trkpt>
<trkpt lon="-5.716487" lat="43.541412"><ele>59.0</ele></trkpt>
<trkpt lon="-5.716543" lat="43.541742"><ele>61.75</ele></trkpt>
<trkpt lon="-5.716584" lat="43.541928"><ele>63.0</ele></trkpt>
<trkpt lon="-5.716661" lat="43.542091"><ele>63.75</ele></trkpt>
<trkpt lon="-5.716875" lat="43.542280"><ele>65.5</ele></trkpt>
<trkpt lon="-5.717024" lat="43.542368"><ele>65.75</ele></trkpt>
<trkpt lon="-5.717204" lat="43.542505"><ele>65.75</ele></trkpt>
<trkpt lon="-5.717394" lat="43.542692"><ele>66.25</ele></trkpt>
<trkpt lon="-5.717973" lat="43.543313"><ele>67.25</ele></trkpt>
<trkpt lon="-5.718117" lat="43.543509"><ele>68.0</ele></trkpt>
<trkpt lon="-5.718222" lat="43.543708"><ele>68.5</ele></trkpt>
<trkpt lon="-5.718268" lat="43.543860"><ele>68.75</ele></trkpt>
<trkpt lon="-5.718303" lat="43.544095"><ele>70.25</ele></trkpt>
<trkpt lon="-5.718301" lat="43.544223"><ele>71.5</ele></trkpt>
<trkpt lon="-5.718276" lat="43.544339"><ele>73.0</ele></trkpt>
<trkpt lon="-5.718653" lat="43.544312"><ele>76.25</ele></trkpt>
<trkpt lon="-5.719006" lat="43.544226"><ele>76.0</ele></trkpt>
<trkpt lon="-5.719283" lat="43.544118"><ele>75.75</ele></trkpt>
<trkpt lon="-5.719543" lat="43.544048"><ele>76.25</ele></trkpt>
<trkpt lon="-5.720238" lat="43.543896"><ele>74.0</ele></trkpt>
<trkpt lon="-5.720939" lat="43.543773"><ele>70.5</ele></trkpt>
<trkpt lon="-5.721303" lat="43.543762"><ele>72.0</ele></trkpt>
<trkpt lon="-5.721529" lat="43.543801"><ele>72.75</ele></trkpt>
<trkpt lon="-5.721812" lat="43.543895"><ele>74.0</ele></trkpt>
<trkpt lon="-5.722274" lat="43.543983"><ele>74.0</ele></trkpt>
<trkpt lon="-5.722451" lat="43.543984"><ele>74.0</ele></trkpt>
<trkpt lon="-5.722633" lat="43.543931"><ele>73.25</ele></trkpt>
<trkpt lon="-5.722818" lat="43.543801"><ele>70.0</ele></trkpt>
<trkpt lon="-5.723288" lat="43.543440"><ele>60.75</ele></trkpt>
<trkpt lon="-5.723460" lat="43.543259"><ele>57.0</ele></trkpt>
<trkpt lon="-5.723574" lat="43.543030"><ele>51.25</ele></trkpt>
<trkpt lon="-5.723662" lat="43.542576"><ele>37.75</ele></trkpt>
<trkpt lon="-5.723682" lat="43.542479"><ele>35.0</ele></trkpt>
<trkpt lon="-5.723709" lat="43.542400"><ele>32.75</ele></trkpt>
<trkpt lon="-5.723731" lat="43.542378"><ele>32.0</ele></trkpt>
<trkpt lon="-5.723768" lat="43.542356"><ele>31.25</ele></trkpt>
<trkpt lon="-5.723810" lat="43.542341"><ele>30.5</ele></trkpt>
<trkpt lon="-5.723867" lat="43.542326"><ele>29.75</ele></trkpt>
<trkpt lon="-5.724139" lat="43.542288"><ele>29.0</ele></trkpt>
<trkpt lon="-5.724180" lat="43.542280"><ele>29.0</ele></trkpt>
<trkpt lon="-5.724208" lat="43.542267"><ele>29.0</ele></trkpt>
<trkpt lon="-5.724229" lat="43.542248"><ele>28.5</ele></trkpt>
<trkpt lon="-5.724250" lat="43.542211"><ele>27.0</ele></trkpt>
<trkpt lon="-5.724256" lat="43.542180"><ele>25.75</ele></trkpt>
<trkpt lon="-5.724250" lat="43.542147"><ele>24.25</ele></trkpt>
<trkpt lon="-5.724231" lat="43.542118"><ele>22.75</ele></trkpt>
<trkpt lon="-5.724191" lat="43.542093"><ele>21.0</ele></trkpt>
<trkpt lon="-5.724125" lat="43.542070"><ele>20.0</ele></trkpt>
<trkpt lon="-5.724053" lat="43.542053"><ele>20.0</ele></trkpt>
<trkpt lon="-5.723734" lat="43.542010"><ele>20.0</ele></trkpt>
<trkpt lon="-5.723683" lat="43.541995"><ele>19.5</ele></trkpt>
<trkpt lon="-5.723642" lat="43.541976"><ele>19.0</ele></trkpt>
<trkpt lon="-5.723615" lat="43.541949"><ele>18.0</ele></trkpt>
<trkpt lon="-5.723610" lat="43.541919"><ele>17.5</ele></trkpt>
<trkpt lon="-5.723899" lat="43.541928"><ele>17.5</ele></trkpt>
<trkpt lon="-5.724500" lat="43.541911"><ele>13.25</ele></trkpt>
<trkpt lon="-5.724743" lat="43.541938"><ele>13.25</ele></trkpt>
<trkpt lon="-5.725078" lat="43.541959"><ele>16.25</ele></trkpt>
<trkpt lon="-5.725572" lat="43.542033"><ele>9.25</ele></trkpt>
<trkpt lon="-5.725074" lat="43.541566"><ele>9.5</ele></trkpt>
<trkpt lon="-5.725147" lat="43.541542"><ele>9.5</ele></trkpt>
<trkpt lon="-5.725191" lat="43.541530"><ele>9.5</ele></trkpt>
<trkpt lon="-5.725274" lat="43.541508"><ele>9.75</ele></trkpt>
<trkpt lon="-5.725755" lat="43.541387"><ele>9.0</ele></trkpt>
<trkpt lon="-5.726055" lat="43.541307"><ele>10.75</ele></trkpt>
<trkpt lon="-5.726189" lat="43.541235"><ele>9.0</ele></trkpt>
<trkpt lon="-5.726313" lat="43.541139"><ele>9.0</ele></trkpt>
<trkpt lon="-5.727077" lat="43.540684"><ele>9.75</ele></trkpt>
<trkpt lon="-5.727340" lat="43.540538"><ele>10.25</ele></trkpt>
<trkpt lon="-5.727544" lat="43.540379"><ele>12.5</ele></trkpt>
<trkpt lon="-5.728031" lat="43.539855"><ele>12.25</ele></trkpt>
<trkpt lon="-5.728353" lat="43.539437"><ele>11.25</ele></trkpt>
<trkpt lon="-5.728533" lat="43.539042"><ele>15.5</ele></trkpt>
<trkpt lon="-5.728408" lat="43.538701"><ele>18.5</ele></trkpt>
<trkpt lon="-5.728397" lat="43.538653"><ele>19.0</ele></trkpt>
<trkpt lon="-5.728409" lat="43.538566"><ele>19.0</ele></trkpt>
<trkpt lon="-5.728459" lat="43.538482"><ele>19.25</ele></trkpt>
<trkpt lon="-5.728495" lat="43.538448"><ele>19.75</ele></trkpt>
<trkpt lon="-5.728541" lat="43.538419"><ele>20.75</ele></trkpt>
<trkpt lon="-5.728648" lat="43.538381"><ele>22.5</ele></trkpt>
<trkpt lon="-5.728768" lat="43.538368"><ele>21.5</ele></trkpt>
<trkpt lon="-5.729030" lat="43.538373"><ele>22.75</ele></trkpt>
<trkpt lon="-5.729082" lat="43.538380"><ele>23.75</ele></trkpt>
<trkpt lon="-5.729111" lat="43.538392"><ele>24.0</ele></trkpt>
<trkpt lon="-5.729137" lat="43.538412"><ele>24.25</ele></trkpt>
<trkpt lon="-5.729153" lat="43.538437"><ele>24.25</ele></trkpt>
<trkpt lon="-5.729154" lat="43.538498"><ele>23.25</ele></trkpt>
<trkpt lon="-5.729032" lat="43.538739"><ele>19.25</ele></trkpt>
<trkpt lon="-5.729027" lat="43.538816"><ele>19.0</ele></trkpt>
<trkpt lon="-5.729045" lat="43.538899"><ele>19.25</ele></trkpt>
<trkpt lon="-5.729121" lat="43.539054"><ele>21.75</ele></trkpt>
<trkpt lon="-5.729150" lat="43.539133"><ele>22.5</ele></trkpt>
<trkpt lon="-5.729192" lat="43.539298"><ele>25.0</ele></trkpt>
<trkpt lon="-5.729263" lat="43.539260"><ele>27.0</ele></trkpt>
<trkpt lon="-5.729434" lat="43.538840"><ele>31.5</ele></trkpt>
<trkpt lon="-5.729657" lat="43.538463"><ele>38.5</ele></trkpt>
<trkpt lon="-5.729769" lat="43.538851"><ele>41.75</ele></trkpt>
<trkpt lon="-5.729798" lat="43.538798"><ele>42.25</ele></trkpt>
<trkpt lon="-5.729983" lat="43.538493"><ele>44.0</ele></trkpt>
<trkpt lon="-5.730211" lat="43.538166"><ele>48.5</ele></trkpt>
<trkpt lon="-5.730438" lat="43.537894"><ele>51.5</ele></trkpt>
<trkpt lon="-5.730759" lat="43.537476"><ele>49.75</ele></trkpt>
<trkpt lon="-5.730831" lat="43.537372"><ele>49.0</ele></trkpt>
<trkpt lon="-5.730856" lat="43.537253"><ele>47.75</ele></trkpt>
<trkpt lon="-5.731214" lat="43.537307"><ele>54.5</ele></trkpt>
<trkpt lon="-5.731411" lat="43.537416"><ele>56.25</ele></trkpt>
<trkpt lon="-5.731584" lat="43.537503"><ele>56.0</ele></trkpt>
<trkpt lon="-5.731779" lat="43.537586"><ele>60.5</ele></trkpt>
<trkpt lon="-5.732165" lat="43.537645"><ele>65.5</ele></trkpt>
<trkpt lon="-5.732331" lat="43.537680"><ele>67.75</ele></trkpt>
<trkpt lon="-5.732698" lat="43.537783"><ele>73.5</ele></trkpt>
<trkpt lon="-5.733048" lat="43.537686"><ele>79.5</ele></trkpt>
<trkpt lon="-5.733265" lat="43.537550"><ele>82.0</ele></trkpt>
<trkpt lon="-5.733713" lat="43.537300"><ele>87.25</ele></trkpt>
<trkpt lon="-5.734204" lat="43.537087"><ele>91.5</ele></trkpt>
<trkpt lon="-5.734439" lat="43.536817"><ele>93.75</ele></trkpt>
<trkpt lon="-5.734554" lat="43.536757"><ele>94.25</ele></trkpt>
<trkpt lon="-5.734756" lat="43.536690"><ele>94.0</ele></trkpt>
<trkpt lon="-5.735005" lat="43.536629"><ele>94.5</ele></trkpt>
<trkpt lon="-5.735164" lat="43.536608"><ele>95.75</ele></trkpt>
<trkpt lon="-5.735453" lat="43.536476"><ele>97.0</ele></trkpt>
<trkpt lon="-5.735685" lat="43.536400"><ele>97.75</ele></trkpt>
<trkpt lon="-5.736129" lat="43.536307"><ele>100.75</ele></trkpt>
<trkpt lon="-5.736888" lat="43.536174"><ele>104.25</ele></trkpt>
<trkpt lon="-5.737200" lat="43.536129"><ele>107.0</ele></trkpt>
<trkpt lon="-5.737427" lat="43.536073"><ele>106.5</ele></trkpt>
<trkpt lon="-5.737588" lat="43.536042"><ele>106.75</ele></trkpt>
<trkpt lon="-5.738171" lat="43.536005"><ele>108.0</ele></trkpt>
<trkpt lon="-5.738628" lat="43.535844"><ele>107.0</ele></trkpt>
<trkpt lon="-5.739036" lat="43.535742"><ele>108.0</ele></trkpt>
<trkpt lon="-5.739289" lat="43.535712"><ele>108.75</ele></trkpt>
<trkpt lon="-5.739614" lat="43.535764"><ele>110.25</ele></trkpt>
<trkpt lon="-5.740061" lat="43.535806"><ele>112.0</ele></trkpt>
<trkpt lon="-5.740563" lat="43.535908"><ele>117.25</ele></trkpt>
<trkpt lon="-5.740900" lat="43.536045"><ele>121.5</ele></trkpt>
<trkpt lon="-5.741111" lat="43.536238"><ele>124.5</ele></trkpt>
<trkpt lon="-5.741113" lat="43.536268"><ele>125.25</ele></trkpt>
<trkpt lon="-5.741176" lat="43.536471"><ele>129.25</ele></trkpt>
<trkpt lon="-5.741286" lat="43.536659"><ele>132.25</ele></trkpt>
<trkpt lon="-5.741666" lat="43.537025"><ele>139.75</ele></trkpt>
<trkpt lon="-5.741783" lat="43.537116"><ele>141.25</ele></trkpt>
<trkpt lon="-5.741927" lat="43.537272"><ele>145.0</ele></trkpt>
<trkpt lon="-5.741996" lat="43.537398"><ele>148.0</ele></trkpt>
<trkpt lon="-5.742129" lat="43.537503"><ele>150.75</ele></trkpt>
<trkpt lon="-5.742330" lat="43.537574"><ele>152.75</ele></trkpt>
<trkpt lon="-5.742946" lat="43.537707"><ele>159.75</ele></trkpt>
<trkpt lon="-5.743081" lat="43.537697"><ele>160.0</ele></trkpt>
<trkpt lon="-5.743294" lat="43.537714"><ele>160.75</ele></trkpt>
<trkpt lon="-5.743601" lat="43.537822"><ele>162.75</ele></trkpt>
<trkpt lon="-5.743760" lat="43.537859"><ele>163.75</ele></trkpt>
<trkpt lon="-5.744687" lat="43.537919"><ele>164.5</ele></trkpt>
<trkpt lon="-5.745493" lat="43.537988"><ele>163.0</ele></trkpt>
<trkpt lon="-5.746077" lat="43.538026"><ele>162.75</ele></trkpt>
<trkpt lon="-5.746427" lat="43.538026"><ele>163.25</ele></trkpt>
<trkpt lon="-5.747082" lat="43.538025"><ele>165.0</ele></trkpt>
<trkpt lon="-5.747273" lat="43.537999"><ele>165.0</ele></trkpt>
<trkpt lon="-5.747744" lat="43.537991"><ele>166.0</ele></trkpt>
<trkpt lon="-5.748282" lat="43.537948"><ele>166.0</ele></trkpt>
<trkpt lon="-5.748870" lat="43.537837"><ele>166.75</ele></trkpt>
<trkpt lon="-5.749512" lat="43.537749"><ele>168.0</ele></trkpt>
<trkpt lon="-5.750075" lat="43.537650"><ele>168.75</ele></trkpt>
<trkpt lon="-5.750487" lat="43.537600"><ele>168.5</ele></trkpt>
<trkpt lon="-5.751330" lat="43.537445"><ele>169.75</ele></trkpt>
<trkpt lon="-5.752065" lat="43.537333"><ele>170.0</ele></trkpt>
<trkpt lon="-5.752439" lat="43.537269"><ele>170.5</ele></trkpt>
<trkpt lon="-5.752754" lat="43.537199"><ele>171.0</ele></trkpt>
<trkpt lon="-5.752966" lat="43.537123"><ele>171.5</ele></trkpt>
<trkpt lon="-5.753080" lat="43.537082"><ele>171.75</ele></trkpt>
<trkpt lon="-5.753336" lat="43.537052"><ele>170.75</ele></trkpt>
<trkpt lon="-5.753662" lat="43.537131"><ele>171.5</ele></trkpt>
<trkpt lon="-5.753876" lat="43.537158"><ele>173.0</ele></trkpt>
<trkpt lon="-5.754320" lat="43.537186"><ele>175.5</ele></trkpt>
<trkpt lon="-5.754635" lat="43.537270"><ele>176.5</ele></trkpt>
<trkpt lon="-5.755130" lat="43.537322"><ele>177.5</ele></trkpt>
<trkpt lon="-5.755640" lat="43.537432"><ele>177.0</ele></trkpt>
<trkpt lon="-5.755920" lat="43.537439"><ele>177.25</ele></trkpt>
<trkpt lon="-5.756153" lat="43.537384"><ele>177.75</ele></trkpt>
<trkpt lon="-5.756472" lat="43.537376"><ele>177.25</ele></trkpt>
<trkpt lon="-5.756805" lat="43.537399"><ele>176.75</ele></trkpt>
<trkpt lon="-5.757113" lat="43.537393"><ele>176.25</ele></trkpt>
<trkpt lon="-5.757634" lat="43.537260"><ele>175.75</ele></trkpt>
<trkpt lon="-5.758130" lat="43.537178"><ele>175.25</ele></trkpt>
<trkpt lon="-5.758305" lat="43.537177"><ele>175.25</ele></trkpt>
<trkpt lon="-5.758946" lat="43.537261"><ele>175.75</ele></trkpt>
<trkpt lon="-5.759086" lat="43.537261"><ele>176.25</ele></trkpt>
<trkpt lon="-5.759315" lat="43.537216"><ele>177.5</ele></trkpt>
<trkpt lon="-5.759533" lat="43.537193"><ele>178.0</ele></trkpt>
<trkpt lon="-5.759813" lat="43.537139"><ele>178.0</ele></trkpt>
<trkpt lon="-5.760130" lat="43.537118"><ele>177.25</ele></trkpt>
<trkpt lon="-5.760472" lat="43.537060"><ele>176.75</ele></trkpt>
<trkpt lon="-5.760592" lat="43.537053"><ele>176.5</ele></trkpt>
<trkpt lon="-5.761467" lat="43.536859"><ele>176.5</ele></trkpt>
<trkpt lon="-5.761671" lat="43.536791"><ele>177.0</ele></trkpt>
<trkpt lon="-5.761830" lat="43.536764"><ele>176.5</ele></trkpt>
<trkpt lon="-5.762008" lat="43.536775"><ele>175.75</ele></trkpt>
<trkpt lon="-5.762096" lat="43.536748"><ele>176.0</ele></trkpt>
<trkpt lon="-5.762188" lat="43.536732"><ele>176.25</ele></trkpt>
<trkpt lon="-5.762268" lat="43.536746"><ele>176.25</ele></trkpt>
<trkpt lon="-5.762321" lat="43.536808"><ele>175.5</ele></trkpt>
<trkpt lon="-5.762456" lat="43.536800"><ele>175.75</ele></trkpt>
<trkpt lon="-5.762700" lat="43.536743"><ele>176.0</ele></trkpt>
<trkpt lon="-5.762952" lat="43.536780"><ele>175.25</ele></trkpt>
<trkpt lon="-5.763083" lat="43.536670"><ele>176.75</ele></trkpt>
<trkpt lon="-5.763284" lat="43.536611"><ele>177.5</ele></trkpt>
<trkpt lon="-5.763660" lat="43.536348"><ele>178.75</ele></trkpt>
<trkpt lon="-5.763737" lat="43.536409"><ele>178.25</ele></trkpt>
<trkpt lon="-5.764236" lat="43.536676"><ele>174.5</ele></trkpt>
<trkpt lon="-5.764566" lat="43.536925"><ele>172.0</ele></trkpt>
<trkpt lon="-5.764849" lat="43.536622"><ele>174.25</ele></trkpt>
<trkpt lon="-5.764917" lat="43.536507"><ele>175.5</ele></trkpt>
<trkpt lon="-5.765083" lat="43.536170"><ele>179.25</ele></trkpt>
<trkpt lon="-5.765271" lat="43.535924"><ele>181.25</ele></trkpt>
<trkpt lon="-5.765532" lat="43.535756"><ele>181.5</ele></trkpt>
<trkpt lon="-5.765744" lat="43.535634"><ele>182.25</ele></trkpt>
<trkpt lon="-5.766007" lat="43.535444"><ele>183.75</ele></trkpt>
<trkpt lon="-5.766423" lat="43.535080"><ele>184.5</ele></trkpt>
<trkpt lon="-5.766731" lat="43.534903"><ele>184.0</ele></trkpt>
<trkpt lon="-5.766981" lat="43.534813"><ele>183.75</ele></trkpt>
<trkpt lon="-5.767341" lat="43.534711"><ele>181.5</ele></trkpt>
<trkpt lon="-5.767902" lat="43.534464"><ele>182.25</ele></trkpt>
<trkpt lon="-5.768157" lat="43.534320"><ele>182.75</ele></trkpt>
<trkpt lon="-5.768791" lat="43.533905"><ele>184.75</ele></trkpt>
<trkpt lon="-5.769409" lat="43.533540"><ele>188.5</ele></trkpt>
<trkpt lon="-5.769537" lat="43.533464"><ele>189.0</ele></trkpt>
<trkpt lon="-5.769692" lat="43.533412"><ele>189.25</ele></trkpt>
<trkpt lon="-5.769994" lat="43.533380"><ele>189.5</ele></trkpt>
<trkpt lon="-5.770606" lat="43.533387"><ele>188.25</ele></trkpt>
<trkpt lon="-5.771595" lat="43.533435"><ele>186.25</ele></trkpt>
<trkpt lon="-5.772177" lat="43.533441"><ele>186.0</ele></trkpt>
<trkpt lon="-5.772504" lat="43.533425"><ele>185.25</ele></trkpt>
<trkpt lon="-5.773147" lat="43.533299"><ele>184.0</ele></trkpt>
<trkpt lon="-5.773834" lat="43.533105"><ele>184.0</ele></trkpt>
<trkpt lon="-5.774216" lat="43.532957"><ele>183.5</ele></trkpt>
<trkpt lon="-5.774790" lat="43.532789"><ele>183.75</ele></trkpt>
<trkpt lon="-5.774985" lat="43.532712"><ele>184.0</ele></trkpt>
<trkpt lon="-5.775340" lat="43.532745"><ele>183.0</ele></trkpt>
<trkpt lon="-5.775789" lat="43.532849"><ele>182.5</ele></trkpt>
<trkpt lon="-5.776118" lat="43.532954"><ele>181.5</ele></trkpt>
<trkpt lon="-5.776471" lat="43.533267"><ele>179.0</ele></trkpt>
<trkpt lon="-5.776688" lat="43.533435"><ele>178.75</ele></trkpt>
<trkpt lon="-5.776848" lat="43.533571"><ele>176.75</ele></trkpt>
<trkpt lon="-5.777121" lat="43.533692"><ele>176.75</ele></trkpt>
<trkpt lon="-5.777352" lat="43.534122"><ele>175.0</ele></trkpt>
<trkpt lon="-5.777411" lat="43.534375"><ele>173.0</ele></trkpt>
<trkpt lon="-5.777340" lat="43.534540"><ele>171.75</ele></trkpt>
<trkpt lon="-5.777063" lat="43.534854"><ele>168.75</ele></trkpt>
<trkpt lon="-5.777316" lat="43.534899"><ele>166.25</ele></trkpt>
<trkpt lon="-5.777631" lat="43.534917"><ele>162.0</ele></trkpt>
<trkpt lon="-5.778486" lat="43.534883"><ele>152.5</ele></trkpt>
<trkpt lon="-5.779001" lat="43.534874"><ele>146.75</ele></trkpt>
<trkpt lon="-5.779431" lat="43.534944"><ele>138.25</ele></trkpt>
<trkpt lon="-5.779710" lat="43.534960"><ele>134.25</ele></trkpt>
<trkpt lon="-5.780200" lat="43.534846"><ele>129.5</ele></trkpt>
<trkpt lon="-5.780412" lat="43.534830"><ele>127.0</ele></trkpt>
<trkpt lon="-5.780751" lat="43.534817"><ele>125.0</ele></trkpt>
<trkpt lon="-5.781935" lat="43.534721"><ele>115.0</ele></trkpt>
<trkpt lon="-5.782344" lat="43.534635"><ele>113.25</ele></trkpt>
<trkpt lon="-5.782435" lat="43.534664"><ele>112.5</ele></trkpt>
<trkpt lon="-5.782722" lat="43.534994"><ele>108.5</ele></trkpt>
<trkpt lon="-5.782828" lat="43.535033"><ele>108.5</ele></trkpt>
<trkpt lon="-5.782898" lat="43.535059"><ele>108.25</ele></trkpt>
<trkpt lon="-5.782933" lat="43.535072"><ele>108.25</ele></trkpt>
<trkpt lon="-5.783643" lat="43.535162"><ele>104.75</ele></trkpt>
<trkpt lon="-5.783954" lat="43.535148"><ele>102.5</ele></trkpt>
<trkpt lon="-5.784843" lat="43.534947"><ele>95.5</ele></trkpt>
<trkpt lon="-5.784892" lat="43.534974"><ele>95.0</ele></trkpt>
<trkpt lon="-5.785083" lat="43.535080"><ele>92.75</ele></trkpt>
<trkpt lon="-5.785383" lat="43.535196"><ele>90.0</ele></trkpt>
<trkpt lon="-5.786130" lat="43.535668"><ele>83.5</ele></trkpt>
<trkpt lon="-5.786163" lat="43.535691"><ele>83.25</ele></trkpt>
<trkpt lon="-5.786203" lat="43.535721"><ele>82.75</ele></trkpt>
<trkpt lon="-5.786243" lat="43.535754"><ele>82.5</ele></trkpt>
<trkpt lon="-5.786334" lat="43.535793"><ele>82.0</ele></trkpt>
<trkpt lon="-5.786690" lat="43.535889"><ele>80.0</ele></trkpt>
<trkpt lon="-5.787138" lat="43.536028"><ele>76.75</ele></trkpt>
<trkpt lon="-5.787631" lat="43.536233"><ele>74.75</ele></trkpt>
<trkpt lon="-5.787759" lat="43.536291"><ele>74.25</ele></trkpt>
<trkpt lon="-5.787912" lat="43.536360"><ele>74.5</ele></trkpt>
<trkpt lon="-5.788266" lat="43.536478"><ele>74.5</ele></trkpt>
<trkpt lon="-5.788500" lat="43.536602"><ele>75.0</ele></trkpt>
<trkpt lon="-5.788922" lat="43.537160"><ele>77.0</ele></trkpt>
<trkpt lon="-5.789394" lat="43.537776"><ele>78.0</ele></trkpt>
<trkpt lon="-5.789472" lat="43.537838"><ele>77.75</ele></trkpt>
<trkpt lon="-5.789730" lat="43.537972"><ele>78.0</ele></trkpt>
<trkpt lon="-5.789930" lat="43.538009"><ele>78.0</ele></trkpt>
<trkpt lon="-5.789995" lat="43.538071"><ele>77.75</ele></trkpt>
<trkpt lon="-5.792321" lat="43.536756"><ele>82.0</ele></trkpt>
<trkpt lon="-5.793149" lat="43.536072"><ele>86.5</ele></trkpt>
<trkpt lon="-5.793611" lat="43.535801"><ele>87.0</ele></trkpt>
<trkpt lon="-5.794026" lat="43.535645"><ele>88.0</ele></trkpt>
<trkpt lon="-5.794918" lat="43.535352"><ele>89.25</ele></trkpt>
<trkpt lon="-5.795368" lat="43.535170"><ele>91.0</ele></trkpt>
<trkpt lon="-5.796003" lat="43.534820"><ele>95.25</ele></trkpt>
<trkpt lon="-5.796432" lat="43.534633"><ele>97.25</ele></trkpt>
<trkpt lon="-5.796793" lat="43.534510"><ele>98.5</ele></trkpt>
<trkpt lon="-5.796951" lat="43.534505"><ele>98.5</ele></trkpt>
<trkpt lon="-5.797023" lat="43.534549"><ele>98.0</ele></trkpt>
<trkpt lon="-5.797634" lat="43.535003"><ele>95.75</ele></trkpt>
<trkpt lon="-5.797789" lat="43.535067"><ele>95.25</ele></trkpt>
<trkpt lon="-5.798163" lat="43.535176"><ele>94.0</ele></trkpt>
<trkpt lon="-5.799061" lat="43.535338"><ele>92.5</ele></trkpt>
<trkpt lon="-5.799430" lat="43.535391"><ele>94.25</ele></trkpt>
<trkpt lon="-5.799758" lat="43.535334"><ele>95.25</ele></trkpt>
<trkpt lon="-5.800036" lat="43.535260"><ele>96.25</ele></trkpt>
<trkpt lon="-5.800416" lat="43.535143"><ele>97.75</ele></trkpt>
<trkpt lon="-5.801196" lat="43.535099"><ele>98.75</ele></trkpt>
<trkpt lon="-5.801712" lat="43.535025"><ele>98.5</ele></trkpt>
<trkpt lon="-5.802374" lat="43.534877"><ele>99.0</ele></trkpt>
<trkpt lon="-5.802727" lat="43.534870"><ele>97.0</ele></trkpt>
<trkpt lon="-5.803076" lat="43.534833"><ele>94.5</ele></trkpt>
<trkpt lon="-5.803501" lat="43.534819"><ele>92.75</ele></trkpt>
<trkpt lon="-5.803909" lat="43.534900"><ele>94.5</ele></trkpt>
<trkpt lon="-5.804252" lat="43.534930"><ele>97.0</ele></trkpt>
<trkpt lon="-5.804597" lat="43.534905"><ele>100.0</ele></trkpt>
<trkpt lon="-5.805130" lat="43.534778"><ele>103.0</ele></trkpt>
<trkpt lon="-5.807191" lat="43.534466"><ele>103.5</ele></trkpt>
<trkpt lon="-5.807703" lat="43.534242"><ele>104.5</ele></trkpt>
<trkpt lon="-5.808317" lat="43.534121"><ele>103.5</ele></trkpt>
<trkpt lon="-5.808842" lat="43.534160"><ele>103.0</ele></trkpt>
<trkpt lon="-5.809796" lat="43.534027"><ele>103.0</ele></trkpt>
<trkpt lon="-5.810914" lat="43.533687"><ele>105.5</ele></trkpt>
<trkpt lon="-5.811367" lat="43.533433"><ele>107.0</ele></trkpt>
<trkpt lon="-5.811631" lat="43.533323"><ele>107.0</ele></trkpt>
<trkpt lon="-5.811741" lat="43.533262"><ele>107.25</ele></trkpt>
<trkpt lon="-5.812397" lat="43.533011"><ele>108.0</ele></trkpt>
<trkpt lon="-5.812647" lat="43.532943"><ele>108.5</ele></trkpt>
<trkpt lon="-5.813723" lat="43.532623"><ele>109.0</ele></trkpt>
<trkpt lon="-5.813850" lat="43.532562"><ele>108.25</ele></trkpt>
<trkpt lon="-5.814144" lat="43.532387"><ele>107.75</ele></trkpt>
<trkpt lon="-5.814285" lat="43.532337"><ele>108.0</ele></trkpt>
<trkpt lon="-5.814654" lat="43.532293"><ele>107.0</ele></trkpt>
<trkpt lon="-5.815019" lat="43.532274"><ele>104.75</ele></trkpt>
<trkpt lon="-5.815208" lat="43.532219"><ele>105.0</ele></trkpt>
<trkpt lon="-5.815817" lat="43.532124"><ele>104.25</ele></trkpt>
<trkpt lon="-5.816050" lat="43.532159"><ele>102.25</ele></trkpt>
<trkpt lon="-5.816287" lat="43.532219"><ele>101.75</ele></trkpt>
<trkpt lon="-5.816375" lat="43.532239"><ele>102.0</ele></trkpt>
<trkpt lon="-5.816543" lat="43.532234"><ele>101.5</ele></trkpt>
<trkpt lon="-5.817287" lat="43.532168"><ele>100.75</ele></trkpt>
<trkpt lon="-5.817730" lat="43.532103"><ele>100.0</ele></trkpt>
<trkpt lon="-5.818108" lat="43.531993"><ele>100.25</ele></trkpt>
<trkpt lon="-5.819006" lat="43.531868"><ele>97.0</ele></trkpt>
<trkpt lon="-5.819375" lat="43.531721"><ele>96.0</ele></trkpt>
<trkpt lon="-5.819718" lat="43.531698"><ele>95.0</ele></trkpt>
<trkpt lon="-5.819920" lat="43.531652"><ele>93.5</ele></trkpt>
<trkpt lon="-5.820036" lat="43.531630"><ele>93.0</ele></trkpt>
<trkpt lon="-5.820304" lat="43.531693"><ele>92.75</ele></trkpt>
<trkpt lon="-5.820540" lat="43.531702"><ele>94.0</ele></trkpt>
<trkpt lon="-5.820764" lat="43.531670"><ele>93.0</ele></trkpt>
<trkpt lon="-5.822566" lat="43.531139"><ele>88.0</ele></trkpt>
<trkpt lon="-5.823269" lat="43.531049"><ele>86.0</ele></trkpt>
<trkpt lon="-5.823873" lat="43.530946"><ele>86.0</ele></trkpt>
<trkpt lon="-5.824751" lat="43.530896"><ele>83.5</ele></trkpt>
<trkpt lon="-5.825258" lat="43.530806"><ele>80.75</ele></trkpt>
<trkpt lon="-5.825965" lat="43.530604"><ele>74.5</ele></trkpt>
<trkpt lon="-5.826282" lat="43.530555"><ele>70.0</ele></trkpt>
<trkpt lon="-5.827181" lat="43.530704"><ele>65.75</ele></trkpt>
<trkpt lon="-5.828165" lat="43.531050"><ele>56.0</ele></trkpt>
<trkpt lon="-5.828349" lat="43.531146"><ele>55.5</ele></trkpt>
<trkpt lon="-5.828651" lat="43.531392"><ele>56.5</ele></trkpt>
<trkpt lon="-5.829454" lat="43.531801"><ele>52.0</ele></trkpt>
<trkpt lon="-5.829822" lat="43.531955"><ele>47.5</ele></trkpt>
<trkpt lon="-5.830529" lat="43.532193"><ele>44.25</ele></trkpt>
<trkpt lon="-5.830711" lat="43.532197"><ele>44.5</ele></trkpt>
<trkpt lon="-5.831155" lat="43.531983"><ele>45.0</ele></trkpt>
<trkpt lon="-5.831254" lat="43.531911"><ele>45.5</ele></trkpt>
<trkpt lon="-5.831343" lat="43.531829"><ele>46.25</ele></trkpt>
<trkpt lon="-5.831396" lat="43.531725"><ele>46.75</ele></trkpt>
<trkpt lon="-5.831338" lat="43.531595"><ele>47.25</ele></trkpt>
<trkpt lon="-5.831196" lat="43.531407"><ele>48.0</ele></trkpt>
<trkpt lon="-5.831302" lat="43.531317"><ele>49.75</ele></trkpt>
<trkpt lon="-5.831871" lat="43.531827"><ele>48.5</ele></trkpt>
<trkpt lon="-5.831996" lat="43.531948"><ele>47.5</ele></trkpt>
<trkpt lon="-5.832229" lat="43.532230"><ele>47.0</ele></trkpt>
<trkpt lon="-5.832331" lat="43.532352"><ele>47.75</ele></trkpt>
<trkpt lon="-5.832653" lat="43.532786"><ele>47.0</ele></trkpt>
<trkpt lon="-5.832940" lat="43.533416"><ele>48.5</ele></trkpt>
<trkpt lon="-5.833033" lat="43.533780"><ele>48.25</ele></trkpt>
<trkpt lon="-5.833067" lat="43.534128"><ele>47.0</ele></trkpt>
<trkpt lon="-5.833048" lat="43.534351"><ele>47.0</ele></trkpt>
<trkpt lon="-5.832993" lat="43.534541"><ele>47.0</ele></trkpt>
<trkpt lon="-5.833063" lat="43.534915"><ele>46.75</ele></trkpt>
<trkpt lon="-5.833077" lat="43.535534"><ele>48.0</ele></trkpt>
<trkpt lon="-5.833072" lat="43.535718"><ele>47.25</ele></trkpt>
<trkpt lon="-5.833001" lat="43.535767"><ele>47.0</ele></trkpt>
<trkpt lon="-5.833007" lat="43.535812"><ele>47.0</ele></trkpt>
<trkpt lon="-5.833018" lat="43.535843"><ele>47.0</ele></trkpt>
<trkpt lon="-5.833113" lat="43.535855"><ele>47.0</ele></trkpt>
<trkpt lon="-5.833201" lat="43.535855"><ele>47.0</ele></trkpt>
<trkpt lon="-5.833302" lat="43.535842"><ele>47.0</ele></trkpt>
<trkpt lon="-5.833397" lat="43.535839"><ele>47.25</ele></trkpt>
<trkpt lon="-5.833606" lat="43.535806"><ele>48.0</ele></trkpt>
<trkpt lon="-5.833631" lat="43.535841"><ele>48.0</ele></trkpt>
<trkpt lon="-5.833700" lat="43.535872"><ele>48.25</ele></trkpt>
<trkpt lon="-5.833721" lat="43.535901"><ele>48.5</ele></trkpt>
<trkpt lon="-5.834062" lat="43.536406"><ele>48.5</ele></trkpt>
<trkpt lon="-5.834167" lat="43.536484"><ele>48.0</ele></trkpt>
<trkpt lon="-5.834366" lat="43.536859"><ele>48.0</ele></trkpt>
<trkpt lon="-5.834829" lat="43.537345"><ele>48.0</ele></trkpt>
<trkpt lon="-5.835010" lat="43.537616"><ele>47.75</ele></trkpt>
<trkpt lon="-5.835160" lat="43.537926"><ele>47.0</ele></trkpt>
<trkpt lon="-5.835039" lat="43.538021"><ele>47.0</ele></trkpt>
<trkpt lon="-5.835076" lat="43.538056"><ele>46.75</ele></trkpt>
<trkpt lon="-5.835475" lat="43.538380"><ele>46.0</ele></trkpt>
<trkpt lon="-5.836735" lat="43.539399"><ele>44.5</ele></trkpt>
<trkpt lon="-5.837319" lat="43.539850"><ele>45.0</ele></trkpt>
<trkpt lon="-5.837982" lat="43.540346"><ele>43.5</ele></trkpt>
<trkpt lon="-5.838704" lat="43.540850"><ele>40.75</ele></trkpt>
<trkpt lon="-5.839595" lat="43.541429"><ele>40.0</ele></trkpt>
<trkpt lon="-5.840296" lat="43.541845"><ele>38.75</ele></trkpt>
<trkpt lon="-5.841145" lat="43.542333"><ele>35.5</ele></trkpt>
<trkpt lon="-5.842411" lat="43.542983"><ele>33.75</ele></trkpt>
<trkpt lon="-5.843195" lat="43.543350"><ele>32.5</ele></trkpt>
<trkpt lon="-5.844394" lat="43.543878"><ele>29.75</ele></trkpt>
<trkpt lon="-5.846065" lat="43.544584"><ele>30.0</ele></trkpt>
<trkpt lon="-5.846625" lat="43.544831"><ele>28.5</ele></trkpt>
<trkpt lon="-5.847282" lat="43.545086"><ele>26.5</ele></trkpt>
<trkpt lon="-5.847858" lat="43.545249"><ele>25.5</ele></trkpt>
<trkpt lon="-5.848193" lat="43.545324"><ele>25.0</ele></trkpt>
<trkpt lon="-5.849017" lat="43.545443"><ele>27.25</ele></trkpt>
<trkpt lon="-5.851128" lat="43.545731"><ele>30.0</ele></trkpt>
<trkpt lon="-5.851812" lat="43.545903"><ele>28.25</ele></trkpt>
<trkpt lon="-5.852174" lat="43.546046"><ele>29.75</ele></trkpt>
<trkpt lon="-5.852706" lat="43.546327"><ele>30.0</ele></trkpt>
<trkpt lon="-5.854552" lat="43.547411"><ele>30.5</ele></trkpt>
<trkpt lon="-5.854598" lat="43.547407"><ele>30.5</ele></trkpt>
<trkpt lon="-5.854666" lat="43.547448"><ele>30.25</ele></trkpt>
<trkpt lon="-5.854720" lat="43.547480"><ele>30.0</ele></trkpt>
<trkpt lon="-5.854703" lat="43.547501"><ele>29.75</ele></trkpt>
<trkpt lon="-5.856016" lat="43.548250"><ele>30.25</ele></trkpt>
<trkpt lon="-5.856348" lat="43.548463"><ele>30.25</ele></trkpt>
<trkpt lon="-5.856404" lat="43.548487"><ele>30.5</ele></trkpt>
<trkpt lon="-5.856663" lat="43.548653"><ele>30.5</ele></trkpt>
<trkpt lon="-5.856931" lat="43.548835"><ele>30.5</ele></trkpt>
<trkpt lon="-5.857150" lat="43.549038"><ele>27.75</ele></trkpt>
<trkpt lon="-5.857318" lat="43.549229"><ele>27.5</ele></trkpt>
<trkpt lon="-5.857336" lat="43.549247"><ele>27.25</ele></trkpt>
<trkpt lon="-5.857406" lat="43.549317"><ele>27.25</ele></trkpt>
<trkpt lon="-5.857430" lat="43.549341"><ele>27.25</ele></trkpt>
<trkpt lon="-5.857792" lat="43.549678"><ele>27.25</ele></trkpt>
<trkpt lon="-5.857955" lat="43.549795"><ele>26.5</ele></trkpt>
<trkpt lon="-5.858074" lat="43.549811"><ele>25.75</ele></trkpt>
<trkpt lon="-5.858129" lat="43.549796"><ele>25.5</ele></trkpt>
<trkpt lon="-5.858258" lat="43.549730"><ele>25.25</ele></trkpt>
<trkpt lon="-5.858344" lat="43.549799"><ele>25.0</ele></trkpt>
<trkpt lon="-5.858207" lat="43.549902"><ele>25.25</ele></trkpt>
<trkpt lon="-5.858186" lat="43.550006"><ele>25.5</ele></trkpt>
<trkpt lon="-5.858239" lat="43.550066"><ele>25.25</ele></trkpt>
<trkpt lon="-5.858494" lat="43.550245"><ele>23.75</ele></trkpt>
<trkpt lon="-5.858857" lat="43.550438"><ele>22.25</ele></trkpt>
<trkpt lon="-5.859087" lat="43.550533"><ele>22.0</ele></trkpt>
<trkpt lon="-5.859459" lat="43.550638"><ele>22.0</ele></trkpt>
<trkpt lon="-5.859968" lat="43.550755"><ele>22.25</ele></trkpt>
<trkpt lon="-5.861545" lat="43.551101"><ele>24.0</ele></trkpt>
<trkpt lon="-5.861896" lat="43.551165"><ele>23.5</ele></trkpt>
<trkpt lon="-5.862007" lat="43.551152"><ele>23.75</ele></trkpt>
<trkpt lon="-5.862242" lat="43.551209"><ele>24.0</ele></trkpt>
<trkpt lon="-5.862307" lat="43.551263"><ele>24.0</ele></trkpt>
<trkpt lon="-5.862287" lat="43.551310"><ele>24.0</ele></trkpt>
<trkpt lon="-5.862254" lat="43.551355"><ele>24.0</ele></trkpt>
<trkpt lon="-5.862277" lat="43.551360"><ele>24.0</ele></trkpt>
<trkpt lon="-5.862283" lat="43.551401"><ele>24.0</ele></trkpt>
<trkpt lon="-5.862309" lat="43.551459"><ele>23.5</ele></trkpt>
<trkpt lon="-5.862340" lat="43.551514"><ele>23.0</ele></trkpt>
<trkpt lon="-5.862423" lat="43.551527"><ele>23.0</ele></trkpt>
<trkpt lon="-5.862483" lat="43.551538"><ele>23.25</ele></trkpt>
<trkpt lon="-5.862556" lat="43.551448"><ele>24.25</ele></trkpt>
<trkpt lon="-5.862782" lat="43.551495"><ele>24.5</ele></trkpt>
<trkpt lon="-5.862869" lat="43.551482"><ele>24.75</ele></trkpt>
<trkpt lon="-5.863182" lat="43.551559"><ele>25.0</ele></trkpt>
<trkpt lon="-5.863478" lat="43.551611"><ele>25.5</ele></trkpt>
<trkpt lon="-5.863623" lat="43.551626"><ele>25.5</ele></trkpt>
<trkpt lon="-5.863725" lat="43.551624"><ele>25.75</ele></trkpt>
<trkpt lon="-5.863899" lat="43.551616"><ele>25.75</ele></trkpt>
<trkpt lon="-5.864092" lat="43.551590"><ele>25.25</ele></trkpt>
<trkpt lon="-5.865042" lat="43.551389"><ele>22.75</ele></trkpt>
<trkpt lon="-5.865365" lat="43.551329"><ele>22.0</ele></trkpt>
<trkpt lon="-5.865433" lat="43.551314"><ele>21.75</ele></trkpt>
<trkpt lon="-5.865498" lat="43.551300"><ele>21.5</ele></trkpt>
<trkpt lon="-5.865748" lat="43.551245"><ele>20.75</ele></trkpt>
<trkpt lon="-5.865790" lat="43.551235"><ele>20.5</ele></trkpt>
<trkpt lon="-5.865897" lat="43.551242"><ele>20.25</ele></trkpt>
<trkpt lon="-5.865938" lat="43.551227"><ele>20.0</ele></trkpt>
<trkpt lon="-5.865989" lat="43.551215"><ele>20.0</ele></trkpt>
<trkpt lon="-5.866038" lat="43.551176"><ele>20.0</ele></trkpt>
<trkpt lon="-5.866141" lat="43.551181"><ele>19.5</ele></trkpt>
<trkpt lon="-5.866393" lat="43.551128"><ele>19.0</ele></trkpt>
<trkpt lon="-5.866557" lat="43.551092"><ele>18.75</ele></trkpt>
<trkpt lon="-5.866611" lat="43.551053"><ele>18.75</ele></trkpt>
<trkpt lon="-5.867133" lat="43.550938"><ele>18.25</ele></trkpt>
<trkpt lon="-5.867290" lat="43.550956"><ele>18.0</ele></trkpt>
<trkpt lon="-5.867470" lat="43.551043"><ele>18.25</ele></trkpt>
<trkpt lon="-5.867549" lat="43.550998"><ele>17.75</ele></trkpt>
<trkpt lon="-5.867582" lat="43.550976"><ele>17.5</ele></trkpt>
<trkpt lon="-5.867569" lat="43.550965"><ele>17.25</ele></trkpt>
<trkpt lon="-5.867568" lat="43.550883"><ele>16.5</ele></trkpt>
<trkpt lon="-5.867610" lat="43.550827"><ele>16.0</ele></trkpt>
<trkpt lon="-5.867825" lat="43.550766"><ele>15.75</ele></trkpt>
<trkpt lon="-5.868266" lat="43.550696"><ele>15.0</ele></trkpt>
<trkpt lon="-5.868480" lat="43.550676"><ele>14.25</ele></trkpt>
<trkpt lon="-5.868724" lat="43.550661"><ele>14.0</ele></trkpt>
<trkpt lon="-5.869166" lat="43.550700"><ele>13.25</ele></trkpt>
<trkpt lon="-5.869944" lat="43.550861"><ele>13.0</ele></trkpt>
<trkpt lon="-5.870116" lat="43.550910"><ele>13.0</ele></trkpt>
<trkpt lon="-5.870235" lat="43.550945"><ele>13.0</ele></trkpt>
<trkpt lon="-5.870374" lat="43.550999"><ele>13.0</ele></trkpt>
<trkpt lon="-5.870510" lat="43.551070"><ele>13.0</ele></trkpt>
<trkpt lon="-5.870547" lat="43.551047"><ele>12.75</ele></trkpt>
<trkpt lon="-5.870578" lat="43.551018"><ele>13.0</ele></trkpt>
<trkpt lon="-5.870580" lat="43.551002"><ele>13.0</ele></trkpt>
<trkpt lon="-5.870637" lat="43.550979"><ele>13.0</ele></trkpt>
<trkpt lon="-5.870835" lat="43.550979"><ele>13.25</ele></trkpt>
<trkpt lon="-5.870920" lat="43.550983"><ele>13.25</ele></trkpt>
<trkpt lon="-5.871048" lat="43.550986"><ele>13.25</ele></trkpt>
<trkpt lon="-5.871115" lat="43.550978"><ele>13.25</ele></trkpt>
<trkpt lon="-5.871152" lat="43.550952"><ele>13.5</ele></trkpt>
<trkpt lon="-5.871812" lat="43.550906"><ele>16.0</ele></trkpt>
<trkpt lon="-5.871907" lat="43.550926"><ele>16.0</ele></trkpt>
<trkpt lon="-5.872246" lat="43.550914"><ele>17.0</ele></trkpt>
<trkpt lon="-5.872431" lat="43.550873"><ele>17.0</ele></trkpt>
<trkpt lon="-5.873098" lat="43.550847"><ele>16.75</ele></trkpt>
<trkpt lon="-5.873570" lat="43.550850"><ele>16.75</ele></trkpt>
<trkpt lon="-5.873680" lat="43.550865"><ele>16.75</ele></trkpt>
<trkpt lon="-5.873767" lat="43.550859"><ele>16.75</ele></trkpt>
<trkpt lon="-5.874220" lat="43.550886"><ele>16.5</ele></trkpt>
<trkpt lon="-5.874445" lat="43.550920"><ele>16.0</ele></trkpt>
<trkpt lon="-5.874618" lat="43.550948"><ele>16.25</ele></trkpt>
<trkpt lon="-5.874748" lat="43.550949"><ele>16.5</ele></trkpt>
<trkpt lon="-5.874948" lat="43.550960"><ele>16.25</ele></trkpt>
<trkpt lon="-5.875343" lat="43.551003"><ele>14.75</ele></trkpt>
<trkpt lon="-5.875691" lat="43.551041"><ele>14.0</ele></trkpt>
<trkpt lon="-5.875942" lat="43.551062"><ele>13.75</ele></trkpt>
<trkpt lon="-5.875997" lat="43.551073"><ele>13.5</ele></trkpt>
<trkpt lon="-5.876047" lat="43.551077"><ele>13.25</ele></trkpt>
<trkpt lon="-5.876650" lat="43.551125"><ele>10.75</ele></trkpt>
<trkpt lon="-5.876904" lat="43.551155"><ele>10.25</ele></trkpt>
<trkpt lon="-5.877010" lat="43.551162"><ele>10.25</ele></trkpt>
<trkpt lon="-5.877227" lat="43.551238"><ele>9.5</ele></trkpt>
<trkpt lon="-5.877373" lat="43.551251"><ele>9.25</ele></trkpt>
<trkpt lon="-5.877607" lat="43.551249"><ele>9.75</ele></trkpt>
<trkpt lon="-5.878100" lat="43.551312"><ele>10.5</ele></trkpt>
<trkpt lon="-5.878333" lat="43.551355"><ele>10.25</ele></trkpt>
<trkpt lon="-5.878677" lat="43.551444"><ele>10.0</ele></trkpt>
<trkpt lon="-5.879109" lat="43.551592"><ele>11.0</ele></trkpt>
<trkpt lon="-5.879961" lat="43.551896"><ele>12.75</ele></trkpt>
<trkpt lon="-5.880895" lat="43.552217"><ele>14.0</ele></trkpt>
<trkpt lon="-5.881073" lat="43.552282"><ele>13.75</ele></trkpt>
<trkpt lon="-5.881151" lat="43.552330"><ele>14.0</ele></trkpt>
<trkpt lon="-5.881353" lat="43.552403"><ele>14.25</ele></trkpt>
<trkpt lon="-5.881492" lat="43.552453"><ele>14.25</ele></trkpt>
<trkpt lon="-5.881592" lat="43.552462"><ele>14.75</ele></trkpt>
<trkpt lon="-5.881925" lat="43.552585"><ele>14.5</ele></trkpt>
<trkpt lon="-5.881889" lat="43.552639"><ele>14.25</ele></trkpt>
<trkpt lon="-5.881942" lat="43.552655"><ele>14.25</ele></trkpt>
<trkpt lon="-5.881984" lat="43.552666"><ele>14.25</ele></trkpt>
<trkpt lon="-5.882027" lat="43.552628"><ele>14.5</ele></trkpt>
<trkpt lon="-5.882564" lat="43.552810"><ele>15.0</ele></trkpt>
<trkpt lon="-5.882540" lat="43.552845"><ele>14.75</ele></trkpt>
<trkpt lon="-5.882786" lat="43.552935"><ele>14.75</ele></trkpt>
<trkpt lon="-5.883823" lat="43.553310"><ele>13.75</ele></trkpt>
<trkpt lon="-5.883860" lat="43.553380"><ele>13.5</ele></trkpt>
<trkpt lon="-5.883820" lat="43.553725"><ele>11.0</ele></trkpt>
<trkpt lon="-5.883838" lat="43.553739"><ele>11.0</ele></trkpt>
<trkpt lon="-5.883821" lat="43.553794"><ele>10.75</ele></trkpt>
<trkpt lon="-5.883785" lat="43.553790"><ele>10.75</ele></trkpt>
<trkpt lon="-5.883607" lat="43.554041"><ele>11.0</ele></trkpt>
<trkpt lon="-5.883535" lat="43.554161"><ele>11.0</ele></trkpt>
<trkpt lon="-5.883574" lat="43.554197"><ele>10.75</ele></trkpt>
<trkpt lon="-5.883634" lat="43.554215"><ele>10.5</ele></trkpt>
<trkpt lon="-5.883693" lat="43.554213"><ele>10.25</ele></trkpt>
<trkpt lon="-5.883730" lat="43.554017"><ele>9.5</ele></trkpt>
<trkpt lon="-5.883773" lat="43.554015"><ele>9.5</ele></trkpt>
<trkpt lon="-5.883733" lat="43.554254"><ele>8.5</ele></trkpt>
<trkpt lon="-5.883781" lat="43.554495"><ele>7.5</ele></trkpt>
<trkpt lon="-5.883744" lat="43.554695"><ele>6.75</ele></trkpt>
<trkpt lon="-5.883693" lat="43.554971"><ele>5.75</ele></trkpt>
<trkpt lon="-5.884328" lat="43.555018"><ele>4.0</ele></trkpt>
<trkpt lon="-5.888923" lat="43.555317"><ele>4.25</ele></trkpt>
<trkpt lon="-5.888982" lat="43.555337"><ele>4.25</ele></trkpt>
<trkpt lon="-5.889062" lat="43.555343"><ele>4.25</ele></trkpt>
<trkpt lon="-5.889095" lat="43.555327"><ele>4.25</ele></trkpt>
<trkpt lon="-5.890931" lat="43.555445"><ele>5.0</ele></trkpt>
<trkpt lon="-5.891004" lat="43.555473"><ele>5.25</ele></trkpt>
<trkpt lon="-5.891135" lat="43.555461"><ele>5.5</ele></trkpt>
<trkpt lon="-5.891945" lat="43.555518"><ele>4.5</ele></trkpt>
<trkpt lon="-5.891979" lat="43.555215"><ele>3.25</ele></trkpt>
<trkpt lon="-5.893825" lat="43.555318"><ele>4.5</ele></trkpt>
<trkpt lon="-5.894013" lat="43.555315"><ele>4.5</ele></trkpt>
<trkpt lon="-5.894289" lat="43.555320"><ele>4.5</ele></trkpt>
<trkpt lon="-5.895370" lat="43.555179"><ele>3.25</ele></trkpt>
<trkpt lon="-5.896435" lat="43.554880"><ele>3.5</ele></trkpt>
<trkpt lon="-5.897507" lat="43.554384"><ele>2.75</ele></trkpt>
<trkpt lon="-5.897853" lat="43.554200"><ele>6.5</ele></trkpt>
<trkpt lon="-5.898416" lat="43.553934"><ele>5.5</ele></trkpt>
<trkpt lon="-5.898880" lat="43.553758"><ele>3.75</ele></trkpt>
<trkpt lon="-5.899411" lat="43.553603"><ele>2.25</ele></trkpt>
<trkpt lon="-5.899525" lat="43.553575"><ele>2.25</ele></trkpt>
<trkpt lon="-5.899638" lat="43.553547"><ele>2.25</ele></trkpt>
<trkpt lon="-5.899782" lat="43.553534"><ele>2.25</ele></trkpt>
<trkpt lon="-5.900619" lat="43.553456"><ele>3.0</ele></trkpt>
<trkpt lon="-5.902865" lat="43.553264"><ele>2.75</ele></trkpt>
<trkpt lon="-5.906781" lat="43.552912"><ele>4.0</ele></trkpt>
<trkpt lon="-5.907525" lat="43.552824"><ele>5.25</ele></trkpt>
<trkpt lon="-5.908009" lat="43.552733"><ele>4.25</ele></trkpt>
<trkpt lon="-5.908486" lat="43.552615"><ele>3.75</ele></trkpt>
<trkpt lon="-5.908522" lat="43.552579"><ele>4.0</ele></trkpt>
<trkpt lon="-5.908518" lat="43.552464"><ele>5.25</ele></trkpt>
<trkpt lon="-5.908739" lat="43.552386"><ele>4.75</ele></trkpt>
<trkpt lon="-5.908884" lat="43.552355"><ele>5.0</ele></trkpt>
<trkpt lon="-5.909183" lat="43.552340"><ele>5.0</ele></trkpt>
<trkpt lon="-5.909897" lat="43.552347"><ele>4.25</ele></trkpt>
<trkpt lon="-5.910111" lat="43.552407"><ele>3.75</ele></trkpt>
<trkpt lon="-5.910410" lat="43.552545"><ele>3.5</ele></trkpt>
<trkpt lon="-5.910493" lat="43.552552"><ele>3.25</ele></trkpt>
<trkpt lon="-5.910707" lat="43.552526"><ele>3.5</ele></trkpt>
<trkpt lon="-5.911095" lat="43.552493"><ele>3.0</ele></trkpt>
<trkpt lon="-5.911578" lat="43.552579"><ele>3.0</ele></trkpt>
<trkpt lon="-5.912579" lat="43.552848"><ele>3.25</ele></trkpt>
<trkpt lon="-5.914253" lat="43.553325"><ele>1.5</ele></trkpt>
<trkpt lon="-5.914986" lat="43.553552"><ele>3.25</ele></trkpt>
<trkpt lon="-5.915233" lat="43.553591"><ele>3.0</ele></trkpt>
<trkpt lon="-5.915427" lat="43.553657"><ele>3.0</ele></trkpt>
<trkpt lon="-5.915519" lat="43.553785"><ele>2.5</ele></trkpt>
<trkpt lon="-5.916126" lat="43.554110"><ele>2.5</ele></trkpt>
<trkpt lon="-5.916361" lat="43.554248"><ele>2.5</ele></trkpt>
<trkpt lon="-5.916803" lat="43.554515"><ele>2.5</ele></trkpt>
<trkpt lon="-5.916860" lat="43.554533"><ele>2.5</ele></trkpt>
<trkpt lon="-5.916955" lat="43.554589"><ele>2.5</ele></trkpt>
<trkpt lon="-5.917392" lat="43.554897"><ele>2.5</ele></trkpt>
<trkpt lon="-5.917702" lat="43.555127"><ele>2.5</ele></trkpt>
<trkpt lon="-5.917788" lat="43.555204"><ele>2.5</ele></trkpt>
<trkpt lon="-5.918121" lat="43.555458"><ele>2.5</ele></trkpt>
<trkpt lon="-5.918546" lat="43.555842"><ele>2.5</ele></trkpt>
<trkpt lon="-5.918659" lat="43.555972"><ele>2.5</ele></trkpt>
<trkpt lon="-5.918833" lat="43.556190"><ele>2.75</ele></trkpt>
<trkpt lon="-5.918950" lat="43.556329"><ele>3.0</ele></trkpt>
<trkpt lon="-5.918989" lat="43.556313"><ele>3.0</ele></trkpt>
<trkpt lon="-5.918939" lat="43.556253"><ele>3.0</ele></trkpt>
<trkpt lon="-5.918613" lat="43.556452"><ele>3.0</ele></trkpt>
<trkpt lon="-5.918640" lat="43.556477"><ele>3.0</ele></trkpt>
<trkpt lon="-5.919362" lat="43.556059"><ele>3.25</ele></trkpt>
<trkpt lon="-5.919714" lat="43.555867"><ele>3.5</ele></trkpt>
<trkpt lon="-5.919686" lat="43.555834"><ele>3.5</ele></trkpt>
<trkpt lon="-5.919366" lat="43.556014"><ele>3.5</ele></trkpt>
<trkpt lon="-5.919379" lat="43.556029"><ele>3.75</ele></trkpt>
<trkpt lon="-5.919425" lat="43.556005"><ele>3.75</ele></trkpt>
<trkpt lon="-5.919950" lat="43.555995"><ele>4.0</ele></trkpt>
<trkpt lon="-5.920027" lat="43.555979"><ele>4.0</ele></trkpt>
<trkpt lon="-5.920260" lat="43.555994"><ele>4.0</ele></trkpt>
<trkpt lon="-5.920777" lat="43.555655"><ele>6.0</ele></trkpt>
<trkpt lon="-5.921234" lat="43.555419"><ele>9.0</ele></trkpt>
<trkpt lon="-5.921397" lat="43.555335"><ele>9.75</ele></trkpt>
<trkpt lon="-5.921550" lat="43.555394"><ele>9.75</ele></trkpt>
<trkpt lon="-5.921537" lat="43.555592"><ele>9.25</ele></trkpt>
<trkpt lon="-5.921684" lat="43.555614"><ele>9.75</ele></trkpt>
<trkpt lon="-5.921775" lat="43.555554"><ele>10.0</ele></trkpt>
<trkpt lon="-5.922313" lat="43.555727"><ele>10.0</ele></trkpt>
<trkpt lon="-5.922388" lat="43.555720"><ele>10.0</ele></trkpt>
<trkpt lon="-5.922414" lat="43.555642"><ele>10.25</ele></trkpt>
<trkpt lon="-5.922519" lat="43.555688"><ele>10.25</ele></trkpt>
<trkpt lon="-5.923081" lat="43.555998"><ele>8.25</ele></trkpt>
<trkpt lon="-5.923136" lat="43.556039"><ele>8.0</ele></trkpt>
<trkpt lon="-5.923672" lat="43.556586"><ele>4.5</ele></trkpt>
<trkpt lon="-5.924895" lat="43.555946"><ele>12.5</ele></trkpt>
  </trkseg></trk></gpx>
