<?xml version="1.0" encoding="UTF-8"?>
<gpx version="1.1" creator="compostel-brouter" xmlns="http://www.topografix.com/GPX/1/1">
  <metadata><name>ES-23-Nueva</name></metadata>
  <trk><name>ES-23-Nueva</name><trkseg>
<trkpt lon="-4.755045" lat="43.421012"><ele>12.0</ele></trkpt>
<trkpt lon="-4.755077" lat="43.420955"><ele>11.25</ele></trkpt>
<trkpt lon="-4.755119" lat="43.420908"><ele>10.5</ele></trkpt>
<trkpt lon="-4.755168" lat="43.420870"><ele>10.25</ele></trkpt>
<trkpt lon="-4.755238" lat="43.420912"><ele>10.25</ele></trkpt>
<trkpt lon="-4.755279" lat="43.420936"><ele>10.25</ele></trkpt>
<trkpt lon="-4.755387" lat="43.420958"><ele>10.25</ele></trkpt>
<trkpt lon="-4.755674" lat="43.421012"><ele>10.5</ele></trkpt>
<trkpt lon="-4.755855" lat="43.421046"><ele>10.75</ele></trkpt>
<trkpt lon="-4.756170" lat="43.421096"><ele>10.75</ele></trkpt>
<trkpt lon="-4.755994" lat="43.421552"><ele>13.5</ele></trkpt>
<trkpt lon="-4.755974" lat="43.421606"><ele>14.0</ele></trkpt>
<trkpt lon="-4.755963" lat="43.421637"><ele>14.5</ele></trkpt>
<trkpt lon="-4.755914" lat="43.421778"><ele>14.5</ele></trkpt>
<trkpt lon="-4.755908" lat="43.421792"><ele>14.5</ele></trkpt>
<trkpt lon="-4.755882" lat="43.421857"><ele>14.25</ele></trkpt>
<trkpt lon="-4.756147" lat="43.421947"><ele>14.0</ele></trkpt>
<trkpt lon="-4.756350" lat="43.422032"><ele>14.75</ele></trkpt>
<trkpt lon="-4.756441" lat="43.422073"><ele>14.75</ele></trkpt>
<trkpt lon="-4.756643" lat="43.422239"><ele>15.75</ele></trkpt>
<trkpt lon="-4.756705" lat="43.422261"><ele>16.0</ele></trkpt>
<trkpt lon="-4.756696" lat="43.422319"><ele>16.0</ele></trkpt>
<trkpt lon="-4.756690" lat="43.422351"><ele>16.0</ele></trkpt>
<trkpt lon="-4.756597" lat="43.422917"><ele>16.25</ele></trkpt>
<trkpt lon="-4.756485" lat="43.423531"><ele>19.25</ele></trkpt>
<trkpt lon="-4.756476" lat="43.423576"><ele>19.5</ele></trkpt>
<trkpt lon="-4.756400" lat="43.423992"><ele>22.5</ele></trkpt>
<trkpt lon="-4.756389" lat="43.424079"><ele>23.25</ele></trkpt>
<trkpt lon="-4.756489" lat="43.424123"><ele>23.5</ele></trkpt>
<trkpt lon="-4.756960" lat="43.424262"><ele>23.75</ele></trkpt>
<trkpt lon="-4.756947" lat="43.424311"><ele>24.5</ele></trkpt>
<trkpt lon="-4.756962" lat="43.424404"><ele>25.25</ele></trkpt>
<trkpt lon="-4.757028" lat="43.424439"><ele>25.25</ele></trkpt>
<trkpt lon="-4.757141" lat="43.424475"><ele>24.75</ele></trkpt>
<trkpt lon="-4.757237" lat="43.424536"><ele>25.5</ele></trkpt>
<trkpt lon="-4.757311" lat="43.424643"><ele>26.75</ele></trkpt>
<trkpt lon="-4.757413" lat="43.424742"><ele>26.25</ele></trkpt>
<trkpt lon="-4.757480" lat="43.424819"><ele>25.0</ele></trkpt>
<trkpt lon="-4.757623" lat="43.424851"><ele>25.0</ele></trkpt>
<trkpt lon="-4.757772" lat="43.424874"><ele>25.5</ele></trkpt>
<trkpt lon="-4.758059" lat="43.425005"><ele>26.5</ele></trkpt>
<trkpt lon="-4.758290" lat="43.425138"><ele>20.5</ele></trkpt>
<trkpt lon="-4.758354" lat="43.425155"><ele>21.5</ele></trkpt>
<trkpt lon="-4.758466" lat="43.425172"><ele>24.5</ele></trkpt>
<trkpt lon="-4.759024" lat="43.425225"><ele>31.5</ele></trkpt>
<trkpt lon="-4.759406" lat="43.425232"><ele>31.75</ele></trkpt>
<trkpt lon="-4.759467" lat="43.425280"><ele>32.5</ele></trkpt>
<trkpt lon="-4.760386" lat="43.425190"><ele>19.5</ele></trkpt>
<trkpt lon="-4.760859" lat="43.425167"><ele>11.0</ele></trkpt>
<trkpt lon="-4.761061" lat="43.425177"><ele>12.25</ele></trkpt>
<trkpt lon="-4.761193" lat="43.425165"><ele>12.75</ele></trkpt>
<trkpt lon="-4.761313" lat="43.425177"><ele>10.75</ele></trkpt>
<trkpt lon="-4.761574" lat="43.425167"><ele>10.75</ele></trkpt>
<trkpt lon="-4.762237" lat="43.425312"><ele>10.75</ele></trkpt>
<trkpt lon="-4.763389" lat="43.425400"><ele>16.75</ele></trkpt>
<trkpt lon="-4.764508" lat="43.425539"><ele>13.25</ele></trkpt>
<trkpt lon="-4.765307" lat="43.425736"><ele>30.25</ele></trkpt>
<trkpt lon="-4.765263" lat="43.425633"><ele>29.75</ele></trkpt>
<trkpt lon="-4.765381" lat="43.425675"><ele>30.75</ele></trkpt>
<trkpt lon="-4.765491" lat="43.425689"><ele>31.75</ele></trkpt>
<trkpt lon="-4.765638" lat="43.425722"><ele>31.75</ele></trkpt>
<trkpt lon="-4.766161" lat="43.425369"><ele>26.75</ele></trkpt>
<trkpt lon="-4.766288" lat="43.425389"><ele>26.5</ele></trkpt>
<trkpt lon="-4.766411" lat="43.425382"><ele>26.25</ele></trkpt>
<trkpt lon="-4.766588" lat="43.425349"><ele>25.5</ele></trkpt>
<trkpt lon="-4.766747" lat="43.425287"><ele>25.0</ele></trkpt>
<trkpt lon="-4.767482" lat="43.424764"><ele>22.0</ele></trkpt>
<trkpt lon="-4.767547" lat="43.424718"><ele>22.0</ele></trkpt>
<trkpt lon="-4.767989" lat="43.424415"><ele>21.25</ele></trkpt>
<trkpt lon="-4.768120" lat="43.424325"><ele>21.25</ele></trkpt>
<trkpt lon="-4.768342" lat="43.423846"><ele>20.75</ele></trkpt>
<trkpt lon="-4.768381" lat="43.423763"><ele>20.75</ele></trkpt>
<trkpt lon="-4.768412" lat="43.423695"><ele>20.75</ele></trkpt>
<trkpt lon="-4.768559" lat="43.423630"><ele>20.75</ele></trkpt>
<trkpt lon="-4.768844" lat="43.423644"><ele>20.75</ele></trkpt>
<trkpt lon="-4.768913" lat="43.423614"><ele>21.0</ele></trkpt>
<trkpt lon="-4.768951" lat="43.423584"><ele>21.25</ele></trkpt>
<trkpt lon="-4.768990" lat="43.423552"><ele>21.75</ele></trkpt>
<trkpt lon="-4.769048" lat="43.423589"><ele>21.5</ele></trkpt>
<trkpt lon="-4.769180" lat="43.423621"><ele>21.75</ele></trkpt>
<trkpt lon="-4.769298" lat="43.423639"><ele>21.75</ele></trkpt>
<trkpt lon="-4.769399" lat="43.423646"><ele>21.5</ele></trkpt>
<trkpt lon="-4.769500" lat="43.423628"><ele>22.25</ele></trkpt>
<trkpt lon="-4.769672" lat="43.423535"><ele>23.25</ele></trkpt>
<trkpt lon="-4.769897" lat="43.423451"><ele>22.75</ele></trkpt>
<trkpt lon="-4.770119" lat="43.423356"><ele>22.0</ele></trkpt>
<trkpt lon="-4.770246" lat="43.423330"><ele>21.75</ele></trkpt>
<trkpt lon="-4.770727" lat="43.423313"><ele>20.25</ele></trkpt>
<trkpt lon="-4.770974" lat="43.423287"><ele>19.25</ele></trkpt>
<trkpt lon="-4.771331" lat="43.423141"><ele>19.0</ele></trkpt>
<trkpt lon="-4.771627" lat="43.422969"><ele>19.75</ele></trkpt>
<trkpt lon="-4.771711" lat="43.422890"><ele>20.5</ele></trkpt>
<trkpt lon="-4.771754" lat="43.422841"><ele>21.25</ele></trkpt>
<trkpt lon="-4.771997" lat="43.422716"><ele>23.25</ele></trkpt>
<trkpt lon="-4.772074" lat="43.422677"><ele>22.5</ele></trkpt>
<trkpt lon="-4.772418" lat="43.422606"><ele>22.0</ele></trkpt>
<trkpt lon="-4.772668" lat="43.422580"><ele>22.75</ele></trkpt>
<trkpt lon="-4.772972" lat="43.422569"><ele>23.5</ele></trkpt>
<trkpt lon="-4.773475" lat="43.422598"><ele>24.0</ele></trkpt>
<trkpt lon="-4.773629" lat="43.422621"><ele>24.5</ele></trkpt>
<trkpt lon="-4.773859" lat="43.422665"><ele>23.25</ele></trkpt>
<trkpt lon="-4.774163" lat="43.422660"><ele>23.0</ele></trkpt>
<trkpt lon="-4.774468" lat="43.422634"><ele>22.25</ele></trkpt>
<trkpt lon="-4.774803" lat="43.422660"><ele>21.75</ele></trkpt>
<trkpt lon="-4.775363" lat="43.422686"><ele>21.5</ele></trkpt>
<trkpt lon="-4.775768" lat="43.422591"><ele>21.25</ele></trkpt>
<trkpt lon="-4.776130" lat="43.422479"><ele>22.0</ele></trkpt>
<trkpt lon="-4.776523" lat="43.422448"><ele>23.0</ele></trkpt>
<trkpt lon="-4.776932" lat="43.422582"><ele>23.0</ele></trkpt>
<trkpt lon="-4.777190" lat="43.422642"><ele>22.5</ele></trkpt>
<trkpt lon="-4.777387" lat="43.422660"><ele>22.75</ele></trkpt>
<trkpt lon="-4.777528" lat="43.422695"><ele>22.75</ele></trkpt>
<trkpt lon="-4.777786" lat="43.422733"><ele>22.25</ele></trkpt>
<trkpt lon="-4.777946" lat="43.422731"><ele>22.25</ele></trkpt>
<trkpt lon="-4.778629" lat="43.422742"><ele>22.25</ele></trkpt>
<trkpt lon="-4.778818" lat="43.422787"><ele>21.0</ele></trkpt>
<trkpt lon="-4.778947" lat="43.422839"><ele>20.75</ele></trkpt>
<trkpt lon="-4.779132" lat="43.422932"><ele>20.25</ele></trkpt>
<trkpt lon="-4.779306" lat="43.422993"><ele>20.0</ele></trkpt>
<trkpt lon="-4.779462" lat="43.423031"><ele>20.0</ele></trkpt>
<trkpt lon="-4.779647" lat="43.423040"><ele>20.0</ele></trkpt>
<trkpt lon="-4.779905" lat="43.423036"><ele>20.0</ele></trkpt>
<trkpt lon="-4.780088" lat="43.423051"><ele>20.0</ele></trkpt>
<trkpt lon="-4.780325" lat="43.423085"><ele>19.75</ele></trkpt>
<trkpt lon="-4.780474" lat="43.423162"><ele>19.5</ele></trkpt>
<trkpt lon="-4.780560" lat="43.423244"><ele>19.25</ele></trkpt>
<trkpt lon="-4.780591" lat="43.423343"><ele>18.75</ele></trkpt>
<trkpt lon="-4.780612" lat="43.423483"><ele>18.25</ele></trkpt>
<trkpt lon="-4.780535" lat="43.423899"><ele>17.75</ele></trkpt>
<trkpt lon="-4.781400" lat="43.423928"><ele>18.0</ele></trkpt>
<trkpt lon="-4.781530" lat="43.423948"><ele>18.0</ele></trkpt>
<trkpt lon="-4.781654" lat="43.423959"><ele>18.0</ele></trkpt>
<trkpt lon="-4.782022" lat="43.423983"><ele>19.0</ele></trkpt>
<trkpt lon="-4.782330" lat="43.424015"><ele>19.5</ele></trkpt>
<trkpt lon="-4.782557" lat="43.424040"><ele>20.0</ele></trkpt>
<trkpt lon="-4.782662" lat="43.424060"><ele>20.0</ele></trkpt>
<trkpt lon="-4.782776" lat="43.424090"><ele>20.0</ele></trkpt>
<trkpt lon="-4.782944" lat="43.424096"><ele>20.0</ele></trkpt>
<trkpt lon="-4.783100" lat="43.424110"><ele>20.0</ele></trkpt>
<trkpt lon="-4.783244" lat="43.424107"><ele>20.5</ele></trkpt>
<trkpt lon="-4.783657" lat="43.424150"><ele>19.75</ele></trkpt>
<trkpt lon="-4.783707" lat="43.424176"><ele>20.0</ele></trkpt>
<trkpt lon="-4.783705" lat="43.424250"><ele>20.0</ele></trkpt>
<trkpt lon="-4.783903" lat="43.424242"><ele>19.75</ele></trkpt>
<trkpt lon="-4.784218" lat="43.424241"><ele>18.75</ele></trkpt>
<trkpt lon="-4.784418" lat="43.424232"><ele>18.5</ele></trkpt>
<trkpt lon="-4.784454" lat="43.424279"><ele>18.75</ele></trkpt>
<trkpt lon="-4.784625" lat="43.424455"><ele>19.75</ele></trkpt>
<trkpt lon="-4.784768" lat="43.424584"><ele>18.75</ele></trkpt>
<trkpt lon="-4.784918" lat="43.424604"><ele>18.25</ele></trkpt>
<trkpt lon="-4.785060" lat="43.424642"><ele>18.25</ele></trkpt>
<trkpt lon="-4.785116" lat="43.424662"><ele>18.5</ele></trkpt>
<trkpt lon="-4.785261" lat="43.424754"><ele>19.5</ele></trkpt>
<trkpt lon="-4.785345" lat="43.424858"><ele>19.0</ele></trkpt>
<trkpt lon="-4.785476" lat="43.424889"><ele>18.5</ele></trkpt>
<trkpt lon="-4.785603" lat="43.424892"><ele>17.5</ele></trkpt>
<trkpt lon="-4.785706" lat="43.424864"><ele>16.25</ele></trkpt>
<trkpt lon="-4.785763" lat="43.424803"><ele>15.75</ele></trkpt>
<trkpt lon="-4.785837" lat="43.424757"><ele>14.5</ele></trkpt>
<trkpt lon="-4.785911" lat="43.424657"><ele>11.75</ele></trkpt>
<trkpt lon="-4.785992" lat="43.424512"><ele>8.5</ele></trkpt>
<trkpt lon="-4.786005" lat="43.424741"><ele>8.5</ele></trkpt>
<trkpt lon="-4.786026" lat="43.424841"><ele>7.5</ele></trkpt>
<trkpt lon="-4.786048" lat="43.424882"><ele>6.5</ele></trkpt>
<trkpt lon="-4.786099" lat="43.424917"><ele>4.5</ele></trkpt>
<trkpt lon="-4.786166" lat="43.424951"><ele>4.75</ele></trkpt>
<trkpt lon="-4.786231" lat="43.424965"><ele>5.75</ele></trkpt>
<trkpt lon="-4.786363" lat="43.425088"><ele>6.75</ele></trkpt>
<trkpt lon="-4.786428" lat="43.425137"><ele>7.5</ele></trkpt>
<trkpt lon="-4.786528" lat="43.425242"><ele>9.25</ele></trkpt>
<trkpt lon="-4.786542" lat="43.425279"><ele>9.25</ele></trkpt>
<trkpt lon="-4.786536" lat="43.425352"><ele>11.75</ele></trkpt>
<trkpt lon="-4.786505" lat="43.425406"><ele>12.75</ele></trkpt>
<trkpt lon="-4.786383" lat="43.425547"><ele>14.25</ele></trkpt>
<trkpt lon="-4.786355" lat="43.425595"><ele>13.5</ele></trkpt>
<trkpt lon="-4.786345" lat="43.425649"><ele>13.0</ele></trkpt>
<trkpt lon="-4.786365" lat="43.425697"><ele>13.5</ele></trkpt>
<trkpt lon="-4.786404" lat="43.425742"><ele>14.5</ele></trkpt>
<trkpt lon="-4.786512" lat="43.425827"><ele>15.25</ele></trkpt>
<trkpt lon="-4.786589" lat="43.425916"><ele>15.25</ele></trkpt>
<trkpt lon="-4.786623" lat="43.426031"><ele>14.75</ele></trkpt>
<trkpt lon="-4.786631" lat="43.426208"><ele>14.25</ele></trkpt>
<trkpt lon="-4.786664" lat="43.426319"><ele>14.0</ele></trkpt>
<trkpt lon="-4.786690" lat="43.426367"><ele>13.75</ele></trkpt>
<trkpt lon="-4.786728" lat="43.426414"><ele>13.25</ele></trkpt>
<trkpt lon="-4.786796" lat="43.426478"><ele>12.25</ele></trkpt>
<trkpt lon="-4.786919" lat="43.426529"><ele>12.25</ele></trkpt>
<trkpt lon="-4.787116" lat="43.426554"><ele>13.5</ele></trkpt>
<trkpt lon="-4.787308" lat="43.426582"><ele>14.75</ele></trkpt>
<trkpt lon="-4.787332" lat="43.426759"><ele>18.5</ele></trkpt>
<trkpt lon="-4.787303" lat="43.426884"><ele>21.5</ele></trkpt>
<trkpt lon="-4.787271" lat="43.426907"><ele>21.75</ele></trkpt>
<trkpt lon="-4.787114" lat="43.426991"><ele>22.0</ele></trkpt>
<trkpt lon="-4.787046" lat="43.427051"><ele>22.25</ele></trkpt>
<trkpt lon="-4.787004" lat="43.427118"><ele>22.5</ele></trkpt>
<trkpt lon="-4.786917" lat="43.427425"><ele>25.25</ele></trkpt>
<trkpt lon="-4.786734" lat="43.427636"><ele>25.0</ele></trkpt>
<trkpt lon="-4.786585" lat="43.427888"><ele>25.5</ele></trkpt>
<trkpt lon="-4.786481" lat="43.427988"><ele>26.5</ele></trkpt>
<trkpt lon="-4.786446" lat="43.428059"><ele>27.75</ele></trkpt>
<trkpt lon="-4.786452" lat="43.428120"><ele>27.25</ele></trkpt>
<trkpt lon="-4.786509" lat="43.428197"><ele>26.5</ele></trkpt>
<trkpt lon="-4.786823" lat="43.428365"><ele>25.75</ele></trkpt>
<trkpt lon="-4.786890" lat="43.428411"><ele>25.75</ele></trkpt>
<trkpt lon="-4.787077" lat="43.428568"><ele>25.75</ele></trkpt>
<trkpt lon="-4.787134" lat="43.428642"><ele>25.75</ele></trkpt>
<trkpt lon="-4.787200" lat="43.428758"><ele>25.5</ele></trkpt>
<trkpt lon="-4.787384" lat="43.429016"><ele>26.5</ele></trkpt>
<trkpt lon="-4.787503" lat="43.429113"><ele>28.0</ele></trkpt>
<trkpt lon="-4.787617" lat="43.429180"><ele>28.25</ele></trkpt>
<trkpt lon="-4.787724" lat="43.429207"><ele>28.75</ele></trkpt>
<trkpt lon="-4.787838" lat="43.429233"><ele>29.0</ele></trkpt>
<trkpt lon="-4.787965" lat="43.429249"><ele>29.0</ele></trkpt>
<trkpt lon="-4.788128" lat="43.429257"><ele>29.25</ele></trkpt>
<trkpt lon="-4.788261" lat="43.429285"><ele>29.25</ele></trkpt>
<trkpt lon="-4.788443" lat="43.429336"><ele>30.0</ele></trkpt>
<trkpt lon="-4.788625" lat="43.429410"><ele>30.5</ele></trkpt>
<trkpt lon="-4.788785" lat="43.429486"><ele>32.25</ele></trkpt>
<trkpt lon="-4.788938" lat="43.429584"><ele>32.0</ele></trkpt>
<trkpt lon="-4.789029" lat="43.429628"><ele>31.5</ele></trkpt>
<trkpt lon="-4.789113" lat="43.429645"><ele>31.75</ele></trkpt>
<trkpt lon="-4.789254" lat="43.429644"><ele>32.0</ele></trkpt>
<trkpt lon="-4.789790" lat="43.429675"><ele>33.25</ele></trkpt>
<trkpt lon="-4.790081" lat="43.429763"><ele>34.25</ele></trkpt>
<trkpt lon="-4.790376" lat="43.429910"><ele>34.0</ele></trkpt>
<trkpt lon="-4.790727" lat="43.429983"><ele>33.25</ele></trkpt>
<trkpt lon="-4.790957" lat="43.430016"><ele>33.25</ele></trkpt>
<trkpt lon="-4.791188" lat="43.430050"><ele>33.0</ele></trkpt>
<trkpt lon="-4.791304" lat="43.430042"><ele>32.5</ele></trkpt>
<trkpt lon="-4.791500" lat="43.429932"><ele>32.75</ele></trkpt>
<trkpt lon="-4.791732" lat="43.429867"><ele>31.5</ele></trkpt>
<trkpt lon="-4.791937" lat="43.429793"><ele>31.75</ele></trkpt>
<trkpt lon="-4.792076" lat="43.429658"><ele>31.75</ele></trkpt>
<trkpt lon="-4.792158" lat="43.429476"><ele>32.0</ele></trkpt>
<trkpt lon="-4.792247" lat="43.429364"><ele>32.75</ele></trkpt>
<trkpt lon="-4.792409" lat="43.429294"><ele>33.75</ele></trkpt>
<trkpt lon="-4.792695" lat="43.429209"><ele>35.5</ele></trkpt>
<trkpt lon="-4.793206" lat="43.429089"><ele>40.0</ele></trkpt>
<trkpt lon="-4.793330" lat="43.428961"><ele>39.75</ele></trkpt>
<trkpt lon="-4.793415" lat="43.428822"><ele>38.0</ele></trkpt>
<trkpt lon="-4.793527" lat="43.428764"><ele>36.75</ele></trkpt>
<trkpt lon="-4.793775" lat="43.428698"><ele>35.5</ele></trkpt>
<trkpt lon="-4.794413" lat="43.428683"><ele>35.25</ele></trkpt>
<trkpt lon="-4.794661" lat="43.428729"><ele>35.5</ele></trkpt>
<trkpt lon="-4.794897" lat="43.428803"><ele>35.25</ele></trkpt>
<trkpt lon="-4.795164" lat="43.428818"><ele>34.5</ele></trkpt>
<trkpt lon="-4.795376" lat="43.428795"><ele>33.0</ele></trkpt>
<trkpt lon="-4.795957" lat="43.428764"><ele>30.25</ele></trkpt>
<trkpt lon="-4.796177" lat="43.428744"><ele>29.25</ele></trkpt>
<trkpt lon="-4.796454" lat="43.428614"><ele>25.25</ele></trkpt>
<trkpt lon="-4.796519" lat="43.428567"><ele>24.5</ele></trkpt>
<trkpt lon="-4.796558" lat="43.428499"><ele>23.75</ele></trkpt>
<trkpt lon="-4.796601" lat="43.428324"><ele>23.0</ele></trkpt>
<trkpt lon="-4.796657" lat="43.428223"><ele>24.75</ele></trkpt>
<trkpt lon="-4.796766" lat="43.428160"><ele>24.25</ele></trkpt>
<trkpt lon="-4.797183" lat="43.427984"><ele>20.0</ele></trkpt>
<trkpt lon="-4.797236" lat="43.427945"><ele>20.0</ele></trkpt>
<trkpt lon="-4.797274" lat="43.427903"><ele>20.0</ele></trkpt>
<trkpt lon="-4.797336" lat="43.427799"><ele>19.75</ele></trkpt>
<trkpt lon="-4.797390" lat="43.427659"><ele>19.0</ele></trkpt>
<trkpt lon="-4.797459" lat="43.427514"><ele>18.5</ele></trkpt>
<trkpt lon="-4.797536" lat="43.427389"><ele>18.75</ele></trkpt>
<trkpt lon="-4.797796" lat="43.427096"><ele>19.5</ele></trkpt>
<trkpt lon="-4.797874" lat="43.427020"><ele>20.0</ele></trkpt>
<trkpt lon="-4.798127" lat="43.426868"><ele>19.0</ele></trkpt>
<trkpt lon="-4.798218" lat="43.426778"><ele>19.0</ele></trkpt>
<trkpt lon="-4.798370" lat="43.426608"><ele>18.0</ele></trkpt>
<trkpt lon="-4.798700" lat="43.426606"><ele>16.75</ele></trkpt>
<trkpt lon="-4.798976" lat="43.426581"><ele>15.5</ele></trkpt>
<trkpt lon="-4.799139" lat="43.426571"><ele>15.25</ele></trkpt>
<trkpt lon="-4.799267" lat="43.426551"><ele>15.25</ele></trkpt>
<trkpt lon="-4.799410" lat="43.426520"><ele>15.25</ele></trkpt>
<trkpt lon="-4.799537" lat="43.426510"><ele>15.75</ele></trkpt>
<trkpt lon="-4.799889" lat="43.426500"><ele>17.0</ele></trkpt>
<trkpt lon="-4.800078" lat="43.426504"><ele>17.75</ele></trkpt>
<trkpt lon="-4.800151" lat="43.426496"><ele>17.75</ele></trkpt>
<trkpt lon="-4.800501" lat="43.426486"><ele>18.25</ele></trkpt>
<trkpt lon="-4.800616" lat="43.426496"><ele>18.25</ele></trkpt>
<trkpt lon="-4.800935" lat="43.426563"><ele>17.5</ele></trkpt>
<trkpt lon="-4.801113" lat="43.426577"><ele>16.25</ele></trkpt>
<trkpt lon="-4.801228" lat="43.426595"><ele>15.75</ele></trkpt>
<trkpt lon="-4.801367" lat="43.426648"><ele>15.0</ele></trkpt>
<trkpt lon="-4.801995" lat="43.426979"><ele>14.75</ele></trkpt>
<trkpt lon="-4.802369" lat="43.427239"><ele>15.5</ele></trkpt>
<trkpt lon="-4.802456" lat="43.427292"><ele>15.25</ele></trkpt>
<trkpt lon="-4.802559" lat="43.427324"><ele>15.75</ele></trkpt>
<trkpt lon="-4.802664" lat="43.427318"><ele>16.5</ele></trkpt>
<trkpt lon="-4.802833" lat="43.427274"><ele>17.25</ele></trkpt>
<trkpt lon="-4.802912" lat="43.427278"><ele>17.25</ele></trkpt>
<trkpt lon="-4.803009" lat="43.427304"><ele>17.5</ele></trkpt>
<trkpt lon="-4.803090" lat="43.427330"><ele>17.25</ele></trkpt>
<trkpt lon="-4.803175" lat="43.427357"><ele>16.75</ele></trkpt>
<trkpt lon="-4.803476" lat="43.427500"><ele>15.75</ele></trkpt>
<trkpt lon="-4.803534" lat="43.427518"><ele>15.75</ele></trkpt>
<trkpt lon="-4.803696" lat="43.427524"><ele>15.25</ele></trkpt>
<trkpt lon="-4.803875" lat="43.427520"><ele>14.5</ele></trkpt>
<trkpt lon="-4.804009" lat="43.427530"><ele>14.0</ele></trkpt>
<trkpt lon="-4.804124" lat="43.427567"><ele>14.0</ele></trkpt>
<trkpt lon="-4.804334" lat="43.427674"><ele>13.0</ele></trkpt>
<trkpt lon="-4.804435" lat="43.427746"><ele>12.0</ele></trkpt>
<trkpt lon="-4.804533" lat="43.427806"><ele>11.75</ele></trkpt>
<trkpt lon="-4.804675" lat="43.427867"><ele>11.5</ele></trkpt>
<trkpt lon="-4.804798" lat="43.427906"><ele>11.25</ele></trkpt>
<trkpt lon="-4.804903" lat="43.427954"><ele>11.5</ele></trkpt>
<trkpt lon="-4.804999" lat="43.427965"><ele>11.5</ele></trkpt>
<trkpt lon="-4.805011" lat="43.428009"><ele>11.75</ele></trkpt>
<trkpt lon="-4.805262" lat="43.428219"><ele>12.0</ele></trkpt>
<trkpt lon="-4.805509" lat="43.428458"><ele>12.0</ele></trkpt>
<trkpt lon="-4.805528" lat="43.428492"><ele>11.75</ele></trkpt>
<trkpt lon="-4.805534" lat="43.428523"><ele>11.5</ele></trkpt>
<trkpt lon="-4.805535" lat="43.428616"><ele>11.0</ele></trkpt>
<trkpt lon="-4.805551" lat="43.428643"><ele>11.0</ele></trkpt>
<trkpt lon="-4.805579" lat="43.428668"><ele>11.0</ele></trkpt>
<trkpt lon="-4.805834" lat="43.428843"><ele>9.0</ele></trkpt>
<trkpt lon="-4.806008" lat="43.428909"><ele>9.0</ele></trkpt>
<trkpt lon="-4.806436" lat="43.429012"><ele>8.75</ele></trkpt>
<trkpt lon="-4.806993" lat="43.429159"><ele>8.75</ele></trkpt>
<trkpt lon="-4.807122" lat="43.429202"><ele>8.75</ele></trkpt>
<trkpt lon="-4.807332" lat="43.429320"><ele>9.0</ele></trkpt>
<trkpt lon="-4.807459" lat="43.429348"><ele>10.0</ele></trkpt>
<trkpt lon="-4.807554" lat="43.429354"><ele>10.0</ele></trkpt>
<trkpt lon="-4.807666" lat="43.429352"><ele>9.75</ele></trkpt>
<trkpt lon="-4.808282" lat="43.429312"><ele>10.0</ele></trkpt>
<trkpt lon="-4.808920" lat="43.429226"><ele>10.5</ele></trkpt>
<trkpt lon="-4.809294" lat="43.429262"><ele>10.75</ele></trkpt>
<trkpt lon="-4.809446" lat="43.429266"><ele>11.0</ele></trkpt>
<trkpt lon="-4.809560" lat="43.429251"><ele>11.0</ele></trkpt>
<trkpt lon="-4.809631" lat="43.429236"><ele>11.0</ele></trkpt>
<trkpt lon="-4.809687" lat="43.429214"><ele>11.0</ele></trkpt>
<trkpt lon="-4.810304" lat="43.428963"><ele>12.0</ele></trkpt>
<trkpt lon="-4.810506" lat="43.428904"><ele>12.75</ele></trkpt>
<trkpt lon="-4.810654" lat="43.429016"><ele>13.5</ele></trkpt>
<trkpt lon="-4.810718" lat="43.429095"><ele>14.0</ele></trkpt>
<trkpt lon="-4.811021" lat="43.429276"><ele>16.5</ele></trkpt>
<trkpt lon="-4.811297" lat="43.429419"><ele>19.0</ele></trkpt>
<trkpt lon="-4.811554" lat="43.429567"><ele>20.5</ele></trkpt>
<trkpt lon="-4.811860" lat="43.429458"><ele>21.5</ele></trkpt>
<trkpt lon="-4.812019" lat="43.429444"><ele>21.5</ele></trkpt>
<trkpt lon="-4.812156" lat="43.429411"><ele>21.25</ele></trkpt>
<trkpt lon="-4.812312" lat="43.429318"><ele>20.75</ele></trkpt>
<trkpt lon="-4.812465" lat="43.429342"><ele>19.5</ele></trkpt>
<trkpt lon="-4.812658" lat="43.429386"><ele>19.0</ele></trkpt>
<trkpt lon="-4.812871" lat="43.429441"><ele>19.0</ele></trkpt>
<trkpt lon="-4.813179" lat="43.429530"><ele>19.25</ele></trkpt>
<trkpt lon="-4.813357" lat="43.429572"><ele>19.75</ele></trkpt>
<trkpt lon="-4.813827" lat="43.429647"><ele>21.5</ele></trkpt>
<trkpt lon="-4.814149" lat="43.429712"><ele>20.0</ele></trkpt>
<trkpt lon="-4.814308" lat="43.429753"><ele>20.0</ele></trkpt>
<trkpt lon="-4.814729" lat="43.429895"><ele>18.25</ele></trkpt>
<trkpt lon="-4.814875" lat="43.429953"><ele>17.5</ele></trkpt>
<trkpt lon="-4.815329" lat="43.430275"><ele>15.75</ele></trkpt>
<trkpt lon="-4.815460" lat="43.430357"><ele>15.25</ele></trkpt>
<trkpt lon="-4.815616" lat="43.430418"><ele>15.0</ele></trkpt>
<trkpt lon="-4.816055" lat="43.430607"><ele>14.75</ele></trkpt>
<trkpt lon="-4.816428" lat="43.430656"><ele>14.5</ele></trkpt>
<trkpt lon="-4.816947" lat="43.430640"><ele>14.25</ele></trkpt>
<trkpt lon="-4.817140" lat="43.430640"><ele>15.0</ele></trkpt>
<trkpt lon="-4.817398" lat="43.430679"><ele>15.0</ele></trkpt>
<trkpt lon="-4.817676" lat="43.430780"><ele>14.25</ele></trkpt>
<trkpt lon="-4.817955" lat="43.430772"><ele>14.5</ele></trkpt>
<trkpt lon="-4.818224" lat="43.430741"><ele>15.5</ele></trkpt>
<trkpt lon="-4.818631" lat="43.430640"><ele>14.75</ele></trkpt>
<trkpt lon="-4.819243" lat="43.430531"><ele>14.5</ele></trkpt>
<trkpt lon="-4.819844" lat="43.430655"><ele>15.25</ele></trkpt>
<trkpt lon="-4.820123" lat="43.430655"><ele>14.75</ele></trkpt>
<trkpt lon="-4.820391" lat="43.430632"><ele>15.0</ele></trkpt>
<trkpt lon="-4.820616" lat="43.430655"><ele>15.5</ele></trkpt>
<trkpt lon="-4.821024" lat="43.430725"><ele>16.0</ele></trkpt>
<trkpt lon="-4.821276" lat="43.430856"><ele>15.0</ele></trkpt>
<trkpt lon="-4.821496" lat="43.431084"><ele>13.75</ele></trkpt>
<trkpt lon="-4.821654" lat="43.431209"><ele>13.25</ele></trkpt>
<trkpt lon="-4.821812" lat="43.431212"><ele>13.25</ele></trkpt>
<trkpt lon="-4.821952" lat="43.431191"><ele>13.25</ele></trkpt>
<trkpt lon="-4.822167" lat="43.431134"><ele>13.0</ele></trkpt>
<trkpt lon="-4.822432" lat="43.431113"><ele>12.75</ele></trkpt>
<trkpt lon="-4.822762" lat="43.431136"><ele>12.75</ele></trkpt>
<trkpt lon="-4.823022" lat="43.431177"><ele>13.25</ele></trkpt>
<trkpt lon="-4.823283" lat="43.431241"><ele>13.75</ele></trkpt>
<trkpt lon="-4.823432" lat="43.431266"><ele>13.5</ele></trkpt>
<trkpt lon="-4.823417" lat="43.431340"><ele>12.75</ele></trkpt>
<trkpt lon="-4.823434" lat="43.431516"><ele>13.0</ele></trkpt>
<trkpt lon="-4.823525" lat="43.431574"><ele>13.25</ele></trkpt>
<trkpt lon="-4.823705" lat="43.431667"><ele>13.0</ele></trkpt>
<trkpt lon="-4.823847" lat="43.431797"><ele>15.0</ele></trkpt>
<trkpt lon="-4.823993" lat="43.431908"><ele>15.0</ele></trkpt>
<trkpt lon="-4.824466" lat="43.432186"><ele>13.5</ele></trkpt>
<trkpt lon="-4.824641" lat="43.432299"><ele>15.0</ele></trkpt>
<trkpt lon="-4.824892" lat="43.432407"><ele>14.25</ele></trkpt>
<trkpt lon="-4.825077" lat="43.432540"><ele>13.25</ele></trkpt>
<trkpt lon="-4.825213" lat="43.432676"><ele>13.0</ele></trkpt>
<trkpt lon="-4.825339" lat="43.432751"><ele>12.0</ele></trkpt>
<trkpt lon="-4.825355" lat="43.432823"><ele>12.0</ele></trkpt>
<trkpt lon="-4.825677" lat="43.432830"><ele>12.5</ele></trkpt>
<trkpt lon="-4.825709" lat="43.432860"><ele>13.0</ele></trkpt>
<trkpt lon="-4.825740" lat="43.432870"><ele>13.0</ele></trkpt>
<trkpt lon="-4.825776" lat="43.432871"><ele>13.25</ele></trkpt>
<trkpt lon="-4.825825" lat="43.432853"><ele>13.5</ele></trkpt>
<trkpt lon="-4.825845" lat="43.432833"><ele>13.25</ele></trkpt>
<trkpt lon="-4.825854" lat="43.432807"><ele>13.25</ele></trkpt>
<trkpt lon="-4.825979" lat="43.432699"><ele>13.0</ele></trkpt>
<trkpt lon="-4.826159" lat="43.432616"><ele>13.0</ele></trkpt>
<trkpt lon="-4.826396" lat="43.432571"><ele>13.25</ele></trkpt>
<trkpt lon="-4.826608" lat="43.432545"><ele>12.75</ele></trkpt>
<trkpt lon="-4.826853" lat="43.432500"><ele>11.0</ele></trkpt>
<trkpt lon="-4.827180" lat="43.432487"><ele>11.0</ele></trkpt>
<trkpt lon="-4.827337" lat="43.432447"><ele>11.0</ele></trkpt>
<trkpt lon="-4.827527" lat="43.432394"><ele>10.5</ele></trkpt>
<trkpt lon="-4.827668" lat="43.432352"><ele>10.5</ele></trkpt>
<trkpt lon="-4.827957" lat="43.432327"><ele>11.75</ele></trkpt>
<trkpt lon="-4.828272" lat="43.432352"><ele>13.5</ele></trkpt>
<trkpt lon="-4.828516" lat="43.432384"><ele>12.25</ele></trkpt>
<trkpt lon="-4.828902" lat="43.432616"><ele>10.75</ele></trkpt>
<trkpt lon="-4.829069" lat="43.432706"><ele>10.25</ele></trkpt>
<trkpt lon="-4.829217" lat="43.432796"><ele>9.5</ele></trkpt>
<trkpt lon="-4.829345" lat="43.432956"><ele>8.75</ele></trkpt>
<trkpt lon="-4.829448" lat="43.433059"><ele>8.0</ele></trkpt>
<trkpt lon="-4.829538" lat="43.433097"><ele>8.25</ele></trkpt>
<trkpt lon="-4.829568" lat="43.433093"><ele>8.25</ele></trkpt>
<trkpt lon="-4.829717" lat="43.433076"><ele>8.0</ele></trkpt>
<trkpt lon="-4.829858" lat="43.432976"><ele>7.75</ele></trkpt>
<trkpt lon="-4.830222" lat="43.433247"><ele>7.5</ele></trkpt>
<trkpt lon="-4.830279" lat="43.433296"><ele>7.0</ele></trkpt>
<trkpt lon="-4.830389" lat="43.433390"><ele>7.0</ele></trkpt>
<trkpt lon="-4.830602" lat="43.433472"><ele>6.75</ele></trkpt>
<trkpt lon="-4.830918" lat="43.433520"><ele>6.25</ele></trkpt>
<trkpt lon="-4.831056" lat="43.433530"><ele>6.25</ele></trkpt>
<trkpt lon="-4.831196" lat="43.433539"><ele>6.0</ele></trkpt>
<trkpt lon="-4.831489" lat="43.433520"><ele>5.5</ele></trkpt>
<trkpt lon="-4.832215" lat="43.433437"><ele>5.75</ele></trkpt>
<trkpt lon="-4.832296" lat="43.433435"><ele>6.0</ele></trkpt>
<trkpt lon="-4.832392" lat="43.433441"><ele>6.25</ele></trkpt>
<trkpt lon="-4.833020" lat="43.433562"><ele>4.25</ele></trkpt>
<trkpt lon="-4.833142" lat="43.433571"><ele>3.25</ele></trkpt>
<trkpt lon="-4.833285" lat="43.433566"><ele>2.75</ele></trkpt>
<trkpt lon="-4.833363" lat="43.433548"><ele>2.5</ele></trkpt>
<trkpt lon="-4.833520" lat="43.433491"><ele>4.5</ele></trkpt>
<trkpt lon="-4.833637" lat="43.433475"><ele>6.0</ele></trkpt>
<trkpt lon="-4.833707" lat="43.433481"><ele>6.25</ele></trkpt>
<trkpt lon="-4.834021" lat="43.433548"><ele>4.5</ele></trkpt>
<trkpt lon="-4.834083" lat="43.433546"><ele>4.5</ele></trkpt>
<trkpt lon="-4.834165" lat="43.433529"><ele>5.0</ele></trkpt>
<trkpt lon="-4.834228" lat="43.433504"><ele>4.75</ele></trkpt>
<trkpt lon="-4.834521" lat="43.433329"><ele>3.75</ele></trkpt>
<trkpt lon="-4.835351" lat="43.433024"><ele>4.0</ele></trkpt>
<trkpt lon="-4.835471" lat="43.433000"><ele>4.0</ele></trkpt>
<trkpt lon="-4.835715" lat="43.433002"><ele>4.25</ele></trkpt>
<trkpt lon="-4.836183" lat="43.433029"><ele>4.5</ele></trkpt>
<trkpt lon="-4.836599" lat="43.433094"><ele>4.75</ele></trkpt>
<trkpt lon="-4.837130" lat="43.433244"><ele>5.75</ele></trkpt>
<trkpt lon="-4.837269" lat="43.433308"><ele>4.75</ele></trkpt>
<trkpt lon="-4.837328" lat="43.433355"><ele>3.75</ele></trkpt>
<trkpt lon="-4.837349" lat="43.433391"><ele>3.75</ele></trkpt>
<trkpt lon="-4.837398" lat="43.433524"><ele>3.75</ele></trkpt>
<trkpt lon="-4.837410" lat="43.433599"><ele>3.75</ele></trkpt>
<trkpt lon="-4.837428" lat="43.433613"><ele>3.75</ele></trkpt>
<trkpt lon="-4.837454" lat="43.433619"><ele>4.0</ele></trkpt>
<trkpt lon="-4.837471" lat="43.433610"><ele>3.75</ele></trkpt>
<trkpt lon="-4.837495" lat="43.433608"><ele>3.75</ele></trkpt>
<trkpt lon="-4.837516" lat="43.433618"><ele>4.0</ele></trkpt>
<trkpt lon="-4.837567" lat="43.433664"><ele>5.25</ele></trkpt>
<trkpt lon="-4.837609" lat="43.433683"><ele>5.75</ele></trkpt>
<trkpt lon="-4.837642" lat="43.433710"><ele>6.75</ele></trkpt>
<trkpt lon="-4.837656" lat="43.433745"><ele>8.0</ele></trkpt>
<trkpt lon="-4.837659" lat="43.433778"><ele>9.25</ele></trkpt>
<trkpt lon="-4.837492" lat="43.433974"><ele>12.25</ele></trkpt>
<trkpt lon="-4.837645" lat="43.434009"><ele>15.25</ele></trkpt>
<trkpt lon="-4.837987" lat="43.433823"><ele>15.25</ele></trkpt>
<trkpt lon="-4.838149" lat="43.433787"><ele>15.5</ele></trkpt>
<trkpt lon="-4.838414" lat="43.433796"><ele>16.75</ele></trkpt>
<trkpt lon="-4.838581" lat="43.433828"><ele>17.25</ele></trkpt>
<trkpt lon="-4.838917" lat="43.434086"><ele>18.75</ele></trkpt>
<trkpt lon="-4.839106" lat="43.434163"><ele>20.0</ele></trkpt>
<trkpt lon="-4.839413" lat="43.434259"><ele>21.25</ele></trkpt>
<trkpt lon="-4.839594" lat="43.434339"><ele>22.5</ele></trkpt>
<trkpt lon="-4.839898" lat="43.434567"><ele>22.5</ele></trkpt>
<trkpt lon="-4.840068" lat="43.434632"><ele>22.25</ele></trkpt>
<trkpt lon="-4.840270" lat="43.434654"><ele>22.75</ele></trkpt>
<trkpt lon="-4.840394" lat="43.434730"><ele>22.0</ele></trkpt>
<trkpt lon="-4.840489" lat="43.434902"><ele>21.0</ele></trkpt>
<trkpt lon="-4.840623" lat="43.434922"><ele>21.75</ele></trkpt>
<trkpt lon="-4.840957" lat="43.434857"><ele>24.0</ele></trkpt>
<trkpt lon="-4.841237" lat="43.434872"><ele>24.5</ele></trkpt>
<trkpt lon="-4.841425" lat="43.434900"><ele>25.0</ele></trkpt>
<trkpt lon="-4.841691" lat="43.435027"><ele>24.5</ele></trkpt>
<trkpt lon="-4.841921" lat="43.435116"><ele>24.25</ele></trkpt>
<trkpt lon="-4.842213" lat="43.435146"><ele>24.75</ele></trkpt>
<trkpt lon="-4.842497" lat="43.435145"><ele>25.25</ele></trkpt>
<trkpt lon="-4.842651" lat="43.435160"><ele>25.25</ele></trkpt>
<trkpt lon="-4.843624" lat="43.435266"><ele>26.25</ele></trkpt>
<trkpt lon="-4.844005" lat="43.435336"><ele>26.25</ele></trkpt>
<trkpt lon="-4.845107" lat="43.435410"><ele>24.25</ele></trkpt>
<trkpt lon="-4.845239" lat="43.435426"><ele>24.75</ele></trkpt>
<trkpt lon="-4.845275" lat="43.435420"><ele>24.75</ele></trkpt>
<trkpt lon="-4.845410" lat="43.435393"><ele>24.75</ele></trkpt>
<trkpt lon="-4.845480" lat="43.435378"><ele>24.75</ele></trkpt>
<trkpt lon="-4.845661" lat="43.435381"><ele>24.5</ele></trkpt>
<trkpt lon="-4.846192" lat="43.435298"><ele>25.25</ele></trkpt>
<trkpt lon="-4.846406" lat="43.435252"><ele>25.5</ele></trkpt>
<trkpt lon="-4.847910" lat="43.434998"><ele>28.25</ele></trkpt>
<trkpt lon="-4.848132" lat="43.434977"><ele>29.0</ele></trkpt>
<trkpt lon="-4.848555" lat="43.434962"><ele>29.5</ele></trkpt>
<trkpt lon="-4.851166" lat="43.434880"><ele>32.75</ele></trkpt>
<trkpt lon="-4.851562" lat="43.434876"><ele>34.25</ele></trkpt>
<trkpt lon="-4.852222" lat="43.434872"><ele>36.75</ele></trkpt>
<trkpt lon="-4.852904" lat="43.434843"><ele>37.0</ele></trkpt>
<trkpt lon="-4.852990" lat="43.434828"><ele>37.25</ele></trkpt>
<trkpt lon="-4.853119" lat="43.434786"><ele>37.25</ele></trkpt>
<trkpt lon="-4.853190" lat="43.434747"><ele>37.25</ele></trkpt>
<trkpt lon="-4.853300" lat="43.434665"><ele>37.5</ele></trkpt>
<trkpt lon="-4.853382" lat="43.434579"><ele>37.75</ele></trkpt>
<trkpt lon="-4.853478" lat="43.434453"><ele>38.0</ele></trkpt>
<trkpt lon="-4.853757" lat="43.434423"><ele>39.25</ele></trkpt>
<trkpt lon="-4.854048" lat="43.434438"><ele>40.5</ele></trkpt>
<trkpt lon="-4.854527" lat="43.434451"><ele>42.5</ele></trkpt>
<trkpt lon="-4.854756" lat="43.434607"><ele>45.0</ele></trkpt>
<trkpt lon="-4.855569" lat="43.434886"><ele>45.75</ele></trkpt>
<trkpt lon="-4.855841" lat="43.435155"><ele>47.5</ele></trkpt>
<trkpt lon="-4.856003" lat="43.435300"><ele>49.25</ele></trkpt>
<trkpt lon="-4.856354" lat="43.435205"><ele>48.75</ele></trkpt>
<trkpt lon="-4.856948" lat="43.435251"><ele>50.5</ele></trkpt>
<trkpt lon="-4.857260" lat="43.435321"><ele>52.5</ele></trkpt>
<trkpt lon="-4.857788" lat="43.435405"><ele>53.5</ele></trkpt>
<trkpt lon="-4.858004" lat="43.435500"><ele>55.5</ele></trkpt>
<trkpt lon="-4.858587" lat="43.435623"><ele>57.5</ele></trkpt>
<trkpt lon="-4.859059" lat="43.435696"><ele>59.0</ele></trkpt>
<trkpt lon="-4.859268" lat="43.435705"><ele>60.25</ele></trkpt>
<trkpt lon="-4.860172" lat="43.435564"><ele>64.25</ele></trkpt>
<trkpt lon="-4.860692" lat="43.435472"><ele>65.5</ele></trkpt>
<trkpt lon="-4.861170" lat="43.435416"><ele>69.5</ele></trkpt>
<trkpt lon="-4.861481" lat="43.435391"><ele>72.0</ele></trkpt>
<trkpt lon="-4.862538" lat="43.435142"><ele>74.0</ele></trkpt>
<trkpt lon="-4.863525" lat="43.435081"><ele>77.0</ele></trkpt>
<trkpt lon="-4.864367" lat="43.434993"><ele>80.5</ele></trkpt>
<trkpt lon="-4.864676" lat="43.434988"><ele>80.75</ele></trkpt>
<trkpt lon="-4.865588" lat="43.434965"><ele>81.0</ele></trkpt>
<trkpt lon="-4.866259" lat="43.434984"><ele>79.0</ele></trkpt>
<trkpt lon="-4.866792" lat="43.435007"><ele>79.0</ele></trkpt>
<trkpt lon="-4.867199" lat="43.435102"><ele>77.75</ele></trkpt>
<trkpt lon="-4.867255" lat="43.435111"><ele>77.5</ele></trkpt>
<trkpt lon="-4.867701" lat="43.435568"><ele>68.25</ele></trkpt>
<trkpt lon="-4.867756" lat="43.435599"><ele>66.75</ele></trkpt>
<trkpt lon="-4.867848" lat="43.435629"><ele>66.75</ele></trkpt>
<trkpt lon="-4.867912" lat="43.435658"><ele>66.75</ele></trkpt>
<trkpt lon="-4.867967" lat="43.435703"><ele>65.5</ele></trkpt>
<trkpt lon="-4.868092" lat="43.435907"><ele>58.25</ele></trkpt>
<trkpt lon="-4.868153" lat="43.435983"><ele>57.25</ele></trkpt>
<trkpt lon="-4.868225" lat="43.436060"><ele>54.75</ele></trkpt>
<trkpt lon="-4.868404" lat="43.436191"><ele>50.25</ele></trkpt>
<trkpt lon="-4.868510" lat="43.436260"><ele>49.0</ele></trkpt>
<trkpt lon="-4.868632" lat="43.436316"><ele>47.5</ele></trkpt>
<trkpt lon="-4.868754" lat="43.436357"><ele>44.75</ele></trkpt>
<trkpt lon="-4.869085" lat="43.436417"><ele>40.5</ele></trkpt>
<trkpt lon="-4.869125" lat="43.436432"><ele>40.0</ele></trkpt>
<trkpt lon="-4.869148" lat="43.436456"><ele>39.5</ele></trkpt>
<trkpt lon="-4.869150" lat="43.436503"><ele>38.5</ele></trkpt>
<trkpt lon="-4.869136" lat="43.436544"><ele>37.75</ele></trkpt>
<trkpt lon="-4.869079" lat="43.436593"><ele>37.0</ele></trkpt>
<trkpt lon="-4.868778" lat="43.436762"><ele>34.5</ele></trkpt>
<trkpt lon="-4.868717" lat="43.436811"><ele>33.0</ele></trkpt>
<trkpt lon="-4.868683" lat="43.436858"><ele>31.5</ele></trkpt>
<trkpt lon="-4.868668" lat="43.436902"><ele>30.25</ele></trkpt>
<trkpt lon="-4.868675" lat="43.436944"><ele>29.0</ele></trkpt>
<trkpt lon="-4.868724" lat="43.437016"><ele>27.0</ele></trkpt>
<trkpt lon="-4.868771" lat="43.437055"><ele>25.75</ele></trkpt>
<trkpt lon="-4.868859" lat="43.437097"><ele>24.0</ele></trkpt>
<trkpt lon="-4.868951" lat="43.437116"><ele>22.75</ele></trkpt>
<trkpt lon="-4.869045" lat="43.437122"><ele>21.5</ele></trkpt>
<trkpt lon="-4.869757" lat="43.437076"><ele>12.75</ele></trkpt>
<trkpt lon="-4.870285" lat="43.437068"><ele>9.25</ele></trkpt>
<trkpt lon="-4.870387" lat="43.437044"><ele>9.0</ele></trkpt>
<trkpt lon="-4.870469" lat="43.437065"><ele>8.5</ele></trkpt>
<trkpt lon="-4.870553" lat="43.437060"><ele>8.0</ele></trkpt>
<trkpt lon="-4.870679" lat="43.437051"><ele>8.25</ele></trkpt>
<trkpt lon="-4.870986" lat="43.437116"><ele>8.25</ele></trkpt>
<trkpt lon="-4.871253" lat="43.437432"><ele>7.0</ele></trkpt>
<trkpt lon="-4.871661" lat="43.437995"><ele>5.0</ele></trkpt>
<trkpt lon="-4.871754" lat="43.438195"><ele>4.75</ele></trkpt>
<trkpt lon="-4.872134" lat="43.438173"><ele>4.0</ele></trkpt>
<trkpt lon="-4.874652" lat="43.437199"><ele>5.0</ele></trkpt>
<trkpt lon="-4.874939" lat="43.437095"><ele>4.75</ele></trkpt>
<trkpt lon="-4.875218" lat="43.436938"><ele>5.0</ele></trkpt>
<trkpt lon="-4.875979" lat="43.436234"><ele>6.0</ele></trkpt>
<trkpt lon="-4.876102" lat="43.436009"><ele>6.0</ele></trkpt>
<trkpt lon="-4.876135" lat="43.435812"><ele>6.0</ele></trkpt>
<trkpt lon="-4.876014" lat="43.435638"><ele>6.5</ele></trkpt>
<trkpt lon="-4.875157" lat="43.434856"><ele>6.5</ele></trkpt>
<trkpt lon="-4.875038" lat="43.434698"><ele>7.0</ele></trkpt>
<trkpt lon="-4.875034" lat="43.434499"><ele>7.0</ele></trkpt>
<trkpt lon="-4.875102" lat="43.434335"><ele>7.0</ele></trkpt>
<trkpt lon="-4.875688" lat="43.433749"><ele>7.5</ele></trkpt>
<trkpt lon="-4.875911" lat="43.433624"><ele>7.75</ele></trkpt>
<trkpt lon="-4.876593" lat="43.433199"><ele>7.5</ele></trkpt>
<trkpt lon="-4.877195" lat="43.433059"><ele>7.75</ele></trkpt>
<trkpt lon="-4.878003" lat="43.433044"><ele>8.75</ele></trkpt>
<trkpt lon="-4.878210" lat="43.432988"><ele>8.25</ele></trkpt>
<trkpt lon="-4.878275" lat="43.432798"><ele>8.0</ele></trkpt>
<trkpt lon="-4.878514" lat="43.431981"><ele>8.25</ele></trkpt>
<trkpt lon="-4.878615" lat="43.431716"><ele>9.5</ele></trkpt>
<trkpt lon="-4.878684" lat="43.431572"><ele>9.25</ele></trkpt>
<trkpt lon="-4.878432" lat="43.431250"><ele>9.0</ele></trkpt>
<trkpt lon="-4.878254" lat="43.431029"><ele>9.75</ele></trkpt>
<trkpt lon="-4.878266" lat="43.430900"><ele>10.75</ele></trkpt>
<trkpt lon="-4.878307" lat="43.430746"><ele>10.25</ele></trkpt>
<trkpt lon="-4.878365" lat="43.430615"><ele>9.25</ele></trkpt>
<trkpt lon="-4.878472" lat="43.430482"><ele>9.75</ele></trkpt>
<trkpt lon="-4.878502" lat="43.430412"><ele>10.0</ele></trkpt>
<trkpt lon="-4.878434" lat="43.430172"><ele>12.25</ele></trkpt>
<trkpt lon="-4.878167" lat="43.429912"><ele>15.25</ele></trkpt>
<trkpt lon="-4.877789" lat="43.429596"><ele>19.25</ele></trkpt>
<trkpt lon="-4.877672" lat="43.429404"><ele>19.75</ele></trkpt>
<trkpt lon="-4.877665" lat="43.429293"><ele>19.0</ele></trkpt>
<trkpt lon="-4.877691" lat="43.429125"><ele>18.5</ele></trkpt>
<trkpt lon="-4.878158" lat="43.429106"><ele>21.75</ele></trkpt>
<trkpt lon="-4.878478" lat="43.429073"><ele>23.25</ele></trkpt>
<trkpt lon="-4.878679" lat="43.429102"><ele>22.75</ele></trkpt>
<trkpt lon="-4.879304" lat="43.429315"><ele>24.5</ele></trkpt>
<trkpt lon="-4.879462" lat="43.429341"><ele>25.5</ele></trkpt>
<trkpt lon="-4.879690" lat="43.429320"><ele>26.0</ele></trkpt>
<trkpt lon="-4.880100" lat="43.429265"><ele>26.0</ele></trkpt>
<trkpt lon="-4.880558" lat="43.429223"><ele>21.0</ele></trkpt>
<trkpt lon="-4.880835" lat="43.429122"><ele>19.5</ele></trkpt>
<trkpt lon="-4.881248" lat="43.428861"><ele>15.0</ele></trkpt>
<trkpt lon="-4.881737" lat="43.428718"><ele>12.0</ele></trkpt>
<trkpt lon="-4.882427" lat="43.428582"><ele>13.0</ele></trkpt>
<trkpt lon="-4.882983" lat="43.428563"><ele>12.0</ele></trkpt>
<trkpt lon="-4.883176" lat="43.428589"><ele>12.0</ele></trkpt>
<trkpt lon="-4.883459" lat="43.428713"><ele>12.0</ele></trkpt>
<trkpt lon="-4.884301" lat="43.429122"><ele>11.75</ele></trkpt>
<trkpt lon="-4.884384" lat="43.429311"><ele>12.0</ele></trkpt>
<trkpt lon="-4.884396" lat="43.429415"><ele>12.5</ele></trkpt>
<trkpt lon="-4.884400" lat="43.429440"><ele>12.75</ele></trkpt>
<trkpt lon="-4.884266" lat="43.429807"><ele>12.5</ele></trkpt>
<trkpt lon="-4.884190" lat="43.429934"><ele>12.25</ele></trkpt>
<trkpt lon="-4.884184" lat="43.430012"><ele>12.25</ele></trkpt>
<trkpt lon="-4.884280" lat="43.430035"><ele>13.75</ele></trkpt>
<trkpt lon="-4.884841" lat="43.430049"><ele>21.5</ele></trkpt>
<trkpt lon="-4.884921" lat="43.430066"><ele>22.75</ele></trkpt>
<trkpt lon="-4.885002" lat="43.430164"><ele>24.0</ele></trkpt>
<trkpt lon="-4.885084" lat="43.430150"><ele>25.75</ele></trkpt>
<trkpt lon="-4.885162" lat="43.430125"><ele>27.25</ele></trkpt>
<trkpt lon="-4.885339" lat="43.430035"><ele>30.5</ele></trkpt>
<trkpt lon="-4.885422" lat="43.430012"><ele>32.0</ele></trkpt>
<trkpt lon="-4.885602" lat="43.430009"><ele>36.0</ele></trkpt>
<trkpt lon="-4.885821" lat="43.429976"><ele>40.0</ele></trkpt>
<trkpt lon="-4.886024" lat="43.429904"><ele>43.25</ele></trkpt>
<trkpt lon="-4.886218" lat="43.429805"><ele>45.25</ele></trkpt>
<trkpt lon="-4.886445" lat="43.429755"><ele>47.75</ele></trkpt>
<trkpt lon="-4.886718" lat="43.429790"><ele>52.0</ele></trkpt>
<trkpt lon="-4.887443" lat="43.429962"><ele>68.0</ele></trkpt>
<trkpt lon="-4.888218" lat="43.430047"><ele>84.0</ele></trkpt>
<trkpt lon="-4.888898" lat="43.430014"><ele>96.75</ele></trkpt>
<trkpt lon="-4.889149" lat="43.429893"><ele>102.5</ele></trkpt>
<trkpt lon="-4.889623" lat="43.429795"><ele>112.75</ele></trkpt>
<trkpt lon="-4.889984" lat="43.429656"><ele>122.0</ele></trkpt>
<trkpt lon="-4.890299" lat="43.429487"><ele>130.5</ele></trkpt>
<trkpt lon="-4.890749" lat="43.429230"><ele>145.5</ele></trkpt>
<trkpt lon="-4.891004" lat="43.429191"><ele>149.0</ele></trkpt>
<trkpt lon="-4.891124" lat="43.429208"><ele>150.5</ele></trkpt>
<trkpt lon="-4.891049" lat="43.429099"><ele>150.5</ele></trkpt>
<trkpt lon="-4.891038" lat="43.428900"><ele>155.0</ele></trkpt>
<trkpt lon="-4.891003" lat="43.428864"><ele>156.75</ele></trkpt>
<trkpt lon="-4.891022" lat="43.428714"><ele>162.5</ele></trkpt>
<trkpt lon="-4.890941" lat="43.428316"><ele>179.75</ele></trkpt>
<trkpt lon="-4.891548" lat="43.427797"><ele>181.25</ele></trkpt>
<trkpt lon="-4.892004" lat="43.427431"><ele>180.25</ele></trkpt>
<trkpt lon="-4.892368" lat="43.426948"><ele>184.5</ele></trkpt>
<trkpt lon="-4.892669" lat="43.426590"><ele>192.5</ele></trkpt>
<trkpt lon="-4.892781" lat="43.426220"><ele>198.75</ele></trkpt>
<trkpt lon="-4.893055" lat="43.425487"><ele>205.0</ele></trkpt>
<trkpt lon="-4.893130" lat="43.425355"><ele>205.5</ele></trkpt>
<trkpt lon="-4.893516" lat="43.425125"><ele>202.0</ele></trkpt>
<trkpt lon="-4.894267" lat="43.424642"><ele>193.75</ele></trkpt>
<trkpt lon="-4.894809" lat="43.424065"><ele>185.75</ele></trkpt>
<trkpt lon="-4.895351" lat="43.423707"><ele>190.0</ele></trkpt>
<trkpt lon="-4.895539" lat="43.423598"><ele>193.5</ele></trkpt>
<trkpt lon="-4.895721" lat="43.423414"><ele>192.25</ele></trkpt>
<trkpt lon="-4.895989" lat="43.423184"><ele>192.75</ele></trkpt>
<trkpt lon="-4.897025" lat="43.422608"><ele>206.75</ele></trkpt>
<trkpt lon="-4.897341" lat="43.422456"><ele>209.5</ele></trkpt>
<trkpt lon="-4.898055" lat="43.422187"><ele>211.75</ele></trkpt>
<trkpt lon="-4.898200" lat="43.422187"><ele>212.25</ele></trkpt>
<trkpt lon="-4.898495" lat="43.422133"><ele>212.25</ele></trkpt>
<trkpt lon="-4.898709" lat="43.422051"><ele>212.5</ele></trkpt>
<trkpt lon="-4.898849" lat="43.421957"><ele>212.75</ele></trkpt>
<trkpt lon="-4.898763" lat="43.421661"><ele>212.5</ele></trkpt>
<trkpt lon="-4.898586" lat="43.420991"><ele>212.75</ele></trkpt>
<trkpt lon="-4.898505" lat="43.420784"><ele>212.0</ele></trkpt>
<trkpt lon="-4.898693" lat="43.420636"><ele>212.25</ele></trkpt>
<trkpt lon="-4.899149" lat="43.420422"><ele>211.25</ele></trkpt>
<trkpt lon="-4.899648" lat="43.420227"><ele>212.75</ele></trkpt>
<trkpt lon="-4.900302" lat="43.420005"><ele>215.0</ele></trkpt>
<trkpt lon="-4.900925" lat="43.419869"><ele>216.5</ele></trkpt>
<trkpt lon="-4.901461" lat="43.419795"><ele>217.0</ele></trkpt>
<trkpt lon="-4.901837" lat="43.419752"><ele>217.0</ele></trkpt>
<trkpt lon="-4.902116" lat="43.419779"><ele>217.5</ele></trkpt>
<trkpt lon="-4.902985" lat="43.419951"><ele>218.0</ele></trkpt>
<trkpt lon="-4.903569" lat="43.420048"><ele>217.75</ele></trkpt>
<trkpt lon="-4.903886" lat="43.420040"><ele>217.75</ele></trkpt>
<trkpt lon="-4.904245" lat="43.420107"><ele>217.5</ele></trkpt>
<trkpt lon="-4.904690" lat="43.420177"><ele>216.25</ele></trkpt>
<trkpt lon="-4.904996" lat="43.420114"><ele>214.75</ele></trkpt>
<trkpt lon="-4.905104" lat="43.420231"><ele>215.5</ele></trkpt>
<trkpt lon="-4.905238" lat="43.420286"><ele>216.0</ele></trkpt>
<trkpt lon="-4.905405" lat="43.420292"><ele>216.0</ele></trkpt>
<trkpt lon="-4.905562" lat="43.420359"><ele>216.75</ele></trkpt>
<trkpt lon="-4.906264" lat="43.420443"><ele>219.5</ele></trkpt>
<trkpt lon="-4.907256" lat="43.420359"><ele>221.0</ele></trkpt>
<trkpt lon="-4.911540" lat="43.419915"><ele>222.0</ele></trkpt>
<trkpt lon="-4.912989" lat="43.419640"><ele>223.0</ele></trkpt>
<trkpt lon="-4.913060" lat="43.418982"><ele>221.5</ele></trkpt>
<trkpt lon="-4.913119" lat="43.418841"><ele>220.75</ele></trkpt>
<trkpt lon="-4.913257" lat="43.418678"><ele>220.0</ele></trkpt>
<trkpt lon="-4.913240" lat="43.418533"><ele>217.5</ele></trkpt>
<trkpt lon="-4.913323" lat="43.418416"><ele>214.25</ele></trkpt>
<trkpt lon="-4.913565" lat="43.418342"><ele>213.75</ele></trkpt>
<trkpt lon="-4.913963" lat="43.418305"><ele>213.75</ele></trkpt>
<trkpt lon="-4.914250" lat="43.418108"><ele>205.5</ele></trkpt>
<trkpt lon="-4.914219" lat="43.418102"><ele>205.25</ele></trkpt>
<trkpt lon="-4.914306" lat="43.417774"><ele>197.25</ele></trkpt>
<trkpt lon="-4.914843" lat="43.417582"><ele>191.0</ele></trkpt>
<trkpt lon="-4.915166" lat="43.417059"><ele>177.75</ele></trkpt>
<trkpt lon="-4.915579" lat="43.416972"><ele>176.75</ele></trkpt>
<trkpt lon="-4.915856" lat="43.416928"><ele>175.25</ele></trkpt>
<trkpt lon="-4.916090" lat="43.416923"><ele>174.5</ele></trkpt>
<trkpt lon="-4.916324" lat="43.416789"><ele>173.25</ele></trkpt>
<trkpt lon="-4.916485" lat="43.416744"><ele>172.75</ele></trkpt>
<trkpt lon="-4.916848" lat="43.416695"><ele>171.25</ele></trkpt>
<trkpt lon="-4.917206" lat="43.416762"><ele>172.0</ele></trkpt>
<trkpt lon="-4.917495" lat="43.416686"><ele>171.5</ele></trkpt>
<trkpt lon="-4.917890" lat="43.416673"><ele>172.0</ele></trkpt>
<trkpt lon="-4.918272" lat="43.416825"><ele>174.5</ele></trkpt>
<trkpt lon="-4.918512" lat="43.416905"><ele>176.25</ele></trkpt>
<trkpt lon="-4.919571" lat="43.416883"><ele>182.75</ele></trkpt>
<trkpt lon="-4.919724" lat="43.416923"><ele>185.0</ele></trkpt>
<trkpt lon="-4.920134" lat="43.417090"><ele>191.0</ele></trkpt>
<trkpt lon="-4.920701" lat="43.417078"><ele>189.5</ele></trkpt>
<trkpt lon="-4.920987" lat="43.417095"><ele>191.0</ele></trkpt>
<trkpt lon="-4.921321" lat="43.417126"><ele>194.5</ele></trkpt>
<trkpt lon="-4.921648" lat="43.417141"><ele>199.5</ele></trkpt>
<trkpt lon="-4.921756" lat="43.417110"><ele>200.0</ele></trkpt>
<trkpt lon="-4.921930" lat="43.417095"><ele>201.5</ele></trkpt>
<trkpt lon="-4.922145" lat="43.417118"><ele>203.5</ele></trkpt>
<trkpt lon="-4.922500" lat="43.417108"><ele>204.5</ele></trkpt>
<trkpt lon="-4.922689" lat="43.417127"><ele>204.75</ele></trkpt>
<trkpt lon="-4.922805" lat="43.417109"><ele>204.0</ele></trkpt>
<trkpt lon="-4.923051" lat="43.417125"><ele>203.5</ele></trkpt>
<trkpt lon="-4.923764" lat="43.417286"><ele>201.25</ele></trkpt>
<trkpt lon="-4.924010" lat="43.417304"><ele>201.0</ele></trkpt>
<trkpt lon="-4.924527" lat="43.417248"><ele>199.25</ele></trkpt>
<trkpt lon="-4.924807" lat="43.417256"><ele>200.75</ele></trkpt>
<trkpt lon="-4.925016" lat="43.417209"><ele>201.0</ele></trkpt>
<trkpt lon="-4.925215" lat="43.417089"><ele>203.75</ele></trkpt>
<trkpt lon="-4.925301" lat="43.416982"><ele>204.5</ele></trkpt>
<trkpt lon="-4.925373" lat="43.416925"><ele>205.5</ele></trkpt>
<trkpt lon="-4.925720" lat="43.416795"><ele>208.5</ele></trkpt>
<trkpt lon="-4.925966" lat="43.416746"><ele>209.75</ele></trkpt>
<trkpt lon="-4.926189" lat="43.416745"><ele>210.75</ele></trkpt>
<trkpt lon="-4.926301" lat="43.416785"><ele>211.25</ele></trkpt>
<trkpt lon="-4.926698" lat="43.416634"><ele>208.75</ele></trkpt>
<trkpt lon="-4.926747" lat="43.416601"><ele>208.5</ele></trkpt>
<trkpt lon="-4.927129" lat="43.416346"><ele>207.5</ele></trkpt>
<trkpt lon="-4.927561" lat="43.416129"><ele>208.75</ele></trkpt>
<trkpt lon="-4.927891" lat="43.415904"><ele>209.75</ele></trkpt>
<trkpt lon="-4.928215" lat="43.415728"><ele>210.75</ele></trkpt>
<trkpt lon="-4.928492" lat="43.415601"><ele>210.25</ele></trkpt>
<trkpt lon="-4.928681" lat="43.415490"><ele>209.75</ele></trkpt>
<trkpt lon="-4.928802" lat="43.415333"><ele>209.0</ele></trkpt>
<trkpt lon="-4.928976" lat="43.415077"><ele>209.25</ele></trkpt>
<trkpt lon="-4.929133" lat="43.414886"><ele>209.25</ele></trkpt>
<trkpt lon="-4.929325" lat="43.414547"><ele>207.75</ele></trkpt>
<trkpt lon="-4.929453" lat="43.414297"><ele>205.25</ele></trkpt>
<trkpt lon="-4.929712" lat="43.414118"><ele>203.0</ele></trkpt>
<trkpt lon="-4.930004" lat="43.413961"><ele>201.0</ele></trkpt>
<trkpt lon="-4.930246" lat="43.413793"><ele>200.25</ele></trkpt>
<trkpt lon="-4.930385" lat="43.413550"><ele>200.25</ele></trkpt>
<trkpt lon="-4.930587" lat="43.413333"><ele>198.25</ele></trkpt>
<trkpt lon="-4.930730" lat="43.413240"><ele>196.25</ele></trkpt>
<trkpt lon="-4.930996" lat="43.413044"><ele>192.75</ele></trkpt>
<trkpt lon="-4.931060" lat="43.412904"><ele>190.75</ele></trkpt>
<trkpt lon="-4.931046" lat="43.412579"><ele>187.75</ele></trkpt>
<trkpt lon="-4.930966" lat="43.412296"><ele>185.75</ele></trkpt>
<trkpt lon="-4.931120" lat="43.412274"><ele>184.0</ele></trkpt>
<trkpt lon="-4.931441" lat="43.412470"><ele>178.5</ele></trkpt>
<trkpt lon="-4.931835" lat="43.412824"><ele>171.5</ele></trkpt>
<trkpt lon="-4.932008" lat="43.413124"><ele>165.75</ele></trkpt>
<trkpt lon="-4.932026" lat="43.413339"><ele>164.75</ele></trkpt>
<trkpt lon="-4.932026" lat="43.413590"><ele>157.75</ele></trkpt>
<trkpt lon="-4.932174" lat="43.413930"><ele>150.5</ele></trkpt>
<trkpt lon="-4.932230" lat="43.414055"><ele>148.5</ele></trkpt>
<trkpt lon="-4.932458" lat="43.414382"><ele>145.5</ele></trkpt>
<trkpt lon="-4.932464" lat="43.414480"><ele>146.5</ele></trkpt>
<trkpt lon="-4.932291" lat="43.414749"><ele>147.5</ele></trkpt>
<trkpt lon="-4.931755" lat="43.415698"><ele>148.0</ele></trkpt>
<trkpt lon="-4.931607" lat="43.415855"><ele>145.25</ele></trkpt>
<trkpt lon="-4.931385" lat="43.416074"><ele>144.25</ele></trkpt>
<trkpt lon="-4.931120" lat="43.416181"><ele>142.25</ele></trkpt>
<trkpt lon="-4.931016" lat="43.416298"><ele>141.75</ele></trkpt>
<trkpt lon="-4.930960" lat="43.416477"><ele>144.0</ele></trkpt>
<trkpt lon="-4.930621" lat="43.416530"><ele>141.25</ele></trkpt>
<trkpt lon="-4.930436" lat="43.416629"><ele>140.25</ele></trkpt>
<trkpt lon="-4.929937" lat="43.417063"><ele>139.0</ele></trkpt>
<trkpt lon="-4.929833" lat="43.417184"><ele>138.75</ele></trkpt>
<trkpt lon="-4.929814" lat="43.417305"><ele>139.75</ele></trkpt>
<trkpt lon="-4.929857" lat="43.417399"><ele>141.25</ele></trkpt>
<trkpt lon="-4.929925" lat="43.417596"><ele>144.25</ele></trkpt>
<trkpt lon="-4.930005" lat="43.418030"><ele>144.25</ele></trkpt>
<trkpt lon="-4.930165" lat="43.418482"><ele>140.5</ele></trkpt>
<trkpt lon="-4.930344" lat="43.418545"><ele>142.0</ele></trkpt>
<trkpt lon="-4.930270" lat="43.418710"><ele>138.5</ele></trkpt>
<trkpt lon="-4.930301" lat="43.418804"><ele>137.5</ele></trkpt>
<trkpt lon="-4.930449" lat="43.419180"><ele>135.25</ele></trkpt>
<trkpt lon="-4.930627" lat="43.419543"><ele>138.5</ele></trkpt>
<trkpt lon="-4.930788" lat="43.419910"><ele>135.0</ele></trkpt>
<trkpt lon="-4.930942" lat="43.420214"><ele>137.75</ele></trkpt>
<trkpt lon="-4.930899" lat="43.420505"><ele>132.25</ele></trkpt>
<trkpt lon="-4.930923" lat="43.420756"><ele>130.25</ele></trkpt>
<trkpt lon="-4.931009" lat="43.420984"><ele>129.75</ele></trkpt>
<trkpt lon="-4.931065" lat="43.421190"><ele>127.75</ele></trkpt>
<trkpt lon="-4.931077" lat="43.421342"><ele>127.75</ele></trkpt>
<trkpt lon="-4.930917" lat="43.421463"><ele>126.75</ele></trkpt>
<trkpt lon="-4.930695" lat="43.421606"><ele>125.75</ele></trkpt>
<trkpt lon="-4.930621" lat="43.421709"><ele>124.25</ele></trkpt>
<trkpt lon="-4.930547" lat="43.421906"><ele>121.75</ele></trkpt>
<trkpt lon="-4.930480" lat="43.422318"><ele>121.5</ele></trkpt>
<trkpt lon="-4.930664" lat="43.422667"><ele>122.75</ele></trkpt>
<trkpt lon="-4.930710" lat="43.422731"><ele>118.25</ele></trkpt>
  </trkseg></trk></gpx>
