<?xml version="1.0" encoding="UTF-8"?>
<gpx version="1.1" creator="compostel-brouter" xmlns="http://www.topografix.com/GPX/1/1">
  <metadata><name>ES-22-Llanes</name></metadata>
  <trk><name>ES-22-Llanes</name><trkseg>
<trkpt lon="-4.540732" lat="43.375188"><ele>116.5</ele></trkpt>
<trkpt lon="-4.540909" lat="43.375323"><ele>118.25</ele></trkpt>
<trkpt lon="-4.540989" lat="43.375468"><ele>119.75</ele></trkpt>
<trkpt lon="-4.540914" lat="43.375475"><ele>119.5</ele></trkpt>
<trkpt lon="-4.540907" lat="43.375569"><ele>120.0</ele></trkpt>
<trkpt lon="-4.541283" lat="43.375628"><ele>120.75</ele></trkpt>
<trkpt lon="-4.541509" lat="43.375653"><ele>121.0</ele></trkpt>
<trkpt lon="-4.541622" lat="43.375678"><ele>121.0</ele></trkpt>
<trkpt lon="-4.541963" lat="43.375725"><ele>121.5</ele></trkpt>
<trkpt lon="-4.542260" lat="43.375738"><ele>121.5</ele></trkpt>
<trkpt lon="-4.542753" lat="43.375774"><ele>121.75</ele></trkpt>
<trkpt lon="-4.542810" lat="43.375775"><ele>121.75</ele></trkpt>
<trkpt lon="-4.543121" lat="43.375800"><ele>122.0</ele></trkpt>
<trkpt lon="-4.543395" lat="43.375798"><ele>122.75</ele></trkpt>
<trkpt lon="-4.543607" lat="43.375790"><ele>122.75</ele></trkpt>
<trkpt lon="-4.543723" lat="43.375780"><ele>122.75</ele></trkpt>
<trkpt lon="-4.543836" lat="43.375740"><ele>122.75</ele></trkpt>
<trkpt lon="-4.543878" lat="43.375763"><ele>122.75</ele></trkpt>
<trkpt lon="-4.543904" lat="43.375766"><ele>123.0</ele></trkpt>
<trkpt lon="-4.543930" lat="43.375764"><ele>123.0</ele></trkpt>
<trkpt lon="-4.543974" lat="43.375744"><ele>123.0</ele></trkpt>
<trkpt lon="-4.544194" lat="43.375851"><ele>122.75</ele></trkpt>
<trkpt lon="-4.544506" lat="43.375984"><ele>121.75</ele></trkpt>
<trkpt lon="-4.546205" lat="43.376674"><ele>117.25</ele></trkpt>
<trkpt lon="-4.546668" lat="43.376946"><ele>113.75</ele></trkpt>
<trkpt lon="-4.546761" lat="43.377035"><ele>112.5</ele></trkpt>
<trkpt lon="-4.546769" lat="43.377070"><ele>112.25</ele></trkpt>
<trkpt lon="-4.546774" lat="43.377093"><ele>112.0</ele></trkpt>
<trkpt lon="-4.547161" lat="43.377234"><ele>108.75</ele></trkpt>
<trkpt lon="-4.547369" lat="43.377296"><ele>106.25</ele></trkpt>
<trkpt lon="-4.547977" lat="43.377447"><ele>101.5</ele></trkpt>
<trkpt lon="-4.548466" lat="43.377600"><ele>98.75</ele></trkpt>
<trkpt lon="-4.548714" lat="43.377657"><ele>96.75</ele></trkpt>
<trkpt lon="-4.549002" lat="43.377709"><ele>93.75</ele></trkpt>
<trkpt lon="-4.549691" lat="43.377872"><ele>86.0</ele></trkpt>
<trkpt lon="-4.549989" lat="43.377934"><ele>82.75</ele></trkpt>
<trkpt lon="-4.550158" lat="43.377982"><ele>80.75</ele></trkpt>
<trkpt lon="-4.550321" lat="43.378031"><ele>78.5</ele></trkpt>
<trkpt lon="-4.550460" lat="43.378096"><ele>76.25</ele></trkpt>
<trkpt lon="-4.550775" lat="43.378263"><ele>74.0</ele></trkpt>
<trkpt lon="-4.550901" lat="43.378320"><ele>72.25</ele></trkpt>
<trkpt lon="-4.551408" lat="43.378435"><ele>69.5</ele></trkpt>
<trkpt lon="-4.551509" lat="43.378464"><ele>69.75</ele></trkpt>
<trkpt lon="-4.551735" lat="43.378556"><ele>68.5</ele></trkpt>
<trkpt lon="-4.552274" lat="43.378831"><ele>66.5</ele></trkpt>
<trkpt lon="-4.553076" lat="43.379290"><ele>67.0</ele></trkpt>
<trkpt lon="-4.553524" lat="43.379560"><ele>64.75</ele></trkpt>
<trkpt lon="-4.553742" lat="43.379739"><ele>64.5</ele></trkpt>
<trkpt lon="-4.553945" lat="43.379891"><ele>63.0</ele></trkpt>
<trkpt lon="-4.553977" lat="43.379970"><ele>63.25</ele></trkpt>
<trkpt lon="-4.554088" lat="43.379967"><ele>62.25</ele></trkpt>
<trkpt lon="-4.554464" lat="43.380030"><ele>61.0</ele></trkpt>
<trkpt lon="-4.554517" lat="43.380025"><ele>61.0</ele></trkpt>
<trkpt lon="-4.554544" lat="43.380023"><ele>61.0</ele></trkpt>
<trkpt lon="-4.554984" lat="43.379913"><ele>60.75</ele></trkpt>
<trkpt lon="-4.555076" lat="43.379885"><ele>60.75</ele></trkpt>
<trkpt lon="-4.555203" lat="43.379913"><ele>60.25</ele></trkpt>
<trkpt lon="-4.555922" lat="43.380202"><ele>63.0</ele></trkpt>
<trkpt lon="-4.556424" lat="43.380342"><ele>65.75</ele></trkpt>
<trkpt lon="-4.556522" lat="43.380397"><ele>65.75</ele></trkpt>
<trkpt lon="-4.556872" lat="43.380904"><ele>65.25</ele></trkpt>
<trkpt lon="-4.557108" lat="43.381229"><ele>65.0</ele></trkpt>
<trkpt lon="-4.557265" lat="43.381346"><ele>66.25</ele></trkpt>
<trkpt lon="-4.557410" lat="43.381269"><ele>67.5</ele></trkpt>
<trkpt lon="-4.557691" lat="43.381153"><ele>69.5</ele></trkpt>
<trkpt lon="-4.557886" lat="43.381022"><ele>71.25</ele></trkpt>
<trkpt lon="-4.557991" lat="43.380939"><ele>72.0</ele></trkpt>
<trkpt lon="-4.558134" lat="43.380786"><ele>72.75</ele></trkpt>
<trkpt lon="-4.558234" lat="43.380590"><ele>74.75</ele></trkpt>
<trkpt lon="-4.558298" lat="43.380281"><ele>76.75</ele></trkpt>
<trkpt lon="-4.558307" lat="43.380166"><ele>78.0</ele></trkpt>
<trkpt lon="-4.558328" lat="43.380060"><ele>79.25</ele></trkpt>
<trkpt lon="-4.558408" lat="43.379938"><ele>80.25</ele></trkpt>
<trkpt lon="-4.558699" lat="43.379871"><ele>81.75</ele></trkpt>
<trkpt lon="-4.559022" lat="43.379786"><ele>83.5</ele></trkpt>
<trkpt lon="-4.559405" lat="43.379716"><ele>85.75</ele></trkpt>
<trkpt lon="-4.560187" lat="43.379665"><ele>89.0</ele></trkpt>
<trkpt lon="-4.560496" lat="43.379607"><ele>91.25</ele></trkpt>
<trkpt lon="-4.560648" lat="43.379514"><ele>93.0</ele></trkpt>
<trkpt lon="-4.560818" lat="43.379391"><ele>94.5</ele></trkpt>
<trkpt lon="-4.561085" lat="43.379218"><ele>96.25</ele></trkpt>
<trkpt lon="-4.561712" lat="43.378863"><ele>101.0</ele></trkpt>
<trkpt lon="-4.561812" lat="43.378785"><ele>101.75</ele></trkpt>
<trkpt lon="-4.561904" lat="43.378687"><ele>103.0</ele></trkpt>
<trkpt lon="-4.562137" lat="43.378207"><ele>108.0</ele></trkpt>
<trkpt lon="-4.562225" lat="43.377585"><ele>113.0</ele></trkpt>
<trkpt lon="-4.562293" lat="43.377497"><ele>114.0</ele></trkpt>
<trkpt lon="-4.562385" lat="43.377431"><ele>114.75</ele></trkpt>
<trkpt lon="-4.562590" lat="43.377351"><ele>116.25</ele></trkpt>
<trkpt lon="-4.562767" lat="43.377283"><ele>117.5</ele></trkpt>
<trkpt lon="-4.562913" lat="43.377311"><ele>117.0</ele></trkpt>
<trkpt lon="-4.563101" lat="43.377299"><ele>116.5</ele></trkpt>
<trkpt lon="-4.563254" lat="43.377258"><ele>116.0</ele></trkpt>
<trkpt lon="-4.563402" lat="43.377188"><ele>115.5</ele></trkpt>
<trkpt lon="-4.563605" lat="43.377067"><ele>114.5</ele></trkpt>
<trkpt lon="-4.563905" lat="43.376855"><ele>113.0</ele></trkpt>
<trkpt lon="-4.564048" lat="43.376776"><ele>112.75</ele></trkpt>
<trkpt lon="-4.564483" lat="43.376569"><ele>113.0</ele></trkpt>
<trkpt lon="-4.564655" lat="43.376501"><ele>112.75</ele></trkpt>
<trkpt lon="-4.565197" lat="43.376543"><ele>111.5</ele></trkpt>
<trkpt lon="-4.565361" lat="43.376563"><ele>111.25</ele></trkpt>
<trkpt lon="-4.565792" lat="43.376613"><ele>110.75</ele></trkpt>
<trkpt lon="-4.566622" lat="43.376663"><ele>109.75</ele></trkpt>
<trkpt lon="-4.567111" lat="43.376750"><ele>108.5</ele></trkpt>
<trkpt lon="-4.567332" lat="43.376799"><ele>108.0</ele></trkpt>
<trkpt lon="-4.567714" lat="43.376916"><ele>108.0</ele></trkpt>
<trkpt lon="-4.567879" lat="43.376959"><ele>108.0</ele></trkpt>
<trkpt lon="-4.567997" lat="43.376982"><ele>108.0</ele></trkpt>
<trkpt lon="-4.568298" lat="43.377015"><ele>107.75</ele></trkpt>
<trkpt lon="-4.568796" lat="43.377080"><ele>106.75</ele></trkpt>
<trkpt lon="-4.568964" lat="43.377115"><ele>106.0</ele></trkpt>
<trkpt lon="-4.569061" lat="43.377155"><ele>105.75</ele></trkpt>
<trkpt lon="-4.569232" lat="43.377257"><ele>105.75</ele></trkpt>
<trkpt lon="-4.569451" lat="43.377411"><ele>105.75</ele></trkpt>
<trkpt lon="-4.569734" lat="43.377583"><ele>104.75</ele></trkpt>
<trkpt lon="-4.569912" lat="43.377774"><ele>104.25</ele></trkpt>
<trkpt lon="-4.570250" lat="43.378163"><ele>104.75</ele></trkpt>
<trkpt lon="-4.570398" lat="43.378318"><ele>105.75</ele></trkpt>
<trkpt lon="-4.570664" lat="43.378571"><ele>108.0</ele></trkpt>
<trkpt lon="-4.570824" lat="43.378709"><ele>108.75</ele></trkpt>
<trkpt lon="-4.570903" lat="43.378763"><ele>109.0</ele></trkpt>
<trkpt lon="-4.571086" lat="43.378823"><ele>109.5</ele></trkpt>
<trkpt lon="-4.571432" lat="43.378913"><ele>111.5</ele></trkpt>
<trkpt lon="-4.571746" lat="43.378963"><ele>111.0</ele></trkpt>
<trkpt lon="-4.572020" lat="43.378989"><ele>111.75</ele></trkpt>
<trkpt lon="-4.572293" lat="43.379023"><ele>112.0</ele></trkpt>
<trkpt lon="-4.572439" lat="43.379025"><ele>112.0</ele></trkpt>
<trkpt lon="-4.572535" lat="43.379037"><ele>112.0</ele></trkpt>
<trkpt lon="-4.572724" lat="43.379075"><ele>112.25</ele></trkpt>
<trkpt lon="-4.572985" lat="43.379139"><ele>112.5</ele></trkpt>
<trkpt lon="-4.573679" lat="43.379290"><ele>109.25</ele></trkpt>
<trkpt lon="-4.573819" lat="43.379329"><ele>109.25</ele></trkpt>
<trkpt lon="-4.574071" lat="43.379441"><ele>110.75</ele></trkpt>
<trkpt lon="-4.574348" lat="43.379541"><ele>109.25</ele></trkpt>
<trkpt lon="-4.574608" lat="43.379679"><ele>108.5</ele></trkpt>
<trkpt lon="-4.575002" lat="43.379857"><ele>108.0</ele></trkpt>
<trkpt lon="-4.575316" lat="43.379974"><ele>107.0</ele></trkpt>
<trkpt lon="-4.575573" lat="43.380003"><ele>106.75</ele></trkpt>
<trkpt lon="-4.576348" lat="43.380049"><ele>102.5</ele></trkpt>
<trkpt lon="-4.576808" lat="43.380085"><ele>101.75</ele></trkpt>
<trkpt lon="-4.576946" lat="43.380112"><ele>101.5</ele></trkpt>
<trkpt lon="-4.577233" lat="43.380181"><ele>99.75</ele></trkpt>
<trkpt lon="-4.577351" lat="43.380222"><ele>98.75</ele></trkpt>
<trkpt lon="-4.577442" lat="43.380292"><ele>98.25</ele></trkpt>
<trkpt lon="-4.577526" lat="43.380407"><ele>96.25</ele></trkpt>
<trkpt lon="-4.577597" lat="43.380559"><ele>94.25</ele></trkpt>
<trkpt lon="-4.577690" lat="43.380721"><ele>92.25</ele></trkpt>
<trkpt lon="-4.577788" lat="43.380836"><ele>90.75</ele></trkpt>
<trkpt lon="-4.577908" lat="43.380924"><ele>88.25</ele></trkpt>
<trkpt lon="-4.578542" lat="43.381295"><ele>79.5</ele></trkpt>
<trkpt lon="-4.578902" lat="43.381510"><ele>74.75</ele></trkpt>
<trkpt lon="-4.579008" lat="43.381563"><ele>73.25</ele></trkpt>
<trkpt lon="-4.579184" lat="43.381632"><ele>72.25</ele></trkpt>
<trkpt lon="-4.579324" lat="43.381721"><ele>70.25</ele></trkpt>
<trkpt lon="-4.579467" lat="43.381823"><ele>67.25</ele></trkpt>
<trkpt lon="-4.579497" lat="43.381869"><ele>66.25</ele></trkpt>
<trkpt lon="-4.579518" lat="43.381949"><ele>65.5</ele></trkpt>
<trkpt lon="-4.579515" lat="43.382025"><ele>65.0</ele></trkpt>
<trkpt lon="-4.579561" lat="43.382212"><ele>63.25</ele></trkpt>
<trkpt lon="-4.579544" lat="43.382266"><ele>63.0</ele></trkpt>
<trkpt lon="-4.579510" lat="43.382299"><ele>62.75</ele></trkpt>
<trkpt lon="-4.579329" lat="43.382395"><ele>61.25</ele></trkpt>
<trkpt lon="-4.579109" lat="43.382606"><ele>57.5</ele></trkpt>
<trkpt lon="-4.579136" lat="43.382650"><ele>56.5</ele></trkpt>
<trkpt lon="-4.579200" lat="43.382713"><ele>55.5</ele></trkpt>
<trkpt lon="-4.579400" lat="43.382771"><ele>55.0</ele></trkpt>
<trkpt lon="-4.579694" lat="43.382804"><ele>55.25</ele></trkpt>
<trkpt lon="-4.580172" lat="43.382913"><ele>52.5</ele></trkpt>
<trkpt lon="-4.580436" lat="43.382984"><ele>48.25</ele></trkpt>
<trkpt lon="-4.580642" lat="43.383105"><ele>42.75</ele></trkpt>
<trkpt lon="-4.580555" lat="43.383254"><ele>41.75</ele></trkpt>
<trkpt lon="-4.580480" lat="43.383358"><ele>41.75</ele></trkpt>
<trkpt lon="-4.580332" lat="43.383402"><ele>43.0</ele></trkpt>
<trkpt lon="-4.580142" lat="43.383398"><ele>44.0</ele></trkpt>
<trkpt lon="-4.579713" lat="43.383328"><ele>44.0</ele></trkpt>
<trkpt lon="-4.579511" lat="43.383340"><ele>45.5</ele></trkpt>
<trkpt lon="-4.579105" lat="43.383420"><ele>47.75</ele></trkpt>
<trkpt lon="-4.578634" lat="43.383467"><ele>46.5</ele></trkpt>
<trkpt lon="-4.578125" lat="43.383555"><ele>46.5</ele></trkpt>
<trkpt lon="-4.577997" lat="43.383591"><ele>47.0</ele></trkpt>
<trkpt lon="-4.577829" lat="43.383652"><ele>47.75</ele></trkpt>
<trkpt lon="-4.577228" lat="43.383838"><ele>46.25</ele></trkpt>
<trkpt lon="-4.577064" lat="43.383929"><ele>45.25</ele></trkpt>
<trkpt lon="-4.576940" lat="43.384023"><ele>45.5</ele></trkpt>
<trkpt lon="-4.576768" lat="43.384123"><ele>45.75</ele></trkpt>
<trkpt lon="-4.576475" lat="43.384200"><ele>46.25</ele></trkpt>
<trkpt lon="-4.576344" lat="43.384226"><ele>46.75</ele></trkpt>
<trkpt lon="-4.576250" lat="43.384273"><ele>46.5</ele></trkpt>
<trkpt lon="-4.576084" lat="43.384389"><ele>45.75</ele></trkpt>
<trkpt lon="-4.575913" lat="43.384541"><ele>46.0</ele></trkpt>
<trkpt lon="-4.575835" lat="43.384583"><ele>45.75</ele></trkpt>
<trkpt lon="-4.575669" lat="43.384624"><ele>45.0</ele></trkpt>
<trkpt lon="-4.575561" lat="43.384663"><ele>43.5</ele></trkpt>
<trkpt lon="-4.575414" lat="43.384705"><ele>41.75</ele></trkpt>
<trkpt lon="-4.575265" lat="43.384735"><ele>40.75</ele></trkpt>
<trkpt lon="-4.575092" lat="43.384683"><ele>41.25</ele></trkpt>
<trkpt lon="-4.574875" lat="43.384654"><ele>41.75</ele></trkpt>
<trkpt lon="-4.574536" lat="43.384645"><ele>42.25</ele></trkpt>
<trkpt lon="-4.574378" lat="43.384664"><ele>41.75</ele></trkpt>
<trkpt lon="-4.574260" lat="43.384685"><ele>41.25</ele></trkpt>
<trkpt lon="-4.574166" lat="43.384716"><ele>40.25</ele></trkpt>
<trkpt lon="-4.574089" lat="43.384769"><ele>40.0</ele></trkpt>
<trkpt lon="-4.574036" lat="43.384851"><ele>40.0</ele></trkpt>
<trkpt lon="-4.573941" lat="43.385106"><ele>38.75</ele></trkpt>
<trkpt lon="-4.573902" lat="43.385240"><ele>38.0</ele></trkpt>
<trkpt lon="-4.573935" lat="43.385304"><ele>37.75</ele></trkpt>
<trkpt lon="-4.573980" lat="43.385344"><ele>37.5</ele></trkpt>
<trkpt lon="-4.574063" lat="43.385413"><ele>37.25</ele></trkpt>
<trkpt lon="-4.574159" lat="43.385516"><ele>37.0</ele></trkpt>
<trkpt lon="-4.574240" lat="43.385649"><ele>36.75</ele></trkpt>
<trkpt lon="-4.574287" lat="43.385772"><ele>36.75</ele></trkpt>
<trkpt lon="-4.574266" lat="43.385866"><ele>37.0</ele></trkpt>
<trkpt lon="-4.574460" lat="43.385901"><ele>37.0</ele></trkpt>
<trkpt lon="-4.574963" lat="43.385972"><ele>36.5</ele></trkpt>
<trkpt lon="-4.575500" lat="43.386015"><ele>35.25</ele></trkpt>
<trkpt lon="-4.575662" lat="43.386054"><ele>35.5</ele></trkpt>
<trkpt lon="-4.575877" lat="43.386168"><ele>36.0</ele></trkpt>
<trkpt lon="-4.576934" lat="43.386864"><ele>40.75</ele></trkpt>
<trkpt lon="-4.577065" lat="43.386905"><ele>40.0</ele></trkpt>
<trkpt lon="-4.577342" lat="43.386975"><ele>38.0</ele></trkpt>
<trkpt lon="-4.577636" lat="43.387030"><ele>37.25</ele></trkpt>
<trkpt lon="-4.577978" lat="43.387058"><ele>35.75</ele></trkpt>
<trkpt lon="-4.578241" lat="43.387059"><ele>33.25</ele></trkpt>
<trkpt lon="-4.578541" lat="43.387047"><ele>31.5</ele></trkpt>
<trkpt lon="-4.579046" lat="43.387060"><ele>30.0</ele></trkpt>
<trkpt lon="-4.579319" lat="43.387085"><ele>31.25</ele></trkpt>
<trkpt lon="-4.579520" lat="43.387159"><ele>32.25</ele></trkpt>
<trkpt lon="-4.579751" lat="43.387267"><ele>32.5</ele></trkpt>
<trkpt lon="-4.580294" lat="43.387598"><ele>34.5</ele></trkpt>
<trkpt lon="-4.580537" lat="43.387731"><ele>37.0</ele></trkpt>
<trkpt lon="-4.580634" lat="43.387775"><ele>37.25</ele></trkpt>
<trkpt lon="-4.580808" lat="43.387805"><ele>37.5</ele></trkpt>
<trkpt lon="-4.582958" lat="43.388222"><ele>35.75</ele></trkpt>
<trkpt lon="-4.583407" lat="43.388284"><ele>35.25</ele></trkpt>
<trkpt lon="-4.583562" lat="43.388296"><ele>35.0</ele></trkpt>
<trkpt lon="-4.583782" lat="43.388339"><ele>33.0</ele></trkpt>
<trkpt lon="-4.584074" lat="43.388405"><ele>30.0</ele></trkpt>
<trkpt lon="-4.585428" lat="43.388739"><ele>16.5</ele></trkpt>
<trkpt lon="-4.585854" lat="43.388849"><ele>13.5</ele></trkpt>
<trkpt lon="-4.586235" lat="43.388955"><ele>9.25</ele></trkpt>
<trkpt lon="-4.586382" lat="43.388980"><ele>8.0</ele></trkpt>
<trkpt lon="-4.586402" lat="43.389046"><ele>6.5</ele></trkpt>
<trkpt lon="-4.586460" lat="43.389254"><ele>5.25</ele></trkpt>
<trkpt lon="-4.586599" lat="43.389602"><ele>11.5</ele></trkpt>
<trkpt lon="-4.586625" lat="43.389644"><ele>12.25</ele></trkpt>
<trkpt lon="-4.586670" lat="43.389674"><ele>12.75</ele></trkpt>
<trkpt lon="-4.586720" lat="43.389687"><ele>13.75</ele></trkpt>
<trkpt lon="-4.586777" lat="43.389693"><ele>14.75</ele></trkpt>
<trkpt lon="-4.586976" lat="43.389694"><ele>17.5</ele></trkpt>
<trkpt lon="-4.587042" lat="43.389716"><ele>19.5</ele></trkpt>
<trkpt lon="-4.587085" lat="43.389757"><ele>21.25</ele></trkpt>
<trkpt lon="-4.587102" lat="43.389805"><ele>23.0</ele></trkpt>
<trkpt lon="-4.587100" lat="43.389908"><ele>25.75</ele></trkpt>
<trkpt lon="-4.587026" lat="43.390231"><ele>29.0</ele></trkpt>
<trkpt lon="-4.586980" lat="43.390511"><ele>31.5</ele></trkpt>
<trkpt lon="-4.586965" lat="43.390807"><ele>36.5</ele></trkpt>
<trkpt lon="-4.586907" lat="43.390974"><ele>38.0</ele></trkpt>
<trkpt lon="-4.586955" lat="43.391224"><ele>40.25</ele></trkpt>
<trkpt lon="-4.587034" lat="43.391410"><ele>41.0</ele></trkpt>
<trkpt lon="-4.587148" lat="43.391550"><ele>42.5</ele></trkpt>
<trkpt lon="-4.587334" lat="43.391721"><ele>43.25</ele></trkpt>
<trkpt lon="-4.587434" lat="43.391843"><ele>44.25</ele></trkpt>
<trkpt lon="-4.587493" lat="43.391979"><ele>45.75</ele></trkpt>
<trkpt lon="-4.587523" lat="43.392082"><ele>45.75</ele></trkpt>
<trkpt lon="-4.587605" lat="43.392249"><ele>44.75</ele></trkpt>
<trkpt lon="-4.587621" lat="43.392366"><ele>45.75</ele></trkpt>
<trkpt lon="-4.587675" lat="43.392531"><ele>47.75</ele></trkpt>
<trkpt lon="-4.587710" lat="43.392600"><ele>48.25</ele></trkpt>
<trkpt lon="-4.587763" lat="43.392762"><ele>50.5</ele></trkpt>
<trkpt lon="-4.587752" lat="43.392861"><ele>52.75</ele></trkpt>
<trkpt lon="-4.587736" lat="43.392962"><ele>55.0</ele></trkpt>
<trkpt lon="-4.587600" lat="43.393103"><ele>54.75</ele></trkpt>
<trkpt lon="-4.587475" lat="43.393211"><ele>53.75</ele></trkpt>
<trkpt lon="-4.587485" lat="43.393611"><ele>56.75</ele></trkpt>
<trkpt lon="-4.587465" lat="43.393717"><ele>56.25</ele></trkpt>
<trkpt lon="-4.587542" lat="43.393850"><ele>56.75</ele></trkpt>
<trkpt lon="-4.587765" lat="43.393994"><ele>57.0</ele></trkpt>
<trkpt lon="-4.588093" lat="43.394159"><ele>52.5</ele></trkpt>
<trkpt lon="-4.588339" lat="43.394250"><ele>52.5</ele></trkpt>
<trkpt lon="-4.588483" lat="43.394283"><ele>51.5</ele></trkpt>
<trkpt lon="-4.588485" lat="43.394350"><ele>49.75</ele></trkpt>
<trkpt lon="-4.588440" lat="43.394358"><ele>49.5</ele></trkpt>
<trkpt lon="-4.589134" lat="43.394656"><ele>47.25</ele></trkpt>
<trkpt lon="-4.589470" lat="43.394798"><ele>47.5</ele></trkpt>
<trkpt lon="-4.589640" lat="43.394842"><ele>48.0</ele></trkpt>
<trkpt lon="-4.589720" lat="43.394863"><ele>48.25</ele></trkpt>
<trkpt lon="-4.590082" lat="43.394927"><ele>48.25</ele></trkpt>
<trkpt lon="-4.590076" lat="43.395017"><ele>46.75</ele></trkpt>
<trkpt lon="-4.590327" lat="43.395048"><ele>46.25</ele></trkpt>
<trkpt lon="-4.590307" lat="43.395150"><ele>45.25</ele></trkpt>
<trkpt lon="-4.590206" lat="43.395253"><ele>44.5</ele></trkpt>
<trkpt lon="-4.590115" lat="43.395397"><ele>42.5</ele></trkpt>
<trkpt lon="-4.590031" lat="43.395452"><ele>42.0</ele></trkpt>
<trkpt lon="-4.590170" lat="43.395671"><ele>38.25</ele></trkpt>
<trkpt lon="-4.590183" lat="43.395971"><ele>36.5</ele></trkpt>
<trkpt lon="-4.590216" lat="43.396162"><ele>35.75</ele></trkpt>
<trkpt lon="-4.590307" lat="43.396400"><ele>36.75</ele></trkpt>
<trkpt lon="-4.590313" lat="43.396460"><ele>36.0</ele></trkpt>
<trkpt lon="-4.590491" lat="43.396512"><ele>34.75</ele></trkpt>
<trkpt lon="-4.590627" lat="43.396495"><ele>35.25</ele></trkpt>
<trkpt lon="-4.590770" lat="43.396456"><ele>36.0</ele></trkpt>
<trkpt lon="-4.590985" lat="43.396517"><ele>36.5</ele></trkpt>
<trkpt lon="-4.591129" lat="43.396524"><ele>36.25</ele></trkpt>
<trkpt lon="-4.591563" lat="43.396535"><ele>34.25</ele></trkpt>
<trkpt lon="-4.591693" lat="43.396543"><ele>33.5</ele></trkpt>
<trkpt lon="-4.591849" lat="43.396543"><ele>31.0</ele></trkpt>
<trkpt lon="-4.591940" lat="43.396526"><ele>30.0</ele></trkpt>
<trkpt lon="-4.592159" lat="43.396469"><ele>33.0</ele></trkpt>
<trkpt lon="-4.592312" lat="43.396463"><ele>34.0</ele></trkpt>
<trkpt lon="-4.592368" lat="43.396525"><ele>32.75</ele></trkpt>
<trkpt lon="-4.592485" lat="43.396611"><ele>32.5</ele></trkpt>
<trkpt lon="-4.592774" lat="43.396634"><ele>33.0</ele></trkpt>
<trkpt lon="-4.592950" lat="43.396617"><ele>32.0</ele></trkpt>
<trkpt lon="-4.593036" lat="43.396622"><ele>31.75</ele></trkpt>
<trkpt lon="-4.593084" lat="43.396636"><ele>31.25</ele></trkpt>
<trkpt lon="-4.593191" lat="43.396667"><ele>30.0</ele></trkpt>
<trkpt lon="-4.593249" lat="43.396705"><ele>25.75</ele></trkpt>
<trkpt lon="-4.593423" lat="43.396780"><ele>20.5</ele></trkpt>
<trkpt lon="-4.594103" lat="43.396925"><ele>32.5</ele></trkpt>
<trkpt lon="-4.594283" lat="43.396921"><ele>32.0</ele></trkpt>
<trkpt lon="-4.594624" lat="43.396935"><ele>31.25</ele></trkpt>
<trkpt lon="-4.594787" lat="43.396932"><ele>30.5</ele></trkpt>
<trkpt lon="-4.594902" lat="43.396929"><ele>30.25</ele></trkpt>
<trkpt lon="-4.594946" lat="43.396876"><ele>29.75</ele></trkpt>
<trkpt lon="-4.595040" lat="43.396745"><ele>28.5</ele></trkpt>
<trkpt lon="-4.595102" lat="43.396640"><ele>28.5</ele></trkpt>
<trkpt lon="-4.595219" lat="43.396583"><ele>28.5</ele></trkpt>
<trkpt lon="-4.595286" lat="43.396616"><ele>27.5</ele></trkpt>
<trkpt lon="-4.595776" lat="43.396607"><ele>26.75</ele></trkpt>
<trkpt lon="-4.596087" lat="43.396555"><ele>23.25</ele></trkpt>
<trkpt lon="-4.596343" lat="43.396555"><ele>24.5</ele></trkpt>
<trkpt lon="-4.596495" lat="43.396595"><ele>24.75</ele></trkpt>
<trkpt lon="-4.596741" lat="43.396694"><ele>23.75</ele></trkpt>
<trkpt lon="-4.597057" lat="43.396706"><ele>23.25</ele></trkpt>
<trkpt lon="-4.597465" lat="43.396607"><ele>22.75</ele></trkpt>
<trkpt lon="-4.597678" lat="43.396547"><ele>22.75</ele></trkpt>
<trkpt lon="-4.597808" lat="43.396579"><ele>21.5</ele></trkpt>
<trkpt lon="-4.597896" lat="43.396571"><ele>22.0</ele></trkpt>
<trkpt lon="-4.598108" lat="43.396605"><ele>22.25</ele></trkpt>
<trkpt lon="-4.598255" lat="43.396546"><ele>22.5</ele></trkpt>
<trkpt lon="-4.598501" lat="43.396470"><ele>22.25</ele></trkpt>
<trkpt lon="-4.598826" lat="43.396515"><ele>22.25</ele></trkpt>
<trkpt lon="-4.599019" lat="43.396483"><ele>22.5</ele></trkpt>
<trkpt lon="-4.599443" lat="43.396398"><ele>22.5</ele></trkpt>
<trkpt lon="-4.599485" lat="43.396338"><ele>22.75</ele></trkpt>
<trkpt lon="-4.599479" lat="43.396243"><ele>22.75</ele></trkpt>
<trkpt lon="-4.599593" lat="43.396138"><ele>21.75</ele></trkpt>
<trkpt lon="-4.599666" lat="43.396021"><ele>21.0</ele></trkpt>
<trkpt lon="-4.599891" lat="43.395946"><ele>20.5</ele></trkpt>
<trkpt lon="-4.599984" lat="43.395892"><ele>21.0</ele></trkpt>
<trkpt lon="-4.600429" lat="43.395985"><ele>21.5</ele></trkpt>
<trkpt lon="-4.600568" lat="43.395982"><ele>21.5</ele></trkpt>
<trkpt lon="-4.600817" lat="43.395911"><ele>20.25</ele></trkpt>
<trkpt lon="-4.601013" lat="43.395918"><ele>20.0</ele></trkpt>
<trkpt lon="-4.601237" lat="43.395882"><ele>20.5</ele></trkpt>
<trkpt lon="-4.601271" lat="43.395907"><ele>20.5</ele></trkpt>
<trkpt lon="-4.601283" lat="43.396021"><ele>19.75</ele></trkpt>
<trkpt lon="-4.601296" lat="43.396039"><ele>19.75</ele></trkpt>
<trkpt lon="-4.601499" lat="43.396180"><ele>18.75</ele></trkpt>
<trkpt lon="-4.601584" lat="43.396267"><ele>18.0</ele></trkpt>
<trkpt lon="-4.601786" lat="43.396375"><ele>18.0</ele></trkpt>
<trkpt lon="-4.602002" lat="43.396425"><ele>19.5</ele></trkpt>
<trkpt lon="-4.602152" lat="43.396439"><ele>20.25</ele></trkpt>
<trkpt lon="-4.602299" lat="43.396415"><ele>19.75</ele></trkpt>
<trkpt lon="-4.602386" lat="43.396367"><ele>19.25</ele></trkpt>
<trkpt lon="-4.602485" lat="43.396342"><ele>18.5</ele></trkpt>
<trkpt lon="-4.602570" lat="43.396365"><ele>17.25</ele></trkpt>
<trkpt lon="-4.602701" lat="43.396429"><ele>15.75</ele></trkpt>
<trkpt lon="-4.602731" lat="43.396481"><ele>16.25</ele></trkpt>
<trkpt lon="-4.602750" lat="43.396542"><ele>17.0</ele></trkpt>
<trkpt lon="-4.602803" lat="43.396571"><ele>18.25</ele></trkpt>
<trkpt lon="-4.602853" lat="43.396577"><ele>18.5</ele></trkpt>
<trkpt lon="-4.602911" lat="43.396571"><ele>18.5</ele></trkpt>
<trkpt lon="-4.602984" lat="43.396554"><ele>18.5</ele></trkpt>
<trkpt lon="-4.603079" lat="43.396577"><ele>18.75</ele></trkpt>
<trkpt lon="-4.603230" lat="43.396594"><ele>17.0</ele></trkpt>
<trkpt lon="-4.603338" lat="43.396584"><ele>16.25</ele></trkpt>
<trkpt lon="-4.603548" lat="43.396616"><ele>17.75</ele></trkpt>
<trkpt lon="-4.603803" lat="43.396628"><ele>19.5</ele></trkpt>
<trkpt lon="-4.603952" lat="43.396613"><ele>19.75</ele></trkpt>
<trkpt lon="-4.604079" lat="43.396574"><ele>19.5</ele></trkpt>
<trkpt lon="-4.604279" lat="43.396577"><ele>18.5</ele></trkpt>
<trkpt lon="-4.604723" lat="43.396564"><ele>16.25</ele></trkpt>
<trkpt lon="-4.604813" lat="43.396539"><ele>16.75</ele></trkpt>
<trkpt lon="-4.604877" lat="43.396499"><ele>17.25</ele></trkpt>
<trkpt lon="-4.604914" lat="43.396404"><ele>18.0</ele></trkpt>
<trkpt lon="-4.604911" lat="43.396293"><ele>18.0</ele></trkpt>
<trkpt lon="-4.604948" lat="43.396201"><ele>18.25</ele></trkpt>
<trkpt lon="-4.605176" lat="43.396105"><ele>18.25</ele></trkpt>
<trkpt lon="-4.605240" lat="43.396058"><ele>18.5</ele></trkpt>
<trkpt lon="-4.605305" lat="43.395987"><ele>18.5</ele></trkpt>
<trkpt lon="-4.605406" lat="43.395959"><ele>16.0</ele></trkpt>
<trkpt lon="-4.605528" lat="43.395887"><ele>15.25</ele></trkpt>
<trkpt lon="-4.605606" lat="43.395759"><ele>15.25</ele></trkpt>
<trkpt lon="-4.605610" lat="43.395709"><ele>15.25</ele></trkpt>
<trkpt lon="-4.605638" lat="43.395690"><ele>14.75</ele></trkpt>
<trkpt lon="-4.605661" lat="43.395692"><ele>14.25</ele></trkpt>
<trkpt lon="-4.605732" lat="43.395750"><ele>13.0</ele></trkpt>
<trkpt lon="-4.605916" lat="43.395784"><ele>13.5</ele></trkpt>
<trkpt lon="-4.606082" lat="43.395899"><ele>14.5</ele></trkpt>
<trkpt lon="-4.606303" lat="43.396008"><ele>15.5</ele></trkpt>
<trkpt lon="-4.606454" lat="43.396163"><ele>15.75</ele></trkpt>
<trkpt lon="-4.606659" lat="43.396358"><ele>18.75</ele></trkpt>
<trkpt lon="-4.606710" lat="43.396462"><ele>19.25</ele></trkpt>
<trkpt lon="-4.606742" lat="43.396549"><ele>19.0</ele></trkpt>
<trkpt lon="-4.606712" lat="43.396646"><ele>18.25</ele></trkpt>
<trkpt lon="-4.606724" lat="43.396684"><ele>17.5</ele></trkpt>
<trkpt lon="-4.606772" lat="43.396706"><ele>17.0</ele></trkpt>
<trkpt lon="-4.606813" lat="43.396716"><ele>16.75</ele></trkpt>
<trkpt lon="-4.606914" lat="43.396716"><ele>17.5</ele></trkpt>
<trkpt lon="-4.607027" lat="43.396696"><ele>17.75</ele></trkpt>
<trkpt lon="-4.607255" lat="43.396546"><ele>18.75</ele></trkpt>
<trkpt lon="-4.607494" lat="43.396330"><ele>17.5</ele></trkpt>
<trkpt lon="-4.607653" lat="43.396252"><ele>16.0</ele></trkpt>
<trkpt lon="-4.607899" lat="43.396268"><ele>16.25</ele></trkpt>
<trkpt lon="-4.608062" lat="43.396305"><ele>19.0</ele></trkpt>
<trkpt lon="-4.608120" lat="43.396345"><ele>20.25</ele></trkpt>
<trkpt lon="-4.608246" lat="43.396417"><ele>22.25</ele></trkpt>
<trkpt lon="-4.608437" lat="43.396490"><ele>23.0</ele></trkpt>
<trkpt lon="-4.608838" lat="43.396600"><ele>24.5</ele></trkpt>
<trkpt lon="-4.609075" lat="43.396699"><ele>24.25</ele></trkpt>
<trkpt lon="-4.609354" lat="43.396778"><ele>24.0</ele></trkpt>
<trkpt lon="-4.609603" lat="43.396789"><ele>22.25</ele></trkpt>
<trkpt lon="-4.609639" lat="43.396790"><ele>21.75</ele></trkpt>
<trkpt lon="-4.609906" lat="43.396910"><ele>11.25</ele></trkpt>
<trkpt lon="-4.610271" lat="43.396894"><ele>13.75</ele></trkpt>
<trkpt lon="-4.610315" lat="43.396868"><ele>15.0</ele></trkpt>
<trkpt lon="-4.610475" lat="43.396858"><ele>18.75</ele></trkpt>
<trkpt lon="-4.610651" lat="43.396890"><ele>21.75</ele></trkpt>
<trkpt lon="-4.610851" lat="43.396851"><ele>23.75</ele></trkpt>
<trkpt lon="-4.611359" lat="43.396873"><ele>19.0</ele></trkpt>
<trkpt lon="-4.611689" lat="43.396828"><ele>12.0</ele></trkpt>
<trkpt lon="-4.611966" lat="43.396815"><ele>10.0</ele></trkpt>
<trkpt lon="-4.612169" lat="43.396823"><ele>10.75</ele></trkpt>
<trkpt lon="-4.612362" lat="43.396743"><ele>11.5</ele></trkpt>
<trkpt lon="-4.612571" lat="43.396633"><ele>14.75</ele></trkpt>
<trkpt lon="-4.612655" lat="43.396592"><ele>16.0</ele></trkpt>
<trkpt lon="-4.612785" lat="43.396549"><ele>18.0</ele></trkpt>
<trkpt lon="-4.613071" lat="43.396472"><ele>16.75</ele></trkpt>
<trkpt lon="-4.613104" lat="43.396383"><ele>19.0</ele></trkpt>
<trkpt lon="-4.613173" lat="43.396347"><ele>19.0</ele></trkpt>
<trkpt lon="-4.613520" lat="43.396244"><ele>18.0</ele></trkpt>
<trkpt lon="-4.613706" lat="43.396141"><ele>17.0</ele></trkpt>
<trkpt lon="-4.613772" lat="43.396052"><ele>16.75</ele></trkpt>
<trkpt lon="-4.614112" lat="43.396000"><ele>15.75</ele></trkpt>
<trkpt lon="-4.614527" lat="43.395872"><ele>13.75</ele></trkpt>
<trkpt lon="-4.614751" lat="43.395790"><ele>14.25</ele></trkpt>
<trkpt lon="-4.615022" lat="43.395660"><ele>13.5</ele></trkpt>
<trkpt lon="-4.615282" lat="43.395519"><ele>12.0</ele></trkpt>
<trkpt lon="-4.615439" lat="43.395444"><ele>11.25</ele></trkpt>
<trkpt lon="-4.615589" lat="43.395422"><ele>10.5</ele></trkpt>
<trkpt lon="-4.615731" lat="43.395368"><ele>9.75</ele></trkpt>
<trkpt lon="-4.615861" lat="43.395295"><ele>9.0</ele></trkpt>
<trkpt lon="-4.616047" lat="43.395173"><ele>8.25</ele></trkpt>
<trkpt lon="-4.616142" lat="43.395156"><ele>8.25</ele></trkpt>
<trkpt lon="-4.616407" lat="43.395147"><ele>9.25</ele></trkpt>
<trkpt lon="-4.616557" lat="43.395143"><ele>10.25</ele></trkpt>
<trkpt lon="-4.616679" lat="43.395156"><ele>10.75</ele></trkpt>
<trkpt lon="-4.616936" lat="43.395147"><ele>13.75</ele></trkpt>
<trkpt lon="-4.616983" lat="43.395061"><ele>14.25</ele></trkpt>
<trkpt lon="-4.617094" lat="43.395001"><ele>15.0</ele></trkpt>
<trkpt lon="-4.617222" lat="43.394957"><ele>15.75</ele></trkpt>
<trkpt lon="-4.617346" lat="43.394924"><ele>15.75</ele></trkpt>
<trkpt lon="-4.617383" lat="43.394933"><ele>15.75</ele></trkpt>
<trkpt lon="-4.617456" lat="43.394939"><ele>16.0</ele></trkpt>
<trkpt lon="-4.617554" lat="43.394940"><ele>16.0</ele></trkpt>
<trkpt lon="-4.617785" lat="43.394923"><ele>15.75</ele></trkpt>
<trkpt lon="-4.617909" lat="43.394924"><ele>15.5</ele></trkpt>
<trkpt lon="-4.618225" lat="43.394942"><ele>14.25</ele></trkpt>
<trkpt lon="-4.618365" lat="43.394957"><ele>12.75</ele></trkpt>
<trkpt lon="-4.618687" lat="43.395055"><ele>9.25</ele></trkpt>
<trkpt lon="-4.619072" lat="43.395089"><ele>5.5</ele></trkpt>
<trkpt lon="-4.619170" lat="43.395091"><ele>4.5</ele></trkpt>
<trkpt lon="-4.619399" lat="43.395124"><ele>4.5</ele></trkpt>
<trkpt lon="-4.619579" lat="43.395168"><ele>3.75</ele></trkpt>
<trkpt lon="-4.619660" lat="43.395226"><ele>3.75</ele></trkpt>
<trkpt lon="-4.619728" lat="43.395310"><ele>3.75</ele></trkpt>
<trkpt lon="-4.619780" lat="43.395432"><ele>4.25</ele></trkpt>
<trkpt lon="-4.619802" lat="43.395511"><ele>4.25</ele></trkpt>
<trkpt lon="-4.619806" lat="43.395615"><ele>5.0</ele></trkpt>
<trkpt lon="-4.619765" lat="43.395703"><ele>6.25</ele></trkpt>
<trkpt lon="-4.619719" lat="43.395767"><ele>7.5</ele></trkpt>
<trkpt lon="-4.619634" lat="43.395804"><ele>8.0</ele></trkpt>
<trkpt lon="-4.619553" lat="43.395860"><ele>8.5</ele></trkpt>
<trkpt lon="-4.619512" lat="43.395923"><ele>9.0</ele></trkpt>
<trkpt lon="-4.619489" lat="43.396080"><ele>10.25</ele></trkpt>
<trkpt lon="-4.619443" lat="43.396229"><ele>10.25</ele></trkpt>
<trkpt lon="-4.619410" lat="43.396303"><ele>10.25</ele></trkpt>
<trkpt lon="-4.619398" lat="43.396413"><ele>10.5</ele></trkpt>
<trkpt lon="-4.619371" lat="43.396502"><ele>11.5</ele></trkpt>
<trkpt lon="-4.619317" lat="43.396633"><ele>13.75</ele></trkpt>
<trkpt lon="-4.619282" lat="43.396775"><ele>14.5</ele></trkpt>
<trkpt lon="-4.619158" lat="43.396941"><ele>16.0</ele></trkpt>
<trkpt lon="-4.619121" lat="43.397001"><ele>16.25</ele></trkpt>
<trkpt lon="-4.619113" lat="43.397063"><ele>16.5</ele></trkpt>
<trkpt lon="-4.619128" lat="43.397131"><ele>16.75</ele></trkpt>
<trkpt lon="-4.619172" lat="43.397210"><ele>16.75</ele></trkpt>
<trkpt lon="-4.619206" lat="43.397233"><ele>17.0</ele></trkpt>
<trkpt lon="-4.619295" lat="43.397260"><ele>17.75</ele></trkpt>
<trkpt lon="-4.619390" lat="43.397266"><ele>18.0</ele></trkpt>
<trkpt lon="-4.619899" lat="43.397255"><ele>21.75</ele></trkpt>
<trkpt lon="-4.619986" lat="43.397238"><ele>22.75</ele></trkpt>
<trkpt lon="-4.620102" lat="43.397240"><ele>22.75</ele></trkpt>
<trkpt lon="-4.620285" lat="43.397278"><ele>22.75</ele></trkpt>
<trkpt lon="-4.620413" lat="43.397271"><ele>23.0</ele></trkpt>
<trkpt lon="-4.620725" lat="43.397225"><ele>23.0</ele></trkpt>
<trkpt lon="-4.620842" lat="43.397211"><ele>22.75</ele></trkpt>
<trkpt lon="-4.620996" lat="43.397203"><ele>22.75</ele></trkpt>
<trkpt lon="-4.621415" lat="43.397148"><ele>23.0</ele></trkpt>
<trkpt lon="-4.621542" lat="43.397105"><ele>23.25</ele></trkpt>
<trkpt lon="-4.621622" lat="43.397058"><ele>23.25</ele></trkpt>
<trkpt lon="-4.621705" lat="43.396980"><ele>23.0</ele></trkpt>
<trkpt lon="-4.621787" lat="43.396922"><ele>21.75</ele></trkpt>
<trkpt lon="-4.621906" lat="43.396854"><ele>20.25</ele></trkpt>
<trkpt lon="-4.622312" lat="43.396680"><ele>20.5</ele></trkpt>
<trkpt lon="-4.622435" lat="43.396621"><ele>19.0</ele></trkpt>
<trkpt lon="-4.622585" lat="43.396565"><ele>18.0</ele></trkpt>
<trkpt lon="-4.622673" lat="43.396564"><ele>18.0</ele></trkpt>
<trkpt lon="-4.622946" lat="43.396585"><ele>17.5</ele></trkpt>
<trkpt lon="-4.623062" lat="43.396550"><ele>16.75</ele></trkpt>
<trkpt lon="-4.623278" lat="43.396466"><ele>16.25</ele></trkpt>
<trkpt lon="-4.623416" lat="43.396452"><ele>16.75</ele></trkpt>
<trkpt lon="-4.623504" lat="43.396467"><ele>16.75</ele></trkpt>
<trkpt lon="-4.623790" lat="43.396571"><ele>17.0</ele></trkpt>
<trkpt lon="-4.624001" lat="43.396620"><ele>19.25</ele></trkpt>
<trkpt lon="-4.624243" lat="43.396631"><ele>21.0</ele></trkpt>
<trkpt lon="-4.624352" lat="43.396650"><ele>21.5</ele></trkpt>
<trkpt lon="-4.624472" lat="43.396720"><ele>22.0</ele></trkpt>
<trkpt lon="-4.624541" lat="43.396804"><ele>22.25</ele></trkpt>
<trkpt lon="-4.624562" lat="43.396879"><ele>23.0</ele></trkpt>
<trkpt lon="-4.624559" lat="43.396933"><ele>24.0</ele></trkpt>
<trkpt lon="-4.624541" lat="43.396993"><ele>24.25</ele></trkpt>
<trkpt lon="-4.624484" lat="43.397121"><ele>25.25</ele></trkpt>
<trkpt lon="-4.624471" lat="43.397177"><ele>25.5</ele></trkpt>
<trkpt lon="-4.624483" lat="43.397220"><ele>25.5</ele></trkpt>
<trkpt lon="-4.624511" lat="43.397262"><ele>25.25</ele></trkpt>
<trkpt lon="-4.624569" lat="43.397301"><ele>24.5</ele></trkpt>
<trkpt lon="-4.624646" lat="43.397325"><ele>23.0</ele></trkpt>
<trkpt lon="-4.624798" lat="43.397345"><ele>21.0</ele></trkpt>
<trkpt lon="-4.624942" lat="43.397349"><ele>20.25</ele></trkpt>
<trkpt lon="-4.625064" lat="43.397330"><ele>20.0</ele></trkpt>
<trkpt lon="-4.625259" lat="43.397289"><ele>20.0</ele></trkpt>
<trkpt lon="-4.625834" lat="43.397260"><ele>22.5</ele></trkpt>
<trkpt lon="-4.626266" lat="43.397253"><ele>18.5</ele></trkpt>
<trkpt lon="-4.626449" lat="43.397225"><ele>18.5</ele></trkpt>
<trkpt lon="-4.626741" lat="43.397150"><ele>16.0</ele></trkpt>
<trkpt lon="-4.626822" lat="43.397145"><ele>15.0</ele></trkpt>
<trkpt lon="-4.627032" lat="43.397170"><ele>14.0</ele></trkpt>
<trkpt lon="-4.627242" lat="43.397184"><ele>16.25</ele></trkpt>
<trkpt lon="-4.627373" lat="43.397167"><ele>18.25</ele></trkpt>
<trkpt lon="-4.627719" lat="43.397092"><ele>20.25</ele></trkpt>
<trkpt lon="-4.627943" lat="43.397076"><ele>21.5</ele></trkpt>
<trkpt lon="-4.628221" lat="43.397076"><ele>22.5</ele></trkpt>
<trkpt lon="-4.628484" lat="43.397108"><ele>23.25</ele></trkpt>
<trkpt lon="-4.628690" lat="43.397141"><ele>23.75</ele></trkpt>
<trkpt lon="-4.628948" lat="43.397174"><ele>24.5</ele></trkpt>
<trkpt lon="-4.629065" lat="43.397203"><ele>25.25</ele></trkpt>
<trkpt lon="-4.629141" lat="43.397237"><ele>26.25</ele></trkpt>
<trkpt lon="-4.629282" lat="43.397161"><ele>26.25</ele></trkpt>
<trkpt lon="-4.629432" lat="43.397112"><ele>27.25</ele></trkpt>
<trkpt lon="-4.629880" lat="43.397054"><ele>28.25</ele></trkpt>
<trkpt lon="-4.629998" lat="43.397077"><ele>29.25</ele></trkpt>
<trkpt lon="-4.630212" lat="43.397173"><ele>30.5</ele></trkpt>
<trkpt lon="-4.630353" lat="43.397221"><ele>30.75</ele></trkpt>
<trkpt lon="-4.630534" lat="43.397253"><ele>31.75</ele></trkpt>
<trkpt lon="-4.630825" lat="43.397263"><ele>32.25</ele></trkpt>
<trkpt lon="-4.631166" lat="43.397343"><ele>32.5</ele></trkpt>
<trkpt lon="-4.631347" lat="43.397377"><ele>32.25</ele></trkpt>
<trkpt lon="-4.631495" lat="43.397383"><ele>32.0</ele></trkpt>
<trkpt lon="-4.631766" lat="43.397367"><ele>31.75</ele></trkpt>
<trkpt lon="-4.632143" lat="43.397398"><ele>32.75</ele></trkpt>
<trkpt lon="-4.632216" lat="43.397376"><ele>32.75</ele></trkpt>
<trkpt lon="-4.632270" lat="43.397335"><ele>33.5</ele></trkpt>
<trkpt lon="-4.632300" lat="43.397289"><ele>34.0</ele></trkpt>
<trkpt lon="-4.632329" lat="43.397153"><ele>33.75</ele></trkpt>
<trkpt lon="-4.632399" lat="43.397073"><ele>33.75</ele></trkpt>
<trkpt lon="-4.632531" lat="43.397006"><ele>34.25</ele></trkpt>
<trkpt lon="-4.632701" lat="43.396974"><ele>35.0</ele></trkpt>
<trkpt lon="-4.633043" lat="43.396943"><ele>36.75</ele></trkpt>
<trkpt lon="-4.633308" lat="43.396928"><ele>36.5</ele></trkpt>
<trkpt lon="-4.633698" lat="43.396920"><ele>38.0</ele></trkpt>
<trkpt lon="-4.633890" lat="43.396851"><ele>37.75</ele></trkpt>
<trkpt lon="-4.634148" lat="43.396748"><ele>37.25</ele></trkpt>
<trkpt lon="-4.634446" lat="43.396657"><ele>36.75</ele></trkpt>
<trkpt lon="-4.634522" lat="43.396645"><ele>37.0</ele></trkpt>
<trkpt lon="-4.635150" lat="43.396657"><ele>39.75</ele></trkpt>
<trkpt lon="-4.635404" lat="43.396668"><ele>40.25</ele></trkpt>
<trkpt lon="-4.635695" lat="43.396678"><ele>42.0</ele></trkpt>
<trkpt lon="-4.635841" lat="43.396667"><ele>43.0</ele></trkpt>
<trkpt lon="-4.636061" lat="43.396668"><ele>43.75</ele></trkpt>
<trkpt lon="-4.636246" lat="43.396649"><ele>44.5</ele></trkpt>
<trkpt lon="-4.636387" lat="43.396644"><ele>44.75</ele></trkpt>
<trkpt lon="-4.636483" lat="43.396672"><ele>45.0</ele></trkpt>
<trkpt lon="-4.636664" lat="43.396723"><ele>45.25</ele></trkpt>
<trkpt lon="-4.636825" lat="43.396752"><ele>45.0</ele></trkpt>
<trkpt lon="-4.637199" lat="43.396758"><ele>43.75</ele></trkpt>
<trkpt lon="-4.637522" lat="43.396735"><ele>43.25</ele></trkpt>
<trkpt lon="-4.637560" lat="43.396839"><ele>45.25</ele></trkpt>
<trkpt lon="-4.637574" lat="43.396926"><ele>46.75</ele></trkpt>
<trkpt lon="-4.637575" lat="43.396969"><ele>47.5</ele></trkpt>
<trkpt lon="-4.637604" lat="43.397038"><ele>48.25</ele></trkpt>
<trkpt lon="-4.637659" lat="43.397086"><ele>48.75</ele></trkpt>
<trkpt lon="-4.637781" lat="43.397149"><ele>49.25</ele></trkpt>
<trkpt lon="-4.637872" lat="43.397177"><ele>50.5</ele></trkpt>
<trkpt lon="-4.638129" lat="43.397292"><ele>54.5</ele></trkpt>
<trkpt lon="-4.638183" lat="43.397310"><ele>55.0</ele></trkpt>
<trkpt lon="-4.638285" lat="43.397314"><ele>55.0</ele></trkpt>
<trkpt lon="-4.638999" lat="43.397375"><ele>52.25</ele></trkpt>
<trkpt lon="-4.639066" lat="43.397391"><ele>52.0</ele></trkpt>
<trkpt lon="-4.639161" lat="43.397447"><ele>52.25</ele></trkpt>
<trkpt lon="-4.639328" lat="43.397526"><ele>52.0</ele></trkpt>
<trkpt lon="-4.639418" lat="43.397549"><ele>51.5</ele></trkpt>
<trkpt lon="-4.639470" lat="43.397554"><ele>51.5</ele></trkpt>
<trkpt lon="-4.639544" lat="43.397549"><ele>51.25</ele></trkpt>
<trkpt lon="-4.639920" lat="43.397463"><ele>51.25</ele></trkpt>
<trkpt lon="-4.639996" lat="43.397439"><ele>51.5</ele></trkpt>
<trkpt lon="-4.640094" lat="43.397398"><ele>51.5</ele></trkpt>
<trkpt lon="-4.640281" lat="43.397337"><ele>52.25</ele></trkpt>
<trkpt lon="-4.640525" lat="43.397226"><ele>53.75</ele></trkpt>
<trkpt lon="-4.640655" lat="43.397174"><ele>53.75</ele></trkpt>
<trkpt lon="-4.640729" lat="43.397155"><ele>53.5</ele></trkpt>
<trkpt lon="-4.640800" lat="43.397147"><ele>53.25</ele></trkpt>
<trkpt lon="-4.640875" lat="43.397150"><ele>53.25</ele></trkpt>
<trkpt lon="-4.641111" lat="43.397175"><ele>52.25</ele></trkpt>
<trkpt lon="-4.641358" lat="43.397218"><ele>52.75</ele></trkpt>
<trkpt lon="-4.641541" lat="43.397241"><ele>52.5</ele></trkpt>
<trkpt lon="-4.641631" lat="43.397245"><ele>52.25</ele></trkpt>
<trkpt lon="-4.641776" lat="43.397233"><ele>52.0</ele></trkpt>
<trkpt lon="-4.642236" lat="43.397179"><ele>51.25</ele></trkpt>
<trkpt lon="-4.642749" lat="43.397105"><ele>50.75</ele></trkpt>
<trkpt lon="-4.642949" lat="43.397098"><ele>50.0</ele></trkpt>
<trkpt lon="-4.643149" lat="43.397104"><ele>49.75</ele></trkpt>
<trkpt lon="-4.643346" lat="43.397157"><ele>50.75</ele></trkpt>
<trkpt lon="-4.643721" lat="43.397296"><ele>50.75</ele></trkpt>
<trkpt lon="-4.643927" lat="43.397361"><ele>50.25</ele></trkpt>
<trkpt lon="-4.644156" lat="43.397417"><ele>50.75</ele></trkpt>
<trkpt lon="-4.645002" lat="43.397580"><ele>48.75</ele></trkpt>
<trkpt lon="-4.645214" lat="43.397616"><ele>49.25</ele></trkpt>
<trkpt lon="-4.645630" lat="43.397664"><ele>50.0</ele></trkpt>
<trkpt lon="-4.645845" lat="43.397678"><ele>49.5</ele></trkpt>
<trkpt lon="-4.646049" lat="43.397710"><ele>48.75</ele></trkpt>
<trkpt lon="-4.646224" lat="43.397751"><ele>48.5</ele></trkpt>
<trkpt lon="-4.646336" lat="43.397802"><ele>48.25</ele></trkpt>
<trkpt lon="-4.646430" lat="43.397861"><ele>48.0</ele></trkpt>
<trkpt lon="-4.646503" lat="43.397937"><ele>47.75</ele></trkpt>
<trkpt lon="-4.646549" lat="43.398021"><ele>48.0</ele></trkpt>
<trkpt lon="-4.646730" lat="43.398397"><ele>50.0</ele></trkpt>
<trkpt lon="-4.646821" lat="43.398476"><ele>51.0</ele></trkpt>
<trkpt lon="-4.646967" lat="43.398540"><ele>51.25</ele></trkpt>
<trkpt lon="-4.647246" lat="43.398680"><ele>49.5</ele></trkpt>
<trkpt lon="-4.647396" lat="43.398732"><ele>49.75</ele></trkpt>
<trkpt lon="-4.647470" lat="43.398725"><ele>48.75</ele></trkpt>
<trkpt lon="-4.647613" lat="43.398693"><ele>46.75</ele></trkpt>
<trkpt lon="-4.647698" lat="43.398692"><ele>46.0</ele></trkpt>
<trkpt lon="-4.647783" lat="43.398677"><ele>44.75</ele></trkpt>
<trkpt lon="-4.648048" lat="43.398581"><ele>42.25</ele></trkpt>
<trkpt lon="-4.648121" lat="43.398574"><ele>41.5</ele></trkpt>
<trkpt lon="-4.648229" lat="43.398587"><ele>41.0</ele></trkpt>
<trkpt lon="-4.648342" lat="43.398611"><ele>40.75</ele></trkpt>
<trkpt lon="-4.648461" lat="43.398620"><ele>40.75</ele></trkpt>
<trkpt lon="-4.648528" lat="43.398612"><ele>40.25</ele></trkpt>
<trkpt lon="-4.648614" lat="43.398595"><ele>39.5</ele></trkpt>
<trkpt lon="-4.648748" lat="43.398541"><ele>42.75</ele></trkpt>
<trkpt lon="-4.648787" lat="43.398490"><ele>42.25</ele></trkpt>
<trkpt lon="-4.648796" lat="43.398458"><ele>41.5</ele></trkpt>
<trkpt lon="-4.648801" lat="43.398339"><ele>37.75</ele></trkpt>
<trkpt lon="-4.648822" lat="43.398296"><ele>37.25</ele></trkpt>
<trkpt lon="-4.648865" lat="43.398261"><ele>37.0</ele></trkpt>
<trkpt lon="-4.648921" lat="43.398237"><ele>37.0</ele></trkpt>
<trkpt lon="-4.649329" lat="43.398121"><ele>34.0</ele></trkpt>
<trkpt lon="-4.649766" lat="43.398103"><ele>32.0</ele></trkpt>
<trkpt lon="-4.649843" lat="43.398080"><ele>30.0</ele></trkpt>
<trkpt lon="-4.649937" lat="43.398075"><ele>28.5</ele></trkpt>
<trkpt lon="-4.650009" lat="43.398105"><ele>28.25</ele></trkpt>
<trkpt lon="-4.650096" lat="43.398187"><ele>27.5</ele></trkpt>
<trkpt lon="-4.650290" lat="43.398247"><ele>21.25</ele></trkpt>
<trkpt lon="-4.650486" lat="43.398280"><ele>19.0</ele></trkpt>
<trkpt lon="-4.650585" lat="43.398259"><ele>18.5</ele></trkpt>
<trkpt lon="-4.650654" lat="43.398192"><ele>19.5</ele></trkpt>
<trkpt lon="-4.650721" lat="43.398168"><ele>20.5</ele></trkpt>
<trkpt lon="-4.650824" lat="43.398190"><ele>21.0</ele></trkpt>
<trkpt lon="-4.650888" lat="43.398254"><ele>20.25</ele></trkpt>
<trkpt lon="-4.650986" lat="43.398449"><ele>19.25</ele></trkpt>
<trkpt lon="-4.651103" lat="43.398505"><ele>19.25</ele></trkpt>
<trkpt lon="-4.651501" lat="43.398469"><ele>16.5</ele></trkpt>
<trkpt lon="-4.651959" lat="43.398506"><ele>13.5</ele></trkpt>
<trkpt lon="-4.652325" lat="43.398667"><ele>12.5</ele></trkpt>
<trkpt lon="-4.652683" lat="43.398874"><ele>11.0</ele></trkpt>
<trkpt lon="-4.652846" lat="43.398953"><ele>14.5</ele></trkpt>
<trkpt lon="-4.653067" lat="43.399035"><ele>13.5</ele></trkpt>
<trkpt lon="-4.653217" lat="43.399153"><ele>12.25</ele></trkpt>
<trkpt lon="-4.653323" lat="43.399358"><ele>8.75</ele></trkpt>
<trkpt lon="-4.653303" lat="43.399455"><ele>9.75</ele></trkpt>
<trkpt lon="-4.653188" lat="43.399598"><ele>12.75</ele></trkpt>
<trkpt lon="-4.653295" lat="43.399627"><ele>12.25</ele></trkpt>
<trkpt lon="-4.653343" lat="43.399628"><ele>12.75</ele></trkpt>
<trkpt lon="-4.653564" lat="43.399575"><ele>17.5</ele></trkpt>
<trkpt lon="-4.653667" lat="43.399558"><ele>18.25</ele></trkpt>
<trkpt lon="-4.653751" lat="43.399511"><ele>16.25</ele></trkpt>
<trkpt lon="-4.653802" lat="43.399444"><ele>13.0</ele></trkpt>
<trkpt lon="-4.653791" lat="43.399371"><ele>15.75</ele></trkpt>
<trkpt lon="-4.653840" lat="43.399411"><ele>15.5</ele></trkpt>
<trkpt lon="-4.653823" lat="43.399450"><ele>13.75</ele></trkpt>
<trkpt lon="-4.653912" lat="43.399467"><ele>17.0</ele></trkpt>
<trkpt lon="-4.653854" lat="43.399570"><ele>21.25</ele></trkpt>
<trkpt lon="-4.653937" lat="43.399617"><ele>24.75</ele></trkpt>
<trkpt lon="-4.654128" lat="43.399651"><ele>27.5</ele></trkpt>
<trkpt lon="-4.654337" lat="43.399628"><ele>30.0</ele></trkpt>
<trkpt lon="-4.654418" lat="43.399637"><ele>31.25</ele></trkpt>
<trkpt lon="-4.654572" lat="43.399667"><ele>32.0</ele></trkpt>
<trkpt lon="-4.654645" lat="43.399666"><ele>32.25</ele></trkpt>
<trkpt lon="-4.654748" lat="43.399675"><ele>32.5</ele></trkpt>
<trkpt lon="-4.654824" lat="43.399718"><ele>32.0</ele></trkpt>
<trkpt lon="-4.654893" lat="43.399797"><ele>34.0</ele></trkpt>
<trkpt lon="-4.654986" lat="43.399821"><ele>34.25</ele></trkpt>
<trkpt lon="-4.655099" lat="43.399822"><ele>34.75</ele></trkpt>
<trkpt lon="-4.655229" lat="43.399788"><ele>34.5</ele></trkpt>
<trkpt lon="-4.655475" lat="43.399677"><ele>35.0</ele></trkpt>
<trkpt lon="-4.655773" lat="43.399677"><ele>37.0</ele></trkpt>
<trkpt lon="-4.656112" lat="43.399620"><ele>36.5</ele></trkpt>
<trkpt lon="-4.656316" lat="43.399682"><ele>36.75</ele></trkpt>
<trkpt lon="-4.656507" lat="43.399770"><ele>37.5</ele></trkpt>
<trkpt lon="-4.656675" lat="43.399795"><ele>38.5</ele></trkpt>
<trkpt lon="-4.656835" lat="43.399832"><ele>38.5</ele></trkpt>
<trkpt lon="-4.657048" lat="43.399935"><ele>38.75</ele></trkpt>
<trkpt lon="-4.657238" lat="43.399976"><ele>37.25</ele></trkpt>
<trkpt lon="-4.657470" lat="43.400051"><ele>35.5</ele></trkpt>
<trkpt lon="-4.657718" lat="43.400171"><ele>35.75</ele></trkpt>
<trkpt lon="-4.657990" lat="43.400353"><ele>34.75</ele></trkpt>
<trkpt lon="-4.658051" lat="43.400468"><ele>34.5</ele></trkpt>
<trkpt lon="-4.658288" lat="43.400869"><ele>33.5</ele></trkpt>
<trkpt lon="-4.658349" lat="43.400956"><ele>35.0</ele></trkpt>
<trkpt lon="-4.658494" lat="43.401027"><ele>36.25</ele></trkpt>
<trkpt lon="-4.658707" lat="43.401011"><ele>35.75</ele></trkpt>
<trkpt lon="-4.658673" lat="43.401099"><ele>38.0</ele></trkpt>
<trkpt lon="-4.658625" lat="43.401168"><ele>37.5</ele></trkpt>
<trkpt lon="-4.658639" lat="43.401235"><ele>37.0</ele></trkpt>
<trkpt lon="-4.658741" lat="43.401362"><ele>39.0</ele></trkpt>
<trkpt lon="-4.658826" lat="43.401513"><ele>42.75</ele></trkpt>
<trkpt lon="-4.658925" lat="43.401659"><ele>48.75</ele></trkpt>
<trkpt lon="-4.659085" lat="43.401770"><ele>54.25</ele></trkpt>
<trkpt lon="-4.659214" lat="43.401819"><ele>57.75</ele></trkpt>
<trkpt lon="-4.659241" lat="43.402042"><ele>60.25</ele></trkpt>
<trkpt lon="-4.659330" lat="43.402124"><ele>60.75</ele></trkpt>
<trkpt lon="-4.659732" lat="43.402102"><ele>62.25</ele></trkpt>
<trkpt lon="-4.660004" lat="43.401968"><ele>57.5</ele></trkpt>
<trkpt lon="-4.660045" lat="43.401782"><ele>52.5</ele></trkpt>
<trkpt lon="-4.660089" lat="43.401765"><ele>52.0</ele></trkpt>
<trkpt lon="-4.661026" lat="43.402030"><ele>52.25</ele></trkpt>
<trkpt lon="-4.661278" lat="43.402017"><ele>48.5</ele></trkpt>
<trkpt lon="-4.661585" lat="43.402020"><ele>48.5</ele></trkpt>
<trkpt lon="-4.661912" lat="43.402015"><ele>48.0</ele></trkpt>
<trkpt lon="-4.662140" lat="43.402020"><ele>47.25</ele></trkpt>
<trkpt lon="-4.662286" lat="43.402275"><ele>54.25</ele></trkpt>
<trkpt lon="-4.662341" lat="43.402401"><ele>58.0</ele></trkpt>
<trkpt lon="-4.662644" lat="43.402520"><ele>60.5</ele></trkpt>
<trkpt lon="-4.662719" lat="43.402730"><ele>66.0</ele></trkpt>
<trkpt lon="-4.662927" lat="43.402809"><ele>67.0</ele></trkpt>
<trkpt lon="-4.663288" lat="43.402933"><ele>71.0</ele></trkpt>
<trkpt lon="-4.663727" lat="43.403099"><ele>78.0</ele></trkpt>
<trkpt lon="-4.664078" lat="43.403267"><ele>81.5</ele></trkpt>
<trkpt lon="-4.664350" lat="43.403408"><ele>83.0</ele></trkpt>
<trkpt lon="-4.664643" lat="43.403527"><ele>84.5</ele></trkpt>
<trkpt lon="-4.664807" lat="43.403618"><ele>86.5</ele></trkpt>
<trkpt lon="-4.665066" lat="43.403685"><ele>83.75</ele></trkpt>
<trkpt lon="-4.665287" lat="43.403720"><ele>82.0</ele></trkpt>
<trkpt lon="-4.665420" lat="43.403762"><ele>81.25</ele></trkpt>
<trkpt lon="-4.665522" lat="43.403854"><ele>81.5</ele></trkpt>
<trkpt lon="-4.665777" lat="43.404042"><ele>79.75</ele></trkpt>
<trkpt lon="-4.665890" lat="43.404202"><ele>80.75</ele></trkpt>
<trkpt lon="-4.666026" lat="43.404341"><ele>82.0</ele></trkpt>
<trkpt lon="-4.666081" lat="43.404415"><ele>83.75</ele></trkpt>
<trkpt lon="-4.666244" lat="43.404494"><ele>85.25</ele></trkpt>
<trkpt lon="-4.666333" lat="43.404522"><ele>86.0</ele></trkpt>
<trkpt lon="-4.666513" lat="43.404621"><ele>87.5</ele></trkpt>
<trkpt lon="-4.666643" lat="43.404747"><ele>89.5</ele></trkpt>
<trkpt lon="-4.666717" lat="43.404720"><ele>89.75</ele></trkpt>
<trkpt lon="-4.666813" lat="43.404772"><ele>88.75</ele></trkpt>
<trkpt lon="-4.666973" lat="43.404747"><ele>88.0</ele></trkpt>
<trkpt lon="-4.667143" lat="43.404695"><ele>85.5</ele></trkpt>
<trkpt lon="-4.667341" lat="43.404623"><ele>81.5</ele></trkpt>
<trkpt lon="-4.667542" lat="43.404497"><ele>78.25</ele></trkpt>
<trkpt lon="-4.667654" lat="43.404457"><ele>76.25</ele></trkpt>
<trkpt lon="-4.667855" lat="43.404435"><ele>72.25</ele></trkpt>
<trkpt lon="-4.668148" lat="43.404428"><ele>66.75</ele></trkpt>
<trkpt lon="-4.668294" lat="43.404383"><ele>63.5</ele></trkpt>
<trkpt lon="-4.668427" lat="43.404316"><ele>60.75</ele></trkpt>
<trkpt lon="-4.668873" lat="43.404205"><ele>53.0</ele></trkpt>
<trkpt lon="-4.669078" lat="43.404183"><ele>49.5</ele></trkpt>
<trkpt lon="-4.669255" lat="43.404235"><ele>45.75</ele></trkpt>
<trkpt lon="-4.669408" lat="43.404304"><ele>42.5</ele></trkpt>
<trkpt lon="-4.669487" lat="43.404389"><ele>41.25</ele></trkpt>
<trkpt lon="-4.669480" lat="43.404464"><ele>41.75</ele></trkpt>
<trkpt lon="-4.669560" lat="43.404580"><ele>42.5</ele></trkpt>
<trkpt lon="-4.669698" lat="43.404688"><ele>41.0</ele></trkpt>
<trkpt lon="-4.669800" lat="43.404717"><ele>40.25</ele></trkpt>
<trkpt lon="-4.669889" lat="43.404773"><ele>40.0</ele></trkpt>
<trkpt lon="-4.669942" lat="43.404847"><ele>40.25</ele></trkpt>
<trkpt lon="-4.669948" lat="43.404934"><ele>41.0</ele></trkpt>
<trkpt lon="-4.669788" lat="43.405254"><ele>40.0</ele></trkpt>
<trkpt lon="-4.669761" lat="43.405589"><ele>39.0</ele></trkpt>
<trkpt lon="-4.669882" lat="43.405718"><ele>40.0</ele></trkpt>
<trkpt lon="-4.670080" lat="43.405812"><ele>39.5</ele></trkpt>
<trkpt lon="-4.670302" lat="43.405991"><ele>41.25</ele></trkpt>
<trkpt lon="-4.670498" lat="43.406053"><ele>42.5</ele></trkpt>
<trkpt lon="-4.670604" lat="43.406071"><ele>42.75</ele></trkpt>
<trkpt lon="-4.670777" lat="43.406172"><ele>43.25</ele></trkpt>
<trkpt lon="-4.671064" lat="43.406162"><ele>42.0</ele></trkpt>
<trkpt lon="-4.671374" lat="43.406114"><ele>39.0</ele></trkpt>
<trkpt lon="-4.671960" lat="43.406080"><ele>38.75</ele></trkpt>
<trkpt lon="-4.672271" lat="43.406073"><ele>41.0</ele></trkpt>
<trkpt lon="-4.672398" lat="43.406101"><ele>41.75</ele></trkpt>
<trkpt lon="-4.672638" lat="43.406197"><ele>41.75</ele></trkpt>
<trkpt lon="-4.672905" lat="43.406382"><ele>42.25</ele></trkpt>
<trkpt lon="-4.673271" lat="43.406488"><ele>42.0</ele></trkpt>
<trkpt lon="-4.673536" lat="43.406515"><ele>40.0</ele></trkpt>
<trkpt lon="-4.673727" lat="43.406499"><ele>39.5</ele></trkpt>
<trkpt lon="-4.673898" lat="43.406542"><ele>39.25</ele></trkpt>
<trkpt lon="-4.674049" lat="43.406597"><ele>37.5</ele></trkpt>
<trkpt lon="-4.674098" lat="43.406669"><ele>37.0</ele></trkpt>
<trkpt lon="-4.674286" lat="43.406772"><ele>37.25</ele></trkpt>
<trkpt lon="-4.674593" lat="43.406839"><ele>37.75</ele></trkpt>
<trkpt lon="-4.675784" lat="43.406847"><ele>33.5</ele></trkpt>
<trkpt lon="-4.676259" lat="43.406978"><ele>36.0</ele></trkpt>
<trkpt lon="-4.676403" lat="43.406998"><ele>36.0</ele></trkpt>
<trkpt lon="-4.676705" lat="43.406846"><ele>36.75</ele></trkpt>
<trkpt lon="-4.676831" lat="43.406732"><ele>38.0</ele></trkpt>
<trkpt lon="-4.677004" lat="43.406633"><ele>39.25</ele></trkpt>
<trkpt lon="-4.677167" lat="43.406573"><ele>39.5</ele></trkpt>
<trkpt lon="-4.677307" lat="43.406552"><ele>39.25</ele></trkpt>
<trkpt lon="-4.677469" lat="43.406473"><ele>39.75</ele></trkpt>
<trkpt lon="-4.677616" lat="43.406361"><ele>40.25</ele></trkpt>
<trkpt lon="-4.677805" lat="43.406331"><ele>39.25</ele></trkpt>
<trkpt lon="-4.677968" lat="43.406349"><ele>39.0</ele></trkpt>
<trkpt lon="-4.678217" lat="43.406420"><ele>38.0</ele></trkpt>
<trkpt lon="-4.678492" lat="43.406519"><ele>37.25</ele></trkpt>
<trkpt lon="-4.678652" lat="43.406653"><ele>36.0</ele></trkpt>
<trkpt lon="-4.678804" lat="43.406677"><ele>35.75</ele></trkpt>
<trkpt lon="-4.678957" lat="43.406669"><ele>35.75</ele></trkpt>
<trkpt lon="-4.679123" lat="43.406640"><ele>36.0</ele></trkpt>
<trkpt lon="-4.679345" lat="43.406687"><ele>36.5</ele></trkpt>
<trkpt lon="-4.679508" lat="43.406696"><ele>36.75</ele></trkpt>
<trkpt lon="-4.679650" lat="43.406723"><ele>36.5</ele></trkpt>
<trkpt lon="-4.679872" lat="43.406696"><ele>36.75</ele></trkpt>
<trkpt lon="-4.679989" lat="43.406658"><ele>36.75</ele></trkpt>
<trkpt lon="-4.680081" lat="43.406566"><ele>36.0</ele></trkpt>
<trkpt lon="-4.680199" lat="43.406311"><ele>34.25</ele></trkpt>
<trkpt lon="-4.680372" lat="43.406121"><ele>34.5</ele></trkpt>
<trkpt lon="-4.680574" lat="43.406262"><ele>34.25</ele></trkpt>
<trkpt lon="-4.680813" lat="43.406405"><ele>33.75</ele></trkpt>
<trkpt lon="-4.680979" lat="43.406445"><ele>33.25</ele></trkpt>
<trkpt lon="-4.681086" lat="43.406449"><ele>33.25</ele></trkpt>
<trkpt lon="-4.681462" lat="43.406387"><ele>34.5</ele></trkpt>
<trkpt lon="-4.681757" lat="43.406273"><ele>37.25</ele></trkpt>
<trkpt lon="-4.682043" lat="43.406231"><ele>37.75</ele></trkpt>
<trkpt lon="-4.682297" lat="43.406232"><ele>37.75</ele></trkpt>
<trkpt lon="-4.682526" lat="43.406133"><ele>38.75</ele></trkpt>
<trkpt lon="-4.682893" lat="43.406090"><ele>39.0</ele></trkpt>
<trkpt lon="-4.683179" lat="43.406079"><ele>38.5</ele></trkpt>
<trkpt lon="-4.683464" lat="43.406078"><ele>38.0</ele></trkpt>
<trkpt lon="-4.683775" lat="43.406050"><ele>38.25</ele></trkpt>
<trkpt lon="-4.684035" lat="43.406052"><ele>37.75</ele></trkpt>
<trkpt lon="-4.684188" lat="43.406159"><ele>38.5</ele></trkpt>
<trkpt lon="-4.684317" lat="43.406292"><ele>39.75</ele></trkpt>
<trkpt lon="-4.684604" lat="43.406401"><ele>39.25</ele></trkpt>
<trkpt lon="-4.684719" lat="43.406459"><ele>39.25</ele></trkpt>
<trkpt lon="-4.684824" lat="43.406585"><ele>38.5</ele></trkpt>
<trkpt lon="-4.685837" lat="43.406863"><ele>31.5</ele></trkpt>
<trkpt lon="-4.686034" lat="43.407076"><ele>29.5</ele></trkpt>
<trkpt lon="-4.686324" lat="43.407325"><ele>26.5</ele></trkpt>
<trkpt lon="-4.686505" lat="43.407351"><ele>26.0</ele></trkpt>
<trkpt lon="-4.686961" lat="43.407396"><ele>24.5</ele></trkpt>
<trkpt lon="-4.687040" lat="43.407399"><ele>24.25</ele></trkpt>
<trkpt lon="-4.687246" lat="43.407406"><ele>23.75</ele></trkpt>
<trkpt lon="-4.687523" lat="43.407385"><ele>23.25</ele></trkpt>
<trkpt lon="-4.687577" lat="43.407368"><ele>23.25</ele></trkpt>
<trkpt lon="-4.687693" lat="43.407330"><ele>23.75</ele></trkpt>
<trkpt lon="-4.687893" lat="43.407211"><ele>24.25</ele></trkpt>
<trkpt lon="-4.688367" lat="43.407089"><ele>22.5</ele></trkpt>
<trkpt lon="-4.688728" lat="43.407124"><ele>22.75</ele></trkpt>
<trkpt lon="-4.689369" lat="43.407011"><ele>28.0</ele></trkpt>
<trkpt lon="-4.689899" lat="43.406948"><ele>30.25</ele></trkpt>
<trkpt lon="-4.690015" lat="43.406908"><ele>29.75</ele></trkpt>
<trkpt lon="-4.690101" lat="43.406837"><ele>29.25</ele></trkpt>
<trkpt lon="-4.690193" lat="43.406732"><ele>29.0</ele></trkpt>
<trkpt lon="-4.690306" lat="43.406673"><ele>28.75</ele></trkpt>
<trkpt lon="-4.690626" lat="43.406679"><ele>27.5</ele></trkpt>
<trkpt lon="-4.690728" lat="43.406687"><ele>27.25</ele></trkpt>
<trkpt lon="-4.690968" lat="43.406724"><ele>27.0</ele></trkpt>
<trkpt lon="-4.691036" lat="43.406700"><ele>27.0</ele></trkpt>
<trkpt lon="-4.691211" lat="43.406570"><ele>27.5</ele></trkpt>
<trkpt lon="-4.691272" lat="43.406542"><ele>27.5</ele></trkpt>
<trkpt lon="-4.691306" lat="43.406484"><ele>27.75</ele></trkpt>
<trkpt lon="-4.691282" lat="43.406448"><ele>28.0</ele></trkpt>
<trkpt lon="-4.691223" lat="43.406409"><ele>28.25</ele></trkpt>
<trkpt lon="-4.690977" lat="43.406305"><ele>29.25</ele></trkpt>
<trkpt lon="-4.690932" lat="43.406271"><ele>29.5</ele></trkpt>
<trkpt lon="-4.690918" lat="43.406213"><ele>29.5</ele></trkpt>
<trkpt lon="-4.690920" lat="43.406150"><ele>29.5</ele></trkpt>
<trkpt lon="-4.690955" lat="43.406078"><ele>30.0</ele></trkpt>
<trkpt lon="-4.691146" lat="43.405888"><ele>32.0</ele></trkpt>
<trkpt lon="-4.691438" lat="43.405730"><ele>31.0</ele></trkpt>
<trkpt lon="-4.691749" lat="43.405539"><ele>31.75</ele></trkpt>
<trkpt lon="-4.692030" lat="43.405236"><ele>35.5</ele></trkpt>
<trkpt lon="-4.692117" lat="43.405161"><ele>36.75</ele></trkpt>
<trkpt lon="-4.692114" lat="43.405093"><ele>37.0</ele></trkpt>
<trkpt lon="-4.692068" lat="43.405004"><ele>36.75</ele></trkpt>
<trkpt lon="-4.692008" lat="43.404922"><ele>36.5</ele></trkpt>
<trkpt lon="-4.691963" lat="43.404843"><ele>36.75</ele></trkpt>
<trkpt lon="-4.691953" lat="43.404704"><ele>38.0</ele></trkpt>
<trkpt lon="-4.692006" lat="43.404595"><ele>39.0</ele></trkpt>
<trkpt lon="-4.692072" lat="43.404511"><ele>39.75</ele></trkpt>
<trkpt lon="-4.692207" lat="43.404477"><ele>40.5</ele></trkpt>
<trkpt lon="-4.692543" lat="43.404445"><ele>41.5</ele></trkpt>
<trkpt lon="-4.692729" lat="43.404357"><ele>42.0</ele></trkpt>
<trkpt lon="-4.692830" lat="43.404345"><ele>42.25</ele></trkpt>
<trkpt lon="-4.693151" lat="43.404427"><ele>42.5</ele></trkpt>
<trkpt lon="-4.693391" lat="43.404356"><ele>43.5</ele></trkpt>
<trkpt lon="-4.693630" lat="43.404263"><ele>43.5</ele></trkpt>
<trkpt lon="-4.694505" lat="43.404242"><ele>43.5</ele></trkpt>
<trkpt lon="-4.694717" lat="43.404164"><ele>42.0</ele></trkpt>
<trkpt lon="-4.694982" lat="43.404005"><ele>40.25</ele></trkpt>
<trkpt lon="-4.695113" lat="43.404184"><ele>40.25</ele></trkpt>
<trkpt lon="-4.695235" lat="43.404234"><ele>39.25</ele></trkpt>
<trkpt lon="-4.695724" lat="43.404252"><ele>39.25</ele></trkpt>
<trkpt lon="-4.695931" lat="43.404299"><ele>39.0</ele></trkpt>
<trkpt lon="-4.696076" lat="43.404413"><ele>37.25</ele></trkpt>
<trkpt lon="-4.696425" lat="43.404638"><ele>35.75</ele></trkpt>
<trkpt lon="-4.696587" lat="43.404649"><ele>36.5</ele></trkpt>
<trkpt lon="-4.696801" lat="43.404648"><ele>37.75</ele></trkpt>
<trkpt lon="-4.697053" lat="43.404664"><ele>39.0</ele></trkpt>
<trkpt lon="-4.697104" lat="43.404717"><ele>39.5</ele></trkpt>
<trkpt lon="-4.697072" lat="43.404828"><ele>38.75</ele></trkpt>
<trkpt lon="-4.697118" lat="43.404912"><ele>38.75</ele></trkpt>
<trkpt lon="-4.697283" lat="43.404955"><ele>40.0</ele></trkpt>
<trkpt lon="-4.697493" lat="43.404915"><ele>40.25</ele></trkpt>
<trkpt lon="-4.697664" lat="43.404898"><ele>39.0</ele></trkpt>
<trkpt lon="-4.697829" lat="43.404902"><ele>38.0</ele></trkpt>
<trkpt lon="-4.697900" lat="43.404831"><ele>37.25</ele></trkpt>
<trkpt lon="-4.697906" lat="43.404722"><ele>36.75</ele></trkpt>
<trkpt lon="-4.698004" lat="43.404453"><ele>35.0</ele></trkpt>
<trkpt lon="-4.698610" lat="43.404069"><ele>33.5</ele></trkpt>
<trkpt lon="-4.698829" lat="43.403900"><ele>32.5</ele></trkpt>
<trkpt lon="-4.698935" lat="43.403852"><ele>32.0</ele></trkpt>
<trkpt lon="-4.699144" lat="43.403833"><ele>31.25</ele></trkpt>
<trkpt lon="-4.699371" lat="43.403844"><ele>30.5</ele></trkpt>
<trkpt lon="-4.699517" lat="43.403830"><ele>30.75</ele></trkpt>
<trkpt lon="-4.699628" lat="43.403778"><ele>31.5</ele></trkpt>
<trkpt lon="-4.699677" lat="43.403726"><ele>32.0</ele></trkpt>
<trkpt lon="-4.699721" lat="43.403631"><ele>32.75</ele></trkpt>
<trkpt lon="-4.699771" lat="43.403461"><ele>28.75</ele></trkpt>
<trkpt lon="-4.699824" lat="43.403322"><ele>25.0</ele></trkpt>
<trkpt lon="-4.699916" lat="43.403152"><ele>21.5</ele></trkpt>
<trkpt lon="-4.699925" lat="43.403069"><ele>20.75</ele></trkpt>
<trkpt lon="-4.699844" lat="43.402805"><ele>17.0</ele></trkpt>
<trkpt lon="-4.699856" lat="43.402729"><ele>15.25</ele></trkpt>
<trkpt lon="-4.699899" lat="43.402727"><ele>13.75</ele></trkpt>
<trkpt lon="-4.700083" lat="43.402802"><ele>9.5</ele></trkpt>
<trkpt lon="-4.700163" lat="43.402850"><ele>7.75</ele></trkpt>
<trkpt lon="-4.700184" lat="43.402863"><ele>7.25</ele></trkpt>
<trkpt lon="-4.700217" lat="43.402863"><ele>6.0</ele></trkpt>
<trkpt lon="-4.700488" lat="43.402749"><ele>2.75</ele></trkpt>
<trkpt lon="-4.700560" lat="43.402717"><ele>3.0</ele></trkpt>
<trkpt lon="-4.700608" lat="43.402653"><ele>3.5</ele></trkpt>
<trkpt lon="-4.700648" lat="43.402584"><ele>4.25</ele></trkpt>
<trkpt lon="-4.700687" lat="43.402451"><ele>4.75</ele></trkpt>
<trkpt lon="-4.700680" lat="43.402335"><ele>5.0</ele></trkpt>
<trkpt lon="-4.700720" lat="43.402209"><ele>5.0</ele></trkpt>
<trkpt lon="-4.700808" lat="43.402125"><ele>5.75</ele></trkpt>
<trkpt lon="-4.700873" lat="43.402075"><ele>6.25</ele></trkpt>
<trkpt lon="-4.700965" lat="43.401771"><ele>9.5</ele></trkpt>
<trkpt lon="-4.700997" lat="43.401708"><ele>10.5</ele></trkpt>
<trkpt lon="-4.701154" lat="43.401647"><ele>12.5</ele></trkpt>
<trkpt lon="-4.701307" lat="43.401651"><ele>14.25</ele></trkpt>
<trkpt lon="-4.701391" lat="43.401600"><ele>16.0</ele></trkpt>
<trkpt lon="-4.701520" lat="43.401485"><ele>18.75</ele></trkpt>
<trkpt lon="-4.701706" lat="43.401434"><ele>21.0</ele></trkpt>
<trkpt lon="-4.701854" lat="43.401416"><ele>22.25</ele></trkpt>
<trkpt lon="-4.702073" lat="43.401433"><ele>23.5</ele></trkpt>
<trkpt lon="-4.702209" lat="43.401410"><ele>24.75</ele></trkpt>
<trkpt lon="-4.702525" lat="43.401333"><ele>29.0</ele></trkpt>
<trkpt lon="-4.702934" lat="43.401019"><ele>29.5</ele></trkpt>
<trkpt lon="-4.703213" lat="43.400933"><ele>29.75</ele></trkpt>
<trkpt lon="-4.703375" lat="43.400895"><ele>29.75</ele></trkpt>
<trkpt lon="-4.703878" lat="43.400777"><ele>26.5</ele></trkpt>
<trkpt lon="-4.704125" lat="43.400747"><ele>26.75</ele></trkpt>
<trkpt lon="-4.704396" lat="43.400754"><ele>27.5</ele></trkpt>
<trkpt lon="-4.704693" lat="43.400727"><ele>29.5</ele></trkpt>
<trkpt lon="-4.704723" lat="43.400797"><ele>29.25</ele></trkpt>
<trkpt lon="-4.704786" lat="43.400889"><ele>28.0</ele></trkpt>
<trkpt lon="-4.705131" lat="43.401205"><ele>28.75</ele></trkpt>
<trkpt lon="-4.705740" lat="43.401592"><ele>31.0</ele></trkpt>
<trkpt lon="-4.706096" lat="43.401730"><ele>31.25</ele></trkpt>
<trkpt lon="-4.706305" lat="43.401868"><ele>29.5</ele></trkpt>
<trkpt lon="-4.706513" lat="43.401968"><ele>28.0</ele></trkpt>
<trkpt lon="-4.706632" lat="43.402025"><ele>27.25</ele></trkpt>
<trkpt lon="-4.706959" lat="43.402309"><ele>24.25</ele></trkpt>
<trkpt lon="-4.707203" lat="43.402446"><ele>22.25</ele></trkpt>
<trkpt lon="-4.707370" lat="43.402487"><ele>21.5</ele></trkpt>
<trkpt lon="-4.707591" lat="43.402517"><ele>20.75</ele></trkpt>
<trkpt lon="-4.707694" lat="43.402540"><ele>20.75</ele></trkpt>
<trkpt lon="-4.707754" lat="43.402571"><ele>20.5</ele></trkpt>
<trkpt lon="-4.707795" lat="43.402602"><ele>20.5</ele></trkpt>
<trkpt lon="-4.707835" lat="43.402675"><ele>20.25</ele></trkpt>
<trkpt lon="-4.707891" lat="43.402805"><ele>21.25</ele></trkpt>
<trkpt lon="-4.707998" lat="43.402891"><ele>23.25</ele></trkpt>
<trkpt lon="-4.708093" lat="43.402920"><ele>24.25</ele></trkpt>
<trkpt lon="-4.708198" lat="43.402886"><ele>24.0</ele></trkpt>
<trkpt lon="-4.708314" lat="43.402874"><ele>24.25</ele></trkpt>
<trkpt lon="-4.708424" lat="43.402895"><ele>25.5</ele></trkpt>
<trkpt lon="-4.708482" lat="43.402915"><ele>26.5</ele></trkpt>
<trkpt lon="-4.708599" lat="43.403007"><ele>29.0</ele></trkpt>
<trkpt lon="-4.708696" lat="43.403046"><ele>30.0</ele></trkpt>
<trkpt lon="-4.708849" lat="43.403050"><ele>30.75</ele></trkpt>
<trkpt lon="-4.709047" lat="43.403086"><ele>32.25</ele></trkpt>
<trkpt lon="-4.709305" lat="43.403048"><ele>34.25</ele></trkpt>
<trkpt lon="-4.709428" lat="43.403047"><ele>35.75</ele></trkpt>
<trkpt lon="-4.709661" lat="43.403074"><ele>36.75</ele></trkpt>
<trkpt lon="-4.709997" lat="43.403127"><ele>37.25</ele></trkpt>
<trkpt lon="-4.710197" lat="43.403223"><ele>37.75</ele></trkpt>
<trkpt lon="-4.710253" lat="43.403286"><ele>37.75</ele></trkpt>
<trkpt lon="-4.710444" lat="43.403542"><ele>38.25</ele></trkpt>
<trkpt lon="-4.710511" lat="43.403561"><ele>39.0</ele></trkpt>
<trkpt lon="-4.710649" lat="43.403578"><ele>40.0</ele></trkpt>
<trkpt lon="-4.710754" lat="43.403578"><ele>40.5</ele></trkpt>
<trkpt lon="-4.710846" lat="43.403569"><ele>40.75</ele></trkpt>
<trkpt lon="-4.711070" lat="43.403590"><ele>40.25</ele></trkpt>
<trkpt lon="-4.711178" lat="43.403586"><ele>40.5</ele></trkpt>
<trkpt lon="-4.711395" lat="43.403561"><ele>42.0</ele></trkpt>
<trkpt lon="-4.711656" lat="43.403542"><ele>41.0</ele></trkpt>
<trkpt lon="-4.712024" lat="43.403488"><ele>38.75</ele></trkpt>
<trkpt lon="-4.712183" lat="43.403499"><ele>38.5</ele></trkpt>
<trkpt lon="-4.712623" lat="43.403635"><ele>37.0</ele></trkpt>
<trkpt lon="-4.712749" lat="43.403717"><ele>38.5</ele></trkpt>
<trkpt lon="-4.712888" lat="43.403797"><ele>39.75</ele></trkpt>
<trkpt lon="-4.712993" lat="43.403954"><ele>39.5</ele></trkpt>
<trkpt lon="-4.713034" lat="43.404039"><ele>39.0</ele></trkpt>
<trkpt lon="-4.713026" lat="43.404113"><ele>39.0</ele></trkpt>
<trkpt lon="-4.713136" lat="43.404202"><ele>38.5</ele></trkpt>
<trkpt lon="-4.713286" lat="43.404252"><ele>38.75</ele></trkpt>
<trkpt lon="-4.713392" lat="43.404305"><ele>39.0</ele></trkpt>
<trkpt lon="-4.713489" lat="43.404391"><ele>39.25</ele></trkpt>
<trkpt lon="-4.713532" lat="43.404519"><ele>40.0</ele></trkpt>
<trkpt lon="-4.713621" lat="43.404647"><ele>40.75</ele></trkpt>
<trkpt lon="-4.713739" lat="43.404766"><ele>41.25</ele></trkpt>
<trkpt lon="-4.714138" lat="43.404933"><ele>42.75</ele></trkpt>
<trkpt lon="-4.714422" lat="43.405063"><ele>43.5</ele></trkpt>
<trkpt lon="-4.714714" lat="43.405162"><ele>43.75</ele></trkpt>
<trkpt lon="-4.714818" lat="43.405187"><ele>43.75</ele></trkpt>
<trkpt lon="-4.714875" lat="43.405200"><ele>43.75</ele></trkpt>
<trkpt lon="-4.714992" lat="43.405228"><ele>43.75</ele></trkpt>
<trkpt lon="-4.715244" lat="43.405334"><ele>43.5</ele></trkpt>
<trkpt lon="-4.715387" lat="43.405627"><ele>45.0</ele></trkpt>
<trkpt lon="-4.715472" lat="43.405781"><ele>45.75</ele></trkpt>
<trkpt lon="-4.715562" lat="43.405915"><ele>46.25</ele></trkpt>
<trkpt lon="-4.715678" lat="43.406024"><ele>47.0</ele></trkpt>
<trkpt lon="-4.715744" lat="43.406085"><ele>47.5</ele></trkpt>
<trkpt lon="-4.715791" lat="43.406151"><ele>48.0</ele></trkpt>
<trkpt lon="-4.715796" lat="43.406190"><ele>48.25</ele></trkpt>
<trkpt lon="-4.715817" lat="43.406327"><ele>49.25</ele></trkpt>
<trkpt lon="-4.715821" lat="43.406355"><ele>49.5</ele></trkpt>
<trkpt lon="-4.715903" lat="43.406709"><ele>52.5</ele></trkpt>
<trkpt lon="-4.715960" lat="43.406778"><ele>53.25</ele></trkpt>
<trkpt lon="-4.716195" lat="43.406936"><ele>55.0</ele></trkpt>
<trkpt lon="-4.716214" lat="43.406948"><ele>55.25</ele></trkpt>
<trkpt lon="-4.716313" lat="43.407016"><ele>56.75</ele></trkpt>
<trkpt lon="-4.716405" lat="43.407054"><ele>57.5</ele></trkpt>
<trkpt lon="-4.716594" lat="43.407097"><ele>57.75</ele></trkpt>
<trkpt lon="-4.716877" lat="43.407124"><ele>58.75</ele></trkpt>
<trkpt lon="-4.717294" lat="43.407084"><ele>62.25</ele></trkpt>
<trkpt lon="-4.717454" lat="43.407087"><ele>63.25</ele></trkpt>
<trkpt lon="-4.717713" lat="43.407087"><ele>64.25</ele></trkpt>
<trkpt lon="-4.717694" lat="43.407129"><ele>64.5</ele></trkpt>
<trkpt lon="-4.717617" lat="43.407214"><ele>65.25</ele></trkpt>
<trkpt lon="-4.717573" lat="43.407400"><ele>68.75</ele></trkpt>
<trkpt lon="-4.717583" lat="43.407445"><ele>69.75</ele></trkpt>
<trkpt lon="-4.717584" lat="43.407528"><ele>71.5</ele></trkpt>
<trkpt lon="-4.717576" lat="43.407654"><ele>74.5</ele></trkpt>
<trkpt lon="-4.717872" lat="43.407557"><ele>74.25</ele></trkpt>
<trkpt lon="-4.717954" lat="43.407519"><ele>73.25</ele></trkpt>
<trkpt lon="-4.717921" lat="43.407560"><ele>74.5</ele></trkpt>
<trkpt lon="-4.717922" lat="43.407587"><ele>75.0</ele></trkpt>
<trkpt lon="-4.717919" lat="43.407612"><ele>75.75</ele></trkpt>
<trkpt lon="-4.717938" lat="43.407644"><ele>76.5</ele></trkpt>
<trkpt lon="-4.717965" lat="43.407665"><ele>77.25</ele></trkpt>
<trkpt lon="-4.718034" lat="43.407685"><ele>78.0</ele></trkpt>
<trkpt lon="-4.718124" lat="43.407667"><ele>78.5</ele></trkpt>
<trkpt lon="-4.718407" lat="43.407583"><ele>78.0</ele></trkpt>
<trkpt lon="-4.718727" lat="43.407516"><ele>78.25</ele></trkpt>
<trkpt lon="-4.718843" lat="43.407507"><ele>79.5</ele></trkpt>
<trkpt lon="-4.719333" lat="43.407526"><ele>83.75</ele></trkpt>
<trkpt lon="-4.719659" lat="43.407522"><ele>87.0</ele></trkpt>
<trkpt lon="-4.719671" lat="43.407532"><ele>87.5</ele></trkpt>
<trkpt lon="-4.719664" lat="43.407545"><ele>88.0</ele></trkpt>
<trkpt lon="-4.719556" lat="43.407587"><ele>88.5</ele></trkpt>
<trkpt lon="-4.719071" lat="43.407750"><ele>91.0</ele></trkpt>
<trkpt lon="-4.718851" lat="43.407834"><ele>92.25</ele></trkpt>
<trkpt lon="-4.718606" lat="43.407967"><ele>94.0</ele></trkpt>
<trkpt lon="-4.718108" lat="43.408259"><ele>96.75</ele></trkpt>
<trkpt lon="-4.717923" lat="43.408360"><ele>101.25</ele></trkpt>
<trkpt lon="-4.717761" lat="43.408394"><ele>103.5</ele></trkpt>
<trkpt lon="-4.717579" lat="43.408406"><ele>103.5</ele></trkpt>
<trkpt lon="-4.717117" lat="43.408571"><ele>107.5</ele></trkpt>
<trkpt lon="-4.716637" lat="43.408678"><ele>111.25</ele></trkpt>
<trkpt lon="-4.716310" lat="43.408666"><ele>111.75</ele></trkpt>
<trkpt lon="-4.715937" lat="43.408718"><ele>112.75</ele></trkpt>
<trkpt lon="-4.715663" lat="43.408831"><ele>117.25</ele></trkpt>
<trkpt lon="-4.715220" lat="43.409036"><ele>121.75</ele></trkpt>
<trkpt lon="-4.714960" lat="43.409143"><ele>126.0</ele></trkpt>
<trkpt lon="-4.714595" lat="43.409276"><ele>128.5</ele></trkpt>
<trkpt lon="-4.714506" lat="43.409326"><ele>129.75</ele></trkpt>
<trkpt lon="-4.714326" lat="43.409457"><ele>132.0</ele></trkpt>
<trkpt lon="-4.714265" lat="43.409537"><ele>132.0</ele></trkpt>
<trkpt lon="-4.714249" lat="43.409588"><ele>132.25</ele></trkpt>
<trkpt lon="-4.714250" lat="43.409646"><ele>132.5</ele></trkpt>
<trkpt lon="-4.714250" lat="43.409673"><ele>132.75</ele></trkpt>
<trkpt lon="-4.714279" lat="43.409715"><ele>132.75</ele></trkpt>
<trkpt lon="-4.714379" lat="43.409751"><ele>131.25</ele></trkpt>
<trkpt lon="-4.714646" lat="43.409841"><ele>128.0</ele></trkpt>
<trkpt lon="-4.714792" lat="43.409866"><ele>127.25</ele></trkpt>
<trkpt lon="-4.715037" lat="43.409846"><ele>126.5</ele></trkpt>
<trkpt lon="-4.715202" lat="43.409855"><ele>126.5</ele></trkpt>
<trkpt lon="-4.715346" lat="43.409852"><ele>126.75</ele></trkpt>
<trkpt lon="-4.715484" lat="43.409826"><ele>128.0</ele></trkpt>
<trkpt lon="-4.715585" lat="43.409847"><ele>127.25</ele></trkpt>
<trkpt lon="-4.715774" lat="43.409911"><ele>127.0</ele></trkpt>
<trkpt lon="-4.715917" lat="43.409952"><ele>126.75</ele></trkpt>
<trkpt lon="-4.716396" lat="43.410078"><ele>123.0</ele></trkpt>
<trkpt lon="-4.716469" lat="43.410073"><ele>123.25</ele></trkpt>
<trkpt lon="-4.716571" lat="43.410003"><ele>125.75</ele></trkpt>
<trkpt lon="-4.716636" lat="43.409967"><ele>126.75</ele></trkpt>
<trkpt lon="-4.716732" lat="43.409940"><ele>127.75</ele></trkpt>
<trkpt lon="-4.716826" lat="43.409933"><ele>128.5</ele></trkpt>
<trkpt lon="-4.717852" lat="43.409969"><ele>129.0</ele></trkpt>
<trkpt lon="-4.718272" lat="43.409960"><ele>128.75</ele></trkpt>
<trkpt lon="-4.718899" lat="43.409960"><ele>129.0</ele></trkpt>
<trkpt lon="-4.719023" lat="43.410008"><ele>128.0</ele></trkpt>
<trkpt lon="-4.719052" lat="43.410047"><ele>128.25</ele></trkpt>
<trkpt lon="-4.719057" lat="43.410088"><ele>128.75</ele></trkpt>
<trkpt lon="-4.719028" lat="43.410171"><ele>129.0</ele></trkpt>
<trkpt lon="-4.719018" lat="43.410234"><ele>129.25</ele></trkpt>
<trkpt lon="-4.719025" lat="43.410292"><ele>129.5</ele></trkpt>
<trkpt lon="-4.719050" lat="43.410332"><ele>129.0</ele></trkpt>
<trkpt lon="-4.719089" lat="43.410354"><ele>129.5</ele></trkpt>
<trkpt lon="-4.719152" lat="43.410366"><ele>130.75</ele></trkpt>
<trkpt lon="-4.719544" lat="43.410399"><ele>132.5</ele></trkpt>
<trkpt lon="-4.719884" lat="43.410443"><ele>132.5</ele></trkpt>
<trkpt lon="-4.720125" lat="43.410488"><ele>131.5</ele></trkpt>
<trkpt lon="-4.720599" lat="43.410544"><ele>131.0</ele></trkpt>
<trkpt lon="-4.721389" lat="43.410556"><ele>130.75</ele></trkpt>
<trkpt lon="-4.721524" lat="43.410568"><ele>128.5</ele></trkpt>
<trkpt lon="-4.721876" lat="43.410328"><ele>128.5</ele></trkpt>
<trkpt lon="-4.722011" lat="43.410277"><ele>130.25</ele></trkpt>
<trkpt lon="-4.722362" lat="43.410467"><ele>129.5</ele></trkpt>
<trkpt lon="-4.722510" lat="43.410518"><ele>131.0</ele></trkpt>
<trkpt lon="-4.722652" lat="43.410579"><ele>130.0</ele></trkpt>
<trkpt lon="-4.723037" lat="43.410581"><ele>132.0</ele></trkpt>
<trkpt lon="-4.723250" lat="43.410634"><ele>132.0</ele></trkpt>
<trkpt lon="-4.723415" lat="43.410715"><ele>132.75</ele></trkpt>
<trkpt lon="-4.723438" lat="43.410845"><ele>131.75</ele></trkpt>
<trkpt lon="-4.723418" lat="43.411017"><ele>131.5</ele></trkpt>
<trkpt lon="-4.723536" lat="43.411067"><ele>132.5</ele></trkpt>
<trkpt lon="-4.723786" lat="43.411091"><ele>133.75</ele></trkpt>
<trkpt lon="-4.723928" lat="43.411092"><ele>134.0</ele></trkpt>
<trkpt lon="-4.724066" lat="43.411080"><ele>134.25</ele></trkpt>
<trkpt lon="-4.724450" lat="43.411002"><ele>135.5</ele></trkpt>
<trkpt lon="-4.724562" lat="43.411002"><ele>135.0</ele></trkpt>
<trkpt lon="-4.724825" lat="43.411044"><ele>132.25</ele></trkpt>
<trkpt lon="-4.724946" lat="43.411055"><ele>130.75</ele></trkpt>
<trkpt lon="-4.725075" lat="43.411029"><ele>129.0</ele></trkpt>
<trkpt lon="-4.725181" lat="43.410973"><ele>127.5</ele></trkpt>
<trkpt lon="-4.725281" lat="43.410891"><ele>126.75</ele></trkpt>
<trkpt lon="-4.725522" lat="43.410625"><ele>123.75</ele></trkpt>
<trkpt lon="-4.725570" lat="43.410611"><ele>123.5</ele></trkpt>
<trkpt lon="-4.725607" lat="43.410625"><ele>124.5</ele></trkpt>
<trkpt lon="-4.725804" lat="43.410839"><ele>125.0</ele></trkpt>
<trkpt lon="-4.725959" lat="43.410973"><ele>122.25</ele></trkpt>
<trkpt lon="-4.726013" lat="43.410993"><ele>122.5</ele></trkpt>
<trkpt lon="-4.726062" lat="43.410993"><ele>123.5</ele></trkpt>
<trkpt lon="-4.726112" lat="43.410981"><ele>125.0</ele></trkpt>
<trkpt lon="-4.726173" lat="43.410941"><ele>125.0</ele></trkpt>
<trkpt lon="-4.726746" lat="43.410495"><ele>121.75</ele></trkpt>
<trkpt lon="-4.726859" lat="43.410422"><ele>121.75</ele></trkpt>
<trkpt lon="-4.727057" lat="43.410369"><ele>120.5</ele></trkpt>
<trkpt lon="-4.727277" lat="43.410372"><ele>118.0</ele></trkpt>
<trkpt lon="-4.727345" lat="43.410368"><ele>119.0</ele></trkpt>
<trkpt lon="-4.727386" lat="43.410380"><ele>119.25</ele></trkpt>
<trkpt lon="-4.727410" lat="43.410416"><ele>119.25</ele></trkpt>
<trkpt lon="-4.727391" lat="43.410526"><ele>117.75</ele></trkpt>
<trkpt lon="-4.727391" lat="43.410618"><ele>117.25</ele></trkpt>
<trkpt lon="-4.727418" lat="43.410728"><ele>118.0</ele></trkpt>
<trkpt lon="-4.727473" lat="43.410837"><ele>120.5</ele></trkpt>
<trkpt lon="-4.727531" lat="43.410890"><ele>120.75</ele></trkpt>
<trkpt lon="-4.727580" lat="43.410903"><ele>121.0</ele></trkpt>
<trkpt lon="-4.727665" lat="43.410891"><ele>122.5</ele></trkpt>
<trkpt lon="-4.727989" lat="43.410774"><ele>128.25</ele></trkpt>
<trkpt lon="-4.728237" lat="43.410705"><ele>129.25</ele></trkpt>
<trkpt lon="-4.728421" lat="43.410674"><ele>129.25</ele></trkpt>
<trkpt lon="-4.728864" lat="43.410642"><ele>127.0</ele></trkpt>
<trkpt lon="-4.729019" lat="43.410618"><ele>126.0</ele></trkpt>
<trkpt lon="-4.729265" lat="43.410569"><ele>125.25</ele></trkpt>
<trkpt lon="-4.729727" lat="43.410455"><ele>123.75</ele></trkpt>
<trkpt lon="-4.730156" lat="43.410349"><ele>125.75</ele></trkpt>
<trkpt lon="-4.730429" lat="43.410273"><ele>128.5</ele></trkpt>
<trkpt lon="-4.730599" lat="43.410202"><ele>129.75</ele></trkpt>
<trkpt lon="-4.730905" lat="43.410042"><ele>132.25</ele></trkpt>
<trkpt lon="-4.731024" lat="43.409993"><ele>133.0</ele></trkpt>
<trkpt lon="-4.731396" lat="43.409862"><ele>133.75</ele></trkpt>
<trkpt lon="-4.731505" lat="43.409814"><ele>133.5</ele></trkpt>
<trkpt lon="-4.731578" lat="43.409753"><ele>134.75</ele></trkpt>
<trkpt lon="-4.731612" lat="43.409683"><ele>135.75</ele></trkpt>
<trkpt lon="-4.731641" lat="43.409583"><ele>136.75</ele></trkpt>
<trkpt lon="-4.731675" lat="43.409534"><ele>137.0</ele></trkpt>
<trkpt lon="-4.731914" lat="43.409386"><ele>136.25</ele></trkpt>
<trkpt lon="-4.731979" lat="43.409367"><ele>136.5</ele></trkpt>
<trkpt lon="-4.732055" lat="43.409374"><ele>136.25</ele></trkpt>
<trkpt lon="-4.732242" lat="43.409449"><ele>133.75</ele></trkpt>
<trkpt lon="-4.732382" lat="43.409480"><ele>132.5</ele></trkpt>
<trkpt lon="-4.732655" lat="43.409525"><ele>129.75</ele></trkpt>
<trkpt lon="-4.732903" lat="43.409573"><ele>125.75</ele></trkpt>
<trkpt lon="-4.733083" lat="43.409593"><ele>124.25</ele></trkpt>
<trkpt lon="-4.733615" lat="43.409597"><ele>121.0</ele></trkpt>
<trkpt lon="-4.733777" lat="43.409609"><ele>118.25</ele></trkpt>
<trkpt lon="-4.733957" lat="43.409644"><ele>114.75</ele></trkpt>
<trkpt lon="-4.734077" lat="43.409678"><ele>112.25</ele></trkpt>
<trkpt lon="-4.734179" lat="43.409683"><ele>111.5</ele></trkpt>
<trkpt lon="-4.734252" lat="43.409672"><ele>110.75</ele></trkpt>
<trkpt lon="-4.734432" lat="43.409598"><ele>111.5</ele></trkpt>
<trkpt lon="-4.734981" lat="43.409440"><ele>115.0</ele></trkpt>
<trkpt lon="-4.735153" lat="43.409420"><ele>115.0</ele></trkpt>
<trkpt lon="-4.735272" lat="43.409394"><ele>115.0</ele></trkpt>
<trkpt lon="-4.735423" lat="43.409340"><ele>116.0</ele></trkpt>
<trkpt lon="-4.735911" lat="43.409135"><ele>122.0</ele></trkpt>
<trkpt lon="-4.736093" lat="43.409048"><ele>125.0</ele></trkpt>
<trkpt lon="-4.736471" lat="43.408839"><ele>132.5</ele></trkpt>
<trkpt lon="-4.736895" lat="43.408587"><ele>140.25</ele></trkpt>
<trkpt lon="-4.737020" lat="43.408535"><ele>140.5</ele></trkpt>
<trkpt lon="-4.737202" lat="43.408494"><ele>139.75</ele></trkpt>
<trkpt lon="-4.737323" lat="43.408455"><ele>139.5</ele></trkpt>
<trkpt lon="-4.737409" lat="43.408401"><ele>140.5</ele></trkpt>
<trkpt lon="-4.737522" lat="43.408304"><ele>142.0</ele></trkpt>
<trkpt lon="-4.737671" lat="43.408062"><ele>145.0</ele></trkpt>
<trkpt lon="-4.737758" lat="43.407954"><ele>146.0</ele></trkpt>
<trkpt lon="-4.737812" lat="43.407920"><ele>146.0</ele></trkpt>
<trkpt lon="-4.737885" lat="43.407874"><ele>146.0</ele></trkpt>
<trkpt lon="-4.737972" lat="43.407847"><ele>145.5</ele></trkpt>
<trkpt lon="-4.738133" lat="43.407847"><ele>143.75</ele></trkpt>
<trkpt lon="-4.738332" lat="43.407825"><ele>143.5</ele></trkpt>
<trkpt lon="-4.738497" lat="43.407779"><ele>144.0</ele></trkpt>
<trkpt lon="-4.738626" lat="43.407719"><ele>144.25</ele></trkpt>
<trkpt lon="-4.738701" lat="43.407661"><ele>144.5</ele></trkpt>
<trkpt lon="-4.738810" lat="43.407447"><ele>148.0</ele></trkpt>
<trkpt lon="-4.738898" lat="43.407347"><ele>149.0</ele></trkpt>
<trkpt lon="-4.738986" lat="43.407284"><ele>149.25</ele></trkpt>
<trkpt lon="-4.739083" lat="43.407247"><ele>149.0</ele></trkpt>
<trkpt lon="-4.739182" lat="43.407230"><ele>148.5</ele></trkpt>
<trkpt lon="-4.739379" lat="43.407260"><ele>146.75</ele></trkpt>
<trkpt lon="-4.739561" lat="43.407267"><ele>146.0</ele></trkpt>
<trkpt lon="-4.740103" lat="43.407238"><ele>143.75</ele></trkpt>
<trkpt lon="-4.740371" lat="43.407243"><ele>140.75</ele></trkpt>
<trkpt lon="-4.740672" lat="43.407271"><ele>137.0</ele></trkpt>
<trkpt lon="-4.741270" lat="43.407276"><ele>133.25</ele></trkpt>
<trkpt lon="-4.741700" lat="43.407235"><ele>133.0</ele></trkpt>
<trkpt lon="-4.742390" lat="43.407194"><ele>135.0</ele></trkpt>
<trkpt lon="-4.742886" lat="43.407101"><ele>138.0</ele></trkpt>
<trkpt lon="-4.743197" lat="43.407004"><ele>140.75</ele></trkpt>
<trkpt lon="-4.743486" lat="43.406977"><ele>139.5</ele></trkpt>
<trkpt lon="-4.743836" lat="43.406929"><ele>138.25</ele></trkpt>
<trkpt lon="-4.744048" lat="43.406910"><ele>138.25</ele></trkpt>
<trkpt lon="-4.745491" lat="43.406883"><ele>137.0</ele></trkpt>
<trkpt lon="-4.745606" lat="43.406863"><ele>137.25</ele></trkpt>
<trkpt lon="-4.746004" lat="43.406749"><ele>137.75</ele></trkpt>
<trkpt lon="-4.746374" lat="43.406589"><ele>138.0</ele></trkpt>
<trkpt lon="-4.746636" lat="43.406436"><ele>136.25</ele></trkpt>
<trkpt lon="-4.746853" lat="43.406339"><ele>133.5</ele></trkpt>
<trkpt lon="-4.747154" lat="43.406178"><ele>129.0</ele></trkpt>
<trkpt lon="-4.747632" lat="43.405848"><ele>121.25</ele></trkpt>
<trkpt lon="-4.747822" lat="43.405704"><ele>116.75</ele></trkpt>
<trkpt lon="-4.747897" lat="43.405611"><ele>114.75</ele></trkpt>
<trkpt lon="-4.747931" lat="43.405549"><ele>113.75</ele></trkpt>
<trkpt lon="-4.747973" lat="43.405515"><ele>111.5</ele></trkpt>
<trkpt lon="-4.748155" lat="43.405464"><ele>106.75</ele></trkpt>
<trkpt lon="-4.748228" lat="43.405458"><ele>105.75</ele></trkpt>
<trkpt lon="-4.748258" lat="43.405487"><ele>105.75</ele></trkpt>
<trkpt lon="-4.748260" lat="43.405535"><ele>106.5</ele></trkpt>
<trkpt lon="-4.748217" lat="43.405684"><ele>107.25</ele></trkpt>
<trkpt lon="-4.748224" lat="43.405950"><ele>102.0</ele></trkpt>
<trkpt lon="-4.748224" lat="43.405984"><ele>100.75</ele></trkpt>
<trkpt lon="-4.748049" lat="43.406658"><ele>83.25</ele></trkpt>
<trkpt lon="-4.748047" lat="43.406756"><ele>82.25</ele></trkpt>
<trkpt lon="-4.748082" lat="43.406853"><ele>80.25</ele></trkpt>
<trkpt lon="-4.748239" lat="43.407180"><ele>75.25</ele></trkpt>
<trkpt lon="-4.748228" lat="43.407240"><ele>74.75</ele></trkpt>
<trkpt lon="-4.748034" lat="43.407494"><ele>68.75</ele></trkpt>
<trkpt lon="-4.748031" lat="43.407574"><ele>67.25</ele></trkpt>
<trkpt lon="-4.748067" lat="43.407660"><ele>65.5</ele></trkpt>
<trkpt lon="-4.748197" lat="43.407765"><ele>62.5</ele></trkpt>
<trkpt lon="-4.748310" lat="43.407809"><ele>61.0</ele></trkpt>
<trkpt lon="-4.748399" lat="43.407871"><ele>59.75</ele></trkpt>
<trkpt lon="-4.748586" lat="43.408076"><ele>57.0</ele></trkpt>
<trkpt lon="-4.748633" lat="43.408137"><ele>56.5</ele></trkpt>
<trkpt lon="-4.748664" lat="43.408167"><ele>56.25</ele></trkpt>
<trkpt lon="-4.748690" lat="43.408192"><ele>56.0</ele></trkpt>
<trkpt lon="-4.749138" lat="43.408567"><ele>56.75</ele></trkpt>
<trkpt lon="-4.749378" lat="43.408921"><ele>52.75</ele></trkpt>
<trkpt lon="-4.749514" lat="43.409189"><ele>51.75</ele></trkpt>
<trkpt lon="-4.749662" lat="43.409342"><ele>50.25</ele></trkpt>
<trkpt lon="-4.749883" lat="43.409422"><ele>48.0</ele></trkpt>
<trkpt lon="-4.750878" lat="43.409698"><ele>39.25</ele></trkpt>
<trkpt lon="-4.751348" lat="43.409961"><ele>34.25</ele></trkpt>
<trkpt lon="-4.751555" lat="43.410092"><ele>32.5</ele></trkpt>
<trkpt lon="-4.751797" lat="43.410358"><ele>30.25</ele></trkpt>
<trkpt lon="-4.751887" lat="43.410574"><ele>28.25</ele></trkpt>
<trkpt lon="-4.751922" lat="43.410749"><ele>27.25</ele></trkpt>
<trkpt lon="-4.752096" lat="43.411752"><ele>23.0</ele></trkpt>
<trkpt lon="-4.752163" lat="43.412176"><ele>19.75</ele></trkpt>
<trkpt lon="-4.752277" lat="43.412714"><ele>17.5</ele></trkpt>
<trkpt lon="-4.752287" lat="43.412766"><ele>17.25</ele></trkpt>
<trkpt lon="-4.752067" lat="43.412794"><ele>16.75</ele></trkpt>
<trkpt lon="-4.752003" lat="43.412891"><ele>16.25</ele></trkpt>
<trkpt lon="-4.752108" lat="43.412962"><ele>16.0</ele></trkpt>
<trkpt lon="-4.752187" lat="43.413056"><ele>15.75</ele></trkpt>
<trkpt lon="-4.752204" lat="43.413112"><ele>15.75</ele></trkpt>
<trkpt lon="-4.752205" lat="43.413244"><ele>15.75</ele></trkpt>
<trkpt lon="-4.752166" lat="43.413398"><ele>16.0</ele></trkpt>
<trkpt lon="-4.752168" lat="43.413462"><ele>16.25</ele></trkpt>
<trkpt lon="-4.752227" lat="43.413458"><ele>16.25</ele></trkpt>
<trkpt lon="-4.752322" lat="43.413489"><ele>16.5</ele></trkpt>
<trkpt lon="-4.752456" lat="43.413702"><ele>16.0</ele></trkpt>
<trkpt lon="-4.752528" lat="43.413675"><ele>15.75</ele></trkpt>
<trkpt lon="-4.752564" lat="43.413867"><ele>15.75</ele></trkpt>
<trkpt lon="-4.752604" lat="43.414051"><ele>15.5</ele></trkpt>
<trkpt lon="-4.752971" lat="43.414949"><ele>15.25</ele></trkpt>
<trkpt lon="-4.753014" lat="43.415032"><ele>15.0</ele></trkpt>
<trkpt lon="-4.752972" lat="43.415055"><ele>15.0</ele></trkpt>
<trkpt lon="-4.752961" lat="43.415092"><ele>15.0</ele></trkpt>
<trkpt lon="-4.752982" lat="43.415124"><ele>15.0</ele></trkpt>
<trkpt lon="-4.753026" lat="43.415139"><ele>15.0</ele></trkpt>
<trkpt lon="-4.753051" lat="43.415138"><ele>15.0</ele></trkpt>
<trkpt lon="-4.753066" lat="43.415171"><ele>15.0</ele></trkpt>
<trkpt lon="-4.753102" lat="43.415322"><ele>15.0</ele></trkpt>
<trkpt lon="-4.753560" lat="43.416468"><ele>12.25</ele></trkpt>
<trkpt lon="-4.753794" lat="43.416694"><ele>11.25</ele></trkpt>
<trkpt lon="-4.753824" lat="43.416700"><ele>11.5</ele></trkpt>
<trkpt lon="-4.753860" lat="43.416707"><ele>11.5</ele></trkpt>
<trkpt lon="-4.753910" lat="43.416742"><ele>11.25</ele></trkpt>
<trkpt lon="-4.753931" lat="43.416789"><ele>11.0</ele></trkpt>
<trkpt lon="-4.753925" lat="43.416827"><ele>10.75</ele></trkpt>
<trkpt lon="-4.754178" lat="43.417005"><ele>10.75</ele></trkpt>
<trkpt lon="-4.754562" lat="43.417351"><ele>10.25</ele></trkpt>
<trkpt lon="-4.754614" lat="43.417528"><ele>9.5</ele></trkpt>
<trkpt lon="-4.754668" lat="43.417775"><ele>9.75</ele></trkpt>
<trkpt lon="-4.754687" lat="43.417902"><ele>10.0</ele></trkpt>
<trkpt lon="-4.754701" lat="43.418002"><ele>10.0</ele></trkpt>
<trkpt lon="-4.754705" lat="43.418177"><ele>9.75</ele></trkpt>
<trkpt lon="-4.754434" lat="43.418329"><ele>9.0</ele></trkpt>
<trkpt lon="-4.754808" lat="43.418970"><ele>5.5</ele></trkpt>
<trkpt lon="-4.754614" lat="43.419043"><ele>5.0</ele></trkpt>
<trkpt lon="-4.754702" lat="43.419328"><ele>4.0</ele></trkpt>
<trkpt lon="-4.754202" lat="43.419466"><ele>5.5</ele></trkpt>
<trkpt lon="-4.754231" lat="43.419495"><ele>5.0</ele></trkpt>
<trkpt lon="-4.754338" lat="43.419615"><ele>4.75</ele></trkpt>
<trkpt lon="-4.754426" lat="43.419679"><ele>5.5</ele></trkpt>
<trkpt lon="-4.754492" lat="43.419697"><ele>5.75</ele></trkpt>
<trkpt lon="-4.754646" lat="43.419755"><ele>6.75</ele></trkpt>
<trkpt lon="-4.754779" lat="43.419846"><ele>7.5</ele></trkpt>
<trkpt lon="-4.754830" lat="43.419895"><ele>7.75</ele></trkpt>
<trkpt lon="-4.754868" lat="43.419960"><ele>8.25</ele></trkpt>
<trkpt lon="-4.754882" lat="43.420014"><ele>8.5</ele></trkpt>
<trkpt lon="-4.754883" lat="43.420061"><ele>8.5</ele></trkpt>
<trkpt lon="-4.754893" lat="43.420175"><ele>9.0</ele></trkpt>
<trkpt lon="-4.754886" lat="43.420404"><ele>9.0</ele></trkpt>
<trkpt lon="-4.754962" lat="43.420569"><ele>9.0</ele></trkpt>
<trkpt lon="-4.755110" lat="43.420837"><ele>10.0</ele></trkpt>
<trkpt lon="-4.755168" lat="43.420870"><ele>10.25</ele></trkpt>
<trkpt lon="-4.755119" lat="43.420908"><ele>10.5</ele></trkpt>
<trkpt lon="-4.755077" lat="43.420955"><ele>11.25</ele></trkpt>
<trkpt lon="-4.755045" lat="43.421012"><ele>12.25</ele></trkpt>
  </trkseg></trk></gpx>
