<?xml version="1.0" encoding="UTF-8"?>
<gpx version="1.1" creator="compostel-brouter" xmlns="http://www.topografix.com/GPX/1/1">
  <metadata><name>ES-21-Colombres</name></metadata>
  <trk><name>ES-21-Colombres</name><trkseg>
<trkpt lon="-4.397331" lat="43.385194"><ele>2.0</ele></trkpt>
<trkpt lon="-4.397749" lat="43.385185"><ele>2.0</ele></trkpt>
<trkpt lon="-4.397756" lat="43.385291"><ele>2.0</ele></trkpt>
<trkpt lon="-4.397769" lat="43.385290"><ele>2.0</ele></trkpt>
<trkpt lon="-4.397761" lat="43.385145"><ele>2.0</ele></trkpt>
<trkpt lon="-4.397806" lat="43.385145"><ele>2.0</ele></trkpt>
<trkpt lon="-4.397918" lat="43.385144"><ele>2.5</ele></trkpt>
<trkpt lon="-4.397938" lat="43.385120"><ele>2.5</ele></trkpt>
<trkpt lon="-4.398043" lat="43.385041"><ele>2.25</ele></trkpt>
<trkpt lon="-4.398258" lat="43.384914"><ele>2.25</ele></trkpt>
<trkpt lon="-4.398246" lat="43.384904"><ele>2.25</ele></trkpt>
<trkpt lon="-4.398592" lat="43.384699"><ele>2.25</ele></trkpt>
<trkpt lon="-4.398832" lat="43.384553"><ele>2.25</ele></trkpt>
<trkpt lon="-4.398728" lat="43.384433"><ele>2.25</ele></trkpt>
<trkpt lon="-4.398715" lat="43.384439"><ele>2.25</ele></trkpt>
<trkpt lon="-4.396811" lat="43.382192"><ele>3.75</ele></trkpt>
<trkpt lon="-4.396799" lat="43.382153"><ele>3.75</ele></trkpt>
<trkpt lon="-4.396798" lat="43.382103"><ele>3.75</ele></trkpt>
<trkpt lon="-4.396801" lat="43.382078"><ele>3.75</ele></trkpt>
<trkpt lon="-4.396822" lat="43.382032"><ele>3.75</ele></trkpt>
<trkpt lon="-4.396868" lat="43.381984"><ele>3.75</ele></trkpt>
<trkpt lon="-4.397007" lat="43.381895"><ele>4.0</ele></trkpt>
<trkpt lon="-4.397139" lat="43.381814"><ele>4.0</ele></trkpt>
<trkpt lon="-4.397195" lat="43.381780"><ele>4.0</ele></trkpt>
<trkpt lon="-4.397224" lat="43.381759"><ele>4.0</ele></trkpt>
<trkpt lon="-4.397228" lat="43.381723"><ele>4.0</ele></trkpt>
<trkpt lon="-4.397064" lat="43.381545"><ele>4.25</ele></trkpt>
<trkpt lon="-4.397103" lat="43.381529"><ele>4.25</ele></trkpt>
<trkpt lon="-4.397130" lat="43.381518"><ele>4.5</ele></trkpt>
<trkpt lon="-4.397170" lat="43.381499"><ele>4.5</ele></trkpt>
<trkpt lon="-4.397222" lat="43.381492"><ele>4.5</ele></trkpt>
<trkpt lon="-4.397254" lat="43.381487"><ele>4.5</ele></trkpt>
<trkpt lon="-4.397257" lat="43.381467"><ele>4.5</ele></trkpt>
<trkpt lon="-4.397281" lat="43.381452"><ele>4.75</ele></trkpt>
<trkpt lon="-4.397273" lat="43.381406"><ele>4.75</ele></trkpt>
<trkpt lon="-4.397276" lat="43.381361"><ele>5.0</ele></trkpt>
<trkpt lon="-4.397290" lat="43.381293"><ele>5.5</ele></trkpt>
<trkpt lon="-4.397482" lat="43.381233"><ele>7.0</ele></trkpt>
<trkpt lon="-4.397481" lat="43.381177"><ele>7.75</ele></trkpt>
<trkpt lon="-4.397551" lat="43.381178"><ele>8.25</ele></trkpt>
<trkpt lon="-4.397598" lat="43.381195"><ele>8.75</ele></trkpt>
<trkpt lon="-4.397847" lat="43.381437"><ele>11.5</ele></trkpt>
<trkpt lon="-4.397904" lat="43.381477"><ele>11.5</ele></trkpt>
<trkpt lon="-4.397975" lat="43.381510"><ele>12.0</ele></trkpt>
<trkpt lon="-4.398042" lat="43.381531"><ele>13.0</ele></trkpt>
<trkpt lon="-4.398233" lat="43.381575"><ele>15.0</ele></trkpt>
<trkpt lon="-4.398819" lat="43.381673"><ele>23.25</ele></trkpt>
<trkpt lon="-4.399016" lat="43.381704"><ele>24.75</ele></trkpt>
<trkpt lon="-4.399085" lat="43.381672"><ele>26.0</ele></trkpt>
<trkpt lon="-4.399543" lat="43.381495"><ele>31.25</ele></trkpt>
<trkpt lon="-4.399663" lat="43.381446"><ele>32.5</ele></trkpt>
<trkpt lon="-4.399929" lat="43.381320"><ele>35.0</ele></trkpt>
<trkpt lon="-4.400258" lat="43.381141"><ele>39.5</ele></trkpt>
<trkpt lon="-4.400308" lat="43.381111"><ele>40.25</ele></trkpt>
<trkpt lon="-4.400345" lat="43.381085"><ele>40.75</ele></trkpt>
<trkpt lon="-4.400485" lat="43.380978"><ele>42.0</ele></trkpt>
<trkpt lon="-4.400579" lat="43.380897"><ele>42.5</ele></trkpt>
<trkpt lon="-4.400640" lat="43.380835"><ele>42.75</ele></trkpt>
<trkpt lon="-4.400791" lat="43.380647"><ele>44.25</ele></trkpt>
<trkpt lon="-4.400855" lat="43.380608"><ele>45.0</ele></trkpt>
<trkpt lon="-4.400918" lat="43.380589"><ele>45.25</ele></trkpt>
<trkpt lon="-4.400998" lat="43.380586"><ele>45.5</ele></trkpt>
<trkpt lon="-4.401448" lat="43.380627"><ele>45.75</ele></trkpt>
<trkpt lon="-4.401461" lat="43.380560"><ele>45.5</ele></trkpt>
<trkpt lon="-4.401487" lat="43.380485"><ele>45.5</ele></trkpt>
<trkpt lon="-4.401549" lat="43.380342"><ele>45.25</ele></trkpt>
<trkpt lon="-4.401627" lat="43.380221"><ele>45.25</ele></trkpt>
<trkpt lon="-4.401681" lat="43.380167"><ele>45.75</ele></trkpt>
<trkpt lon="-4.401751" lat="43.380111"><ele>46.0</ele></trkpt>
<trkpt lon="-4.401811" lat="43.380074"><ele>46.5</ele></trkpt>
<trkpt lon="-4.402646" lat="43.379592"><ele>53.75</ele></trkpt>
<trkpt lon="-4.402664" lat="43.379582"><ele>53.75</ele></trkpt>
<trkpt lon="-4.403243" lat="43.379222"><ele>54.5</ele></trkpt>
<trkpt lon="-4.403399" lat="43.379141"><ele>54.75</ele></trkpt>
<trkpt lon="-4.403639" lat="43.379059"><ele>54.5</ele></trkpt>
<trkpt lon="-4.403805" lat="43.378989"><ele>53.0</ele></trkpt>
<trkpt lon="-4.403908" lat="43.378917"><ele>51.75</ele></trkpt>
<trkpt lon="-4.404015" lat="43.378819"><ele>50.25</ele></trkpt>
<trkpt lon="-4.404093" lat="43.378722"><ele>49.5</ele></trkpt>
<trkpt lon="-4.404222" lat="43.378585"><ele>48.0</ele></trkpt>
<trkpt lon="-4.404371" lat="43.378439"><ele>46.5</ele></trkpt>
<trkpt lon="-4.404483" lat="43.378354"><ele>46.25</ele></trkpt>
<trkpt lon="-4.404613" lat="43.378295"><ele>45.75</ele></trkpt>
<trkpt lon="-4.404813" lat="43.378233"><ele>44.75</ele></trkpt>
<trkpt lon="-4.404970" lat="43.378204"><ele>44.5</ele></trkpt>
<trkpt lon="-4.405164" lat="43.378195"><ele>44.0</ele></trkpt>
<trkpt lon="-4.405448" lat="43.378205"><ele>43.75</ele></trkpt>
<trkpt lon="-4.406411" lat="43.378272"><ele>45.5</ele></trkpt>
<trkpt lon="-4.406534" lat="43.378260"><ele>46.0</ele></trkpt>
<trkpt lon="-4.406658" lat="43.378230"><ele>46.5</ele></trkpt>
<trkpt lon="-4.406757" lat="43.378179"><ele>46.75</ele></trkpt>
<trkpt lon="-4.406876" lat="43.378076"><ele>47.0</ele></trkpt>
<trkpt lon="-4.407113" lat="43.377778"><ele>44.5</ele></trkpt>
<trkpt lon="-4.407214" lat="43.377606"><ele>44.25</ele></trkpt>
<trkpt lon="-4.407344" lat="43.377412"><ele>44.5</ele></trkpt>
<trkpt lon="-4.407477" lat="43.377282"><ele>45.25</ele></trkpt>
<trkpt lon="-4.407640" lat="43.377137"><ele>47.0</ele></trkpt>
<trkpt lon="-4.407741" lat="43.377052"><ele>47.5</ele></trkpt>
<trkpt lon="-4.407804" lat="43.376979"><ele>47.25</ele></trkpt>
<trkpt lon="-4.407847" lat="43.376890"><ele>47.25</ele></trkpt>
<trkpt lon="-4.407913" lat="43.376714"><ele>46.5</ele></trkpt>
<trkpt lon="-4.407965" lat="43.376639"><ele>45.75</ele></trkpt>
<trkpt lon="-4.408045" lat="43.376545"><ele>45.5</ele></trkpt>
<trkpt lon="-4.408159" lat="43.376458"><ele>45.25</ele></trkpt>
<trkpt lon="-4.408322" lat="43.376382"><ele>46.0</ele></trkpt>
<trkpt lon="-4.408696" lat="43.376237"><ele>47.0</ele></trkpt>
<trkpt lon="-4.409056" lat="43.376078"><ele>47.75</ele></trkpt>
<trkpt lon="-4.409182" lat="43.376013"><ele>47.75</ele></trkpt>
<trkpt lon="-4.409347" lat="43.375902"><ele>47.75</ele></trkpt>
<trkpt lon="-4.409672" lat="43.375658"><ele>46.0</ele></trkpt>
<trkpt lon="-4.409794" lat="43.375529"><ele>44.5</ele></trkpt>
<trkpt lon="-4.409982" lat="43.375292"><ele>44.0</ele></trkpt>
<trkpt lon="-4.410195" lat="43.374937"><ele>43.25</ele></trkpt>
<trkpt lon="-4.410310" lat="43.374782"><ele>44.25</ele></trkpt>
<trkpt lon="-4.410381" lat="43.374703"><ele>45.25</ele></trkpt>
<trkpt lon="-4.410485" lat="43.374602"><ele>46.75</ele></trkpt>
<trkpt lon="-4.410573" lat="43.374503"><ele>48.75</ele></trkpt>
<trkpt lon="-4.410689" lat="43.374363"><ele>51.25</ele></trkpt>
<trkpt lon="-4.410722" lat="43.374303"><ele>52.25</ele></trkpt>
<trkpt lon="-4.410693" lat="43.374158"><ele>54.5</ele></trkpt>
<trkpt lon="-4.410602" lat="43.373910"><ele>57.75</ele></trkpt>
<trkpt lon="-4.410602" lat="43.373827"><ele>57.5</ele></trkpt>
<trkpt lon="-4.410617" lat="43.373765"><ele>56.75</ele></trkpt>
<trkpt lon="-4.410827" lat="43.373304"><ele>55.25</ele></trkpt>
<trkpt lon="-4.411063" lat="43.372881"><ele>54.25</ele></trkpt>
<trkpt lon="-4.411077" lat="43.372758"><ele>54.25</ele></trkpt>
<trkpt lon="-4.411062" lat="43.372630"><ele>55.0</ele></trkpt>
<trkpt lon="-4.411024" lat="43.372536"><ele>55.0</ele></trkpt>
<trkpt lon="-4.410976" lat="43.372472"><ele>55.0</ele></trkpt>
<trkpt lon="-4.410898" lat="43.372396"><ele>55.0</ele></trkpt>
<trkpt lon="-4.410731" lat="43.372274"><ele>56.5</ele></trkpt>
<trkpt lon="-4.410421" lat="43.372088"><ele>59.5</ele></trkpt>
<trkpt lon="-4.410138" lat="43.371847"><ele>56.25</ele></trkpt>
<trkpt lon="-4.410036" lat="43.371783"><ele>55.0</ele></trkpt>
<trkpt lon="-4.409605" lat="43.371620"><ele>55.0</ele></trkpt>
<trkpt lon="-4.409484" lat="43.371543"><ele>54.0</ele></trkpt>
<trkpt lon="-4.409426" lat="43.371459"><ele>52.5</ele></trkpt>
<trkpt lon="-4.409412" lat="43.371354"><ele>50.75</ele></trkpt>
<trkpt lon="-4.409418" lat="43.371265"><ele>50.25</ele></trkpt>
<trkpt lon="-4.409496" lat="43.371013"><ele>46.75</ele></trkpt>
<trkpt lon="-4.409697" lat="43.370465"><ele>46.25</ele></trkpt>
<trkpt lon="-4.409740" lat="43.370356"><ele>46.75</ele></trkpt>
<trkpt lon="-4.409772" lat="43.370249"><ele>46.0</ele></trkpt>
<trkpt lon="-4.409783" lat="43.370171"><ele>45.25</ele></trkpt>
<trkpt lon="-4.409705" lat="43.369657"><ele>42.5</ele></trkpt>
<trkpt lon="-4.409667" lat="43.369432"><ele>41.0</ele></trkpt>
<trkpt lon="-4.409858" lat="43.369420"><ele>40.5</ele></trkpt>
<trkpt lon="-4.410038" lat="43.369430"><ele>39.75</ele></trkpt>
<trkpt lon="-4.410402" lat="43.369521"><ele>38.5</ele></trkpt>
<trkpt lon="-4.410770" lat="43.369593"><ele>36.75</ele></trkpt>
<trkpt lon="-4.411181" lat="43.369718"><ele>32.5</ele></trkpt>
<trkpt lon="-4.412022" lat="43.369688"><ele>27.75</ele></trkpt>
<trkpt lon="-4.412538" lat="43.369656"><ele>26.75</ele></trkpt>
<trkpt lon="-4.413844" lat="43.369592"><ele>19.75</ele></trkpt>
<trkpt lon="-4.414174" lat="43.369588"><ele>17.75</ele></trkpt>
<trkpt lon="-4.414359" lat="43.369595"><ele>17.0</ele></trkpt>
<trkpt lon="-4.414876" lat="43.369675"><ele>15.5</ele></trkpt>
<trkpt lon="-4.415094" lat="43.369675"><ele>14.25</ele></trkpt>
<trkpt lon="-4.415413" lat="43.369639"><ele>12.5</ele></trkpt>
<trkpt lon="-4.415825" lat="43.369499"><ele>10.0</ele></trkpt>
<trkpt lon="-4.415916" lat="43.369487"><ele>10.0</ele></trkpt>
<trkpt lon="-4.416098" lat="43.369463"><ele>10.0</ele></trkpt>
<trkpt lon="-4.416210" lat="43.369449"><ele>10.25</ele></trkpt>
<trkpt lon="-4.416564" lat="43.369456"><ele>10.75</ele></trkpt>
<trkpt lon="-4.416795" lat="43.369479"><ele>11.0</ele></trkpt>
<trkpt lon="-4.417157" lat="43.369551"><ele>10.75</ele></trkpt>
<trkpt lon="-4.417580" lat="43.369562"><ele>11.0</ele></trkpt>
<trkpt lon="-4.417809" lat="43.369560"><ele>11.25</ele></trkpt>
<trkpt lon="-4.417912" lat="43.369531"><ele>12.25</ele></trkpt>
<trkpt lon="-4.418001" lat="43.369461"><ele>14.5</ele></trkpt>
<trkpt lon="-4.418068" lat="43.369453"><ele>14.75</ele></trkpt>
<trkpt lon="-4.418850" lat="43.369484"><ele>15.0</ele></trkpt>
<trkpt lon="-4.419062" lat="43.369482"><ele>15.25</ele></trkpt>
<trkpt lon="-4.419301" lat="43.369488"><ele>13.75</ele></trkpt>
<trkpt lon="-4.419539" lat="43.369483"><ele>12.25</ele></trkpt>
<trkpt lon="-4.419608" lat="43.369502"><ele>12.0</ele></trkpt>
<trkpt lon="-4.419823" lat="43.369649"><ele>11.0</ele></trkpt>
<trkpt lon="-4.419920" lat="43.369658"><ele>10.75</ele></trkpt>
<trkpt lon="-4.420693" lat="43.369661"><ele>10.0</ele></trkpt>
<trkpt lon="-4.421706" lat="43.369633"><ele>5.75</ele></trkpt>
<trkpt lon="-4.421879" lat="43.369629"><ele>5.25</ele></trkpt>
<trkpt lon="-4.422218" lat="43.369498"><ele>4.25</ele></trkpt>
<trkpt lon="-4.422876" lat="43.369347"><ele>9.5</ele></trkpt>
<trkpt lon="-4.422940" lat="43.369326"><ele>11.25</ele></trkpt>
<trkpt lon="-4.423413" lat="43.369207"><ele>21.5</ele></trkpt>
<trkpt lon="-4.424013" lat="43.369077"><ele>29.0</ele></trkpt>
<trkpt lon="-4.424984" lat="43.368795"><ele>44.75</ele></trkpt>
<trkpt lon="-4.425645" lat="43.368619"><ele>55.0</ele></trkpt>
<trkpt lon="-4.426311" lat="43.368553"><ele>58.5</ele></trkpt>
<trkpt lon="-4.426603" lat="43.368503"><ele>59.75</ele></trkpt>
<trkpt lon="-4.427459" lat="43.368295"><ele>66.5</ele></trkpt>
<trkpt lon="-4.427918" lat="43.368191"><ele>69.5</ele></trkpt>
<trkpt lon="-4.428430" lat="43.368086"><ele>73.75</ele></trkpt>
<trkpt lon="-4.428689" lat="43.368050"><ele>76.25</ele></trkpt>
<trkpt lon="-4.428992" lat="43.367988"><ele>79.0</ele></trkpt>
<trkpt lon="-4.429275" lat="43.367900"><ele>81.25</ele></trkpt>
<trkpt lon="-4.429600" lat="43.367816"><ele>83.0</ele></trkpt>
<trkpt lon="-4.430291" lat="43.367660"><ele>87.75</ele></trkpt>
<trkpt lon="-4.430500" lat="43.367576"><ele>89.75</ele></trkpt>
<trkpt lon="-4.430764" lat="43.367450"><ele>93.75</ele></trkpt>
<trkpt lon="-4.431150" lat="43.367296"><ele>98.75</ele></trkpt>
<trkpt lon="-4.431499" lat="43.367188"><ele>104.5</ele></trkpt>
<trkpt lon="-4.431843" lat="43.367110"><ele>109.25</ele></trkpt>
<trkpt lon="-4.432141" lat="43.367054"><ele>112.25</ele></trkpt>
<trkpt lon="-4.432529" lat="43.367011"><ele>114.5</ele></trkpt>
<trkpt lon="-4.432826" lat="43.366988"><ele>116.25</ele></trkpt>
<trkpt lon="-4.433077" lat="43.366956"><ele>117.25</ele></trkpt>
<trkpt lon="-4.433432" lat="43.366863"><ele>118.25</ele></trkpt>
<trkpt lon="-4.433861" lat="43.366677"><ele>120.75</ele></trkpt>
<trkpt lon="-4.434329" lat="43.366407"><ele>122.25</ele></trkpt>
<trkpt lon="-4.434679" lat="43.366217"><ele>122.25</ele></trkpt>
<trkpt lon="-4.434855" lat="43.366111"><ele>122.5</ele></trkpt>
<trkpt lon="-4.435089" lat="43.365887"><ele>119.0</ele></trkpt>
<trkpt lon="-4.435265" lat="43.365781"><ele>117.5</ele></trkpt>
<trkpt lon="-4.435474" lat="43.365695"><ele>116.0</ele></trkpt>
<trkpt lon="-4.435879" lat="43.365587"><ele>115.25</ele></trkpt>
<trkpt lon="-4.436369" lat="43.365496"><ele>117.75</ele></trkpt>
<trkpt lon="-4.436622" lat="43.365495"><ele>117.75</ele></trkpt>
<trkpt lon="-4.438024" lat="43.365487"><ele>120.5</ele></trkpt>
<trkpt lon="-4.438244" lat="43.365206"><ele>122.25</ele></trkpt>
<trkpt lon="-4.438289" lat="43.365168"><ele>122.0</ele></trkpt>
<trkpt lon="-4.438419" lat="43.365124"><ele>122.5</ele></trkpt>
<trkpt lon="-4.438729" lat="43.365053"><ele>125.25</ele></trkpt>
<trkpt lon="-4.439403" lat="43.364939"><ele>128.0</ele></trkpt>
<trkpt lon="-4.439598" lat="43.364892"><ele>126.75</ele></trkpt>
<trkpt lon="-4.439835" lat="43.364810"><ele>125.0</ele></trkpt>
<trkpt lon="-4.440113" lat="43.364683"><ele>122.75</ele></trkpt>
<trkpt lon="-4.440234" lat="43.364662"><ele>122.0</ele></trkpt>
<trkpt lon="-4.440472" lat="43.364663"><ele>120.75</ele></trkpt>
<trkpt lon="-4.440841" lat="43.364689"><ele>119.5</ele></trkpt>
<trkpt lon="-4.441228" lat="43.364670"><ele>118.0</ele></trkpt>
<trkpt lon="-4.441369" lat="43.364630"><ele>117.0</ele></trkpt>
<trkpt lon="-4.441697" lat="43.364518"><ele>114.5</ele></trkpt>
<trkpt lon="-4.441836" lat="43.364510"><ele>115.0</ele></trkpt>
<trkpt lon="-4.441929" lat="43.364521"><ele>115.5</ele></trkpt>
<trkpt lon="-4.442011" lat="43.364510"><ele>115.0</ele></trkpt>
<trkpt lon="-4.442099" lat="43.364470"><ele>114.0</ele></trkpt>
<trkpt lon="-4.442225" lat="43.364379"><ele>112.0</ele></trkpt>
<trkpt lon="-4.442409" lat="43.364298"><ele>110.75</ele></trkpt>
<trkpt lon="-4.443052" lat="43.364084"><ele>110.0</ele></trkpt>
<trkpt lon="-4.443226" lat="43.364057"><ele>109.75</ele></trkpt>
<trkpt lon="-4.443358" lat="43.364019"><ele>109.25</ele></trkpt>
<trkpt lon="-4.443448" lat="43.363948"><ele>109.0</ele></trkpt>
<trkpt lon="-4.443608" lat="43.363778"><ele>108.0</ele></trkpt>
<trkpt lon="-4.443704" lat="43.363702"><ele>107.75</ele></trkpt>
<trkpt lon="-4.443797" lat="43.363648"><ele>107.75</ele></trkpt>
<trkpt lon="-4.443972" lat="43.363587"><ele>107.75</ele></trkpt>
<trkpt lon="-4.444351" lat="43.363522"><ele>108.0</ele></trkpt>
<trkpt lon="-4.444432" lat="43.363496"><ele>108.0</ele></trkpt>
<trkpt lon="-4.444675" lat="43.363342"><ele>108.0</ele></trkpt>
<trkpt lon="-4.444791" lat="43.363276"><ele>108.25</ele></trkpt>
<trkpt lon="-4.444901" lat="43.363224"><ele>108.75</ele></trkpt>
<trkpt lon="-4.444964" lat="43.363182"><ele>109.0</ele></trkpt>
<trkpt lon="-4.444994" lat="43.363130"><ele>109.25</ele></trkpt>
<trkpt lon="-4.445009" lat="43.362975"><ele>110.0</ele></trkpt>
<trkpt lon="-4.445836" lat="43.362980"><ele>110.25</ele></trkpt>
<trkpt lon="-4.447050" lat="43.362998"><ele>112.0</ele></trkpt>
<trkpt lon="-4.447486" lat="43.362948"><ele>112.25</ele></trkpt>
<trkpt lon="-4.447913" lat="43.362909"><ele>112.75</ele></trkpt>
<trkpt lon="-4.448048" lat="43.362921"><ele>112.75</ele></trkpt>
<trkpt lon="-4.448157" lat="43.362924"><ele>113.0</ele></trkpt>
<trkpt lon="-4.448480" lat="43.362932"><ele>113.0</ele></trkpt>
<trkpt lon="-4.448644" lat="43.362929"><ele>113.0</ele></trkpt>
<trkpt lon="-4.448899" lat="43.362891"><ele>114.0</ele></trkpt>
<trkpt lon="-4.449098" lat="43.362879"><ele>114.0</ele></trkpt>
<trkpt lon="-4.449123" lat="43.362873"><ele>114.0</ele></trkpt>
<trkpt lon="-4.449184" lat="43.362856"><ele>113.75</ele></trkpt>
<trkpt lon="-4.449249" lat="43.362831"><ele>113.75</ele></trkpt>
<trkpt lon="-4.449752" lat="43.362834"><ele>114.25</ele></trkpt>
<trkpt lon="-4.450335" lat="43.362821"><ele>117.0</ele></trkpt>
<trkpt lon="-4.450634" lat="43.362838"><ele>118.0</ele></trkpt>
<trkpt lon="-4.450727" lat="43.362876"><ele>118.25</ele></trkpt>
<trkpt lon="-4.450774" lat="43.362944"><ele>118.0</ele></trkpt>
<trkpt lon="-4.450928" lat="43.362910"><ele>118.75</ele></trkpt>
<trkpt lon="-4.451095" lat="43.362864"><ele>119.5</ele></trkpt>
<trkpt lon="-4.451204" lat="43.362851"><ele>120.25</ele></trkpt>
<trkpt lon="-4.451276" lat="43.362771"><ele>121.0</ele></trkpt>
<trkpt lon="-4.451349" lat="43.362611"><ele>119.25</ele></trkpt>
<trkpt lon="-4.451525" lat="43.362616"><ele>120.25</ele></trkpt>
<trkpt lon="-4.452003" lat="43.362612"><ele>121.5</ele></trkpt>
<trkpt lon="-4.452518" lat="43.362662"><ele>121.0</ele></trkpt>
<trkpt lon="-4.452726" lat="43.362684"><ele>120.75</ele></trkpt>
<trkpt lon="-4.452914" lat="43.362663"><ele>120.25</ele></trkpt>
<trkpt lon="-4.453150" lat="43.362621"><ele>120.0</ele></trkpt>
<trkpt lon="-4.453350" lat="43.362598"><ele>120.0</ele></trkpt>
<trkpt lon="-4.453579" lat="43.362585"><ele>120.0</ele></trkpt>
<trkpt lon="-4.453773" lat="43.362582"><ele>119.5</ele></trkpt>
<trkpt lon="-4.454764" lat="43.362657"><ele>117.25</ele></trkpt>
<trkpt lon="-4.454955" lat="43.362605"><ele>116.5</ele></trkpt>
<trkpt lon="-4.455262" lat="43.362560"><ele>115.25</ele></trkpt>
<trkpt lon="-4.455442" lat="43.362525"><ele>115.5</ele></trkpt>
<trkpt lon="-4.455593" lat="43.362475"><ele>115.25</ele></trkpt>
<trkpt lon="-4.455774" lat="43.362437"><ele>114.5</ele></trkpt>
<trkpt lon="-4.455882" lat="43.362429"><ele>114.25</ele></trkpt>
<trkpt lon="-4.456332" lat="43.362443"><ele>113.0</ele></trkpt>
<trkpt lon="-4.456513" lat="43.362436"><ele>112.5</ele></trkpt>
<trkpt lon="-4.456725" lat="43.362405"><ele>111.75</ele></trkpt>
<trkpt lon="-4.456904" lat="43.362397"><ele>112.5</ele></trkpt>
<trkpt lon="-4.457115" lat="43.362420"><ele>113.0</ele></trkpt>
<trkpt lon="-4.457349" lat="43.362428"><ele>113.25</ele></trkpt>
<trkpt lon="-4.457490" lat="43.362421"><ele>113.25</ele></trkpt>
<trkpt lon="-4.457672" lat="43.362445"><ele>113.0</ele></trkpt>
<trkpt lon="-4.457809" lat="43.362479"><ele>113.0</ele></trkpt>
<trkpt lon="-4.457947" lat="43.362498"><ele>113.0</ele></trkpt>
<trkpt lon="-4.458140" lat="43.362513"><ele>112.25</ele></trkpt>
<trkpt lon="-4.458263" lat="43.362501"><ele>112.0</ele></trkpt>
<trkpt lon="-4.458407" lat="43.362447"><ele>111.75</ele></trkpt>
<trkpt lon="-4.458544" lat="43.362379"><ele>111.0</ele></trkpt>
<trkpt lon="-4.458676" lat="43.362329"><ele>109.75</ele></trkpt>
<trkpt lon="-4.458798" lat="43.362298"><ele>108.5</ele></trkpt>
<trkpt lon="-4.458941" lat="43.362282"><ele>107.75</ele></trkpt>
<trkpt lon="-4.459144" lat="43.362281"><ele>106.75</ele></trkpt>
<trkpt lon="-4.459658" lat="43.362319"><ele>106.0</ele></trkpt>
<trkpt lon="-4.459903" lat="43.362301"><ele>106.75</ele></trkpt>
<trkpt lon="-4.460074" lat="43.362263"><ele>106.75</ele></trkpt>
<trkpt lon="-4.460188" lat="43.362201"><ele>106.0</ele></trkpt>
<trkpt lon="-4.460283" lat="43.362116"><ele>105.5</ele></trkpt>
<trkpt lon="-4.460341" lat="43.362025"><ele>104.5</ele></trkpt>
<trkpt lon="-4.460366" lat="43.361937"><ele>103.5</ele></trkpt>
<trkpt lon="-4.460455" lat="43.361742"><ele>99.75</ele></trkpt>
<trkpt lon="-4.460512" lat="43.361666"><ele>99.0</ele></trkpt>
<trkpt lon="-4.460635" lat="43.361592"><ele>98.5</ele></trkpt>
<trkpt lon="-4.460739" lat="43.361556"><ele>97.75</ele></trkpt>
<trkpt lon="-4.460902" lat="43.361525"><ele>96.5</ele></trkpt>
<trkpt lon="-4.461060" lat="43.361508"><ele>95.5</ele></trkpt>
<trkpt lon="-4.461264" lat="43.361509"><ele>95.0</ele></trkpt>
<trkpt lon="-4.461713" lat="43.361548"><ele>93.5</ele></trkpt>
<trkpt lon="-4.461852" lat="43.361555"><ele>93.75</ele></trkpt>
<trkpt lon="-4.462048" lat="43.361539"><ele>94.25</ele></trkpt>
<trkpt lon="-4.462225" lat="43.361485"><ele>94.0</ele></trkpt>
<trkpt lon="-4.462338" lat="43.361442"><ele>94.0</ele></trkpt>
<trkpt lon="-4.462519" lat="43.361366"><ele>94.25</ele></trkpt>
<trkpt lon="-4.462652" lat="43.361301"><ele>94.0</ele></trkpt>
<trkpt lon="-4.462854" lat="43.361227"><ele>93.25</ele></trkpt>
<trkpt lon="-4.463986" lat="43.360940"><ele>93.5</ele></trkpt>
<trkpt lon="-4.464144" lat="43.360880"><ele>94.0</ele></trkpt>
<trkpt lon="-4.464373" lat="43.360779"><ele>94.25</ele></trkpt>
<trkpt lon="-4.464984" lat="43.360445"><ele>99.25</ele></trkpt>
<trkpt lon="-4.465154" lat="43.360371"><ele>99.5</ele></trkpt>
<trkpt lon="-4.465269" lat="43.360332"><ele>99.5</ele></trkpt>
<trkpt lon="-4.465460" lat="43.360280"><ele>98.25</ele></trkpt>
<trkpt lon="-4.465606" lat="43.360246"><ele>98.75</ele></trkpt>
<trkpt lon="-4.465727" lat="43.360226"><ele>99.5</ele></trkpt>
<trkpt lon="-4.465914" lat="43.360218"><ele>99.5</ele></trkpt>
<trkpt lon="-4.466106" lat="43.360231"><ele>98.5</ele></trkpt>
<trkpt lon="-4.466315" lat="43.360264"><ele>96.0</ele></trkpt>
<trkpt lon="-4.466590" lat="43.360320"><ele>93.5</ele></trkpt>
<trkpt lon="-4.469096" lat="43.360939"><ele>83.25</ele></trkpt>
<trkpt lon="-4.469231" lat="43.360998"><ele>83.0</ele></trkpt>
<trkpt lon="-4.469337" lat="43.361070"><ele>82.0</ele></trkpt>
<trkpt lon="-4.469956" lat="43.361548"><ele>77.25</ele></trkpt>
<trkpt lon="-4.470482" lat="43.361932"><ele>77.25</ele></trkpt>
<trkpt lon="-4.470687" lat="43.362070"><ele>77.5</ele></trkpt>
<trkpt lon="-4.470928" lat="43.362151"><ele>75.5</ele></trkpt>
<trkpt lon="-4.471175" lat="43.362244"><ele>75.5</ele></trkpt>
<trkpt lon="-4.471422" lat="43.362326"><ele>74.0</ele></trkpt>
<trkpt lon="-4.471755" lat="43.362449"><ele>72.5</ele></trkpt>
<trkpt lon="-4.471936" lat="43.362499"><ele>73.0</ele></trkpt>
<trkpt lon="-4.472247" lat="43.362615"><ele>72.0</ele></trkpt>
<trkpt lon="-4.472941" lat="43.362844"><ele>66.5</ele></trkpt>
<trkpt lon="-4.473102" lat="43.362914"><ele>65.5</ele></trkpt>
<trkpt lon="-4.473311" lat="43.363031"><ele>63.0</ele></trkpt>
<trkpt lon="-4.473583" lat="43.363126"><ele>63.25</ele></trkpt>
<trkpt lon="-4.473716" lat="43.363179"><ele>62.0</ele></trkpt>
<trkpt lon="-4.473839" lat="43.363253"><ele>60.75</ele></trkpt>
<trkpt lon="-4.473971" lat="43.363374"><ele>60.25</ele></trkpt>
<trkpt lon="-4.474084" lat="43.363438"><ele>59.5</ele></trkpt>
<trkpt lon="-4.474171" lat="43.363473"><ele>58.75</ele></trkpt>
<trkpt lon="-4.474495" lat="43.363531"><ele>56.25</ele></trkpt>
<trkpt lon="-4.474634" lat="43.363569"><ele>55.0</ele></trkpt>
<trkpt lon="-4.474917" lat="43.363698"><ele>54.5</ele></trkpt>
<trkpt lon="-4.475115" lat="43.363770"><ele>53.25</ele></trkpt>
<trkpt lon="-4.475640" lat="43.363952"><ele>48.75</ele></trkpt>
<trkpt lon="-4.476339" lat="43.364156"><ele>48.5</ele></trkpt>
<trkpt lon="-4.476692" lat="43.364302"><ele>49.5</ele></trkpt>
<trkpt lon="-4.476887" lat="43.364371"><ele>48.75</ele></trkpt>
<trkpt lon="-4.477107" lat="43.364397"><ele>46.5</ele></trkpt>
<trkpt lon="-4.477567" lat="43.364404"><ele>42.25</ele></trkpt>
<trkpt lon="-4.477823" lat="43.364429"><ele>39.5</ele></trkpt>
<trkpt lon="-4.478014" lat="43.364460"><ele>38.0</ele></trkpt>
<trkpt lon="-4.478491" lat="43.364573"><ele>32.75</ele></trkpt>
<trkpt lon="-4.478690" lat="43.364606"><ele>30.0</ele></trkpt>
<trkpt lon="-4.478836" lat="43.364642"><ele>29.25</ele></trkpt>
<trkpt lon="-4.479142" lat="43.364701"><ele>27.5</ele></trkpt>
<trkpt lon="-4.479252" lat="43.364734"><ele>27.5</ele></trkpt>
<trkpt lon="-4.479355" lat="43.364793"><ele>28.5</ele></trkpt>
<trkpt lon="-4.479452" lat="43.364860"><ele>29.25</ele></trkpt>
<trkpt lon="-4.479623" lat="43.364933"><ele>25.5</ele></trkpt>
<trkpt lon="-4.479930" lat="43.364996"><ele>20.5</ele></trkpt>
<trkpt lon="-4.480476" lat="43.365153"><ele>16.75</ele></trkpt>
<trkpt lon="-4.480606" lat="43.365208"><ele>14.0</ele></trkpt>
<trkpt lon="-4.480784" lat="43.365330"><ele>12.0</ele></trkpt>
<trkpt lon="-4.481260" lat="43.365711"><ele>6.5</ele></trkpt>
<trkpt lon="-4.481403" lat="43.365814"><ele>5.0</ele></trkpt>
<trkpt lon="-4.481566" lat="43.365872"><ele>4.25</ele></trkpt>
<trkpt lon="-4.481563" lat="43.365931"><ele>4.25</ele></trkpt>
<trkpt lon="-4.481599" lat="43.366090"><ele>4.0</ele></trkpt>
<trkpt lon="-4.481686" lat="43.366368"><ele>4.75</ele></trkpt>
<trkpt lon="-4.481810" lat="43.366629"><ele>9.75</ele></trkpt>
<trkpt lon="-4.482137" lat="43.367183"><ele>9.0</ele></trkpt>
<trkpt lon="-4.482225" lat="43.367353"><ele>7.75</ele></trkpt>
<trkpt lon="-4.482552" lat="43.367920"><ele>8.75</ele></trkpt>
<trkpt lon="-4.482664" lat="43.368034"><ele>8.25</ele></trkpt>
<trkpt lon="-4.482772" lat="43.368132"><ele>9.5</ele></trkpt>
<trkpt lon="-4.482905" lat="43.368235"><ele>10.25</ele></trkpt>
<trkpt lon="-4.483047" lat="43.368325"><ele>9.0</ele></trkpt>
<trkpt lon="-4.483370" lat="43.368510"><ele>9.0</ele></trkpt>
<trkpt lon="-4.483518" lat="43.368518"><ele>7.75</ele></trkpt>
<trkpt lon="-4.483610" lat="43.368538"><ele>7.5</ele></trkpt>
<trkpt lon="-4.483697" lat="43.368566"><ele>8.5</ele></trkpt>
<trkpt lon="-4.483785" lat="43.368641"><ele>10.0</ele></trkpt>
<trkpt lon="-4.483889" lat="43.368785"><ele>9.25</ele></trkpt>
<trkpt lon="-4.483895" lat="43.368845"><ele>9.0</ele></trkpt>
<trkpt lon="-4.483883" lat="43.368919"><ele>8.75</ele></trkpt>
<trkpt lon="-4.483836" lat="43.369038"><ele>8.25</ele></trkpt>
<trkpt lon="-4.483843" lat="43.369113"><ele>7.5</ele></trkpt>
<trkpt lon="-4.483831" lat="43.369242"><ele>6.5</ele></trkpt>
<trkpt lon="-4.483799" lat="43.369341"><ele>5.75</ele></trkpt>
<trkpt lon="-4.483745" lat="43.369448"><ele>5.0</ele></trkpt>
<trkpt lon="-4.483671" lat="43.369543"><ele>6.75</ele></trkpt>
<trkpt lon="-4.483586" lat="43.369623"><ele>8.75</ele></trkpt>
<trkpt lon="-4.483508" lat="43.369680"><ele>9.25</ele></trkpt>
<trkpt lon="-4.483305" lat="43.369777"><ele>6.5</ele></trkpt>
<trkpt lon="-4.483110" lat="43.369841"><ele>7.0</ele></trkpt>
<trkpt lon="-4.482981" lat="43.369870"><ele>6.75</ele></trkpt>
<trkpt lon="-4.482628" lat="43.369936"><ele>5.0</ele></trkpt>
<trkpt lon="-4.481850" lat="43.370067"><ele>6.0</ele></trkpt>
<trkpt lon="-4.481458" lat="43.370147"><ele>7.0</ele></trkpt>
<trkpt lon="-4.480086" lat="43.370460"><ele>6.5</ele></trkpt>
<trkpt lon="-4.479448" lat="43.370623"><ele>6.25</ele></trkpt>
<trkpt lon="-4.479395" lat="43.370649"><ele>6.25</ele></trkpt>
<trkpt lon="-4.479362" lat="43.370680"><ele>6.25</ele></trkpt>
<trkpt lon="-4.479354" lat="43.370727"><ele>5.25</ele></trkpt>
<trkpt lon="-4.479551" lat="43.371816"><ele>3.75</ele></trkpt>
<trkpt lon="-4.479596" lat="43.372063"><ele>3.75</ele></trkpt>
<trkpt lon="-4.479617" lat="43.372232"><ele>4.0</ele></trkpt>
<trkpt lon="-4.479608" lat="43.372367"><ele>5.75</ele></trkpt>
<trkpt lon="-4.480269" lat="43.372195"><ele>5.5</ele></trkpt>
<trkpt lon="-4.480460" lat="43.372152"><ele>7.25</ele></trkpt>
<trkpt lon="-4.480748" lat="43.372114"><ele>9.25</ele></trkpt>
<trkpt lon="-4.481259" lat="43.372119"><ele>14.5</ele></trkpt>
<trkpt lon="-4.481503" lat="43.372116"><ele>17.25</ele></trkpt>
<trkpt lon="-4.482178" lat="43.372039"><ele>25.75</ele></trkpt>
<trkpt lon="-4.482394" lat="43.372036"><ele>27.25</ele></trkpt>
<trkpt lon="-4.482602" lat="43.372050"><ele>29.25</ele></trkpt>
<trkpt lon="-4.482779" lat="43.372041"><ele>30.75</ele></trkpt>
<trkpt lon="-4.482949" lat="43.372043"><ele>33.0</ele></trkpt>
<trkpt lon="-4.483012" lat="43.372060"><ele>33.75</ele></trkpt>
<trkpt lon="-4.483084" lat="43.372079"><ele>34.5</ele></trkpt>
<trkpt lon="-4.483204" lat="43.372135"><ele>35.0</ele></trkpt>
<trkpt lon="-4.483358" lat="43.372195"><ele>35.25</ele></trkpt>
<trkpt lon="-4.483528" lat="43.372247"><ele>35.5</ele></trkpt>
<trkpt lon="-4.483717" lat="43.372301"><ele>36.0</ele></trkpt>
<trkpt lon="-4.484041" lat="43.372381"><ele>38.25</ele></trkpt>
<trkpt lon="-4.484767" lat="43.372585"><ele>45.25</ele></trkpt>
<trkpt lon="-4.485316" lat="43.372708"><ele>50.5</ele></trkpt>
<trkpt lon="-4.485583" lat="43.372745"><ele>51.0</ele></trkpt>
<trkpt lon="-4.486005" lat="43.372747"><ele>52.75</ele></trkpt>
<trkpt lon="-4.486126" lat="43.372761"><ele>54.0</ele></trkpt>
<trkpt lon="-4.486184" lat="43.372791"><ele>54.5</ele></trkpt>
<trkpt lon="-4.486215" lat="43.372846"><ele>55.0</ele></trkpt>
<trkpt lon="-4.486199" lat="43.372906"><ele>55.25</ele></trkpt>
<trkpt lon="-4.486272" lat="43.372943"><ele>55.5</ele></trkpt>
<trkpt lon="-4.486321" lat="43.373018"><ele>55.75</ele></trkpt>
<trkpt lon="-4.486399" lat="43.373103"><ele>55.75</ele></trkpt>
<trkpt lon="-4.486569" lat="43.373207"><ele>55.5</ele></trkpt>
<trkpt lon="-4.487134" lat="43.373602"><ele>52.25</ele></trkpt>
<trkpt lon="-4.487263" lat="43.373657"><ele>51.0</ele></trkpt>
<trkpt lon="-4.487384" lat="43.373718"><ele>50.0</ele></trkpt>
<trkpt lon="-4.487457" lat="43.373783"><ele>49.0</ele></trkpt>
<trkpt lon="-4.487453" lat="43.373845"><ele>48.5</ele></trkpt>
<trkpt lon="-4.487641" lat="43.373863"><ele>47.75</ele></trkpt>
<trkpt lon="-4.487842" lat="43.373929"><ele>47.0</ele></trkpt>
<trkpt lon="-4.488554" lat="43.374114"><ele>46.75</ele></trkpt>
<trkpt lon="-4.488727" lat="43.374203"><ele>45.0</ele></trkpt>
<trkpt lon="-4.489050" lat="43.374344"><ele>42.25</ele></trkpt>
<trkpt lon="-4.489348" lat="43.374420"><ele>40.75</ele></trkpt>
<trkpt lon="-4.489595" lat="43.374461"><ele>39.0</ele></trkpt>
<trkpt lon="-4.489882" lat="43.374531"><ele>35.25</ele></trkpt>
<trkpt lon="-4.490118" lat="43.374522"><ele>34.5</ele></trkpt>
<trkpt lon="-4.490343" lat="43.374550"><ele>32.5</ele></trkpt>
<trkpt lon="-4.490563" lat="43.374567"><ele>31.0</ele></trkpt>
<trkpt lon="-4.490777" lat="43.374556"><ele>30.0</ele></trkpt>
<trkpt lon="-4.490908" lat="43.374526"><ele>30.0</ele></trkpt>
<trkpt lon="-4.491041" lat="43.374511"><ele>29.25</ele></trkpt>
<trkpt lon="-4.491210" lat="43.374525"><ele>28.25</ele></trkpt>
<trkpt lon="-4.491572" lat="43.374614"><ele>27.75</ele></trkpt>
<trkpt lon="-4.491846" lat="43.374591"><ele>30.75</ele></trkpt>
<trkpt lon="-4.492497" lat="43.374481"><ele>30.25</ele></trkpt>
<trkpt lon="-4.492758" lat="43.374461"><ele>22.25</ele></trkpt>
<trkpt lon="-4.493517" lat="43.374220"><ele>17.25</ele></trkpt>
<trkpt lon="-4.494416" lat="43.374012"><ele>15.5</ele></trkpt>
<trkpt lon="-4.494798" lat="43.373942"><ele>14.75</ele></trkpt>
<trkpt lon="-4.495315" lat="43.373900"><ele>13.5</ele></trkpt>
<trkpt lon="-4.496475" lat="43.373873"><ele>11.25</ele></trkpt>
<trkpt lon="-4.497540" lat="43.373942"><ele>14.5</ele></trkpt>
<trkpt lon="-4.501186" lat="43.373955"><ele>9.5</ele></trkpt>
<trkpt lon="-4.501844" lat="43.373945"><ele>7.75</ele></trkpt>
<trkpt lon="-4.502164" lat="43.373978"><ele>9.0</ele></trkpt>
<trkpt lon="-4.502642" lat="43.374066"><ele>8.5</ele></trkpt>
<trkpt lon="-4.502994" lat="43.374175"><ele>8.5</ele></trkpt>
<trkpt lon="-4.503241" lat="43.374358"><ele>7.25</ele></trkpt>
<trkpt lon="-4.503656" lat="43.374522"><ele>6.25</ele></trkpt>
<trkpt lon="-4.504323" lat="43.374647"><ele>6.5</ele></trkpt>
<trkpt lon="-4.504612" lat="43.374712"><ele>5.75</ele></trkpt>
<trkpt lon="-4.505044" lat="43.374833"><ele>9.0</ele></trkpt>
<trkpt lon="-4.505441" lat="43.374895"><ele>10.5</ele></trkpt>
<trkpt lon="-4.506031" lat="43.374960"><ele>7.25</ele></trkpt>
<trkpt lon="-4.506234" lat="43.374990"><ele>5.5</ele></trkpt>
<trkpt lon="-4.506575" lat="43.375020"><ele>4.75</ele></trkpt>
<trkpt lon="-4.506902" lat="43.375032"><ele>4.0</ele></trkpt>
<trkpt lon="-4.507032" lat="43.375028"><ele>3.75</ele></trkpt>
<trkpt lon="-4.507106" lat="43.375022"><ele>3.75</ele></trkpt>
<trkpt lon="-4.508277" lat="43.374948"><ele>3.0</ele></trkpt>
<trkpt lon="-4.508275" lat="43.374921"><ele>3.0</ele></trkpt>
<trkpt lon="-4.508247" lat="43.374511"><ele>3.25</ele></trkpt>
<trkpt lon="-4.508451" lat="43.374463"><ele>3.0</ele></trkpt>
<trkpt lon="-4.509052" lat="43.374421"><ele>7.25</ele></trkpt>
<trkpt lon="-4.509190" lat="43.374374"><ele>8.5</ele></trkpt>
<trkpt lon="-4.509366" lat="43.374239"><ele>8.75</ele></trkpt>
<trkpt lon="-4.509486" lat="43.374186"><ele>9.75</ele></trkpt>
<trkpt lon="-4.509632" lat="43.374166"><ele>10.5</ele></trkpt>
<trkpt lon="-4.509967" lat="43.374168"><ele>11.75</ele></trkpt>
<trkpt lon="-4.510157" lat="43.374116"><ele>11.25</ele></trkpt>
<trkpt lon="-4.511683" lat="43.374207"><ele>8.0</ele></trkpt>
<trkpt lon="-4.511992" lat="43.374219"><ele>7.75</ele></trkpt>
<trkpt lon="-4.512085" lat="43.374214"><ele>7.25</ele></trkpt>
<trkpt lon="-4.512136" lat="43.374235"><ele>6.5</ele></trkpt>
<trkpt lon="-4.513328" lat="43.374172"><ele>4.75</ele></trkpt>
<trkpt lon="-4.513757" lat="43.374150"><ele>5.75</ele></trkpt>
<trkpt lon="-4.514353" lat="43.374116"><ele>7.0</ele></trkpt>
<trkpt lon="-4.514763" lat="43.374070"><ele>9.25</ele></trkpt>
<trkpt lon="-4.515323" lat="43.373991"><ele>6.0</ele></trkpt>
<trkpt lon="-4.515446" lat="43.373963"><ele>5.0</ele></trkpt>
<trkpt lon="-4.515512" lat="43.373917"><ele>4.5</ele></trkpt>
<trkpt lon="-4.515580" lat="43.373899"><ele>4.0</ele></trkpt>
<trkpt lon="-4.515710" lat="43.374068"><ele>4.0</ele></trkpt>
<trkpt lon="-4.516525" lat="43.373751"><ele>3.5</ele></trkpt>
<trkpt lon="-4.516601" lat="43.373722"><ele>3.75</ele></trkpt>
<trkpt lon="-4.516891" lat="43.374117"><ele>4.0</ele></trkpt>
<trkpt lon="-4.517480" lat="43.373911"><ele>3.75</ele></trkpt>
<trkpt lon="-4.517636" lat="43.374307"><ele>4.0</ele></trkpt>
<trkpt lon="-4.517624" lat="43.374381"><ele>4.0</ele></trkpt>
<trkpt lon="-4.517745" lat="43.374406"><ele>4.0</ele></trkpt>
<trkpt lon="-4.517883" lat="43.374415"><ele>4.25</ele></trkpt>
<trkpt lon="-4.517945" lat="43.374420"><ele>4.5</ele></trkpt>
<trkpt lon="-4.518195" lat="43.374474"><ele>4.0</ele></trkpt>
<trkpt lon="-4.518225" lat="43.374488"><ele>4.0</ele></trkpt>
<trkpt lon="-4.519038" lat="43.374887"><ele>3.25</ele></trkpt>
<trkpt lon="-4.519072" lat="43.374905"><ele>3.25</ele></trkpt>
<trkpt lon="-4.519124" lat="43.374972"><ele>4.0</ele></trkpt>
<trkpt lon="-4.519142" lat="43.375038"><ele>4.5</ele></trkpt>
<trkpt lon="-4.519241" lat="43.374980"><ele>6.25</ele></trkpt>
<trkpt lon="-4.519422" lat="43.374888"><ele>7.75</ele></trkpt>
<trkpt lon="-4.519798" lat="43.374834"><ele>10.0</ele></trkpt>
<trkpt lon="-4.520250" lat="43.374724"><ele>20.0</ele></trkpt>
<trkpt lon="-4.520592" lat="43.374623"><ele>16.0</ele></trkpt>
<trkpt lon="-4.520800" lat="43.374582"><ele>16.5</ele></trkpt>
<trkpt lon="-4.520952" lat="43.374576"><ele>20.25</ele></trkpt>
<trkpt lon="-4.521191" lat="43.374578"><ele>26.5</ele></trkpt>
<trkpt lon="-4.521486" lat="43.374591"><ele>31.0</ele></trkpt>
<trkpt lon="-4.521920" lat="43.374563"><ele>36.25</ele></trkpt>
<trkpt lon="-4.522531" lat="43.374505"><ele>43.75</ele></trkpt>
<trkpt lon="-4.522831" lat="43.374505"><ele>46.25</ele></trkpt>
<trkpt lon="-4.523116" lat="43.374566"><ele>48.0</ele></trkpt>
<trkpt lon="-4.523523" lat="43.374612"><ele>50.5</ele></trkpt>
<trkpt lon="-4.524181" lat="43.374622"><ele>57.75</ele></trkpt>
<trkpt lon="-4.524905" lat="43.374643"><ele>63.75</ele></trkpt>
<trkpt lon="-4.526190" lat="43.374645"><ele>80.25</ele></trkpt>
<trkpt lon="-4.526454" lat="43.374631"><ele>82.5</ele></trkpt>
<trkpt lon="-4.526984" lat="43.374550"><ele>86.5</ele></trkpt>
<trkpt lon="-4.527307" lat="43.374523"><ele>89.25</ele></trkpt>
<trkpt lon="-4.527510" lat="43.374542"><ele>90.5</ele></trkpt>
<trkpt lon="-4.528643" lat="43.374705"><ele>97.25</ele></trkpt>
<trkpt lon="-4.529005" lat="43.374722"><ele>100.25</ele></trkpt>
<trkpt lon="-4.529357" lat="43.374728"><ele>102.0</ele></trkpt>
<trkpt lon="-4.530132" lat="43.374694"><ele>104.0</ele></trkpt>
<trkpt lon="-4.530704" lat="43.374623"><ele>105.75</ele></trkpt>
<trkpt lon="-4.530807" lat="43.374613"><ele>105.75</ele></trkpt>
<trkpt lon="-4.531211" lat="43.374594"><ele>108.0</ele></trkpt>
<trkpt lon="-4.531822" lat="43.374566"><ele>108.5</ele></trkpt>
<trkpt lon="-4.532564" lat="43.374588"><ele>109.25</ele></trkpt>
<trkpt lon="-4.532960" lat="43.374625"><ele>109.0</ele></trkpt>
<trkpt lon="-4.533310" lat="43.374668"><ele>109.5</ele></trkpt>
<trkpt lon="-4.533560" lat="43.374664"><ele>111.25</ele></trkpt>
<trkpt lon="-4.534039" lat="43.374601"><ele>112.75</ele></trkpt>
<trkpt lon="-4.534359" lat="43.374627"><ele>113.25</ele></trkpt>
<trkpt lon="-4.534590" lat="43.374670"><ele>113.0</ele></trkpt>
<trkpt lon="-4.535332" lat="43.374881"><ele>110.75</ele></trkpt>
<trkpt lon="-4.535641" lat="43.374934"><ele>110.25</ele></trkpt>
<trkpt lon="-4.536798" lat="43.375057"><ele>111.25</ele></trkpt>
<trkpt lon="-4.537067" lat="43.375071"><ele>111.25</ele></trkpt>
<trkpt lon="-4.537808" lat="43.375059"><ele>110.75</ele></trkpt>
<trkpt lon="-4.537999" lat="43.375057"><ele>111.0</ele></trkpt>
<trkpt lon="-4.538510" lat="43.375053"><ele>112.25</ele></trkpt>
<trkpt lon="-4.539515" lat="43.375106"><ele>115.0</ele></trkpt>
<trkpt lon="-4.539731" lat="43.375114"><ele>115.25</ele></trkpt>
<trkpt lon="-4.539700" lat="43.375075"><ele>115.0</ele></trkpt>
<trkpt lon="-4.539718" lat="43.375034"><ele>115.0</ele></trkpt>
<trkpt lon="-4.539690" lat="43.374963"><ele>114.25</ele></trkpt>
<trkpt lon="-4.539801" lat="43.374919"><ele>113.5</ele></trkpt>
<trkpt lon="-4.539812" lat="43.374802"><ele>111.75</ele></trkpt>
<trkpt lon="-4.540085" lat="43.374841"><ele>111.25</ele></trkpt>
<trkpt lon="-4.540281" lat="43.374869"><ele>111.0</ele></trkpt>
<trkpt lon="-4.540464" lat="43.374906"><ele>111.75</ele></trkpt>
<trkpt lon="-4.540536" lat="43.374879"><ele>111.5</ele></trkpt>
<trkpt lon="-4.540609" lat="43.375056"><ele>114.25</ele></trkpt>
<trkpt lon="-4.540651" lat="43.375127"><ele>115.75</ele></trkpt>
<trkpt lon="-4.540732" lat="43.375188"><ele>118.25</ele></trkpt>
  </trkseg></trk></gpx>
