<?xml version="1.0" encoding="UTF-8"?>
<gpx version="1.1" creator="compostel-brouter" xmlns="http://www.topografix.com/GPX/1/1">
  <metadata><name>ES-26-Gijon</name></metadata>
  <trk><name>ES-26-Gijon</name><trkseg>
<trkpt lon="-5.436012" lat="43.481010"><ele>4.5</ele></trkpt>
<trkpt lon="-5.436143" lat="43.480937"><ele>4.5</ele></trkpt>
<trkpt lon="-5.436506" lat="43.480731"><ele>4.5</ele></trkpt>
<trkpt lon="-5.436666" lat="43.480640"><ele>4.0</ele></trkpt>
<trkpt lon="-5.436673" lat="43.480720"><ele>4.0</ele></trkpt>
<trkpt lon="-5.436984" lat="43.480799"><ele>4.0</ele></trkpt>
<trkpt lon="-5.437050" lat="43.480761"><ele>4.25</ele></trkpt>
<trkpt lon="-5.437101" lat="43.480731"><ele>4.25</ele></trkpt>
<trkpt lon="-5.437110" lat="43.480837"><ele>4.0</ele></trkpt>
<trkpt lon="-5.437176" lat="43.480836"><ele>4.0</ele></trkpt>
<trkpt lon="-5.437178" lat="43.480852"><ele>4.0</ele></trkpt>
<trkpt lon="-5.437293" lat="43.480847"><ele>4.0</ele></trkpt>
<trkpt lon="-5.437358" lat="43.480852"><ele>4.25</ele></trkpt>
<trkpt lon="-5.437591" lat="43.481318"><ele>4.0</ele></trkpt>
<trkpt lon="-5.437744" lat="43.481643"><ele>4.0</ele></trkpt>
<trkpt lon="-5.437803" lat="43.481631"><ele>4.0</ele></trkpt>
<trkpt lon="-5.437902" lat="43.481608"><ele>4.0</ele></trkpt>
<trkpt lon="-5.438934" lat="43.481488"><ele>3.75</ele></trkpt>
<trkpt lon="-5.438940" lat="43.481519"><ele>3.5</ele></trkpt>
<trkpt lon="-5.438940" lat="43.481821"><ele>3.25</ele></trkpt>
<trkpt lon="-5.440057" lat="43.481863"><ele>4.0</ele></trkpt>
<trkpt lon="-5.440151" lat="43.481866"><ele>4.0</ele></trkpt>
<trkpt lon="-5.440154" lat="43.481839"><ele>4.0</ele></trkpt>
<trkpt lon="-5.440499" lat="43.481857"><ele>4.0</ele></trkpt>
<trkpt lon="-5.440667" lat="43.481877"><ele>3.75</ele></trkpt>
<trkpt lon="-5.440709" lat="43.482038"><ele>4.0</ele></trkpt>
<trkpt lon="-5.440879" lat="43.482384"><ele>4.0</ele></trkpt>
<trkpt lon="-5.441124" lat="43.482731"><ele>4.0</ele></trkpt>
<trkpt lon="-5.441168" lat="43.482882"><ele>4.0</ele></trkpt>
<trkpt lon="-5.441168" lat="43.482958"><ele>4.0</ele></trkpt>
<trkpt lon="-5.441029" lat="43.483140"><ele>4.0</ele></trkpt>
<trkpt lon="-5.440927" lat="43.483291"><ele>4.0</ele></trkpt>
<trkpt lon="-5.440964" lat="43.483360"><ele>4.0</ele></trkpt>
<trkpt lon="-5.441056" lat="43.483412"><ele>4.0</ele></trkpt>
<trkpt lon="-5.441144" lat="43.483421"><ele>3.75</ele></trkpt>
<trkpt lon="-5.441229" lat="43.483390"><ele>3.25</ele></trkpt>
<trkpt lon="-5.441091" lat="43.483612"><ele>3.75</ele></trkpt>
<trkpt lon="-5.441071" lat="43.483693"><ele>3.25</ele></trkpt>
<trkpt lon="-5.441449" lat="43.484174"><ele>4.0</ele></trkpt>
<trkpt lon="-5.441460" lat="43.484197"><ele>4.0</ele></trkpt>
<trkpt lon="-5.441621" lat="43.484099"><ele>4.75</ele></trkpt>
<trkpt lon="-5.441748" lat="43.484043"><ele>5.75</ele></trkpt>
<trkpt lon="-5.441943" lat="43.483883"><ele>5.75</ele></trkpt>
<trkpt lon="-5.442120" lat="43.483725"><ele>6.25</ele></trkpt>
<trkpt lon="-5.442260" lat="43.483658"><ele>7.5</ele></trkpt>
<trkpt lon="-5.442457" lat="43.483603"><ele>9.25</ele></trkpt>
<trkpt lon="-5.443062" lat="43.483444"><ele>13.75</ele></trkpt>
<trkpt lon="-5.443354" lat="43.483341"><ele>17.75</ele></trkpt>
<trkpt lon="-5.443657" lat="43.483225"><ele>19.25</ele></trkpt>
<trkpt lon="-5.443844" lat="43.483171"><ele>21.75</ele></trkpt>
<trkpt lon="-5.444029" lat="43.483141"><ele>23.0</ele></trkpt>
<trkpt lon="-5.444185" lat="43.483131"><ele>24.25</ele></trkpt>
<trkpt lon="-5.444848" lat="43.483012"><ele>26.0</ele></trkpt>
<trkpt lon="-5.445177" lat="43.482892"><ele>26.25</ele></trkpt>
<trkpt lon="-5.446013" lat="43.482523"><ele>32.5</ele></trkpt>
<trkpt lon="-5.446491" lat="43.482340"><ele>38.0</ele></trkpt>
<trkpt lon="-5.446421" lat="43.482542"><ele>42.0</ele></trkpt>
<trkpt lon="-5.446153" lat="43.482813"><ele>42.0</ele></trkpt>
<trkpt lon="-5.446398" lat="43.482824"><ele>46.0</ele></trkpt>
<trkpt lon="-5.446675" lat="43.482585"><ele>53.75</ele></trkpt>
<trkpt lon="-5.446823" lat="43.482288"><ele>49.5</ele></trkpt>
<trkpt lon="-5.446963" lat="43.482080"><ele>49.25</ele></trkpt>
<trkpt lon="-5.447368" lat="43.482036"><ele>57.25</ele></trkpt>
<trkpt lon="-5.447778" lat="43.482143"><ele>64.25</ele></trkpt>
<trkpt lon="-5.449364" lat="43.482625"><ele>61.75</ele></trkpt>
<trkpt lon="-5.449634" lat="43.482648"><ele>63.5</ele></trkpt>
<trkpt lon="-5.450114" lat="43.482490"><ele>68.25</ele></trkpt>
<trkpt lon="-5.450959" lat="43.482153"><ele>70.5</ele></trkpt>
<trkpt lon="-5.451631" lat="43.481842"><ele>71.25</ele></trkpt>
<trkpt lon="-5.451719" lat="43.481790"><ele>71.75</ele></trkpt>
<trkpt lon="-5.451898" lat="43.481620"><ele>74.0</ele></trkpt>
<trkpt lon="-5.452571" lat="43.481192"><ele>78.25</ele></trkpt>
<trkpt lon="-5.453202" lat="43.480719"><ele>79.5</ele></trkpt>
<trkpt lon="-5.453704" lat="43.480333"><ele>79.0</ele></trkpt>
<trkpt lon="-5.454044" lat="43.480093"><ele>79.5</ele></trkpt>
<trkpt lon="-5.454540" lat="43.479867"><ele>77.25</ele></trkpt>
<trkpt lon="-5.454738" lat="43.479613"><ele>79.0</ele></trkpt>
<trkpt lon="-5.454769" lat="43.479305"><ele>85.25</ele></trkpt>
<trkpt lon="-5.454758" lat="43.479047"><ele>90.25</ele></trkpt>
<trkpt lon="-5.454736" lat="43.478835"><ele>94.25</ele></trkpt>
<trkpt lon="-5.454675" lat="43.478484"><ele>100.75</ele></trkpt>
<trkpt lon="-5.454617" lat="43.478258"><ele>105.0</ele></trkpt>
<trkpt lon="-5.454482" lat="43.477992"><ele>108.5</ele></trkpt>
<trkpt lon="-5.454510" lat="43.477932"><ele>108.5</ele></trkpt>
<trkpt lon="-5.454625" lat="43.477778"><ele>109.5</ele></trkpt>
<trkpt lon="-5.454639" lat="43.477584"><ele>111.25</ele></trkpt>
<trkpt lon="-5.454609" lat="43.477296"><ele>115.0</ele></trkpt>
<trkpt lon="-5.454581" lat="43.477194"><ele>116.25</ele></trkpt>
<trkpt lon="-5.454736" lat="43.476863"><ele>120.25</ele></trkpt>
<trkpt lon="-5.454909" lat="43.476641"><ele>120.5</ele></trkpt>
<trkpt lon="-5.455021" lat="43.476550"><ele>119.75</ele></trkpt>
<trkpt lon="-5.455223" lat="43.476416"><ele>119.0</ele></trkpt>
<trkpt lon="-5.455512" lat="43.476288"><ele>120.0</ele></trkpt>
<trkpt lon="-5.456297" lat="43.475748"><ele>117.0</ele></trkpt>
<trkpt lon="-5.456759" lat="43.475409"><ele>116.5</ele></trkpt>
<trkpt lon="-5.456913" lat="43.475338"><ele>117.5</ele></trkpt>
<trkpt lon="-5.457334" lat="43.475143"><ele>115.0</ele></trkpt>
<trkpt lon="-5.457674" lat="43.475085"><ele>113.25</ele></trkpt>
<trkpt lon="-5.458312" lat="43.474507"><ele>107.75</ele></trkpt>
<trkpt lon="-5.458720" lat="43.474117"><ele>104.25</ele></trkpt>
<trkpt lon="-5.459085" lat="43.473882"><ele>100.75</ele></trkpt>
<trkpt lon="-5.459173" lat="43.473755"><ele>98.75</ele></trkpt>
<trkpt lon="-5.459247" lat="43.473502"><ele>96.25</ele></trkpt>
<trkpt lon="-5.459257" lat="43.473222"><ele>93.5</ele></trkpt>
<trkpt lon="-5.459231" lat="43.473116"><ele>92.25</ele></trkpt>
<trkpt lon="-5.459266" lat="43.472912"><ele>89.5</ele></trkpt>
<trkpt lon="-5.459332" lat="43.472716"><ele>87.25</ele></trkpt>
<trkpt lon="-5.459470" lat="43.472558"><ele>85.5</ele></trkpt>
<trkpt lon="-5.459531" lat="43.472471"><ele>85.25</ele></trkpt>
<trkpt lon="-5.459514" lat="43.472357"><ele>85.25</ele></trkpt>
<trkpt lon="-5.459380" lat="43.472145"><ele>84.25</ele></trkpt>
<trkpt lon="-5.459184" lat="43.471952"><ele>83.0</ele></trkpt>
<trkpt lon="-5.459063" lat="43.471846"><ele>82.75</ele></trkpt>
<trkpt lon="-5.458898" lat="43.471677"><ele>82.75</ele></trkpt>
<trkpt lon="-5.458630" lat="43.471250"><ele>86.5</ele></trkpt>
<trkpt lon="-5.458546" lat="43.471072"><ele>87.25</ele></trkpt>
<trkpt lon="-5.458368" lat="43.470839"><ele>87.0</ele></trkpt>
<trkpt lon="-5.458318" lat="43.470734"><ele>86.0</ele></trkpt>
<trkpt lon="-5.458208" lat="43.470279"><ele>81.0</ele></trkpt>
<trkpt lon="-5.458213" lat="43.470141"><ele>79.75</ele></trkpt>
<trkpt lon="-5.458254" lat="43.470059"><ele>79.25</ele></trkpt>
<trkpt lon="-5.458482" lat="43.469830"><ele>79.0</ele></trkpt>
<trkpt lon="-5.458581" lat="43.469710"><ele>78.5</ele></trkpt>
<trkpt lon="-5.458729" lat="43.469608"><ele>78.25</ele></trkpt>
<trkpt lon="-5.458758" lat="43.469505"><ele>77.25</ele></trkpt>
<trkpt lon="-5.458645" lat="43.469253"><ele>74.5</ele></trkpt>
<trkpt lon="-5.458616" lat="43.469173"><ele>74.0</ele></trkpt>
<trkpt lon="-5.458656" lat="43.468980"><ele>73.25</ele></trkpt>
<trkpt lon="-5.458744" lat="43.468718"><ele>71.75</ele></trkpt>
<trkpt lon="-5.458823" lat="43.468503"><ele>69.75</ele></trkpt>
<trkpt lon="-5.458993" lat="43.468408"><ele>68.5</ele></trkpt>
<trkpt lon="-5.459173" lat="43.468389"><ele>67.75</ele></trkpt>
<trkpt lon="-5.459674" lat="43.468406"><ele>65.5</ele></trkpt>
<trkpt lon="-5.459998" lat="43.468338"><ele>62.0</ele></trkpt>
<trkpt lon="-5.461145" lat="43.467867"><ele>54.0</ele></trkpt>
<trkpt lon="-5.461320" lat="43.467581"><ele>49.25</ele></trkpt>
<trkpt lon="-5.461375" lat="43.467396"><ele>48.5</ele></trkpt>
<trkpt lon="-5.461538" lat="43.467308"><ele>46.5</ele></trkpt>
<trkpt lon="-5.461952" lat="43.467187"><ele>43.0</ele></trkpt>
<trkpt lon="-5.462024" lat="43.467146"><ele>42.0</ele></trkpt>
<trkpt lon="-5.462078" lat="43.467101"><ele>41.0</ele></trkpt>
<trkpt lon="-5.462180" lat="43.466940"><ele>38.0</ele></trkpt>
<trkpt lon="-5.462261" lat="43.466746"><ele>35.0</ele></trkpt>
<trkpt lon="-5.462287" lat="43.466630"><ele>33.25</ele></trkpt>
<trkpt lon="-5.462218" lat="43.466336"><ele>28.5</ele></trkpt>
<trkpt lon="-5.462741" lat="43.466569"><ele>25.5</ele></trkpt>
<trkpt lon="-5.462914" lat="43.466637"><ele>24.75</ele></trkpt>
<trkpt lon="-5.463116" lat="43.466690"><ele>23.75</ele></trkpt>
<trkpt lon="-5.463324" lat="43.466713"><ele>23.0</ele></trkpt>
<trkpt lon="-5.463560" lat="43.466729"><ele>22.25</ele></trkpt>
<trkpt lon="-5.463941" lat="43.466721"><ele>22.25</ele></trkpt>
<trkpt lon="-5.464248" lat="43.466675"><ele>22.25</ele></trkpt>
<trkpt lon="-5.464709" lat="43.466642"><ele>23.75</ele></trkpt>
<trkpt lon="-5.465220" lat="43.466588"><ele>26.5</ele></trkpt>
<trkpt lon="-5.465969" lat="43.466497"><ele>29.5</ele></trkpt>
<trkpt lon="-5.466051" lat="43.466407"><ele>28.0</ele></trkpt>
<trkpt lon="-5.466224" lat="43.466373"><ele>28.75</ele></trkpt>
<trkpt lon="-5.466759" lat="43.465882"><ele>24.25</ele></trkpt>
<trkpt lon="-5.466892" lat="43.465865"><ele>25.75</ele></trkpt>
<trkpt lon="-5.468183" lat="43.465978"><ele>32.75</ele></trkpt>
<trkpt lon="-5.468450" lat="43.465991"><ele>34.0</ele></trkpt>
<trkpt lon="-5.469168" lat="43.466105"><ele>39.0</ele></trkpt>
<trkpt lon="-5.469423" lat="43.466105"><ele>39.0</ele></trkpt>
<trkpt lon="-5.470714" lat="43.466368"><ele>37.0</ele></trkpt>
<trkpt lon="-5.471086" lat="43.466395"><ele>37.75</ele></trkpt>
<trkpt lon="-5.471880" lat="43.466373"><ele>39.5</ele></trkpt>
<trkpt lon="-5.472354" lat="43.466321"><ele>40.0</ele></trkpt>
<trkpt lon="-5.473146" lat="43.466142"><ele>41.0</ele></trkpt>
<trkpt lon="-5.473790" lat="43.465950"><ele>39.5</ele></trkpt>
<trkpt lon="-5.474244" lat="43.465865"><ele>39.25</ele></trkpt>
<trkpt lon="-5.475382" lat="43.465669"><ele>42.25</ele></trkpt>
<trkpt lon="-5.476019" lat="43.465527"><ele>42.5</ele></trkpt>
<trkpt lon="-5.476694" lat="43.465292"><ele>41.75</ele></trkpt>
<trkpt lon="-5.476823" lat="43.465205"><ele>42.0</ele></trkpt>
<trkpt lon="-5.476929" lat="43.465106"><ele>41.5</ele></trkpt>
<trkpt lon="-5.476965" lat="43.465315"><ele>41.0</ele></trkpt>
<trkpt lon="-5.476939" lat="43.465626"><ele>39.0</ele></trkpt>
<trkpt lon="-5.476992" lat="43.465793"><ele>35.5</ele></trkpt>
<trkpt lon="-5.477143" lat="43.465899"><ele>32.0</ele></trkpt>
<trkpt lon="-5.477258" lat="43.465917"><ele>31.0</ele></trkpt>
<trkpt lon="-5.477362" lat="43.465938"><ele>31.5</ele></trkpt>
<trkpt lon="-5.477577" lat="43.465941"><ele>32.75</ele></trkpt>
<trkpt lon="-5.477663" lat="43.466015"><ele>34.25</ele></trkpt>
<trkpt lon="-5.477652" lat="43.466183"><ele>35.75</ele></trkpt>
<trkpt lon="-5.477561" lat="43.466343"><ele>36.25</ele></trkpt>
<trkpt lon="-5.477379" lat="43.466635"><ele>38.75</ele></trkpt>
<trkpt lon="-5.477175" lat="43.466899"><ele>43.5</ele></trkpt>
<trkpt lon="-5.477059" lat="43.467165"><ele>48.0</ele></trkpt>
<trkpt lon="-5.477182" lat="43.467163"><ele>48.0</ele></trkpt>
<trkpt lon="-5.477278" lat="43.467177"><ele>48.25</ele></trkpt>
<trkpt lon="-5.477349" lat="43.467201"><ele>48.75</ele></trkpt>
<trkpt lon="-5.477642" lat="43.467403"><ele>49.0</ele></trkpt>
<trkpt lon="-5.477732" lat="43.467456"><ele>49.0</ele></trkpt>
<trkpt lon="-5.477890" lat="43.467597"><ele>49.25</ele></trkpt>
<trkpt lon="-5.477995" lat="43.467658"><ele>49.25</ele></trkpt>
<trkpt lon="-5.478115" lat="43.467694"><ele>48.75</ele></trkpt>
<trkpt lon="-5.478604" lat="43.467783"><ele>48.0</ele></trkpt>
<trkpt lon="-5.478691" lat="43.467786"><ele>48.75</ele></trkpt>
<trkpt lon="-5.478777" lat="43.467773"><ele>49.75</ele></trkpt>
<trkpt lon="-5.478860" lat="43.467740"><ele>50.25</ele></trkpt>
<trkpt lon="-5.479092" lat="43.467619"><ele>51.25</ele></trkpt>
<trkpt lon="-5.479222" lat="43.467566"><ele>51.0</ele></trkpt>
<trkpt lon="-5.479307" lat="43.467545"><ele>50.75</ele></trkpt>
<trkpt lon="-5.479453" lat="43.467526"><ele>50.25</ele></trkpt>
<trkpt lon="-5.479784" lat="43.467513"><ele>49.0</ele></trkpt>
<trkpt lon="-5.479873" lat="43.467525"><ele>49.25</ele></trkpt>
<trkpt lon="-5.479986" lat="43.467564"><ele>49.25</ele></trkpt>
<trkpt lon="-5.480258" lat="43.467739"><ele>46.25</ele></trkpt>
<trkpt lon="-5.480334" lat="43.467765"><ele>45.25</ele></trkpt>
<trkpt lon="-5.480424" lat="43.467775"><ele>44.25</ele></trkpt>
<trkpt lon="-5.480513" lat="43.467766"><ele>43.25</ele></trkpt>
<trkpt lon="-5.480625" lat="43.467731"><ele>42.5</ele></trkpt>
<trkpt lon="-5.480873" lat="43.467605"><ele>40.5</ele></trkpt>
<trkpt lon="-5.480975" lat="43.467572"><ele>40.0</ele></trkpt>
<trkpt lon="-5.481096" lat="43.467552"><ele>39.25</ele></trkpt>
<trkpt lon="-5.481214" lat="43.467553"><ele>39.25</ele></trkpt>
<trkpt lon="-5.481324" lat="43.467576"><ele>39.25</ele></trkpt>
<trkpt lon="-5.481444" lat="43.467636"><ele>39.75</ele></trkpt>
<trkpt lon="-5.481536" lat="43.467709"><ele>40.5</ele></trkpt>
<trkpt lon="-5.481687" lat="43.467849"><ele>41.25</ele></trkpt>
<trkpt lon="-5.481825" lat="43.467977"><ele>41.75</ele></trkpt>
<trkpt lon="-5.482110" lat="43.468206"><ele>42.0</ele></trkpt>
<trkpt lon="-5.482243" lat="43.468339"><ele>42.0</ele></trkpt>
<trkpt lon="-5.482377" lat="43.468492"><ele>43.0</ele></trkpt>
<trkpt lon="-5.482453" lat="43.468542"><ele>43.5</ele></trkpt>
<trkpt lon="-5.482599" lat="43.468595"><ele>44.0</ele></trkpt>
<trkpt lon="-5.482960" lat="43.468677"><ele>45.75</ele></trkpt>
<trkpt lon="-5.482963" lat="43.468748"><ele>46.0</ele></trkpt>
<trkpt lon="-5.482953" lat="43.468987"><ele>46.5</ele></trkpt>
<trkpt lon="-5.482990" lat="43.469175"><ele>46.5</ele></trkpt>
<trkpt lon="-5.482987" lat="43.469414"><ele>45.5</ele></trkpt>
<trkpt lon="-5.483055" lat="43.469639"><ele>44.5</ele></trkpt>
<trkpt lon="-5.483118" lat="43.469738"><ele>44.5</ele></trkpt>
<trkpt lon="-5.483316" lat="43.469902"><ele>44.75</ele></trkpt>
<trkpt lon="-5.483694" lat="43.470254"><ele>45.5</ele></trkpt>
<trkpt lon="-5.483726" lat="43.470293"><ele>45.25</ele></trkpt>
<trkpt lon="-5.483735" lat="43.470332"><ele>45.5</ele></trkpt>
<trkpt lon="-5.483731" lat="43.470381"><ele>45.75</ele></trkpt>
<trkpt lon="-5.483628" lat="43.470531"><ele>46.75</ele></trkpt>
<trkpt lon="-5.483623" lat="43.470568"><ele>46.75</ele></trkpt>
<trkpt lon="-5.483634" lat="43.470606"><ele>46.75</ele></trkpt>
<trkpt lon="-5.483652" lat="43.470631"><ele>46.75</ele></trkpt>
<trkpt lon="-5.483872" lat="43.470862"><ele>48.75</ele></trkpt>
<trkpt lon="-5.483982" lat="43.470946"><ele>49.0</ele></trkpt>
<trkpt lon="-5.484311" lat="43.471098"><ele>51.25</ele></trkpt>
<trkpt lon="-5.484661" lat="43.471234"><ele>51.25</ele></trkpt>
<trkpt lon="-5.485049" lat="43.471350"><ele>52.25</ele></trkpt>
<trkpt lon="-5.485274" lat="43.471410"><ele>53.0</ele></trkpt>
<trkpt lon="-5.485322" lat="43.471432"><ele>53.0</ele></trkpt>
<trkpt lon="-5.485346" lat="43.471476"><ele>53.0</ele></trkpt>
<trkpt lon="-5.485318" lat="43.471513"><ele>53.0</ele></trkpt>
<trkpt lon="-5.485204" lat="43.471583"><ele>53.0</ele></trkpt>
<trkpt lon="-5.485173" lat="43.471625"><ele>53.0</ele></trkpt>
<trkpt lon="-5.485190" lat="43.471672"><ele>53.0</ele></trkpt>
<trkpt lon="-5.485424" lat="43.471835"><ele>53.5</ele></trkpt>
<trkpt lon="-5.485763" lat="43.471998"><ele>56.0</ele></trkpt>
<trkpt lon="-5.485992" lat="43.472076"><ele>57.5</ele></trkpt>
<trkpt lon="-5.486166" lat="43.472166"><ele>58.75</ele></trkpt>
<trkpt lon="-5.486539" lat="43.472431"><ele>58.25</ele></trkpt>
<trkpt lon="-5.486691" lat="43.472519"><ele>59.0</ele></trkpt>
<trkpt lon="-5.487229" lat="43.472668"><ele>61.25</ele></trkpt>
<trkpt lon="-5.487753" lat="43.472711"><ele>66.5</ele></trkpt>
<trkpt lon="-5.487918" lat="43.472741"><ele>68.25</ele></trkpt>
<trkpt lon="-5.488043" lat="43.472782"><ele>69.75</ele></trkpt>
<trkpt lon="-5.488120" lat="43.472830"><ele>70.75</ele></trkpt>
<trkpt lon="-5.488322" lat="43.472977"><ele>74.25</ele></trkpt>
<trkpt lon="-5.488626" lat="43.473161"><ele>79.75</ele></trkpt>
<trkpt lon="-5.488757" lat="43.473346"><ele>83.0</ele></trkpt>
<trkpt lon="-5.489092" lat="43.473554"><ele>87.0</ele></trkpt>
<trkpt lon="-5.489258" lat="43.473639"><ele>89.0</ele></trkpt>
<trkpt lon="-5.489379" lat="43.473680"><ele>90.5</ele></trkpt>
<trkpt lon="-5.489498" lat="43.473699"><ele>91.75</ele></trkpt>
<trkpt lon="-5.489603" lat="43.473694"><ele>93.0</ele></trkpt>
<trkpt lon="-5.489706" lat="43.473707"><ele>94.0</ele></trkpt>
<trkpt lon="-5.489772" lat="43.473724"><ele>94.25</ele></trkpt>
<trkpt lon="-5.489962" lat="43.473868"><ele>97.0</ele></trkpt>
<trkpt lon="-5.490084" lat="43.473978"><ele>99.75</ele></trkpt>
<trkpt lon="-5.490196" lat="43.474064"><ele>102.5</ele></trkpt>
<trkpt lon="-5.490428" lat="43.474214"><ele>107.25</ele></trkpt>
<trkpt lon="-5.490538" lat="43.474307"><ele>109.75</ele></trkpt>
<trkpt lon="-5.490605" lat="43.474391"><ele>112.25</ele></trkpt>
<trkpt lon="-5.490620" lat="43.474444"><ele>113.5</ele></trkpt>
<trkpt lon="-5.490622" lat="43.474528"><ele>114.5</ele></trkpt>
<trkpt lon="-5.490667" lat="43.474702"><ele>117.75</ele></trkpt>
<trkpt lon="-5.490708" lat="43.474697"><ele>118.75</ele></trkpt>
<trkpt lon="-5.490795" lat="43.474571"><ele>118.25</ele></trkpt>
<trkpt lon="-5.490842" lat="43.474535"><ele>118.25</ele></trkpt>
<trkpt lon="-5.491238" lat="43.474316"><ele>115.75</ele></trkpt>
<trkpt lon="-5.491459" lat="43.474219"><ele>115.25</ele></trkpt>
<trkpt lon="-5.491609" lat="43.474114"><ele>113.0</ele></trkpt>
<trkpt lon="-5.491641" lat="43.474083"><ele>112.5</ele></trkpt>
<trkpt lon="-5.491743" lat="43.473910"><ele>111.0</ele></trkpt>
<trkpt lon="-5.491815" lat="43.473823"><ele>110.25</ele></trkpt>
<trkpt lon="-5.491912" lat="43.473746"><ele>110.25</ele></trkpt>
<trkpt lon="-5.491976" lat="43.473663"><ele>110.0</ele></trkpt>
<trkpt lon="-5.492083" lat="43.473556"><ele>110.25</ele></trkpt>
<trkpt lon="-5.492230" lat="43.473444"><ele>111.75</ele></trkpt>
<trkpt lon="-5.492535" lat="43.473358"><ele>114.75</ele></trkpt>
<trkpt lon="-5.492615" lat="43.473322"><ele>116.25</ele></trkpt>
<trkpt lon="-5.492677" lat="43.473253"><ele>117.25</ele></trkpt>
<trkpt lon="-5.492709" lat="43.473189"><ele>117.5</ele></trkpt>
<trkpt lon="-5.492757" lat="43.472981"><ele>117.25</ele></trkpt>
<trkpt lon="-5.492820" lat="43.472562"><ele>117.75</ele></trkpt>
<trkpt lon="-5.492934" lat="43.472195"><ele>120.5</ele></trkpt>
<trkpt lon="-5.492906" lat="43.471972"><ele>121.0</ele></trkpt>
<trkpt lon="-5.493046" lat="43.471825"><ele>123.75</ele></trkpt>
<trkpt lon="-5.493076" lat="43.471674"><ele>123.5</ele></trkpt>
<trkpt lon="-5.493008" lat="43.471390"><ele>123.0</ele></trkpt>
<trkpt lon="-5.492930" lat="43.471195"><ele>122.75</ele></trkpt>
<trkpt lon="-5.492960" lat="43.471014"><ele>123.75</ele></trkpt>
<trkpt lon="-5.492997" lat="43.470943"><ele>124.5</ele></trkpt>
<trkpt lon="-5.493187" lat="43.470655"><ele>128.75</ele></trkpt>
<trkpt lon="-5.493243" lat="43.470601"><ele>129.75</ele></trkpt>
<trkpt lon="-5.493333" lat="43.470579"><ele>131.0</ele></trkpt>
<trkpt lon="-5.493737" lat="43.470573"><ele>134.0</ele></trkpt>
<trkpt lon="-5.494216" lat="43.470633"><ele>134.0</ele></trkpt>
<trkpt lon="-5.494805" lat="43.470741"><ele>134.75</ele></trkpt>
<trkpt lon="-5.495345" lat="43.470851"><ele>133.75</ele></trkpt>
<trkpt lon="-5.495422" lat="43.470860"><ele>133.25</ele></trkpt>
<trkpt lon="-5.495518" lat="43.470860"><ele>132.75</ele></trkpt>
<trkpt lon="-5.495690" lat="43.470845"><ele>133.5</ele></trkpt>
<trkpt lon="-5.495739" lat="43.470903"><ele>134.5</ele></trkpt>
<trkpt lon="-5.496035" lat="43.471192"><ele>140.75</ele></trkpt>
<trkpt lon="-5.496163" lat="43.471291"><ele>142.75</ele></trkpt>
<trkpt lon="-5.496424" lat="43.471454"><ele>146.25</ele></trkpt>
<trkpt lon="-5.496635" lat="43.471567"><ele>149.5</ele></trkpt>
<trkpt lon="-5.496773" lat="43.471627"><ele>151.0</ele></trkpt>
<trkpt lon="-5.496829" lat="43.471677"><ele>151.25</ele></trkpt>
<trkpt lon="-5.496855" lat="43.471740"><ele>152.0</ele></trkpt>
<trkpt lon="-5.496916" lat="43.471731"><ele>152.5</ele></trkpt>
<trkpt lon="-5.496958" lat="43.471707"><ele>153.0</ele></trkpt>
<trkpt lon="-5.496979" lat="43.471659"><ele>153.5</ele></trkpt>
<trkpt lon="-5.496976" lat="43.471554"><ele>155.0</ele></trkpt>
<trkpt lon="-5.496915" lat="43.471326"><ele>157.0</ele></trkpt>
<trkpt lon="-5.497106" lat="43.471330"><ele>159.5</ele></trkpt>
<trkpt lon="-5.497216" lat="43.471325"><ele>161.0</ele></trkpt>
<trkpt lon="-5.497303" lat="43.471303"><ele>161.75</ele></trkpt>
<trkpt lon="-5.497464" lat="43.471273"><ele>162.75</ele></trkpt>
<trkpt lon="-5.497490" lat="43.471311"><ele>162.75</ele></trkpt>
<trkpt lon="-5.497668" lat="43.471415"><ele>165.5</ele></trkpt>
<trkpt lon="-5.497763" lat="43.471505"><ele>168.25</ele></trkpt>
<trkpt lon="-5.497840" lat="43.471705"><ele>172.0</ele></trkpt>
<trkpt lon="-5.498173" lat="43.471942"><ele>178.0</ele></trkpt>
<trkpt lon="-5.498493" lat="43.472338"><ele>183.75</ele></trkpt>
<trkpt lon="-5.498554" lat="43.472485"><ele>185.5</ele></trkpt>
<trkpt lon="-5.498587" lat="43.472619"><ele>187.25</ele></trkpt>
<trkpt lon="-5.498775" lat="43.473077"><ele>194.5</ele></trkpt>
<trkpt lon="-5.498953" lat="43.473297"><ele>199.25</ele></trkpt>
<trkpt lon="-5.499035" lat="43.473305"><ele>201.5</ele></trkpt>
<trkpt lon="-5.499090" lat="43.473238"><ele>202.25</ele></trkpt>
<trkpt lon="-5.499138" lat="43.473150"><ele>203.0</ele></trkpt>
<trkpt lon="-5.499187" lat="43.473084"><ele>203.5</ele></trkpt>
<trkpt lon="-5.499273" lat="43.472989"><ele>204.0</ele></trkpt>
<trkpt lon="-5.499361" lat="43.472927"><ele>205.0</ele></trkpt>
<trkpt lon="-5.499467" lat="43.472895"><ele>206.25</ele></trkpt>
<trkpt lon="-5.499529" lat="43.472893"><ele>207.25</ele></trkpt>
<trkpt lon="-5.499635" lat="43.472876"><ele>208.75</ele></trkpt>
<trkpt lon="-5.499887" lat="43.472725"><ele>211.75</ele></trkpt>
<trkpt lon="-5.499970" lat="43.472531"><ele>214.75</ele></trkpt>
<trkpt lon="-5.499902" lat="43.472212"><ele>219.5</ele></trkpt>
<trkpt lon="-5.499901" lat="43.472032"><ele>222.0</ele></trkpt>
<trkpt lon="-5.499946" lat="43.471950"><ele>224.5</ele></trkpt>
<trkpt lon="-5.500026" lat="43.471920"><ele>226.5</ele></trkpt>
<trkpt lon="-5.500203" lat="43.472133"><ele>231.0</ele></trkpt>
<trkpt lon="-5.500452" lat="43.472269"><ele>236.0</ele></trkpt>
<trkpt lon="-5.500608" lat="43.472274"><ele>239.75</ele></trkpt>
<trkpt lon="-5.500622" lat="43.472191"><ele>241.5</ele></trkpt>
<trkpt lon="-5.500703" lat="43.472025"><ele>243.5</ele></trkpt>
<trkpt lon="-5.501013" lat="43.471836"><ele>248.25</ele></trkpt>
<trkpt lon="-5.501124" lat="43.471798"><ele>250.5</ele></trkpt>
<trkpt lon="-5.501381" lat="43.471749"><ele>256.75</ele></trkpt>
<trkpt lon="-5.501581" lat="43.471742"><ele>261.0</ele></trkpt>
<trkpt lon="-5.501739" lat="43.471760"><ele>264.0</ele></trkpt>
<trkpt lon="-5.502218" lat="43.471913"><ele>271.5</ele></trkpt>
<trkpt lon="-5.502259" lat="43.472009"><ele>275.0</ele></trkpt>
<trkpt lon="-5.502196" lat="43.472036"><ele>275.75</ele></trkpt>
<trkpt lon="-5.502128" lat="43.472096"><ele>277.0</ele></trkpt>
<trkpt lon="-5.502262" lat="43.472241"><ele>282.25</ele></trkpt>
<trkpt lon="-5.502364" lat="43.472340"><ele>284.5</ele></trkpt>
<trkpt lon="-5.502463" lat="43.472449"><ele>287.5</ele></trkpt>
<trkpt lon="-5.502584" lat="43.472505"><ele>289.75</ele></trkpt>
<trkpt lon="-5.502694" lat="43.472545"><ele>291.5</ele></trkpt>
<trkpt lon="-5.502794" lat="43.472613"><ele>293.75</ele></trkpt>
<trkpt lon="-5.502851" lat="43.472670"><ele>295.0</ele></trkpt>
<trkpt lon="-5.502903" lat="43.472808"><ele>298.0</ele></trkpt>
<trkpt lon="-5.502981" lat="43.472799"><ele>299.0</ele></trkpt>
<trkpt lon="-5.503220" lat="43.472772"><ele>302.75</ele></trkpt>
<trkpt lon="-5.503609" lat="43.472689"><ele>306.25</ele></trkpt>
<trkpt lon="-5.503838" lat="43.472727"><ele>309.75</ele></trkpt>
<trkpt lon="-5.503987" lat="43.472834"><ele>313.0</ele></trkpt>
<trkpt lon="-5.504033" lat="43.472988"><ele>315.75</ele></trkpt>
<trkpt lon="-5.504177" lat="43.473238"><ele>323.0</ele></trkpt>
<trkpt lon="-5.504433" lat="43.473525"><ele>330.0</ele></trkpt>
<trkpt lon="-5.504694" lat="43.473682"><ele>333.75</ele></trkpt>
<trkpt lon="-5.504619" lat="43.473759"><ele>336.75</ele></trkpt>
<trkpt lon="-5.504480" lat="43.473855"><ele>339.25</ele></trkpt>
<trkpt lon="-5.504491" lat="43.473935"><ele>341.5</ele></trkpt>
<trkpt lon="-5.504327" lat="43.474056"><ele>343.75</ele></trkpt>
<trkpt lon="-5.504238" lat="43.474179"><ele>345.5</ele></trkpt>
<trkpt lon="-5.504220" lat="43.474304"><ele>344.75</ele></trkpt>
<trkpt lon="-5.504364" lat="43.474537"><ele>345.25</ele></trkpt>
<trkpt lon="-5.504820" lat="43.474727"><ele>352.5</ele></trkpt>
<trkpt lon="-5.505103" lat="43.474825"><ele>357.75</ele></trkpt>
<trkpt lon="-5.505390" lat="43.474946"><ele>363.25</ele></trkpt>
<trkpt lon="-5.506199" lat="43.475203"><ele>380.25</ele></trkpt>
<trkpt lon="-5.506272" lat="43.475200"><ele>381.0</ele></trkpt>
<trkpt lon="-5.507045" lat="43.475223"><ele>386.25</ele></trkpt>
<trkpt lon="-5.507310" lat="43.475224"><ele>387.5</ele></trkpt>
<trkpt lon="-5.507575" lat="43.475242"><ele>389.5</ele></trkpt>
<trkpt lon="-5.507957" lat="43.475252"><ele>391.75</ele></trkpt>
<trkpt lon="-5.508220" lat="43.475287"><ele>394.25</ele></trkpt>
<trkpt lon="-5.508322" lat="43.475273"><ele>394.75</ele></trkpt>
<trkpt lon="-5.508418" lat="43.475244"><ele>396.0</ele></trkpt>
<trkpt lon="-5.508520" lat="43.475185"><ele>397.75</ele></trkpt>
<trkpt lon="-5.508558" lat="43.475139"><ele>398.25</ele></trkpt>
<trkpt lon="-5.508603" lat="43.475035"><ele>398.75</ele></trkpt>
<trkpt lon="-5.508856" lat="43.474726"><ele>400.75</ele></trkpt>
<trkpt lon="-5.509008" lat="43.474589"><ele>402.0</ele></trkpt>
<trkpt lon="-5.509194" lat="43.474497"><ele>404.5</ele></trkpt>
<trkpt lon="-5.509572" lat="43.474381"><ele>408.5</ele></trkpt>
<trkpt lon="-5.509710" lat="43.474322"><ele>410.0</ele></trkpt>
<trkpt lon="-5.509816" lat="43.474266"><ele>410.25</ele></trkpt>
<trkpt lon="-5.510017" lat="43.474166"><ele>411.0</ele></trkpt>
<trkpt lon="-5.510134" lat="43.474131"><ele>412.25</ele></trkpt>
<trkpt lon="-5.510353" lat="43.474096"><ele>414.0</ele></trkpt>
<trkpt lon="-5.511016" lat="43.474027"><ele>419.75</ele></trkpt>
<trkpt lon="-5.511189" lat="43.473992"><ele>420.75</ele></trkpt>
<trkpt lon="-5.512209" lat="43.473660"><ele>426.25</ele></trkpt>
<trkpt lon="-5.512433" lat="43.473614"><ele>427.0</ele></trkpt>
<trkpt lon="-5.512600" lat="43.473587"><ele>428.0</ele></trkpt>
<trkpt lon="-5.512945" lat="43.473543"><ele>430.0</ele></trkpt>
<trkpt lon="-5.513418" lat="43.473502"><ele>432.5</ele></trkpt>
<trkpt lon="-5.513709" lat="43.473466"><ele>433.5</ele></trkpt>
<trkpt lon="-5.514242" lat="43.473412"><ele>436.5</ele></trkpt>
<trkpt lon="-5.514330" lat="43.473433"><ele>437.0</ele></trkpt>
<trkpt lon="-5.514509" lat="43.473348"><ele>438.0</ele></trkpt>
<trkpt lon="-5.515492" lat="43.473116"><ele>444.75</ele></trkpt>
<trkpt lon="-5.515948" lat="43.473093"><ele>446.25</ele></trkpt>
<trkpt lon="-5.516493" lat="43.473200"><ele>447.25</ele></trkpt>
<trkpt lon="-5.516907" lat="43.473214"><ele>448.25</ele></trkpt>
<trkpt lon="-5.517430" lat="43.473193"><ele>450.25</ele></trkpt>
<trkpt lon="-5.517893" lat="43.473225"><ele>449.5</ele></trkpt>
<trkpt lon="-5.518173" lat="43.473150"><ele>452.75</ele></trkpt>
<trkpt lon="-5.518500" lat="43.473127"><ele>453.0</ele></trkpt>
<trkpt lon="-5.518840" lat="43.473128"><ele>452.75</ele></trkpt>
<trkpt lon="-5.519138" lat="43.473032"><ele>454.75</ele></trkpt>
<trkpt lon="-5.519365" lat="43.472989"><ele>455.25</ele></trkpt>
<trkpt lon="-5.519829" lat="43.473061"><ele>450.25</ele></trkpt>
<trkpt lon="-5.519985" lat="43.473119"><ele>447.75</ele></trkpt>
<trkpt lon="-5.520135" lat="43.473166"><ele>445.0</ele></trkpt>
<trkpt lon="-5.520312" lat="43.473205"><ele>443.0</ele></trkpt>
<trkpt lon="-5.520435" lat="43.473244"><ele>441.5</ele></trkpt>
<trkpt lon="-5.520602" lat="43.473353"><ele>439.0</ele></trkpt>
<trkpt lon="-5.520680" lat="43.473456"><ele>437.75</ele></trkpt>
<trkpt lon="-5.520798" lat="43.473689"><ele>434.0</ele></trkpt>
<trkpt lon="-5.520803" lat="43.473781"><ele>432.25</ele></trkpt>
<trkpt lon="-5.520849" lat="43.473970"><ele>429.75</ele></trkpt>
<trkpt lon="-5.520840" lat="43.474012"><ele>428.75</ele></trkpt>
<trkpt lon="-5.520838" lat="43.474102"><ele>427.25</ele></trkpt>
<trkpt lon="-5.520875" lat="43.474269"><ele>425.25</ele></trkpt>
<trkpt lon="-5.520929" lat="43.474458"><ele>423.0</ele></trkpt>
<trkpt lon="-5.520967" lat="43.474536"><ele>421.25</ele></trkpt>
<trkpt lon="-5.520999" lat="43.474583"><ele>420.25</ele></trkpt>
<trkpt lon="-5.520980" lat="43.474624"><ele>419.25</ele></trkpt>
<trkpt lon="-5.520913" lat="43.474655"><ele>418.0</ele></trkpt>
<trkpt lon="-5.520779" lat="43.474682"><ele>415.75</ele></trkpt>
<trkpt lon="-5.520655" lat="43.474678"><ele>413.5</ele></trkpt>
<trkpt lon="-5.520540" lat="43.474661"><ele>411.5</ele></trkpt>
<trkpt lon="-5.520470" lat="43.474622"><ele>409.5</ele></trkpt>
<trkpt lon="-5.520401" lat="43.474557"><ele>407.75</ele></trkpt>
<trkpt lon="-5.520320" lat="43.474458"><ele>405.5</ele></trkpt>
<trkpt lon="-5.520258" lat="43.474407"><ele>404.5</ele></trkpt>
<trkpt lon="-5.520191" lat="43.474369"><ele>404.25</ele></trkpt>
<trkpt lon="-5.520065" lat="43.474312"><ele>403.5</ele></trkpt>
<trkpt lon="-5.519899" lat="43.474242"><ele>403.0</ele></trkpt>
<trkpt lon="-5.519773" lat="43.474201"><ele>401.75</ele></trkpt>
<trkpt lon="-5.519658" lat="43.474205"><ele>401.25</ele></trkpt>
<trkpt lon="-5.519092" lat="43.474332"><ele>399.75</ele></trkpt>
<trkpt lon="-5.518848" lat="43.474351"><ele>400.5</ele></trkpt>
<trkpt lon="-5.518767" lat="43.474353"><ele>400.25</ele></trkpt>
<trkpt lon="-5.518673" lat="43.474337"><ele>401.0</ele></trkpt>
<trkpt lon="-5.518080" lat="43.474343"><ele>400.5</ele></trkpt>
<trkpt lon="-5.517767" lat="43.474378"><ele>399.25</ele></trkpt>
<trkpt lon="-5.517303" lat="43.474398"><ele>399.0</ele></trkpt>
<trkpt lon="-5.517073" lat="43.474385"><ele>399.25</ele></trkpt>
<trkpt lon="-5.516914" lat="43.474394"><ele>399.0</ele></trkpt>
<trkpt lon="-5.516340" lat="43.474507"><ele>396.5</ele></trkpt>
<trkpt lon="-5.516238" lat="43.474550"><ele>395.5</ele></trkpt>
<trkpt lon="-5.515835" lat="43.474678"><ele>393.5</ele></trkpt>
<trkpt lon="-5.515685" lat="43.474742"><ele>394.0</ele></trkpt>
<trkpt lon="-5.515581" lat="43.474818"><ele>393.25</ele></trkpt>
<trkpt lon="-5.515460" lat="43.474894"><ele>393.0</ele></trkpt>
<trkpt lon="-5.515396" lat="43.474949"><ele>392.75</ele></trkpt>
<trkpt lon="-5.515339" lat="43.475025"><ele>391.75</ele></trkpt>
<trkpt lon="-5.515291" lat="43.475116"><ele>390.25</ele></trkpt>
<trkpt lon="-5.515221" lat="43.475192"><ele>389.5</ele></trkpt>
<trkpt lon="-5.514950" lat="43.475534"><ele>384.75</ele></trkpt>
<trkpt lon="-5.514873" lat="43.475653"><ele>383.75</ele></trkpt>
<trkpt lon="-5.514789" lat="43.475803"><ele>382.25</ele></trkpt>
<trkpt lon="-5.514701" lat="43.475939"><ele>380.75</ele></trkpt>
<trkpt lon="-5.514420" lat="43.476436"><ele>375.25</ele></trkpt>
<trkpt lon="-5.514401" lat="43.476573"><ele>374.0</ele></trkpt>
<trkpt lon="-5.514641" lat="43.476388"><ele>371.25</ele></trkpt>
<trkpt lon="-5.515559" lat="43.475806"><ele>363.5</ele></trkpt>
<trkpt lon="-5.515829" lat="43.475665"><ele>361.5</ele></trkpt>
<trkpt lon="-5.516022" lat="43.475603"><ele>359.75</ele></trkpt>
<trkpt lon="-5.516462" lat="43.475511"><ele>355.5</ele></trkpt>
<trkpt lon="-5.516679" lat="43.475504"><ele>354.0</ele></trkpt>
<trkpt lon="-5.517339" lat="43.475625"><ele>348.25</ele></trkpt>
<trkpt lon="-5.517985" lat="43.475703"><ele>344.0</ele></trkpt>
<trkpt lon="-5.518209" lat="43.475745"><ele>342.5</ele></trkpt>
<trkpt lon="-5.518422" lat="43.475807"><ele>341.0</ele></trkpt>
<trkpt lon="-5.518561" lat="43.475793"><ele>341.5</ele></trkpt>
<trkpt lon="-5.518662" lat="43.475799"><ele>340.75</ele></trkpt>
<trkpt lon="-5.518379" lat="43.475889"><ele>337.5</ele></trkpt>
<trkpt lon="-5.518240" lat="43.475904"><ele>336.25</ele></trkpt>
<trkpt lon="-5.517832" lat="43.476033"><ele>330.25</ele></trkpt>
<trkpt lon="-5.517713" lat="43.476090"><ele>328.0</ele></trkpt>
<trkpt lon="-5.517374" lat="43.476341"><ele>319.25</ele></trkpt>
<trkpt lon="-5.517073" lat="43.476489"><ele>315.5</ele></trkpt>
<trkpt lon="-5.516937" lat="43.476578"><ele>314.25</ele></trkpt>
<trkpt lon="-5.516830" lat="43.476683"><ele>313.0</ele></trkpt>
<trkpt lon="-5.516767" lat="43.476845"><ele>312.25</ele></trkpt>
<trkpt lon="-5.516799" lat="43.476919"><ele>310.5</ele></trkpt>
<trkpt lon="-5.516890" lat="43.476931"><ele>308.25</ele></trkpt>
<trkpt lon="-5.517062" lat="43.476777"><ele>306.75</ele></trkpt>
<trkpt lon="-5.517192" lat="43.476726"><ele>305.25</ele></trkpt>
<trkpt lon="-5.517334" lat="43.476733"><ele>303.75</ele></trkpt>
<trkpt lon="-5.517691" lat="43.476822"><ele>298.0</ele></trkpt>
<trkpt lon="-5.517765" lat="43.476871"><ele>295.5</ele></trkpt>
<trkpt lon="-5.518010" lat="43.476937"><ele>290.75</ele></trkpt>
<trkpt lon="-5.518081" lat="43.477014"><ele>289.0</ele></trkpt>
<trkpt lon="-5.518071" lat="43.477048"><ele>288.75</ele></trkpt>
<trkpt lon="-5.517976" lat="43.477137"><ele>288.5</ele></trkpt>
<trkpt lon="-5.517804" lat="43.477216"><ele>288.75</ele></trkpt>
<trkpt lon="-5.517694" lat="43.477347"><ele>288.25</ele></trkpt>
<trkpt lon="-5.517673" lat="43.477418"><ele>287.75</ele></trkpt>
<trkpt lon="-5.517568" lat="43.477565"><ele>287.25</ele></trkpt>
<trkpt lon="-5.517530" lat="43.477675"><ele>287.0</ele></trkpt>
<trkpt lon="-5.517635" lat="43.477760"><ele>286.0</ele></trkpt>
<trkpt lon="-5.517838" lat="43.477829"><ele>284.25</ele></trkpt>
<trkpt lon="-5.517860" lat="43.477928"><ele>283.5</ele></trkpt>
<trkpt lon="-5.517843" lat="43.478043"><ele>283.0</ele></trkpt>
<trkpt lon="-5.517864" lat="43.478125"><ele>283.75</ele></trkpt>
<trkpt lon="-5.517937" lat="43.478213"><ele>283.75</ele></trkpt>
<trkpt lon="-5.518066" lat="43.478296"><ele>281.5</ele></trkpt>
<trkpt lon="-5.518219" lat="43.478358"><ele>278.0</ele></trkpt>
<trkpt lon="-5.518319" lat="43.478429"><ele>276.25</ele></trkpt>
<trkpt lon="-5.518556" lat="43.478552"><ele>272.75</ele></trkpt>
<trkpt lon="-5.518825" lat="43.478606"><ele>267.25</ele></trkpt>
<trkpt lon="-5.518976" lat="43.478652"><ele>265.0</ele></trkpt>
<trkpt lon="-5.519152" lat="43.478739"><ele>262.25</ele></trkpt>
<trkpt lon="-5.519412" lat="43.478966"><ele>259.0</ele></trkpt>
<trkpt lon="-5.519510" lat="43.479113"><ele>258.25</ele></trkpt>
<trkpt lon="-5.519591" lat="43.479291"><ele>257.75</ele></trkpt>
<trkpt lon="-5.519634" lat="43.479450"><ele>257.0</ele></trkpt>
<trkpt lon="-5.519771" lat="43.479522"><ele>256.0</ele></trkpt>
<trkpt lon="-5.519935" lat="43.479557"><ele>254.5</ele></trkpt>
<trkpt lon="-5.520100" lat="43.479570"><ele>252.75</ele></trkpt>
<trkpt lon="-5.520452" lat="43.479558"><ele>248.5</ele></trkpt>
<trkpt lon="-5.520588" lat="43.479579"><ele>247.25</ele></trkpt>
<trkpt lon="-5.520871" lat="43.479689"><ele>244.0</ele></trkpt>
<trkpt lon="-5.521366" lat="43.479672"><ele>236.75</ele></trkpt>
<trkpt lon="-5.521504" lat="43.479692"><ele>234.0</ele></trkpt>
<trkpt lon="-5.521747" lat="43.479760"><ele>229.75</ele></trkpt>
<trkpt lon="-5.522118" lat="43.480072"><ele>225.0</ele></trkpt>
<trkpt lon="-5.522230" lat="43.480369"><ele>224.75</ele></trkpt>
<trkpt lon="-5.522335" lat="43.480440"><ele>223.75</ele></trkpt>
<trkpt lon="-5.522490" lat="43.480445"><ele>221.75</ele></trkpt>
<trkpt lon="-5.522685" lat="43.480435"><ele>220.75</ele></trkpt>
<trkpt lon="-5.522829" lat="43.480412"><ele>219.5</ele></trkpt>
<trkpt lon="-5.523034" lat="43.480426"><ele>219.25</ele></trkpt>
<trkpt lon="-5.523626" lat="43.480523"><ele>210.5</ele></trkpt>
<trkpt lon="-5.523800" lat="43.480587"><ele>208.5</ele></trkpt>
<trkpt lon="-5.523968" lat="43.480669"><ele>206.25</ele></trkpt>
<trkpt lon="-5.524579" lat="43.481008"><ele>196.25</ele></trkpt>
<trkpt lon="-5.525095" lat="43.481247"><ele>186.25</ele></trkpt>
<trkpt lon="-5.525343" lat="43.481370"><ele>182.25</ele></trkpt>
<trkpt lon="-5.525789" lat="43.481623"><ele>180.5</ele></trkpt>
<trkpt lon="-5.525941" lat="43.481671"><ele>179.0</ele></trkpt>
<trkpt lon="-5.526180" lat="43.481709"><ele>175.75</ele></trkpt>
<trkpt lon="-5.526590" lat="43.481881"><ele>170.75</ele></trkpt>
<trkpt lon="-5.526668" lat="43.481945"><ele>170.0</ele></trkpt>
<trkpt lon="-5.526823" lat="43.482051"><ele>171.0</ele></trkpt>
<trkpt lon="-5.526989" lat="43.482132"><ele>171.25</ele></trkpt>
<trkpt lon="-5.527188" lat="43.482214"><ele>172.0</ele></trkpt>
<trkpt lon="-5.527359" lat="43.482274"><ele>172.5</ele></trkpt>
<trkpt lon="-5.527527" lat="43.482307"><ele>172.25</ele></trkpt>
<trkpt lon="-5.527575" lat="43.482346"><ele>172.75</ele></trkpt>
<trkpt lon="-5.527641" lat="43.482366"><ele>173.0</ele></trkpt>
<trkpt lon="-5.527826" lat="43.482389"><ele>172.75</ele></trkpt>
<trkpt lon="-5.527955" lat="43.482388"><ele>172.25</ele></trkpt>
<trkpt lon="-5.528498" lat="43.482266"><ele>172.5</ele></trkpt>
<trkpt lon="-5.528667" lat="43.482208"><ele>173.0</ele></trkpt>
<trkpt lon="-5.528725" lat="43.482154"><ele>172.25</ele></trkpt>
<trkpt lon="-5.528738" lat="43.482077"><ele>171.0</ele></trkpt>
<trkpt lon="-5.528723" lat="43.481973"><ele>168.75</ele></trkpt>
<trkpt lon="-5.528765" lat="43.481861"><ele>167.0</ele></trkpt>
<trkpt lon="-5.528923" lat="43.481758"><ele>165.5</ele></trkpt>
<trkpt lon="-5.529028" lat="43.481691"><ele>163.75</ele></trkpt>
<trkpt lon="-5.529165" lat="43.481631"><ele>162.0</ele></trkpt>
<trkpt lon="-5.529529" lat="43.481537"><ele>157.25</ele></trkpt>
<trkpt lon="-5.529910" lat="43.481503"><ele>153.25</ele></trkpt>
<trkpt lon="-5.530048" lat="43.481523"><ele>152.25</ele></trkpt>
<trkpt lon="-5.530231" lat="43.481565"><ele>151.5</ele></trkpt>
<trkpt lon="-5.530825" lat="43.481828"><ele>149.5</ele></trkpt>
<trkpt lon="-5.531282" lat="43.482065"><ele>147.0</ele></trkpt>
<trkpt lon="-5.531484" lat="43.482112"><ele>145.0</ele></trkpt>
<trkpt lon="-5.531938" lat="43.482226"><ele>140.0</ele></trkpt>
<trkpt lon="-5.532124" lat="43.482288"><ele>138.0</ele></trkpt>
<trkpt lon="-5.532289" lat="43.482396"><ele>136.75</ele></trkpt>
<trkpt lon="-5.532643" lat="43.482530"><ele>132.0</ele></trkpt>
<trkpt lon="-5.532790" lat="43.482740"><ele>128.75</ele></trkpt>
<trkpt lon="-5.532866" lat="43.482812"><ele>128.0</ele></trkpt>
<trkpt lon="-5.533029" lat="43.482835"><ele>126.75</ele></trkpt>
<trkpt lon="-5.533368" lat="43.482853"><ele>125.75</ele></trkpt>
<trkpt lon="-5.533968" lat="43.483057"><ele>124.25</ele></trkpt>
<trkpt lon="-5.534320" lat="43.483213"><ele>123.5</ele></trkpt>
<trkpt lon="-5.534819" lat="43.483375"><ele>122.0</ele></trkpt>
<trkpt lon="-5.535150" lat="43.483472"><ele>121.0</ele></trkpt>
<trkpt lon="-5.535272" lat="43.483557"><ele>120.5</ele></trkpt>
<trkpt lon="-5.535380" lat="43.483633"><ele>120.5</ele></trkpt>
<trkpt lon="-5.535506" lat="43.483749"><ele>120.25</ele></trkpt>
<trkpt lon="-5.535799" lat="43.484196"><ele>118.25</ele></trkpt>
<trkpt lon="-5.536062" lat="43.484405"><ele>117.0</ele></trkpt>
<trkpt lon="-5.536342" lat="43.484548"><ele>116.5</ele></trkpt>
<trkpt lon="-5.536515" lat="43.484677"><ele>115.5</ele></trkpt>
<trkpt lon="-5.536679" lat="43.484915"><ele>113.75</ele></trkpt>
<trkpt lon="-5.536765" lat="43.485207"><ele>113.25</ele></trkpt>
<trkpt lon="-5.536817" lat="43.485290"><ele>112.75</ele></trkpt>
<trkpt lon="-5.536843" lat="43.485331"><ele>112.75</ele></trkpt>
<trkpt lon="-5.537209" lat="43.485688"><ele>110.5</ele></trkpt>
<trkpt lon="-5.537631" lat="43.486253"><ele>109.25</ele></trkpt>
<trkpt lon="-5.537908" lat="43.486480"><ele>109.5</ele></trkpt>
<trkpt lon="-5.538389" lat="43.486683"><ele>110.5</ele></trkpt>
<trkpt lon="-5.538675" lat="43.486892"><ele>109.75</ele></trkpt>
<trkpt lon="-5.538939" lat="43.487125"><ele>108.25</ele></trkpt>
<trkpt lon="-5.539072" lat="43.487249"><ele>106.0</ele></trkpt>
<trkpt lon="-5.539163" lat="43.487546"><ele>100.75</ele></trkpt>
<trkpt lon="-5.539200" lat="43.487649"><ele>100.0</ele></trkpt>
<trkpt lon="-5.539230" lat="43.487695"><ele>99.5</ele></trkpt>
<trkpt lon="-5.539367" lat="43.487625"><ele>98.25</ele></trkpt>
<trkpt lon="-5.539482" lat="43.487591"><ele>97.25</ele></trkpt>
<trkpt lon="-5.539611" lat="43.487572"><ele>95.75</ele></trkpt>
<trkpt lon="-5.539734" lat="43.487566"><ele>94.5</ele></trkpt>
<trkpt lon="-5.539853" lat="43.487580"><ele>93.75</ele></trkpt>
<trkpt lon="-5.540104" lat="43.487642"><ele>92.0</ele></trkpt>
<trkpt lon="-5.540256" lat="43.487695"><ele>90.75</ele></trkpt>
<trkpt lon="-5.540434" lat="43.487777"><ele>89.25</ele></trkpt>
<trkpt lon="-5.540574" lat="43.487820"><ele>88.5</ele></trkpt>
<trkpt lon="-5.540864" lat="43.487854"><ele>87.75</ele></trkpt>
<trkpt lon="-5.541144" lat="43.487871"><ele>86.0</ele></trkpt>
<trkpt lon="-5.541287" lat="43.487894"><ele>84.5</ele></trkpt>
<trkpt lon="-5.541396" lat="43.487934"><ele>83.25</ele></trkpt>
<trkpt lon="-5.541509" lat="43.488005"><ele>82.25</ele></trkpt>
<trkpt lon="-5.541612" lat="43.488114"><ele>80.5</ele></trkpt>
<trkpt lon="-5.542059" lat="43.488788"><ele>77.25</ele></trkpt>
<trkpt lon="-5.542149" lat="43.488893"><ele>76.75</ele></trkpt>
<trkpt lon="-5.542212" lat="43.488939"><ele>76.5</ele></trkpt>
<trkpt lon="-5.542410" lat="43.489034"><ele>75.75</ele></trkpt>
<trkpt lon="-5.542465" lat="43.489068"><ele>75.5</ele></trkpt>
<trkpt lon="-5.542496" lat="43.489115"><ele>75.25</ele></trkpt>
<trkpt lon="-5.542621" lat="43.489137"><ele>74.75</ele></trkpt>
<trkpt lon="-5.542844" lat="43.489219"><ele>73.75</ele></trkpt>
<trkpt lon="-5.543329" lat="43.489367"><ele>73.0</ele></trkpt>
<trkpt lon="-5.543552" lat="43.489446"><ele>73.75</ele></trkpt>
<trkpt lon="-5.543912" lat="43.489564"><ele>73.5</ele></trkpt>
<trkpt lon="-5.544693" lat="43.489922"><ele>74.0</ele></trkpt>
<trkpt lon="-5.544802" lat="43.489978"><ele>74.0</ele></trkpt>
<trkpt lon="-5.544934" lat="43.490093"><ele>74.25</ele></trkpt>
<trkpt lon="-5.545075" lat="43.490167"><ele>74.25</ele></trkpt>
<trkpt lon="-5.545980" lat="43.490599"><ele>74.75</ele></trkpt>
<trkpt lon="-5.546255" lat="43.490729"><ele>75.0</ele></trkpt>
<trkpt lon="-5.546647" lat="43.490864"><ele>75.75</ele></trkpt>
<trkpt lon="-5.546675" lat="43.490959"><ele>76.0</ele></trkpt>
<trkpt lon="-5.546736" lat="43.491022"><ele>76.0</ele></trkpt>
<trkpt lon="-5.546881" lat="43.491136"><ele>75.75</ele></trkpt>
<trkpt lon="-5.546989" lat="43.491284"><ele>75.75</ele></trkpt>
<trkpt lon="-5.547008" lat="43.491379"><ele>75.75</ele></trkpt>
<trkpt lon="-5.546983" lat="43.491469"><ele>76.0</ele></trkpt>
<trkpt lon="-5.546893" lat="43.491639"><ele>76.75</ele></trkpt>
<trkpt lon="-5.546731" lat="43.491832"><ele>77.0</ele></trkpt>
<trkpt lon="-5.546706" lat="43.491891"><ele>77.0</ele></trkpt>
<trkpt lon="-5.546689" lat="43.492057"><ele>77.0</ele></trkpt>
<trkpt lon="-5.546690" lat="43.492130"><ele>77.0</ele></trkpt>
<trkpt lon="-5.546735" lat="43.492395"><ele>76.5</ele></trkpt>
<trkpt lon="-5.546772" lat="43.492554"><ele>76.25</ele></trkpt>
<trkpt lon="-5.546832" lat="43.492665"><ele>76.5</ele></trkpt>
<trkpt lon="-5.546953" lat="43.492821"><ele>77.25</ele></trkpt>
<trkpt lon="-5.546981" lat="43.492890"><ele>77.75</ele></trkpt>
<trkpt lon="-5.547000" lat="43.492996"><ele>78.5</ele></trkpt>
<trkpt lon="-5.547065" lat="43.492992"><ele>78.75</ele></trkpt>
<trkpt lon="-5.547224" lat="43.493013"><ele>79.5</ele></trkpt>
<trkpt lon="-5.547363" lat="43.493020"><ele>80.0</ele></trkpt>
<trkpt lon="-5.547474" lat="43.493013"><ele>80.25</ele></trkpt>
<trkpt lon="-5.547685" lat="43.492986"><ele>82.25</ele></trkpt>
<trkpt lon="-5.548013" lat="43.492882"><ele>83.25</ele></trkpt>
<trkpt lon="-5.548035" lat="43.492949"><ele>84.75</ele></trkpt>
<trkpt lon="-5.548082" lat="43.493023"><ele>86.5</ele></trkpt>
<trkpt lon="-5.548181" lat="43.493072"><ele>88.75</ele></trkpt>
<trkpt lon="-5.548419" lat="43.493135"><ele>92.5</ele></trkpt>
<trkpt lon="-5.548742" lat="43.493191"><ele>97.75</ele></trkpt>
<trkpt lon="-5.549400" lat="43.493204"><ele>102.0</ele></trkpt>
<trkpt lon="-5.549429" lat="43.493299"><ele>105.0</ele></trkpt>
<trkpt lon="-5.549342" lat="43.493399"><ele>108.25</ele></trkpt>
<trkpt lon="-5.549138" lat="43.493508"><ele>111.75</ele></trkpt>
<trkpt lon="-5.548931" lat="43.493608"><ele>114.0</ele></trkpt>
<trkpt lon="-5.548658" lat="43.493656"><ele>113.5</ele></trkpt>
<trkpt lon="-5.548540" lat="43.493725"><ele>114.25</ele></trkpt>
<trkpt lon="-5.548249" lat="43.494063"><ele>120.25</ele></trkpt>
<trkpt lon="-5.548165" lat="43.494171"><ele>122.25</ele></trkpt>
<trkpt lon="-5.548163" lat="43.494256"><ele>124.25</ele></trkpt>
<trkpt lon="-5.548217" lat="43.494302"><ele>126.0</ele></trkpt>
<trkpt lon="-5.548297" lat="43.494301"><ele>127.25</ele></trkpt>
<trkpt lon="-5.548522" lat="43.494264"><ele>128.5</ele></trkpt>
<trkpt lon="-5.548931" lat="43.494210"><ele>130.25</ele></trkpt>
<trkpt lon="-5.549216" lat="43.494245"><ele>132.5</ele></trkpt>
<trkpt lon="-5.549642" lat="43.494233"><ele>133.25</ele></trkpt>
<trkpt lon="-5.549727" lat="43.494222"><ele>133.0</ele></trkpt>
<trkpt lon="-5.549803" lat="43.494200"><ele>133.25</ele></trkpt>
<trkpt lon="-5.549892" lat="43.494157"><ele>133.0</ele></trkpt>
<trkpt lon="-5.550069" lat="43.494103"><ele>132.75</ele></trkpt>
<trkpt lon="-5.550215" lat="43.494093"><ele>132.75</ele></trkpt>
<trkpt lon="-5.550381" lat="43.494097"><ele>133.0</ele></trkpt>
<trkpt lon="-5.550577" lat="43.494132"><ele>134.0</ele></trkpt>
<trkpt lon="-5.550629" lat="43.494134"><ele>134.25</ele></trkpt>
<trkpt lon="-5.550950" lat="43.494109"><ele>134.25</ele></trkpt>
<trkpt lon="-5.551025" lat="43.494139"><ele>135.0</ele></trkpt>
<trkpt lon="-5.551448" lat="43.494255"><ele>137.5</ele></trkpt>
<trkpt lon="-5.551539" lat="43.494259"><ele>137.25</ele></trkpt>
<trkpt lon="-5.551683" lat="43.494251"><ele>136.5</ele></trkpt>
<trkpt lon="-5.551749" lat="43.494256"><ele>136.75</ele></trkpt>
<trkpt lon="-5.552230" lat="43.494378"><ele>141.25</ele></trkpt>
<trkpt lon="-5.552382" lat="43.494448"><ele>143.0</ele></trkpt>
<trkpt lon="-5.552466" lat="43.494511"><ele>144.0</ele></trkpt>
<trkpt lon="-5.552520" lat="43.494594"><ele>145.5</ele></trkpt>
<trkpt lon="-5.552919" lat="43.494796"><ele>148.5</ele></trkpt>
<trkpt lon="-5.553007" lat="43.494827"><ele>149.0</ele></trkpt>
<trkpt lon="-5.553053" lat="43.494873"><ele>150.25</ele></trkpt>
<trkpt lon="-5.553115" lat="43.494908"><ele>150.75</ele></trkpt>
<trkpt lon="-5.553258" lat="43.494943"><ele>151.5</ele></trkpt>
<trkpt lon="-5.553326" lat="43.494989"><ele>153.25</ele></trkpt>
<trkpt lon="-5.553711" lat="43.495417"><ele>158.75</ele></trkpt>
<trkpt lon="-5.553731" lat="43.495466"><ele>159.75</ele></trkpt>
<trkpt lon="-5.553728" lat="43.495505"><ele>161.0</ele></trkpt>
<trkpt lon="-5.553775" lat="43.495615"><ele>163.25</ele></trkpt>
<trkpt lon="-5.553906" lat="43.495779"><ele>165.75</ele></trkpt>
<trkpt lon="-5.554046" lat="43.496044"><ele>171.75</ele></trkpt>
<trkpt lon="-5.554099" lat="43.496138"><ele>174.0</ele></trkpt>
<trkpt lon="-5.554157" lat="43.496170"><ele>174.0</ele></trkpt>
<trkpt lon="-5.554569" lat="43.496201"><ele>173.0</ele></trkpt>
<trkpt lon="-5.554647" lat="43.496219"><ele>172.75</ele></trkpt>
<trkpt lon="-5.554789" lat="43.496358"><ele>174.5</ele></trkpt>
<trkpt lon="-5.555119" lat="43.496745"><ele>179.75</ele></trkpt>
<trkpt lon="-5.555371" lat="43.496916"><ele>184.75</ele></trkpt>
<trkpt lon="-5.555463" lat="43.496970"><ele>187.0</ele></trkpt>
<trkpt lon="-5.555529" lat="43.496993"><ele>188.25</ele></trkpt>
<trkpt lon="-5.555657" lat="43.497007"><ele>190.5</ele></trkpt>
<trkpt lon="-5.555838" lat="43.496968"><ele>191.0</ele></trkpt>
<trkpt lon="-5.555962" lat="43.496962"><ele>192.25</ele></trkpt>
<trkpt lon="-5.556064" lat="43.497001"><ele>195.5</ele></trkpt>
<trkpt lon="-5.556220" lat="43.497085"><ele>200.75</ele></trkpt>
<trkpt lon="-5.556389" lat="43.497085"><ele>201.5</ele></trkpt>
<trkpt lon="-5.556576" lat="43.497066"><ele>202.75</ele></trkpt>
<trkpt lon="-5.556665" lat="43.497047"><ele>203.0</ele></trkpt>
<trkpt lon="-5.557088" lat="43.496854"><ele>206.25</ele></trkpt>
<trkpt lon="-5.557228" lat="43.496861"><ele>209.5</ele></trkpt>
<trkpt lon="-5.557480" lat="43.496944"><ele>213.75</ele></trkpt>
<trkpt lon="-5.557991" lat="43.497091"><ele>220.5</ele></trkpt>
<trkpt lon="-5.558097" lat="43.497210"><ele>224.0</ele></trkpt>
<trkpt lon="-5.558200" lat="43.497274"><ele>227.5</ele></trkpt>
<trkpt lon="-5.558287" lat="43.497312"><ele>230.0</ele></trkpt>
<trkpt lon="-5.558508" lat="43.497352"><ele>233.0</ele></trkpt>
<trkpt lon="-5.558571" lat="43.497349"><ele>233.25</ele></trkpt>
<trkpt lon="-5.558671" lat="43.497318"><ele>232.0</ele></trkpt>
<trkpt lon="-5.558750" lat="43.497322"><ele>232.0</ele></trkpt>
<trkpt lon="-5.559034" lat="43.497387"><ele>234.75</ele></trkpt>
<trkpt lon="-5.559600" lat="43.497544"><ele>241.25</ele></trkpt>
<trkpt lon="-5.559715" lat="43.497569"><ele>242.0</ele></trkpt>
<trkpt lon="-5.560076" lat="43.497608"><ele>245.0</ele></trkpt>
<trkpt lon="-5.560180" lat="43.497632"><ele>246.25</ele></trkpt>
<trkpt lon="-5.560276" lat="43.497623"><ele>246.0</ele></trkpt>
<trkpt lon="-5.560485" lat="43.497641"><ele>247.0</ele></trkpt>
<trkpt lon="-5.560615" lat="43.497665"><ele>248.0</ele></trkpt>
<trkpt lon="-5.560723" lat="43.497699"><ele>249.5</ele></trkpt>
<trkpt lon="-5.560980" lat="43.497800"><ele>253.5</ele></trkpt>
<trkpt lon="-5.561524" lat="43.497950"><ele>259.0</ele></trkpt>
<trkpt lon="-5.561997" lat="43.498032"><ele>265.5</ele></trkpt>
<trkpt lon="-5.562453" lat="43.498031"><ele>270.25</ele></trkpt>
<trkpt lon="-5.562663" lat="43.498219"><ele>272.75</ele></trkpt>
<trkpt lon="-5.562745" lat="43.498298"><ele>272.25</ele></trkpt>
<trkpt lon="-5.562830" lat="43.498381"><ele>272.25</ele></trkpt>
<trkpt lon="-5.563000" lat="43.498501"><ele>271.75</ele></trkpt>
<trkpt lon="-5.563861" lat="43.498928"><ele>263.0</ele></trkpt>
<trkpt lon="-5.564570" lat="43.499297"><ele>256.25</ele></trkpt>
<trkpt lon="-5.564807" lat="43.499402"><ele>255.0</ele></trkpt>
<trkpt lon="-5.566007" lat="43.499887"><ele>246.0</ele></trkpt>
<trkpt lon="-5.566284" lat="43.499968"><ele>243.75</ele></trkpt>
<trkpt lon="-5.566567" lat="43.500021"><ele>241.75</ele></trkpt>
<trkpt lon="-5.567835" lat="43.500112"><ele>234.75</ele></trkpt>
<trkpt lon="-5.568072" lat="43.500140"><ele>232.5</ele></trkpt>
<trkpt lon="-5.568167" lat="43.500171"><ele>231.75</ele></trkpt>
<trkpt lon="-5.568311" lat="43.500251"><ele>230.5</ele></trkpt>
<trkpt lon="-5.568614" lat="43.500451"><ele>227.75</ele></trkpt>
<trkpt lon="-5.568883" lat="43.500630"><ele>225.5</ele></trkpt>
<trkpt lon="-5.569005" lat="43.500746"><ele>224.25</ele></trkpt>
<trkpt lon="-5.569115" lat="43.500904"><ele>222.25</ele></trkpt>
<trkpt lon="-5.569202" lat="43.500993"><ele>221.0</ele></trkpt>
<trkpt lon="-5.569523" lat="43.501219"><ele>217.25</ele></trkpt>
<trkpt lon="-5.569733" lat="43.501374"><ele>217.0</ele></trkpt>
<trkpt lon="-5.569921" lat="43.501496"><ele>215.25</ele></trkpt>
<trkpt lon="-5.570076" lat="43.501570"><ele>214.0</ele></trkpt>
<trkpt lon="-5.570158" lat="43.501597"><ele>213.5</ele></trkpt>
<trkpt lon="-5.570324" lat="43.501624"><ele>212.5</ele></trkpt>
<trkpt lon="-5.570438" lat="43.501618"><ele>211.75</ele></trkpt>
<trkpt lon="-5.570537" lat="43.501576"><ele>212.0</ele></trkpt>
<trkpt lon="-5.570655" lat="43.501500"><ele>211.5</ele></trkpt>
<trkpt lon="-5.570723" lat="43.501418"><ele>211.25</ele></trkpt>
<trkpt lon="-5.570825" lat="43.501300"><ele>211.0</ele></trkpt>
<trkpt lon="-5.570926" lat="43.501258"><ele>210.0</ele></trkpt>
<trkpt lon="-5.571086" lat="43.501123"><ele>209.25</ele></trkpt>
<trkpt lon="-5.571206" lat="43.501046"><ele>209.25</ele></trkpt>
<trkpt lon="-5.571320" lat="43.501015"><ele>208.5</ele></trkpt>
<trkpt lon="-5.571468" lat="43.501040"><ele>208.0</ele></trkpt>
<trkpt lon="-5.571552" lat="43.501134"><ele>207.25</ele></trkpt>
<trkpt lon="-5.571684" lat="43.501652"><ele>202.25</ele></trkpt>
<trkpt lon="-5.571777" lat="43.502132"><ele>198.5</ele></trkpt>
<trkpt lon="-5.571825" lat="43.502803"><ele>191.75</ele></trkpt>
<trkpt lon="-5.571877" lat="43.502975"><ele>190.75</ele></trkpt>
<trkpt lon="-5.571991" lat="43.503090"><ele>190.0</ele></trkpt>
<trkpt lon="-5.572344" lat="43.503291"><ele>187.0</ele></trkpt>
<trkpt lon="-5.572646" lat="43.503473"><ele>186.25</ele></trkpt>
<trkpt lon="-5.572896" lat="43.503571"><ele>186.0</ele></trkpt>
<trkpt lon="-5.573353" lat="43.503628"><ele>185.75</ele></trkpt>
<trkpt lon="-5.573523" lat="43.503632"><ele>185.25</ele></trkpt>
<trkpt lon="-5.573636" lat="43.503644"><ele>184.75</ele></trkpt>
<trkpt lon="-5.573949" lat="43.503767"><ele>183.75</ele></trkpt>
<trkpt lon="-5.574045" lat="43.503823"><ele>183.25</ele></trkpt>
<trkpt lon="-5.574223" lat="43.503925"><ele>182.5</ele></trkpt>
<trkpt lon="-5.574561" lat="43.504144"><ele>180.5</ele></trkpt>
<trkpt lon="-5.574728" lat="43.504242"><ele>179.75</ele></trkpt>
<trkpt lon="-5.575512" lat="43.504610"><ele>177.5</ele></trkpt>
<trkpt lon="-5.575856" lat="43.504644"><ele>175.75</ele></trkpt>
<trkpt lon="-5.576221" lat="43.504699"><ele>172.25</ele></trkpt>
<trkpt lon="-5.576482" lat="43.504779"><ele>169.75</ele></trkpt>
<trkpt lon="-5.576937" lat="43.504979"><ele>164.5</ele></trkpt>
<trkpt lon="-5.577460" lat="43.505099"><ele>160.75</ele></trkpt>
<trkpt lon="-5.577701" lat="43.505199"><ele>158.25</ele></trkpt>
<trkpt lon="-5.577845" lat="43.505314"><ele>156.5</ele></trkpt>
<trkpt lon="-5.578216" lat="43.505846"><ele>151.5</ele></trkpt>
<trkpt lon="-5.578410" lat="43.506245"><ele>149.0</ele></trkpt>
<trkpt lon="-5.578542" lat="43.506613"><ele>150.25</ele></trkpt>
<trkpt lon="-5.578626" lat="43.506932"><ele>151.0</ele></trkpt>
<trkpt lon="-5.578657" lat="43.507016"><ele>150.75</ele></trkpt>
<trkpt lon="-5.578795" lat="43.507081"><ele>151.0</ele></trkpt>
<trkpt lon="-5.579107" lat="43.507276"><ele>151.5</ele></trkpt>
<trkpt lon="-5.579392" lat="43.507536"><ele>157.0</ele></trkpt>
<trkpt lon="-5.579595" lat="43.507779"><ele>160.5</ele></trkpt>
<trkpt lon="-5.579693" lat="43.507838"><ele>162.5</ele></trkpt>
<trkpt lon="-5.579882" lat="43.507938"><ele>164.75</ele></trkpt>
<trkpt lon="-5.580171" lat="43.508057"><ele>165.0</ele></trkpt>
<trkpt lon="-5.580397" lat="43.508178"><ele>165.25</ele></trkpt>
<trkpt lon="-5.581074" lat="43.508354"><ele>163.25</ele></trkpt>
<trkpt lon="-5.581295" lat="43.508405"><ele>162.75</ele></trkpt>
<trkpt lon="-5.581550" lat="43.508460"><ele>162.5</ele></trkpt>
<trkpt lon="-5.581927" lat="43.508560"><ele>160.75</ele></trkpt>
<trkpt lon="-5.582413" lat="43.508729"><ele>157.25</ele></trkpt>
<trkpt lon="-5.583058" lat="43.509139"><ele>155.75</ele></trkpt>
<trkpt lon="-5.583792" lat="43.509537"><ele>161.5</ele></trkpt>
<trkpt lon="-5.584143" lat="43.509748"><ele>165.25</ele></trkpt>
<trkpt lon="-5.584528" lat="43.510025"><ele>168.0</ele></trkpt>
<trkpt lon="-5.584814" lat="43.510198"><ele>168.5</ele></trkpt>
<trkpt lon="-5.585809" lat="43.510707"><ele>167.75</ele></trkpt>
<trkpt lon="-5.586360" lat="43.510863"><ele>168.5</ele></trkpt>
<trkpt lon="-5.586872" lat="43.510998"><ele>168.25</ele></trkpt>
<trkpt lon="-5.587378" lat="43.511008"><ele>167.0</ele></trkpt>
<trkpt lon="-5.587475" lat="43.511007"><ele>166.75</ele></trkpt>
<trkpt lon="-5.588335" lat="43.510836"><ele>157.75</ele></trkpt>
<trkpt lon="-5.588530" lat="43.511055"><ele>154.75</ele></trkpt>
<trkpt lon="-5.588658" lat="43.511220"><ele>151.75</ele></trkpt>
<trkpt lon="-5.589241" lat="43.511029"><ele>149.75</ele></trkpt>
<trkpt lon="-5.589557" lat="43.511098"><ele>151.75</ele></trkpt>
<trkpt lon="-5.589760" lat="43.511116"><ele>153.0</ele></trkpt>
<trkpt lon="-5.589543" lat="43.511210"><ele>151.0</ele></trkpt>
<trkpt lon="-5.589493" lat="43.511251"><ele>150.5</ele></trkpt>
<trkpt lon="-5.589282" lat="43.511364"><ele>147.0</ele></trkpt>
<trkpt lon="-5.589239" lat="43.511414"><ele>145.5</ele></trkpt>
<trkpt lon="-5.589303" lat="43.511497"><ele>144.0</ele></trkpt>
<trkpt lon="-5.589343" lat="43.511521"><ele>144.0</ele></trkpt>
<trkpt lon="-5.589401" lat="43.511585"><ele>142.75</ele></trkpt>
<trkpt lon="-5.589457" lat="43.511629"><ele>142.0</ele></trkpt>
<trkpt lon="-5.589500" lat="43.511654"><ele>141.25</ele></trkpt>
<trkpt lon="-5.589585" lat="43.511651"><ele>141.5</ele></trkpt>
<trkpt lon="-5.589648" lat="43.511659"><ele>141.0</ele></trkpt>
<trkpt lon="-5.589688" lat="43.511679"><ele>140.5</ele></trkpt>
<trkpt lon="-5.589940" lat="43.511724"><ele>136.5</ele></trkpt>
<trkpt lon="-5.590007" lat="43.511702"><ele>136.5</ele></trkpt>
<trkpt lon="-5.590094" lat="43.511699"><ele>135.25</ele></trkpt>
<trkpt lon="-5.590188" lat="43.511688"><ele>134.25</ele></trkpt>
<trkpt lon="-5.590289" lat="43.511704"><ele>132.25</ele></trkpt>
<trkpt lon="-5.590384" lat="43.511760"><ele>129.25</ele></trkpt>
<trkpt lon="-5.590507" lat="43.511809"><ele>126.25</ele></trkpt>
<trkpt lon="-5.590596" lat="43.511815"><ele>125.5</ele></trkpt>
<trkpt lon="-5.590786" lat="43.511859"><ele>123.0</ele></trkpt>
<trkpt lon="-5.590852" lat="43.511869"><ele>122.5</ele></trkpt>
<trkpt lon="-5.590899" lat="43.511889"><ele>121.5</ele></trkpt>
<trkpt lon="-5.590932" lat="43.511918"><ele>120.25</ele></trkpt>
<trkpt lon="-5.590879" lat="43.511982"><ele>117.5</ele></trkpt>
<trkpt lon="-5.590816" lat="43.512007"><ele>116.75</ele></trkpt>
<trkpt lon="-5.590663" lat="43.512003"><ele>117.75</ele></trkpt>
<trkpt lon="-5.590499" lat="43.512015"><ele>118.5</ele></trkpt>
<trkpt lon="-5.590427" lat="43.512063"><ele>117.75</ele></trkpt>
<trkpt lon="-5.590440" lat="43.512106"><ele>116.25</ele></trkpt>
<trkpt lon="-5.590309" lat="43.512160"><ele>115.75</ele></trkpt>
<trkpt lon="-5.590348" lat="43.512181"><ele>114.75</ele></trkpt>
<trkpt lon="-5.590385" lat="43.512218"><ele>113.25</ele></trkpt>
<trkpt lon="-5.590442" lat="43.512219"><ele>112.75</ele></trkpt>
<trkpt lon="-5.590491" lat="43.512194"><ele>113.25</ele></trkpt>
<trkpt lon="-5.590597" lat="43.512170"><ele>113.0</ele></trkpt>
<trkpt lon="-5.591012" lat="43.512119"><ele>112.25</ele></trkpt>
<trkpt lon="-5.591151" lat="43.512122"><ele>112.0</ele></trkpt>
<trkpt lon="-5.591201" lat="43.512130"><ele>111.75</ele></trkpt>
<trkpt lon="-5.591266" lat="43.512127"><ele>111.75</ele></trkpt>
<trkpt lon="-5.591462" lat="43.512163"><ele>110.75</ele></trkpt>
<trkpt lon="-5.591543" lat="43.512195"><ele>109.75</ele></trkpt>
<trkpt lon="-5.591669" lat="43.512185"><ele>110.75</ele></trkpt>
<trkpt lon="-5.591674" lat="43.512218"><ele>109.0</ele></trkpt>
<trkpt lon="-5.591598" lat="43.512342"><ele>103.75</ele></trkpt>
<trkpt lon="-5.591662" lat="43.512375"><ele>102.25</ele></trkpt>
<trkpt lon="-5.591700" lat="43.512424"><ele>100.25</ele></trkpt>
<trkpt lon="-5.592067" lat="43.512599"><ele>98.5</ele></trkpt>
<trkpt lon="-5.592603" lat="43.512635"><ele>97.75</ele></trkpt>
<trkpt lon="-5.593266" lat="43.512755"><ele>91.5</ele></trkpt>
<trkpt lon="-5.593540" lat="43.512846"><ele>90.5</ele></trkpt>
<trkpt lon="-5.594074" lat="43.513000"><ele>90.0</ele></trkpt>
<trkpt lon="-5.594536" lat="43.513009"><ele>87.25</ele></trkpt>
<trkpt lon="-5.595108" lat="43.513005"><ele>83.25</ele></trkpt>
<trkpt lon="-5.595564" lat="43.513043"><ele>80.5</ele></trkpt>
<trkpt lon="-5.596262" lat="43.513158"><ele>76.75</ele></trkpt>
<trkpt lon="-5.596723" lat="43.513286"><ele>72.75</ele></trkpt>
<trkpt lon="-5.596938" lat="43.513398"><ele>72.0</ele></trkpt>
<trkpt lon="-5.597445" lat="43.513680"><ele>67.25</ele></trkpt>
<trkpt lon="-5.597556" lat="43.513737"><ele>66.5</ele></trkpt>
<trkpt lon="-5.598078" lat="43.513963"><ele>61.5</ele></trkpt>
<trkpt lon="-5.598390" lat="43.514048"><ele>59.0</ele></trkpt>
<trkpt lon="-5.598641" lat="43.514141"><ele>57.75</ele></trkpt>
<trkpt lon="-5.598838" lat="43.514187"><ele>57.0</ele></trkpt>
<trkpt lon="-5.599174" lat="43.513811"><ele>55.75</ele></trkpt>
<trkpt lon="-5.599309" lat="43.513586"><ele>55.25</ele></trkpt>
<trkpt lon="-5.599989" lat="43.512796"><ele>52.75</ele></trkpt>
<trkpt lon="-5.600112" lat="43.512763"><ele>52.5</ele></trkpt>
<trkpt lon="-5.600729" lat="43.513055"><ele>50.0</ele></trkpt>
<trkpt lon="-5.601775" lat="43.513451"><ele>46.75</ele></trkpt>
<trkpt lon="-5.601902" lat="43.513478"><ele>46.5</ele></trkpt>
<trkpt lon="-5.602044" lat="43.513485"><ele>46.25</ele></trkpt>
<trkpt lon="-5.604041" lat="43.513261"><ele>38.0</ele></trkpt>
<trkpt lon="-5.604030" lat="43.513240"><ele>38.0</ele></trkpt>
<trkpt lon="-5.604112" lat="43.513221"><ele>38.25</ele></trkpt>
<trkpt lon="-5.604533" lat="43.513839"><ele>37.5</ele></trkpt>
<trkpt lon="-5.604612" lat="43.513886"><ele>37.25</ele></trkpt>
<trkpt lon="-5.604824" lat="43.513939"><ele>37.25</ele></trkpt>
<trkpt lon="-5.604998" lat="43.513952"><ele>37.0</ele></trkpt>
<trkpt lon="-5.605077" lat="43.513987"><ele>37.0</ele></trkpt>
<trkpt lon="-5.605174" lat="43.514002"><ele>36.75</ele></trkpt>
<trkpt lon="-5.605302" lat="43.513995"><ele>36.25</ele></trkpt>
<trkpt lon="-5.605448" lat="43.514046"><ele>36.25</ele></trkpt>
<trkpt lon="-5.605602" lat="43.514137"><ele>36.25</ele></trkpt>
<trkpt lon="-5.605653" lat="43.514206"><ele>36.25</ele></trkpt>
<trkpt lon="-5.605645" lat="43.514366"><ele>36.25</ele></trkpt>
<trkpt lon="-5.605592" lat="43.514506"><ele>35.75</ele></trkpt>
<trkpt lon="-5.605513" lat="43.514614"><ele>35.25</ele></trkpt>
<trkpt lon="-5.605270" lat="43.514753"><ele>35.75</ele></trkpt>
<trkpt lon="-5.605077" lat="43.514938"><ele>37.0</ele></trkpt>
<trkpt lon="-5.605025" lat="43.515005"><ele>37.5</ele></trkpt>
<trkpt lon="-5.605023" lat="43.515077"><ele>37.75</ele></trkpt>
<trkpt lon="-5.605054" lat="43.515143"><ele>37.5</ele></trkpt>
<trkpt lon="-5.605311" lat="43.515313"><ele>36.75</ele></trkpt>
<trkpt lon="-5.605347" lat="43.515367"><ele>36.5</ele></trkpt>
<trkpt lon="-5.605438" lat="43.515683"><ele>36.5</ele></trkpt>
<trkpt lon="-5.605493" lat="43.515768"><ele>36.25</ele></trkpt>
<trkpt lon="-5.605546" lat="43.515800"><ele>35.75</ele></trkpt>
<trkpt lon="-5.605860" lat="43.515928"><ele>34.75</ele></trkpt>
<trkpt lon="-5.606006" lat="43.515966"><ele>35.0</ele></trkpt>
<trkpt lon="-5.606368" lat="43.516000"><ele>34.25</ele></trkpt>
<trkpt lon="-5.606526" lat="43.516043"><ele>34.5</ele></trkpt>
<trkpt lon="-5.606651" lat="43.516123"><ele>35.0</ele></trkpt>
<trkpt lon="-5.606791" lat="43.516264"><ele>35.0</ele></trkpt>
<trkpt lon="-5.606846" lat="43.516302"><ele>35.0</ele></trkpt>
<trkpt lon="-5.607164" lat="43.515803"><ele>33.0</ele></trkpt>
<trkpt lon="-5.607291" lat="43.515873"><ele>32.75</ele></trkpt>
<trkpt lon="-5.607571" lat="43.516047"><ele>32.75</ele></trkpt>
<trkpt lon="-5.607666" lat="43.516088"><ele>32.75</ele></trkpt>
<trkpt lon="-5.607767" lat="43.516113"><ele>33.0</ele></trkpt>
<trkpt lon="-5.607958" lat="43.516136"><ele>31.75</ele></trkpt>
<trkpt lon="-5.608147" lat="43.516181"><ele>31.5</ele></trkpt>
<trkpt lon="-5.608548" lat="43.516220"><ele>31.5</ele></trkpt>
<trkpt lon="-5.609001" lat="43.516264"><ele>32.0</ele></trkpt>
<trkpt lon="-5.609051" lat="43.516303"><ele>32.0</ele></trkpt>
<trkpt lon="-5.609145" lat="43.516580"><ele>30.5</ele></trkpt>
<trkpt lon="-5.609217" lat="43.516747"><ele>30.25</ele></trkpt>
<trkpt lon="-5.609208" lat="43.516779"><ele>30.0</ele></trkpt>
<trkpt lon="-5.609148" lat="43.516834"><ele>30.0</ele></trkpt>
<trkpt lon="-5.609121" lat="43.516887"><ele>30.0</ele></trkpt>
<trkpt lon="-5.609144" lat="43.517111"><ele>30.0</ele></trkpt>
<trkpt lon="-5.609239" lat="43.517354"><ele>30.25</ele></trkpt>
<trkpt lon="-5.609306" lat="43.517446"><ele>30.25</ele></trkpt>
<trkpt lon="-5.609309" lat="43.517512"><ele>30.25</ele></trkpt>
<trkpt lon="-5.609223" lat="43.517722"><ele>30.75</ele></trkpt>
<trkpt lon="-5.609233" lat="43.517765"><ele>30.75</ele></trkpt>
<trkpt lon="-5.609674" lat="43.518077"><ele>29.75</ele></trkpt>
<trkpt lon="-5.610047" lat="43.518261"><ele>30.0</ele></trkpt>
<trkpt lon="-5.610157" lat="43.518375"><ele>30.25</ele></trkpt>
<trkpt lon="-5.610211" lat="43.518507"><ele>29.5</ele></trkpt>
<trkpt lon="-5.610213" lat="43.518685"><ele>29.0</ele></trkpt>
<trkpt lon="-5.610116" lat="43.518865"><ele>29.5</ele></trkpt>
<trkpt lon="-5.610152" lat="43.518983"><ele>29.25</ele></trkpt>
<trkpt lon="-5.610227" lat="43.518952"><ele>29.0</ele></trkpt>
<trkpt lon="-5.610417" lat="43.518861"><ele>29.0</ele></trkpt>
<trkpt lon="-5.610723" lat="43.518699"><ele>29.0</ele></trkpt>
<trkpt lon="-5.610810" lat="43.518678"><ele>29.0</ele></trkpt>
<trkpt lon="-5.610946" lat="43.518664"><ele>29.25</ele></trkpt>
<trkpt lon="-5.611716" lat="43.518621"><ele>31.0</ele></trkpt>
<trkpt lon="-5.612007" lat="43.518621"><ele>32.0</ele></trkpt>
<trkpt lon="-5.612284" lat="43.518647"><ele>32.75</ele></trkpt>
<trkpt lon="-5.612454" lat="43.518689"><ele>32.5</ele></trkpt>
<trkpt lon="-5.612669" lat="43.518785"><ele>32.25</ele></trkpt>
<trkpt lon="-5.612742" lat="43.518802"><ele>32.25</ele></trkpt>
<trkpt lon="-5.612808" lat="43.518802"><ele>32.25</ele></trkpt>
<trkpt lon="-5.612860" lat="43.518783"><ele>32.25</ele></trkpt>
<trkpt lon="-5.613065" lat="43.518628"><ele>32.75</ele></trkpt>
<trkpt lon="-5.613255" lat="43.518511"><ele>33.25</ele></trkpt>
<trkpt lon="-5.613443" lat="43.518364"><ele>33.75</ele></trkpt>
<trkpt lon="-5.613474" lat="43.518447"><ele>33.5</ele></trkpt>
<trkpt lon="-5.613532" lat="43.518515"><ele>33.25</ele></trkpt>
<trkpt lon="-5.613682" lat="43.518635"><ele>33.0</ele></trkpt>
<trkpt lon="-5.613878" lat="43.518729"><ele>33.0</ele></trkpt>
<trkpt lon="-5.614650" lat="43.518915"><ele>31.75</ele></trkpt>
<trkpt lon="-5.614837" lat="43.518993"><ele>31.25</ele></trkpt>
<trkpt lon="-5.614981" lat="43.519082"><ele>31.0</ele></trkpt>
<trkpt lon="-5.615219" lat="43.519328"><ele>29.75</ele></trkpt>
<trkpt lon="-5.615345" lat="43.519599"><ele>28.5</ele></trkpt>
<trkpt lon="-5.615380" lat="43.519682"><ele>28.0</ele></trkpt>
<trkpt lon="-5.615310" lat="43.519696"><ele>28.0</ele></trkpt>
<trkpt lon="-5.615121" lat="43.519748"><ele>28.25</ele></trkpt>
<trkpt lon="-5.614562" lat="43.519961"><ele>29.0</ele></trkpt>
<trkpt lon="-5.614434" lat="43.520033"><ele>28.75</ele></trkpt>
<trkpt lon="-5.614337" lat="43.520113"><ele>28.75</ele></trkpt>
<trkpt lon="-5.614267" lat="43.520247"><ele>28.0</ele></trkpt>
<trkpt lon="-5.614024" lat="43.521189"><ele>24.75</ele></trkpt>
<trkpt lon="-5.614074" lat="43.521200"><ele>24.75</ele></trkpt>
<trkpt lon="-5.614050" lat="43.521336"><ele>24.5</ele></trkpt>
<trkpt lon="-5.614060" lat="43.521400"><ele>24.25</ele></trkpt>
<trkpt lon="-5.614125" lat="43.521495"><ele>24.5</ele></trkpt>
<trkpt lon="-5.614178" lat="43.521558"><ele>24.5</ele></trkpt>
<trkpt lon="-5.614245" lat="43.521599"><ele>24.75</ele></trkpt>
<trkpt lon="-5.614431" lat="43.521680"><ele>25.0</ele></trkpt>
<trkpt lon="-5.614556" lat="43.521695"><ele>25.0</ele></trkpt>
<trkpt lon="-5.614615" lat="43.521695"><ele>25.0</ele></trkpt>
<trkpt lon="-5.614666" lat="43.521672"><ele>25.0</ele></trkpt>
<trkpt lon="-5.614924" lat="43.521516"><ele>23.75</ele></trkpt>
<trkpt lon="-5.615976" lat="43.521559"><ele>24.75</ele></trkpt>
<trkpt lon="-5.615963" lat="43.521628"><ele>24.75</ele></trkpt>
<trkpt lon="-5.616006" lat="43.521631"><ele>24.75</ele></trkpt>
<trkpt lon="-5.616048" lat="43.521649"><ele>24.75</ele></trkpt>
<trkpt lon="-5.616088" lat="43.521700"><ele>24.75</ele></trkpt>
<trkpt lon="-5.616296" lat="43.521636"><ele>24.25</ele></trkpt>
<trkpt lon="-5.616352" lat="43.521640"><ele>24.0</ele></trkpt>
<trkpt lon="-5.616342" lat="43.521740"><ele>24.0</ele></trkpt>
<trkpt lon="-5.616371" lat="43.521768"><ele>24.0</ele></trkpt>
<trkpt lon="-5.617301" lat="43.521824"><ele>23.75</ele></trkpt>
<trkpt lon="-5.617295" lat="43.521902"><ele>23.75</ele></trkpt>
<trkpt lon="-5.617806" lat="43.521936"><ele>23.75</ele></trkpt>
<trkpt lon="-5.617945" lat="43.521964"><ele>24.0</ele></trkpt>
<trkpt lon="-5.618104" lat="43.522016"><ele>24.0</ele></trkpt>
<trkpt lon="-5.618477" lat="43.522153"><ele>24.75</ele></trkpt>
<trkpt lon="-5.619896" lat="43.522803"><ele>26.25</ele></trkpt>
<trkpt lon="-5.620247" lat="43.522955"><ele>26.5</ele></trkpt>
<trkpt lon="-5.620291" lat="43.522952"><ele>26.5</ele></trkpt>
<trkpt lon="-5.620329" lat="43.522957"><ele>26.5</ele></trkpt>
<trkpt lon="-5.620327" lat="43.522984"><ele>26.5</ele></trkpt>
<trkpt lon="-5.620347" lat="43.523009"><ele>26.75</ele></trkpt>
<trkpt lon="-5.622225" lat="43.523867"><ele>24.0</ele></trkpt>
<trkpt lon="-5.622533" lat="43.524015"><ele>23.5</ele></trkpt>
<trkpt lon="-5.623367" lat="43.524440"><ele>21.75</ele></trkpt>
<trkpt lon="-5.623542" lat="43.524539"><ele>21.0</ele></trkpt>
<trkpt lon="-5.623558" lat="43.524548"><ele>21.0</ele></trkpt>
<trkpt lon="-5.623512" lat="43.524574"><ele>21.0</ele></trkpt>
<trkpt lon="-5.623476" lat="43.524613"><ele>21.0</ele></trkpt>
<trkpt lon="-5.623995" lat="43.524887"><ele>20.75</ele></trkpt>
<trkpt lon="-5.624451" lat="43.525132"><ele>20.0</ele></trkpt>
<trkpt lon="-5.624534" lat="43.525177"><ele>20.0</ele></trkpt>
<trkpt lon="-5.626033" lat="43.525965"><ele>19.5</ele></trkpt>
<trkpt lon="-5.627000" lat="43.526473"><ele>19.0</ele></trkpt>
<trkpt lon="-5.627564" lat="43.526753"><ele>19.0</ele></trkpt>
<trkpt lon="-5.627598" lat="43.526818"><ele>19.0</ele></trkpt>
<trkpt lon="-5.627608" lat="43.526843"><ele>19.0</ele></trkpt>
<trkpt lon="-5.627650" lat="43.526836"><ele>19.25</ele></trkpt>
<trkpt lon="-5.627690" lat="43.526841"><ele>19.25</ele></trkpt>
<trkpt lon="-5.627753" lat="43.526844"><ele>19.5</ele></trkpt>
<trkpt lon="-5.628169" lat="43.527058"><ele>19.0</ele></trkpt>
<trkpt lon="-5.628218" lat="43.527091"><ele>19.0</ele></trkpt>
<trkpt lon="-5.628443" lat="43.527226"><ele>19.0</ele></trkpt>
<trkpt lon="-5.628524" lat="43.527279"><ele>19.0</ele></trkpt>
<trkpt lon="-5.628584" lat="43.527291"><ele>19.0</ele></trkpt>
<trkpt lon="-5.628622" lat="43.527306"><ele>18.75</ele></trkpt>
<trkpt lon="-5.628776" lat="43.527386"><ele>18.25</ele></trkpt>
<trkpt lon="-5.629104" lat="43.527573"><ele>18.0</ele></trkpt>
<trkpt lon="-5.629185" lat="43.527620"><ele>18.0</ele></trkpt>
<trkpt lon="-5.629322" lat="43.527649"><ele>18.0</ele></trkpt>
<trkpt lon="-5.630417" lat="43.528596"><ele>16.0</ele></trkpt>
<trkpt lon="-5.630493" lat="43.528662"><ele>15.75</ele></trkpt>
<trkpt lon="-5.630558" lat="43.528723"><ele>15.5</ele></trkpt>
<trkpt lon="-5.630720" lat="43.528870"><ele>15.5</ele></trkpt>
<trkpt lon="-5.631025" lat="43.529144"><ele>15.0</ele></trkpt>
<trkpt lon="-5.631223" lat="43.529388"><ele>14.5</ele></trkpt>
<trkpt lon="-5.631250" lat="43.529421"><ele>14.5</ele></trkpt>
<trkpt lon="-5.631674" lat="43.530180"><ele>12.25</ele></trkpt>
<trkpt lon="-5.631731" lat="43.530283"><ele>11.75</ele></trkpt>
<trkpt lon="-5.631771" lat="43.530346"><ele>11.75</ele></trkpt>
<trkpt lon="-5.632084" lat="43.530905"><ele>10.0</ele></trkpt>
<trkpt lon="-5.632100" lat="43.530933"><ele>10.0</ele></trkpt>
<trkpt lon="-5.632401" lat="43.531469"><ele>9.0</ele></trkpt>
<trkpt lon="-5.632431" lat="43.531520"><ele>9.0</ele></trkpt>
<trkpt lon="-5.632501" lat="43.531498"><ele>9.0</ele></trkpt>
<trkpt lon="-5.632701" lat="43.531852"><ele>8.5</ele></trkpt>
<trkpt lon="-5.632976" lat="43.532339"><ele>8.25</ele></trkpt>
<trkpt lon="-5.632989" lat="43.532364"><ele>8.25</ele></trkpt>
<trkpt lon="-5.633327" lat="43.532962"><ele>8.0</ele></trkpt>
<trkpt lon="-5.633612" lat="43.532876"><ele>7.0</ele></trkpt>
<trkpt lon="-5.633885" lat="43.532793"><ele>7.0</ele></trkpt>
<trkpt lon="-5.634194" lat="43.532697"><ele>6.75</ele></trkpt>
<trkpt lon="-5.634278" lat="43.532967"><ele>7.0</ele></trkpt>
<trkpt lon="-5.634442" lat="43.533359"><ele>6.75</ele></trkpt>
<trkpt lon="-5.634523" lat="43.533345"><ele>6.25</ele></trkpt>
<trkpt lon="-5.634631" lat="43.533318"><ele>5.5</ele></trkpt>
<trkpt lon="-5.634691" lat="43.533306"><ele>5.0</ele></trkpt>
<trkpt lon="-5.634701" lat="43.533303"><ele>5.0</ele></trkpt>
<trkpt lon="-5.634711" lat="43.533337"><ele>5.0</ele></trkpt>
<trkpt lon="-5.634753" lat="43.533407"><ele>5.25</ele></trkpt>
<trkpt lon="-5.634860" lat="43.533543"><ele>6.25</ele></trkpt>
<trkpt lon="-5.634896" lat="43.533576"><ele>6.5</ele></trkpt>
<trkpt lon="-5.634965" lat="43.533605"><ele>6.75</ele></trkpt>
<trkpt lon="-5.635000" lat="43.533608"><ele>6.75</ele></trkpt>
<trkpt lon="-5.635121" lat="43.533744"><ele>6.0</ele></trkpt>
<trkpt lon="-5.635190" lat="43.533860"><ele>5.75</ele></trkpt>
<trkpt lon="-5.635226" lat="43.533898"><ele>6.0</ele></trkpt>
<trkpt lon="-5.635270" lat="43.533930"><ele>6.0</ele></trkpt>
<trkpt lon="-5.635318" lat="43.533948"><ele>5.75</ele></trkpt>
<trkpt lon="-5.635707" lat="43.534004"><ele>5.0</ele></trkpt>
<trkpt lon="-5.635681" lat="43.534073"><ele>5.0</ele></trkpt>
<trkpt lon="-5.635663" lat="43.534129"><ele>5.0</ele></trkpt>
<trkpt lon="-5.636232" lat="43.534214"><ele>4.75</ele></trkpt>
<trkpt lon="-5.636577" lat="43.534245"><ele>5.0</ele></trkpt>
<trkpt lon="-5.636848" lat="43.534233"><ele>5.0</ele></trkpt>
<trkpt lon="-5.637437" lat="43.534224"><ele>5.0</ele></trkpt>
<trkpt lon="-5.637673" lat="43.534239"><ele>5.0</ele></trkpt>
<trkpt lon="-5.637816" lat="43.534252"><ele>5.0</ele></trkpt>
<trkpt lon="-5.637998" lat="43.534284"><ele>5.0</ele></trkpt>
<trkpt lon="-5.638018" lat="43.534290"><ele>5.0</ele></trkpt>
<trkpt lon="-5.638059" lat="43.534303"><ele>5.0</ele></trkpt>
<trkpt lon="-5.638119" lat="43.534321"><ele>5.0</ele></trkpt>
<trkpt lon="-5.638130" lat="43.534318"><ele>5.0</ele></trkpt>
<trkpt lon="-5.638193" lat="43.534330"><ele>5.0</ele></trkpt>
<trkpt lon="-5.638690" lat="43.534418"><ele>5.25</ele></trkpt>
<trkpt lon="-5.638700" lat="43.534425"><ele>5.25</ele></trkpt>
<trkpt lon="-5.638796" lat="43.534443"><ele>5.5</ele></trkpt>
<trkpt lon="-5.638879" lat="43.534458"><ele>5.75</ele></trkpt>
<trkpt lon="-5.638915" lat="43.534447"><ele>6.0</ele></trkpt>
<trkpt lon="-5.639648" lat="43.534577"><ele>6.0</ele></trkpt>
<trkpt lon="-5.639760" lat="43.534598"><ele>6.0</ele></trkpt>
<trkpt lon="-5.639898" lat="43.534621"><ele>6.0</ele></trkpt>
<trkpt lon="-5.639916" lat="43.534636"><ele>6.0</ele></trkpt>
<trkpt lon="-5.640004" lat="43.534655"><ele>6.0</ele></trkpt>
<trkpt lon="-5.640061" lat="43.534665"><ele>6.0</ele></trkpt>
<trkpt lon="-5.641816" lat="43.534964"><ele>7.0</ele></trkpt>
<trkpt lon="-5.641874" lat="43.534974"><ele>7.0</ele></trkpt>
<trkpt lon="-5.641935" lat="43.534984"><ele>7.0</ele></trkpt>
<trkpt lon="-5.641967" lat="43.534979"><ele>7.0</ele></trkpt>
<trkpt lon="-5.642309" lat="43.535034"><ele>6.75</ele></trkpt>
<trkpt lon="-5.642690" lat="43.535111"><ele>6.75</ele></trkpt>
<trkpt lon="-5.642911" lat="43.535183"><ele>7.0</ele></trkpt>
<trkpt lon="-5.644028" lat="43.535674"><ele>6.5</ele></trkpt>
<trkpt lon="-5.644042" lat="43.535716"><ele>6.25</ele></trkpt>
<trkpt lon="-5.644117" lat="43.535754"><ele>6.25</ele></trkpt>
<trkpt lon="-5.644204" lat="43.535794"><ele>6.25</ele></trkpt>
<trkpt lon="-5.644250" lat="43.535790"><ele>6.25</ele></trkpt>
<trkpt lon="-5.645461" lat="43.536311"><ele>6.25</ele></trkpt>
<trkpt lon="-5.645512" lat="43.536348"><ele>6.25</ele></trkpt>
<trkpt lon="-5.645552" lat="43.536388"><ele>6.0</ele></trkpt>
<trkpt lon="-5.645601" lat="43.536410"><ele>6.0</ele></trkpt>
<trkpt lon="-5.645630" lat="43.536388"><ele>6.0</ele></trkpt>
<trkpt lon="-5.645655" lat="43.536383"><ele>6.0</ele></trkpt>
<trkpt lon="-5.646090" lat="43.536589"><ele>6.0</ele></trkpt>
<trkpt lon="-5.646961" lat="43.536972"><ele>5.75</ele></trkpt>
<trkpt lon="-5.647002" lat="43.536923"><ele>6.0</ele></trkpt>
<trkpt lon="-5.647035" lat="43.536938"><ele>6.0</ele></trkpt>
<trkpt lon="-5.647123" lat="43.536979"><ele>5.75</ele></trkpt>
<trkpt lon="-5.647254" lat="43.537034"><ele>6.0</ele></trkpt>
<trkpt lon="-5.647863" lat="43.537301"><ele>5.0</ele></trkpt>
<trkpt lon="-5.647936" lat="43.537334"><ele>5.25</ele></trkpt>
<trkpt lon="-5.648227" lat="43.537461"><ele>5.0</ele></trkpt>
<trkpt lon="-5.648331" lat="43.537506"><ele>5.0</ele></trkpt>
<trkpt lon="-5.648407" lat="43.537541"><ele>5.25</ele></trkpt>
<trkpt lon="-5.648780" lat="43.537702"><ele>6.0</ele></trkpt>
<trkpt lon="-5.648843" lat="43.537729"><ele>6.0</ele></trkpt>
<trkpt lon="-5.648917" lat="43.537760"><ele>5.75</ele></trkpt>
<trkpt lon="-5.649705" lat="43.538105"><ele>6.0</ele></trkpt>
<trkpt lon="-5.649781" lat="43.538139"><ele>6.0</ele></trkpt>
<trkpt lon="-5.649849" lat="43.538168"><ele>6.0</ele></trkpt>
<trkpt lon="-5.650772" lat="43.538570"><ele>6.0</ele></trkpt>
<trkpt lon="-5.650842" lat="43.538601"><ele>6.0</ele></trkpt>
<trkpt lon="-5.651214" lat="43.538761"><ele>6.0</ele></trkpt>
<trkpt lon="-5.651811" lat="43.539018"><ele>6.0</ele></trkpt>
<trkpt lon="-5.651918" lat="43.539065"><ele>6.0</ele></trkpt>
<trkpt lon="-5.652017" lat="43.539109"><ele>5.75</ele></trkpt>
<trkpt lon="-5.652826" lat="43.539472"><ele>5.0</ele></trkpt>
<trkpt lon="-5.652879" lat="43.539496"><ele>5.0</ele></trkpt>
<trkpt lon="-5.653862" lat="43.539929"><ele>5.75</ele></trkpt>
<trkpt lon="-5.653931" lat="43.539959"><ele>6.0</ele></trkpt>
<trkpt lon="-5.654862" lat="43.540367"><ele>5.5</ele></trkpt>
<trkpt lon="-5.654963" lat="43.540411"><ele>5.75</ele></trkpt>
<trkpt lon="-5.655007" lat="43.540430"><ele>6.0</ele></trkpt>
<trkpt lon="-5.655667" lat="43.540714"><ele>6.0</ele></trkpt>
<trkpt lon="-5.655741" lat="43.540751"><ele>6.0</ele></trkpt>
<trkpt lon="-5.655944" lat="43.540843"><ele>6.0</ele></trkpt>
<trkpt lon="-5.656002" lat="43.540796"><ele>6.0</ele></trkpt>
<trkpt lon="-5.656060" lat="43.540824"><ele>6.0</ele></trkpt>
<trkpt lon="-5.656060" lat="43.540837"><ele>6.0</ele></trkpt>
<trkpt lon="-5.656405" lat="43.540981"><ele>6.25</ele></trkpt>
<trkpt lon="-5.657063" lat="43.541187"><ele>6.25</ele></trkpt>
<trkpt lon="-5.657087" lat="43.541189"><ele>6.25</ele></trkpt>
<trkpt lon="-5.657104" lat="43.541173"><ele>6.25</ele></trkpt>
<trkpt lon="-5.657139" lat="43.541196"><ele>6.0</ele></trkpt>
<trkpt lon="-5.657184" lat="43.541222"><ele>6.0</ele></trkpt>
<trkpt lon="-5.657677" lat="43.540627"><ele>6.0</ele></trkpt>
<trkpt lon="-5.657705" lat="43.540616"><ele>6.0</ele></trkpt>
<trkpt lon="-5.657717" lat="43.540620"><ele>6.0</ele></trkpt>
<trkpt lon="-5.658285" lat="43.540871"><ele>6.75</ele></trkpt>
<trkpt lon="-5.658266" lat="43.540798"><ele>6.75</ele></trkpt>
<trkpt lon="-5.658358" lat="43.540777"><ele>7.0</ele></trkpt>
<trkpt lon="-5.658412" lat="43.540765"><ele>7.0</ele></trkpt>
<trkpt lon="-5.658873" lat="43.540662"><ele>6.25</ele></trkpt>
<trkpt lon="-5.658928" lat="43.540650"><ele>6.25</ele></trkpt>
<trkpt lon="-5.659692" lat="43.540479"><ele>7.5</ele></trkpt>
<trkpt lon="-5.659769" lat="43.540514"><ele>7.5</ele></trkpt>
<trkpt lon="-5.659955" lat="43.540598"><ele>7.0</ele></trkpt>
<trkpt lon="-5.660087" lat="43.540651"><ele>7.0</ele></trkpt>
<trkpt lon="-5.660291" lat="43.540743"><ele>7.0</ele></trkpt>
<trkpt lon="-5.660312" lat="43.540754"><ele>7.0</ele></trkpt>
<trkpt lon="-5.660322" lat="43.540773"><ele>7.0</ele></trkpt>
<trkpt lon="-5.660358" lat="43.540788"><ele>7.0</ele></trkpt>
<trkpt lon="-5.660481" lat="43.540839"><ele>7.5</ele></trkpt>
<trkpt lon="-5.660507" lat="43.540838"><ele>7.75</ele></trkpt>
<trkpt lon="-5.661075" lat="43.541093"><ele>7.0</ele></trkpt>
<trkpt lon="-5.661099" lat="43.541065"><ele>6.75</ele></trkpt>
<trkpt lon="-5.661217" lat="43.541122"><ele>7.0</ele></trkpt>
<trkpt lon="-5.661241" lat="43.541178"><ele>7.0</ele></trkpt>
<trkpt lon="-5.661298" lat="43.541166"><ele>7.0</ele></trkpt>
<trkpt lon="-5.661343" lat="43.541156"><ele>7.0</ele></trkpt>
<trkpt lon="-5.661438" lat="43.541135"><ele>7.0</ele></trkpt>
<trkpt lon="-5.661569" lat="43.541107"><ele>7.0</ele></trkpt>
<trkpt lon="-5.661726" lat="43.541073"><ele>7.0</ele></trkpt>
<trkpt lon="-5.662322" lat="43.540938"><ele>7.5</ele></trkpt>
<trkpt lon="-5.662384" lat="43.540924"><ele>7.5</ele></trkpt>
<trkpt lon="-5.662406" lat="43.540980"><ele>7.25</ele></trkpt>
<trkpt lon="-5.662449" lat="43.540975"><ele>7.25</ele></trkpt>
<trkpt lon="-5.662756" lat="43.540940"><ele>6.0</ele></trkpt>
<trkpt lon="-5.663132" lat="43.540896"><ele>5.0</ele></trkpt>
<trkpt lon="-5.663154" lat="43.540893"><ele>5.0</ele></trkpt>
<trkpt lon="-5.663183" lat="43.540890"><ele>5.0</ele></trkpt>
<trkpt lon="-5.663236" lat="43.540881"><ele>5.0</ele></trkpt>
<trkpt lon="-5.663251" lat="43.540878"><ele>5.0</ele></trkpt>
<trkpt lon="-5.663402" lat="43.540852"><ele>4.75</ele></trkpt>
<trkpt lon="-5.663619" lat="43.540811"><ele>4.0</ele></trkpt>
<trkpt lon="-5.663724" lat="43.540791"><ele>4.0</ele></trkpt>
<trkpt lon="-5.663758" lat="43.540871"><ele>4.0</ele></trkpt>
<trkpt lon="-5.664240" lat="43.540753"><ele>4.0</ele></trkpt>
<trkpt lon="-5.664253" lat="43.540801"><ele>4.0</ele></trkpt>
<trkpt lon="-5.663878" lat="43.540891"><ele>4.0</ele></trkpt>
<trkpt lon="-5.663859" lat="43.540920"><ele>4.0</ele></trkpt>
<trkpt lon="-5.663874" lat="43.541010"><ele>4.0</ele></trkpt>
  </trkseg></trk></gpx>
