<?xml version="1.0" encoding="UTF-8"?>
<gpx version="1.1" creator="compostel-brouter" xmlns="http://www.topografix.com/GPX/1/1">
  <metadata><name>ES-20-San-Vicente</name></metadata>
  <trk><name>ES-20-San-Vicente</name><trkseg>
<trkpt lon="-4.291044" lat="43.385993"><ele>22.5</ele></trkpt>
<trkpt lon="-4.291061" lat="43.386053"><ele>22.75</ele></trkpt>
<trkpt lon="-4.291194" lat="43.386035"><ele>22.25</ele></trkpt>
<trkpt lon="-4.291308" lat="43.386022"><ele>21.75</ele></trkpt>
<trkpt lon="-4.291377" lat="43.386004"><ele>21.5</ele></trkpt>
<trkpt lon="-4.291595" lat="43.385877"><ele>20.5</ele></trkpt>
<trkpt lon="-4.291663" lat="43.385844"><ele>20.0</ele></trkpt>
<trkpt lon="-4.292214" lat="43.385634"><ele>18.25</ele></trkpt>
<trkpt lon="-4.292246" lat="43.385619"><ele>18.0</ele></trkpt>
<trkpt lon="-4.292488" lat="43.385497"><ele>18.0</ele></trkpt>
<trkpt lon="-4.292665" lat="43.385438"><ele>17.25</ele></trkpt>
<trkpt lon="-4.293017" lat="43.385309"><ele>16.75</ele></trkpt>
<trkpt lon="-4.293338" lat="43.385228"><ele>17.0</ele></trkpt>
<trkpt lon="-4.293525" lat="43.385193"><ele>17.5</ele></trkpt>
<trkpt lon="-4.293667" lat="43.385165"><ele>18.0</ele></trkpt>
<trkpt lon="-4.293799" lat="43.385139"><ele>18.0</ele></trkpt>
<trkpt lon="-4.293858" lat="43.385022"><ele>18.0</ele></trkpt>
<trkpt lon="-4.293965" lat="43.384917"><ele>18.25</ele></trkpt>
<trkpt lon="-4.294028" lat="43.384786"><ele>19.0</ele></trkpt>
<trkpt lon="-4.294054" lat="43.384657"><ele>20.0</ele></trkpt>
<trkpt lon="-4.294030" lat="43.384599"><ele>20.5</ele></trkpt>
<trkpt lon="-4.293967" lat="43.384437"><ele>22.5</ele></trkpt>
<trkpt lon="-4.293960" lat="43.384377"><ele>23.25</ele></trkpt>
<trkpt lon="-4.293978" lat="43.384315"><ele>23.75</ele></trkpt>
<trkpt lon="-4.294030" lat="43.384215"><ele>24.75</ele></trkpt>
<trkpt lon="-4.294132" lat="43.384130"><ele>26.5</ele></trkpt>
<trkpt lon="-4.294243" lat="43.384081"><ele>27.75</ele></trkpt>
<trkpt lon="-4.294316" lat="43.384062"><ele>27.75</ele></trkpt>
<trkpt lon="-4.294413" lat="43.383994"><ele>29.5</ele></trkpt>
<trkpt lon="-4.294504" lat="43.383943"><ele>31.0</ele></trkpt>
<trkpt lon="-4.294921" lat="43.383896"><ele>33.25</ele></trkpt>
<trkpt lon="-4.294971" lat="43.383880"><ele>34.0</ele></trkpt>
<trkpt lon="-4.295014" lat="43.383844"><ele>34.25</ele></trkpt>
<trkpt lon="-4.295015" lat="43.383795"><ele>35.0</ele></trkpt>
<trkpt lon="-4.294977" lat="43.383758"><ele>35.75</ele></trkpt>
<trkpt lon="-4.294881" lat="43.383765"><ele>35.5</ele></trkpt>
<trkpt lon="-4.295009" lat="43.383621"><ele>37.75</ele></trkpt>
<trkpt lon="-4.295086" lat="43.383609"><ele>38.0</ele></trkpt>
<trkpt lon="-4.295220" lat="43.383639"><ele>37.0</ele></trkpt>
<trkpt lon="-4.296394" lat="43.383736"><ele>31.25</ele></trkpt>
<trkpt lon="-4.296888" lat="43.383767"><ele>29.75</ele></trkpt>
<trkpt lon="-4.297289" lat="43.383784"><ele>30.5</ele></trkpt>
<trkpt lon="-4.297556" lat="43.384157"><ele>29.0</ele></trkpt>
<trkpt lon="-4.297651" lat="43.384296"><ele>28.75</ele></trkpt>
<trkpt lon="-4.299941" lat="43.383824"><ele>38.5</ele></trkpt>
<trkpt lon="-4.301480" lat="43.383538"><ele>41.5</ele></trkpt>
<trkpt lon="-4.302135" lat="43.383378"><ele>40.0</ele></trkpt>
<trkpt lon="-4.302757" lat="43.383177"><ele>39.5</ele></trkpt>
<trkpt lon="-4.303363" lat="43.382999"><ele>38.0</ele></trkpt>
<trkpt lon="-4.303951" lat="43.382882"><ele>37.25</ele></trkpt>
<trkpt lon="-4.304314" lat="43.382814"><ele>34.5</ele></trkpt>
<trkpt lon="-4.304939" lat="43.382651"><ele>31.75</ele></trkpt>
<trkpt lon="-4.305508" lat="43.382398"><ele>29.75</ele></trkpt>
<trkpt lon="-4.307363" lat="43.381650"><ele>23.25</ele></trkpt>
<trkpt lon="-4.313250" lat="43.379259"><ele>12.5</ele></trkpt>
<trkpt lon="-4.313821" lat="43.379075"><ele>11.75</ele></trkpt>
<trkpt lon="-4.314076" lat="43.379003"><ele>11.75</ele></trkpt>
<trkpt lon="-4.314122" lat="43.378989"><ele>11.75</ele></trkpt>
<trkpt lon="-4.314433" lat="43.378907"><ele>12.0</ele></trkpt>
<trkpt lon="-4.314700" lat="43.378858"><ele>11.25</ele></trkpt>
<trkpt lon="-4.314954" lat="43.378825"><ele>10.75</ele></trkpt>
<trkpt lon="-4.315175" lat="43.378810"><ele>10.5</ele></trkpt>
<trkpt lon="-4.315447" lat="43.378806"><ele>10.0</ele></trkpt>
<trkpt lon="-4.315720" lat="43.378828"><ele>10.25</ele></trkpt>
<trkpt lon="-4.315986" lat="43.378869"><ele>10.0</ele></trkpt>
<trkpt lon="-4.316220" lat="43.378936"><ele>9.5</ele></trkpt>
<trkpt lon="-4.316506" lat="43.379061"><ele>8.0</ele></trkpt>
<trkpt lon="-4.316690" lat="43.379164"><ele>7.5</ele></trkpt>
<trkpt lon="-4.316931" lat="43.379331"><ele>5.75</ele></trkpt>
<trkpt lon="-4.317239" lat="43.379595"><ele>5.25</ele></trkpt>
<trkpt lon="-4.317200" lat="43.379618"><ele>5.5</ele></trkpt>
<trkpt lon="-4.317169" lat="43.379634"><ele>5.75</ele></trkpt>
<trkpt lon="-4.317339" lat="43.379834"><ele>5.5</ele></trkpt>
<trkpt lon="-4.317851" lat="43.380553"><ele>4.75</ele></trkpt>
<trkpt lon="-4.317975" lat="43.380745"><ele>4.5</ele></trkpt>
<trkpt lon="-4.318042" lat="43.380928"><ele>4.25</ele></trkpt>
<trkpt lon="-4.318073" lat="43.381040"><ele>4.25</ele></trkpt>
<trkpt lon="-4.318091" lat="43.381147"><ele>4.25</ele></trkpt>
<trkpt lon="-4.318126" lat="43.381255"><ele>3.75</ele></trkpt>
<trkpt lon="-4.318207" lat="43.381386"><ele>4.25</ele></trkpt>
<trkpt lon="-4.318401" lat="43.381588"><ele>5.5</ele></trkpt>
<trkpt lon="-4.318526" lat="43.381697"><ele>7.5</ele></trkpt>
<trkpt lon="-4.318586" lat="43.381761"><ele>9.0</ele></trkpt>
<trkpt lon="-4.318623" lat="43.381822"><ele>9.5</ele></trkpt>
<trkpt lon="-4.318636" lat="43.381864"><ele>9.75</ele></trkpt>
<trkpt lon="-4.318622" lat="43.381922"><ele>9.75</ele></trkpt>
<trkpt lon="-4.318542" lat="43.382111"><ele>10.5</ele></trkpt>
<trkpt lon="-4.318541" lat="43.382170"><ele>10.75</ele></trkpt>
<trkpt lon="-4.318578" lat="43.382242"><ele>11.25</ele></trkpt>
<trkpt lon="-4.318615" lat="43.382282"><ele>11.25</ele></trkpt>
<trkpt lon="-4.318717" lat="43.382338"><ele>10.75</ele></trkpt>
<trkpt lon="-4.318778" lat="43.382356"><ele>10.75</ele></trkpt>
<trkpt lon="-4.318860" lat="43.382369"><ele>10.75</ele></trkpt>
<trkpt lon="-4.318929" lat="43.382373"><ele>10.75</ele></trkpt>
<trkpt lon="-4.319004" lat="43.382369"><ele>10.5</ele></trkpt>
<trkpt lon="-4.319122" lat="43.382351"><ele>10.25</ele></trkpt>
<trkpt lon="-4.319274" lat="43.382317"><ele>10.0</ele></trkpt>
<trkpt lon="-4.319392" lat="43.382277"><ele>10.25</ele></trkpt>
<trkpt lon="-4.319507" lat="43.382224"><ele>10.5</ele></trkpt>
<trkpt lon="-4.319772" lat="43.382055"><ele>9.75</ele></trkpt>
<trkpt lon="-4.319917" lat="43.382036"><ele>9.25</ele></trkpt>
<trkpt lon="-4.320617" lat="43.382016"><ele>8.75</ele></trkpt>
<trkpt lon="-4.320930" lat="43.382027"><ele>8.25</ele></trkpt>
<trkpt lon="-4.321049" lat="43.382050"><ele>7.25</ele></trkpt>
<trkpt lon="-4.321155" lat="43.382088"><ele>6.75</ele></trkpt>
<trkpt lon="-4.321265" lat="43.382143"><ele>7.0</ele></trkpt>
<trkpt lon="-4.321375" lat="43.382229"><ele>7.5</ele></trkpt>
<trkpt lon="-4.321451" lat="43.382304"><ele>7.0</ele></trkpt>
<trkpt lon="-4.321493" lat="43.382377"><ele>6.5</ele></trkpt>
<trkpt lon="-4.321520" lat="43.382453"><ele>6.25</ele></trkpt>
<trkpt lon="-4.321536" lat="43.382536"><ele>6.25</ele></trkpt>
<trkpt lon="-4.321533" lat="43.382636"><ele>7.25</ele></trkpt>
<trkpt lon="-4.321475" lat="43.382780"><ele>8.25</ele></trkpt>
<trkpt lon="-4.321292" lat="43.383029"><ele>9.25</ele></trkpt>
<trkpt lon="-4.321216" lat="43.383148"><ele>10.0</ele></trkpt>
<trkpt lon="-4.321156" lat="43.383262"><ele>11.0</ele></trkpt>
<trkpt lon="-4.321123" lat="43.383373"><ele>12.0</ele></trkpt>
<trkpt lon="-4.321107" lat="43.383482"><ele>11.75</ele></trkpt>
<trkpt lon="-4.321116" lat="43.383687"><ele>11.5</ele></trkpt>
<trkpt lon="-4.321172" lat="43.383952"><ele>11.25</ele></trkpt>
<trkpt lon="-4.321217" lat="43.384125"><ele>11.5</ele></trkpt>
<trkpt lon="-4.321235" lat="43.384242"><ele>11.5</ele></trkpt>
<trkpt lon="-4.321229" lat="43.384507"><ele>10.75</ele></trkpt>
<trkpt lon="-4.321238" lat="43.384597"><ele>10.25</ele></trkpt>
<trkpt lon="-4.321252" lat="43.384639"><ele>10.0</ele></trkpt>
<trkpt lon="-4.321293" lat="43.384680"><ele>10.0</ele></trkpt>
<trkpt lon="-4.321354" lat="43.384713"><ele>9.75</ele></trkpt>
<trkpt lon="-4.321427" lat="43.384735"><ele>9.75</ele></trkpt>
<trkpt lon="-4.321502" lat="43.384747"><ele>9.5</ele></trkpt>
<trkpt lon="-4.321660" lat="43.384744"><ele>9.25</ele></trkpt>
<trkpt lon="-4.321908" lat="43.384708"><ele>9.0</ele></trkpt>
<trkpt lon="-4.322013" lat="43.384696"><ele>9.0</ele></trkpt>
<trkpt lon="-4.322395" lat="43.384667"><ele>7.0</ele></trkpt>
<trkpt lon="-4.323866" lat="43.384528"><ele>5.0</ele></trkpt>
<trkpt lon="-4.324736" lat="43.384446"><ele>5.75</ele></trkpt>
<trkpt lon="-4.325793" lat="43.384358"><ele>7.0</ele></trkpt>
<trkpt lon="-4.327118" lat="43.384236"><ele>6.0</ele></trkpt>
<trkpt lon="-4.328413" lat="43.384124"><ele>5.25</ele></trkpt>
<trkpt lon="-4.328655" lat="43.384115"><ele>4.0</ele></trkpt>
<trkpt lon="-4.328798" lat="43.384123"><ele>4.0</ele></trkpt>
<trkpt lon="-4.329006" lat="43.384167"><ele>4.25</ele></trkpt>
<trkpt lon="-4.329120" lat="43.384204"><ele>4.5</ele></trkpt>
<trkpt lon="-4.329237" lat="43.384251"><ele>4.5</ele></trkpt>
<trkpt lon="-4.329411" lat="43.384326"><ele>4.75</ele></trkpt>
<trkpt lon="-4.329961" lat="43.384583"><ele>5.5</ele></trkpt>
<trkpt lon="-4.330104" lat="43.384655"><ele>5.5</ele></trkpt>
<trkpt lon="-4.330143" lat="43.384682"><ele>5.75</ele></trkpt>
<trkpt lon="-4.330162" lat="43.384742"><ele>5.75</ele></trkpt>
<trkpt lon="-4.330162" lat="43.384806"><ele>6.25</ele></trkpt>
<trkpt lon="-4.330135" lat="43.384861"><ele>6.25</ele></trkpt>
<trkpt lon="-4.330183" lat="43.384870"><ele>7.5</ele></trkpt>
<trkpt lon="-4.330086" lat="43.385125"><ele>8.25</ele></trkpt>
<trkpt lon="-4.330054" lat="43.385256"><ele>9.0</ele></trkpt>
<trkpt lon="-4.330002" lat="43.385468"><ele>10.25</ele></trkpt>
<trkpt lon="-4.329990" lat="43.385691"><ele>11.25</ele></trkpt>
<trkpt lon="-4.330023" lat="43.385862"><ele>12.0</ele></trkpt>
<trkpt lon="-4.330155" lat="43.386209"><ele>10.75</ele></trkpt>
<trkpt lon="-4.330200" lat="43.386294"><ele>10.25</ele></trkpt>
<trkpt lon="-4.330234" lat="43.386363"><ele>10.0</ele></trkpt>
<trkpt lon="-4.330248" lat="43.386424"><ele>9.5</ele></trkpt>
<trkpt lon="-4.330288" lat="43.386418"><ele>9.75</ele></trkpt>
<trkpt lon="-4.330364" lat="43.386680"><ele>8.0</ele></trkpt>
<trkpt lon="-4.330348" lat="43.386779"><ele>8.0</ele></trkpt>
<trkpt lon="-4.330322" lat="43.386848"><ele>8.0</ele></trkpt>
<trkpt lon="-4.330237" lat="43.386945"><ele>7.75</ele></trkpt>
<trkpt lon="-4.330014" lat="43.387119"><ele>8.25</ele></trkpt>
<trkpt lon="-4.329821" lat="43.387232"><ele>8.25</ele></trkpt>
<trkpt lon="-4.329668" lat="43.387291"><ele>8.25</ele></trkpt>
<trkpt lon="-4.329501" lat="43.387340"><ele>8.5</ele></trkpt>
<trkpt lon="-4.328825" lat="43.387477"><ele>7.75</ele></trkpt>
<trkpt lon="-4.328582" lat="43.387547"><ele>6.5</ele></trkpt>
<trkpt lon="-4.328358" lat="43.387667"><ele>6.0</ele></trkpt>
<trkpt lon="-4.328218" lat="43.387771"><ele>5.75</ele></trkpt>
<trkpt lon="-4.328179" lat="43.387813"><ele>6.0</ele></trkpt>
<trkpt lon="-4.328136" lat="43.387859"><ele>6.0</ele></trkpt>
<trkpt lon="-4.328071" lat="43.387978"><ele>6.5</ele></trkpt>
<trkpt lon="-4.328059" lat="43.388081"><ele>6.75</ele></trkpt>
<trkpt lon="-4.328073" lat="43.388181"><ele>6.0</ele></trkpt>
<trkpt lon="-4.328139" lat="43.388293"><ele>5.0</ele></trkpt>
<trkpt lon="-4.328276" lat="43.388404"><ele>5.0</ele></trkpt>
<trkpt lon="-4.328451" lat="43.388487"><ele>5.0</ele></trkpt>
<trkpt lon="-4.328664" lat="43.388589"><ele>5.0</ele></trkpt>
<trkpt lon="-4.329064" lat="43.388737"><ele>4.75</ele></trkpt>
<trkpt lon="-4.329061" lat="43.388769"><ele>4.75</ele></trkpt>
<trkpt lon="-4.329095" lat="43.388814"><ele>4.75</ele></trkpt>
<trkpt lon="-4.329132" lat="43.388857"><ele>4.75</ele></trkpt>
<trkpt lon="-4.329334" lat="43.388974"><ele>4.75</ele></trkpt>
<trkpt lon="-4.329479" lat="43.389031"><ele>4.5</ele></trkpt>
<trkpt lon="-4.329683" lat="43.389097"><ele>4.75</ele></trkpt>
<trkpt lon="-4.330321" lat="43.389267"><ele>4.75</ele></trkpt>
<trkpt lon="-4.330540" lat="43.389365"><ele>4.25</ele></trkpt>
<trkpt lon="-4.330575" lat="43.389371"><ele>4.25</ele></trkpt>
<trkpt lon="-4.330628" lat="43.389380"><ele>4.25</ele></trkpt>
<trkpt lon="-4.330738" lat="43.389368"><ele>4.75</ele></trkpt>
<trkpt lon="-4.330766" lat="43.389456"><ele>4.75</ele></trkpt>
<trkpt lon="-4.330849" lat="43.389446"><ele>5.0</ele></trkpt>
<trkpt lon="-4.331049" lat="43.389506"><ele>5.5</ele></trkpt>
<trkpt lon="-4.332102" lat="43.389922"><ele>11.0</ele></trkpt>
<trkpt lon="-4.332552" lat="43.390086"><ele>13.25</ele></trkpt>
<trkpt lon="-4.334672" lat="43.390856"><ele>24.75</ele></trkpt>
<trkpt lon="-4.334836" lat="43.390917"><ele>25.5</ele></trkpt>
<trkpt lon="-4.335743" lat="43.391302"><ele>27.5</ele></trkpt>
<trkpt lon="-4.335965" lat="43.391397"><ele>28.25</ele></trkpt>
<trkpt lon="-4.338077" lat="43.392299"><ele>34.0</ele></trkpt>
<trkpt lon="-4.338844" lat="43.392636"><ele>38.25</ele></trkpt>
<trkpt lon="-4.338979" lat="43.392682"><ele>38.75</ele></trkpt>
<trkpt lon="-4.339845" lat="43.392880"><ele>41.25</ele></trkpt>
<trkpt lon="-4.340146" lat="43.392967"><ele>43.0</ele></trkpt>
<trkpt lon="-4.340389" lat="43.393057"><ele>45.25</ele></trkpt>
<trkpt lon="-4.341363" lat="43.393526"><ele>48.5</ele></trkpt>
<trkpt lon="-4.341454" lat="43.393578"><ele>49.5</ele></trkpt>
<trkpt lon="-4.341545" lat="43.393649"><ele>51.0</ele></trkpt>
<trkpt lon="-4.341607" lat="43.393718"><ele>52.0</ele></trkpt>
<trkpt lon="-4.341655" lat="43.393785"><ele>52.5</ele></trkpt>
<trkpt lon="-4.341707" lat="43.393904"><ele>53.0</ele></trkpt>
<trkpt lon="-4.341732" lat="43.393990"><ele>54.5</ele></trkpt>
<trkpt lon="-4.341768" lat="43.394319"><ele>57.5</ele></trkpt>
<trkpt lon="-4.341808" lat="43.394428"><ele>58.5</ele></trkpt>
<trkpt lon="-4.341846" lat="43.394501"><ele>58.75</ele></trkpt>
<trkpt lon="-4.341894" lat="43.394562"><ele>59.0</ele></trkpt>
<trkpt lon="-4.341974" lat="43.394644"><ele>59.75</ele></trkpt>
<trkpt lon="-4.342082" lat="43.394720"><ele>60.5</ele></trkpt>
<trkpt lon="-4.342233" lat="43.394791"><ele>61.0</ele></trkpt>
<trkpt lon="-4.342401" lat="43.394843"><ele>61.25</ele></trkpt>
<trkpt lon="-4.342570" lat="43.394869"><ele>61.75</ele></trkpt>
<trkpt lon="-4.343287" lat="43.394853"><ele>65.75</ele></trkpt>
<trkpt lon="-4.344627" lat="43.394799"><ele>76.25</ele></trkpt>
<trkpt lon="-4.345036" lat="43.394788"><ele>77.75</ele></trkpt>
<trkpt lon="-4.345359" lat="43.394788"><ele>79.0</ele></trkpt>
<trkpt lon="-4.347299" lat="43.394828"><ele>85.5</ele></trkpt>
<trkpt lon="-4.348019" lat="43.394822"><ele>87.75</ele></trkpt>
<trkpt lon="-4.348413" lat="43.394846"><ele>88.25</ele></trkpt>
<trkpt lon="-4.349159" lat="43.394941"><ele>90.25</ele></trkpt>
<trkpt lon="-4.349695" lat="43.395017"><ele>90.75</ele></trkpt>
<trkpt lon="-4.349900" lat="43.395058"><ele>90.0</ele></trkpt>
<trkpt lon="-4.350052" lat="43.395099"><ele>89.75</ele></trkpt>
<trkpt lon="-4.350429" lat="43.395219"><ele>89.5</ele></trkpt>
<trkpt lon="-4.350548" lat="43.395242"><ele>89.5</ele></trkpt>
<trkpt lon="-4.350600" lat="43.395246"><ele>89.5</ele></trkpt>
<trkpt lon="-4.351542" lat="43.395336"><ele>84.75</ele></trkpt>
<trkpt lon="-4.351741" lat="43.395345"><ele>83.5</ele></trkpt>
<trkpt lon="-4.351977" lat="43.395345"><ele>81.75</ele></trkpt>
<trkpt lon="-4.352220" lat="43.395327"><ele>78.5</ele></trkpt>
<trkpt lon="-4.352429" lat="43.395302"><ele>77.25</ele></trkpt>
<trkpt lon="-4.352525" lat="43.395285"><ele>76.75</ele></trkpt>
<trkpt lon="-4.352874" lat="43.395202"><ele>73.0</ele></trkpt>
<trkpt lon="-4.353104" lat="43.395122"><ele>72.5</ele></trkpt>
<trkpt lon="-4.353314" lat="43.395041"><ele>72.75</ele></trkpt>
<trkpt lon="-4.354904" lat="43.394334"><ele>66.0</ele></trkpt>
<trkpt lon="-4.355129" lat="43.394228"><ele>64.75</ele></trkpt>
<trkpt lon="-4.355326" lat="43.394110"><ele>63.5</ele></trkpt>
<trkpt lon="-4.355443" lat="43.394026"><ele>62.75</ele></trkpt>
<trkpt lon="-4.355588" lat="43.393882"><ele>61.0</ele></trkpt>
<trkpt lon="-4.355707" lat="43.393732"><ele>60.0</ele></trkpt>
<trkpt lon="-4.355892" lat="43.393521"><ele>58.75</ele></trkpt>
<trkpt lon="-4.355956" lat="43.393463"><ele>58.25</ele></trkpt>
<trkpt lon="-4.356089" lat="43.393367"><ele>58.0</ele></trkpt>
<trkpt lon="-4.356573" lat="43.393079"><ele>57.5</ele></trkpt>
<trkpt lon="-4.356737" lat="43.393003"><ele>57.5</ele></trkpt>
<trkpt lon="-4.356808" lat="43.392980"><ele>57.5</ele></trkpt>
<trkpt lon="-4.356906" lat="43.392969"><ele>57.75</ele></trkpt>
<trkpt lon="-4.357773" lat="43.392947"><ele>58.0</ele></trkpt>
<trkpt lon="-4.357993" lat="43.392961"><ele>58.0</ele></trkpt>
<trkpt lon="-4.358186" lat="43.392998"><ele>57.0</ele></trkpt>
<trkpt lon="-4.358659" lat="43.393105"><ele>52.0</ele></trkpt>
<trkpt lon="-4.358780" lat="43.393137"><ele>51.0</ele></trkpt>
<trkpt lon="-4.358961" lat="43.393197"><ele>49.25</ele></trkpt>
<trkpt lon="-4.359083" lat="43.393248"><ele>48.25</ele></trkpt>
<trkpt lon="-4.359296" lat="43.393355"><ele>46.5</ele></trkpt>
<trkpt lon="-4.359707" lat="43.393547"><ele>43.5</ele></trkpt>
<trkpt lon="-4.359881" lat="43.393605"><ele>43.0</ele></trkpt>
<trkpt lon="-4.360034" lat="43.393645"><ele>42.5</ele></trkpt>
<trkpt lon="-4.360236" lat="43.393684"><ele>40.75</ele></trkpt>
<trkpt lon="-4.360431" lat="43.393701"><ele>39.75</ele></trkpt>
<trkpt lon="-4.361389" lat="43.393751"><ele>34.75</ele></trkpt>
<trkpt lon="-4.361723" lat="43.393756"><ele>33.5</ele></trkpt>
<trkpt lon="-4.361887" lat="43.393744"><ele>32.75</ele></trkpt>
<trkpt lon="-4.363743" lat="43.393489"><ele>24.25</ele></trkpt>
<trkpt lon="-4.364922" lat="43.393317"><ele>20.25</ele></trkpt>
<trkpt lon="-4.365229" lat="43.393259"><ele>18.0</ele></trkpt>
<trkpt lon="-4.365639" lat="43.393155"><ele>16.5</ele></trkpt>
<trkpt lon="-4.366059" lat="43.393032"><ele>15.5</ele></trkpt>
<trkpt lon="-4.366208" lat="43.392966"><ele>14.0</ele></trkpt>
<trkpt lon="-4.366318" lat="43.392898"><ele>13.0</ele></trkpt>
<trkpt lon="-4.366436" lat="43.392805"><ele>11.75</ele></trkpt>
<trkpt lon="-4.366529" lat="43.392709"><ele>10.0</ele></trkpt>
<trkpt lon="-4.366581" lat="43.392634"><ele>9.5</ele></trkpt>
<trkpt lon="-4.366607" lat="43.392578"><ele>9.25</ele></trkpt>
<trkpt lon="-4.366711" lat="43.392275"><ele>7.75</ele></trkpt>
<trkpt lon="-4.366727" lat="43.392229"><ele>7.5</ele></trkpt>
<trkpt lon="-4.366939" lat="43.391803"><ele>7.25</ele></trkpt>
<trkpt lon="-4.366980" lat="43.391742"><ele>7.5</ele></trkpt>
<trkpt lon="-4.367058" lat="43.391666"><ele>8.0</ele></trkpt>
<trkpt lon="-4.367119" lat="43.391627"><ele>8.25</ele></trkpt>
<trkpt lon="-4.367201" lat="43.391594"><ele>9.0</ele></trkpt>
<trkpt lon="-4.367272" lat="43.391575"><ele>9.75</ele></trkpt>
<trkpt lon="-4.367359" lat="43.391565"><ele>10.75</ele></trkpt>
<trkpt lon="-4.367433" lat="43.391565"><ele>11.5</ele></trkpt>
<trkpt lon="-4.367532" lat="43.391577"><ele>12.5</ele></trkpt>
<trkpt lon="-4.367617" lat="43.391591"><ele>13.0</ele></trkpt>
<trkpt lon="-4.368163" lat="43.391718"><ele>16.5</ele></trkpt>
<trkpt lon="-4.368363" lat="43.391750"><ele>18.5</ele></trkpt>
<trkpt lon="-4.368483" lat="43.391752"><ele>19.0</ele></trkpt>
<trkpt lon="-4.368592" lat="43.391733"><ele>19.75</ele></trkpt>
<trkpt lon="-4.368715" lat="43.391694"><ele>20.75</ele></trkpt>
<trkpt lon="-4.368791" lat="43.391655"><ele>21.75</ele></trkpt>
<trkpt lon="-4.369431" lat="43.391129"><ele>29.5</ele></trkpt>
<trkpt lon="-4.369498" lat="43.391067"><ele>30.25</ele></trkpt>
<trkpt lon="-4.369547" lat="43.391001"><ele>31.0</ele></trkpt>
<trkpt lon="-4.369584" lat="43.390928"><ele>31.75</ele></trkpt>
<trkpt lon="-4.369609" lat="43.390843"><ele>32.5</ele></trkpt>
<trkpt lon="-4.369612" lat="43.390757"><ele>32.0</ele></trkpt>
<trkpt lon="-4.369592" lat="43.390676"><ele>31.5</ele></trkpt>
<trkpt lon="-4.369542" lat="43.390575"><ele>30.75</ele></trkpt>
<trkpt lon="-4.369440" lat="43.390411"><ele>29.5</ele></trkpt>
<trkpt lon="-4.369417" lat="43.390328"><ele>29.0</ele></trkpt>
<trkpt lon="-4.369431" lat="43.390264"><ele>28.25</ele></trkpt>
<trkpt lon="-4.369464" lat="43.390191"><ele>28.0</ele></trkpt>
<trkpt lon="-4.369508" lat="43.390141"><ele>27.75</ele></trkpt>
<trkpt lon="-4.369578" lat="43.390096"><ele>27.25</ele></trkpt>
<trkpt lon="-4.369648" lat="43.390068"><ele>26.75</ele></trkpt>
<trkpt lon="-4.370305" lat="43.389917"><ele>21.25</ele></trkpt>
<trkpt lon="-4.370465" lat="43.389857"><ele>20.25</ele></trkpt>
<trkpt lon="-4.370597" lat="43.389782"><ele>19.25</ele></trkpt>
<trkpt lon="-4.370717" lat="43.389689"><ele>18.0</ele></trkpt>
<trkpt lon="-4.370871" lat="43.389557"><ele>15.75</ele></trkpt>
<trkpt lon="-4.371279" lat="43.389133"><ele>8.75</ele></trkpt>
<trkpt lon="-4.371383" lat="43.389069"><ele>7.75</ele></trkpt>
<trkpt lon="-4.371465" lat="43.389040"><ele>7.0</ele></trkpt>
<trkpt lon="-4.371574" lat="43.389025"><ele>6.25</ele></trkpt>
<trkpt lon="-4.372114" lat="43.388999"><ele>5.0</ele></trkpt>
<trkpt lon="-4.372334" lat="43.388995"><ele>5.0</ele></trkpt>
<trkpt lon="-4.372456" lat="43.388999"><ele>5.0</ele></trkpt>
<trkpt lon="-4.372582" lat="43.389018"><ele>5.0</ele></trkpt>
<trkpt lon="-4.372677" lat="43.389050"><ele>5.25</ele></trkpt>
<trkpt lon="-4.372747" lat="43.389095"><ele>5.0</ele></trkpt>
<trkpt lon="-4.372817" lat="43.389169"><ele>5.0</ele></trkpt>
<trkpt lon="-4.373000" lat="43.389418"><ele>5.0</ele></trkpt>
<trkpt lon="-4.373088" lat="43.389525"><ele>4.75</ele></trkpt>
<trkpt lon="-4.373121" lat="43.389554"><ele>4.75</ele></trkpt>
<trkpt lon="-4.373210" lat="43.389633"><ele>5.0</ele></trkpt>
<trkpt lon="-4.373271" lat="43.389677"><ele>5.5</ele></trkpt>
<trkpt lon="-4.373394" lat="43.389743"><ele>5.75</ele></trkpt>
<trkpt lon="-4.373615" lat="43.389826"><ele>5.25</ele></trkpt>
<trkpt lon="-4.374805" lat="43.390190"><ele>11.0</ele></trkpt>
<trkpt lon="-4.375006" lat="43.390242"><ele>14.0</ele></trkpt>
<trkpt lon="-4.375188" lat="43.390273"><ele>15.25</ele></trkpt>
<trkpt lon="-4.375308" lat="43.390283"><ele>15.75</ele></trkpt>
<trkpt lon="-4.375516" lat="43.390294"><ele>16.5</ele></trkpt>
<trkpt lon="-4.375877" lat="43.390267"><ele>18.0</ele></trkpt>
<trkpt lon="-4.376055" lat="43.390231"><ele>18.75</ele></trkpt>
<trkpt lon="-4.376250" lat="43.390181"><ele>19.25</ele></trkpt>
<trkpt lon="-4.377036" lat="43.389906"><ele>22.0</ele></trkpt>
<trkpt lon="-4.377988" lat="43.389572"><ele>27.25</ele></trkpt>
<trkpt lon="-4.378889" lat="43.389274"><ele>33.5</ele></trkpt>
<trkpt lon="-4.378935" lat="43.389319"><ele>33.5</ele></trkpt>
<trkpt lon="-4.378997" lat="43.389338"><ele>33.5</ele></trkpt>
<trkpt lon="-4.379078" lat="43.389340"><ele>33.75</ele></trkpt>
<trkpt lon="-4.379242" lat="43.389328"><ele>34.25</ele></trkpt>
<trkpt lon="-4.379313" lat="43.389325"><ele>34.25</ele></trkpt>
<trkpt lon="-4.379472" lat="43.389323"><ele>34.25</ele></trkpt>
<trkpt lon="-4.379674" lat="43.389342"><ele>34.75</ele></trkpt>
<trkpt lon="-4.379762" lat="43.389340"><ele>35.0</ele></trkpt>
<trkpt lon="-4.379948" lat="43.389323"><ele>35.5</ele></trkpt>
<trkpt lon="-4.380106" lat="43.389294"><ele>35.75</ele></trkpt>
<trkpt lon="-4.380163" lat="43.389278"><ele>36.0</ele></trkpt>
<trkpt lon="-4.380243" lat="43.389329"><ele>35.25</ele></trkpt>
<trkpt lon="-4.380496" lat="43.389467"><ele>30.25</ele></trkpt>
<trkpt lon="-4.380571" lat="43.389503"><ele>28.75</ele></trkpt>
<trkpt lon="-4.380646" lat="43.389521"><ele>27.5</ele></trkpt>
<trkpt lon="-4.380744" lat="43.389521"><ele>25.75</ele></trkpt>
<trkpt lon="-4.381150" lat="43.389476"><ele>20.5</ele></trkpt>
<trkpt lon="-4.381342" lat="43.389452"><ele>17.5</ele></trkpt>
<trkpt lon="-4.381405" lat="43.389445"><ele>16.5</ele></trkpt>
<trkpt lon="-4.381630" lat="43.389413"><ele>12.75</ele></trkpt>
<trkpt lon="-4.382113" lat="43.389322"><ele>6.0</ele></trkpt>
<trkpt lon="-4.382616" lat="43.389189"><ele>5.0</ele></trkpt>
<trkpt lon="-4.382995" lat="43.389097"><ele>4.75</ele></trkpt>
<trkpt lon="-4.383126" lat="43.389062"><ele>4.5</ele></trkpt>
<trkpt lon="-4.383868" lat="43.388820"><ele>4.75</ele></trkpt>
<trkpt lon="-4.383694" lat="43.388520"><ele>4.5</ele></trkpt>
<trkpt lon="-4.383557" lat="43.388285"><ele>5.5</ele></trkpt>
<trkpt lon="-4.383550" lat="43.388228"><ele>6.0</ele></trkpt>
<trkpt lon="-4.383576" lat="43.388187"><ele>6.25</ele></trkpt>
<trkpt lon="-4.384262" lat="43.387661"><ele>5.75</ele></trkpt>
<trkpt lon="-4.384590" lat="43.387445"><ele>7.0</ele></trkpt>
<trkpt lon="-4.384886" lat="43.387251"><ele>7.75</ele></trkpt>
<trkpt lon="-4.384953" lat="43.387199"><ele>6.75</ele></trkpt>
<trkpt lon="-4.384998" lat="43.386999"><ele>6.75</ele></trkpt>
<trkpt lon="-4.385017" lat="43.386967"><ele>6.75</ele></trkpt>
<trkpt lon="-4.385449" lat="43.386794"><ele>8.75</ele></trkpt>
<trkpt lon="-4.385950" lat="43.386592"><ele>7.5</ele></trkpt>
<trkpt lon="-4.385962" lat="43.386456"><ele>8.75</ele></trkpt>
<trkpt lon="-4.385987" lat="43.386356"><ele>9.5</ele></trkpt>
<trkpt lon="-4.386031" lat="43.386281"><ele>9.5</ele></trkpt>
<trkpt lon="-4.386114" lat="43.386208"><ele>8.5</ele></trkpt>
<trkpt lon="-4.386727" lat="43.385758"><ele>10.0</ele></trkpt>
<trkpt lon="-4.387181" lat="43.385397"><ele>11.0</ele></trkpt>
<trkpt lon="-4.387222" lat="43.385366"><ele>11.25</ele></trkpt>
<trkpt lon="-4.387367" lat="43.385283"><ele>12.25</ele></trkpt>
<trkpt lon="-4.387550" lat="43.385193"><ele>11.75</ele></trkpt>
<trkpt lon="-4.387722" lat="43.385117"><ele>10.5</ele></trkpt>
<trkpt lon="-4.387890" lat="43.385027"><ele>11.25</ele></trkpt>
<trkpt lon="-4.388111" lat="43.384877"><ele>10.25</ele></trkpt>
<trkpt lon="-4.388426" lat="43.384655"><ele>11.0</ele></trkpt>
<trkpt lon="-4.388502" lat="43.384593"><ele>10.75</ele></trkpt>
<trkpt lon="-4.388531" lat="43.384555"><ele>10.75</ele></trkpt>
<trkpt lon="-4.388589" lat="43.384411"><ele>10.5</ele></trkpt>
<trkpt lon="-4.388687" lat="43.383815"><ele>9.25</ele></trkpt>
<trkpt lon="-4.388773" lat="43.383526"><ele>9.0</ele></trkpt>
<trkpt lon="-4.388816" lat="43.383410"><ele>8.5</ele></trkpt>
<trkpt lon="-4.388879" lat="43.383285"><ele>7.75</ele></trkpt>
<trkpt lon="-4.388918" lat="43.383232"><ele>7.75</ele></trkpt>
<trkpt lon="-4.389037" lat="43.383120"><ele>7.25</ele></trkpt>
<trkpt lon="-4.389087" lat="43.383096"><ele>6.75</ele></trkpt>
<trkpt lon="-4.389182" lat="43.383060"><ele>5.75</ele></trkpt>
<trkpt lon="-4.389191" lat="43.383073"><ele>5.5</ele></trkpt>
<trkpt lon="-4.389197" lat="43.383081"><ele>5.25</ele></trkpt>
<trkpt lon="-4.389587" lat="43.382962"><ele>3.75</ele></trkpt>
<trkpt lon="-4.389737" lat="43.382901"><ele>4.0</ele></trkpt>
<trkpt lon="-4.389885" lat="43.382818"><ele>3.75</ele></trkpt>
<trkpt lon="-4.390003" lat="43.382737"><ele>3.5</ele></trkpt>
<trkpt lon="-4.390103" lat="43.382647"><ele>3.25</ele></trkpt>
<trkpt lon="-4.390248" lat="43.382498"><ele>3.0</ele></trkpt>
<trkpt lon="-4.390347" lat="43.382418"><ele>3.0</ele></trkpt>
<trkpt lon="-4.390446" lat="43.382360"><ele>3.0</ele></trkpt>
<trkpt lon="-4.390848" lat="43.382228"><ele>3.0</ele></trkpt>
<trkpt lon="-4.391131" lat="43.382155"><ele>3.0</ele></trkpt>
<trkpt lon="-4.391357" lat="43.382103"><ele>3.0</ele></trkpt>
<trkpt lon="-4.394812" lat="43.381631"><ele>3.0</ele></trkpt>
<trkpt lon="-4.395563" lat="43.381535"><ele>3.0</ele></trkpt>
<trkpt lon="-4.396707" lat="43.381403"><ele>3.0</ele></trkpt>
<trkpt lon="-4.396773" lat="43.381407"><ele>3.0</ele></trkpt>
<trkpt lon="-4.396836" lat="43.381418"><ele>3.75</ele></trkpt>
<trkpt lon="-4.396929" lat="43.381446"><ele>4.5</ele></trkpt>
<trkpt lon="-4.397002" lat="43.381489"><ele>4.5</ele></trkpt>
<trkpt lon="-4.397064" lat="43.381545"><ele>4.25</ele></trkpt>
<trkpt lon="-4.397228" lat="43.381723"><ele>4.0</ele></trkpt>
<trkpt lon="-4.397224" lat="43.381759"><ele>4.0</ele></trkpt>
<trkpt lon="-4.397195" lat="43.381780"><ele>4.0</ele></trkpt>
<trkpt lon="-4.397139" lat="43.381814"><ele>4.0</ele></trkpt>
<trkpt lon="-4.397007" lat="43.381895"><ele>3.75</ele></trkpt>
<trkpt lon="-4.396868" lat="43.381984"><ele>3.75</ele></trkpt>
<trkpt lon="-4.396822" lat="43.382032"><ele>3.75</ele></trkpt>
<trkpt lon="-4.396801" lat="43.382078"><ele>3.75</ele></trkpt>
<trkpt lon="-4.396798" lat="43.382103"><ele>3.75</ele></trkpt>
<trkpt lon="-4.396799" lat="43.382153"><ele>3.5</ele></trkpt>
<trkpt lon="-4.396811" lat="43.382192"><ele>3.5</ele></trkpt>
<trkpt lon="-4.398715" lat="43.384439"><ele>2.25</ele></trkpt>
<trkpt lon="-4.398728" lat="43.384433"><ele>2.25</ele></trkpt>
<trkpt lon="-4.398832" lat="43.384553"><ele>2.25</ele></trkpt>
<trkpt lon="-4.398592" lat="43.384699"><ele>2.25</ele></trkpt>
<trkpt lon="-4.398246" lat="43.384904"><ele>2.25</ele></trkpt>
<trkpt lon="-4.398258" lat="43.384914"><ele>2.25</ele></trkpt>
<trkpt lon="-4.398043" lat="43.385041"><ele>2.5</ele></trkpt>
<trkpt lon="-4.397938" lat="43.385120"><ele>2.5</ele></trkpt>
<trkpt lon="-4.397918" lat="43.385144"><ele>2.5</ele></trkpt>
<trkpt lon="-4.397806" lat="43.385145"><ele>2.0</ele></trkpt>
<trkpt lon="-4.397761" lat="43.385145"></trkpt>
<trkpt lon="-4.397769" lat="43.385290"></trkpt>
<trkpt lon="-4.397756" lat="43.385291"></trkpt>
<trkpt lon="-4.397749" lat="43.385185"></trkpt>
<trkpt lon="-4.397331" lat="43.385194"></trkpt>
  </trkseg></trk></gpx>
