<?xml version="1.0" encoding="UTF-8"?>
<gpx version="1.1" creator="compostel-brouter" xmlns="http://www.topografix.com/GPX/1/1">
  <metadata><name>ES-24-Ribadesella</name></metadata>
  <trk><name>ES-24-Ribadesella</name><trkseg>
<trkpt lon="-4.930710" lat="43.422731"><ele>122.0</ele></trkpt>
<trkpt lon="-4.930664" lat="43.422667"><ele>122.75</ele></trkpt>
<trkpt lon="-4.930480" lat="43.422318"><ele>121.5</ele></trkpt>
<trkpt lon="-4.930547" lat="43.421906"><ele>121.75</ele></trkpt>
<trkpt lon="-4.930621" lat="43.421709"><ele>124.25</ele></trkpt>
<trkpt lon="-4.930695" lat="43.421606"><ele>125.75</ele></trkpt>
<trkpt lon="-4.930917" lat="43.421463"><ele>126.75</ele></trkpt>
<trkpt lon="-4.931077" lat="43.421342"><ele>127.75</ele></trkpt>
<trkpt lon="-4.931065" lat="43.421190"><ele>127.75</ele></trkpt>
<trkpt lon="-4.931009" lat="43.420984"><ele>129.75</ele></trkpt>
<trkpt lon="-4.930923" lat="43.420756"><ele>130.25</ele></trkpt>
<trkpt lon="-4.930899" lat="43.420505"><ele>132.25</ele></trkpt>
<trkpt lon="-4.930942" lat="43.420214"><ele>137.75</ele></trkpt>
<trkpt lon="-4.930788" lat="43.419910"><ele>135.0</ele></trkpt>
<trkpt lon="-4.930627" lat="43.419543"><ele>138.5</ele></trkpt>
<trkpt lon="-4.930449" lat="43.419180"><ele>135.25</ele></trkpt>
<trkpt lon="-4.930301" lat="43.418804"><ele>137.5</ele></trkpt>
<trkpt lon="-4.930270" lat="43.418710"><ele>138.5</ele></trkpt>
<trkpt lon="-4.930344" lat="43.418545"><ele>142.0</ele></trkpt>
<trkpt lon="-4.930165" lat="43.418482"><ele>140.5</ele></trkpt>
<trkpt lon="-4.930005" lat="43.418030"><ele>144.25</ele></trkpt>
<trkpt lon="-4.929925" lat="43.417596"><ele>144.25</ele></trkpt>
<trkpt lon="-4.929857" lat="43.417399"><ele>141.25</ele></trkpt>
<trkpt lon="-4.929814" lat="43.417305"><ele>139.75</ele></trkpt>
<trkpt lon="-4.929833" lat="43.417184"><ele>138.75</ele></trkpt>
<trkpt lon="-4.929937" lat="43.417063"><ele>139.0</ele></trkpt>
<trkpt lon="-4.930436" lat="43.416629"><ele>140.25</ele></trkpt>
<trkpt lon="-4.930621" lat="43.416530"><ele>141.25</ele></trkpt>
<trkpt lon="-4.930960" lat="43.416477"><ele>144.0</ele></trkpt>
<trkpt lon="-4.931016" lat="43.416298"><ele>141.75</ele></trkpt>
<trkpt lon="-4.931120" lat="43.416181"><ele>142.25</ele></trkpt>
<trkpt lon="-4.931385" lat="43.416074"><ele>144.25</ele></trkpt>
<trkpt lon="-4.931607" lat="43.415855"><ele>145.25</ele></trkpt>
<trkpt lon="-4.931755" lat="43.415698"><ele>148.0</ele></trkpt>
<trkpt lon="-4.932291" lat="43.414749"><ele>147.5</ele></trkpt>
<trkpt lon="-4.932464" lat="43.414480"><ele>146.5</ele></trkpt>
<trkpt lon="-4.932458" lat="43.414382"><ele>145.5</ele></trkpt>
<trkpt lon="-4.932230" lat="43.414055"><ele>148.5</ele></trkpt>
<trkpt lon="-4.932174" lat="43.413930"><ele>150.5</ele></trkpt>
<trkpt lon="-4.932026" lat="43.413590"><ele>157.75</ele></trkpt>
<trkpt lon="-4.932026" lat="43.413339"><ele>164.75</ele></trkpt>
<trkpt lon="-4.932008" lat="43.413124"><ele>165.75</ele></trkpt>
<trkpt lon="-4.931835" lat="43.412824"><ele>171.5</ele></trkpt>
<trkpt lon="-4.931441" lat="43.412470"><ele>178.5</ele></trkpt>
<trkpt lon="-4.931120" lat="43.412274"><ele>184.0</ele></trkpt>
<trkpt lon="-4.930966" lat="43.412296"><ele>185.75</ele></trkpt>
<trkpt lon="-4.931046" lat="43.412579"><ele>187.75</ele></trkpt>
<trkpt lon="-4.931060" lat="43.412904"><ele>190.75</ele></trkpt>
<trkpt lon="-4.930996" lat="43.413044"><ele>192.75</ele></trkpt>
<trkpt lon="-4.930730" lat="43.413240"><ele>196.25</ele></trkpt>
<trkpt lon="-4.930587" lat="43.413333"><ele>198.25</ele></trkpt>
<trkpt lon="-4.930385" lat="43.413550"><ele>200.25</ele></trkpt>
<trkpt lon="-4.930246" lat="43.413793"><ele>200.25</ele></trkpt>
<trkpt lon="-4.930004" lat="43.413961"><ele>201.0</ele></trkpt>
<trkpt lon="-4.929712" lat="43.414118"><ele>203.0</ele></trkpt>
<trkpt lon="-4.929453" lat="43.414297"><ele>205.25</ele></trkpt>
<trkpt lon="-4.929325" lat="43.414547"><ele>207.75</ele></trkpt>
<trkpt lon="-4.929133" lat="43.414886"><ele>209.25</ele></trkpt>
<trkpt lon="-4.928976" lat="43.415077"><ele>209.25</ele></trkpt>
<trkpt lon="-4.928802" lat="43.415333"><ele>209.0</ele></trkpt>
<trkpt lon="-4.928681" lat="43.415490"><ele>209.75</ele></trkpt>
<trkpt lon="-4.928492" lat="43.415601"><ele>210.25</ele></trkpt>
<trkpt lon="-4.928215" lat="43.415728"><ele>210.75</ele></trkpt>
<trkpt lon="-4.927891" lat="43.415904"><ele>209.75</ele></trkpt>
<trkpt lon="-4.927561" lat="43.416129"><ele>208.75</ele></trkpt>
<trkpt lon="-4.927129" lat="43.416346"><ele>207.5</ele></trkpt>
<trkpt lon="-4.926747" lat="43.416601"><ele>208.5</ele></trkpt>
<trkpt lon="-4.926698" lat="43.416634"><ele>208.75</ele></trkpt>
<trkpt lon="-4.926301" lat="43.416785"><ele>211.25</ele></trkpt>
<trkpt lon="-4.926189" lat="43.416745"><ele>210.75</ele></trkpt>
<trkpt lon="-4.925966" lat="43.416746"><ele>209.75</ele></trkpt>
<trkpt lon="-4.925720" lat="43.416795"><ele>208.5</ele></trkpt>
<trkpt lon="-4.925373" lat="43.416925"><ele>205.5</ele></trkpt>
<trkpt lon="-4.925301" lat="43.416982"><ele>204.5</ele></trkpt>
<trkpt lon="-4.925215" lat="43.417089"><ele>203.75</ele></trkpt>
<trkpt lon="-4.925016" lat="43.417209"><ele>201.0</ele></trkpt>
<trkpt lon="-4.924807" lat="43.417256"><ele>200.75</ele></trkpt>
<trkpt lon="-4.924527" lat="43.417248"><ele>199.25</ele></trkpt>
<trkpt lon="-4.924010" lat="43.417304"><ele>201.0</ele></trkpt>
<trkpt lon="-4.923764" lat="43.417286"><ele>201.25</ele></trkpt>
<trkpt lon="-4.923051" lat="43.417125"><ele>203.5</ele></trkpt>
<trkpt lon="-4.922805" lat="43.417109"><ele>204.0</ele></trkpt>
<trkpt lon="-4.922689" lat="43.417127"><ele>204.75</ele></trkpt>
<trkpt lon="-4.922500" lat="43.417108"><ele>204.5</ele></trkpt>
<trkpt lon="-4.922145" lat="43.417118"><ele>203.5</ele></trkpt>
<trkpt lon="-4.921930" lat="43.417095"><ele>201.5</ele></trkpt>
<trkpt lon="-4.921756" lat="43.417110"><ele>200.0</ele></trkpt>
<trkpt lon="-4.921648" lat="43.417141"><ele>199.5</ele></trkpt>
<trkpt lon="-4.921321" lat="43.417126"><ele>194.5</ele></trkpt>
<trkpt lon="-4.920987" lat="43.417095"><ele>191.0</ele></trkpt>
<trkpt lon="-4.920701" lat="43.417078"><ele>189.5</ele></trkpt>
<trkpt lon="-4.920134" lat="43.417090"><ele>191.0</ele></trkpt>
<trkpt lon="-4.919724" lat="43.416923"><ele>185.0</ele></trkpt>
<trkpt lon="-4.919571" lat="43.416883"><ele>182.75</ele></trkpt>
<trkpt lon="-4.918512" lat="43.416905"><ele>176.25</ele></trkpt>
<trkpt lon="-4.918272" lat="43.416825"><ele>174.5</ele></trkpt>
<trkpt lon="-4.917890" lat="43.416673"><ele>172.0</ele></trkpt>
<trkpt lon="-4.917495" lat="43.416686"><ele>171.5</ele></trkpt>
<trkpt lon="-4.917206" lat="43.416762"><ele>172.0</ele></trkpt>
<trkpt lon="-4.916848" lat="43.416695"><ele>171.25</ele></trkpt>
<trkpt lon="-4.916485" lat="43.416744"><ele>172.75</ele></trkpt>
<trkpt lon="-4.916324" lat="43.416789"><ele>173.25</ele></trkpt>
<trkpt lon="-4.916090" lat="43.416923"><ele>174.5</ele></trkpt>
<trkpt lon="-4.915856" lat="43.416928"><ele>175.25</ele></trkpt>
<trkpt lon="-4.915579" lat="43.416972"><ele>176.75</ele></trkpt>
<trkpt lon="-4.915166" lat="43.417059"><ele>177.75</ele></trkpt>
<trkpt lon="-4.914843" lat="43.417582"><ele>191.0</ele></trkpt>
<trkpt lon="-4.914306" lat="43.417774"><ele>197.25</ele></trkpt>
<trkpt lon="-4.914219" lat="43.418102"><ele>205.25</ele></trkpt>
<trkpt lon="-4.914250" lat="43.418108"><ele>205.5</ele></trkpt>
<trkpt lon="-4.914570" lat="43.418171"><ele>208.75</ele></trkpt>
<trkpt lon="-4.915123" lat="43.418294"><ele>214.0</ele></trkpt>
<trkpt lon="-4.915299" lat="43.418346"><ele>216.25</ele></trkpt>
<trkpt lon="-4.915826" lat="43.418469"><ele>221.25</ele></trkpt>
<trkpt lon="-4.916210" lat="43.418629"><ele>224.25</ele></trkpt>
<trkpt lon="-4.916419" lat="43.418804"><ele>225.75</ele></trkpt>
<trkpt lon="-4.916543" lat="43.418943"><ele>226.25</ele></trkpt>
<trkpt lon="-4.916484" lat="43.419126"><ele>226.0</ele></trkpt>
<trkpt lon="-4.916282" lat="43.419400"><ele>226.0</ele></trkpt>
<trkpt lon="-4.916054" lat="43.419665"><ele>225.75</ele></trkpt>
<trkpt lon="-4.915657" lat="43.419868"><ele>225.0</ele></trkpt>
<trkpt lon="-4.915481" lat="43.420100"><ele>224.25</ele></trkpt>
<trkpt lon="-4.915442" lat="43.420313"><ele>224.0</ele></trkpt>
<trkpt lon="-4.915410" lat="43.420582"><ele>223.75</ele></trkpt>
<trkpt lon="-4.915325" lat="43.420705"><ele>224.25</ele></trkpt>
<trkpt lon="-4.915221" lat="43.420828"><ele>224.5</ele></trkpt>
<trkpt lon="-4.915104" lat="43.421093"><ele>224.5</ele></trkpt>
<trkpt lon="-4.915000" lat="43.421178"><ele>223.75</ele></trkpt>
<trkpt lon="-4.914772" lat="43.421277"><ele>221.0</ele></trkpt>
<trkpt lon="-4.914570" lat="43.421448"><ele>220.75</ele></trkpt>
<trkpt lon="-4.914537" lat="43.421604"><ele>221.75</ele></trkpt>
<trkpt lon="-4.914446" lat="43.421693"><ele>221.75</ele></trkpt>
<trkpt lon="-4.914316" lat="43.421731"><ele>222.0</ele></trkpt>
<trkpt lon="-4.914140" lat="43.421679"><ele>222.75</ele></trkpt>
<trkpt lon="-4.913991" lat="43.421656"><ele>222.25</ele></trkpt>
<trkpt lon="-4.913925" lat="43.421693"><ele>222.0</ele></trkpt>
<trkpt lon="-4.913815" lat="43.421807"><ele>221.5</ele></trkpt>
<trkpt lon="-4.913776" lat="43.421996"><ele>221.25</ele></trkpt>
<trkpt lon="-4.913633" lat="43.422350"><ele>221.0</ele></trkpt>
<trkpt lon="-4.913535" lat="43.422526"><ele>220.5</ele></trkpt>
<trkpt lon="-4.913432" lat="43.422708"><ele>220.0</ele></trkpt>
<trkpt lon="-4.913198" lat="43.423022"><ele>218.0</ele></trkpt>
<trkpt lon="-4.912924" lat="43.423366"><ele>215.5</ele></trkpt>
<trkpt lon="-4.912769" lat="43.423656"><ele>213.75</ele></trkpt>
<trkpt lon="-4.912598" lat="43.423918"><ele>212.75</ele></trkpt>
<trkpt lon="-4.912439" lat="43.424404"><ele>211.0</ele></trkpt>
<trkpt lon="-4.912191" lat="43.424811"><ele>209.75</ele></trkpt>
<trkpt lon="-4.912158" lat="43.424931"><ele>208.25</ele></trkpt>
<trkpt lon="-4.912113" lat="43.425095"><ele>205.25</ele></trkpt>
<trkpt lon="-4.911985" lat="43.425270"><ele>201.75</ele></trkpt>
<trkpt lon="-4.911737" lat="43.425379"><ele>197.75</ele></trkpt>
<trkpt lon="-4.911488" lat="43.425477"><ele>196.5</ele></trkpt>
<trkpt lon="-4.911410" lat="43.425559"><ele>195.5</ele></trkpt>
<trkpt lon="-4.911410" lat="43.425662"><ele>196.0</ele></trkpt>
<trkpt lon="-4.911517" lat="43.425750"><ele>193.5</ele></trkpt>
<trkpt lon="-4.911722" lat="43.425822"><ele>188.0</ele></trkpt>
<trkpt lon="-4.912084" lat="43.425848"><ele>182.5</ele></trkpt>
<trkpt lon="-4.912496" lat="43.425951"><ele>179.0</ele></trkpt>
<trkpt lon="-4.913334" lat="43.425951"><ele>167.0</ele></trkpt>
<trkpt lon="-4.913639" lat="43.425982"><ele>163.75</ele></trkpt>
<trkpt lon="-4.913916" lat="43.425853"><ele>158.75</ele></trkpt>
<trkpt lon="-4.914583" lat="43.425739"><ele>151.25</ele></trkpt>
<trkpt lon="-4.914810" lat="43.425719"><ele>148.75</ele></trkpt>
<trkpt lon="-4.915051" lat="43.425734"><ele>146.25</ele></trkpt>
<trkpt lon="-4.915953" lat="43.425976"><ele>140.0</ele></trkpt>
<trkpt lon="-4.916294" lat="43.426054"><ele>136.5</ele></trkpt>
<trkpt lon="-4.916684" lat="43.426260"><ele>133.75</ele></trkpt>
<trkpt lon="-4.916911" lat="43.426471"><ele>131.75</ele></trkpt>
<trkpt lon="-4.916996" lat="43.426605"><ele>130.75</ele></trkpt>
<trkpt lon="-4.917039" lat="43.426745"><ele>132.25</ele></trkpt>
<trkpt lon="-4.917082" lat="43.426791"><ele>131.5</ele></trkpt>
<trkpt lon="-4.917422" lat="43.427229"><ele>126.0</ele></trkpt>
<trkpt lon="-4.917408" lat="43.427296"><ele>127.25</ele></trkpt>
<trkpt lon="-4.917373" lat="43.427373"><ele>129.25</ele></trkpt>
<trkpt lon="-4.917436" lat="43.427430"><ele>127.0</ele></trkpt>
<trkpt lon="-4.917522" lat="43.427492"><ele>123.75</ele></trkpt>
<trkpt lon="-4.917763" lat="43.427817"><ele>123.75</ele></trkpt>
<trkpt lon="-4.918082" lat="43.427982"><ele>119.0</ele></trkpt>
<trkpt lon="-4.918281" lat="43.428147"><ele>117.0</ele></trkpt>
<trkpt lon="-4.918416" lat="43.428281"><ele>113.75</ele></trkpt>
<trkpt lon="-4.918444" lat="43.428384"><ele>112.75</ele></trkpt>
<trkpt lon="-4.918423" lat="43.428477"><ele>112.5</ele></trkpt>
<trkpt lon="-4.918373" lat="43.428533"><ele>112.5</ele></trkpt>
<trkpt lon="-4.918338" lat="43.428595"><ele>111.25</ele></trkpt>
<trkpt lon="-4.918366" lat="43.428631"><ele>112.25</ele></trkpt>
<trkpt lon="-4.918679" lat="43.428673"><ele>111.75</ele></trkpt>
<trkpt lon="-4.919190" lat="43.428910"><ele>107.75</ele></trkpt>
<trkpt lon="-4.919261" lat="43.428972"><ele>107.25</ele></trkpt>
<trkpt lon="-4.919445" lat="43.429157"><ele>107.5</ele></trkpt>
<trkpt lon="-4.919559" lat="43.429235"><ele>107.5</ele></trkpt>
<trkpt lon="-4.919736" lat="43.429281"><ele>103.75</ele></trkpt>
<trkpt lon="-4.919864" lat="43.429343"><ele>102.0</ele></trkpt>
<trkpt lon="-4.920034" lat="43.429508"><ele>101.25</ele></trkpt>
<trkpt lon="-4.920254" lat="43.429637"><ele>98.0</ele></trkpt>
<trkpt lon="-4.920382" lat="43.429765"><ele>99.75</ele></trkpt>
<trkpt lon="-4.920560" lat="43.429812"><ele>99.5</ele></trkpt>
<trkpt lon="-4.920723" lat="43.429827"><ele>96.25</ele></trkpt>
<trkpt lon="-4.920986" lat="43.429920"><ele>93.75</ele></trkpt>
<trkpt lon="-4.921106" lat="43.430039"><ele>93.0</ele></trkpt>
<trkpt lon="-4.921206" lat="43.430224"><ele>94.0</ele></trkpt>
<trkpt lon="-4.921561" lat="43.430415"><ele>87.5</ele></trkpt>
<trkpt lon="-4.921759" lat="43.430616"><ele>83.5</ele></trkpt>
<trkpt lon="-4.921781" lat="43.430822"><ele>84.0</ele></trkpt>
<trkpt lon="-4.921823" lat="43.430987"><ele>84.5</ele></trkpt>
<trkpt lon="-4.921923" lat="43.431064"><ele>79.75</ele></trkpt>
<trkpt lon="-4.922064" lat="43.431128"><ele>77.0</ele></trkpt>
<trkpt lon="-4.922004" lat="43.431319"><ele>76.75</ele></trkpt>
<trkpt lon="-4.921987" lat="43.431460"><ele>77.0</ele></trkpt>
<trkpt lon="-4.922152" lat="43.431936"><ele>77.25</ele></trkpt>
<trkpt lon="-4.922263" lat="43.432067"><ele>80.0</ele></trkpt>
<trkpt lon="-4.922962" lat="43.432470"><ele>76.75</ele></trkpt>
<trkpt lon="-4.923071" lat="43.432546"><ele>74.0</ele></trkpt>
<trkpt lon="-4.923136" lat="43.432642"><ele>73.5</ele></trkpt>
<trkpt lon="-4.923139" lat="43.432935"><ele>75.0</ele></trkpt>
<trkpt lon="-4.923163" lat="43.433031"><ele>74.5</ele></trkpt>
<trkpt lon="-4.923379" lat="43.433412"><ele>70.25</ele></trkpt>
<trkpt lon="-4.923494" lat="43.433721"><ele>70.25</ele></trkpt>
<trkpt lon="-4.923538" lat="43.433780"><ele>70.0</ele></trkpt>
<trkpt lon="-4.923851" lat="43.433975"><ele>66.0</ele></trkpt>
<trkpt lon="-4.923912" lat="43.434060"><ele>65.0</ele></trkpt>
<trkpt lon="-4.923913" lat="43.434162"><ele>65.25</ele></trkpt>
<trkpt lon="-4.923795" lat="43.434607"><ele>62.25</ele></trkpt>
<trkpt lon="-4.923747" lat="43.434912"><ele>59.75</ele></trkpt>
<trkpt lon="-4.923692" lat="43.435143"><ele>58.25</ele></trkpt>
<trkpt lon="-4.923683" lat="43.435338"><ele>57.0</ele></trkpt>
<trkpt lon="-4.924073" lat="43.435364"><ele>58.0</ele></trkpt>
<trkpt lon="-4.924170" lat="43.435400"><ele>57.5</ele></trkpt>
<trkpt lon="-4.924268" lat="43.435391"><ele>58.0</ele></trkpt>
<trkpt lon="-4.924336" lat="43.435391"><ele>58.0</ele></trkpt>
<trkpt lon="-4.924425" lat="43.435406"><ele>58.25</ele></trkpt>
<trkpt lon="-4.924688" lat="43.435455"><ele>59.5</ele></trkpt>
<trkpt lon="-4.924946" lat="43.435476"><ele>61.0</ele></trkpt>
<trkpt lon="-4.925686" lat="43.435616"><ele>68.5</ele></trkpt>
<trkpt lon="-4.926521" lat="43.435498"><ele>75.0</ele></trkpt>
<trkpt lon="-4.927098" lat="43.435550"><ele>77.5</ele></trkpt>
<trkpt lon="-4.927246" lat="43.435564"><ele>78.0</ele></trkpt>
<trkpt lon="-4.927886" lat="43.435517"><ele>80.75</ele></trkpt>
<trkpt lon="-4.928568" lat="43.435523"><ele>81.5</ele></trkpt>
<trkpt lon="-4.929237" lat="43.435511"><ele>83.0</ele></trkpt>
<trkpt lon="-4.929807" lat="43.435446"><ele>84.0</ele></trkpt>
<trkpt lon="-4.930541" lat="43.435400"><ele>84.5</ele></trkpt>
<trkpt lon="-4.931005" lat="43.435404"><ele>84.0</ele></trkpt>
<trkpt lon="-4.931593" lat="43.435456"><ele>82.0</ele></trkpt>
<trkpt lon="-4.932405" lat="43.435532"><ele>79.5</ele></trkpt>
<trkpt lon="-4.932713" lat="43.435590"><ele>77.25</ele></trkpt>
<trkpt lon="-4.932936" lat="43.435684"><ele>75.75</ele></trkpt>
<trkpt lon="-4.933247" lat="43.435843"><ele>73.5</ele></trkpt>
<trkpt lon="-4.933957" lat="43.436248"><ele>69.0</ele></trkpt>
<trkpt lon="-4.934786" lat="43.436671"><ele>64.25</ele></trkpt>
<trkpt lon="-4.935416" lat="43.437041"><ele>60.75</ele></trkpt>
<trkpt lon="-4.935756" lat="43.437240"><ele>59.25</ele></trkpt>
<trkpt lon="-4.935860" lat="43.437314"><ele>58.75</ele></trkpt>
<trkpt lon="-4.935908" lat="43.437397"><ele>58.5</ele></trkpt>
<trkpt lon="-4.936035" lat="43.437690"><ele>58.0</ele></trkpt>
<trkpt lon="-4.936234" lat="43.437662"><ele>57.0</ele></trkpt>
<trkpt lon="-4.936304" lat="43.437657"><ele>56.75</ele></trkpt>
<trkpt lon="-4.936493" lat="43.437635"><ele>55.75</ele></trkpt>
<trkpt lon="-4.936897" lat="43.437576"><ele>54.75</ele></trkpt>
<trkpt lon="-4.936943" lat="43.437569"><ele>54.75</ele></trkpt>
<trkpt lon="-4.937687" lat="43.437730"><ele>52.0</ele></trkpt>
<trkpt lon="-4.938004" lat="43.437784"><ele>51.0</ele></trkpt>
<trkpt lon="-4.938425" lat="43.437844"><ele>50.5</ele></trkpt>
<trkpt lon="-4.938507" lat="43.437830"><ele>50.25</ele></trkpt>
<trkpt lon="-4.938723" lat="43.437762"><ele>50.0</ele></trkpt>
<trkpt lon="-4.938925" lat="43.437682"><ele>50.25</ele></trkpt>
<trkpt lon="-4.939043" lat="43.437643"><ele>50.25</ele></trkpt>
<trkpt lon="-4.939104" lat="43.437614"><ele>50.5</ele></trkpt>
<trkpt lon="-4.939291" lat="43.437558"><ele>50.75</ele></trkpt>
<trkpt lon="-4.939426" lat="43.437539"><ele>50.75</ele></trkpt>
<trkpt lon="-4.939509" lat="43.437555"><ele>50.75</ele></trkpt>
<trkpt lon="-4.939625" lat="43.437595"><ele>50.75</ele></trkpt>
<trkpt lon="-4.939749" lat="43.437638"><ele>51.0</ele></trkpt>
<trkpt lon="-4.939939" lat="43.437703"><ele>51.0</ele></trkpt>
<trkpt lon="-4.940296" lat="43.437825"><ele>49.75</ele></trkpt>
<trkpt lon="-4.940316" lat="43.437831"><ele>49.75</ele></trkpt>
<trkpt lon="-4.940440" lat="43.437874"><ele>49.5</ele></trkpt>
<trkpt lon="-4.940792" lat="43.438001"><ele>48.75</ele></trkpt>
<trkpt lon="-4.940948" lat="43.438038"><ele>48.75</ele></trkpt>
<trkpt lon="-4.941058" lat="43.438064"><ele>48.75</ele></trkpt>
<trkpt lon="-4.941118" lat="43.438072"><ele>48.75</ele></trkpt>
<trkpt lon="-4.941552" lat="43.438177"><ele>46.5</ele></trkpt>
<trkpt lon="-4.941628" lat="43.438191"><ele>46.75</ele></trkpt>
<trkpt lon="-4.941867" lat="43.438223"><ele>48.0</ele></trkpt>
<trkpt lon="-4.942410" lat="43.438537"><ele>49.25</ele></trkpt>
<trkpt lon="-4.942673" lat="43.438592"><ele>51.0</ele></trkpt>
<trkpt lon="-4.942941" lat="43.438577"><ele>52.25</ele></trkpt>
<trkpt lon="-4.943346" lat="43.438501"><ele>52.5</ele></trkpt>
<trkpt lon="-4.943549" lat="43.438448"><ele>54.25</ele></trkpt>
<trkpt lon="-4.943212" lat="43.439122"><ele>53.75</ele></trkpt>
<trkpt lon="-4.943158" lat="43.439251"><ele>54.0</ele></trkpt>
<trkpt lon="-4.943118" lat="43.439486"><ele>54.25</ele></trkpt>
<trkpt lon="-4.943087" lat="43.439741"><ele>54.5</ele></trkpt>
<trkpt lon="-4.943085" lat="43.439901"><ele>55.75</ele></trkpt>
<trkpt lon="-4.943047" lat="43.440041"><ele>56.0</ele></trkpt>
<trkpt lon="-4.942991" lat="43.440187"><ele>55.5</ele></trkpt>
<trkpt lon="-4.942893" lat="43.440489"><ele>55.25</ele></trkpt>
<trkpt lon="-4.942879" lat="43.440645"><ele>55.25</ele></trkpt>
<trkpt lon="-4.942920" lat="43.440824"><ele>56.0</ele></trkpt>
<trkpt lon="-4.943115" lat="43.441297"><ele>60.75</ele></trkpt>
<trkpt lon="-4.943182" lat="43.441407"><ele>61.25</ele></trkpt>
<trkpt lon="-4.943344" lat="43.441582"><ele>64.25</ele></trkpt>
<trkpt lon="-4.943591" lat="43.441744"><ele>62.75</ele></trkpt>
<trkpt lon="-4.943888" lat="43.441845"><ele>63.25</ele></trkpt>
<trkpt lon="-4.943992" lat="43.441891"><ele>62.0</ele></trkpt>
<trkpt lon="-4.944395" lat="43.441983"><ele>59.25</ele></trkpt>
<trkpt lon="-4.944609" lat="43.442014"><ele>57.75</ele></trkpt>
<trkpt lon="-4.944829" lat="43.442037"><ele>57.0</ele></trkpt>
<trkpt lon="-4.945371" lat="43.442082"><ele>54.5</ele></trkpt>
<trkpt lon="-4.945486" lat="43.442096"><ele>54.0</ele></trkpt>
<trkpt lon="-4.945861" lat="43.442439"><ele>51.5</ele></trkpt>
<trkpt lon="-4.946029" lat="43.442725"><ele>50.75</ele></trkpt>
<trkpt lon="-4.946113" lat="43.442777"><ele>50.0</ele></trkpt>
<trkpt lon="-4.946250" lat="43.442768"><ele>50.5</ele></trkpt>
<trkpt lon="-4.946532" lat="43.442614"><ele>53.75</ele></trkpt>
<trkpt lon="-4.948450" lat="43.442141"><ele>60.75</ele></trkpt>
<trkpt lon="-4.948951" lat="43.442010"><ele>59.25</ele></trkpt>
<trkpt lon="-4.949715" lat="43.441705"><ele>58.0</ele></trkpt>
<trkpt lon="-4.950679" lat="43.441391"><ele>58.5</ele></trkpt>
<trkpt lon="-4.951551" lat="43.441200"><ele>59.5</ele></trkpt>
<trkpt lon="-4.951769" lat="43.441102"><ele>60.5</ele></trkpt>
<trkpt lon="-4.952233" lat="43.440993"><ele>63.0</ele></trkpt>
<trkpt lon="-4.952703" lat="43.440899"><ele>63.25</ele></trkpt>
<trkpt lon="-4.953248" lat="43.440758"><ele>62.25</ele></trkpt>
<trkpt lon="-4.954182" lat="43.440581"><ele>63.75</ele></trkpt>
<trkpt lon="-4.954648" lat="43.440531"><ele>63.5</ele></trkpt>
<trkpt lon="-4.955127" lat="43.440560"><ele>61.5</ele></trkpt>
<trkpt lon="-4.955416" lat="43.440504"><ele>61.5</ele></trkpt>
<trkpt lon="-4.955951" lat="43.440456"><ele>61.75</ele></trkpt>
<trkpt lon="-4.956811" lat="43.440447"><ele>60.75</ele></trkpt>
<trkpt lon="-4.956688" lat="43.440763"><ele>57.75</ele></trkpt>
<trkpt lon="-4.956591" lat="43.440873"><ele>58.0</ele></trkpt>
<trkpt lon="-4.956365" lat="43.441159"><ele>61.0</ele></trkpt>
<trkpt lon="-4.956173" lat="43.441444"><ele>66.25</ele></trkpt>
<trkpt lon="-4.955935" lat="43.441654"><ele>69.5</ele></trkpt>
<trkpt lon="-4.955714" lat="43.441802"><ele>71.0</ele></trkpt>
<trkpt lon="-4.956437" lat="43.441868"><ele>72.25</ele></trkpt>
<trkpt lon="-4.956685" lat="43.442150"><ele>73.0</ele></trkpt>
<trkpt lon="-4.957042" lat="43.442090"><ele>71.75</ele></trkpt>
<trkpt lon="-4.957156" lat="43.441996"><ele>72.0</ele></trkpt>
<trkpt lon="-4.957333" lat="43.441939"><ele>71.5</ele></trkpt>
<trkpt lon="-4.957847" lat="43.442027"><ele>70.0</ele></trkpt>
<trkpt lon="-4.957973" lat="43.441953"><ele>69.25</ele></trkpt>
<trkpt lon="-4.958126" lat="43.441962"><ele>70.0</ele></trkpt>
<trkpt lon="-4.958456" lat="43.441916"><ele>72.0</ele></trkpt>
<trkpt lon="-4.958848" lat="43.441899"><ele>72.25</ele></trkpt>
<trkpt lon="-4.959441" lat="43.441845"><ele>69.5</ele></trkpt>
<trkpt lon="-4.959991" lat="43.441890"><ele>64.0</ele></trkpt>
<trkpt lon="-4.960536" lat="43.441751"><ele>61.5</ele></trkpt>
<trkpt lon="-4.961060" lat="43.441567"><ele>55.75</ele></trkpt>
<trkpt lon="-4.961088" lat="43.441614"><ele>55.75</ele></trkpt>
<trkpt lon="-4.961237" lat="43.441933"><ele>55.5</ele></trkpt>
<trkpt lon="-4.961384" lat="43.442477"><ele>55.75</ele></trkpt>
<trkpt lon="-4.961466" lat="43.442606"><ele>55.75</ele></trkpt>
<trkpt lon="-4.961840" lat="43.442974"><ele>55.25</ele></trkpt>
<trkpt lon="-4.962084" lat="43.443117"><ele>54.75</ele></trkpt>
<trkpt lon="-4.962191" lat="43.443061"><ele>54.0</ele></trkpt>
<trkpt lon="-4.962349" lat="43.443022"><ele>54.0</ele></trkpt>
<trkpt lon="-4.962614" lat="43.443010"><ele>53.5</ele></trkpt>
<trkpt lon="-4.962855" lat="43.443014"><ele>53.0</ele></trkpt>
<trkpt lon="-4.962992" lat="43.443046"><ele>53.0</ele></trkpt>
<trkpt lon="-4.963483" lat="43.443275"><ele>53.25</ele></trkpt>
<trkpt lon="-4.963745" lat="43.443412"><ele>54.0</ele></trkpt>
<trkpt lon="-4.963932" lat="43.443591"><ele>55.0</ele></trkpt>
<trkpt lon="-4.964339" lat="43.443701"><ele>58.75</ele></trkpt>
<trkpt lon="-4.964485" lat="43.443786"><ele>60.0</ele></trkpt>
<trkpt lon="-4.964700" lat="43.443826"><ele>61.5</ele></trkpt>
<trkpt lon="-4.964834" lat="43.443819"><ele>62.25</ele></trkpt>
<trkpt lon="-4.965033" lat="43.443864"><ele>63.25</ele></trkpt>
<trkpt lon="-4.965260" lat="43.443892"><ele>65.75</ele></trkpt>
<trkpt lon="-4.965362" lat="43.443917"><ele>66.75</ele></trkpt>
<trkpt lon="-4.965450" lat="43.443981"><ele>67.5</ele></trkpt>
<trkpt lon="-4.965602" lat="43.444027"><ele>69.0</ele></trkpt>
<trkpt lon="-4.965835" lat="43.444064"><ele>71.25</ele></trkpt>
<trkpt lon="-4.966138" lat="43.444061"><ele>75.25</ele></trkpt>
<trkpt lon="-4.966435" lat="43.444035"><ele>78.75</ele></trkpt>
<trkpt lon="-4.967190" lat="43.443959"><ele>87.0</ele></trkpt>
<trkpt lon="-4.967431" lat="43.443896"><ele>89.25</ele></trkpt>
<trkpt lon="-4.967569" lat="43.443831"><ele>89.75</ele></trkpt>
<trkpt lon="-4.967718" lat="43.443748"><ele>90.0</ele></trkpt>
<trkpt lon="-4.967967" lat="43.443721"><ele>91.75</ele></trkpt>
<trkpt lon="-4.968187" lat="43.443765"><ele>94.25</ele></trkpt>
<trkpt lon="-4.968297" lat="43.443795"><ele>95.25</ele></trkpt>
<trkpt lon="-4.968492" lat="43.443809"><ele>96.25</ele></trkpt>
<trkpt lon="-4.968722" lat="43.443845"><ele>97.5</ele></trkpt>
<trkpt lon="-4.968835" lat="43.443889"><ele>98.5</ele></trkpt>
<trkpt lon="-4.968944" lat="43.443908"><ele>99.5</ele></trkpt>
<trkpt lon="-4.969075" lat="43.443958"><ele>100.75</ele></trkpt>
<trkpt lon="-4.969205" lat="43.444017"><ele>103.0</ele></trkpt>
<trkpt lon="-4.969319" lat="43.444078"><ele>105.0</ele></trkpt>
<trkpt lon="-4.969475" lat="43.444138"><ele>107.5</ele></trkpt>
<trkpt lon="-4.969665" lat="43.444230"><ele>109.75</ele></trkpt>
<trkpt lon="-4.969773" lat="43.444334"><ele>112.25</ele></trkpt>
<trkpt lon="-4.969821" lat="43.444368"><ele>113.0</ele></trkpt>
<trkpt lon="-4.969942" lat="43.444432"><ele>114.5</ele></trkpt>
<trkpt lon="-4.970066" lat="43.444350"><ele>113.75</ele></trkpt>
<trkpt lon="-4.970304" lat="43.444302"><ele>114.0</ele></trkpt>
<trkpt lon="-4.970530" lat="43.444317"><ele>114.75</ele></trkpt>
<trkpt lon="-4.970631" lat="43.444290"><ele>114.75</ele></trkpt>
<trkpt lon="-4.971303" lat="43.444191"><ele>113.25</ele></trkpt>
<trkpt lon="-4.971660" lat="43.444093"><ele>111.75</ele></trkpt>
<trkpt lon="-4.971974" lat="43.444020"><ele>109.5</ele></trkpt>
<trkpt lon="-4.972216" lat="43.443976"><ele>109.75</ele></trkpt>
<trkpt lon="-4.972481" lat="43.443979"><ele>108.75</ele></trkpt>
<trkpt lon="-4.972742" lat="43.443990"><ele>106.75</ele></trkpt>
<trkpt lon="-4.973080" lat="43.443965"><ele>106.0</ele></trkpt>
<trkpt lon="-4.973331" lat="43.443909"><ele>103.25</ele></trkpt>
<trkpt lon="-4.973465" lat="43.443834"><ele>101.5</ele></trkpt>
<trkpt lon="-4.973602" lat="43.443684"><ele>100.25</ele></trkpt>
<trkpt lon="-4.973770" lat="43.443518"><ele>97.75</ele></trkpt>
<trkpt lon="-4.973979" lat="43.443415"><ele>96.5</ele></trkpt>
<trkpt lon="-4.974342" lat="43.443337"><ele>97.75</ele></trkpt>
<trkpt lon="-4.974695" lat="43.443297"><ele>97.5</ele></trkpt>
<trkpt lon="-4.975230" lat="43.443250"><ele>95.25</ele></trkpt>
<trkpt lon="-4.975301" lat="43.443271"><ele>95.0</ele></trkpt>
<trkpt lon="-4.975875" lat="43.443327"><ele>94.0</ele></trkpt>
<trkpt lon="-4.976331" lat="43.443430"><ele>92.75</ele></trkpt>
<trkpt lon="-4.976561" lat="43.443440"><ele>93.5</ele></trkpt>
<trkpt lon="-4.976777" lat="43.443436"><ele>93.75</ele></trkpt>
<trkpt lon="-4.977007" lat="43.443421"><ele>93.25</ele></trkpt>
<trkpt lon="-4.977190" lat="43.443398"><ele>92.5</ele></trkpt>
<trkpt lon="-4.977357" lat="43.443278"><ele>93.0</ele></trkpt>
<trkpt lon="-4.977518" lat="43.443185"><ele>93.0</ele></trkpt>
<trkpt lon="-4.977679" lat="43.443117"><ele>93.25</ele></trkpt>
<trkpt lon="-4.977867" lat="43.443068"><ele>93.25</ele></trkpt>
<trkpt lon="-4.978072" lat="43.443078"><ele>92.25</ele></trkpt>
<trkpt lon="-4.978253" lat="43.443046"><ele>91.5</ele></trkpt>
<trkpt lon="-4.978848" lat="43.442921"><ele>89.0</ele></trkpt>
<trkpt lon="-4.978947" lat="43.442893"><ele>89.0</ele></trkpt>
<trkpt lon="-4.979061" lat="43.442876"><ele>89.0</ele></trkpt>
<trkpt lon="-4.979132" lat="43.442838"><ele>89.25</ele></trkpt>
<trkpt lon="-4.979183" lat="43.442756"><ele>89.75</ele></trkpt>
<trkpt lon="-4.979206" lat="43.442642"><ele>88.5</ele></trkpt>
<trkpt lon="-4.979546" lat="43.442495"><ele>87.25</ele></trkpt>
<trkpt lon="-4.979998" lat="43.442330"><ele>84.25</ele></trkpt>
<trkpt lon="-4.980448" lat="43.442210"><ele>81.25</ele></trkpt>
<trkpt lon="-4.980757" lat="43.442118"><ele>79.25</ele></trkpt>
<trkpt lon="-4.981405" lat="43.441996"><ele>73.25</ele></trkpt>
<trkpt lon="-4.981832" lat="43.441903"><ele>70.0</ele></trkpt>
<trkpt lon="-4.982065" lat="43.441736"><ele>68.25</ele></trkpt>
<trkpt lon="-4.982226" lat="43.441661"><ele>66.75</ele></trkpt>
<trkpt lon="-4.982436" lat="43.441539"><ele>63.75</ele></trkpt>
<trkpt lon="-4.982658" lat="43.441389"><ele>63.75</ele></trkpt>
<trkpt lon="-4.982857" lat="43.441344"><ele>62.5</ele></trkpt>
<trkpt lon="-4.983163" lat="43.441322"><ele>60.0</ele></trkpt>
<trkpt lon="-4.983313" lat="43.441325"><ele>58.0</ele></trkpt>
<trkpt lon="-4.983443" lat="43.441278"><ele>56.25</ele></trkpt>
<trkpt lon="-4.983515" lat="43.441354"><ele>55.75</ele></trkpt>
<trkpt lon="-4.983587" lat="43.441501"><ele>55.0</ele></trkpt>
<trkpt lon="-4.983713" lat="43.441648"><ele>53.75</ele></trkpt>
<trkpt lon="-4.983832" lat="43.441810"><ele>52.75</ele></trkpt>
<trkpt lon="-4.983922" lat="43.442022"><ele>51.0</ele></trkpt>
<trkpt lon="-4.983896" lat="43.442043"><ele>51.0</ele></trkpt>
<trkpt lon="-4.983881" lat="43.442233"><ele>50.0</ele></trkpt>
<trkpt lon="-4.983883" lat="43.442322"><ele>49.25</ele></trkpt>
<trkpt lon="-4.984163" lat="43.442813"><ele>45.25</ele></trkpt>
<trkpt lon="-4.984281" lat="43.443000"><ele>44.0</ele></trkpt>
<trkpt lon="-4.984319" lat="43.443055"><ele>44.75</ele></trkpt>
<trkpt lon="-4.984428" lat="43.443272"><ele>47.25</ele></trkpt>
<trkpt lon="-4.984589" lat="43.443519"><ele>49.25</ele></trkpt>
<trkpt lon="-4.984703" lat="43.443712"><ele>50.25</ele></trkpt>
<trkpt lon="-4.984803" lat="43.443982"><ele>51.25</ele></trkpt>
<trkpt lon="-4.984846" lat="43.444076"><ele>51.25</ele></trkpt>
<trkpt lon="-4.984920" lat="43.444099"><ele>51.25</ele></trkpt>
<trkpt lon="-4.984978" lat="43.444065"><ele>51.5</ele></trkpt>
<trkpt lon="-4.985063" lat="43.444031"><ele>52.25</ele></trkpt>
<trkpt lon="-4.985119" lat="43.444006"><ele>52.75</ele></trkpt>
<trkpt lon="-4.985280" lat="43.443950"><ele>54.25</ele></trkpt>
<trkpt lon="-4.985417" lat="43.443963"><ele>54.75</ele></trkpt>
<trkpt lon="-4.985543" lat="43.443988"><ele>55.5</ele></trkpt>
<trkpt lon="-4.985623" lat="43.443954"><ele>56.0</ele></trkpt>
<trkpt lon="-4.985718" lat="43.444017"><ele>56.25</ele></trkpt>
<trkpt lon="-4.985849" lat="43.444053"><ele>56.75</ele></trkpt>
<trkpt lon="-4.986108" lat="43.444079"><ele>56.75</ele></trkpt>
<trkpt lon="-4.986377" lat="43.444093"><ele>56.5</ele></trkpt>
<trkpt lon="-4.987135" lat="43.444110"><ele>55.5</ele></trkpt>
<trkpt lon="-4.987284" lat="43.444132"><ele>55.25</ele></trkpt>
<trkpt lon="-4.987892" lat="43.444407"><ele>56.75</ele></trkpt>
<trkpt lon="-4.988405" lat="43.444574"><ele>53.75</ele></trkpt>
<trkpt lon="-4.989029" lat="43.444718"><ele>52.0</ele></trkpt>
<trkpt lon="-4.989381" lat="43.444818"><ele>51.75</ele></trkpt>
<trkpt lon="-4.989814" lat="43.444960"><ele>52.25</ele></trkpt>
<trkpt lon="-4.990166" lat="43.445007"><ele>51.75</ele></trkpt>
<trkpt lon="-4.990801" lat="43.444982"><ele>49.5</ele></trkpt>
<trkpt lon="-4.991244" lat="43.444995"><ele>49.5</ele></trkpt>
<trkpt lon="-4.991291" lat="43.444996"><ele>49.25</ele></trkpt>
<trkpt lon="-4.991670" lat="43.445088"><ele>48.0</ele></trkpt>
<trkpt lon="-4.992072" lat="43.445243"><ele>46.75</ele></trkpt>
<trkpt lon="-4.992095" lat="43.445276"><ele>46.5</ele></trkpt>
<trkpt lon="-4.992333" lat="43.445236"><ele>47.75</ele></trkpt>
<trkpt lon="-4.992654" lat="43.445264"><ele>48.0</ele></trkpt>
<trkpt lon="-4.992829" lat="43.445353"><ele>47.75</ele></trkpt>
<trkpt lon="-4.993173" lat="43.445346"><ele>45.0</ele></trkpt>
<trkpt lon="-4.993701" lat="43.445658"><ele>44.0</ele></trkpt>
<trkpt lon="-4.993981" lat="43.445932"><ele>45.5</ele></trkpt>
<trkpt lon="-4.994002" lat="43.446039"><ele>44.75</ele></trkpt>
<trkpt lon="-4.993931" lat="43.446275"><ele>43.5</ele></trkpt>
<trkpt lon="-4.993930" lat="43.446499"><ele>42.25</ele></trkpt>
<trkpt lon="-4.993952" lat="43.446567"><ele>42.0</ele></trkpt>
<trkpt lon="-4.994039" lat="43.446742"><ele>40.75</ele></trkpt>
<trkpt lon="-4.994727" lat="43.446749"><ele>42.5</ele></trkpt>
<trkpt lon="-4.995298" lat="43.446717"><ele>44.0</ele></trkpt>
<trkpt lon="-4.995635" lat="43.446683"><ele>44.0</ele></trkpt>
<trkpt lon="-4.995961" lat="43.446639"><ele>42.0</ele></trkpt>
<trkpt lon="-4.996220" lat="43.446651"><ele>40.5</ele></trkpt>
<trkpt lon="-4.996533" lat="43.446678"><ele>39.25</ele></trkpt>
<trkpt lon="-4.997122" lat="43.446796"><ele>38.0</ele></trkpt>
<trkpt lon="-4.997436" lat="43.446878"><ele>38.25</ele></trkpt>
<trkpt lon="-4.997649" lat="43.446919"><ele>37.75</ele></trkpt>
<trkpt lon="-4.997881" lat="43.446920"><ele>37.0</ele></trkpt>
<trkpt lon="-4.998113" lat="43.446901"><ele>37.0</ele></trkpt>
<trkpt lon="-4.998170" lat="43.446944"><ele>37.25</ele></trkpt>
<trkpt lon="-4.998214" lat="43.446962"><ele>37.25</ele></trkpt>
<trkpt lon="-4.998632" lat="43.447145"><ele>38.25</ele></trkpt>
<trkpt lon="-4.998827" lat="43.447329"><ele>39.5</ele></trkpt>
<trkpt lon="-4.999172" lat="43.447871"><ele>42.25</ele></trkpt>
<trkpt lon="-4.999253" lat="43.447939"><ele>41.75</ele></trkpt>
<trkpt lon="-4.999359" lat="43.447998"><ele>41.5</ele></trkpt>
<trkpt lon="-4.999604" lat="43.448037"><ele>41.75</ele></trkpt>
<trkpt lon="-5.000090" lat="43.448062"><ele>41.75</ele></trkpt>
<trkpt lon="-5.000577" lat="43.448101"><ele>43.5</ele></trkpt>
<trkpt lon="-5.001051" lat="43.448162"><ele>43.5</ele></trkpt>
<trkpt lon="-5.001232" lat="43.448162"><ele>43.5</ele></trkpt>
<trkpt lon="-5.001507" lat="43.448170"><ele>43.0</ele></trkpt>
<trkpt lon="-5.001652" lat="43.448187"><ele>42.5</ele></trkpt>
<trkpt lon="-5.002146" lat="43.448265"><ele>40.5</ele></trkpt>
<trkpt lon="-5.002509" lat="43.448365"><ele>39.75</ele></trkpt>
<trkpt lon="-5.003171" lat="43.448409"><ele>39.25</ele></trkpt>
<trkpt lon="-5.004005" lat="43.448502"><ele>39.5</ele></trkpt>
<trkpt lon="-5.004538" lat="43.448551"><ele>39.75</ele></trkpt>
<trkpt lon="-5.004806" lat="43.448543"><ele>40.0</ele></trkpt>
<trkpt lon="-5.004864" lat="43.448551"><ele>40.0</ele></trkpt>
<trkpt lon="-5.005219" lat="43.448614"><ele>39.75</ele></trkpt>
<trkpt lon="-5.005629" lat="43.448728"><ele>39.5</ele></trkpt>
<trkpt lon="-5.006154" lat="43.448971"><ele>37.5</ele></trkpt>
<trkpt lon="-5.006201" lat="43.449033"><ele>37.25</ele></trkpt>
<trkpt lon="-5.006472" lat="43.449541"><ele>39.0</ele></trkpt>
<trkpt lon="-5.006544" lat="43.449652"><ele>39.75</ele></trkpt>
<trkpt lon="-5.006613" lat="43.449736"><ele>40.25</ele></trkpt>
<trkpt lon="-5.006902" lat="43.449884"><ele>41.0</ele></trkpt>
<trkpt lon="-5.007536" lat="43.450326"><ele>40.75</ele></trkpt>
<trkpt lon="-5.007943" lat="43.450627"><ele>40.0</ele></trkpt>
<trkpt lon="-5.008546" lat="43.450845"><ele>37.75</ele></trkpt>
<trkpt lon="-5.008632" lat="43.450907"><ele>37.75</ele></trkpt>
<trkpt lon="-5.008740" lat="43.450970"><ele>37.5</ele></trkpt>
<trkpt lon="-5.009306" lat="43.451140"><ele>36.5</ele></trkpt>
<trkpt lon="-5.009732" lat="43.451302"><ele>35.0</ele></trkpt>
<trkpt lon="-5.010047" lat="43.451558"><ele>32.5</ele></trkpt>
<trkpt lon="-5.010235" lat="43.451599"><ele>32.75</ele></trkpt>
<trkpt lon="-5.010268" lat="43.451606"><ele>32.75</ele></trkpt>
<trkpt lon="-5.010727" lat="43.451465"><ele>32.5</ele></trkpt>
<trkpt lon="-5.011174" lat="43.451359"><ele>32.0</ele></trkpt>
<trkpt lon="-5.011529" lat="43.451190"><ele>33.0</ele></trkpt>
<trkpt lon="-5.012037" lat="43.450974"><ele>36.0</ele></trkpt>
<trkpt lon="-5.012376" lat="43.450915"><ele>38.0</ele></trkpt>
<trkpt lon="-5.012923" lat="43.451022"><ele>41.75</ele></trkpt>
<trkpt lon="-5.013140" lat="43.451058"><ele>42.5</ele></trkpt>
<trkpt lon="-5.013412" lat="43.451076"><ele>42.75</ele></trkpt>
<trkpt lon="-5.014109" lat="43.451050"><ele>43.25</ele></trkpt>
<trkpt lon="-5.014548" lat="43.451034"><ele>46.25</ele></trkpt>
<trkpt lon="-5.014973" lat="43.451025"><ele>48.25</ele></trkpt>
<trkpt lon="-5.015700" lat="43.451215"><ele>43.0</ele></trkpt>
<trkpt lon="-5.016500" lat="43.451433"><ele>42.0</ele></trkpt>
<trkpt lon="-5.017428" lat="43.451734"><ele>40.0</ele></trkpt>
<trkpt lon="-5.017807" lat="43.451916"><ele>39.5</ele></trkpt>
<trkpt lon="-5.018101" lat="43.452091"><ele>39.5</ele></trkpt>
<trkpt lon="-5.018165" lat="43.452152"><ele>39.0</ele></trkpt>
<trkpt lon="-5.018393" lat="43.452281"><ele>38.5</ele></trkpt>
<trkpt lon="-5.018501" lat="43.452309"><ele>38.75</ele></trkpt>
<trkpt lon="-5.018801" lat="43.452440"><ele>39.0</ele></trkpt>
<trkpt lon="-5.019105" lat="43.452694"><ele>39.5</ele></trkpt>
<trkpt lon="-5.019530" lat="43.452954"><ele>41.75</ele></trkpt>
<trkpt lon="-5.020001" lat="43.453093"><ele>44.0</ele></trkpt>
<trkpt lon="-5.020267" lat="43.453190"><ele>44.25</ele></trkpt>
<trkpt lon="-5.020532" lat="43.453320"><ele>43.0</ele></trkpt>
<trkpt lon="-5.020773" lat="43.453453"><ele>41.75</ele></trkpt>
<trkpt lon="-5.020944" lat="43.453573"><ele>41.5</ele></trkpt>
<trkpt lon="-5.021248" lat="43.453835"><ele>40.75</ele></trkpt>
<trkpt lon="-5.021406" lat="43.454007"><ele>40.5</ele></trkpt>
<trkpt lon="-5.021971" lat="43.454277"><ele>42.0</ele></trkpt>
<trkpt lon="-5.022509" lat="43.454498"><ele>42.75</ele></trkpt>
<trkpt lon="-5.022918" lat="43.454712"><ele>42.0</ele></trkpt>
<trkpt lon="-5.023197" lat="43.454800"><ele>40.5</ele></trkpt>
<trkpt lon="-5.023407" lat="43.454839"><ele>39.5</ele></trkpt>
<trkpt lon="-5.023682" lat="43.454997"><ele>36.0</ele></trkpt>
<trkpt lon="-5.023841" lat="43.455053"><ele>35.5</ele></trkpt>
<trkpt lon="-5.024306" lat="43.455116"><ele>34.25</ele></trkpt>
<trkpt lon="-5.025031" lat="43.455177"><ele>32.75</ele></trkpt>
<trkpt lon="-5.025925" lat="43.455354"><ele>35.25</ele></trkpt>
<trkpt lon="-5.026390" lat="43.455372"><ele>35.5</ele></trkpt>
<trkpt lon="-5.027317" lat="43.455496"><ele>35.5</ele></trkpt>
<trkpt lon="-5.027575" lat="43.455499"><ele>36.5</ele></trkpt>
<trkpt lon="-5.027873" lat="43.455535"><ele>38.5</ele></trkpt>
<trkpt lon="-5.028629" lat="43.455937"><ele>39.75</ele></trkpt>
<trkpt lon="-5.029316" lat="43.456145"><ele>43.75</ele></trkpt>
<trkpt lon="-5.029463" lat="43.456241"><ele>44.5</ele></trkpt>
<trkpt lon="-5.029909" lat="43.456414"><ele>44.5</ele></trkpt>
<trkpt lon="-5.031183" lat="43.456778"><ele>47.75</ele></trkpt>
<trkpt lon="-5.031434" lat="43.456891"><ele>49.0</ele></trkpt>
<trkpt lon="-5.032286" lat="43.457236"><ele>48.0</ele></trkpt>
<trkpt lon="-5.032950" lat="43.457479"><ele>48.75</ele></trkpt>
<trkpt lon="-5.033227" lat="43.457456"><ele>48.75</ele></trkpt>
<trkpt lon="-5.033472" lat="43.457314"><ele>47.5</ele></trkpt>
<trkpt lon="-5.033637" lat="43.457290"><ele>46.75</ele></trkpt>
<trkpt lon="-5.034062" lat="43.457256"><ele>46.25</ele></trkpt>
<trkpt lon="-5.034678" lat="43.457258"><ele>46.0</ele></trkpt>
<trkpt lon="-5.034897" lat="43.457281"><ele>45.25</ele></trkpt>
<trkpt lon="-5.035048" lat="43.457319"><ele>44.75</ele></trkpt>
<trkpt lon="-5.035386" lat="43.457319"><ele>44.25</ele></trkpt>
<trkpt lon="-5.036001" lat="43.457182"><ele>44.25</ele></trkpt>
<trkpt lon="-5.036302" lat="43.457187"><ele>45.0</ele></trkpt>
<trkpt lon="-5.036743" lat="43.457343"><ele>44.5</ele></trkpt>
<trkpt lon="-5.037125" lat="43.457440"><ele>44.75</ele></trkpt>
<trkpt lon="-5.037805" lat="43.457561"><ele>43.25</ele></trkpt>
<trkpt lon="-5.038029" lat="43.457592"><ele>42.5</ele></trkpt>
<trkpt lon="-5.038351" lat="43.457620"><ele>40.0</ele></trkpt>
<trkpt lon="-5.038427" lat="43.457654"><ele>39.25</ele></trkpt>
<trkpt lon="-5.038610" lat="43.457678"><ele>38.0</ele></trkpt>
<trkpt lon="-5.038703" lat="43.457706"><ele>37.25</ele></trkpt>
<trkpt lon="-5.038783" lat="43.457748"><ele>36.5</ele></trkpt>
<trkpt lon="-5.039069" lat="43.457955"><ele>34.25</ele></trkpt>
<trkpt lon="-5.038991" lat="43.458072"><ele>34.5</ele></trkpt>
<trkpt lon="-5.038961" lat="43.458151"><ele>34.75</ele></trkpt>
<trkpt lon="-5.038975" lat="43.458230"><ele>34.75</ele></trkpt>
<trkpt lon="-5.039008" lat="43.458279"><ele>34.75</ele></trkpt>
<trkpt lon="-5.039094" lat="43.458351"><ele>35.0</ele></trkpt>
<trkpt lon="-5.039143" lat="43.458369"><ele>35.0</ele></trkpt>
<trkpt lon="-5.039236" lat="43.458392"><ele>35.25</ele></trkpt>
<trkpt lon="-5.039515" lat="43.458436"><ele>35.75</ele></trkpt>
<trkpt lon="-5.039615" lat="43.458457"><ele>36.5</ele></trkpt>
<trkpt lon="-5.039688" lat="43.458480"><ele>36.75</ele></trkpt>
<trkpt lon="-5.039739" lat="43.458509"><ele>37.25</ele></trkpt>
<trkpt lon="-5.039778" lat="43.458544"><ele>37.5</ele></trkpt>
<trkpt lon="-5.039825" lat="43.458631"><ele>38.25</ele></trkpt>
<trkpt lon="-5.039828" lat="43.458681"><ele>38.75</ele></trkpt>
<trkpt lon="-5.039809" lat="43.458736"><ele>39.0</ele></trkpt>
<trkpt lon="-5.039776" lat="43.458787"><ele>39.25</ele></trkpt>
<trkpt lon="-5.039658" lat="43.458927"><ele>40.0</ele></trkpt>
<trkpt lon="-5.039582" lat="43.458998"><ele>40.25</ele></trkpt>
<trkpt lon="-5.039405" lat="43.459141"><ele>41.75</ele></trkpt>
<trkpt lon="-5.039310" lat="43.459196"><ele>42.5</ele></trkpt>
<trkpt lon="-5.038990" lat="43.459329"><ele>44.25</ele></trkpt>
<trkpt lon="-5.038958" lat="43.459355"><ele>44.5</ele></trkpt>
<trkpt lon="-5.038922" lat="43.459404"><ele>45.25</ele></trkpt>
<trkpt lon="-5.038848" lat="43.459442"><ele>45.75</ele></trkpt>
<trkpt lon="-5.038806" lat="43.459474"><ele>46.25</ele></trkpt>
<trkpt lon="-5.038735" lat="43.459597"><ele>48.25</ele></trkpt>
<trkpt lon="-5.038691" lat="43.459629"><ele>49.0</ele></trkpt>
<trkpt lon="-5.038676" lat="43.459660"><ele>49.5</ele></trkpt>
<trkpt lon="-5.038683" lat="43.459775"><ele>51.5</ele></trkpt>
<trkpt lon="-5.038678" lat="43.459828"><ele>52.0</ele></trkpt>
<trkpt lon="-5.038692" lat="43.459924"><ele>53.25</ele></trkpt>
<trkpt lon="-5.038849" lat="43.460239"><ele>55.0</ele></trkpt>
<trkpt lon="-5.038860" lat="43.460324"><ele>56.0</ele></trkpt>
<trkpt lon="-5.038838" lat="43.460394"><ele>57.25</ele></trkpt>
<trkpt lon="-5.038798" lat="43.460479"><ele>58.5</ele></trkpt>
<trkpt lon="-5.038780" lat="43.460572"><ele>59.25</ele></trkpt>
<trkpt lon="-5.038799" lat="43.460687"><ele>57.0</ele></trkpt>
<trkpt lon="-5.038932" lat="43.460689"><ele>58.75</ele></trkpt>
<trkpt lon="-5.039012" lat="43.460680"><ele>59.25</ele></trkpt>
<trkpt lon="-5.039359" lat="43.460724"><ele>59.75</ele></trkpt>
<trkpt lon="-5.039419" lat="43.460706"><ele>60.25</ele></trkpt>
<trkpt lon="-5.039499" lat="43.460701"><ele>60.5</ele></trkpt>
<trkpt lon="-5.039592" lat="43.460706"><ele>60.75</ele></trkpt>
<trkpt lon="-5.039702" lat="43.460733"><ele>61.0</ele></trkpt>
<trkpt lon="-5.039788" lat="43.460734"><ele>61.25</ele></trkpt>
<trkpt lon="-5.039886" lat="43.460715"><ele>62.0</ele></trkpt>
<trkpt lon="-5.040128" lat="43.460748"><ele>62.5</ele></trkpt>
<trkpt lon="-5.040145" lat="43.460779"><ele>63.0</ele></trkpt>
<trkpt lon="-5.040127" lat="43.460827"><ele>63.25</ele></trkpt>
<trkpt lon="-5.040145" lat="43.460858"><ele>62.75</ele></trkpt>
<trkpt lon="-5.040139" lat="43.460900"><ele>61.75</ele></trkpt>
<trkpt lon="-5.040161" lat="43.460945"><ele>61.0</ele></trkpt>
<trkpt lon="-5.040215" lat="43.461018"><ele>60.5</ele></trkpt>
<trkpt lon="-5.040338" lat="43.461149"><ele>59.0</ele></trkpt>
<trkpt lon="-5.040380" lat="43.461221"><ele>55.5</ele></trkpt>
<trkpt lon="-5.040433" lat="43.461239"><ele>55.75</ele></trkpt>
<trkpt lon="-5.040468" lat="43.461244"><ele>56.25</ele></trkpt>
<trkpt lon="-5.040704" lat="43.461376"><ele>56.0</ele></trkpt>
<trkpt lon="-5.040746" lat="43.461388"><ele>56.25</ele></trkpt>
<trkpt lon="-5.040797" lat="43.461393"><ele>56.75</ele></trkpt>
<trkpt lon="-5.040849" lat="43.461390"><ele>57.75</ele></trkpt>
<trkpt lon="-5.041060" lat="43.461442"><ele>55.75</ele></trkpt>
<trkpt lon="-5.041139" lat="43.461453"><ele>56.25</ele></trkpt>
<trkpt lon="-5.041392" lat="43.461540"><ele>57.0</ele></trkpt>
<trkpt lon="-5.041591" lat="43.461667"><ele>56.5</ele></trkpt>
<trkpt lon="-5.041783" lat="43.461733"><ele>56.0</ele></trkpt>
<trkpt lon="-5.041903" lat="43.461767"><ele>55.75</ele></trkpt>
<trkpt lon="-5.042006" lat="43.461816"><ele>54.0</ele></trkpt>
<trkpt lon="-5.042052" lat="43.461849"><ele>52.5</ele></trkpt>
<trkpt lon="-5.042100" lat="43.461847"><ele>52.75</ele></trkpt>
<trkpt lon="-5.042159" lat="43.461834"><ele>53.75</ele></trkpt>
<trkpt lon="-5.042206" lat="43.461806"><ele>55.25</ele></trkpt>
<trkpt lon="-5.042339" lat="43.461798"><ele>54.5</ele></trkpt>
<trkpt lon="-5.042389" lat="43.461778"><ele>55.0</ele></trkpt>
<trkpt lon="-5.042495" lat="43.461718"><ele>57.25</ele></trkpt>
<trkpt lon="-5.042522" lat="43.461689"><ele>58.25</ele></trkpt>
<trkpt lon="-5.042539" lat="43.461644"><ele>59.75</ele></trkpt>
<trkpt lon="-5.042544" lat="43.461613"><ele>61.0</ele></trkpt>
<trkpt lon="-5.042530" lat="43.461586"><ele>62.0</ele></trkpt>
<trkpt lon="-5.042542" lat="43.461550"><ele>63.25</ele></trkpt>
<trkpt lon="-5.042559" lat="43.461519"><ele>64.25</ele></trkpt>
<trkpt lon="-5.042587" lat="43.461508"><ele>64.5</ele></trkpt>
<trkpt lon="-5.042759" lat="43.461499"><ele>63.75</ele></trkpt>
<trkpt lon="-5.042822" lat="43.461483"><ele>64.0</ele></trkpt>
<trkpt lon="-5.042901" lat="43.461473"><ele>64.0</ele></trkpt>
<trkpt lon="-5.043003" lat="43.461441"><ele>65.25</ele></trkpt>
<trkpt lon="-5.043219" lat="43.461406"><ele>66.75</ele></trkpt>
<trkpt lon="-5.043284" lat="43.461405"><ele>66.5</ele></trkpt>
<trkpt lon="-5.043448" lat="43.461430"><ele>61.25</ele></trkpt>
<trkpt lon="-5.043634" lat="43.461407"><ele>63.0</ele></trkpt>
<trkpt lon="-5.043796" lat="43.461400"><ele>59.5</ele></trkpt>
<trkpt lon="-5.043916" lat="43.461352"><ele>56.25</ele></trkpt>
<trkpt lon="-5.044037" lat="43.461285"><ele>48.5</ele></trkpt>
<trkpt lon="-5.044118" lat="43.461252"><ele>46.0</ele></trkpt>
<trkpt lon="-5.044345" lat="43.461182"><ele>48.75</ele></trkpt>
<trkpt lon="-5.044383" lat="43.461152"><ele>52.25</ele></trkpt>
<trkpt lon="-5.044438" lat="43.461133"><ele>54.0</ele></trkpt>
<trkpt lon="-5.044531" lat="43.461121"><ele>54.5</ele></trkpt>
<trkpt lon="-5.044863" lat="43.461056"><ele>51.5</ele></trkpt>
<trkpt lon="-5.045067" lat="43.461038"><ele>50.5</ele></trkpt>
<trkpt lon="-5.045175" lat="43.461053"><ele>50.75</ele></trkpt>
<trkpt lon="-5.045213" lat="43.461052"><ele>50.75</ele></trkpt>
<trkpt lon="-5.045366" lat="43.461111"><ele>50.5</ele></trkpt>
<trkpt lon="-5.045466" lat="43.461158"><ele>46.5</ele></trkpt>
<trkpt lon="-5.045610" lat="43.461183"><ele>45.5</ele></trkpt>
<trkpt lon="-5.045661" lat="43.461185"><ele>46.5</ele></trkpt>
<trkpt lon="-5.045739" lat="43.461163"><ele>49.5</ele></trkpt>
<trkpt lon="-5.045858" lat="43.461167"><ele>51.5</ele></trkpt>
<trkpt lon="-5.046133" lat="43.461315"><ele>55.0</ele></trkpt>
<trkpt lon="-5.046231" lat="43.461386"><ele>56.5</ele></trkpt>
<trkpt lon="-5.046348" lat="43.461428"><ele>58.0</ele></trkpt>
<trkpt lon="-5.046385" lat="43.461486"><ele>58.5</ele></trkpt>
<trkpt lon="-5.046685" lat="43.461758"><ele>67.0</ele></trkpt>
<trkpt lon="-5.046824" lat="43.461930"><ele>70.75</ele></trkpt>
<trkpt lon="-5.047060" lat="43.462118"><ele>68.75</ele></trkpt>
<trkpt lon="-5.047380" lat="43.462391"><ele>78.5</ele></trkpt>
<trkpt lon="-5.047504" lat="43.462489"><ele>81.75</ele></trkpt>
<trkpt lon="-5.047592" lat="43.462547"><ele>80.5</ele></trkpt>
<trkpt lon="-5.047732" lat="43.462587"><ele>81.75</ele></trkpt>
<trkpt lon="-5.047880" lat="43.462606"><ele>82.25</ele></trkpt>
<trkpt lon="-5.048062" lat="43.462604"><ele>81.75</ele></trkpt>
<trkpt lon="-5.048161" lat="43.462567"><ele>81.0</ele></trkpt>
<trkpt lon="-5.048526" lat="43.462310"><ele>78.25</ele></trkpt>
<trkpt lon="-5.048865" lat="43.462109"><ele>69.75</ele></trkpt>
<trkpt lon="-5.049300" lat="43.461999"><ele>63.5</ele></trkpt>
<trkpt lon="-5.049390" lat="43.461956"><ele>65.5</ele></trkpt>
<trkpt lon="-5.049562" lat="43.461936"><ele>67.0</ele></trkpt>
<trkpt lon="-5.050049" lat="43.461947"><ele>70.75</ele></trkpt>
<trkpt lon="-5.050382" lat="43.461986"><ele>70.25</ele></trkpt>
<trkpt lon="-5.050541" lat="43.462053"><ele>71.25</ele></trkpt>
<trkpt lon="-5.050897" lat="43.462184"><ele>77.0</ele></trkpt>
<trkpt lon="-5.051047" lat="43.462302"><ele>75.5</ele></trkpt>
<trkpt lon="-5.051189" lat="43.462366"><ele>76.25</ele></trkpt>
<trkpt lon="-5.051576" lat="43.462476"><ele>87.5</ele></trkpt>
<trkpt lon="-5.052052" lat="43.462627"><ele>91.75</ele></trkpt>
<trkpt lon="-5.052308" lat="43.462786"><ele>94.75</ele></trkpt>
<trkpt lon="-5.052403" lat="43.462916"><ele>90.0</ele></trkpt>
<trkpt lon="-5.052605" lat="43.463043"><ele>89.75</ele></trkpt>
<trkpt lon="-5.052820" lat="43.463084"><ele>87.0</ele></trkpt>
<trkpt lon="-5.053016" lat="43.463158"><ele>77.25</ele></trkpt>
<trkpt lon="-5.053157" lat="43.463181"><ele>75.0</ele></trkpt>
<trkpt lon="-5.053258" lat="43.463240"><ele>73.5</ele></trkpt>
<trkpt lon="-5.053503" lat="43.463461"><ele>62.0</ele></trkpt>
<trkpt lon="-5.053540" lat="43.463467"><ele>61.75</ele></trkpt>
<trkpt lon="-5.053655" lat="43.463524"><ele>59.0</ele></trkpt>
<trkpt lon="-5.053723" lat="43.463512"><ele>59.0</ele></trkpt>
<trkpt lon="-5.053842" lat="43.463527"><ele>58.0</ele></trkpt>
<trkpt lon="-5.053975" lat="43.463604"><ele>55.0</ele></trkpt>
<trkpt lon="-5.053975" lat="43.463646"><ele>49.0</ele></trkpt>
<trkpt lon="-5.054018" lat="43.463653"><ele>47.25</ele></trkpt>
<trkpt lon="-5.054081" lat="43.463627"><ele>50.25</ele></trkpt>
<trkpt lon="-5.054159" lat="43.463623"><ele>49.5</ele></trkpt>
<trkpt lon="-5.054295" lat="43.463671"><ele>40.25</ele></trkpt>
<trkpt lon="-5.054431" lat="43.463662"><ele>38.75</ele></trkpt>
<trkpt lon="-5.054497" lat="43.463622"><ele>40.75</ele></trkpt>
<trkpt lon="-5.054647" lat="43.463598"><ele>36.0</ele></trkpt>
<trkpt lon="-5.054838" lat="43.463781"><ele>19.75</ele></trkpt>
<trkpt lon="-5.054953" lat="43.463838"><ele>18.75</ele></trkpt>
<trkpt lon="-5.055016" lat="43.463666"><ele>20.0</ele></trkpt>
<trkpt lon="-5.055001" lat="43.463612"><ele>20.75</ele></trkpt>
<trkpt lon="-5.055135" lat="43.463387"><ele>18.0</ele></trkpt>
<trkpt lon="-5.055010" lat="43.463340"><ele>21.5</ele></trkpt>
<trkpt lon="-5.054996" lat="43.463248"><ele>23.0</ele></trkpt>
<trkpt lon="-5.055020" lat="43.463174"><ele>23.0</ele></trkpt>
<trkpt lon="-5.055271" lat="43.462826"><ele>20.25</ele></trkpt>
<trkpt lon="-5.055333" lat="43.462806"><ele>20.0</ele></trkpt>
<trkpt lon="-5.055401" lat="43.462819"><ele>19.25</ele></trkpt>
<trkpt lon="-5.055504" lat="43.462571"><ele>25.25</ele></trkpt>
<trkpt lon="-5.055699" lat="43.461957"><ele>39.75</ele></trkpt>
  </trkseg></trk></gpx>
