<?xml version="1.0" encoding="UTF-8"?>
<gpx version="1.1" creator="compostel-brouter" xmlns="http://www.topografix.com/GPX/1/1">
  <metadata><name>ES-38-O-Pedrouzo</name></metadata>
  <trk><name>ES-38-O-Pedrouzo</name><trkseg>
<trkpt lon="-8.163184" lat="42.930044"><ele>387.75</ele></trkpt>
<trkpt lon="-8.163219" lat="42.929965"><ele>388.0</ele></trkpt>
<trkpt lon="-8.163559" lat="42.929042"><ele>388.5</ele></trkpt>
<trkpt lon="-8.163576" lat="42.929006"><ele>388.75</ele></trkpt>
<trkpt lon="-8.163494" lat="42.928982"><ele>389.0</ele></trkpt>
<trkpt lon="-8.163459" lat="42.928962"><ele>389.25</ele></trkpt>
<trkpt lon="-8.163404" lat="42.928897"><ele>389.5</ele></trkpt>
<trkpt lon="-8.162929" lat="42.928707"><ele>392.25</ele></trkpt>
<trkpt lon="-8.162935" lat="42.928654"><ele>392.25</ele></trkpt>
<trkpt lon="-8.162966" lat="42.928409"><ele>392.5</ele></trkpt>
<trkpt lon="-8.163037" lat="42.927812"><ele>391.0</ele></trkpt>
<trkpt lon="-8.163077" lat="42.927803"><ele>391.0</ele></trkpt>
<trkpt lon="-8.163080" lat="42.927772"><ele>390.75</ele></trkpt>
<trkpt lon="-8.163086" lat="42.927710"><ele>390.5</ele></trkpt>
<trkpt lon="-8.163195" lat="42.926737"><ele>386.25</ele></trkpt>
<trkpt lon="-8.163246" lat="42.926728"><ele>386.0</ele></trkpt>
<trkpt lon="-8.163531" lat="42.926783"><ele>386.5</ele></trkpt>
<trkpt lon="-8.163544" lat="42.926746"><ele>386.0</ele></trkpt>
<trkpt lon="-8.163560" lat="42.926703"><ele>385.5</ele></trkpt>
<trkpt lon="-8.163313" lat="42.926657"><ele>385.75</ele></trkpt>
<trkpt lon="-8.163370" lat="42.926510"><ele>385.25</ele></trkpt>
<trkpt lon="-8.163430" lat="42.926423"><ele>384.75</ele></trkpt>
<trkpt lon="-8.163434" lat="42.926232"><ele>383.5</ele></trkpt>
<trkpt lon="-8.163434" lat="42.926215"><ele>383.5</ele></trkpt>
<trkpt lon="-8.163833" lat="42.926223"><ele>382.5</ele></trkpt>
<trkpt lon="-8.164087" lat="42.926225"><ele>380.75</ele></trkpt>
<trkpt lon="-8.164214" lat="42.926225"><ele>380.25</ele></trkpt>
<trkpt lon="-8.164397" lat="42.926226"><ele>380.0</ele></trkpt>
<trkpt lon="-8.164441" lat="42.926227"><ele>380.0</ele></trkpt>
<trkpt lon="-8.164696" lat="42.926228"><ele>378.5</ele></trkpt>
<trkpt lon="-8.164731" lat="42.926245"><ele>378.25</ele></trkpt>
<trkpt lon="-8.164926" lat="42.926340"><ele>376.5</ele></trkpt>
<trkpt lon="-8.165106" lat="42.926318"><ele>375.5</ele></trkpt>
<trkpt lon="-8.165315" lat="42.926293"><ele>374.25</ele></trkpt>
<trkpt lon="-8.165513" lat="42.926307"><ele>372.5</ele></trkpt>
<trkpt lon="-8.165688" lat="42.926360"><ele>371.0</ele></trkpt>
<trkpt lon="-8.165830" lat="42.926418"><ele>370.0</ele></trkpt>
<trkpt lon="-8.165915" lat="42.926452"><ele>369.5</ele></trkpt>
<trkpt lon="-8.166194" lat="42.926587"><ele>367.75</ele></trkpt>
<trkpt lon="-8.166556" lat="42.926709"><ele>365.25</ele></trkpt>
<trkpt lon="-8.166816" lat="42.926775"><ele>363.75</ele></trkpt>
<trkpt lon="-8.167109" lat="42.926807"><ele>361.5</ele></trkpt>
<trkpt lon="-8.167977" lat="42.926784"><ele>353.5</ele></trkpt>
<trkpt lon="-8.169005" lat="42.926979"><ele>343.5</ele></trkpt>
<trkpt lon="-8.169456" lat="42.927075"><ele>340.25</ele></trkpt>
<trkpt lon="-8.169900" lat="42.927160"><ele>336.75</ele></trkpt>
<trkpt lon="-8.170040" lat="42.927161"><ele>335.25</ele></trkpt>
<trkpt lon="-8.170370" lat="42.927090"><ele>333.5</ele></trkpt>
<trkpt lon="-8.170592" lat="42.927047"><ele>333.25</ele></trkpt>
<trkpt lon="-8.171025" lat="42.927011"><ele>334.5</ele></trkpt>
<trkpt lon="-8.171505" lat="42.927033"><ele>338.5</ele></trkpt>
<trkpt lon="-8.171803" lat="42.927084"><ele>341.75</ele></trkpt>
<trkpt lon="-8.172601" lat="42.927304"><ele>347.5</ele></trkpt>
<trkpt lon="-8.172755" lat="42.927351"><ele>348.25</ele></trkpt>
<trkpt lon="-8.173050" lat="42.927412"><ele>349.75</ele></trkpt>
<trkpt lon="-8.173269" lat="42.927483"><ele>351.25</ele></trkpt>
<trkpt lon="-8.173436" lat="42.927501"><ele>352.0</ele></trkpt>
<trkpt lon="-8.173517" lat="42.927481"><ele>351.75</ele></trkpt>
<trkpt lon="-8.173642" lat="42.927449"><ele>351.75</ele></trkpt>
<trkpt lon="-8.173846" lat="42.927359"><ele>351.25</ele></trkpt>
<trkpt lon="-8.174008" lat="42.927175"><ele>350.25</ele></trkpt>
<trkpt lon="-8.174063" lat="42.927094"><ele>350.0</ele></trkpt>
<trkpt lon="-8.174104" lat="42.926936"><ele>350.0</ele></trkpt>
<trkpt lon="-8.174147" lat="42.926693"><ele>350.0</ele></trkpt>
<trkpt lon="-8.174188" lat="42.926585"><ele>349.5</ele></trkpt>
<trkpt lon="-8.174243" lat="42.926499"><ele>349.25</ele></trkpt>
<trkpt lon="-8.174460" lat="42.926357"><ele>349.0</ele></trkpt>
<trkpt lon="-8.174776" lat="42.926228"><ele>348.75</ele></trkpt>
<trkpt lon="-8.175561" lat="42.925935"><ele>346.5</ele></trkpt>
<trkpt lon="-8.176065" lat="42.925737"><ele>345.5</ele></trkpt>
<trkpt lon="-8.177255" lat="42.925346"><ele>336.75</ele></trkpt>
<trkpt lon="-8.177383" lat="42.925314"><ele>336.25</ele></trkpt>
<trkpt lon="-8.178334" lat="42.925268"><ele>328.75</ele></trkpt>
<trkpt lon="-8.178777" lat="42.925261"><ele>324.75</ele></trkpt>
<trkpt lon="-8.179147" lat="42.925282"><ele>322.0</ele></trkpt>
<trkpt lon="-8.179324" lat="42.925308"><ele>322.25</ele></trkpt>
<trkpt lon="-8.179716" lat="42.925428"><ele>320.75</ele></trkpt>
<trkpt lon="-8.180080" lat="42.925572"><ele>315.25</ele></trkpt>
<trkpt lon="-8.180144" lat="42.925617"><ele>314.75</ele></trkpt>
<trkpt lon="-8.180233" lat="42.925625"><ele>313.75</ele></trkpt>
<trkpt lon="-8.180326" lat="42.925595"><ele>312.75</ele></trkpt>
<trkpt lon="-8.180395" lat="42.925537"><ele>312.25</ele></trkpt>
<trkpt lon="-8.180443" lat="42.925382"><ele>312.0</ele></trkpt>
<trkpt lon="-8.180457" lat="42.925169"><ele>312.0</ele></trkpt>
<trkpt lon="-8.180495" lat="42.925002"><ele>311.25</ele></trkpt>
<trkpt lon="-8.180595" lat="42.924886"><ele>309.5</ele></trkpt>
<trkpt lon="-8.180841" lat="42.924781"><ele>309.0</ele></trkpt>
<trkpt lon="-8.181168" lat="42.924717"><ele>308.75</ele></trkpt>
<trkpt lon="-8.181264" lat="42.924701"><ele>308.75</ele></trkpt>
<trkpt lon="-8.181899" lat="42.924633"><ele>309.25</ele></trkpt>
<trkpt lon="-8.182328" lat="42.924580"><ele>312.0</ele></trkpt>
<trkpt lon="-8.182540" lat="42.924566"><ele>314.75</ele></trkpt>
<trkpt lon="-8.182740" lat="42.924544"><ele>318.0</ele></trkpt>
<trkpt lon="-8.182973" lat="42.924446"><ele>321.0</ele></trkpt>
<trkpt lon="-8.183221" lat="42.924318"><ele>323.75</ele></trkpt>
<trkpt lon="-8.183393" lat="42.924251"><ele>325.75</ele></trkpt>
<trkpt lon="-8.183684" lat="42.924224"><ele>328.25</ele></trkpt>
<trkpt lon="-8.184025" lat="42.924236"><ele>331.25</ele></trkpt>
<trkpt lon="-8.184337" lat="42.924171"><ele>333.5</ele></trkpt>
<trkpt lon="-8.184663" lat="42.923987"><ele>333.5</ele></trkpt>
<trkpt lon="-8.184814" lat="42.923669"><ele>334.75</ele></trkpt>
<trkpt lon="-8.184882" lat="42.923452"><ele>334.5</ele></trkpt>
<trkpt lon="-8.184962" lat="42.923159"><ele>334.25</ele></trkpt>
<trkpt lon="-8.185018" lat="42.923022"><ele>333.75</ele></trkpt>
<trkpt lon="-8.185049" lat="42.922959"><ele>333.75</ele></trkpt>
<trkpt lon="-8.185094" lat="42.922899"><ele>333.5</ele></trkpt>
<trkpt lon="-8.185143" lat="42.922836"><ele>333.75</ele></trkpt>
<trkpt lon="-8.185207" lat="42.922779"><ele>333.75</ele></trkpt>
<trkpt lon="-8.185310" lat="42.922730"><ele>333.75</ele></trkpt>
<trkpt lon="-8.185487" lat="42.922651"><ele>333.25</ele></trkpt>
<trkpt lon="-8.185625" lat="42.922616"><ele>334.0</ele></trkpt>
<trkpt lon="-8.185732" lat="42.922620"><ele>334.75</ele></trkpt>
<trkpt lon="-8.185832" lat="42.922643"><ele>335.25</ele></trkpt>
<trkpt lon="-8.186071" lat="42.922675"><ele>336.5</ele></trkpt>
<trkpt lon="-8.186286" lat="42.922681"><ele>337.5</ele></trkpt>
<trkpt lon="-8.186592" lat="42.922630"><ele>340.5</ele></trkpt>
<trkpt lon="-8.186851" lat="42.922586"><ele>342.25</ele></trkpt>
<trkpt lon="-8.186919" lat="42.922592"><ele>342.75</ele></trkpt>
<trkpt lon="-8.186989" lat="42.922607"><ele>343.0</ele></trkpt>
<trkpt lon="-8.187093" lat="42.922684"><ele>343.5</ele></trkpt>
<trkpt lon="-8.187202" lat="42.922728"><ele>343.75</ele></trkpt>
<trkpt lon="-8.187396" lat="42.922764"><ele>345.25</ele></trkpt>
<trkpt lon="-8.187636" lat="42.922771"><ele>346.75</ele></trkpt>
<trkpt lon="-8.187782" lat="42.922789"><ele>348.0</ele></trkpt>
<trkpt lon="-8.187864" lat="42.922831"><ele>349.75</ele></trkpt>
<trkpt lon="-8.187991" lat="42.923015"><ele>352.25</ele></trkpt>
<trkpt lon="-8.188027" lat="42.923040"><ele>352.75</ele></trkpt>
<trkpt lon="-8.188099" lat="42.923072"><ele>353.5</ele></trkpt>
<trkpt lon="-8.188284" lat="42.923172"><ele>357.0</ele></trkpt>
<trkpt lon="-8.188315" lat="42.923180"><ele>357.5</ele></trkpt>
<trkpt lon="-8.188349" lat="42.923158"><ele>357.75</ele></trkpt>
<trkpt lon="-8.188453" lat="42.923057"><ele>358.5</ele></trkpt>
<trkpt lon="-8.188536" lat="42.923020"><ele>359.5</ele></trkpt>
<trkpt lon="-8.188572" lat="42.923018"><ele>360.0</ele></trkpt>
<trkpt lon="-8.188604" lat="42.923033"><ele>360.5</ele></trkpt>
<trkpt lon="-8.188713" lat="42.923254"><ele>362.75</ele></trkpt>
<trkpt lon="-8.189325" lat="42.924623"><ele>366.0</ele></trkpt>
<trkpt lon="-8.189919" lat="42.925951"><ele>369.75</ele></trkpt>
<trkpt lon="-8.190008" lat="42.926070"><ele>370.0</ele></trkpt>
<trkpt lon="-8.190076" lat="42.926128"><ele>370.0</ele></trkpt>
<trkpt lon="-8.190178" lat="42.926163"><ele>370.0</ele></trkpt>
<trkpt lon="-8.190342" lat="42.926173"><ele>370.75</ele></trkpt>
<trkpt lon="-8.192894" lat="42.926149"><ele>380.5</ele></trkpt>
<trkpt lon="-8.194047" lat="42.926452"><ele>384.25</ele></trkpt>
<trkpt lon="-8.194411" lat="42.926531"><ele>384.5</ele></trkpt>
<trkpt lon="-8.194607" lat="42.926562"><ele>384.75</ele></trkpt>
<trkpt lon="-8.194818" lat="42.926579"><ele>384.75</ele></trkpt>
<trkpt lon="-8.194913" lat="42.926607"><ele>384.75</ele></trkpt>
<trkpt lon="-8.194985" lat="42.926663"><ele>385.0</ele></trkpt>
<trkpt lon="-8.195054" lat="42.926680"><ele>385.25</ele></trkpt>
<trkpt lon="-8.195195" lat="42.926672"><ele>385.5</ele></trkpt>
<trkpt lon="-8.195746" lat="42.926591"><ele>386.0</ele></trkpt>
<trkpt lon="-8.195877" lat="42.926607"><ele>386.25</ele></trkpt>
<trkpt lon="-8.196013" lat="42.926582"><ele>386.25</ele></trkpt>
<trkpt lon="-8.196219" lat="42.926473"><ele>385.5</ele></trkpt>
<trkpt lon="-8.196486" lat="42.926293"><ele>384.75</ele></trkpt>
<trkpt lon="-8.196845" lat="42.926133"><ele>382.75</ele></trkpt>
<trkpt lon="-8.197593" lat="42.925912"><ele>378.5</ele></trkpt>
<trkpt lon="-8.197809" lat="42.925890"><ele>375.25</ele></trkpt>
<trkpt lon="-8.197960" lat="42.925925"><ele>374.0</ele></trkpt>
<trkpt lon="-8.198039" lat="42.926005"><ele>373.75</ele></trkpt>
<trkpt lon="-8.198245" lat="42.926187"><ele>371.5</ele></trkpt>
<trkpt lon="-8.198584" lat="42.926397"><ele>365.5</ele></trkpt>
<trkpt lon="-8.198799" lat="42.926581"><ele>362.0</ele></trkpt>
<trkpt lon="-8.199032" lat="42.926819"><ele>359.5</ele></trkpt>
<trkpt lon="-8.199336" lat="42.927063"><ele>356.75</ele></trkpt>
<trkpt lon="-8.199903" lat="42.927294"><ele>352.0</ele></trkpt>
<trkpt lon="-8.200847" lat="42.927664"><ele>349.75</ele></trkpt>
<trkpt lon="-8.200966" lat="42.927703"><ele>351.25</ele></trkpt>
<trkpt lon="-8.201023" lat="42.927700"><ele>351.75</ele></trkpt>
<trkpt lon="-8.201122" lat="42.927649"><ele>353.0</ele></trkpt>
<trkpt lon="-8.201300" lat="42.927632"><ele>354.5</ele></trkpt>
<trkpt lon="-8.201449" lat="42.927668"><ele>355.75</ele></trkpt>
<trkpt lon="-8.201680" lat="42.927756"><ele>357.0</ele></trkpt>
<trkpt lon="-8.201905" lat="42.927822"><ele>359.75</ele></trkpt>
<trkpt lon="-8.202071" lat="42.927829"><ele>361.25</ele></trkpt>
<trkpt lon="-8.202225" lat="42.927825"><ele>363.0</ele></trkpt>
<trkpt lon="-8.202669" lat="42.927751"><ele>366.75</ele></trkpt>
<trkpt lon="-8.203337" lat="42.927619"><ele>372.0</ele></trkpt>
<trkpt lon="-8.203719" lat="42.927534"><ele>373.75</ele></trkpt>
<trkpt lon="-8.204045" lat="42.927485"><ele>376.0</ele></trkpt>
<trkpt lon="-8.204409" lat="42.927463"><ele>378.5</ele></trkpt>
<trkpt lon="-8.205085" lat="42.927462"><ele>382.25</ele></trkpt>
<trkpt lon="-8.205532" lat="42.927440"><ele>384.5</ele></trkpt>
<trkpt lon="-8.206036" lat="42.927476"><ele>386.5</ele></trkpt>
<trkpt lon="-8.206239" lat="42.927511"><ele>387.5</ele></trkpt>
<trkpt lon="-8.206562" lat="42.927514"><ele>388.5</ele></trkpt>
<trkpt lon="-8.206851" lat="42.927530"><ele>389.0</ele></trkpt>
<trkpt lon="-8.207110" lat="42.927572"><ele>390.0</ele></trkpt>
<trkpt lon="-8.207375" lat="42.927590"><ele>391.0</ele></trkpt>
<trkpt lon="-8.207771" lat="42.927576"><ele>392.5</ele></trkpt>
<trkpt lon="-8.207849" lat="42.927556"><ele>392.5</ele></trkpt>
<trkpt lon="-8.207956" lat="42.927594"><ele>393.0</ele></trkpt>
<trkpt lon="-8.208366" lat="42.927762"><ele>395.0</ele></trkpt>
<trkpt lon="-8.208927" lat="42.928038"><ele>398.0</ele></trkpt>
<trkpt lon="-8.209639" lat="42.928336"><ele>401.0</ele></trkpt>
<trkpt lon="-8.210184" lat="42.928518"><ele>401.75</ele></trkpt>
<trkpt lon="-8.210518" lat="42.928591"><ele>401.0</ele></trkpt>
<trkpt lon="-8.210866" lat="42.928643"><ele>400.0</ele></trkpt>
<trkpt lon="-8.213358" lat="42.928793"><ele>397.25</ele></trkpt>
<trkpt lon="-8.213655" lat="42.928801"><ele>397.25</ele></trkpt>
<trkpt lon="-8.214019" lat="42.928764"><ele>397.75</ele></trkpt>
<trkpt lon="-8.214158" lat="42.928730"><ele>397.75</ele></trkpt>
<trkpt lon="-8.214310" lat="42.928678"><ele>397.25</ele></trkpt>
<trkpt lon="-8.214875" lat="42.928365"><ele>398.5</ele></trkpt>
<trkpt lon="-8.215091" lat="42.928294"><ele>399.0</ele></trkpt>
<trkpt lon="-8.215520" lat="42.928106"><ele>399.25</ele></trkpt>
<trkpt lon="-8.215826" lat="42.927986"><ele>398.25</ele></trkpt>
<trkpt lon="-8.216300" lat="42.927811"><ele>395.75</ele></trkpt>
<trkpt lon="-8.216798" lat="42.927619"><ele>393.0</ele></trkpt>
<trkpt lon="-8.217108" lat="42.927507"><ele>391.5</ele></trkpt>
<trkpt lon="-8.217470" lat="42.927360"><ele>391.5</ele></trkpt>
<trkpt lon="-8.217681" lat="42.927275"><ele>390.5</ele></trkpt>
<trkpt lon="-8.217891" lat="42.927188"><ele>389.5</ele></trkpt>
<trkpt lon="-8.217957" lat="42.927140"><ele>389.25</ele></trkpt>
<trkpt lon="-8.218005" lat="42.927068"><ele>388.75</ele></trkpt>
<trkpt lon="-8.218034" lat="42.926990"><ele>388.25</ele></trkpt>
<trkpt lon="-8.218597" lat="42.926867"><ele>384.25</ele></trkpt>
<trkpt lon="-8.219601" lat="42.926593"><ele>379.5</ele></trkpt>
<trkpt lon="-8.221723" lat="42.925994"><ele>383.75</ele></trkpt>
<trkpt lon="-8.222037" lat="42.925905"><ele>384.5</ele></trkpt>
<trkpt lon="-8.222235" lat="42.925887"><ele>385.0</ele></trkpt>
<trkpt lon="-8.222317" lat="42.925879"><ele>385.5</ele></trkpt>
<trkpt lon="-8.222574" lat="42.925894"><ele>386.5</ele></trkpt>
<trkpt lon="-8.222784" lat="42.925905"><ele>387.5</ele></trkpt>
<trkpt lon="-8.222854" lat="42.925902"><ele>387.25</ele></trkpt>
<trkpt lon="-8.222907" lat="42.925899"><ele>387.25</ele></trkpt>
<trkpt lon="-8.223051" lat="42.925864"><ele>387.0</ele></trkpt>
<trkpt lon="-8.223151" lat="42.925829"><ele>387.25</ele></trkpt>
<trkpt lon="-8.223891" lat="42.925573"><ele>389.0</ele></trkpt>
<trkpt lon="-8.224063" lat="42.925519"><ele>388.75</ele></trkpt>
<trkpt lon="-8.224497" lat="42.925286"><ele>388.0</ele></trkpt>
<trkpt lon="-8.224728" lat="42.925189"><ele>387.5</ele></trkpt>
<trkpt lon="-8.225228" lat="42.925005"><ele>387.0</ele></trkpt>
<trkpt lon="-8.225779" lat="42.924786"><ele>385.5</ele></trkpt>
<trkpt lon="-8.226382" lat="42.924524"><ele>384.0</ele></trkpt>
<trkpt lon="-8.226527" lat="42.924400"><ele>383.25</ele></trkpt>
<trkpt lon="-8.226927" lat="42.924013"><ele>382.0</ele></trkpt>
<trkpt lon="-8.227236" lat="42.923844"><ele>382.0</ele></trkpt>
<trkpt lon="-8.227841" lat="42.923540"><ele>383.75</ele></trkpt>
<trkpt lon="-8.228122" lat="42.923427"><ele>385.5</ele></trkpt>
<trkpt lon="-8.228334" lat="42.923322"><ele>388.0</ele></trkpt>
<trkpt lon="-8.228747" lat="42.922973"><ele>391.0</ele></trkpt>
<trkpt lon="-8.229008" lat="42.922833"><ele>393.0</ele></trkpt>
<trkpt lon="-8.229239" lat="42.922724"><ele>394.5</ele></trkpt>
<trkpt lon="-8.229386" lat="42.922672"><ele>395.5</ele></trkpt>
<trkpt lon="-8.229811" lat="42.922549"><ele>396.0</ele></trkpt>
<trkpt lon="-8.230064" lat="42.922459"><ele>396.0</ele></trkpt>
<trkpt lon="-8.230301" lat="42.922358"><ele>396.5</ele></trkpt>
<trkpt lon="-8.230696" lat="42.922227"><ele>395.5</ele></trkpt>
<trkpt lon="-8.231410" lat="42.922020"><ele>391.5</ele></trkpt>
<trkpt lon="-8.231904" lat="42.921825"><ele>388.75</ele></trkpt>
<trkpt lon="-8.232492" lat="42.921572"><ele>386.75</ele></trkpt>
<trkpt lon="-8.233083" lat="42.921297"><ele>386.5</ele></trkpt>
<trkpt lon="-8.233470" lat="42.921090"><ele>386.0</ele></trkpt>
<trkpt lon="-8.233628" lat="42.920995"><ele>385.5</ele></trkpt>
<trkpt lon="-8.233988" lat="42.920865"><ele>384.0</ele></trkpt>
<trkpt lon="-8.234232" lat="42.920835"><ele>384.0</ele></trkpt>
<trkpt lon="-8.234371" lat="42.920831"><ele>383.75</ele></trkpt>
<trkpt lon="-8.234495" lat="42.920802"><ele>383.5</ele></trkpt>
<trkpt lon="-8.234627" lat="42.920795"><ele>383.5</ele></trkpt>
<trkpt lon="-8.235182" lat="42.920559"><ele>384.25</ele></trkpt>
<trkpt lon="-8.235623" lat="42.920385"><ele>385.75</ele></trkpt>
<trkpt lon="-8.235964" lat="42.920379"><ele>384.75</ele></trkpt>
<trkpt lon="-8.236281" lat="42.920387"><ele>382.75</ele></trkpt>
<trkpt lon="-8.236444" lat="42.920379"><ele>381.75</ele></trkpt>
<trkpt lon="-8.236997" lat="42.920376"><ele>377.75</ele></trkpt>
<trkpt lon="-8.237116" lat="42.920351"><ele>376.5</ele></trkpt>
<trkpt lon="-8.237255" lat="42.920267"><ele>374.75</ele></trkpt>
<trkpt lon="-8.237422" lat="42.920098"><ele>373.0</ele></trkpt>
<trkpt lon="-8.237512" lat="42.919936"><ele>371.5</ele></trkpt>
<trkpt lon="-8.237636" lat="42.919815"><ele>370.5</ele></trkpt>
<trkpt lon="-8.237729" lat="42.919765"><ele>370.0</ele></trkpt>
<trkpt lon="-8.239043" lat="42.919233"><ele>369.0</ele></trkpt>
<trkpt lon="-8.239677" lat="42.918934"><ele>365.75</ele></trkpt>
<trkpt lon="-8.239878" lat="42.918802"><ele>364.5</ele></trkpt>
<trkpt lon="-8.240055" lat="42.918634"><ele>362.25</ele></trkpt>
<trkpt lon="-8.240316" lat="42.918405"><ele>357.75</ele></trkpt>
<trkpt lon="-8.240339" lat="42.918327"><ele>357.5</ele></trkpt>
<trkpt lon="-8.240399" lat="42.918247"><ele>358.0</ele></trkpt>
<trkpt lon="-8.240543" lat="42.918134"><ele>357.5</ele></trkpt>
<trkpt lon="-8.240600" lat="42.918111"><ele>357.0</ele></trkpt>
<trkpt lon="-8.240796" lat="42.918050"><ele>354.5</ele></trkpt>
<trkpt lon="-8.240980" lat="42.918004"><ele>353.5</ele></trkpt>
<trkpt lon="-8.241318" lat="42.917857"><ele>350.75</ele></trkpt>
<trkpt lon="-8.241567" lat="42.917731"><ele>348.75</ele></trkpt>
<trkpt lon="-8.241821" lat="42.917750"><ele>347.25</ele></trkpt>
<trkpt lon="-8.242087" lat="42.917855"><ele>346.5</ele></trkpt>
<trkpt lon="-8.242274" lat="42.917863"><ele>346.0</ele></trkpt>
<trkpt lon="-8.242546" lat="42.917967"><ele>343.75</ele></trkpt>
<trkpt lon="-8.242949" lat="42.918096"><ele>340.5</ele></trkpt>
<trkpt lon="-8.242992" lat="42.918147"><ele>339.75</ele></trkpt>
<trkpt lon="-8.243063" lat="42.918184"><ele>339.5</ele></trkpt>
<trkpt lon="-8.243186" lat="42.918232"><ele>338.75</ele></trkpt>
<trkpt lon="-8.243232" lat="42.918244"><ele>338.5</ele></trkpt>
<trkpt lon="-8.243303" lat="42.918224"><ele>338.5</ele></trkpt>
<trkpt lon="-8.243368" lat="42.918163"><ele>338.25</ele></trkpt>
<trkpt lon="-8.243438" lat="42.917977"><ele>337.75</ele></trkpt>
<trkpt lon="-8.243475" lat="42.917924"><ele>337.25</ele></trkpt>
<trkpt lon="-8.243513" lat="42.917911"><ele>337.0</ele></trkpt>
<trkpt lon="-8.243632" lat="42.917944"><ele>335.75</ele></trkpt>
<trkpt lon="-8.243751" lat="42.917961"><ele>335.25</ele></trkpt>
<trkpt lon="-8.244368" lat="42.917966"><ele>334.25</ele></trkpt>
<trkpt lon="-8.244427" lat="42.917960"><ele>334.5</ele></trkpt>
<trkpt lon="-8.244431" lat="42.917906"><ele>334.25</ele></trkpt>
<trkpt lon="-8.244529" lat="42.917894"><ele>334.5</ele></trkpt>
<trkpt lon="-8.244608" lat="42.917870"><ele>334.75</ele></trkpt>
<trkpt lon="-8.244696" lat="42.917835"><ele>335.0</ele></trkpt>
<trkpt lon="-8.244736" lat="42.917809"><ele>335.0</ele></trkpt>
<trkpt lon="-8.245034" lat="42.917814"><ele>336.25</ele></trkpt>
<trkpt lon="-8.245127" lat="42.917807"><ele>337.0</ele></trkpt>
<trkpt lon="-8.245289" lat="42.917782"><ele>338.0</ele></trkpt>
<trkpt lon="-8.245395" lat="42.917779"><ele>338.75</ele></trkpt>
<trkpt lon="-8.245541" lat="42.917759"><ele>339.75</ele></trkpt>
<trkpt lon="-8.245692" lat="42.917751"><ele>340.0</ele></trkpt>
<trkpt lon="-8.245909" lat="42.917797"><ele>340.25</ele></trkpt>
<trkpt lon="-8.246143" lat="42.917885"><ele>342.25</ele></trkpt>
<trkpt lon="-8.246243" lat="42.917918"><ele>342.75</ele></trkpt>
<trkpt lon="-8.246325" lat="42.917937"><ele>343.25</ele></trkpt>
<trkpt lon="-8.246522" lat="42.917972"><ele>344.0</ele></trkpt>
<trkpt lon="-8.247249" lat="42.918069"><ele>345.0</ele></trkpt>
<trkpt lon="-8.247973" lat="42.918190"><ele>347.5</ele></trkpt>
<trkpt lon="-8.248084" lat="42.918204"><ele>348.0</ele></trkpt>
<trkpt lon="-8.248994" lat="42.918415"><ele>351.5</ele></trkpt>
<trkpt lon="-8.249238" lat="42.918463"><ele>352.75</ele></trkpt>
<trkpt lon="-8.249719" lat="42.918526"><ele>354.25</ele></trkpt>
<trkpt lon="-8.250181" lat="42.918608"><ele>355.5</ele></trkpt>
<trkpt lon="-8.250534" lat="42.918683"><ele>356.75</ele></trkpt>
<trkpt lon="-8.250863" lat="42.918744"><ele>359.0</ele></trkpt>
<trkpt lon="-8.250942" lat="42.918767"><ele>359.25</ele></trkpt>
<trkpt lon="-8.251298" lat="42.918927"><ele>360.75</ele></trkpt>
<trkpt lon="-8.251771" lat="42.919154"><ele>363.25</ele></trkpt>
<trkpt lon="-8.251917" lat="42.919268"><ele>364.25</ele></trkpt>
<trkpt lon="-8.252026" lat="42.919320"><ele>364.75</ele></trkpt>
<trkpt lon="-8.252187" lat="42.919368"><ele>365.75</ele></trkpt>
<trkpt lon="-8.252261" lat="42.919400"><ele>366.0</ele></trkpt>
<trkpt lon="-8.252415" lat="42.919490"><ele>366.75</ele></trkpt>
<trkpt lon="-8.252681" lat="42.919618"><ele>368.75</ele></trkpt>
<trkpt lon="-8.252816" lat="42.919707"><ele>369.25</ele></trkpt>
<trkpt lon="-8.252876" lat="42.919788"><ele>370.0</ele></trkpt>
<trkpt lon="-8.252927" lat="42.919874"><ele>370.75</ele></trkpt>
<trkpt lon="-8.253051" lat="42.920135"><ele>371.75</ele></trkpt>
<trkpt lon="-8.253317" lat="42.920523"><ele>372.75</ele></trkpt>
<trkpt lon="-8.253408" lat="42.920602"><ele>373.5</ele></trkpt>
<trkpt lon="-8.253934" lat="42.921001"><ele>375.5</ele></trkpt>
<trkpt lon="-8.254130" lat="42.921156"><ele>375.75</ele></trkpt>
<trkpt lon="-8.254255" lat="42.921170"><ele>377.0</ele></trkpt>
<trkpt lon="-8.255322" lat="42.921587"><ele>380.75</ele></trkpt>
<trkpt lon="-8.255667" lat="42.921713"><ele>379.5</ele></trkpt>
<trkpt lon="-8.255998" lat="42.921851"><ele>377.75</ele></trkpt>
<trkpt lon="-8.256064" lat="42.921880"><ele>377.25</ele></trkpt>
<trkpt lon="-8.256743" lat="42.922215"><ele>375.5</ele></trkpt>
<trkpt lon="-8.256939" lat="42.922277"><ele>375.25</ele></trkpt>
<trkpt lon="-8.257026" lat="42.922292"><ele>375.5</ele></trkpt>
<trkpt lon="-8.257682" lat="42.922373"><ele>376.25</ele></trkpt>
<trkpt lon="-8.258154" lat="42.922415"><ele>377.0</ele></trkpt>
<trkpt lon="-8.258819" lat="42.922417"><ele>377.25</ele></trkpt>
<trkpt lon="-8.258846" lat="42.922314"><ele>376.0</ele></trkpt>
<trkpt lon="-8.259111" lat="42.922300"><ele>375.75</ele></trkpt>
<trkpt lon="-8.259322" lat="42.922306"><ele>375.5</ele></trkpt>
<trkpt lon="-8.260141" lat="42.922292"><ele>374.25</ele></trkpt>
<trkpt lon="-8.261048" lat="42.922420"><ele>371.5</ele></trkpt>
<trkpt lon="-8.261315" lat="42.922450"><ele>370.25</ele></trkpt>
<trkpt lon="-8.261597" lat="42.922478"><ele>368.25</ele></trkpt>
<trkpt lon="-8.261752" lat="42.922519"><ele>367.5</ele></trkpt>
<trkpt lon="-8.262017" lat="42.922744"><ele>367.0</ele></trkpt>
<trkpt lon="-8.262237" lat="42.922831"><ele>366.25</ele></trkpt>
<trkpt lon="-8.262980" lat="42.922994"><ele>361.25</ele></trkpt>
<trkpt lon="-8.263281" lat="42.923082"><ele>360.25</ele></trkpt>
<trkpt lon="-8.264102" lat="42.923283"><ele>360.75</ele></trkpt>
<trkpt lon="-8.264906" lat="42.923490"><ele>362.0</ele></trkpt>
<trkpt lon="-8.265002" lat="42.923527"><ele>362.25</ele></trkpt>
<trkpt lon="-8.265082" lat="42.923576"><ele>362.75</ele></trkpt>
<trkpt lon="-8.265135" lat="42.923582"><ele>362.75</ele></trkpt>
<trkpt lon="-8.265314" lat="42.923592"><ele>362.75</ele></trkpt>
<trkpt lon="-8.265870" lat="42.923584"><ele>363.0</ele></trkpt>
<trkpt lon="-8.266408" lat="42.923463"><ele>364.0</ele></trkpt>
<trkpt lon="-8.266790" lat="42.923466"><ele>366.0</ele></trkpt>
<trkpt lon="-8.267022" lat="42.923517"><ele>367.0</ele></trkpt>
<trkpt lon="-8.267511" lat="42.923676"><ele>369.5</ele></trkpt>
<trkpt lon="-8.267774" lat="42.923862"><ele>370.5</ele></trkpt>
<trkpt lon="-8.268326" lat="42.924272"><ele>373.5</ele></trkpt>
<trkpt lon="-8.268636" lat="42.924685"><ele>374.25</ele></trkpt>
<trkpt lon="-8.268705" lat="42.924746"><ele>374.75</ele></trkpt>
<trkpt lon="-8.269013" lat="42.924893"><ele>376.0</ele></trkpt>
<trkpt lon="-8.269674" lat="42.925012"><ele>374.25</ele></trkpt>
<trkpt lon="-8.270764" lat="42.925198"><ele>371.75</ele></trkpt>
<trkpt lon="-8.271515" lat="42.925291"><ele>371.5</ele></trkpt>
<trkpt lon="-8.272211" lat="42.925439"><ele>373.5</ele></trkpt>
<trkpt lon="-8.272375" lat="42.925459"><ele>373.25</ele></trkpt>
<trkpt lon="-8.272528" lat="42.925490"><ele>373.0</ele></trkpt>
<trkpt lon="-8.272854" lat="42.925578"><ele>372.0</ele></trkpt>
<trkpt lon="-8.273143" lat="42.925637"><ele>372.0</ele></trkpt>
<trkpt lon="-8.273561" lat="42.925702"><ele>371.25</ele></trkpt>
<trkpt lon="-8.273710" lat="42.925735"><ele>370.5</ele></trkpt>
<trkpt lon="-8.273865" lat="42.925790"><ele>370.0</ele></trkpt>
<trkpt lon="-8.274020" lat="42.925855"><ele>369.5</ele></trkpt>
<trkpt lon="-8.274148" lat="42.925933"><ele>369.25</ele></trkpt>
<trkpt lon="-8.274214" lat="42.926016"><ele>369.5</ele></trkpt>
<trkpt lon="-8.274257" lat="42.926071"><ele>369.5</ele></trkpt>
<trkpt lon="-8.274324" lat="42.926096"><ele>369.25</ele></trkpt>
<trkpt lon="-8.274667" lat="42.926206"><ele>369.0</ele></trkpt>
<trkpt lon="-8.274851" lat="42.926258"><ele>368.75</ele></trkpt>
<trkpt lon="-8.275124" lat="42.926320"><ele>368.0</ele></trkpt>
<trkpt lon="-8.275208" lat="42.926365"><ele>368.0</ele></trkpt>
<trkpt lon="-8.275250" lat="42.926374"><ele>368.0</ele></trkpt>
<trkpt lon="-8.275319" lat="42.926383"><ele>367.75</ele></trkpt>
<trkpt lon="-8.275526" lat="42.926425"><ele>367.25</ele></trkpt>
<trkpt lon="-8.275617" lat="42.926429"><ele>367.25</ele></trkpt>
<trkpt lon="-8.275718" lat="42.926425"><ele>367.25</ele></trkpt>
<trkpt lon="-8.276180" lat="42.926458"><ele>367.25</ele></trkpt>
<trkpt lon="-8.276291" lat="42.926458"><ele>367.25</ele></trkpt>
<trkpt lon="-8.276581" lat="42.926473"><ele>366.75</ele></trkpt>
<trkpt lon="-8.276822" lat="42.926471"><ele>366.0</ele></trkpt>
<trkpt lon="-8.276909" lat="42.926463"><ele>365.5</ele></trkpt>
<trkpt lon="-8.277224" lat="42.926389"><ele>364.0</ele></trkpt>
<trkpt lon="-8.277476" lat="42.926351"><ele>364.0</ele></trkpt>
<trkpt lon="-8.277567" lat="42.926317"><ele>364.0</ele></trkpt>
<trkpt lon="-8.277643" lat="42.926231"><ele>363.75</ele></trkpt>
<trkpt lon="-8.279549" lat="42.926428"><ele>360.75</ele></trkpt>
<trkpt lon="-8.279969" lat="42.926440"><ele>361.5</ele></trkpt>
<trkpt lon="-8.280291" lat="42.926423"><ele>362.0</ele></trkpt>
<trkpt lon="-8.280481" lat="42.926402"><ele>362.0</ele></trkpt>
<trkpt lon="-8.280776" lat="42.926347"><ele>361.75</ele></trkpt>
<trkpt lon="-8.281013" lat="42.926291"><ele>361.75</ele></trkpt>
<trkpt lon="-8.281518" lat="42.926139"><ele>363.25</ele></trkpt>
<trkpt lon="-8.281998" lat="42.925951"><ele>364.0</ele></trkpt>
<trkpt lon="-8.282692" lat="42.925644"><ele>367.0</ele></trkpt>
<trkpt lon="-8.282733" lat="42.925633"><ele>367.0</ele></trkpt>
<trkpt lon="-8.282867" lat="42.925603"><ele>367.25</ele></trkpt>
<trkpt lon="-8.283684" lat="42.925415"><ele>371.75</ele></trkpt>
<trkpt lon="-8.283822" lat="42.925405"><ele>372.5</ele></trkpt>
<trkpt lon="-8.283881" lat="42.925407"><ele>372.75</ele></trkpt>
<trkpt lon="-8.284062" lat="42.925427"><ele>373.75</ele></trkpt>
<trkpt lon="-8.284471" lat="42.925487"><ele>376.0</ele></trkpt>
<trkpt lon="-8.284568" lat="42.925478"><ele>376.75</ele></trkpt>
<trkpt lon="-8.285215" lat="42.925338"><ele>380.75</ele></trkpt>
<trkpt lon="-8.286173" lat="42.925162"><ele>384.5</ele></trkpt>
<trkpt lon="-8.286385" lat="42.925148"><ele>384.5</ele></trkpt>
<trkpt lon="-8.286918" lat="42.925194"><ele>384.25</ele></trkpt>
<trkpt lon="-8.287108" lat="42.925161"><ele>384.0</ele></trkpt>
<trkpt lon="-8.287928" lat="42.924991"><ele>384.25</ele></trkpt>
<trkpt lon="-8.288346" lat="42.924872"><ele>385.0</ele></trkpt>
<trkpt lon="-8.288613" lat="42.924777"><ele>385.25</ele></trkpt>
<trkpt lon="-8.289185" lat="42.924495"><ele>384.25</ele></trkpt>
<trkpt lon="-8.289369" lat="42.924461"><ele>384.75</ele></trkpt>
<trkpt lon="-8.290365" lat="42.924191"><ele>387.25</ele></trkpt>
<trkpt lon="-8.290381" lat="42.924130"><ele>387.25</ele></trkpt>
<trkpt lon="-8.290441" lat="42.924112"><ele>387.25</ele></trkpt>
<trkpt lon="-8.290406" lat="42.924074"><ele>387.25</ele></trkpt>
<trkpt lon="-8.290385" lat="42.924038"><ele>387.0</ele></trkpt>
<trkpt lon="-8.290938" lat="42.923680"><ele>387.5</ele></trkpt>
<trkpt lon="-8.291273" lat="42.923510"><ele>388.25</ele></trkpt>
<trkpt lon="-8.291727" lat="42.923234"><ele>391.0</ele></trkpt>
<trkpt lon="-8.292255" lat="42.923108"><ele>395.0</ele></trkpt>
<trkpt lon="-8.292495" lat="42.923003"><ele>396.0</ele></trkpt>
<trkpt lon="-8.292821" lat="42.922825"><ele>397.75</ele></trkpt>
<trkpt lon="-8.293307" lat="42.922635"><ele>399.25</ele></trkpt>
<trkpt lon="-8.293629" lat="42.922536"><ele>400.0</ele></trkpt>
<trkpt lon="-8.293874" lat="42.922425"><ele>401.0</ele></trkpt>
<trkpt lon="-8.294231" lat="42.922230"><ele>401.5</ele></trkpt>
<trkpt lon="-8.294556" lat="42.922094"><ele>401.25</ele></trkpt>
<trkpt lon="-8.294703" lat="42.922012"><ele>400.75</ele></trkpt>
<trkpt lon="-8.295223" lat="42.921645"><ele>399.25</ele></trkpt>
<trkpt lon="-8.295477" lat="42.921538"><ele>398.5</ele></trkpt>
<trkpt lon="-8.295913" lat="42.921419"><ele>396.25</ele></trkpt>
<trkpt lon="-8.296064" lat="42.921351"><ele>395.25</ele></trkpt>
<trkpt lon="-8.296573" lat="42.920913"><ele>392.5</ele></trkpt>
<trkpt lon="-8.296895" lat="42.920647"><ele>390.5</ele></trkpt>
<trkpt lon="-8.297299" lat="42.920430"><ele>388.25</ele></trkpt>
<trkpt lon="-8.297676" lat="42.920372"><ele>384.5</ele></trkpt>
<trkpt lon="-8.297795" lat="42.920338"><ele>383.0</ele></trkpt>
<trkpt lon="-8.298171" lat="42.920283"><ele>379.0</ele></trkpt>
<trkpt lon="-8.298242" lat="42.920254"><ele>378.5</ele></trkpt>
<trkpt lon="-8.298285" lat="42.920237"><ele>378.0</ele></trkpt>
<trkpt lon="-8.298671" lat="42.920261"><ele>374.5</ele></trkpt>
<trkpt lon="-8.298777" lat="42.920246"><ele>373.5</ele></trkpt>
<trkpt lon="-8.298972" lat="42.920172"><ele>372.5</ele></trkpt>
<trkpt lon="-8.299198" lat="42.919970"><ele>372.0</ele></trkpt>
<trkpt lon="-8.299382" lat="42.919782"><ele>372.75</ele></trkpt>
<trkpt lon="-8.299625" lat="42.919510"><ele>373.0</ele></trkpt>
<trkpt lon="-8.299901" lat="42.919336"><ele>373.25</ele></trkpt>
<trkpt lon="-8.300223" lat="42.919217"><ele>373.75</ele></trkpt>
<trkpt lon="-8.300711" lat="42.919114"><ele>375.0</ele></trkpt>
<trkpt lon="-8.300776" lat="42.919077"><ele>375.25</ele></trkpt>
<trkpt lon="-8.301108" lat="42.918827"><ele>374.75</ele></trkpt>
<trkpt lon="-8.301145" lat="42.918843"><ele>374.75</ele></trkpt>
<trkpt lon="-8.301324" lat="42.918956"><ele>375.25</ele></trkpt>
<trkpt lon="-8.301492" lat="42.918981"><ele>376.0</ele></trkpt>
<trkpt lon="-8.301703" lat="42.919059"><ele>377.0</ele></trkpt>
<trkpt lon="-8.303106" lat="42.919275"><ele>379.75</ele></trkpt>
<trkpt lon="-8.303467" lat="42.919304"><ele>380.75</ele></trkpt>
<trkpt lon="-8.303637" lat="42.919304"><ele>381.0</ele></trkpt>
<trkpt lon="-8.303708" lat="42.919298"><ele>381.25</ele></trkpt>
<trkpt lon="-8.303830" lat="42.919254"><ele>381.25</ele></trkpt>
<trkpt lon="-8.304188" lat="42.919212"><ele>381.0</ele></trkpt>
<trkpt lon="-8.305171" lat="42.919065"><ele>377.25</ele></trkpt>
<trkpt lon="-8.305271" lat="42.918811"><ele>375.5</ele></trkpt>
<trkpt lon="-8.305510" lat="42.918826"><ele>374.25</ele></trkpt>
<trkpt lon="-8.305585" lat="42.918848"><ele>373.75</ele></trkpt>
<trkpt lon="-8.305659" lat="42.918936"><ele>373.75</ele></trkpt>
<trkpt lon="-8.305730" lat="42.918981"><ele>373.75</ele></trkpt>
<trkpt lon="-8.305787" lat="42.918995"><ele>373.5</ele></trkpt>
<trkpt lon="-8.305949" lat="42.918978"><ele>372.25</ele></trkpt>
<trkpt lon="-8.306733" lat="42.919015"><ele>367.0</ele></trkpt>
<trkpt lon="-8.306795" lat="42.919017"><ele>366.75</ele></trkpt>
<trkpt lon="-8.306854" lat="42.919008"><ele>366.75</ele></trkpt>
<trkpt lon="-8.307268" lat="42.918781"><ele>366.25</ele></trkpt>
<trkpt lon="-8.307757" lat="42.918499"><ele>365.5</ele></trkpt>
<trkpt lon="-8.308091" lat="42.918436"><ele>365.0</ele></trkpt>
<trkpt lon="-8.308394" lat="42.918400"><ele>366.0</ele></trkpt>
<trkpt lon="-8.308507" lat="42.918398"><ele>366.0</ele></trkpt>
<trkpt lon="-8.308614" lat="42.918423"><ele>366.0</ele></trkpt>
<trkpt lon="-8.308819" lat="42.918489"><ele>366.5</ele></trkpt>
<trkpt lon="-8.308889" lat="42.918452"><ele>367.0</ele></trkpt>
<trkpt lon="-8.309153" lat="42.918348"><ele>368.0</ele></trkpt>
<trkpt lon="-8.309509" lat="42.918354"><ele>369.0</ele></trkpt>
<trkpt lon="-8.309843" lat="42.918350"><ele>369.5</ele></trkpt>
<trkpt lon="-8.310099" lat="42.918393"><ele>370.25</ele></trkpt>
<trkpt lon="-8.310485" lat="42.918355"><ele>370.75</ele></trkpt>
<trkpt lon="-8.310687" lat="42.918322"><ele>371.25</ele></trkpt>
<trkpt lon="-8.310674" lat="42.918216"><ele>371.25</ele></trkpt>
<trkpt lon="-8.310454" lat="42.917490"><ele>369.5</ele></trkpt>
<trkpt lon="-8.311674" lat="42.917356"><ele>374.0</ele></trkpt>
<trkpt lon="-8.312413" lat="42.917282"><ele>375.75</ele></trkpt>
<trkpt lon="-8.314087" lat="42.917115"><ele>377.75</ele></trkpt>
<trkpt lon="-8.315465" lat="42.916982"><ele>381.0</ele></trkpt>
<trkpt lon="-8.315492" lat="42.916899"><ele>380.75</ele></trkpt>
<trkpt lon="-8.315512" lat="42.916840"><ele>380.75</ele></trkpt>
<trkpt lon="-8.315571" lat="42.916807"><ele>381.0</ele></trkpt>
<trkpt lon="-8.315620" lat="42.916795"><ele>381.0</ele></trkpt>
<trkpt lon="-8.317771" lat="42.916433"><ele>386.75</ele></trkpt>
<trkpt lon="-8.318350" lat="42.916338"><ele>389.0</ele></trkpt>
<trkpt lon="-8.318433" lat="42.916320"><ele>389.25</ele></trkpt>
<trkpt lon="-8.318537" lat="42.916288"><ele>389.5</ele></trkpt>
<trkpt lon="-8.319727" lat="42.915821"><ele>395.0</ele></trkpt>
<trkpt lon="-8.320497" lat="42.915561"><ele>397.75</ele></trkpt>
<trkpt lon="-8.321233" lat="42.915402"><ele>399.75</ele></trkpt>
<trkpt lon="-8.321469" lat="42.915362"><ele>400.25</ele></trkpt>
<trkpt lon="-8.321832" lat="42.915321"><ele>400.75</ele></trkpt>
<trkpt lon="-8.322356" lat="42.915281"><ele>402.25</ele></trkpt>
<trkpt lon="-8.322563" lat="42.915273"><ele>402.75</ele></trkpt>
<trkpt lon="-8.323384" lat="42.915292"><ele>405.0</ele></trkpt>
<trkpt lon="-8.323490" lat="42.915295"><ele>405.5</ele></trkpt>
<trkpt lon="-8.323763" lat="42.915338"><ele>406.0</ele></trkpt>
<trkpt lon="-8.323746" lat="42.915420"><ele>406.0</ele></trkpt>
<trkpt lon="-8.323707" lat="42.915540"><ele>406.0</ele></trkpt>
<trkpt lon="-8.323582" lat="42.915710"><ele>405.75</ele></trkpt>
<trkpt lon="-8.323421" lat="42.915949"><ele>406.25</ele></trkpt>
<trkpt lon="-8.323401" lat="42.916002"><ele>406.5</ele></trkpt>
<trkpt lon="-8.323409" lat="42.916274"><ele>408.0</ele></trkpt>
<trkpt lon="-8.323413" lat="42.916559"><ele>410.0</ele></trkpt>
<trkpt lon="-8.323908" lat="42.916474"><ele>409.0</ele></trkpt>
<trkpt lon="-8.324679" lat="42.916366"><ele>406.0</ele></trkpt>
<trkpt lon="-8.324995" lat="42.916373"><ele>404.75</ele></trkpt>
<trkpt lon="-8.325396" lat="42.916342"><ele>404.0</ele></trkpt>
<trkpt lon="-8.325776" lat="42.916399"><ele>402.0</ele></trkpt>
<trkpt lon="-8.326254" lat="42.916538"><ele>401.0</ele></trkpt>
<trkpt lon="-8.326879" lat="42.916566"><ele>396.25</ele></trkpt>
<trkpt lon="-8.327107" lat="42.916626"><ele>395.5</ele></trkpt>
<trkpt lon="-8.327241" lat="42.916677"><ele>394.75</ele></trkpt>
<trkpt lon="-8.327399" lat="42.916721"><ele>392.25</ele></trkpt>
<trkpt lon="-8.327873" lat="42.916875"><ele>391.25</ele></trkpt>
<trkpt lon="-8.328023" lat="42.916932"><ele>390.25</ele></trkpt>
<trkpt lon="-8.328191" lat="42.916976"><ele>388.0</ele></trkpt>
<trkpt lon="-8.328400" lat="42.917011"><ele>385.25</ele></trkpt>
<trkpt lon="-8.328525" lat="42.917017"><ele>384.0</ele></trkpt>
<trkpt lon="-8.328851" lat="42.917098"><ele>380.75</ele></trkpt>
<trkpt lon="-8.329373" lat="42.917262"><ele>378.0</ele></trkpt>
<trkpt lon="-8.330147" lat="42.917404"><ele>373.25</ele></trkpt>
<trkpt lon="-8.330194" lat="42.917424"><ele>372.5</ele></trkpt>
<trkpt lon="-8.330253" lat="42.917432"><ele>372.0</ele></trkpt>
<trkpt lon="-8.330426" lat="42.917485"><ele>370.5</ele></trkpt>
<trkpt lon="-8.330477" lat="42.917491"><ele>370.25</ele></trkpt>
<trkpt lon="-8.330814" lat="42.917529"><ele>369.75</ele></trkpt>
<trkpt lon="-8.331619" lat="42.917607"><ele>368.5</ele></trkpt>
<trkpt lon="-8.332180" lat="42.917649"><ele>367.25</ele></trkpt>
<trkpt lon="-8.332839" lat="42.917732"><ele>365.75</ele></trkpt>
<trkpt lon="-8.333086" lat="42.917781"><ele>364.75</ele></trkpt>
<trkpt lon="-8.333432" lat="42.917827"><ele>363.75</ele></trkpt>
<trkpt lon="-8.333528" lat="42.917840"><ele>363.75</ele></trkpt>
<trkpt lon="-8.333698" lat="42.917918"><ele>363.0</ele></trkpt>
<trkpt lon="-8.333864" lat="42.917992"><ele>362.0</ele></trkpt>
<trkpt lon="-8.334010" lat="42.918044"><ele>361.75</ele></trkpt>
<trkpt lon="-8.334182" lat="42.918086"><ele>362.0</ele></trkpt>
<trkpt lon="-8.334538" lat="42.918142"><ele>360.75</ele></trkpt>
<trkpt lon="-8.335679" lat="42.918276"><ele>357.0</ele></trkpt>
<trkpt lon="-8.335976" lat="42.918304"><ele>355.5</ele></trkpt>
<trkpt lon="-8.336488" lat="42.918345"><ele>353.0</ele></trkpt>
<trkpt lon="-8.337179" lat="42.918415"><ele>349.25</ele></trkpt>
<trkpt lon="-8.337565" lat="42.918444"><ele>347.25</ele></trkpt>
<trkpt lon="-8.338151" lat="42.918485"><ele>344.25</ele></trkpt>
<trkpt lon="-8.338402" lat="42.918484"><ele>343.0</ele></trkpt>
<trkpt lon="-8.338802" lat="42.918426"><ele>342.75</ele></trkpt>
<trkpt lon="-8.339125" lat="42.918357"><ele>342.75</ele></trkpt>
<trkpt lon="-8.339359" lat="42.918278"><ele>341.75</ele></trkpt>
<trkpt lon="-8.339709" lat="42.918222"><ele>342.0</ele></trkpt>
<trkpt lon="-8.339997" lat="42.918127"><ele>341.5</ele></trkpt>
<trkpt lon="-8.340529" lat="42.917985"><ele>340.75</ele></trkpt>
<trkpt lon="-8.340978" lat="42.917854"><ele>338.5</ele></trkpt>
<trkpt lon="-8.341174" lat="42.917777"><ele>337.5</ele></trkpt>
<trkpt lon="-8.341257" lat="42.917753"><ele>336.75</ele></trkpt>
<trkpt lon="-8.341413" lat="42.917737"><ele>335.75</ele></trkpt>
<trkpt lon="-8.341552" lat="42.917708"><ele>335.5</ele></trkpt>
<trkpt lon="-8.341837" lat="42.917599"><ele>334.25</ele></trkpt>
<trkpt lon="-8.342117" lat="42.917483"><ele>333.25</ele></trkpt>
<trkpt lon="-8.342314" lat="42.917422"><ele>331.75</ele></trkpt>
<trkpt lon="-8.342860" lat="42.917236"><ele>328.25</ele></trkpt>
<trkpt lon="-8.343071" lat="42.917147"><ele>326.75</ele></trkpt>
<trkpt lon="-8.343202" lat="42.917049"><ele>325.75</ele></trkpt>
<trkpt lon="-8.343272" lat="42.916975"><ele>325.25</ele></trkpt>
<trkpt lon="-8.343297" lat="42.916862"><ele>324.5</ele></trkpt>
<trkpt lon="-8.343219" lat="42.916619"><ele>323.0</ele></trkpt>
<trkpt lon="-8.343241" lat="42.916582"><ele>322.75</ele></trkpt>
<trkpt lon="-8.343338" lat="42.916538"><ele>322.5</ele></trkpt>
<trkpt lon="-8.343417" lat="42.916521"><ele>321.75</ele></trkpt>
<trkpt lon="-8.343512" lat="42.916515"><ele>321.0</ele></trkpt>
<trkpt lon="-8.343696" lat="42.916533"><ele>320.0</ele></trkpt>
<trkpt lon="-8.343786" lat="42.916543"><ele>319.5</ele></trkpt>
<trkpt lon="-8.343827" lat="42.916534"><ele>319.25</ele></trkpt>
<trkpt lon="-8.343868" lat="42.916514"><ele>319.0</ele></trkpt>
<trkpt lon="-8.343903" lat="42.916349"><ele>318.25</ele></trkpt>
<trkpt lon="-8.343946" lat="42.916327"><ele>317.75</ele></trkpt>
<trkpt lon="-8.343992" lat="42.916313"><ele>317.5</ele></trkpt>
<trkpt lon="-8.344172" lat="42.916287"><ele>316.0</ele></trkpt>
<trkpt lon="-8.344230" lat="42.916282"><ele>315.75</ele></trkpt>
<trkpt lon="-8.344318" lat="42.916307"><ele>315.25</ele></trkpt>
<trkpt lon="-8.345406" lat="42.915994"><ele>307.0</ele></trkpt>
<trkpt lon="-8.345788" lat="42.915787"><ele>304.75</ele></trkpt>
<trkpt lon="-8.345898" lat="42.915705"><ele>304.0</ele></trkpt>
<trkpt lon="-8.346281" lat="42.915579"><ele>303.0</ele></trkpt>
<trkpt lon="-8.346576" lat="42.915412"><ele>301.75</ele></trkpt>
<trkpt lon="-8.347430" lat="42.914888"><ele>296.75</ele></trkpt>
<trkpt lon="-8.347878" lat="42.914644"><ele>294.25</ele></trkpt>
<trkpt lon="-8.348218" lat="42.914560"><ele>293.5</ele></trkpt>
<trkpt lon="-8.348952" lat="42.914325"><ele>289.0</ele></trkpt>
<trkpt lon="-8.349019" lat="42.914328"><ele>288.25</ele></trkpt>
<trkpt lon="-8.349083" lat="42.914346"><ele>288.0</ele></trkpt>
<trkpt lon="-8.349191" lat="42.914428"><ele>287.5</ele></trkpt>
<trkpt lon="-8.349414" lat="42.914639"><ele>285.5</ele></trkpt>
<trkpt lon="-8.349499" lat="42.914710"><ele>284.25</ele></trkpt>
<trkpt lon="-8.349716" lat="42.914698"><ele>281.25</ele></trkpt>
<trkpt lon="-8.349809" lat="42.914729"><ele>280.75</ele></trkpt>
<trkpt lon="-8.350096" lat="42.914674"><ele>279.25</ele></trkpt>
<trkpt lon="-8.350104" lat="42.914640"><ele>279.25</ele></trkpt>
<trkpt lon="-8.350157" lat="42.914612"><ele>279.0</ele></trkpt>
<trkpt lon="-8.350379" lat="42.914537"><ele>277.5</ele></trkpt>
<trkpt lon="-8.350440" lat="42.914520"><ele>277.25</ele></trkpt>
<trkpt lon="-8.350881" lat="42.914396"><ele>275.75</ele></trkpt>
<trkpt lon="-8.351305" lat="42.914259"><ele>275.0</ele></trkpt>
<trkpt lon="-8.352069" lat="42.913992"><ele>274.0</ele></trkpt>
<trkpt lon="-8.352262" lat="42.913918"><ele>274.0</ele></trkpt>
<trkpt lon="-8.352682" lat="42.913748"><ele>273.5</ele></trkpt>
<trkpt lon="-8.352967" lat="42.913621"><ele>273.25</ele></trkpt>
<trkpt lon="-8.353048" lat="42.913560"><ele>273.0</ele></trkpt>
<trkpt lon="-8.353686" lat="42.912978"><ele>271.0</ele></trkpt>
<trkpt lon="-8.354313" lat="42.912772"><ele>268.5</ele></trkpt>
<trkpt lon="-8.355287" lat="42.912518"><ele>262.75</ele></trkpt>
<trkpt lon="-8.355393" lat="42.912479"><ele>262.5</ele></trkpt>
<trkpt lon="-8.355525" lat="42.912465"><ele>262.0</ele></trkpt>
<trkpt lon="-8.356599" lat="42.912464"><ele>254.0</ele></trkpt>
<trkpt lon="-8.356802" lat="42.912443"><ele>254.25</ele></trkpt>
<trkpt lon="-8.357101" lat="42.912367"><ele>256.5</ele></trkpt>
<trkpt lon="-8.357374" lat="42.912272"><ele>259.5</ele></trkpt>
<trkpt lon="-8.357501" lat="42.912291"><ele>260.75</ele></trkpt>
<trkpt lon="-8.357559" lat="42.912299"><ele>261.0</ele></trkpt>
<trkpt lon="-8.357657" lat="42.912041"><ele>261.75</ele></trkpt>
<trkpt lon="-8.358292" lat="42.911622"><ele>265.25</ele></trkpt>
<trkpt lon="-8.358898" lat="42.911257"><ele>267.25</ele></trkpt>
<trkpt lon="-8.359378" lat="42.910993"><ele>268.75</ele></trkpt>
<trkpt lon="-8.360016" lat="42.910580"><ele>270.0</ele></trkpt>
<trkpt lon="-8.360489" lat="42.910346"><ele>271.75</ele></trkpt>
<trkpt lon="-8.360575" lat="42.910352"><ele>272.0</ele></trkpt>
<trkpt lon="-8.360606" lat="42.910334"><ele>272.0</ele></trkpt>
<trkpt lon="-8.360631" lat="42.910305"><ele>272.0</ele></trkpt>
<trkpt lon="-8.360790" lat="42.910231"><ele>273.0</ele></trkpt>
<trkpt lon="-8.361117" lat="42.910109"><ele>274.5</ele></trkpt>
<trkpt lon="-8.361594" lat="42.909980"><ele>277.0</ele></trkpt>
<trkpt lon="-8.361897" lat="42.909914"><ele>279.5</ele></trkpt>
<trkpt lon="-8.362526" lat="42.909720"><ele>283.0</ele></trkpt>
<trkpt lon="-8.362855" lat="42.909559"><ele>284.5</ele></trkpt>
<trkpt lon="-8.363096" lat="42.909427"><ele>285.25</ele></trkpt>
<trkpt lon="-8.363409" lat="42.909205"><ele>286.75</ele></trkpt>
<trkpt lon="-8.363675" lat="42.909085"><ele>287.5</ele></trkpt>
<trkpt lon="-8.363699" lat="42.909048"><ele>287.75</ele></trkpt>
<trkpt lon="-8.363677" lat="42.908983"><ele>288.25</ele></trkpt>
<trkpt lon="-8.363542" lat="42.908821"><ele>289.25</ele></trkpt>
<trkpt lon="-8.363457" lat="42.908773"><ele>289.5</ele></trkpt>
<trkpt lon="-8.363245" lat="42.908703"><ele>290.5</ele></trkpt>
<trkpt lon="-8.363223" lat="42.908670"><ele>290.75</ele></trkpt>
<trkpt lon="-8.363215" lat="42.908635"><ele>291.25</ele></trkpt>
<trkpt lon="-8.363350" lat="42.908295"><ele>291.0</ele></trkpt>
<trkpt lon="-8.363363" lat="42.908233"><ele>291.25</ele></trkpt>
<trkpt lon="-8.363384" lat="42.908151"><ele>291.25</ele></trkpt>
<trkpt lon="-8.363560" lat="42.907722"><ele>291.25</ele></trkpt>
<trkpt lon="-8.363618" lat="42.907622"><ele>290.75</ele></trkpt>
<trkpt lon="-8.363705" lat="42.907506"><ele>290.25</ele></trkpt>
<trkpt lon="-8.364045" lat="42.907190"><ele>288.25</ele></trkpt>
<trkpt lon="-8.364001" lat="42.907125"><ele>288.5</ele></trkpt>
<trkpt lon="-8.363977" lat="42.907089"><ele>288.75</ele></trkpt>
<trkpt lon="-8.363682" lat="42.906461"><ele>290.25</ele></trkpt>
<trkpt lon="-8.363632" lat="42.906355"><ele>290.5</ele></trkpt>
<trkpt lon="-8.363255" lat="42.905547"><ele>291.0</ele></trkpt>
<trkpt lon="-8.363088" lat="42.905287"><ele>289.75</ele></trkpt>
<trkpt lon="-8.362979" lat="42.905123"><ele>288.75</ele></trkpt>
<trkpt lon="-8.362954" lat="42.905083"><ele>288.25</ele></trkpt>
<trkpt lon="-8.362906" lat="42.905011"><ele>288.0</ele></trkpt>
<trkpt lon="-8.362874" lat="42.904962"><ele>287.5</ele></trkpt>
<trkpt lon="-8.362744" lat="42.904847"><ele>286.5</ele></trkpt>
<trkpt lon="-8.362646" lat="42.904780"><ele>285.25</ele></trkpt>
<trkpt lon="-8.362450" lat="42.904632"><ele>283.25</ele></trkpt>
<trkpt lon="-8.362430" lat="42.904590"><ele>283.0</ele></trkpt>
<trkpt lon="-8.362469" lat="42.904495"><ele>282.75</ele></trkpt>
<trkpt lon="-8.362450" lat="42.904314"><ele>281.0</ele></trkpt>
<trkpt lon="-8.362472" lat="42.904133"><ele>279.5</ele></trkpt>
<trkpt lon="-8.362442" lat="42.904156"><ele>279.5</ele></trkpt>
<trkpt lon="-8.362054" lat="42.904565"><ele>280.25</ele></trkpt>
<trkpt lon="-8.361911" lat="42.904695"><ele>280.5</ele></trkpt>
<trkpt lon="-8.361769" lat="42.904804"><ele>280.25</ele></trkpt>
<trkpt lon="-8.361513" lat="42.904974"><ele>280.5</ele></trkpt>
<trkpt lon="-8.361305" lat="42.904979"><ele>279.25</ele></trkpt>
<trkpt lon="-8.360694" lat="42.905071"><ele>276.5</ele></trkpt>
<trkpt lon="-8.360096" lat="42.905120"><ele>273.25</ele></trkpt>
<trkpt lon="-8.360009" lat="42.905141"><ele>273.0</ele></trkpt>
<trkpt lon="-8.360013" lat="42.904999"><ele>269.0</ele></trkpt>
  </trkseg></trk></gpx>
