<?xml version="1.0" encoding="UTF-8"?>
<gpx version="1.1" creator="compostel-brouter" xmlns="http://www.topografix.com/GPX/1/1">
  <metadata><name>ES-39-Santiago</name></metadata>
  <trk><name>ES-39-Santiago</name><trkseg>
<trkpt lon="-8.360013" lat="42.904999"><ele>272.25</ele></trkpt>
<trkpt lon="-8.360009" lat="42.905141"><ele>273.0</ele></trkpt>
<trkpt lon="-8.360096" lat="42.905120"><ele>273.25</ele></trkpt>
<trkpt lon="-8.360694" lat="42.905071"><ele>276.5</ele></trkpt>
<trkpt lon="-8.361305" lat="42.904979"><ele>279.25</ele></trkpt>
<trkpt lon="-8.361513" lat="42.904974"><ele>280.5</ele></trkpt>
<trkpt lon="-8.361769" lat="42.904804"><ele>280.25</ele></trkpt>
<trkpt lon="-8.361911" lat="42.904695"><ele>280.5</ele></trkpt>
<trkpt lon="-8.362054" lat="42.904565"><ele>280.25</ele></trkpt>
<trkpt lon="-8.362442" lat="42.904156"><ele>279.5</ele></trkpt>
<trkpt lon="-8.362472" lat="42.904133"><ele>279.5</ele></trkpt>
<trkpt lon="-8.362450" lat="42.904314"><ele>281.0</ele></trkpt>
<trkpt lon="-8.362469" lat="42.904495"><ele>282.75</ele></trkpt>
<trkpt lon="-8.362430" lat="42.904590"><ele>283.0</ele></trkpt>
<trkpt lon="-8.362450" lat="42.904632"><ele>283.25</ele></trkpt>
<trkpt lon="-8.362646" lat="42.904780"><ele>285.25</ele></trkpt>
<trkpt lon="-8.362744" lat="42.904847"><ele>286.5</ele></trkpt>
<trkpt lon="-8.362874" lat="42.904962"><ele>287.5</ele></trkpt>
<trkpt lon="-8.362906" lat="42.905011"><ele>288.0</ele></trkpt>
<trkpt lon="-8.362954" lat="42.905083"><ele>288.25</ele></trkpt>
<trkpt lon="-8.362979" lat="42.905123"><ele>288.75</ele></trkpt>
<trkpt lon="-8.363088" lat="42.905287"><ele>289.75</ele></trkpt>
<trkpt lon="-8.363255" lat="42.905547"><ele>291.0</ele></trkpt>
<trkpt lon="-8.363632" lat="42.906355"><ele>290.5</ele></trkpt>
<trkpt lon="-8.363682" lat="42.906461"><ele>290.25</ele></trkpt>
<trkpt lon="-8.363977" lat="42.907089"><ele>288.75</ele></trkpt>
<trkpt lon="-8.364001" lat="42.907125"><ele>288.5</ele></trkpt>
<trkpt lon="-8.364045" lat="42.907190"><ele>288.25</ele></trkpt>
<trkpt lon="-8.364190" lat="42.907325"><ele>288.0</ele></trkpt>
<trkpt lon="-8.364334" lat="42.907442"><ele>288.0</ele></trkpt>
<trkpt lon="-8.364484" lat="42.907551"><ele>287.75</ele></trkpt>
<trkpt lon="-8.364633" lat="42.907660"><ele>287.25</ele></trkpt>
<trkpt lon="-8.364774" lat="42.907759"><ele>287.75</ele></trkpt>
<trkpt lon="-8.364851" lat="42.907814"><ele>288.0</ele></trkpt>
<trkpt lon="-8.364929" lat="42.907869"><ele>288.0</ele></trkpt>
<trkpt lon="-8.365050" lat="42.907955"><ele>288.25</ele></trkpt>
<trkpt lon="-8.365334" lat="42.908159"><ele>288.5</ele></trkpt>
<trkpt lon="-8.365478" lat="42.908287"><ele>289.0</ele></trkpt>
<trkpt lon="-8.365528" lat="42.908344"><ele>289.0</ele></trkpt>
<trkpt lon="-8.366308" lat="42.908076"><ele>289.0</ele></trkpt>
<trkpt lon="-8.366699" lat="42.907975"><ele>289.0</ele></trkpt>
<trkpt lon="-8.368002" lat="42.907424"><ele>285.75</ele></trkpt>
<trkpt lon="-8.368677" lat="42.907272"><ele>284.0</ele></trkpt>
<trkpt lon="-8.368885" lat="42.907216"><ele>283.75</ele></trkpt>
<trkpt lon="-8.369340" lat="42.906977"><ele>283.0</ele></trkpt>
<trkpt lon="-8.369680" lat="42.906867"><ele>282.5</ele></trkpt>
<trkpt lon="-8.370134" lat="42.906652"><ele>280.0</ele></trkpt>
<trkpt lon="-8.370200" lat="42.906646"><ele>279.5</ele></trkpt>
<trkpt lon="-8.370299" lat="42.906558"><ele>278.75</ele></trkpt>
<trkpt lon="-8.370379" lat="42.906401"><ele>278.25</ele></trkpt>
<trkpt lon="-8.370427" lat="42.906335"><ele>277.25</ele></trkpt>
<trkpt lon="-8.370522" lat="42.906262"><ele>276.25</ele></trkpt>
<trkpt lon="-8.370573" lat="42.906265"><ele>275.75</ele></trkpt>
<trkpt lon="-8.370615" lat="42.906283"><ele>275.25</ele></trkpt>
<trkpt lon="-8.370746" lat="42.906353"><ele>274.0</ele></trkpt>
<trkpt lon="-8.371002" lat="42.906475"><ele>272.5</ele></trkpt>
<trkpt lon="-8.371108" lat="42.906412"><ele>271.0</ele></trkpt>
<trkpt lon="-8.371386" lat="42.906176"><ele>268.5</ele></trkpt>
<trkpt lon="-8.371519" lat="42.906100"><ele>267.5</ele></trkpt>
<trkpt lon="-8.371676" lat="42.905959"><ele>267.0</ele></trkpt>
<trkpt lon="-8.371765" lat="42.905826"><ele>266.75</ele></trkpt>
<trkpt lon="-8.371822" lat="42.905775"><ele>266.75</ele></trkpt>
<trkpt lon="-8.371880" lat="42.905755"><ele>266.5</ele></trkpt>
<trkpt lon="-8.371958" lat="42.905760"><ele>266.5</ele></trkpt>
<trkpt lon="-8.372050" lat="42.905806"><ele>266.75</ele></trkpt>
<trkpt lon="-8.372407" lat="42.906109"><ele>267.5</ele></trkpt>
<trkpt lon="-8.372437" lat="42.906128"><ele>267.75</ele></trkpt>
<trkpt lon="-8.372463" lat="42.906136"><ele>267.75</ele></trkpt>
<trkpt lon="-8.373002" lat="42.906028"><ele>268.75</ele></trkpt>
<trkpt lon="-8.373431" lat="42.905941"><ele>270.0</ele></trkpt>
<trkpt lon="-8.373770" lat="42.905804"><ele>270.5</ele></trkpt>
<trkpt lon="-8.374068" lat="42.905724"><ele>271.25</ele></trkpt>
<trkpt lon="-8.374485" lat="42.905532"><ele>272.0</ele></trkpt>
<trkpt lon="-8.374750" lat="42.905300"><ele>273.75</ele></trkpt>
<trkpt lon="-8.375034" lat="42.905012"><ele>274.0</ele></trkpt>
<trkpt lon="-8.375444" lat="42.904602"><ele>274.5</ele></trkpt>
<trkpt lon="-8.375856" lat="42.904244"><ele>275.0</ele></trkpt>
<trkpt lon="-8.376284" lat="42.904072"><ele>276.0</ele></trkpt>
<trkpt lon="-8.376625" lat="42.903966"><ele>276.75</ele></trkpt>
<trkpt lon="-8.377415" lat="42.903782"><ele>278.75</ele></trkpt>
<trkpt lon="-8.378459" lat="42.903653"><ele>282.0</ele></trkpt>
<trkpt lon="-8.379134" lat="42.903603"><ele>282.75</ele></trkpt>
<trkpt lon="-8.379706" lat="42.903593"><ele>283.75</ele></trkpt>
<trkpt lon="-8.380458" lat="42.903683"><ele>285.75</ele></trkpt>
<trkpt lon="-8.381165" lat="42.903759"><ele>284.75</ele></trkpt>
<trkpt lon="-8.381324" lat="42.903756"><ele>284.25</ele></trkpt>
<trkpt lon="-8.381561" lat="42.903695"><ele>282.75</ele></trkpt>
<trkpt lon="-8.381590" lat="42.903584"><ele>282.0</ele></trkpt>
<trkpt lon="-8.381635" lat="42.903545"><ele>281.5</ele></trkpt>
<trkpt lon="-8.384391" lat="42.904315"><ele>287.0</ele></trkpt>
<trkpt lon="-8.384688" lat="42.904409"><ele>287.5</ele></trkpt>
<trkpt lon="-8.384946" lat="42.904527"><ele>289.0</ele></trkpt>
<trkpt lon="-8.385292" lat="42.904656"><ele>290.75</ele></trkpt>
<trkpt lon="-8.385603" lat="42.904764"><ele>290.25</ele></trkpt>
<trkpt lon="-8.385878" lat="42.904837"><ele>289.75</ele></trkpt>
<trkpt lon="-8.386101" lat="42.904839"><ele>289.0</ele></trkpt>
<trkpt lon="-8.386186" lat="42.904801"><ele>288.0</ele></trkpt>
<trkpt lon="-8.386269" lat="42.904751"><ele>286.75</ele></trkpt>
<trkpt lon="-8.386433" lat="42.904585"><ele>284.25</ele></trkpt>
<trkpt lon="-8.386591" lat="42.904332"><ele>281.25</ele></trkpt>
<trkpt lon="-8.386727" lat="42.904015"><ele>278.75</ele></trkpt>
<trkpt lon="-8.386996" lat="42.903422"><ele>272.25</ele></trkpt>
<trkpt lon="-8.387106" lat="42.903217"><ele>270.75</ele></trkpt>
<trkpt lon="-8.388554" lat="42.903609"><ele>267.25</ele></trkpt>
<trkpt lon="-8.388847" lat="42.903702"><ele>267.0</ele></trkpt>
<trkpt lon="-8.389103" lat="42.903803"><ele>265.0</ele></trkpt>
<trkpt lon="-8.389307" lat="42.903937"><ele>263.75</ele></trkpt>
<trkpt lon="-8.389588" lat="42.904194"><ele>261.5</ele></trkpt>
<trkpt lon="-8.389720" lat="42.904290"><ele>260.5</ele></trkpt>
<trkpt lon="-8.389858" lat="42.904344"><ele>259.5</ele></trkpt>
<trkpt lon="-8.390000" lat="42.904381"><ele>258.25</ele></trkpt>
<trkpt lon="-8.390104" lat="42.904396"><ele>257.5</ele></trkpt>
<trkpt lon="-8.390206" lat="42.904401"><ele>256.75</ele></trkpt>
<trkpt lon="-8.390684" lat="42.904392"><ele>254.25</ele></trkpt>
<trkpt lon="-8.390803" lat="42.904403"><ele>253.25</ele></trkpt>
<trkpt lon="-8.390881" lat="42.904419"><ele>252.75</ele></trkpt>
<trkpt lon="-8.391045" lat="42.904503"><ele>251.75</ele></trkpt>
<trkpt lon="-8.391211" lat="42.904603"><ele>250.5</ele></trkpt>
<trkpt lon="-8.391147" lat="42.904664"><ele>250.25</ele></trkpt>
<trkpt lon="-8.391134" lat="42.904698"><ele>250.0</ele></trkpt>
<trkpt lon="-8.391129" lat="42.904743"><ele>249.75</ele></trkpt>
<trkpt lon="-8.391137" lat="42.904789"><ele>249.75</ele></trkpt>
<trkpt lon="-8.391188" lat="42.904882"><ele>249.75</ele></trkpt>
<trkpt lon="-8.391355" lat="42.905061"><ele>249.5</ele></trkpt>
<trkpt lon="-8.391486" lat="42.905187"><ele>249.0</ele></trkpt>
<trkpt lon="-8.391586" lat="42.905298"><ele>248.75</ele></trkpt>
<trkpt lon="-8.391829" lat="42.905400"><ele>248.25</ele></trkpt>
<trkpt lon="-8.393025" lat="42.905815"><ele>247.75</ele></trkpt>
<trkpt lon="-8.393431" lat="42.905964"><ele>248.25</ele></trkpt>
<trkpt lon="-8.393492" lat="42.905965"><ele>248.5</ele></trkpt>
<trkpt lon="-8.393546" lat="42.905919"><ele>248.25</ele></trkpt>
<trkpt lon="-8.393570" lat="42.905888"><ele>248.25</ele></trkpt>
<trkpt lon="-8.393720" lat="42.905867"><ele>249.0</ele></trkpt>
<trkpt lon="-8.393937" lat="42.905847"><ele>250.0</ele></trkpt>
<trkpt lon="-8.393983" lat="42.905859"><ele>250.0</ele></trkpt>
<trkpt lon="-8.394060" lat="42.905903"><ele>250.5</ele></trkpt>
<trkpt lon="-8.394280" lat="42.905948"><ele>252.0</ele></trkpt>
<trkpt lon="-8.394554" lat="42.905901"><ele>254.25</ele></trkpt>
<trkpt lon="-8.395001" lat="42.905782"><ele>257.0</ele></trkpt>
<trkpt lon="-8.395527" lat="42.905706"><ele>259.25</ele></trkpt>
<trkpt lon="-8.396256" lat="42.905617"><ele>263.75</ele></trkpt>
<trkpt lon="-8.396934" lat="42.905556"><ele>262.75</ele></trkpt>
<trkpt lon="-8.397556" lat="42.905483"><ele>269.5</ele></trkpt>
<trkpt lon="-8.397761" lat="42.905485"><ele>272.75</ele></trkpt>
<trkpt lon="-8.397895" lat="42.905534"><ele>274.75</ele></trkpt>
<trkpt lon="-8.397982" lat="42.905590"><ele>275.75</ele></trkpt>
<trkpt lon="-8.398067" lat="42.905744"><ele>276.5</ele></trkpt>
<trkpt lon="-8.398174" lat="42.905836"><ele>278.0</ele></trkpt>
<trkpt lon="-8.398269" lat="42.905902"><ele>279.25</ele></trkpt>
<trkpt lon="-8.398384" lat="42.905957"><ele>280.75</ele></trkpt>
<trkpt lon="-8.398731" lat="42.906099"><ele>284.25</ele></trkpt>
<trkpt lon="-8.399454" lat="42.906367"><ele>288.0</ele></trkpt>
<trkpt lon="-8.399626" lat="42.906386"><ele>288.5</ele></trkpt>
<trkpt lon="-8.399797" lat="42.906374"><ele>289.25</ele></trkpt>
<trkpt lon="-8.400037" lat="42.906336"><ele>290.25</ele></trkpt>
<trkpt lon="-8.400343" lat="42.906240"><ele>291.5</ele></trkpt>
<trkpt lon="-8.400714" lat="42.906202"><ele>291.75</ele></trkpt>
<trkpt lon="-8.401043" lat="42.906087"><ele>292.75</ele></trkpt>
<trkpt lon="-8.401462" lat="42.906038"><ele>293.75</ele></trkpt>
<trkpt lon="-8.401834" lat="42.906058"><ele>294.0</ele></trkpt>
<trkpt lon="-8.402153" lat="42.906178"><ele>295.5</ele></trkpt>
<trkpt lon="-8.402246" lat="42.906172"><ele>296.25</ele></trkpt>
<trkpt lon="-8.402290" lat="42.906174"><ele>296.5</ele></trkpt>
<trkpt lon="-8.402361" lat="42.906155"><ele>296.75</ele></trkpt>
<trkpt lon="-8.402519" lat="42.906078"><ele>297.25</ele></trkpt>
<trkpt lon="-8.402686" lat="42.905956"><ele>299.25</ele></trkpt>
<trkpt lon="-8.402768" lat="42.905882"><ele>299.25</ele></trkpt>
<trkpt lon="-8.402991" lat="42.905801"><ele>301.0</ele></trkpt>
<trkpt lon="-8.403254" lat="42.905799"><ele>304.0</ele></trkpt>
<trkpt lon="-8.403649" lat="42.905742"><ele>305.75</ele></trkpt>
<trkpt lon="-8.403919" lat="42.905746"><ele>307.75</ele></trkpt>
<trkpt lon="-8.404061" lat="42.905766"><ele>308.5</ele></trkpt>
<trkpt lon="-8.404451" lat="42.905910"><ele>312.25</ele></trkpt>
<trkpt lon="-8.404546" lat="42.905914"><ele>312.5</ele></trkpt>
<trkpt lon="-8.404835" lat="42.905900"><ele>314.0</ele></trkpt>
<trkpt lon="-8.405743" lat="42.905881"><ele>319.5</ele></trkpt>
<trkpt lon="-8.406003" lat="42.905860"><ele>320.75</ele></trkpt>
<trkpt lon="-8.406270" lat="42.905874"><ele>322.25</ele></trkpt>
<trkpt lon="-8.406733" lat="42.905878"><ele>326.25</ele></trkpt>
<trkpt lon="-8.406973" lat="42.905829"><ele>327.0</ele></trkpt>
<trkpt lon="-8.407388" lat="42.905888"><ele>330.75</ele></trkpt>
<trkpt lon="-8.407591" lat="42.905887"><ele>332.5</ele></trkpt>
<trkpt lon="-8.407910" lat="42.905858"><ele>334.75</ele></trkpt>
<trkpt lon="-8.408083" lat="42.905832"><ele>336.0</ele></trkpt>
<trkpt lon="-8.408440" lat="42.905729"><ele>338.0</ele></trkpt>
<trkpt lon="-8.408676" lat="42.905722"><ele>338.5</ele></trkpt>
<trkpt lon="-8.408874" lat="42.905834"><ele>338.75</ele></trkpt>
<trkpt lon="-8.409110" lat="42.905940"><ele>340.5</ele></trkpt>
<trkpt lon="-8.409349" lat="42.905983"><ele>341.5</ele></trkpt>
<trkpt lon="-8.409579" lat="42.906126"><ele>342.75</ele></trkpt>
<trkpt lon="-8.409676" lat="42.906152"><ele>343.5</ele></trkpt>
<trkpt lon="-8.409912" lat="42.906166"><ele>345.25</ele></trkpt>
<trkpt lon="-8.410165" lat="42.906222"><ele>347.5</ele></trkpt>
<trkpt lon="-8.410261" lat="42.906336"><ele>348.0</ele></trkpt>
<trkpt lon="-8.410510" lat="42.906507"><ele>351.0</ele></trkpt>
<trkpt lon="-8.410619" lat="42.906609"><ele>351.75</ele></trkpt>
<trkpt lon="-8.410808" lat="42.907020"><ele>352.75</ele></trkpt>
<trkpt lon="-8.410887" lat="42.907168"><ele>353.25</ele></trkpt>
<trkpt lon="-8.411200" lat="42.907388"><ele>355.5</ele></trkpt>
<trkpt lon="-8.411399" lat="42.907468"><ele>355.0</ele></trkpt>
<trkpt lon="-8.411857" lat="42.907582"><ele>358.25</ele></trkpt>
<trkpt lon="-8.412059" lat="42.907655"><ele>359.5</ele></trkpt>
<trkpt lon="-8.412187" lat="42.907688"><ele>360.0</ele></trkpt>
<trkpt lon="-8.412513" lat="42.907739"><ele>361.0</ele></trkpt>
<trkpt lon="-8.414296" lat="42.908206"><ele>367.5</ele></trkpt>
<trkpt lon="-8.414822" lat="42.908355"><ele>365.75</ele></trkpt>
<trkpt lon="-8.414817" lat="42.908679"><ele>365.75</ele></trkpt>
<trkpt lon="-8.414794" lat="42.908940"><ele>366.25</ele></trkpt>
<trkpt lon="-8.414688" lat="42.909404"><ele>367.0</ele></trkpt>
<trkpt lon="-8.414546" lat="42.909876"><ele>367.0</ele></trkpt>
<trkpt lon="-8.414458" lat="42.910846"><ele>365.0</ele></trkpt>
<trkpt lon="-8.414363" lat="42.911370"><ele>365.25</ele></trkpt>
<trkpt lon="-8.414285" lat="42.911621"><ele>366.0</ele></trkpt>
<trkpt lon="-8.414167" lat="42.912329"><ele>364.75</ele></trkpt>
<trkpt lon="-8.414146" lat="42.912498"><ele>365.0</ele></trkpt>
<trkpt lon="-8.414111" lat="42.913167"><ele>365.0</ele></trkpt>
<trkpt lon="-8.414073" lat="42.913646"><ele>364.5</ele></trkpt>
<trkpt lon="-8.414192" lat="42.913622"><ele>364.75</ele></trkpt>
<trkpt lon="-8.414452" lat="42.913605"><ele>363.75</ele></trkpt>
<trkpt lon="-8.414874" lat="42.913612"><ele>362.25</ele></trkpt>
<trkpt lon="-8.418044" lat="42.913659"><ele>349.0</ele></trkpt>
<trkpt lon="-8.418400" lat="42.913586"><ele>347.25</ele></trkpt>
<trkpt lon="-8.418736" lat="42.913632"><ele>346.0</ele></trkpt>
<trkpt lon="-8.419646" lat="42.913667"><ele>344.5</ele></trkpt>
<trkpt lon="-8.419961" lat="42.913627"><ele>344.0</ele></trkpt>
<trkpt lon="-8.420189" lat="42.913484"><ele>343.75</ele></trkpt>
<trkpt lon="-8.420271" lat="42.913464"><ele>343.25</ele></trkpt>
<trkpt lon="-8.420388" lat="42.913452"><ele>342.0</ele></trkpt>
<trkpt lon="-8.421082" lat="42.913467"><ele>335.5</ele></trkpt>
<trkpt lon="-8.421427" lat="42.913459"><ele>333.0</ele></trkpt>
<trkpt lon="-8.422124" lat="42.913440"><ele>333.0</ele></trkpt>
<trkpt lon="-8.422378" lat="42.913391"><ele>333.5</ele></trkpt>
<trkpt lon="-8.422590" lat="42.913304"><ele>334.25</ele></trkpt>
<trkpt lon="-8.423185" lat="42.912946"><ele>332.0</ele></trkpt>
<trkpt lon="-8.423343" lat="42.912818"><ele>330.25</ele></trkpt>
<trkpt lon="-8.423570" lat="42.912578"><ele>328.75</ele></trkpt>
<trkpt lon="-8.423681" lat="42.912421"><ele>328.5</ele></trkpt>
<trkpt lon="-8.423894" lat="42.912218"><ele>331.0</ele></trkpt>
<trkpt lon="-8.423995" lat="42.912060"><ele>332.75</ele></trkpt>
<trkpt lon="-8.424037" lat="42.911927"><ele>333.75</ele></trkpt>
<trkpt lon="-8.424126" lat="42.911779"><ele>336.75</ele></trkpt>
<trkpt lon="-8.424197" lat="42.911586"><ele>338.75</ele></trkpt>
<trkpt lon="-8.424160" lat="42.911176"><ele>340.0</ele></trkpt>
<trkpt lon="-8.424194" lat="42.911123"><ele>340.0</ele></trkpt>
<trkpt lon="-8.424282" lat="42.911059"><ele>340.75</ele></trkpt>
<trkpt lon="-8.424402" lat="42.910991"><ele>341.25</ele></trkpt>
<trkpt lon="-8.424388" lat="42.910841"><ele>341.0</ele></trkpt>
<trkpt lon="-8.424288" lat="42.910596"><ele>340.5</ele></trkpt>
<trkpt lon="-8.424191" lat="42.910358"><ele>340.0</ele></trkpt>
<trkpt lon="-8.424079" lat="42.910032"><ele>339.5</ele></trkpt>
<trkpt lon="-8.423981" lat="42.909835"><ele>339.5</ele></trkpt>
<trkpt lon="-8.423953" lat="42.909712"><ele>339.5</ele></trkpt>
<trkpt lon="-8.423796" lat="42.909282"><ele>338.75</ele></trkpt>
<trkpt lon="-8.423643" lat="42.908938"><ele>339.75</ele></trkpt>
<trkpt lon="-8.423662" lat="42.908778"><ele>339.25</ele></trkpt>
<trkpt lon="-8.423721" lat="42.908741"><ele>338.75</ele></trkpt>
<trkpt lon="-8.423804" lat="42.908713"><ele>338.25</ele></trkpt>
<trkpt lon="-8.424553" lat="42.908788"><ele>334.75</ele></trkpt>
<trkpt lon="-8.424885" lat="42.908834"><ele>333.25</ele></trkpt>
<trkpt lon="-8.425093" lat="42.908877"><ele>332.5</ele></trkpt>
<trkpt lon="-8.425401" lat="42.908981"><ele>331.75</ele></trkpt>
<trkpt lon="-8.425534" lat="42.909007"><ele>331.5</ele></trkpt>
<trkpt lon="-8.425706" lat="42.908995"><ele>330.5</ele></trkpt>
<trkpt lon="-8.425946" lat="42.908962"><ele>330.25</ele></trkpt>
<trkpt lon="-8.425991" lat="42.908948"><ele>330.25</ele></trkpt>
<trkpt lon="-8.426094" lat="42.908898"><ele>330.75</ele></trkpt>
<trkpt lon="-8.426159" lat="42.908843"><ele>330.75</ele></trkpt>
<trkpt lon="-8.426209" lat="42.908783"><ele>330.5</ele></trkpt>
<trkpt lon="-8.426233" lat="42.908677"><ele>330.5</ele></trkpt>
<trkpt lon="-8.426245" lat="42.908577"><ele>330.5</ele></trkpt>
<trkpt lon="-8.426306" lat="42.908491"><ele>330.5</ele></trkpt>
<trkpt lon="-8.426418" lat="42.908432"><ele>330.5</ele></trkpt>
<trkpt lon="-8.426553" lat="42.908408"><ele>331.0</ele></trkpt>
<trkpt lon="-8.426708" lat="42.908344"><ele>332.25</ele></trkpt>
<trkpt lon="-8.426785" lat="42.908302"><ele>334.0</ele></trkpt>
<trkpt lon="-8.427017" lat="42.908142"><ele>340.5</ele></trkpt>
<trkpt lon="-8.427213" lat="42.907977"><ele>344.75</ele></trkpt>
<trkpt lon="-8.427583" lat="42.907507"><ele>350.75</ele></trkpt>
<trkpt lon="-8.427605" lat="42.907480"><ele>351.0</ele></trkpt>
<trkpt lon="-8.427900" lat="42.907171"><ele>351.25</ele></trkpt>
<trkpt lon="-8.428120" lat="42.907043"><ele>350.75</ele></trkpt>
<trkpt lon="-8.429059" lat="42.906670"><ele>344.75</ele></trkpt>
<trkpt lon="-8.429413" lat="42.906518"><ele>343.5</ele></trkpt>
<trkpt lon="-8.429611" lat="42.906391"><ele>338.5</ele></trkpt>
<trkpt lon="-8.429664" lat="42.906364"><ele>338.25</ele></trkpt>
<trkpt lon="-8.429744" lat="42.906325"><ele>338.75</ele></trkpt>
<trkpt lon="-8.429800" lat="42.906283"><ele>340.0</ele></trkpt>
<trkpt lon="-8.429977" lat="42.906110"><ele>340.25</ele></trkpt>
<trkpt lon="-8.430038" lat="42.906007"><ele>339.5</ele></trkpt>
<trkpt lon="-8.430078" lat="42.905939"><ele>339.5</ele></trkpt>
<trkpt lon="-8.430088" lat="42.905920"><ele>339.25</ele></trkpt>
<trkpt lon="-8.430338" lat="42.905710"><ele>340.25</ele></trkpt>
<trkpt lon="-8.430767" lat="42.905502"><ele>340.25</ele></trkpt>
<trkpt lon="-8.430935" lat="42.905440"><ele>340.75</ele></trkpt>
<trkpt lon="-8.431008" lat="42.905420"><ele>340.75</ele></trkpt>
<trkpt lon="-8.431212" lat="42.905408"><ele>340.5</ele></trkpt>
<trkpt lon="-8.431425" lat="42.905403"><ele>339.75</ele></trkpt>
<trkpt lon="-8.431497" lat="42.905395"><ele>339.25</ele></trkpt>
<trkpt lon="-8.431730" lat="42.905341"><ele>337.5</ele></trkpt>
<trkpt lon="-8.431966" lat="42.905255"><ele>334.75</ele></trkpt>
<trkpt lon="-8.432447" lat="42.905023"><ele>331.75</ele></trkpt>
<trkpt lon="-8.432945" lat="42.904656"><ele>329.5</ele></trkpt>
<trkpt lon="-8.433195" lat="42.904537"><ele>329.0</ele></trkpt>
<trkpt lon="-8.433765" lat="42.904349"><ele>328.75</ele></trkpt>
<trkpt lon="-8.434640" lat="42.904153"><ele>328.0</ele></trkpt>
<trkpt lon="-8.434989" lat="42.904174"><ele>327.0</ele></trkpt>
<trkpt lon="-8.435117" lat="42.904202"><ele>326.5</ele></trkpt>
<trkpt lon="-8.435137" lat="42.904164"><ele>326.5</ele></trkpt>
<trkpt lon="-8.437671" lat="42.902426"><ele>316.75</ele></trkpt>
<trkpt lon="-8.437771" lat="42.902348"><ele>316.25</ele></trkpt>
<trkpt lon="-8.438273" lat="42.902088"><ele>316.0</ele></trkpt>
<trkpt lon="-8.438447" lat="42.901981"><ele>315.5</ele></trkpt>
<trkpt lon="-8.439549" lat="42.901908"><ele>314.0</ele></trkpt>
<trkpt lon="-8.440287" lat="42.901800"><ele>314.0</ele></trkpt>
<trkpt lon="-8.441316" lat="42.901688"><ele>312.25</ele></trkpt>
<trkpt lon="-8.442156" lat="42.901585"><ele>306.25</ele></trkpt>
<trkpt lon="-8.442504" lat="42.901532"><ele>303.5</ele></trkpt>
<trkpt lon="-8.442655" lat="42.901488"><ele>303.0</ele></trkpt>
<trkpt lon="-8.442917" lat="42.901353"><ele>302.25</ele></trkpt>
<trkpt lon="-8.443198" lat="42.901196"><ele>302.0</ele></trkpt>
<trkpt lon="-8.443537" lat="42.901073"><ele>301.75</ele></trkpt>
<trkpt lon="-8.443806" lat="42.900982"><ele>301.0</ele></trkpt>
<trkpt lon="-8.443946" lat="42.900943"><ele>301.0</ele></trkpt>
<trkpt lon="-8.444775" lat="42.900721"><ele>301.25</ele></trkpt>
<trkpt lon="-8.444786" lat="42.900689"><ele>301.5</ele></trkpt>
<trkpt lon="-8.444776" lat="42.900631"><ele>301.5</ele></trkpt>
<trkpt lon="-8.444681" lat="42.900238"><ele>302.0</ele></trkpt>
<trkpt lon="-8.444600" lat="42.899906"><ele>303.0</ele></trkpt>
<trkpt lon="-8.444499" lat="42.899208"><ele>300.0</ele></trkpt>
<trkpt lon="-8.444586" lat="42.899213"><ele>299.75</ele></trkpt>
<trkpt lon="-8.444592" lat="42.899168"><ele>299.25</ele></trkpt>
<trkpt lon="-8.444596" lat="42.899143"><ele>299.25</ele></trkpt>
<trkpt lon="-8.444719" lat="42.899099"><ele>298.5</ele></trkpt>
<trkpt lon="-8.444588" lat="42.898730"><ele>295.5</ele></trkpt>
<trkpt lon="-8.444499" lat="42.898583"><ele>294.75</ele></trkpt>
<trkpt lon="-8.444435" lat="42.898522"><ele>294.75</ele></trkpt>
<trkpt lon="-8.444313" lat="42.898480"><ele>294.75</ele></trkpt>
<trkpt lon="-8.444189" lat="42.898380"><ele>293.5</ele></trkpt>
<trkpt lon="-8.444173" lat="42.898347"><ele>293.0</ele></trkpt>
<trkpt lon="-8.444162" lat="42.898326"><ele>292.75</ele></trkpt>
<trkpt lon="-8.444452" lat="42.898349"><ele>292.0</ele></trkpt>
<trkpt lon="-8.444500" lat="42.898327"><ele>292.0</ele></trkpt>
<trkpt lon="-8.444487" lat="42.898267"><ele>292.0</ele></trkpt>
<trkpt lon="-8.444510" lat="42.898229"><ele>292.25</ele></trkpt>
<trkpt lon="-8.444589" lat="42.898155"><ele>292.5</ele></trkpt>
<trkpt lon="-8.444705" lat="42.898183"><ele>292.5</ele></trkpt>
<trkpt lon="-8.444822" lat="42.898184"><ele>292.5</ele></trkpt>
<trkpt lon="-8.444960" lat="42.898158"><ele>292.5</ele></trkpt>
<trkpt lon="-8.445096" lat="42.898114"><ele>293.25</ele></trkpt>
<trkpt lon="-8.445159" lat="42.898080"><ele>294.0</ele></trkpt>
<trkpt lon="-8.445363" lat="42.897926"><ele>295.75</ele></trkpt>
<trkpt lon="-8.445526" lat="42.897821"><ele>296.5</ele></trkpt>
<trkpt lon="-8.445799" lat="42.897697"><ele>299.5</ele></trkpt>
<trkpt lon="-8.446089" lat="42.897581"><ele>302.75</ele></trkpt>
<trkpt lon="-8.446479" lat="42.897441"><ele>306.75</ele></trkpt>
<trkpt lon="-8.446731" lat="42.897354"><ele>309.5</ele></trkpt>
<trkpt lon="-8.446987" lat="42.897295"><ele>312.0</ele></trkpt>
<trkpt lon="-8.447226" lat="42.897230"><ele>313.75</ele></trkpt>
<trkpt lon="-8.447339" lat="42.897216"><ele>314.75</ele></trkpt>
<trkpt lon="-8.447438" lat="42.897179"><ele>316.25</ele></trkpt>
<trkpt lon="-8.447535" lat="42.897116"><ele>317.75</ele></trkpt>
<trkpt lon="-8.448301" lat="42.897108"><ele>320.0</ele></trkpt>
<trkpt lon="-8.448389" lat="42.897089"><ele>320.75</ele></trkpt>
<trkpt lon="-8.448457" lat="42.897054"><ele>321.5</ele></trkpt>
<trkpt lon="-8.448801" lat="42.896625"><ele>329.0</ele></trkpt>
<trkpt lon="-8.449241" lat="42.895997"><ele>340.75</ele></trkpt>
<trkpt lon="-8.449627" lat="42.895564"><ele>346.25</ele></trkpt>
<trkpt lon="-8.450142" lat="42.894896"><ele>351.5</ele></trkpt>
<trkpt lon="-8.451250" lat="42.894148"><ele>351.75</ele></trkpt>
<trkpt lon="-8.452287" lat="42.893435"><ele>351.0</ele></trkpt>
<trkpt lon="-8.452459" lat="42.893379"><ele>351.75</ele></trkpt>
<trkpt lon="-8.452657" lat="42.893841"><ele>356.0</ele></trkpt>
<trkpt lon="-8.452899" lat="42.894314"><ele>361.25</ele></trkpt>
<trkpt lon="-8.452973" lat="42.894286"><ele>361.5</ele></trkpt>
<trkpt lon="-8.454418" lat="42.893877"><ele>367.75</ele></trkpt>
<trkpt lon="-8.454512" lat="42.893856"><ele>368.25</ele></trkpt>
<trkpt lon="-8.454659" lat="42.893898"><ele>369.5</ele></trkpt>
<trkpt lon="-8.456450" lat="42.893741"><ele>380.25</ele></trkpt>
<trkpt lon="-8.458553" lat="42.893474"><ele>386.5</ele></trkpt>
<trkpt lon="-8.460345" lat="42.893343"><ele>376.5</ele></trkpt>
<trkpt lon="-8.462781" lat="42.893374"><ele>381.0</ele></trkpt>
<trkpt lon="-8.465565" lat="42.893422"><ele>381.25</ele></trkpt>
<trkpt lon="-8.468050" lat="42.893468"><ele>385.5</ele></trkpt>
<trkpt lon="-8.468107" lat="42.893445"><ele>385.75</ele></trkpt>
<trkpt lon="-8.468214" lat="42.893470"><ele>385.75</ele></trkpt>
<trkpt lon="-8.470157" lat="42.893447"><ele>389.5</ele></trkpt>
<trkpt lon="-8.470534" lat="42.893549"><ele>387.75</ele></trkpt>
<trkpt lon="-8.470938" lat="42.893592"><ele>387.75</ele></trkpt>
<trkpt lon="-8.471039" lat="42.893615"><ele>387.0</ele></trkpt>
<trkpt lon="-8.471100" lat="42.893690"><ele>386.0</ele></trkpt>
<trkpt lon="-8.471057" lat="42.893779"><ele>385.25</ele></trkpt>
<trkpt lon="-8.470932" lat="42.893838"><ele>384.5</ele></trkpt>
<trkpt lon="-8.470912" lat="42.893876"><ele>384.0</ele></trkpt>
<trkpt lon="-8.471595" lat="42.893895"><ele>382.0</ele></trkpt>
<trkpt lon="-8.472082" lat="42.893861"><ele>379.75</ele></trkpt>
<trkpt lon="-8.472296" lat="42.893830"><ele>379.25</ele></trkpt>
<trkpt lon="-8.472756" lat="42.893724"><ele>377.75</ele></trkpt>
<trkpt lon="-8.473174" lat="42.893640"><ele>376.5</ele></trkpt>
<trkpt lon="-8.473279" lat="42.893602"><ele>376.25</ele></trkpt>
<trkpt lon="-8.473521" lat="42.893450"><ele>375.5</ele></trkpt>
<trkpt lon="-8.473718" lat="42.893357"><ele>375.75</ele></trkpt>
<trkpt lon="-8.473890" lat="42.893297"><ele>376.0</ele></trkpt>
<trkpt lon="-8.473969" lat="42.893285"><ele>375.75</ele></trkpt>
<trkpt lon="-8.473986" lat="42.893283"><ele>375.75</ele></trkpt>
<trkpt lon="-8.474035" lat="42.893275"><ele>375.5</ele></trkpt>
<trkpt lon="-8.474096" lat="42.893273"><ele>375.25</ele></trkpt>
<trkpt lon="-8.474795" lat="42.893258"><ele>377.75</ele></trkpt>
<trkpt lon="-8.475610" lat="42.893186"><ele>380.75</ele></trkpt>
<trkpt lon="-8.476199" lat="42.893203"><ele>380.0</ele></trkpt>
<trkpt lon="-8.476322" lat="42.893184"><ele>379.5</ele></trkpt>
<trkpt lon="-8.476456" lat="42.893143"><ele>378.75</ele></trkpt>
<trkpt lon="-8.476821" lat="42.892995"><ele>378.0</ele></trkpt>
<trkpt lon="-8.476656" lat="42.892426"><ele>379.0</ele></trkpt>
<trkpt lon="-8.476620" lat="42.892287"><ele>379.0</ele></trkpt>
<trkpt lon="-8.476609" lat="42.892246"><ele>378.75</ele></trkpt>
<trkpt lon="-8.476323" lat="42.891143"><ele>380.0</ele></trkpt>
<trkpt lon="-8.476173" lat="42.890592"><ele>380.75</ele></trkpt>
<trkpt lon="-8.476177" lat="42.890564"><ele>380.75</ele></trkpt>
<trkpt lon="-8.476210" lat="42.890545"><ele>380.5</ele></trkpt>
<trkpt lon="-8.476262" lat="42.890520"><ele>380.5</ele></trkpt>
<trkpt lon="-8.476331" lat="42.890505"><ele>380.25</ele></trkpt>
<trkpt lon="-8.476405" lat="42.890504"><ele>380.0</ele></trkpt>
<trkpt lon="-8.484228" lat="42.890725"><ele>378.75</ele></trkpt>
<trkpt lon="-8.485790" lat="42.890760"><ele>373.5</ele></trkpt>
<trkpt lon="-8.485890" lat="42.890760"><ele>373.0</ele></trkpt>
<trkpt lon="-8.485929" lat="42.890745"><ele>372.5</ele></trkpt>
<trkpt lon="-8.485954" lat="42.890727"><ele>372.5</ele></trkpt>
<trkpt lon="-8.486017" lat="42.890642"><ele>372.0</ele></trkpt>
<trkpt lon="-8.486073" lat="42.890607"><ele>371.25</ele></trkpt>
<trkpt lon="-8.486110" lat="42.890596"><ele>371.0</ele></trkpt>
<trkpt lon="-8.486264" lat="42.890593"><ele>369.75</ele></trkpt>
<trkpt lon="-8.486462" lat="42.890621"><ele>368.25</ele></trkpt>
<trkpt lon="-8.487337" lat="42.890793"><ele>361.25</ele></trkpt>
<trkpt lon="-8.487370" lat="42.890799"><ele>361.0</ele></trkpt>
<trkpt lon="-8.487443" lat="42.891164"><ele>360.75</ele></trkpt>
<trkpt lon="-8.487471" lat="42.891226"><ele>360.5</ele></trkpt>
<trkpt lon="-8.487535" lat="42.891313"><ele>360.0</ele></trkpt>
<trkpt lon="-8.487673" lat="42.891449"><ele>359.75</ele></trkpt>
<trkpt lon="-8.487703" lat="42.891478"><ele>360.0</ele></trkpt>
<trkpt lon="-8.487789" lat="42.891553"><ele>360.0</ele></trkpt>
<trkpt lon="-8.487836" lat="42.891533"><ele>360.0</ele></trkpt>
<trkpt lon="-8.487878" lat="42.891515"><ele>360.0</ele></trkpt>
<trkpt lon="-8.488006" lat="42.891489"><ele>360.0</ele></trkpt>
<trkpt lon="-8.488269" lat="42.891451"><ele>360.0</ele></trkpt>
<trkpt lon="-8.489028" lat="42.891343"><ele>359.75</ele></trkpt>
<trkpt lon="-8.489095" lat="42.891326"><ele>359.75</ele></trkpt>
<trkpt lon="-8.489590" lat="42.891143"><ele>360.5</ele></trkpt>
<trkpt lon="-8.489755" lat="42.891089"><ele>361.0</ele></trkpt>
<trkpt lon="-8.490370" lat="42.890966"><ele>363.5</ele></trkpt>
<trkpt lon="-8.490946" lat="42.890851"><ele>366.0</ele></trkpt>
<trkpt lon="-8.491202" lat="42.890803"><ele>365.75</ele></trkpt>
<trkpt lon="-8.491390" lat="42.890752"><ele>365.5</ele></trkpt>
<trkpt lon="-8.491632" lat="42.890644"><ele>365.25</ele></trkpt>
<trkpt lon="-8.492591" lat="42.890245"><ele>367.25</ele></trkpt>
<trkpt lon="-8.492784" lat="42.890145"><ele>368.0</ele></trkpt>
<trkpt lon="-8.492758" lat="42.890116"><ele>367.75</ele></trkpt>
<trkpt lon="-8.492802" lat="42.890094"><ele>368.0</ele></trkpt>
<trkpt lon="-8.492807" lat="42.890075"><ele>368.0</ele></trkpt>
<trkpt lon="-8.492855" lat="42.890060"><ele>368.5</ele></trkpt>
<trkpt lon="-8.492950" lat="42.890028"><ele>369.5</ele></trkpt>
<trkpt lon="-8.493313" lat="42.889936"><ele>371.0</ele></trkpt>
<trkpt lon="-8.494041" lat="42.889686"><ele>372.0</ele></trkpt>
<trkpt lon="-8.494096" lat="42.889679"><ele>372.0</ele></trkpt>
<trkpt lon="-8.494386" lat="42.889601"><ele>372.0</ele></trkpt>
<trkpt lon="-8.495875" lat="42.889066"><ele>366.25</ele></trkpt>
<trkpt lon="-8.496166" lat="42.888961"><ele>364.75</ele></trkpt>
<trkpt lon="-8.496208" lat="42.888902"><ele>364.25</ele></trkpt>
<trkpt lon="-8.496250" lat="42.888863"><ele>363.25</ele></trkpt>
<trkpt lon="-8.496812" lat="42.888664"><ele>358.5</ele></trkpt>
<trkpt lon="-8.497351" lat="42.888472"><ele>352.75</ele></trkpt>
<trkpt lon="-8.497867" lat="42.888301"><ele>348.5</ele></trkpt>
<trkpt lon="-8.498595" lat="42.888121"><ele>341.5</ele></trkpt>
<trkpt lon="-8.498770" lat="42.888066"><ele>340.5</ele></trkpt>
<trkpt lon="-8.498868" lat="42.888043"><ele>339.75</ele></trkpt>
<trkpt lon="-8.499041" lat="42.888045"><ele>338.75</ele></trkpt>
<trkpt lon="-8.499146" lat="42.888023"><ele>337.75</ele></trkpt>
<trkpt lon="-8.499630" lat="42.887897"><ele>334.75</ele></trkpt>
<trkpt lon="-8.499769" lat="42.887850"><ele>333.5</ele></trkpt>
<trkpt lon="-8.499831" lat="42.887807"><ele>332.5</ele></trkpt>
<trkpt lon="-8.499875" lat="42.887758"><ele>331.75</ele></trkpt>
<trkpt lon="-8.499926" lat="42.887724"><ele>331.0</ele></trkpt>
<trkpt lon="-8.500308" lat="42.887704"><ele>328.0</ele></trkpt>
<trkpt lon="-8.500565" lat="42.887718"><ele>325.5</ele></trkpt>
<trkpt lon="-8.501076" lat="42.887801"><ele>321.0</ele></trkpt>
<trkpt lon="-8.501671" lat="42.887882"><ele>313.75</ele></trkpt>
<trkpt lon="-8.501738" lat="42.887884"><ele>313.0</ele></trkpt>
<trkpt lon="-8.502894" lat="42.887546"><ele>309.25</ele></trkpt>
<trkpt lon="-8.503195" lat="42.887466"><ele>307.25</ele></trkpt>
<trkpt lon="-8.503223" lat="42.887529"><ele>306.0</ele></trkpt>
<trkpt lon="-8.503235" lat="42.887557"><ele>305.5</ele></trkpt>
<trkpt lon="-8.503516" lat="42.887492"><ele>304.25</ele></trkpt>
<trkpt lon="-8.503737" lat="42.887435"><ele>303.0</ele></trkpt>
<trkpt lon="-8.503984" lat="42.887362"><ele>300.75</ele></trkpt>
<trkpt lon="-8.504217" lat="42.887328"><ele>297.75</ele></trkpt>
<trkpt lon="-8.504378" lat="42.887312"><ele>296.25</ele></trkpt>
<trkpt lon="-8.504402" lat="42.887299"><ele>296.25</ele></trkpt>
<trkpt lon="-8.504587" lat="42.887083"><ele>294.5</ele></trkpt>
<trkpt lon="-8.504589" lat="42.887011"><ele>294.75</ele></trkpt>
<trkpt lon="-8.504542" lat="42.886834"><ele>296.0</ele></trkpt>
<trkpt lon="-8.504559" lat="42.886815"><ele>295.5</ele></trkpt>
<trkpt lon="-8.504596" lat="42.886814"><ele>294.5</ele></trkpt>
<trkpt lon="-8.504778" lat="42.886961"><ele>290.25</ele></trkpt>
<trkpt lon="-8.504802" lat="42.886964"><ele>290.0</ele></trkpt>
<trkpt lon="-8.504888" lat="42.886940"><ele>289.0</ele></trkpt>
<trkpt lon="-8.504971" lat="42.886896"><ele>288.5</ele></trkpt>
<trkpt lon="-8.505071" lat="42.886851"><ele>288.5</ele></trkpt>
<trkpt lon="-8.505282" lat="42.886778"><ele>288.5</ele></trkpt>
<trkpt lon="-8.505361" lat="42.886764"><ele>287.0</ele></trkpt>
<trkpt lon="-8.505544" lat="42.886734"><ele>283.5</ele></trkpt>
<trkpt lon="-8.506350" lat="42.886638"><ele>278.25</ele></trkpt>
<trkpt lon="-8.506775" lat="42.886589"><ele>279.0</ele></trkpt>
<trkpt lon="-8.507312" lat="42.886554"><ele>273.25</ele></trkpt>
<trkpt lon="-8.507726" lat="42.886535"><ele>270.75</ele></trkpt>
<trkpt lon="-8.508243" lat="42.886527"><ele>271.25</ele></trkpt>
<trkpt lon="-8.508632" lat="42.886523"><ele>273.75</ele></trkpt>
<trkpt lon="-8.508786" lat="42.886519"><ele>273.5</ele></trkpt>
<trkpt lon="-8.508839" lat="42.886502"><ele>273.5</ele></trkpt>
<trkpt lon="-8.508926" lat="42.886499"><ele>273.5</ele></trkpt>
<trkpt lon="-8.509462" lat="42.886486"><ele>274.5</ele></trkpt>
<trkpt lon="-8.509818" lat="42.886481"><ele>275.0</ele></trkpt>
<trkpt lon="-8.509957" lat="42.886462"><ele>275.0</ele></trkpt>
<trkpt lon="-8.510023" lat="42.886447"><ele>275.0</ele></trkpt>
<trkpt lon="-8.510083" lat="42.886435"><ele>275.0</ele></trkpt>
<trkpt lon="-8.510136" lat="42.886417"><ele>275.25</ele></trkpt>
<trkpt lon="-8.510205" lat="42.886385"><ele>275.75</ele></trkpt>
<trkpt lon="-8.510279" lat="42.886340"><ele>276.0</ele></trkpt>
<trkpt lon="-8.510345" lat="42.886287"><ele>275.0</ele></trkpt>
<trkpt lon="-8.510388" lat="42.886241"><ele>274.5</ele></trkpt>
<trkpt lon="-8.510423" lat="42.886182"><ele>274.0</ele></trkpt>
<trkpt lon="-8.510490" lat="42.886183"><ele>272.75</ele></trkpt>
<trkpt lon="-8.510537" lat="42.886183"><ele>272.0</ele></trkpt>
<trkpt lon="-8.510825" lat="42.886183"><ele>274.5</ele></trkpt>
<trkpt lon="-8.510891" lat="42.886181"><ele>275.0</ele></trkpt>
<trkpt lon="-8.510948" lat="42.886180"><ele>275.25</ele></trkpt>
<trkpt lon="-8.510980" lat="42.886231"><ele>275.25</ele></trkpt>
<trkpt lon="-8.511030" lat="42.886283"><ele>275.5</ele></trkpt>
<trkpt lon="-8.511063" lat="42.886306"><ele>275.5</ele></trkpt>
<trkpt lon="-8.511100" lat="42.886319"><ele>275.75</ele></trkpt>
<trkpt lon="-8.511181" lat="42.886328"><ele>276.0</ele></trkpt>
<trkpt lon="-8.511499" lat="42.886333"><ele>276.0</ele></trkpt>
<trkpt lon="-8.512062" lat="42.886344"><ele>277.0</ele></trkpt>
<trkpt lon="-8.512909" lat="42.886359"><ele>278.5</ele></trkpt>
<trkpt lon="-8.512938" lat="42.886339"><ele>278.5</ele></trkpt>
<trkpt lon="-8.512947" lat="42.886294"><ele>278.5</ele></trkpt>
<trkpt lon="-8.512979" lat="42.886292"><ele>278.75</ele></trkpt>
<trkpt lon="-8.513028" lat="42.886291"><ele>278.75</ele></trkpt>
<trkpt lon="-8.513074" lat="42.886290"><ele>279.0</ele></trkpt>
<trkpt lon="-8.513107" lat="42.886290"><ele>279.0</ele></trkpt>
<trkpt lon="-8.513109" lat="42.886315"><ele>279.0</ele></trkpt>
<trkpt lon="-8.513126" lat="42.886336"><ele>279.0</ele></trkpt>
<trkpt lon="-8.514062" lat="42.886306"><ele>281.0</ele></trkpt>
<trkpt lon="-8.515122" lat="42.886272"><ele>283.25</ele></trkpt>
<trkpt lon="-8.515639" lat="42.886258"><ele>284.75</ele></trkpt>
<trkpt lon="-8.515780" lat="42.886287"><ele>285.0</ele></trkpt>
<trkpt lon="-8.516638" lat="42.886269"><ele>287.25</ele></trkpt>
<trkpt lon="-8.516730" lat="42.886239"><ele>287.5</ele></trkpt>
<trkpt lon="-8.516816" lat="42.886238"><ele>287.75</ele></trkpt>
<trkpt lon="-8.516942" lat="42.886236"><ele>288.0</ele></trkpt>
<trkpt lon="-8.517006" lat="42.886235"><ele>288.25</ele></trkpt>
<trkpt lon="-8.517077" lat="42.886233"><ele>288.5</ele></trkpt>
<trkpt lon="-8.517150" lat="42.886242"><ele>288.75</ele></trkpt>
<trkpt lon="-8.517197" lat="42.886249"><ele>288.75</ele></trkpt>
<trkpt lon="-8.517242" lat="42.886311"><ele>288.5</ele></trkpt>
<trkpt lon="-8.517286" lat="42.886352"><ele>288.25</ele></trkpt>
<trkpt lon="-8.517334" lat="42.886377"><ele>288.25</ele></trkpt>
<trkpt lon="-8.517397" lat="42.886400"><ele>288.5</ele></trkpt>
<trkpt lon="-8.517464" lat="42.886415"><ele>288.75</ele></trkpt>
<trkpt lon="-8.517638" lat="42.886437"><ele>288.75</ele></trkpt>
<trkpt lon="-8.518237" lat="42.886515"><ele>289.75</ele></trkpt>
<trkpt lon="-8.518865" lat="42.886587"><ele>291.5</ele></trkpt>
<trkpt lon="-8.519429" lat="42.886636"><ele>291.0</ele></trkpt>
<trkpt lon="-8.519641" lat="42.886654"><ele>291.0</ele></trkpt>
<trkpt lon="-8.520275" lat="42.886729"><ele>289.75</ele></trkpt>
<trkpt lon="-8.520694" lat="42.886790"><ele>288.5</ele></trkpt>
<trkpt lon="-8.520720" lat="42.886807"><ele>288.25</ele></trkpt>
<trkpt lon="-8.520748" lat="42.886825"><ele>288.25</ele></trkpt>
<trkpt lon="-8.521017" lat="42.886873"><ele>287.75</ele></trkpt>
<trkpt lon="-8.521070" lat="42.886882"><ele>287.75</ele></trkpt>
<trkpt lon="-8.521107" lat="42.886866"><ele>287.5</ele></trkpt>
<trkpt lon="-8.521193" lat="42.886885"><ele>287.5</ele></trkpt>
<trkpt lon="-8.521324" lat="42.886914"><ele>287.0</ele></trkpt>
<trkpt lon="-8.521399" lat="42.886932"><ele>286.75</ele></trkpt>
<trkpt lon="-8.521444" lat="42.886955"><ele>287.0</ele></trkpt>
<trkpt lon="-8.521692" lat="42.887002"><ele>286.75</ele></trkpt>
<trkpt lon="-8.522482" lat="42.887152"><ele>284.5</ele></trkpt>
<trkpt lon="-8.522526" lat="42.887161"><ele>284.5</ele></trkpt>
<trkpt lon="-8.522545" lat="42.887183"><ele>284.5</ele></trkpt>
<trkpt lon="-8.522853" lat="42.887214"><ele>284.5</ele></trkpt>
<trkpt lon="-8.522904" lat="42.887197"><ele>284.25</ele></trkpt>
<trkpt lon="-8.523459" lat="42.887224"><ele>283.5</ele></trkpt>
<trkpt lon="-8.523508" lat="42.887191"><ele>283.0</ele></trkpt>
<trkpt lon="-8.523540" lat="42.887154"><ele>282.5</ele></trkpt>
<trkpt lon="-8.523631" lat="42.887152"><ele>282.0</ele></trkpt>
<trkpt lon="-8.523750" lat="42.887150"><ele>282.0</ele></trkpt>
<trkpt lon="-8.523731" lat="42.887183"><ele>282.5</ele></trkpt>
<trkpt lon="-8.523739" lat="42.887216"><ele>282.75</ele></trkpt>
<trkpt lon="-8.523795" lat="42.887238"><ele>283.0</ele></trkpt>
<trkpt lon="-8.523851" lat="42.887238"><ele>283.0</ele></trkpt>
<trkpt lon="-8.525124" lat="42.887211"><ele>281.25</ele></trkpt>
<trkpt lon="-8.525397" lat="42.887145"><ele>279.5</ele></trkpt>
<trkpt lon="-8.525859" lat="42.887009"><ele>279.0</ele></trkpt>
<trkpt lon="-8.526123" lat="42.886930"><ele>280.25</ele></trkpt>
<trkpt lon="-8.526296" lat="42.886866"><ele>277.5</ele></trkpt>
<trkpt lon="-8.527107" lat="42.886506"><ele>281.0</ele></trkpt>
<trkpt lon="-8.527395" lat="42.886382"><ele>281.75</ele></trkpt>
<trkpt lon="-8.527463" lat="42.886350"><ele>281.75</ele></trkpt>
<trkpt lon="-8.527510" lat="42.886318"><ele>281.75</ele></trkpt>
<trkpt lon="-8.527544" lat="42.886273"><ele>281.5</ele></trkpt>
<trkpt lon="-8.527570" lat="42.886204"><ele>281.25</ele></trkpt>
<trkpt lon="-8.527644" lat="42.886212"><ele>281.5</ele></trkpt>
<trkpt lon="-8.527700" lat="42.886220"><ele>281.5</ele></trkpt>
<trkpt lon="-8.527765" lat="42.886203"><ele>281.5</ele></trkpt>
<trkpt lon="-8.527956" lat="42.886158"><ele>281.25</ele></trkpt>
<trkpt lon="-8.528955" lat="42.886068"><ele>277.0</ele></trkpt>
<trkpt lon="-8.529044" lat="42.886064"><ele>276.75</ele></trkpt>
<trkpt lon="-8.529108" lat="42.886060"><ele>276.5</ele></trkpt>
<trkpt lon="-8.529695" lat="42.885986"><ele>275.0</ele></trkpt>
<trkpt lon="-8.529758" lat="42.885979"><ele>274.75</ele></trkpt>
<trkpt lon="-8.529820" lat="42.885972"><ele>274.75</ele></trkpt>
<trkpt lon="-8.529982" lat="42.885935"><ele>274.0</ele></trkpt>
<trkpt lon="-8.530215" lat="42.885872"><ele>273.25</ele></trkpt>
<trkpt lon="-8.530319" lat="42.885834"><ele>273.0</ele></trkpt>
<trkpt lon="-8.530400" lat="42.885795"><ele>273.0</ele></trkpt>
<trkpt lon="-8.530562" lat="42.885708"><ele>273.5</ele></trkpt>
<trkpt lon="-8.530694" lat="42.885619"><ele>274.0</ele></trkpt>
<trkpt lon="-8.530853" lat="42.885500"><ele>273.75</ele></trkpt>
<trkpt lon="-8.530966" lat="42.885413"><ele>274.0</ele></trkpt>
<trkpt lon="-8.531062" lat="42.885349"><ele>274.25</ele></trkpt>
<trkpt lon="-8.531159" lat="42.885295"><ele>274.0</ele></trkpt>
<trkpt lon="-8.531213" lat="42.885240"><ele>273.75</ele></trkpt>
<trkpt lon="-8.531360" lat="42.885182"><ele>273.75</ele></trkpt>
<trkpt lon="-8.531381" lat="42.885161"><ele>273.75</ele></trkpt>
<trkpt lon="-8.531408" lat="42.885134"><ele>274.0</ele></trkpt>
<trkpt lon="-8.531722" lat="42.885018"><ele>273.0</ele></trkpt>
<trkpt lon="-8.531752" lat="42.885008"><ele>273.0</ele></trkpt>
<trkpt lon="-8.531826" lat="42.885023"><ele>273.0</ele></trkpt>
<trkpt lon="-8.531878" lat="42.885022"><ele>273.0</ele></trkpt>
<trkpt lon="-8.531949" lat="42.885035"><ele>272.75</ele></trkpt>
<trkpt lon="-8.532046" lat="42.885035"><ele>272.25</ele></trkpt>
<trkpt lon="-8.532155" lat="42.885058"><ele>271.5</ele></trkpt>
<trkpt lon="-8.532643" lat="42.885224"><ele>268.75</ele></trkpt>
<trkpt lon="-8.532714" lat="42.885239"><ele>268.75</ele></trkpt>
<trkpt lon="-8.532778" lat="42.885243"><ele>268.5</ele></trkpt>
<trkpt lon="-8.532858" lat="42.885238"><ele>268.25</ele></trkpt>
<trkpt lon="-8.532943" lat="42.885220"><ele>268.0</ele></trkpt>
<trkpt lon="-8.533010" lat="42.885184"><ele>267.5</ele></trkpt>
<trkpt lon="-8.533059" lat="42.885134"><ele>267.5</ele></trkpt>
<trkpt lon="-8.533362" lat="42.884838"><ele>268.5</ele></trkpt>
<trkpt lon="-8.533457" lat="42.884749"><ele>268.5</ele></trkpt>
<trkpt lon="-8.533550" lat="42.884642"><ele>268.25</ele></trkpt>
<trkpt lon="-8.533652" lat="42.884509"><ele>268.25</ele></trkpt>
<trkpt lon="-8.533744" lat="42.884404"><ele>268.25</ele></trkpt>
<trkpt lon="-8.533787" lat="42.884338"><ele>268.25</ele></trkpt>
<trkpt lon="-8.533824" lat="42.884277"><ele>268.25</ele></trkpt>
<trkpt lon="-8.533925" lat="42.884307"><ele>269.5</ele></trkpt>
<trkpt lon="-8.534026" lat="42.884142"><ele>270.25</ele></trkpt>
<trkpt lon="-8.534071" lat="42.884043"><ele>270.5</ele></trkpt>
<trkpt lon="-8.534121" lat="42.883868"><ele>270.25</ele></trkpt>
<trkpt lon="-8.534209" lat="42.883371"><ele>271.5</ele></trkpt>
<trkpt lon="-8.534363" lat="42.882637"><ele>273.25</ele></trkpt>
<trkpt lon="-8.534408" lat="42.882496"><ele>272.5</ele></trkpt>
<trkpt lon="-8.534477" lat="42.882393"><ele>273.0</ele></trkpt>
<trkpt lon="-8.534910" lat="42.881907"><ele>275.75</ele></trkpt>
<trkpt lon="-8.534948" lat="42.881878"><ele>276.0</ele></trkpt>
<trkpt lon="-8.535006" lat="42.881844"><ele>276.25</ele></trkpt>
<trkpt lon="-8.535074" lat="42.881819"><ele>277.0</ele></trkpt>
<trkpt lon="-8.535239" lat="42.881778"><ele>278.0</ele></trkpt>
<trkpt lon="-8.535341" lat="42.881759"><ele>278.5</ele></trkpt>
<trkpt lon="-8.536203" lat="42.881612"><ele>275.75</ele></trkpt>
<trkpt lon="-8.536386" lat="42.881576"><ele>275.5</ele></trkpt>
<trkpt lon="-8.536643" lat="42.881521"><ele>274.75</ele></trkpt>
<trkpt lon="-8.537232" lat="42.881397"><ele>271.0</ele></trkpt>
<trkpt lon="-8.537864" lat="42.881298"><ele>269.0</ele></trkpt>
<trkpt lon="-8.538045" lat="42.881262"><ele>267.5</ele></trkpt>
<trkpt lon="-8.538158" lat="42.881272"><ele>267.0</ele></trkpt>
<trkpt lon="-8.538277" lat="42.881299"><ele>266.75</ele></trkpt>
<trkpt lon="-8.538421" lat="42.881345"><ele>266.25</ele></trkpt>
<trkpt lon="-8.538760" lat="42.881486"><ele>264.75</ele></trkpt>
<trkpt lon="-8.539216" lat="42.881684"><ele>262.75</ele></trkpt>
<trkpt lon="-8.539587" lat="42.881835"><ele>261.5</ele></trkpt>
<trkpt lon="-8.539894" lat="42.881935"><ele>261.75</ele></trkpt>
<trkpt lon="-8.539950" lat="42.881951"><ele>262.0</ele></trkpt>
<trkpt lon="-8.540017" lat="42.881968"><ele>262.0</ele></trkpt>
<trkpt lon="-8.540150" lat="42.881990"><ele>262.75</ele></trkpt>
<trkpt lon="-8.540159" lat="42.881943"><ele>262.5</ele></trkpt>
<trkpt lon="-8.540267" lat="42.881887"><ele>262.75</ele></trkpt>
<trkpt lon="-8.540326" lat="42.881858"><ele>263.0</ele></trkpt>
<trkpt lon="-8.540355" lat="42.881857"><ele>263.25</ele></trkpt>
<trkpt lon="-8.540511" lat="42.881852"><ele>264.0</ele></trkpt>
<trkpt lon="-8.540565" lat="42.881853"><ele>264.25</ele></trkpt>
<trkpt lon="-8.540830" lat="42.881849"><ele>265.25</ele></trkpt>
<trkpt lon="-8.540982" lat="42.881827"><ele>266.25</ele></trkpt>
<trkpt lon="-8.541076" lat="42.881792"><ele>266.75</ele></trkpt>
<trkpt lon="-8.541104" lat="42.881781"><ele>266.75</ele></trkpt>
<trkpt lon="-8.541208" lat="42.881744"><ele>267.5</ele></trkpt>
<trkpt lon="-8.541597" lat="42.881630"><ele>269.5</ele></trkpt>
<trkpt lon="-8.541687" lat="42.881549"><ele>270.0</ele></trkpt>
<trkpt lon="-8.541827" lat="42.881489"><ele>270.75</ele></trkpt>
<trkpt lon="-8.541966" lat="42.881443"><ele>271.25</ele></trkpt>
<trkpt lon="-8.542198" lat="42.881389"><ele>272.75</ele></trkpt>
<trkpt lon="-8.542305" lat="42.881378"><ele>272.75</ele></trkpt>
<trkpt lon="-8.542369" lat="42.881228"><ele>272.25</ele></trkpt>
<trkpt lon="-8.542424" lat="42.881159"><ele>272.0</ele></trkpt>
<trkpt lon="-8.542862" lat="42.881202"><ele>271.0</ele></trkpt>
<trkpt lon="-8.542931" lat="42.881213"><ele>271.0</ele></trkpt>
<trkpt lon="-8.543099" lat="42.881233"><ele>270.5</ele></trkpt>
<trkpt lon="-8.543323" lat="42.881241"><ele>269.25</ele></trkpt>
<trkpt lon="-8.543820" lat="42.881235"><ele>266.5</ele></trkpt>
<trkpt lon="-8.544224" lat="42.881179"><ele>263.75</ele></trkpt>
<trkpt lon="-8.544389" lat="42.881140"><ele>262.5</ele></trkpt>
<trkpt lon="-8.544436" lat="42.881130"><ele>262.0</ele></trkpt>
<trkpt lon="-8.544492" lat="42.881118"><ele>261.5</ele></trkpt>
<trkpt lon="-8.544525" lat="42.881111"><ele>261.25</ele></trkpt>
<trkpt lon="-8.544566" lat="42.881102"><ele>261.0</ele></trkpt>
<trkpt lon="-8.544622" lat="42.881086"><ele>260.5</ele></trkpt>
<trkpt lon="-8.544990" lat="42.880978"><ele>257.75</ele></trkpt>
  </trkseg></trk></gpx>
