<?xml version="1.0" encoding="UTF-8"?>
<gpx version="1.1" creator="compostel-brouter" xmlns="http://www.topografix.com/GPX/1/1">
  <metadata><name>ES-31-Ribadeo</name></metadata>
  <trk><name>ES-31-Ribadeo</name><trkseg>
<trkpt lon="-6.721862" lat="43.540158"><ele>7.0</ele></trkpt>
<trkpt lon="-6.721919" lat="43.540185"><ele>6.5</ele></trkpt>
<trkpt lon="-6.722031" lat="43.540255"><ele>5.75</ele></trkpt>
<trkpt lon="-6.722160" lat="43.540348"><ele>4.5</ele></trkpt>
<trkpt lon="-6.722305" lat="43.540426"><ele>4.0</ele></trkpt>
<trkpt lon="-6.722357" lat="43.540441"><ele>4.0</ele></trkpt>
<trkpt lon="-6.722422" lat="43.540435"><ele>4.0</ele></trkpt>
<trkpt lon="-6.722546" lat="43.540384"><ele>4.0</ele></trkpt>
<trkpt lon="-6.722618" lat="43.540337"><ele>4.25</ele></trkpt>
<trkpt lon="-6.722645" lat="43.540358"><ele>4.25</ele></trkpt>
<trkpt lon="-6.723166" lat="43.540045"><ele>6.0</ele></trkpt>
<trkpt lon="-6.723235" lat="43.540054"><ele>5.5</ele></trkpt>
<trkpt lon="-6.724168" lat="43.540243"><ele>3.0</ele></trkpt>
<trkpt lon="-6.724199" lat="43.540249"><ele>3.0</ele></trkpt>
<trkpt lon="-6.724365" lat="43.540283"><ele>3.5</ele></trkpt>
<trkpt lon="-6.724405" lat="43.540294"><ele>3.75</ele></trkpt>
<trkpt lon="-6.724426" lat="43.540226"><ele>3.75</ele></trkpt>
<trkpt lon="-6.724468" lat="43.540232"><ele>3.75</ele></trkpt>
<trkpt lon="-6.724516" lat="43.540240"><ele>3.75</ele></trkpt>
<trkpt lon="-6.724559" lat="43.540245"><ele>3.75</ele></trkpt>
<trkpt lon="-6.724651" lat="43.540255"><ele>3.75</ele></trkpt>
<trkpt lon="-6.724640" lat="43.540308"><ele>4.0</ele></trkpt>
<trkpt lon="-6.724556" lat="43.540717"><ele>4.5</ele></trkpt>
<trkpt lon="-6.724513" lat="43.540944"><ele>4.75</ele></trkpt>
<trkpt lon="-6.724518" lat="43.541060"><ele>5.0</ele></trkpt>
<trkpt lon="-6.724578" lat="43.541146"><ele>4.25</ele></trkpt>
<trkpt lon="-6.724620" lat="43.541191"><ele>4.0</ele></trkpt>
<trkpt lon="-6.724698" lat="43.541248"><ele>4.0</ele></trkpt>
<trkpt lon="-6.724778" lat="43.541292"><ele>4.0</ele></trkpt>
<trkpt lon="-6.724958" lat="43.541349"><ele>4.25</ele></trkpt>
<trkpt lon="-6.726463" lat="43.541865"><ele>7.0</ele></trkpt>
<trkpt lon="-6.726516" lat="43.541857"><ele>7.0</ele></trkpt>
<trkpt lon="-6.726558" lat="43.541843"><ele>7.0</ele></trkpt>
<trkpt lon="-6.726577" lat="43.541827"><ele>7.0</ele></trkpt>
<trkpt lon="-6.726618" lat="43.541841"><ele>7.25</ele></trkpt>
<trkpt lon="-6.726657" lat="43.541854"><ele>7.25</ele></trkpt>
<trkpt lon="-6.726646" lat="43.541873"><ele>7.25</ele></trkpt>
<trkpt lon="-6.726648" lat="43.541895"><ele>7.25</ele></trkpt>
<trkpt lon="-6.726677" lat="43.541925"><ele>7.25</ele></trkpt>
<trkpt lon="-6.727007" lat="43.542028"><ele>7.5</ele></trkpt>
<trkpt lon="-6.726984" lat="43.542073"><ele>7.5</ele></trkpt>
<trkpt lon="-6.727180" lat="43.542138"><ele>7.5</ele></trkpt>
<trkpt lon="-6.727225" lat="43.542104"><ele>7.5</ele></trkpt>
<trkpt lon="-6.727458" lat="43.541947"><ele>8.5</ele></trkpt>
<trkpt lon="-6.727502" lat="43.541909"><ele>9.0</ele></trkpt>
<trkpt lon="-6.728436" lat="43.541095"><ele>16.25</ele></trkpt>
<trkpt lon="-6.728819" lat="43.540975"><ele>18.25</ele></trkpt>
<trkpt lon="-6.729289" lat="43.540668"><ele>22.75</ele></trkpt>
<trkpt lon="-6.729720" lat="43.540371"><ele>27.25</ele></trkpt>
<trkpt lon="-6.730041" lat="43.540020"><ele>30.0</ele></trkpt>
<trkpt lon="-6.730430" lat="43.539615"><ele>32.25</ele></trkpt>
<trkpt lon="-6.730764" lat="43.539422"><ele>34.25</ele></trkpt>
<trkpt lon="-6.730824" lat="43.539450"><ele>34.75</ele></trkpt>
<trkpt lon="-6.731630" lat="43.539577"><ele>40.0</ele></trkpt>
<trkpt lon="-6.731778" lat="43.539704"><ele>42.0</ele></trkpt>
<trkpt lon="-6.733252" lat="43.540072"><ele>60.5</ele></trkpt>
<trkpt lon="-6.733854" lat="43.540143"><ele>67.5</ele></trkpt>
<trkpt lon="-6.734609" lat="43.540182"><ele>77.5</ele></trkpt>
<trkpt lon="-6.735079" lat="43.540147"><ele>79.25</ele></trkpt>
<trkpt lon="-6.735452" lat="43.540069"><ele>79.25</ele></trkpt>
<trkpt lon="-6.736224" lat="43.539875"><ele>75.75</ele></trkpt>
<trkpt lon="-6.736699" lat="43.539809"><ele>73.25</ele></trkpt>
<trkpt lon="-6.737146" lat="43.539829"><ele>70.75</ele></trkpt>
<trkpt lon="-6.737412" lat="43.539764"><ele>69.25</ele></trkpt>
<trkpt lon="-6.737993" lat="43.539799"><ele>66.25</ele></trkpt>
<trkpt lon="-6.739031" lat="43.539861"><ele>62.5</ele></trkpt>
<trkpt lon="-6.740155" lat="43.539967"><ele>62.0</ele></trkpt>
<trkpt lon="-6.741421" lat="43.540171"><ele>59.5</ele></trkpt>
<trkpt lon="-6.741648" lat="43.540043"><ele>58.75</ele></trkpt>
<trkpt lon="-6.741885" lat="43.540003"><ele>58.0</ele></trkpt>
<trkpt lon="-6.742451" lat="43.540035"><ele>56.5</ele></trkpt>
<trkpt lon="-6.742585" lat="43.540050"><ele>56.75</ele></trkpt>
<trkpt lon="-6.742632" lat="43.540039"><ele>56.75</ele></trkpt>
<trkpt lon="-6.742705" lat="43.540089"><ele>57.0</ele></trkpt>
<trkpt lon="-6.742897" lat="43.540153"><ele>57.5</ele></trkpt>
<trkpt lon="-6.743205" lat="43.540154"><ele>56.75</ele></trkpt>
<trkpt lon="-6.743483" lat="43.539888"><ele>56.5</ele></trkpt>
<trkpt lon="-6.743681" lat="43.539746"><ele>57.0</ele></trkpt>
<trkpt lon="-6.744318" lat="43.539446"><ele>56.75</ele></trkpt>
<trkpt lon="-6.744918" lat="43.539272"><ele>57.5</ele></trkpt>
<trkpt lon="-6.745307" lat="43.538953"><ele>59.75</ele></trkpt>
<trkpt lon="-6.745667" lat="43.538990"><ele>60.5</ele></trkpt>
<trkpt lon="-6.746347" lat="43.538851"><ele>63.25</ele></trkpt>
<trkpt lon="-6.746813" lat="43.538703"><ele>68.0</ele></trkpt>
<trkpt lon="-6.747188" lat="43.538592"><ele>71.0</ele></trkpt>
<trkpt lon="-6.747388" lat="43.538505"><ele>74.25</ele></trkpt>
<trkpt lon="-6.747995" lat="43.538673"><ele>80.0</ele></trkpt>
<trkpt lon="-6.748128" lat="43.538621"><ele>81.25</ele></trkpt>
<trkpt lon="-6.748284" lat="43.538604"><ele>82.75</ele></trkpt>
<trkpt lon="-6.748747" lat="43.538553"><ele>88.0</ele></trkpt>
<trkpt lon="-6.749689" lat="43.538542"><ele>93.5</ele></trkpt>
<trkpt lon="-6.749940" lat="43.538578"><ele>94.0</ele></trkpt>
<trkpt lon="-6.750274" lat="43.538580"><ele>94.5</ele></trkpt>
<trkpt lon="-6.750875" lat="43.538563"><ele>97.25</ele></trkpt>
<trkpt lon="-6.751019" lat="43.538543"><ele>98.25</ele></trkpt>
<trkpt lon="-6.751331" lat="43.538501"><ele>100.25</ele></trkpt>
<trkpt lon="-6.751791" lat="43.538422"><ele>102.0</ele></trkpt>
<trkpt lon="-6.752127" lat="43.538373"><ele>102.0</ele></trkpt>
<trkpt lon="-6.752218" lat="43.538320"><ele>102.25</ele></trkpt>
<trkpt lon="-6.752891" lat="43.538185"><ele>103.75</ele></trkpt>
<trkpt lon="-6.752908" lat="43.538057"><ele>106.5</ele></trkpt>
<trkpt lon="-6.754057" lat="43.537869"><ele>107.0</ele></trkpt>
<trkpt lon="-6.754806" lat="43.537780"><ele>108.5</ele></trkpt>
<trkpt lon="-6.755205" lat="43.537733"><ele>108.75</ele></trkpt>
<trkpt lon="-6.756554" lat="43.537680"><ele>108.5</ele></trkpt>
<trkpt lon="-6.757132" lat="43.537639"><ele>108.75</ele></trkpt>
<trkpt lon="-6.757794" lat="43.537777"><ele>108.0</ele></trkpt>
<trkpt lon="-6.758437" lat="43.537880"><ele>109.0</ele></trkpt>
<trkpt lon="-6.759453" lat="43.537966"><ele>107.75</ele></trkpt>
<trkpt lon="-6.760869" lat="43.538086"><ele>106.5</ele></trkpt>
<trkpt lon="-6.761523" lat="43.538279"><ele>103.75</ele></trkpt>
<trkpt lon="-6.762049" lat="43.538490"><ele>101.5</ele></trkpt>
<trkpt lon="-6.762592" lat="43.538720"><ele>99.0</ele></trkpt>
<trkpt lon="-6.763079" lat="43.538821"><ele>98.25</ele></trkpt>
<trkpt lon="-6.763471" lat="43.538825"><ele>98.25</ele></trkpt>
<trkpt lon="-6.763822" lat="43.538786"><ele>97.75</ele></trkpt>
<trkpt lon="-6.764151" lat="43.538650"><ele>96.0</ele></trkpt>
<trkpt lon="-6.764577" lat="43.538657"><ele>94.25</ele></trkpt>
<trkpt lon="-6.765211" lat="43.538698"><ele>93.25</ele></trkpt>
<trkpt lon="-6.765491" lat="43.538811"><ele>92.5</ele></trkpt>
<trkpt lon="-6.766357" lat="43.539213"><ele>91.0</ele></trkpt>
<trkpt lon="-6.767794" lat="43.539932"><ele>95.25</ele></trkpt>
<trkpt lon="-6.767926" lat="43.540045"><ele>95.75</ele></trkpt>
<trkpt lon="-6.768124" lat="43.540106"><ele>96.5</ele></trkpt>
<trkpt lon="-6.768424" lat="43.540171"><ele>97.75</ele></trkpt>
<trkpt lon="-6.768637" lat="43.540186"><ele>98.75</ele></trkpt>
<trkpt lon="-6.769045" lat="43.540163"><ele>100.0</ele></trkpt>
<trkpt lon="-6.769652" lat="43.540064"><ele>102.5</ele></trkpt>
<trkpt lon="-6.770250" lat="43.539953"><ele>105.0</ele></trkpt>
<trkpt lon="-6.772004" lat="43.539515"><ele>113.5</ele></trkpt>
<trkpt lon="-6.773390" lat="43.539145"><ele>122.0</ele></trkpt>
<trkpt lon="-6.773430" lat="43.539284"><ele>119.25</ele></trkpt>
<trkpt lon="-6.773571" lat="43.539678"><ele>121.25</ele></trkpt>
<trkpt lon="-6.773633" lat="43.539818"><ele>122.5</ele></trkpt>
<trkpt lon="-6.773628" lat="43.540016"><ele>122.0</ele></trkpt>
<trkpt lon="-6.773560" lat="43.540191"><ele>121.25</ele></trkpt>
<trkpt lon="-6.774229" lat="43.540965"><ele>116.0</ele></trkpt>
<trkpt lon="-6.774324" lat="43.541110"><ele>114.5</ele></trkpt>
<trkpt lon="-6.774410" lat="43.541314"><ele>112.5</ele></trkpt>
<trkpt lon="-6.774420" lat="43.541414"><ele>111.5</ele></trkpt>
<trkpt lon="-6.774397" lat="43.541575"><ele>109.25</ele></trkpt>
<trkpt lon="-6.774325" lat="43.541707"><ele>107.5</ele></trkpt>
<trkpt lon="-6.774308" lat="43.541799"><ele>107.0</ele></trkpt>
<trkpt lon="-6.774338" lat="43.541893"><ele>106.25</ele></trkpt>
<trkpt lon="-6.774526" lat="43.542117"><ele>104.5</ele></trkpt>
<trkpt lon="-6.774581" lat="43.542215"><ele>103.5</ele></trkpt>
<trkpt lon="-6.774589" lat="43.542296"><ele>102.25</ele></trkpt>
<trkpt lon="-6.774565" lat="43.542366"><ele>101.25</ele></trkpt>
<trkpt lon="-6.774445" lat="43.542467"><ele>100.25</ele></trkpt>
<trkpt lon="-6.774511" lat="43.542494"><ele>99.5</ele></trkpt>
<trkpt lon="-6.774592" lat="43.542478"><ele>99.25</ele></trkpt>
<trkpt lon="-6.774842" lat="43.542455"><ele>97.75</ele></trkpt>
<trkpt lon="-6.775736" lat="43.542452"><ele>93.5</ele></trkpt>
<trkpt lon="-6.775865" lat="43.542465"><ele>93.25</ele></trkpt>
<trkpt lon="-6.775959" lat="43.542506"><ele>93.25</ele></trkpt>
<trkpt lon="-6.776133" lat="43.542624"><ele>94.0</ele></trkpt>
<trkpt lon="-6.776515" lat="43.542866"><ele>96.25</ele></trkpt>
<trkpt lon="-6.776922" lat="43.543174"><ele>96.0</ele></trkpt>
<trkpt lon="-6.776920" lat="43.543260"><ele>95.5</ele></trkpt>
<trkpt lon="-6.776898" lat="43.543335"><ele>94.75</ele></trkpt>
<trkpt lon="-6.777358" lat="43.543405"><ele>95.5</ele></trkpt>
<trkpt lon="-6.777572" lat="43.543559"><ele>93.25</ele></trkpt>
<trkpt lon="-6.778345" lat="43.543909"><ele>98.0</ele></trkpt>
<trkpt lon="-6.778482" lat="43.543988"><ele>99.25</ele></trkpt>
<trkpt lon="-6.778577" lat="43.544064"><ele>100.0</ele></trkpt>
<trkpt lon="-6.779025" lat="43.544158"><ele>101.0</ele></trkpt>
<trkpt lon="-6.780828" lat="43.544338"><ele>105.25</ele></trkpt>
<trkpt lon="-6.782603" lat="43.544537"><ele>108.25</ele></trkpt>
<trkpt lon="-6.782751" lat="43.545304"><ele>103.75</ele></trkpt>
<trkpt lon="-6.782825" lat="43.545611"><ele>102.75</ele></trkpt>
<trkpt lon="-6.782908" lat="43.545834"><ele>101.75</ele></trkpt>
<trkpt lon="-6.783004" lat="43.545958"><ele>101.5</ele></trkpt>
<trkpt lon="-6.783259" lat="43.546149"><ele>100.0</ele></trkpt>
<trkpt lon="-6.783406" lat="43.546367"><ele>98.75</ele></trkpt>
<trkpt lon="-6.784314" lat="43.545922"><ele>98.5</ele></trkpt>
<trkpt lon="-6.785766" lat="43.545196"><ele>100.75</ele></trkpt>
<trkpt lon="-6.786186" lat="43.545067"><ele>102.25</ele></trkpt>
<trkpt lon="-6.786519" lat="43.544906"><ele>103.5</ele></trkpt>
<trkpt lon="-6.786722" lat="43.544799"><ele>104.25</ele></trkpt>
<trkpt lon="-6.786826" lat="43.544724"><ele>104.25</ele></trkpt>
<trkpt lon="-6.787033" lat="43.544756"><ele>103.5</ele></trkpt>
<trkpt lon="-6.787059" lat="43.544415"><ele>106.25</ele></trkpt>
<trkpt lon="-6.787258" lat="43.544114"><ele>108.25</ele></trkpt>
<trkpt lon="-6.787519" lat="43.544196"><ele>106.5</ele></trkpt>
<trkpt lon="-6.787808" lat="43.544335"><ele>105.25</ele></trkpt>
<trkpt lon="-6.787956" lat="43.544533"><ele>103.25</ele></trkpt>
<trkpt lon="-6.788063" lat="43.544652"><ele>101.5</ele></trkpt>
<trkpt lon="-6.788139" lat="43.544668"><ele>101.0</ele></trkpt>
<trkpt lon="-6.788326" lat="43.544656"><ele>100.0</ele></trkpt>
<trkpt lon="-6.788407" lat="43.544628"><ele>100.0</ele></trkpt>
<trkpt lon="-6.788440" lat="43.544590"><ele>100.5</ele></trkpt>
<trkpt lon="-6.788501" lat="43.544555"><ele>100.5</ele></trkpt>
<trkpt lon="-6.788649" lat="43.544504"><ele>100.5</ele></trkpt>
<trkpt lon="-6.788687" lat="43.544499"><ele>100.5</ele></trkpt>
<trkpt lon="-6.788724" lat="43.544630"><ele>99.25</ele></trkpt>
<trkpt lon="-6.789143" lat="43.544601"><ele>97.75</ele></trkpt>
<trkpt lon="-6.789650" lat="43.544584"><ele>96.25</ele></trkpt>
<trkpt lon="-6.790083" lat="43.544601"><ele>95.0</ele></trkpt>
<trkpt lon="-6.790505" lat="43.544648"><ele>92.75</ele></trkpt>
<trkpt lon="-6.790742" lat="43.544655"><ele>91.5</ele></trkpt>
<trkpt lon="-6.791996" lat="43.544613"><ele>83.25</ele></trkpt>
<trkpt lon="-6.792251" lat="43.544554"><ele>81.75</ele></trkpt>
<trkpt lon="-6.792675" lat="43.544440"><ele>79.25</ele></trkpt>
<trkpt lon="-6.792781" lat="43.544370"><ele>78.75</ele></trkpt>
<trkpt lon="-6.793205" lat="43.544331"><ele>76.0</ele></trkpt>
<trkpt lon="-6.793318" lat="43.544290"><ele>75.5</ele></trkpt>
<trkpt lon="-6.793427" lat="43.544371"><ele>75.25</ele></trkpt>
<trkpt lon="-6.793565" lat="43.544446"><ele>74.75</ele></trkpt>
<trkpt lon="-6.793715" lat="43.544490"><ele>74.25</ele></trkpt>
<trkpt lon="-6.794074" lat="43.544534"><ele>73.0</ele></trkpt>
<trkpt lon="-6.794398" lat="43.544599"><ele>71.5</ele></trkpt>
<trkpt lon="-6.794764" lat="43.544704"><ele>69.75</ele></trkpt>
<trkpt lon="-6.795143" lat="43.544857"><ele>68.25</ele></trkpt>
<trkpt lon="-6.795399" lat="43.545014"><ele>67.5</ele></trkpt>
<trkpt lon="-6.795573" lat="43.545099"><ele>67.0</ele></trkpt>
<trkpt lon="-6.795702" lat="43.545126"><ele>68.0</ele></trkpt>
<trkpt lon="-6.795838" lat="43.545112"><ele>69.25</ele></trkpt>
<trkpt lon="-6.795962" lat="43.545063"><ele>71.0</ele></trkpt>
<trkpt lon="-6.796140" lat="43.544876"><ele>74.5</ele></trkpt>
<trkpt lon="-6.796244" lat="43.544800"><ele>76.5</ele></trkpt>
<trkpt lon="-6.796416" lat="43.544762"><ele>79.25</ele></trkpt>
<trkpt lon="-6.796404" lat="43.544878"><ele>77.25</ele></trkpt>
<trkpt lon="-6.796545" lat="43.545012"><ele>77.75</ele></trkpt>
<trkpt lon="-6.796566" lat="43.545068"><ele>78.5</ele></trkpt>
<trkpt lon="-6.796537" lat="43.545121"><ele>78.25</ele></trkpt>
<trkpt lon="-6.796598" lat="43.545155"><ele>79.25</ele></trkpt>
<trkpt lon="-6.796735" lat="43.545172"><ele>80.25</ele></trkpt>
<trkpt lon="-6.797050" lat="43.545148"><ele>81.25</ele></trkpt>
<trkpt lon="-6.797296" lat="43.545222"><ele>81.25</ele></trkpt>
<trkpt lon="-6.797501" lat="43.545340"><ele>80.75</ele></trkpt>
<trkpt lon="-6.798311" lat="43.545588"><ele>75.75</ele></trkpt>
<trkpt lon="-6.799050" lat="43.545453"><ele>70.0</ele></trkpt>
<trkpt lon="-6.799490" lat="43.545411"><ele>63.5</ele></trkpt>
<trkpt lon="-6.799898" lat="43.545460"><ele>59.0</ele></trkpt>
<trkpt lon="-6.800217" lat="43.545409"><ele>58.25</ele></trkpt>
<trkpt lon="-6.800565" lat="43.545237"><ele>58.25</ele></trkpt>
<trkpt lon="-6.800714" lat="43.545230"><ele>59.0</ele></trkpt>
<trkpt lon="-6.801017" lat="43.545265"><ele>61.75</ele></trkpt>
<trkpt lon="-6.801412" lat="43.545402"><ele>66.5</ele></trkpt>
<trkpt lon="-6.801507" lat="43.545471"><ele>67.25</ele></trkpt>
<trkpt lon="-6.801791" lat="43.545754"><ele>68.25</ele></trkpt>
<trkpt lon="-6.802139" lat="43.546060"><ele>68.25</ele></trkpt>
<trkpt lon="-6.802317" lat="43.546155"><ele>68.0</ele></trkpt>
<trkpt lon="-6.802453" lat="43.546185"><ele>68.5</ele></trkpt>
<trkpt lon="-6.802927" lat="43.546315"><ele>69.5</ele></trkpt>
<trkpt lon="-6.804051" lat="43.546539"><ele>73.25</ele></trkpt>
<trkpt lon="-6.804639" lat="43.546627"><ele>75.0</ele></trkpt>
<trkpt lon="-6.806773" lat="43.546967"><ele>75.75</ele></trkpt>
<trkpt lon="-6.806902" lat="43.546994"><ele>75.75</ele></trkpt>
<trkpt lon="-6.807075" lat="43.547017"><ele>75.5</ele></trkpt>
<trkpt lon="-6.807383" lat="43.547080"><ele>75.5</ele></trkpt>
<trkpt lon="-6.807646" lat="43.547089"><ele>75.25</ele></trkpt>
<trkpt lon="-6.807892" lat="43.547154"><ele>75.0</ele></trkpt>
<trkpt lon="-6.808093" lat="43.547181"><ele>75.0</ele></trkpt>
<trkpt lon="-6.808636" lat="43.547277"><ele>71.25</ele></trkpt>
<trkpt lon="-6.809133" lat="43.547342"><ele>66.5</ele></trkpt>
<trkpt lon="-6.809917" lat="43.547430"><ele>61.5</ele></trkpt>
<trkpt lon="-6.809930" lat="43.547378"><ele>61.5</ele></trkpt>
<trkpt lon="-6.810015" lat="43.547365"><ele>62.0</ele></trkpt>
<trkpt lon="-6.810365" lat="43.547421"><ele>63.0</ele></trkpt>
<trkpt lon="-6.810738" lat="43.547473"><ele>65.25</ele></trkpt>
<trkpt lon="-6.811314" lat="43.547506"><ele>68.5</ele></trkpt>
<trkpt lon="-6.812453" lat="43.547777"><ele>73.0</ele></trkpt>
<trkpt lon="-6.812641" lat="43.547850"><ele>73.25</ele></trkpt>
<trkpt lon="-6.812683" lat="43.547704"><ele>73.5</ele></trkpt>
<trkpt lon="-6.812713" lat="43.546902"><ele>74.75</ele></trkpt>
<trkpt lon="-6.812895" lat="43.546383"><ele>76.25</ele></trkpt>
<trkpt lon="-6.812937" lat="43.546188"><ele>76.75</ele></trkpt>
<trkpt lon="-6.813386" lat="43.546244"><ele>76.5</ele></trkpt>
<trkpt lon="-6.813760" lat="43.546364"><ele>76.0</ele></trkpt>
<trkpt lon="-6.814101" lat="43.546758"><ele>75.0</ele></trkpt>
<trkpt lon="-6.814315" lat="43.547162"><ele>73.25</ele></trkpt>
<trkpt lon="-6.814413" lat="43.547615"><ele>71.5</ele></trkpt>
<trkpt lon="-6.814466" lat="43.547938"><ele>70.25</ele></trkpt>
<trkpt lon="-6.814509" lat="43.548542"><ele>69.75</ele></trkpt>
<trkpt lon="-6.814835" lat="43.548547"><ele>68.5</ele></trkpt>
<trkpt lon="-6.816447" lat="43.548489"><ele>65.25</ele></trkpt>
<trkpt lon="-6.816801" lat="43.548404"><ele>64.75</ele></trkpt>
<trkpt lon="-6.817201" lat="43.548422"><ele>65.5</ele></trkpt>
<trkpt lon="-6.817984" lat="43.548419"><ele>66.75</ele></trkpt>
<trkpt lon="-6.818376" lat="43.548395"><ele>67.75</ele></trkpt>
<trkpt lon="-6.818600" lat="43.548368"><ele>67.75</ele></trkpt>
<trkpt lon="-6.819254" lat="43.548215"><ele>66.25</ele></trkpt>
<trkpt lon="-6.819498" lat="43.548135"><ele>65.5</ele></trkpt>
<trkpt lon="-6.820168" lat="43.547845"><ele>67.5</ele></trkpt>
<trkpt lon="-6.820313" lat="43.547793"><ele>68.0</ele></trkpt>
<trkpt lon="-6.820448" lat="43.547752"><ele>68.25</ele></trkpt>
<trkpt lon="-6.820977" lat="43.547593"><ele>69.0</ele></trkpt>
<trkpt lon="-6.821260" lat="43.547575"><ele>69.0</ele></trkpt>
<trkpt lon="-6.821474" lat="43.547592"><ele>69.25</ele></trkpt>
<trkpt lon="-6.821685" lat="43.547637"><ele>70.0</ele></trkpt>
<trkpt lon="-6.821943" lat="43.547736"><ele>70.0</ele></trkpt>
<trkpt lon="-6.822234" lat="43.547696"><ele>70.0</ele></trkpt>
<trkpt lon="-6.822349" lat="43.547906"><ele>69.5</ele></trkpt>
<trkpt lon="-6.822650" lat="43.547837"><ele>70.25</ele></trkpt>
<trkpt lon="-6.822778" lat="43.547961"><ele>70.25</ele></trkpt>
<trkpt lon="-6.822955" lat="43.548114"><ele>70.5</ele></trkpt>
<trkpt lon="-6.823095" lat="43.548224"><ele>70.0</ele></trkpt>
<trkpt lon="-6.823143" lat="43.548318"><ele>69.25</ele></trkpt>
<trkpt lon="-6.823217" lat="43.548533"><ele>68.75</ele></trkpt>
<trkpt lon="-6.823379" lat="43.548735"><ele>68.0</ele></trkpt>
<trkpt lon="-6.823553" lat="43.548843"><ele>67.0</ele></trkpt>
<trkpt lon="-6.823699" lat="43.548922"><ele>66.75</ele></trkpt>
<trkpt lon="-6.823696" lat="43.549029"><ele>66.5</ele></trkpt>
<trkpt lon="-6.823807" lat="43.549038"><ele>66.0</ele></trkpt>
<trkpt lon="-6.823933" lat="43.549100"><ele>65.25</ele></trkpt>
<trkpt lon="-6.824030" lat="43.549175"><ele>64.5</ele></trkpt>
<trkpt lon="-6.824130" lat="43.549230"><ele>64.25</ele></trkpt>
<trkpt lon="-6.824422" lat="43.549317"><ele>62.25</ele></trkpt>
<trkpt lon="-6.824643" lat="43.549393"><ele>61.0</ele></trkpt>
<trkpt lon="-6.825196" lat="43.549363"><ele>56.5</ele></trkpt>
<trkpt lon="-6.825346" lat="43.549378"><ele>55.5</ele></trkpt>
<trkpt lon="-6.825607" lat="43.549496"><ele>53.5</ele></trkpt>
<trkpt lon="-6.825649" lat="43.549523"><ele>53.25</ele></trkpt>
<trkpt lon="-6.825762" lat="43.549605"><ele>52.75</ele></trkpt>
<trkpt lon="-6.825865" lat="43.549654"><ele>53.5</ele></trkpt>
<trkpt lon="-6.825893" lat="43.549711"><ele>54.25</ele></trkpt>
<trkpt lon="-6.825971" lat="43.550093"><ele>59.0</ele></trkpt>
<trkpt lon="-6.826045" lat="43.550187"><ele>59.25</ele></trkpt>
<trkpt lon="-6.826233" lat="43.550300"><ele>59.75</ele></trkpt>
<trkpt lon="-6.826213" lat="43.550361"><ele>59.25</ele></trkpt>
<trkpt lon="-6.826426" lat="43.550431"><ele>60.0</ele></trkpt>
<trkpt lon="-6.826950" lat="43.550620"><ele>63.25</ele></trkpt>
<trkpt lon="-6.827008" lat="43.550640"><ele>63.5</ele></trkpt>
<trkpt lon="-6.827044" lat="43.550653"><ele>63.75</ele></trkpt>
<trkpt lon="-6.827108" lat="43.550640"><ele>64.25</ele></trkpt>
<trkpt lon="-6.827170" lat="43.550617"><ele>64.5</ele></trkpt>
<trkpt lon="-6.827243" lat="43.550556"><ele>65.0</ele></trkpt>
<trkpt lon="-6.827244" lat="43.550497"><ele>65.0</ele></trkpt>
<trkpt lon="-6.828101" lat="43.549955"><ele>66.75</ele></trkpt>
<trkpt lon="-6.828245" lat="43.549965"><ele>66.25</ele></trkpt>
<trkpt lon="-6.828354" lat="43.549987"><ele>66.0</ele></trkpt>
<trkpt lon="-6.828427" lat="43.550068"><ele>66.0</ele></trkpt>
<trkpt lon="-6.828519" lat="43.550450"><ele>66.0</ele></trkpt>
<trkpt lon="-6.828534" lat="43.550627"><ele>65.5</ele></trkpt>
<trkpt lon="-6.828506" lat="43.550753"><ele>65.25</ele></trkpt>
<trkpt lon="-6.828339" lat="43.551037"><ele>64.75</ele></trkpt>
<trkpt lon="-6.828679" lat="43.551096"><ele>63.75</ele></trkpt>
<trkpt lon="-6.828865" lat="43.551126"><ele>63.0</ele></trkpt>
<trkpt lon="-6.829271" lat="43.551185"><ele>61.0</ele></trkpt>
<trkpt lon="-6.829693" lat="43.551252"><ele>58.0</ele></trkpt>
<trkpt lon="-6.830036" lat="43.551310"><ele>57.0</ele></trkpt>
<trkpt lon="-6.830011" lat="43.551369"><ele>57.0</ele></trkpt>
<trkpt lon="-6.829911" lat="43.551607"><ele>54.0</ele></trkpt>
<trkpt lon="-6.829852" lat="43.552144"><ele>52.5</ele></trkpt>
<trkpt lon="-6.829908" lat="43.552318"><ele>51.25</ele></trkpt>
<trkpt lon="-6.830041" lat="43.552463"><ele>50.25</ele></trkpt>
<trkpt lon="-6.830354" lat="43.552655"><ele>51.0</ele></trkpt>
<trkpt lon="-6.830460" lat="43.552681"><ele>52.0</ele></trkpt>
<trkpt lon="-6.830569" lat="43.552699"><ele>52.75</ele></trkpt>
<trkpt lon="-6.830762" lat="43.552708"><ele>54.5</ele></trkpt>
<trkpt lon="-6.830823" lat="43.552710"><ele>55.0</ele></trkpt>
<trkpt lon="-6.830979" lat="43.552720"><ele>56.0</ele></trkpt>
<trkpt lon="-6.831318" lat="43.552765"><ele>57.75</ele></trkpt>
<trkpt lon="-6.831466" lat="43.552799"><ele>57.75</ele></trkpt>
<trkpt lon="-6.831608" lat="43.552841"><ele>58.0</ele></trkpt>
<trkpt lon="-6.831691" lat="43.552894"><ele>58.0</ele></trkpt>
<trkpt lon="-6.831760" lat="43.553043"><ele>58.25</ele></trkpt>
<trkpt lon="-6.831830" lat="43.553162"><ele>58.25</ele></trkpt>
<trkpt lon="-6.831949" lat="43.553216"><ele>58.25</ele></trkpt>
<trkpt lon="-6.832365" lat="43.553337"><ele>57.75</ele></trkpt>
<trkpt lon="-6.832678" lat="43.553395"><ele>57.5</ele></trkpt>
<trkpt lon="-6.832942" lat="43.553468"><ele>56.5</ele></trkpt>
<trkpt lon="-6.833011" lat="43.553472"><ele>56.5</ele></trkpt>
<trkpt lon="-6.833048" lat="43.553240"><ele>57.25</ele></trkpt>
<trkpt lon="-6.833055" lat="43.553198"><ele>57.25</ele></trkpt>
<trkpt lon="-6.833216" lat="43.553228"><ele>57.0</ele></trkpt>
<trkpt lon="-6.833383" lat="43.553228"><ele>57.0</ele></trkpt>
<trkpt lon="-6.833673" lat="43.553168"><ele>56.5</ele></trkpt>
<trkpt lon="-6.833925" lat="43.553092"><ele>55.5</ele></trkpt>
<trkpt lon="-6.834071" lat="43.553152"><ele>54.75</ele></trkpt>
<trkpt lon="-6.834600" lat="43.553178"><ele>50.75</ele></trkpt>
<trkpt lon="-6.834617" lat="43.553184"><ele>50.5</ele></trkpt>
<trkpt lon="-6.834690" lat="43.553159"><ele>50.0</ele></trkpt>
<trkpt lon="-6.834776" lat="43.553155"><ele>49.25</ele></trkpt>
<trkpt lon="-6.835097" lat="43.553241"><ele>43.75</ele></trkpt>
<trkpt lon="-6.835262" lat="43.553244"><ele>40.75</ele></trkpt>
<trkpt lon="-6.835706" lat="43.553080"><ele>33.0</ele></trkpt>
<trkpt lon="-6.836270" lat="43.553170"><ele>29.25</ele></trkpt>
<trkpt lon="-6.836989" lat="43.553161"><ele>34.25</ele></trkpt>
<trkpt lon="-6.837081" lat="43.553069"><ele>36.75</ele></trkpt>
<trkpt lon="-6.837142" lat="43.553095"><ele>38.25</ele></trkpt>
<trkpt lon="-6.837209" lat="43.553271"><ele>40.25</ele></trkpt>
<trkpt lon="-6.837249" lat="43.553461"><ele>42.75</ele></trkpt>
<trkpt lon="-6.837169" lat="43.553902"><ele>44.5</ele></trkpt>
<trkpt lon="-6.837223" lat="43.554002"><ele>45.25</ele></trkpt>
<trkpt lon="-6.837313" lat="43.554090"><ele>45.5</ele></trkpt>
<trkpt lon="-6.837464" lat="43.554135"><ele>47.75</ele></trkpt>
<trkpt lon="-6.837821" lat="43.554141"><ele>50.25</ele></trkpt>
<trkpt lon="-6.838515" lat="43.553993"><ele>52.5</ele></trkpt>
<trkpt lon="-6.838729" lat="43.553957"><ele>53.0</ele></trkpt>
<trkpt lon="-6.838961" lat="43.553680"><ele>56.25</ele></trkpt>
<trkpt lon="-6.840410" lat="43.553971"><ele>57.25</ele></trkpt>
<trkpt lon="-6.841153" lat="43.554145"><ele>56.0</ele></trkpt>
<trkpt lon="-6.841327" lat="43.554178"><ele>56.0</ele></trkpt>
<trkpt lon="-6.841762" lat="43.553738"><ele>57.0</ele></trkpt>
<trkpt lon="-6.841812" lat="43.553695"><ele>57.0</ele></trkpt>
<trkpt lon="-6.842202" lat="43.553362"><ele>58.75</ele></trkpt>
<trkpt lon="-6.843248" lat="43.552952"><ele>59.25</ele></trkpt>
<trkpt lon="-6.845110" lat="43.552656"><ele>56.5</ele></trkpt>
<trkpt lon="-6.845540" lat="43.552649"><ele>54.25</ele></trkpt>
<trkpt lon="-6.845774" lat="43.552559"><ele>53.5</ele></trkpt>
<trkpt lon="-6.846368" lat="43.551976"><ele>50.75</ele></trkpt>
<trkpt lon="-6.846636" lat="43.551889"><ele>50.0</ele></trkpt>
<trkpt lon="-6.847585" lat="43.552101"><ele>49.25</ele></trkpt>
<trkpt lon="-6.848322" lat="43.552481"><ele>53.0</ele></trkpt>
<trkpt lon="-6.849054" lat="43.552584"><ele>50.0</ele></trkpt>
<trkpt lon="-6.849420" lat="43.552962"><ele>53.25</ele></trkpt>
<trkpt lon="-6.849977" lat="43.553975"><ele>55.5</ele></trkpt>
<trkpt lon="-6.850242" lat="43.554387"><ele>53.5</ele></trkpt>
<trkpt lon="-6.851633" lat="43.555264"><ele>46.5</ele></trkpt>
<trkpt lon="-6.852908" lat="43.556038"><ele>52.0</ele></trkpt>
<trkpt lon="-6.852956" lat="43.556177"><ele>51.75</ele></trkpt>
<trkpt lon="-6.852946" lat="43.556338"><ele>51.5</ele></trkpt>
<trkpt lon="-6.852857" lat="43.556568"><ele>50.25</ele></trkpt>
<trkpt lon="-6.852836" lat="43.556657"><ele>50.0</ele></trkpt>
<trkpt lon="-6.852808" lat="43.556845"><ele>50.0</ele></trkpt>
<trkpt lon="-6.852876" lat="43.556896"><ele>50.0</ele></trkpt>
<trkpt lon="-6.852896" lat="43.556934"><ele>50.0</ele></trkpt>
<trkpt lon="-6.852915" lat="43.556971"><ele>50.0</ele></trkpt>
<trkpt lon="-6.852877" lat="43.557287"><ele>50.0</ele></trkpt>
<trkpt lon="-6.852824" lat="43.557443"><ele>50.0</ele></trkpt>
<trkpt lon="-6.853406" lat="43.557824"><ele>48.5</ele></trkpt>
<trkpt lon="-6.854228" lat="43.558345"><ele>46.75</ele></trkpt>
<trkpt lon="-6.854616" lat="43.558514"><ele>44.25</ele></trkpt>
<trkpt lon="-6.855577" lat="43.558667"><ele>41.0</ele></trkpt>
<trkpt lon="-6.855989" lat="43.558727"><ele>41.75</ele></trkpt>
<trkpt lon="-6.858401" lat="43.559086"><ele>43.0</ele></trkpt>
<trkpt lon="-6.858964" lat="43.559226"><ele>42.75</ele></trkpt>
<trkpt lon="-6.859817" lat="43.559729"><ele>40.5</ele></trkpt>
<trkpt lon="-6.859865" lat="43.559678"><ele>40.5</ele></trkpt>
<trkpt lon="-6.860125" lat="43.559477"><ele>41.25</ele></trkpt>
<trkpt lon="-6.860509" lat="43.559180"><ele>41.75</ele></trkpt>
<trkpt lon="-6.861243" lat="43.558462"><ele>43.0</ele></trkpt>
<trkpt lon="-6.861660" lat="43.558186"><ele>42.0</ele></trkpt>
<trkpt lon="-6.861970" lat="43.558056"><ele>42.0</ele></trkpt>
<trkpt lon="-6.862590" lat="43.557615"><ele>45.0</ele></trkpt>
<trkpt lon="-6.862949" lat="43.557436"><ele>46.0</ele></trkpt>
<trkpt lon="-6.863537" lat="43.557199"><ele>48.0</ele></trkpt>
<trkpt lon="-6.864182" lat="43.556814"><ele>50.25</ele></trkpt>
<trkpt lon="-6.864558" lat="43.556590"><ele>51.0</ele></trkpt>
<trkpt lon="-6.865240" lat="43.556139"><ele>52.75</ele></trkpt>
<trkpt lon="-6.866246" lat="43.555604"><ele>54.75</ele></trkpt>
<trkpt lon="-6.867234" lat="43.555188"><ele>56.25</ele></trkpt>
<trkpt lon="-6.867712" lat="43.555030"><ele>56.75</ele></trkpt>
<trkpt lon="-6.868124" lat="43.554980"><ele>57.0</ele></trkpt>
<trkpt lon="-6.868514" lat="43.554950"><ele>57.75</ele></trkpt>
<trkpt lon="-6.869234" lat="43.554971"><ele>58.0</ele></trkpt>
<trkpt lon="-6.870429" lat="43.554973"><ele>59.0</ele></trkpt>
<trkpt lon="-6.871484" lat="43.554979"><ele>59.0</ele></trkpt>
<trkpt lon="-6.871768" lat="43.554903"><ele>59.0</ele></trkpt>
<trkpt lon="-6.872303" lat="43.554898"><ele>58.0</ele></trkpt>
<trkpt lon="-6.872818" lat="43.555208"><ele>58.25</ele></trkpt>
<trkpt lon="-6.872936" lat="43.555325"><ele>58.0</ele></trkpt>
<trkpt lon="-6.873256" lat="43.555286"><ele>58.0</ele></trkpt>
<trkpt lon="-6.874439" lat="43.555042"><ele>57.0</ele></trkpt>
<trkpt lon="-6.874763" lat="43.555057"><ele>56.0</ele></trkpt>
<trkpt lon="-6.875155" lat="43.555156"><ele>54.25</ele></trkpt>
<trkpt lon="-6.876075" lat="43.555522"><ele>48.5</ele></trkpt>
<trkpt lon="-6.876159" lat="43.555458"><ele>47.5</ele></trkpt>
<trkpt lon="-6.876251" lat="43.555341"><ele>46.5</ele></trkpt>
<trkpt lon="-6.876420" lat="43.555214"><ele>44.0</ele></trkpt>
<trkpt lon="-6.876491" lat="43.555353"><ele>41.5</ele></trkpt>
<trkpt lon="-6.876502" lat="43.555573"><ele>39.75</ele></trkpt>
<trkpt lon="-6.876738" lat="43.555754"><ele>35.75</ele></trkpt>
<trkpt lon="-6.876879" lat="43.555823"><ele>33.25</ele></trkpt>
<trkpt lon="-6.877142" lat="43.555913"><ele>30.75</ele></trkpt>
<trkpt lon="-6.877570" lat="43.556136"><ele>25.75</ele></trkpt>
<trkpt lon="-6.877965" lat="43.556408"><ele>24.75</ele></trkpt>
<trkpt lon="-6.878120" lat="43.556488"><ele>22.25</ele></trkpt>
<trkpt lon="-6.878304" lat="43.556546"><ele>19.25</ele></trkpt>
<trkpt lon="-6.878508" lat="43.556668"><ele>15.25</ele></trkpt>
<trkpt lon="-6.878768" lat="43.556590"><ele>12.25</ele></trkpt>
<trkpt lon="-6.878880" lat="43.556569"><ele>11.5</ele></trkpt>
<trkpt lon="-6.879066" lat="43.556572"><ele>10.75</ele></trkpt>
<trkpt lon="-6.879498" lat="43.556606"><ele>9.25</ele></trkpt>
<trkpt lon="-6.879701" lat="43.556673"><ele>9.25</ele></trkpt>
<trkpt lon="-6.879924" lat="43.556797"><ele>9.75</ele></trkpt>
<trkpt lon="-6.880144" lat="43.556890"><ele>8.5</ele></trkpt>
<trkpt lon="-6.880241" lat="43.556780"><ele>6.0</ele></trkpt>
<trkpt lon="-6.880804" lat="43.556183"><ele>8.25</ele></trkpt>
<trkpt lon="-6.880900" lat="43.556083"><ele>10.75</ele></trkpt>
<trkpt lon="-6.881363" lat="43.555634"><ele>14.25</ele></trkpt>
<trkpt lon="-6.881772" lat="43.555741"><ele>19.5</ele></trkpt>
<trkpt lon="-6.881978" lat="43.555809"><ele>22.5</ele></trkpt>
<trkpt lon="-6.882183" lat="43.555895"><ele>24.0</ele></trkpt>
<trkpt lon="-6.882531" lat="43.556076"><ele>25.75</ele></trkpt>
<trkpt lon="-6.882550" lat="43.556085"><ele>25.75</ele></trkpt>
<trkpt lon="-6.882659" lat="43.556280"><ele>28.75</ele></trkpt>
<trkpt lon="-6.882688" lat="43.556486"><ele>31.5</ele></trkpt>
<trkpt lon="-6.882775" lat="43.556662"><ele>34.75</ele></trkpt>
<trkpt lon="-6.882945" lat="43.556850"><ele>37.5</ele></trkpt>
<trkpt lon="-6.883915" lat="43.557249"><ele>47.0</ele></trkpt>
<trkpt lon="-6.883950" lat="43.557264"><ele>47.0</ele></trkpt>
<trkpt lon="-6.884125" lat="43.557438"><ele>47.0</ele></trkpt>
<trkpt lon="-6.884533" lat="43.557681"><ele>47.5</ele></trkpt>
<trkpt lon="-6.884991" lat="43.557823"><ele>48.0</ele></trkpt>
<trkpt lon="-6.885408" lat="43.557852"><ele>48.5</ele></trkpt>
<trkpt lon="-6.885821" lat="43.557906"><ele>49.25</ele></trkpt>
<trkpt lon="-6.886116" lat="43.557959"><ele>49.25</ele></trkpt>
<trkpt lon="-6.886592" lat="43.557994"><ele>48.5</ele></trkpt>
<trkpt lon="-6.887147" lat="43.558008"><ele>48.75</ele></trkpt>
<trkpt lon="-6.888719" lat="43.558067"><ele>51.0</ele></trkpt>
<trkpt lon="-6.888999" lat="43.558066"><ele>51.25</ele></trkpt>
<trkpt lon="-6.889114" lat="43.558044"><ele>51.75</ele></trkpt>
<trkpt lon="-6.889185" lat="43.557835"><ele>52.0</ele></trkpt>
<trkpt lon="-6.889205" lat="43.557725"><ele>51.75</ele></trkpt>
<trkpt lon="-6.889167" lat="43.557474"><ele>50.75</ele></trkpt>
<trkpt lon="-6.889271" lat="43.557104"><ele>50.25</ele></trkpt>
<trkpt lon="-6.889449" lat="43.556782"><ele>49.25</ele></trkpt>
<trkpt lon="-6.889561" lat="43.556461"><ele>48.5</ele></trkpt>
<trkpt lon="-6.890004" lat="43.556121"><ele>50.0</ele></trkpt>
<trkpt lon="-6.890353" lat="43.555874"><ele>50.0</ele></trkpt>
<trkpt lon="-6.890705" lat="43.555539"><ele>51.5</ele></trkpt>
<trkpt lon="-6.891014" lat="43.555125"><ele>51.25</ele></trkpt>
<trkpt lon="-6.891119" lat="43.555037"><ele>51.25</ele></trkpt>
<trkpt lon="-6.891707" lat="43.554757"><ele>52.5</ele></trkpt>
<trkpt lon="-6.892163" lat="43.554531"><ele>52.25</ele></trkpt>
<trkpt lon="-6.892451" lat="43.554276"><ele>53.0</ele></trkpt>
<trkpt lon="-6.892901" lat="43.553664"><ele>53.75</ele></trkpt>
<trkpt lon="-6.893163" lat="43.553257"><ele>54.25</ele></trkpt>
<trkpt lon="-6.893262" lat="43.553202"><ele>54.5</ele></trkpt>
<trkpt lon="-6.893414" lat="43.553208"><ele>55.25</ele></trkpt>
<trkpt lon="-6.894087" lat="43.553351"><ele>58.5</ele></trkpt>
<trkpt lon="-6.894301" lat="43.553364"><ele>60.25</ele></trkpt>
<trkpt lon="-6.894484" lat="43.553296"><ele>61.5</ele></trkpt>
<trkpt lon="-6.894563" lat="43.553237"><ele>62.25</ele></trkpt>
<trkpt lon="-6.894850" lat="43.552778"><ele>63.25</ele></trkpt>
<trkpt lon="-6.894974" lat="43.552478"><ele>61.5</ele></trkpt>
<trkpt lon="-6.895044" lat="43.552223"><ele>61.25</ele></trkpt>
<trkpt lon="-6.895086" lat="43.551939"><ele>60.5</ele></trkpt>
<trkpt lon="-6.895154" lat="43.551817"><ele>60.5</ele></trkpt>
<trkpt lon="-6.895638" lat="43.551280"><ele>62.25</ele></trkpt>
<trkpt lon="-6.895991" lat="43.550853"><ele>63.5</ele></trkpt>
<trkpt lon="-6.896166" lat="43.550693"><ele>64.25</ele></trkpt>
<trkpt lon="-6.896580" lat="43.550481"><ele>67.0</ele></trkpt>
<trkpt lon="-6.896937" lat="43.549937"><ele>67.75</ele></trkpt>
<trkpt lon="-6.897942" lat="43.549100"><ele>70.0</ele></trkpt>
<trkpt lon="-6.899049" lat="43.548366"><ele>70.5</ele></trkpt>
<trkpt lon="-6.899302" lat="43.548134"><ele>71.0</ele></trkpt>
<trkpt lon="-6.900076" lat="43.547248"><ele>72.25</ele></trkpt>
<trkpt lon="-6.900765" lat="43.546762"><ele>72.0</ele></trkpt>
<trkpt lon="-6.901898" lat="43.546304"><ele>71.5</ele></trkpt>
<trkpt lon="-6.902380" lat="43.546193"><ele>71.5</ele></trkpt>
<trkpt lon="-6.902692" lat="43.545827"><ele>72.5</ele></trkpt>
<trkpt lon="-6.903050" lat="43.545474"><ele>72.75</ele></trkpt>
<trkpt lon="-6.903406" lat="43.545091"><ele>73.0</ele></trkpt>
<trkpt lon="-6.903805" lat="43.544650"><ele>72.75</ele></trkpt>
<trkpt lon="-6.903942" lat="43.544436"><ele>73.0</ele></trkpt>
<trkpt lon="-6.904003" lat="43.544196"><ele>72.0</ele></trkpt>
<trkpt lon="-6.905100" lat="43.543604"><ele>67.5</ele></trkpt>
<trkpt lon="-6.906019" lat="43.543149"><ele>66.75</ele></trkpt>
<trkpt lon="-6.906289" lat="43.542967"><ele>67.0</ele></trkpt>
<trkpt lon="-6.906662" lat="43.542581"><ele>67.25</ele></trkpt>
<trkpt lon="-6.906874" lat="43.542504"><ele>67.0</ele></trkpt>
<trkpt lon="-6.907705" lat="43.542361"><ele>66.75</ele></trkpt>
<trkpt lon="-6.908138" lat="43.542255"><ele>66.5</ele></trkpt>
<trkpt lon="-6.909038" lat="43.542234"><ele>64.75</ele></trkpt>
<trkpt lon="-6.909702" lat="43.542210"><ele>65.0</ele></trkpt>
<trkpt lon="-6.910319" lat="43.542208"><ele>64.75</ele></trkpt>
<trkpt lon="-6.910739" lat="43.542186"><ele>64.75</ele></trkpt>
<trkpt lon="-6.911599" lat="43.542128"><ele>63.0</ele></trkpt>
<trkpt lon="-6.912107" lat="43.542117"><ele>62.5</ele></trkpt>
<trkpt lon="-6.912420" lat="43.542082"><ele>61.75</ele></trkpt>
<trkpt lon="-6.913010" lat="43.541961"><ele>59.25</ele></trkpt>
<trkpt lon="-6.913649" lat="43.541772"><ele>57.0</ele></trkpt>
<trkpt lon="-6.915309" lat="43.541353"><ele>52.75</ele></trkpt>
<trkpt lon="-6.915683" lat="43.541164"><ele>51.5</ele></trkpt>
<trkpt lon="-6.915932" lat="43.540990"><ele>50.0</ele></trkpt>
<trkpt lon="-6.916479" lat="43.540544"><ele>48.0</ele></trkpt>
<trkpt lon="-6.916662" lat="43.540463"><ele>48.5</ele></trkpt>
<trkpt lon="-6.917753" lat="43.540108"><ele>49.5</ele></trkpt>
<trkpt lon="-6.917963" lat="43.540011"><ele>48.75</ele></trkpt>
<trkpt lon="-6.918209" lat="43.539837"><ele>48.5</ele></trkpt>
<trkpt lon="-6.918410" lat="43.539797"><ele>48.5</ele></trkpt>
<trkpt lon="-6.918732" lat="43.539749"><ele>48.75</ele></trkpt>
<trkpt lon="-6.919140" lat="43.539629"><ele>49.25</ele></trkpt>
<trkpt lon="-6.919761" lat="43.539370"><ele>51.25</ele></trkpt>
<trkpt lon="-6.920489" lat="43.539000"><ele>54.75</ele></trkpt>
<trkpt lon="-6.920770" lat="43.538821"><ele>55.75</ele></trkpt>
<trkpt lon="-6.921264" lat="43.538400"><ele>58.25</ele></trkpt>
<trkpt lon="-6.921679" lat="43.538261"><ele>59.25</ele></trkpt>
<trkpt lon="-6.922240" lat="43.537960"><ele>61.5</ele></trkpt>
<trkpt lon="-6.922930" lat="43.537440"><ele>64.25</ele></trkpt>
<trkpt lon="-6.924300" lat="43.536760"><ele>68.5</ele></trkpt>
<trkpt lon="-6.925160" lat="43.536410"><ele>68.25</ele></trkpt>
<trkpt lon="-6.925507" lat="43.536353"><ele>68.0</ele></trkpt>
<trkpt lon="-6.926235" lat="43.537644"><ele>68.5</ele></trkpt>
<trkpt lon="-6.926712" lat="43.538351"><ele>66.75</ele></trkpt>
<trkpt lon="-6.926881" lat="43.538508"><ele>66.25</ele></trkpt>
<trkpt lon="-6.927395" lat="43.538762"><ele>66.0</ele></trkpt>
<trkpt lon="-6.928799" lat="43.539519"><ele>64.5</ele></trkpt>
<trkpt lon="-6.929562" lat="43.539918"><ele>64.0</ele></trkpt>
<trkpt lon="-6.930140" lat="43.540190"><ele>63.25</ele></trkpt>
<trkpt lon="-6.931510" lat="43.540710"><ele>60.0</ele></trkpt>
<trkpt lon="-6.932720" lat="43.541390"><ele>57.75</ele></trkpt>
<trkpt lon="-6.933060" lat="43.541740"><ele>58.0</ele></trkpt>
<trkpt lon="-6.933157" lat="43.542645"><ele>57.5</ele></trkpt>
<trkpt lon="-6.933250" lat="43.542854"><ele>57.5</ele></trkpt>
<trkpt lon="-6.934124" lat="43.543418"><ele>56.0</ele></trkpt>
<trkpt lon="-6.934416" lat="43.543706"><ele>55.0</ele></trkpt>
<trkpt lon="-6.935677" lat="43.543376"><ele>55.0</ele></trkpt>
<trkpt lon="-6.935744" lat="43.543692"><ele>55.75</ele></trkpt>
<trkpt lon="-6.935758" lat="43.544136"><ele>57.75</ele></trkpt>
<trkpt lon="-6.935823" lat="43.544370"><ele>56.0</ele></trkpt>
<trkpt lon="-6.935982" lat="43.544836"><ele>54.0</ele></trkpt>
<trkpt lon="-6.936286" lat="43.545671"><ele>52.5</ele></trkpt>
<trkpt lon="-6.936761" lat="43.545901"><ele>52.0</ele></trkpt>
<trkpt lon="-6.937223" lat="43.546286"><ele>52.75</ele></trkpt>
<trkpt lon="-6.937989" lat="43.546896"><ele>52.0</ele></trkpt>
<trkpt lon="-6.938850" lat="43.547395"><ele>52.0</ele></trkpt>
<trkpt lon="-6.939281" lat="43.547372"><ele>51.75</ele></trkpt>
<trkpt lon="-6.939415" lat="43.547524"><ele>51.75</ele></trkpt>
<trkpt lon="-6.939803" lat="43.547843"><ele>50.5</ele></trkpt>
<trkpt lon="-6.940626" lat="43.548430"><ele>48.75</ele></trkpt>
<trkpt lon="-6.941099" lat="43.548901"><ele>49.0</ele></trkpt>
<trkpt lon="-6.941438" lat="43.549458"><ele>48.75</ele></trkpt>
<trkpt lon="-6.941949" lat="43.549390"><ele>47.75</ele></trkpt>
<trkpt lon="-6.943825" lat="43.548768"><ele>39.0</ele></trkpt>
<trkpt lon="-6.946857" lat="43.547645"><ele>31.0</ele></trkpt>
<trkpt lon="-6.947227" lat="43.547320"><ele>35.75</ele></trkpt>
<trkpt lon="-6.947577" lat="43.546645"><ele>45.0</ele></trkpt>
<trkpt lon="-6.948023" lat="43.545839"><ele>49.0</ele></trkpt>
<trkpt lon="-6.948131" lat="43.545725"><ele>49.0</ele></trkpt>
<trkpt lon="-6.948340" lat="43.545683"><ele>49.25</ele></trkpt>
<trkpt lon="-6.948940" lat="43.545669"><ele>50.0</ele></trkpt>
<trkpt lon="-6.951838" lat="43.545616"><ele>44.5</ele></trkpt>
<trkpt lon="-6.954668" lat="43.545527"><ele>39.75</ele></trkpt>
<trkpt lon="-6.955855" lat="43.545431"><ele>42.5</ele></trkpt>
<trkpt lon="-6.959640" lat="43.545115"><ele>44.75</ele></trkpt>
<trkpt lon="-6.960693" lat="43.545014"><ele>43.75</ele></trkpt>
<trkpt lon="-6.961974" lat="43.545012"><ele>43.0</ele></trkpt>
<trkpt lon="-6.962214" lat="43.545268"><ele>43.0</ele></trkpt>
<trkpt lon="-6.962515" lat="43.545510"><ele>43.0</ele></trkpt>
<trkpt lon="-6.963032" lat="43.545978"><ele>42.0</ele></trkpt>
<trkpt lon="-6.963205" lat="43.546214"><ele>41.5</ele></trkpt>
<trkpt lon="-6.963357" lat="43.546459"><ele>40.75</ele></trkpt>
<trkpt lon="-6.964540" lat="43.546116"><ele>39.5</ele></trkpt>
<trkpt lon="-6.965666" lat="43.545747"><ele>36.0</ele></trkpt>
<trkpt lon="-6.965857" lat="43.545725"><ele>35.5</ele></trkpt>
<trkpt lon="-6.966517" lat="43.545793"><ele>32.75</ele></trkpt>
<trkpt lon="-6.966506" lat="43.545842"><ele>33.0</ele></trkpt>
<trkpt lon="-6.966797" lat="43.545927"><ele>31.5</ele></trkpt>
<trkpt lon="-6.966852" lat="43.545965"><ele>31.25</ele></trkpt>
<trkpt lon="-6.966871" lat="43.546043"><ele>31.75</ele></trkpt>
<trkpt lon="-6.966909" lat="43.546092"><ele>31.75</ele></trkpt>
<trkpt lon="-6.967228" lat="43.546136"><ele>30.0</ele></trkpt>
<trkpt lon="-6.967733" lat="43.546224"><ele>27.5</ele></trkpt>
<trkpt lon="-6.968079" lat="43.546260"><ele>22.75</ele></trkpt>
<trkpt lon="-6.968420" lat="43.546200"><ele>19.5</ele></trkpt>
<trkpt lon="-6.968772" lat="43.546171"><ele>18.0</ele></trkpt>
<trkpt lon="-6.969112" lat="43.546157"><ele>18.5</ele></trkpt>
<trkpt lon="-6.969297" lat="43.546069"><ele>18.75</ele></trkpt>
<trkpt lon="-6.969840" lat="43.545906"><ele>20.5</ele></trkpt>
<trkpt lon="-6.970171" lat="43.545767"><ele>21.25</ele></trkpt>
<trkpt lon="-6.970495" lat="43.545648"><ele>23.5</ele></trkpt>
<trkpt lon="-6.970686" lat="43.545596"><ele>25.5</ele></trkpt>
<trkpt lon="-6.970814" lat="43.545532"><ele>26.75</ele></trkpt>
<trkpt lon="-6.971008" lat="43.545447"><ele>28.5</ele></trkpt>
<trkpt lon="-6.971109" lat="43.545562"><ele>28.75</ele></trkpt>
<trkpt lon="-6.971564" lat="43.545902"><ele>28.0</ele></trkpt>
<trkpt lon="-6.971630" lat="43.545996"><ele>27.5</ele></trkpt>
<trkpt lon="-6.971697" lat="43.546109"><ele>27.0</ele></trkpt>
<trkpt lon="-6.971828" lat="43.546202"><ele>27.5</ele></trkpt>
<trkpt lon="-6.972606" lat="43.546309"><ele>31.25</ele></trkpt>
<trkpt lon="-6.972815" lat="43.546338"><ele>32.0</ele></trkpt>
<trkpt lon="-6.973405" lat="43.546491"><ele>35.0</ele></trkpt>
<trkpt lon="-6.974128" lat="43.546614"><ele>36.0</ele></trkpt>
<trkpt lon="-6.974510" lat="43.546605"><ele>36.0</ele></trkpt>
<trkpt lon="-6.975027" lat="43.546711"><ele>35.75</ele></trkpt>
<trkpt lon="-6.975331" lat="43.546719"><ele>35.0</ele></trkpt>
<trkpt lon="-6.975498" lat="43.546854"><ele>34.5</ele></trkpt>
<trkpt lon="-6.975907" lat="43.546866"><ele>32.0</ele></trkpt>
<trkpt lon="-6.976350" lat="43.546836"><ele>29.5</ele></trkpt>
<trkpt lon="-6.977102" lat="43.546715"><ele>24.5</ele></trkpt>
<trkpt lon="-6.977594" lat="43.546687"><ele>20.0</ele></trkpt>
<trkpt lon="-6.978274" lat="43.546468"><ele>16.25</ele></trkpt>
<trkpt lon="-6.978432" lat="43.546406"><ele>16.5</ele></trkpt>
<trkpt lon="-6.979914" lat="43.545664"><ele>20.0</ele></trkpt>
<trkpt lon="-6.980111" lat="43.545607"><ele>21.5</ele></trkpt>
<trkpt lon="-6.980239" lat="43.545624"><ele>22.5</ele></trkpt>
<trkpt lon="-6.980345" lat="43.545670"><ele>23.25</ele></trkpt>
<trkpt lon="-6.980584" lat="43.545889"><ele>25.25</ele></trkpt>
<trkpt lon="-6.980661" lat="43.545913"><ele>26.0</ele></trkpt>
<trkpt lon="-6.980750" lat="43.545942"><ele>27.0</ele></trkpt>
<trkpt lon="-6.981084" lat="43.545900"><ele>29.5</ele></trkpt>
<trkpt lon="-6.981455" lat="43.545885"><ele>31.0</ele></trkpt>
<trkpt lon="-6.981767" lat="43.545824"><ele>32.25</ele></trkpt>
<trkpt lon="-6.982778" lat="43.545467"><ele>35.0</ele></trkpt>
<trkpt lon="-6.983745" lat="43.545128"><ele>36.75</ele></trkpt>
<trkpt lon="-6.984583" lat="43.544725"><ele>37.0</ele></trkpt>
<trkpt lon="-6.986161" lat="43.544104"><ele>36.0</ele></trkpt>
<trkpt lon="-6.986821" lat="43.543847"><ele>36.0</ele></trkpt>
<trkpt lon="-6.986884" lat="43.543827"><ele>36.0</ele></trkpt>
<trkpt lon="-6.986990" lat="43.543895"><ele>35.75</ele></trkpt>
<trkpt lon="-6.987444" lat="43.544324"><ele>30.25</ele></trkpt>
<trkpt lon="-6.988244" lat="43.544818"><ele>21.5</ele></trkpt>
<trkpt lon="-6.988366" lat="43.544796"><ele>21.75</ele></trkpt>
<trkpt lon="-6.988434" lat="43.544654"><ele>23.5</ele></trkpt>
<trkpt lon="-6.988493" lat="43.544484"><ele>24.25</ele></trkpt>
<trkpt lon="-6.988676" lat="43.544256"><ele>26.0</ele></trkpt>
<trkpt lon="-6.988880" lat="43.544023"><ele>28.75</ele></trkpt>
<trkpt lon="-6.989104" lat="43.543805"><ele>31.0</ele></trkpt>
<trkpt lon="-6.989353" lat="43.543661"><ele>32.25</ele></trkpt>
<trkpt lon="-6.989437" lat="43.543592"><ele>32.75</ele></trkpt>
<trkpt lon="-6.989726" lat="43.543204"><ele>34.0</ele></trkpt>
<trkpt lon="-6.989880" lat="43.543110"><ele>34.5</ele></trkpt>
<trkpt lon="-6.990006" lat="43.542858"><ele>35.5</ele></trkpt>
<trkpt lon="-6.990504" lat="43.542202"><ele>37.0</ele></trkpt>
<trkpt lon="-6.990999" lat="43.541710"><ele>38.75</ele></trkpt>
<trkpt lon="-6.991066" lat="43.541644"><ele>39.0</ele></trkpt>
<trkpt lon="-6.991199" lat="43.541588"><ele>39.5</ele></trkpt>
<trkpt lon="-6.992712" lat="43.541312"><ele>40.25</ele></trkpt>
<trkpt lon="-6.992876" lat="43.541224"><ele>40.25</ele></trkpt>
<trkpt lon="-6.992998" lat="43.541167"><ele>40.0</ele></trkpt>
<trkpt lon="-6.993148" lat="43.541017"><ele>40.0</ele></trkpt>
<trkpt lon="-6.993224" lat="43.540842"><ele>40.25</ele></trkpt>
<trkpt lon="-6.993341" lat="43.540659"><ele>38.5</ele></trkpt>
<trkpt lon="-6.994294" lat="43.540788"><ele>38.75</ele></trkpt>
<trkpt lon="-6.994972" lat="43.540936"><ele>37.5</ele></trkpt>
<trkpt lon="-6.995567" lat="43.541111"><ele>36.0</ele></trkpt>
<trkpt lon="-6.995788" lat="43.541203"><ele>35.75</ele></trkpt>
<trkpt lon="-6.996117" lat="43.541397"><ele>33.75</ele></trkpt>
<trkpt lon="-6.996340" lat="43.541471"><ele>32.75</ele></trkpt>
<trkpt lon="-6.996400" lat="43.541390"><ele>33.0</ele></trkpt>
<trkpt lon="-6.996602" lat="43.541153"><ele>35.0</ele></trkpt>
<trkpt lon="-6.996825" lat="43.540924"><ele>35.5</ele></trkpt>
<trkpt lon="-6.997373" lat="43.541223"><ele>35.0</ele></trkpt>
<trkpt lon="-6.997504" lat="43.541240"><ele>34.75</ele></trkpt>
<trkpt lon="-6.997600" lat="43.541220"><ele>34.75</ele></trkpt>
<trkpt lon="-6.997780" lat="43.541050"><ele>35.0</ele></trkpt>
<trkpt lon="-6.998071" lat="43.540809"><ele>35.0</ele></trkpt>
<trkpt lon="-6.998326" lat="43.540628"><ele>35.0</ele></trkpt>
<trkpt lon="-6.998606" lat="43.540485"><ele>35.0</ele></trkpt>
<trkpt lon="-6.998980" lat="43.540360"><ele>35.25</ele></trkpt>
<trkpt lon="-6.999144" lat="43.540345"><ele>35.75</ele></trkpt>
<trkpt lon="-6.999459" lat="43.540311"><ele>36.0</ele></trkpt>
<trkpt lon="-6.999701" lat="43.540292"><ele>36.0</ele></trkpt>
<trkpt lon="-7.000006" lat="43.540280"><ele>37.0</ele></trkpt>
<trkpt lon="-7.000232" lat="43.540298"><ele>37.0</ele></trkpt>
<trkpt lon="-7.000514" lat="43.540082"><ele>38.0</ele></trkpt>
<trkpt lon="-7.000599" lat="43.539992"><ele>38.0</ele></trkpt>
<trkpt lon="-7.000622" lat="43.539745"><ele>39.0</ele></trkpt>
<trkpt lon="-7.000628" lat="43.539488"><ele>39.0</ele></trkpt>
<trkpt lon="-7.000576" lat="43.539344"><ele>39.0</ele></trkpt>
<trkpt lon="-7.000500" lat="43.539070"><ele>39.0</ele></trkpt>
<trkpt lon="-7.000494" lat="43.538961"><ele>39.0</ele></trkpt>
<trkpt lon="-7.000537" lat="43.538756"><ele>39.0</ele></trkpt>
<trkpt lon="-7.000592" lat="43.538671"><ele>39.0</ele></trkpt>
<trkpt lon="-7.000685" lat="43.538562"><ele>39.0</ele></trkpt>
<trkpt lon="-7.000794" lat="43.538493"><ele>39.0</ele></trkpt>
<trkpt lon="-7.002057" lat="43.537588"><ele>37.0</ele></trkpt>
<trkpt lon="-7.002521" lat="43.537301"><ele>37.0</ele></trkpt>
<trkpt lon="-7.002846" lat="43.537154"><ele>37.0</ele></trkpt>
<trkpt lon="-7.003127" lat="43.537031"><ele>37.0</ele></trkpt>
<trkpt lon="-7.003617" lat="43.536726"><ele>36.0</ele></trkpt>
<trkpt lon="-7.003769" lat="43.536580"><ele>36.0</ele></trkpt>
<trkpt lon="-7.003997" lat="43.536222"><ele>35.5</ele></trkpt>
<trkpt lon="-7.004130" lat="43.536070"><ele>35.25</ele></trkpt>
<trkpt lon="-7.004621" lat="43.535696"><ele>33.75</ele></trkpt>
<trkpt lon="-7.004929" lat="43.535555"><ele>33.25</ele></trkpt>
<trkpt lon="-7.005038" lat="43.535473"><ele>33.25</ele></trkpt>
<trkpt lon="-7.005500" lat="43.535040"><ele>35.75</ele></trkpt>
<trkpt lon="-7.005657" lat="43.534906"><ele>36.0</ele></trkpt>
<trkpt lon="-7.006044" lat="43.534576"><ele>36.75</ele></trkpt>
<trkpt lon="-7.006560" lat="43.534205"><ele>34.5</ele></trkpt>
<trkpt lon="-7.006921" lat="43.533931"><ele>32.0</ele></trkpt>
<trkpt lon="-7.007273" lat="43.533795"><ele>30.0</ele></trkpt>
<trkpt lon="-7.007611" lat="43.533772"><ele>29.25</ele></trkpt>
<trkpt lon="-7.008087" lat="43.533678"><ele>28.75</ele></trkpt>
<trkpt lon="-7.008251" lat="43.533637"><ele>28.25</ele></trkpt>
<trkpt lon="-7.008421" lat="43.533578"><ele>28.0</ele></trkpt>
<trkpt lon="-7.008878" lat="43.533785"><ele>27.0</ele></trkpt>
<trkpt lon="-7.009152" lat="43.533901"><ele>26.0</ele></trkpt>
<trkpt lon="-7.009605" lat="43.534027"><ele>24.25</ele></trkpt>
<trkpt lon="-7.009990" lat="43.534155"><ele>23.0</ele></trkpt>
<trkpt lon="-7.011001" lat="43.534678"><ele>17.0</ele></trkpt>
<trkpt lon="-7.011340" lat="43.534870"><ele>16.75</ele></trkpt>
<trkpt lon="-7.012581" lat="43.535522"><ele>13.75</ele></trkpt>
<trkpt lon="-7.012691" lat="43.535622"><ele>12.5</ele></trkpt>
<trkpt lon="-7.012806" lat="43.535914"><ele>7.75</ele></trkpt>
<trkpt lon="-7.012877" lat="43.536020"><ele>6.75</ele></trkpt>
<trkpt lon="-7.013046" lat="43.536098"><ele>6.75</ele></trkpt>
<trkpt lon="-7.013158" lat="43.536137"><ele>8.75</ele></trkpt>
<trkpt lon="-7.013274" lat="43.536109"><ele>9.25</ele></trkpt>
<trkpt lon="-7.013553" lat="43.535917"><ele>11.25</ele></trkpt>
<trkpt lon="-7.013910" lat="43.535560"><ele>9.5</ele></trkpt>
<trkpt lon="-7.014080" lat="43.535560"><ele>13.0</ele></trkpt>
<trkpt lon="-7.014179" lat="43.535509"><ele>14.0</ele></trkpt>
<trkpt lon="-7.015110" lat="43.535040"><ele>19.5</ele></trkpt>
<trkpt lon="-7.015559" lat="43.534982"><ele>24.5</ele></trkpt>
<trkpt lon="-7.015819" lat="43.535004"><ele>26.75</ele></trkpt>
<trkpt lon="-7.015858" lat="43.535073"><ele>28.0</ele></trkpt>
<trkpt lon="-7.015672" lat="43.535238"><ele>29.25</ele></trkpt>
<trkpt lon="-7.015518" lat="43.535397"><ele>30.5</ele></trkpt>
<trkpt lon="-7.015417" lat="43.535579"><ele>32.0</ele></trkpt>
<trkpt lon="-7.015493" lat="43.535756"><ele>34.5</ele></trkpt>
<trkpt lon="-7.016247" lat="43.535791"><ele>36.75</ele></trkpt>
<trkpt lon="-7.017200" lat="43.535936"><ele>36.0</ele></trkpt>
<trkpt lon="-7.017342" lat="43.536003"><ele>36.0</ele></trkpt>
<trkpt lon="-7.017509" lat="43.536131"><ele>36.0</ele></trkpt>
<trkpt lon="-7.018030" lat="43.536590"><ele>36.0</ele></trkpt>
<trkpt lon="-7.018411" lat="43.536858"><ele>36.0</ele></trkpt>
<trkpt lon="-7.018739" lat="43.536975"><ele>36.75</ele></trkpt>
<trkpt lon="-7.019646" lat="43.536563"><ele>36.0</ele></trkpt>
<trkpt lon="-7.020275" lat="43.536213"><ele>35.0</ele></trkpt>
<trkpt lon="-7.020312" lat="43.536160"><ele>35.0</ele></trkpt>
<trkpt lon="-7.020436" lat="43.536266"><ele>35.0</ele></trkpt>
<trkpt lon="-7.020534" lat="43.536413"><ele>35.0</ele></trkpt>
<trkpt lon="-7.020891" lat="43.537076"><ele>34.0</ele></trkpt>
<trkpt lon="-7.020987" lat="43.537265"><ele>34.0</ele></trkpt>
<trkpt lon="-7.021028" lat="43.537455"><ele>34.25</ele></trkpt>
<trkpt lon="-7.021012" lat="43.537600"><ele>34.0</ele></trkpt>
<trkpt lon="-7.020967" lat="43.537848"><ele>33.5</ele></trkpt>
<trkpt lon="-7.020964" lat="43.537906"><ele>33.25</ele></trkpt>
<trkpt lon="-7.021171" lat="43.537923"><ele>32.5</ele></trkpt>
<trkpt lon="-7.021360" lat="43.537927"><ele>31.0</ele></trkpt>
<trkpt lon="-7.021496" lat="43.537932"><ele>29.0</ele></trkpt>
<trkpt lon="-7.021654" lat="43.537992"><ele>25.25</ele></trkpt>
<trkpt lon="-7.021679" lat="43.538024"><ele>24.25</ele></trkpt>
<trkpt lon="-7.021731" lat="43.538069"><ele>23.25</ele></trkpt>
<trkpt lon="-7.021761" lat="43.538105"><ele>23.0</ele></trkpt>
<trkpt lon="-7.021892" lat="43.538185"><ele>21.5</ele></trkpt>
<trkpt lon="-7.021917" lat="43.538217"><ele>21.25</ele></trkpt>
<trkpt lon="-7.022064" lat="43.538305"><ele>18.5</ele></trkpt>
<trkpt lon="-7.022121" lat="43.538343"><ele>17.0</ele></trkpt>
<trkpt lon="-7.021984" lat="43.538433"><ele>19.5</ele></trkpt>
<trkpt lon="-7.021868" lat="43.538546"><ele>20.5</ele></trkpt>
<trkpt lon="-7.021747" lat="43.538703"><ele>22.0</ele></trkpt>
<trkpt lon="-7.021764" lat="43.538740"><ele>22.0</ele></trkpt>
<trkpt lon="-7.021799" lat="43.538767"><ele>22.0</ele></trkpt>
<trkpt lon="-7.021843" lat="43.538727"><ele>21.5</ele></trkpt>
<trkpt lon="-7.022031" lat="43.538794"><ele>22.25</ele></trkpt>
<trkpt lon="-7.022155" lat="43.538817"><ele>22.75</ele></trkpt>
<trkpt lon="-7.022379" lat="43.538823"><ele>23.5</ele></trkpt>
<trkpt lon="-7.022726" lat="43.538786"><ele>24.5</ele></trkpt>
<trkpt lon="-7.022801" lat="43.538793"><ele>25.0</ele></trkpt>
<trkpt lon="-7.023108" lat="43.538915"><ele>26.0</ele></trkpt>
<trkpt lon="-7.023853" lat="43.539212"><ele>28.25</ele></trkpt>
<trkpt lon="-7.024677" lat="43.539633"><ele>27.75</ele></trkpt>
<trkpt lon="-7.025014" lat="43.539805"><ele>29.25</ele></trkpt>
<trkpt lon="-7.025035" lat="43.539811"><ele>29.5</ele></trkpt>
<trkpt lon="-7.025585" lat="43.539977"><ele>31.0</ele></trkpt>
<trkpt lon="-7.026950" lat="43.540583"><ele>34.25</ele></trkpt>
<trkpt lon="-7.027610" lat="43.541280"><ele>37.25</ele></trkpt>
<trkpt lon="-7.028232" lat="43.541743"><ele>39.25</ele></trkpt>
<trkpt lon="-7.027848" lat="43.542022"><ele>38.75</ele></trkpt>
<trkpt lon="-7.027404" lat="43.542451"><ele>38.0</ele></trkpt>
<trkpt lon="-7.027375" lat="43.542511"><ele>37.75</ele></trkpt>
<trkpt lon="-7.027370" lat="43.542707"><ele>37.25</ele></trkpt>
<trkpt lon="-7.027740" lat="43.542699"><ele>37.25</ele></trkpt>
<trkpt lon="-7.028106" lat="43.542691"><ele>37.25</ele></trkpt>
<trkpt lon="-7.028824" lat="43.542725"><ele>37.25</ele></trkpt>
<trkpt lon="-7.029052" lat="43.542759"><ele>37.5</ele></trkpt>
<trkpt lon="-7.029270" lat="43.542756"><ele>37.5</ele></trkpt>
<trkpt lon="-7.029605" lat="43.542712"><ele>36.75</ele></trkpt>
<trkpt lon="-7.029780" lat="43.542706"><ele>35.5</ele></trkpt>
<trkpt lon="-7.029856" lat="43.542743"><ele>34.75</ele></trkpt>
<trkpt lon="-7.029940" lat="43.542821"><ele>35.0</ele></trkpt>
<trkpt lon="-7.029970" lat="43.542853"><ele>35.0</ele></trkpt>
<trkpt lon="-7.032755" lat="43.542832"><ele>35.5</ele></trkpt>
<trkpt lon="-7.037816" lat="43.542794"><ele>36.75</ele></trkpt>
<trkpt lon="-7.039118" lat="43.542784"><ele>36.75</ele></trkpt>
<trkpt lon="-7.039632" lat="43.542722"><ele>36.0</ele></trkpt>
<trkpt lon="-7.039780" lat="43.542682"><ele>35.25</ele></trkpt>
<trkpt lon="-7.039848" lat="43.542617"><ele>34.0</ele></trkpt>
<trkpt lon="-7.039885" lat="43.542512"><ele>32.5</ele></trkpt>
<trkpt lon="-7.039846" lat="43.542085"><ele>33.75</ele></trkpt>
<trkpt lon="-7.039893" lat="43.542000"><ele>34.0</ele></trkpt>
<trkpt lon="-7.039634" lat="43.541478"><ele>35.75</ele></trkpt>
<trkpt lon="-7.039559" lat="43.541283"><ele>36.0</ele></trkpt>
<trkpt lon="-7.039586" lat="43.541238"><ele>36.0</ele></trkpt>
<trkpt lon="-7.039782" lat="43.541029"><ele>36.0</ele></trkpt>
<trkpt lon="-7.040113" lat="43.540684"><ele>36.0</ele></trkpt>
<trkpt lon="-7.040271" lat="43.540519"><ele>35.75</ele></trkpt>
<trkpt lon="-7.040743" lat="43.540023"><ele>35.0</ele></trkpt>
<trkpt lon="-7.040767" lat="43.540001"><ele>35.0</ele></trkpt>
<trkpt lon="-7.040816" lat="43.539945"><ele>35.0</ele></trkpt>
<trkpt lon="-7.041638" lat="43.539017"><ele>36.0</ele></trkpt>
<trkpt lon="-7.041730" lat="43.538915"><ele>35.75</ele></trkpt>
<trkpt lon="-7.042166" lat="43.538429"><ele>37.5</ele></trkpt>
<trkpt lon="-7.042746" lat="43.537783"><ele>38.75</ele></trkpt>
<trkpt lon="-7.042886" lat="43.537575"><ele>39.25</ele></trkpt>
<trkpt lon="-7.042918" lat="43.537511"><ele>39.25</ele></trkpt>
<trkpt lon="-7.042986" lat="43.537384"><ele>39.75</ele></trkpt>
<trkpt lon="-7.043027" lat="43.537307"><ele>39.75</ele></trkpt>
<trkpt lon="-7.043159" lat="43.537109"><ele>40.0</ele></trkpt>
<trkpt lon="-7.043180" lat="43.537086"><ele>41.0</ele></trkpt>
  </trkseg></trk></gpx>
