<?xml version="1.0" encoding="UTF-8"?>
<gpx version="1.1" creator="compostel-brouter" xmlns="http://www.topografix.com/GPX/1/1">
  <metadata><name>ES-36-Sobrado</name></metadata>
  <trk><name>ES-36-Sobrado</name><trkseg>
<trkpt lon="-7.879540" lat="43.149428"><ele>460.75</ele></trkpt>
<trkpt lon="-7.879769" lat="43.149329"><ele>460.75</ele></trkpt>
<trkpt lon="-7.880073" lat="43.149237"><ele>460.25</ele></trkpt>
<trkpt lon="-7.880978" lat="43.148816"><ele>461.75</ele></trkpt>
<trkpt lon="-7.881111" lat="43.148651"><ele>462.75</ele></trkpt>
<trkpt lon="-7.881467" lat="43.148256"><ele>462.25</ele></trkpt>
<trkpt lon="-7.882017" lat="43.147895"><ele>462.75</ele></trkpt>
<trkpt lon="-7.882284" lat="43.147843"><ele>464.5</ele></trkpt>
<trkpt lon="-7.882688" lat="43.147889"><ele>464.0</ele></trkpt>
<trkpt lon="-7.883809" lat="43.147855"><ele>463.75</ele></trkpt>
<trkpt lon="-7.884363" lat="43.147850"><ele>462.0</ele></trkpt>
<trkpt lon="-7.885530" lat="43.147600"><ele>462.75</ele></trkpt>
<trkpt lon="-7.885947" lat="43.147472"><ele>462.75</ele></trkpt>
<trkpt lon="-7.886442" lat="43.147309"><ele>462.75</ele></trkpt>
<trkpt lon="-7.886734" lat="43.146937"><ele>463.25</ele></trkpt>
<trkpt lon="-7.887152" lat="43.146431"><ele>464.0</ele></trkpt>
<trkpt lon="-7.887297" lat="43.146161"><ele>462.75</ele></trkpt>
<trkpt lon="-7.887339" lat="43.145993"><ele>462.0</ele></trkpt>
<trkpt lon="-7.887836" lat="43.145436"><ele>462.0</ele></trkpt>
<trkpt lon="-7.887878" lat="43.145281"><ele>462.5</ele></trkpt>
<trkpt lon="-7.888072" lat="43.145199"><ele>462.25</ele></trkpt>
<trkpt lon="-7.888414" lat="43.145101"><ele>461.5</ele></trkpt>
<trkpt lon="-7.888181" lat="43.144871"><ele>462.75</ele></trkpt>
<trkpt lon="-7.888139" lat="43.144649"><ele>463.25</ele></trkpt>
<trkpt lon="-7.888126" lat="43.144581"><ele>463.5</ele></trkpt>
<trkpt lon="-7.888154" lat="43.144102"><ele>465.0</ele></trkpt>
<trkpt lon="-7.888041" lat="43.144013"><ele>463.0</ele></trkpt>
<trkpt lon="-7.888968" lat="43.143386"><ele>465.25</ele></trkpt>
<trkpt lon="-7.889626" lat="43.142991"><ele>466.0</ele></trkpt>
<trkpt lon="-7.890149" lat="43.142623"><ele>468.5</ele></trkpt>
<trkpt lon="-7.890575" lat="43.142242"><ele>469.25</ele></trkpt>
<trkpt lon="-7.891040" lat="43.142044"><ele>473.0</ele></trkpt>
<trkpt lon="-7.891504" lat="43.141719"><ele>473.5</ele></trkpt>
<trkpt lon="-7.891775" lat="43.141437"><ele>475.25</ele></trkpt>
<trkpt lon="-7.892008" lat="43.141267"><ele>476.25</ele></trkpt>
<trkpt lon="-7.892376" lat="43.141310"><ele>479.0</ele></trkpt>
<trkpt lon="-7.892705" lat="43.141140"><ele>482.0</ele></trkpt>
<trkpt lon="-7.893073" lat="43.140872"><ele>482.5</ele></trkpt>
<trkpt lon="-7.893170" lat="43.140617"><ele>482.0</ele></trkpt>
<trkpt lon="-7.893441" lat="43.140278"><ele>483.5</ele></trkpt>
<trkpt lon="-7.894041" lat="43.139911"><ele>489.75</ele></trkpt>
<trkpt lon="-7.894660" lat="43.139402"><ele>495.25</ele></trkpt>
<trkpt lon="-7.895183" lat="43.139162"><ele>495.75</ele></trkpt>
<trkpt lon="-7.897158" lat="43.138427"><ele>500.0</ele></trkpt>
<trkpt lon="-7.897778" lat="43.138215"><ele>499.0</ele></trkpt>
<trkpt lon="-7.898795" lat="43.138106"><ele>499.5</ele></trkpt>
<trkpt lon="-7.898734" lat="43.137909"><ele>497.5</ele></trkpt>
<trkpt lon="-7.898898" lat="43.137719"><ele>495.75</ele></trkpt>
<trkpt lon="-7.899172" lat="43.137459"><ele>493.75</ele></trkpt>
<trkpt lon="-7.899966" lat="43.136780"><ele>490.25</ele></trkpt>
<trkpt lon="-7.900295" lat="43.136570"><ele>490.0</ele></trkpt>
<trkpt lon="-7.900802" lat="43.136240"><ele>489.5</ele></trkpt>
<trkpt lon="-7.901746" lat="43.135132"><ele>490.75</ele></trkpt>
<trkpt lon="-7.902143" lat="43.134622"><ele>490.5</ele></trkpt>
<trkpt lon="-7.902241" lat="43.134467"><ele>490.75</ele></trkpt>
<trkpt lon="-7.902705" lat="43.133743"><ele>489.0</ele></trkpt>
<trkpt lon="-7.902883" lat="43.133393"><ele>488.75</ele></trkpt>
<trkpt lon="-7.903019" lat="43.133083"><ele>489.0</ele></trkpt>
<trkpt lon="-7.903184" lat="43.132874"><ele>489.5</ele></trkpt>
<trkpt lon="-7.903577" lat="43.132586"><ele>489.75</ele></trkpt>
<trkpt lon="-7.903830" lat="43.132525"><ele>489.75</ele></trkpt>
<trkpt lon="-7.904084" lat="43.132522"><ele>489.25</ele></trkpt>
<trkpt lon="-7.904168" lat="43.132367"><ele>489.25</ele></trkpt>
<trkpt lon="-7.904258" lat="43.132171"><ele>489.25</ele></trkpt>
<trkpt lon="-7.904474" lat="43.131862"><ele>488.5</ele></trkpt>
<trkpt lon="-7.905052" lat="43.131177"><ele>488.0</ele></trkpt>
<trkpt lon="-7.905311" lat="43.130849"><ele>486.0</ele></trkpt>
<trkpt lon="-7.905583" lat="43.130397"><ele>485.5</ele></trkpt>
<trkpt lon="-7.905721" lat="43.130137"><ele>484.5</ele></trkpt>
<trkpt lon="-7.905797" lat="43.129870"><ele>484.25</ele></trkpt>
<trkpt lon="-7.905796" lat="43.129835"><ele>484.25</ele></trkpt>
<trkpt lon="-7.905795" lat="43.129607"><ele>483.5</ele></trkpt>
<trkpt lon="-7.905737" lat="43.129320"><ele>481.75</ele></trkpt>
<trkpt lon="-7.905657" lat="43.129109"><ele>480.0</ele></trkpt>
<trkpt lon="-7.904712" lat="43.127534"><ele>481.25</ele></trkpt>
<trkpt lon="-7.904534" lat="43.127203"><ele>484.0</ele></trkpt>
<trkpt lon="-7.904544" lat="43.127014"><ele>484.5</ele></trkpt>
<trkpt lon="-7.904540" lat="43.126247"><ele>489.75</ele></trkpt>
<trkpt lon="-7.904567" lat="43.125770"><ele>490.75</ele></trkpt>
<trkpt lon="-7.904612" lat="43.124812"><ele>493.0</ele></trkpt>
<trkpt lon="-7.904750" lat="43.123522"><ele>499.75</ele></trkpt>
<trkpt lon="-7.904881" lat="43.122720"><ele>502.0</ele></trkpt>
<trkpt lon="-7.905079" lat="43.122130"><ele>503.0</ele></trkpt>
<trkpt lon="-7.905257" lat="43.121514"><ele>501.0</ele></trkpt>
<trkpt lon="-7.905312" lat="43.121366"><ele>500.75</ele></trkpt>
<trkpt lon="-7.905357" lat="43.121252"><ele>500.5</ele></trkpt>
<trkpt lon="-7.905574" lat="43.120996"><ele>499.5</ele></trkpt>
<trkpt lon="-7.905960" lat="43.120661"><ele>497.5</ele></trkpt>
<trkpt lon="-7.906274" lat="43.120325"><ele>495.5</ele></trkpt>
<trkpt lon="-7.906342" lat="43.119791"><ele>492.25</ele></trkpt>
<trkpt lon="-7.906377" lat="43.119332"><ele>491.0</ele></trkpt>
<trkpt lon="-7.906533" lat="43.119029"><ele>491.0</ele></trkpt>
<trkpt lon="-7.906993" lat="43.118274"><ele>495.5</ele></trkpt>
<trkpt lon="-7.907261" lat="43.117785"><ele>499.5</ele></trkpt>
<trkpt lon="-7.907284" lat="43.117650"><ele>498.5</ele></trkpt>
<trkpt lon="-7.907245" lat="43.117545"><ele>498.0</ele></trkpt>
<trkpt lon="-7.907302" lat="43.117504"><ele>497.5</ele></trkpt>
<trkpt lon="-7.907322" lat="43.117258"><ele>496.0</ele></trkpt>
<trkpt lon="-7.907476" lat="43.117111"><ele>494.25</ele></trkpt>
<trkpt lon="-7.907636" lat="43.116979"><ele>493.25</ele></trkpt>
<trkpt lon="-7.907801" lat="43.116943"><ele>493.0</ele></trkpt>
<trkpt lon="-7.907927" lat="43.116929"><ele>493.5</ele></trkpt>
<trkpt lon="-7.908121" lat="43.116984"><ele>494.5</ele></trkpt>
<trkpt lon="-7.908366" lat="43.117080"><ele>496.0</ele></trkpt>
<trkpt lon="-7.908793" lat="43.117148"><ele>497.75</ele></trkpt>
<trkpt lon="-7.909158" lat="43.117155"><ele>499.0</ele></trkpt>
<trkpt lon="-7.909799" lat="43.117139"><ele>500.25</ele></trkpt>
<trkpt lon="-7.910524" lat="43.117242"><ele>500.75</ele></trkpt>
<trkpt lon="-7.910918" lat="43.117191"><ele>502.5</ele></trkpt>
<trkpt lon="-7.911388" lat="43.117043"><ele>504.5</ele></trkpt>
<trkpt lon="-7.911845" lat="43.116987"><ele>505.75</ele></trkpt>
<trkpt lon="-7.912457" lat="43.116896"><ele>506.75</ele></trkpt>
<trkpt lon="-7.913014" lat="43.116765"><ele>507.25</ele></trkpt>
<trkpt lon="-7.913446" lat="43.116598"><ele>508.25</ele></trkpt>
<trkpt lon="-7.913726" lat="43.116421"><ele>509.5</ele></trkpt>
<trkpt lon="-7.913998" lat="43.116111"><ele>512.0</ele></trkpt>
<trkpt lon="-7.914044" lat="43.116060"><ele>512.25</ele></trkpt>
<trkpt lon="-7.914298" lat="43.115614"><ele>516.5</ele></trkpt>
<trkpt lon="-7.914437" lat="43.115290"><ele>518.75</ele></trkpt>
<trkpt lon="-7.914717" lat="43.115141"><ele>518.75</ele></trkpt>
<trkpt lon="-7.915302" lat="43.114919"><ele>520.0</ele></trkpt>
<trkpt lon="-7.915988" lat="43.114585"><ele>526.25</ele></trkpt>
<trkpt lon="-7.916193" lat="43.114506"><ele>529.25</ele></trkpt>
<trkpt lon="-7.916489" lat="43.114441"><ele>532.0</ele></trkpt>
<trkpt lon="-7.916925" lat="43.114323"><ele>534.0</ele></trkpt>
<trkpt lon="-7.917133" lat="43.114129"><ele>537.25</ele></trkpt>
<trkpt lon="-7.917388" lat="43.114146"><ele>537.75</ele></trkpt>
<trkpt lon="-7.917638" lat="43.114121"><ele>538.5</ele></trkpt>
<trkpt lon="-7.918066" lat="43.113901"><ele>538.75</ele></trkpt>
<trkpt lon="-7.918186" lat="43.113803"><ele>539.75</ele></trkpt>
<trkpt lon="-7.918491" lat="43.113581"><ele>543.0</ele></trkpt>
<trkpt lon="-7.918737" lat="43.113517"><ele>545.25</ele></trkpt>
<trkpt lon="-7.918941" lat="43.113413"><ele>548.25</ele></trkpt>
<trkpt lon="-7.919029" lat="43.113280"><ele>551.25</ele></trkpt>
<trkpt lon="-7.919187" lat="43.112942"><ele>557.5</ele></trkpt>
<trkpt lon="-7.919200" lat="43.112695"><ele>560.5</ele></trkpt>
<trkpt lon="-7.919622" lat="43.112858"><ele>565.25</ele></trkpt>
<trkpt lon="-7.920207" lat="43.112896"><ele>572.0</ele></trkpt>
<trkpt lon="-7.920415" lat="43.112991"><ele>573.25</ele></trkpt>
<trkpt lon="-7.920493" lat="43.112950"><ele>575.5</ele></trkpt>
<trkpt lon="-7.920662" lat="43.113012"><ele>577.25</ele></trkpt>
<trkpt lon="-7.920952" lat="43.113106"><ele>579.75</ele></trkpt>
<trkpt lon="-7.921328" lat="43.113118"><ele>585.0</ele></trkpt>
<trkpt lon="-7.921797" lat="43.113079"><ele>589.0</ele></trkpt>
<trkpt lon="-7.921995" lat="43.112987"><ele>591.25</ele></trkpt>
<trkpt lon="-7.922124" lat="43.112856"><ele>594.0</ele></trkpt>
<trkpt lon="-7.922100" lat="43.112736"><ele>597.25</ele></trkpt>
<trkpt lon="-7.921926" lat="43.112472"><ele>603.5</ele></trkpt>
<trkpt lon="-7.921751" lat="43.112362"><ele>605.75</ele></trkpt>
<trkpt lon="-7.921513" lat="43.112255"><ele>607.5</ele></trkpt>
<trkpt lon="-7.921188" lat="43.111824"><ele>614.75</ele></trkpt>
<trkpt lon="-7.920992" lat="43.111244"><ele>624.75</ele></trkpt>
<trkpt lon="-7.921006" lat="43.111048"><ele>627.75</ele></trkpt>
<trkpt lon="-7.921124" lat="43.110858"><ele>630.75</ele></trkpt>
<trkpt lon="-7.921287" lat="43.110690"><ele>633.0</ele></trkpt>
<trkpt lon="-7.921542" lat="43.110588"><ele>637.0</ele></trkpt>
<trkpt lon="-7.921722" lat="43.110539"><ele>639.5</ele></trkpt>
<trkpt lon="-7.921910" lat="43.110533"><ele>642.25</ele></trkpt>
<trkpt lon="-7.922138" lat="43.110580"><ele>644.75</ele></trkpt>
<trkpt lon="-7.922674" lat="43.110479"><ele>652.75</ele></trkpt>
<trkpt lon="-7.922856" lat="43.110504"><ele>654.25</ele></trkpt>
<trkpt lon="-7.923058" lat="43.110457"><ele>656.0</ele></trkpt>
<trkpt lon="-7.923294" lat="43.110281"><ele>660.75</ele></trkpt>
<trkpt lon="-7.923557" lat="43.109920"><ele>669.25</ele></trkpt>
<trkpt lon="-7.923090" lat="43.109501"><ele>676.0</ele></trkpt>
<trkpt lon="-7.922816" lat="43.109114"><ele>678.0</ele></trkpt>
<trkpt lon="-7.922673" lat="43.108913"><ele>679.0</ele></trkpt>
<trkpt lon="-7.922557" lat="43.108699"><ele>680.25</ele></trkpt>
<trkpt lon="-7.922502" lat="43.108470"><ele>681.5</ele></trkpt>
<trkpt lon="-7.922393" lat="43.108134"><ele>682.5</ele></trkpt>
<trkpt lon="-7.922141" lat="43.107107"><ele>689.0</ele></trkpt>
<trkpt lon="-7.922131" lat="43.106846"><ele>689.25</ele></trkpt>
<trkpt lon="-7.922049" lat="43.106340"><ele>691.5</ele></trkpt>
<trkpt lon="-7.922015" lat="43.105949"><ele>695.5</ele></trkpt>
<trkpt lon="-7.921939" lat="43.105862"><ele>696.5</ele></trkpt>
<trkpt lon="-7.921953" lat="43.105650"><ele>697.5</ele></trkpt>
<trkpt lon="-7.921905" lat="43.104985"><ele>701.0</ele></trkpt>
<trkpt lon="-7.921899" lat="43.104566"><ele>702.25</ele></trkpt>
<trkpt lon="-7.921875" lat="43.104325"><ele>702.5</ele></trkpt>
<trkpt lon="-7.921718" lat="43.103772"><ele>701.75</ele></trkpt>
<trkpt lon="-7.921588" lat="43.103580"><ele>700.75</ele></trkpt>
<trkpt lon="-7.921237" lat="43.103199"><ele>696.25</ele></trkpt>
<trkpt lon="-7.920940" lat="43.102912"><ele>698.5</ele></trkpt>
<trkpt lon="-7.920595" lat="43.102524"><ele>707.25</ele></trkpt>
<trkpt lon="-7.920319" lat="43.102100"><ele>714.75</ele></trkpt>
<trkpt lon="-7.920131" lat="43.101838"><ele>715.0</ele></trkpt>
<trkpt lon="-7.919930" lat="43.101520"><ele>715.25</ele></trkpt>
<trkpt lon="-7.919677" lat="43.101021"><ele>716.5</ele></trkpt>
<trkpt lon="-7.919401" lat="43.100618"><ele>723.0</ele></trkpt>
<trkpt lon="-7.918735" lat="43.099927"><ele>732.5</ele></trkpt>
<trkpt lon="-7.918920" lat="43.099945"><ele>731.5</ele></trkpt>
<trkpt lon="-7.919243" lat="43.099924"><ele>730.75</ele></trkpt>
<trkpt lon="-7.918968" lat="43.099596"><ele>735.75</ele></trkpt>
<trkpt lon="-7.918717" lat="43.099042"><ele>744.75</ele></trkpt>
<trkpt lon="-7.918369" lat="43.098656"><ele>751.25</ele></trkpt>
<trkpt lon="-7.918083" lat="43.098032"><ele>755.5</ele></trkpt>
<trkpt lon="-7.918066" lat="43.097775"><ele>755.75</ele></trkpt>
<trkpt lon="-7.918020" lat="43.097636"><ele>756.25</ele></trkpt>
<trkpt lon="-7.917944" lat="43.097408"><ele>756.25</ele></trkpt>
<trkpt lon="-7.917632" lat="43.095836"><ele>762.0</ele></trkpt>
<trkpt lon="-7.917302" lat="43.095168"><ele>767.5</ele></trkpt>
<trkpt lon="-7.917095" lat="43.094727"><ele>772.25</ele></trkpt>
<trkpt lon="-7.917022" lat="43.094574"><ele>773.75</ele></trkpt>
<trkpt lon="-7.915840" lat="43.092967"><ele>786.5</ele></trkpt>
<trkpt lon="-7.915645" lat="43.092805"><ele>788.25</ele></trkpt>
<trkpt lon="-7.915460" lat="43.092651"><ele>789.75</ele></trkpt>
<trkpt lon="-7.915398" lat="43.092462"><ele>791.25</ele></trkpt>
<trkpt lon="-7.915497" lat="43.092363"><ele>791.5</ele></trkpt>
<trkpt lon="-7.915559" lat="43.092081"><ele>792.75</ele></trkpt>
<trkpt lon="-7.915763" lat="43.091663"><ele>790.5</ele></trkpt>
<trkpt lon="-7.916390" lat="43.089906"><ele>775.75</ele></trkpt>
<trkpt lon="-7.916399" lat="43.089787"><ele>774.5</ele></trkpt>
<trkpt lon="-7.916213" lat="43.089286"><ele>770.25</ele></trkpt>
<trkpt lon="-7.915876" lat="43.088584"><ele>766.0</ele></trkpt>
<trkpt lon="-7.915945" lat="43.088173"><ele>763.5</ele></trkpt>
<trkpt lon="-7.916074" lat="43.087910"><ele>761.25</ele></trkpt>
<trkpt lon="-7.916433" lat="43.087531"><ele>756.5</ele></trkpt>
<trkpt lon="-7.917141" lat="43.087202"><ele>752.5</ele></trkpt>
<trkpt lon="-7.917296" lat="43.087065"><ele>751.75</ele></trkpt>
<trkpt lon="-7.918257" lat="43.085537"><ele>752.5</ele></trkpt>
<trkpt lon="-7.918699" lat="43.085094"><ele>753.5</ele></trkpt>
<trkpt lon="-7.918898" lat="43.084984"><ele>753.25</ele></trkpt>
<trkpt lon="-7.919836" lat="43.084706"><ele>751.0</ele></trkpt>
<trkpt lon="-7.919957" lat="43.084546"><ele>751.25</ele></trkpt>
<trkpt lon="-7.920534" lat="43.083290"><ele>755.5</ele></trkpt>
<trkpt lon="-7.920547" lat="43.083124"><ele>756.5</ele></trkpt>
<trkpt lon="-7.920263" lat="43.082481"><ele>761.75</ele></trkpt>
<trkpt lon="-7.920322" lat="43.082213"><ele>759.0</ele></trkpt>
<trkpt lon="-7.920090" lat="43.079719"><ele>745.25</ele></trkpt>
<trkpt lon="-7.920070" lat="43.079505"><ele>744.5</ele></trkpt>
<trkpt lon="-7.920080" lat="43.078790"><ele>739.5</ele></trkpt>
<trkpt lon="-7.920330" lat="43.077975"><ele>731.5</ele></trkpt>
<trkpt lon="-7.920544" lat="43.077865"><ele>731.0</ele></trkpt>
<trkpt lon="-7.921098" lat="43.077687"><ele>723.75</ele></trkpt>
<trkpt lon="-7.921239" lat="43.077642"><ele>721.5</ele></trkpt>
<trkpt lon="-7.922063" lat="43.077675"><ele>711.5</ele></trkpt>
<trkpt lon="-7.922674" lat="43.077522"><ele>705.25</ele></trkpt>
<trkpt lon="-7.922728" lat="43.077319"><ele>701.75</ele></trkpt>
<trkpt lon="-7.922457" lat="43.076611"><ele>692.5</ele></trkpt>
<trkpt lon="-7.924520" lat="43.077317"><ele>692.25</ele></trkpt>
<trkpt lon="-7.926016" lat="43.077070"><ele>689.0</ele></trkpt>
<trkpt lon="-7.926165" lat="43.077024"><ele>689.5</ele></trkpt>
<trkpt lon="-7.926977" lat="43.078681"><ele>673.5</ele></trkpt>
<trkpt lon="-7.927116" lat="43.078747"><ele>673.0</ele></trkpt>
<trkpt lon="-7.927374" lat="43.078638"><ele>673.25</ele></trkpt>
<trkpt lon="-7.929063" lat="43.077392"><ele>695.25</ele></trkpt>
<trkpt lon="-7.930803" lat="43.076182"><ele>670.0</ele></trkpt>
<trkpt lon="-7.931052" lat="43.076471"><ele>668.5</ele></trkpt>
<trkpt lon="-7.931738" lat="43.077594"><ele>654.25</ele></trkpt>
<trkpt lon="-7.931747" lat="43.077672"><ele>653.75</ele></trkpt>
<trkpt lon="-7.932193" lat="43.077557"><ele>653.25</ele></trkpt>
<trkpt lon="-7.932600" lat="43.077319"><ele>652.75</ele></trkpt>
<trkpt lon="-7.932796" lat="43.076292"><ele>652.5</ele></trkpt>
<trkpt lon="-7.932983" lat="43.076138"><ele>652.75</ele></trkpt>
<trkpt lon="-7.933617" lat="43.075989"><ele>656.5</ele></trkpt>
<trkpt lon="-7.933935" lat="43.076097"><ele>655.75</ele></trkpt>
<trkpt lon="-7.934782" lat="43.076265"><ele>658.0</ele></trkpt>
<trkpt lon="-7.935552" lat="43.076284"><ele>656.25</ele></trkpt>
<trkpt lon="-7.935910" lat="43.076170"><ele>655.25</ele></trkpt>
<trkpt lon="-7.936141" lat="43.075943"><ele>655.25</ele></trkpt>
<trkpt lon="-7.936304" lat="43.075055"><ele>661.0</ele></trkpt>
<trkpt lon="-7.936568" lat="43.074764"><ele>662.75</ele></trkpt>
<trkpt lon="-7.937040" lat="43.074360"><ele>664.5</ele></trkpt>
<trkpt lon="-7.937431" lat="43.073947"><ele>666.25</ele></trkpt>
<trkpt lon="-7.937667" lat="43.073619"><ele>668.0</ele></trkpt>
<trkpt lon="-7.937934" lat="43.073356"><ele>667.75</ele></trkpt>
<trkpt lon="-7.938437" lat="43.073020"><ele>668.0</ele></trkpt>
<trkpt lon="-7.938599" lat="43.072754"><ele>669.25</ele></trkpt>
<trkpt lon="-7.939056" lat="43.071818"><ele>671.0</ele></trkpt>
<trkpt lon="-7.939072" lat="43.071061"><ele>671.5</ele></trkpt>
<trkpt lon="-7.939238" lat="43.070908"><ele>671.5</ele></trkpt>
<trkpt lon="-7.939540" lat="43.070917"><ele>673.5</ele></trkpt>
<trkpt lon="-7.939818" lat="43.071126"><ele>672.0</ele></trkpt>
<trkpt lon="-7.940035" lat="43.071185"><ele>672.75</ele></trkpt>
<trkpt lon="-7.940364" lat="43.070987"><ele>674.75</ele></trkpt>
<trkpt lon="-7.940844" lat="43.070380"><ele>677.5</ele></trkpt>
<trkpt lon="-7.941149" lat="43.069679"><ele>678.5</ele></trkpt>
<trkpt lon="-7.941277" lat="43.069568"><ele>677.75</ele></trkpt>
<trkpt lon="-7.941536" lat="43.069509"><ele>677.75</ele></trkpt>
<trkpt lon="-7.941738" lat="43.069647"><ele>678.75</ele></trkpt>
<trkpt lon="-7.941776" lat="43.070213"><ele>683.5</ele></trkpt>
<trkpt lon="-7.941885" lat="43.070402"><ele>684.25</ele></trkpt>
<trkpt lon="-7.942202" lat="43.070693"><ele>686.0</ele></trkpt>
<trkpt lon="-7.942523" lat="43.070838"><ele>688.0</ele></trkpt>
<trkpt lon="-7.943061" lat="43.071064"><ele>690.75</ele></trkpt>
<trkpt lon="-7.943518" lat="43.071157"><ele>692.5</ele></trkpt>
<trkpt lon="-7.943835" lat="43.071157"><ele>694.5</ele></trkpt>
<trkpt lon="-7.944226" lat="43.071120"><ele>695.0</ele></trkpt>
<trkpt lon="-7.944285" lat="43.071081"><ele>695.0</ele></trkpt>
<trkpt lon="-7.944493" lat="43.070942"><ele>695.0</ele></trkpt>
<trkpt lon="-7.944922" lat="43.070634"><ele>694.75</ele></trkpt>
<trkpt lon="-7.945553" lat="43.070219"><ele>695.25</ele></trkpt>
<trkpt lon="-7.945863" lat="43.070156"><ele>695.5</ele></trkpt>
<trkpt lon="-7.946842" lat="43.070145"><ele>691.5</ele></trkpt>
<trkpt lon="-7.947097" lat="43.070080"><ele>690.25</ele></trkpt>
<trkpt lon="-7.947855" lat="43.069783"><ele>687.75</ele></trkpt>
<trkpt lon="-7.948378" lat="43.069585"><ele>685.75</ele></trkpt>
<trkpt lon="-7.949747" lat="43.068200"><ele>681.75</ele></trkpt>
<trkpt lon="-7.950089" lat="43.068144"><ele>680.0</ele></trkpt>
<trkpt lon="-7.950544" lat="43.068114"><ele>678.75</ele></trkpt>
<trkpt lon="-7.951471" lat="43.068114"><ele>674.75</ele></trkpt>
<trkpt lon="-7.952438" lat="43.068066"><ele>672.0</ele></trkpt>
<trkpt lon="-7.953242" lat="43.067914"><ele>668.0</ele></trkpt>
<trkpt lon="-7.953543" lat="43.067884"><ele>666.5</ele></trkpt>
<trkpt lon="-7.953535" lat="43.067831"><ele>666.25</ele></trkpt>
<trkpt lon="-7.953948" lat="43.067661"><ele>665.75</ele></trkpt>
<trkpt lon="-7.954214" lat="43.067710"><ele>665.75</ele></trkpt>
<trkpt lon="-7.954323" lat="43.067681"><ele>666.0</ele></trkpt>
<trkpt lon="-7.954723" lat="43.067374"><ele>665.5</ele></trkpt>
<trkpt lon="-7.955309" lat="43.066968"><ele>665.25</ele></trkpt>
<trkpt lon="-7.955570" lat="43.066810"><ele>665.5</ele></trkpt>
<trkpt lon="-7.955841" lat="43.066762"><ele>666.0</ele></trkpt>
<trkpt lon="-7.956154" lat="43.066752"><ele>666.5</ele></trkpt>
<trkpt lon="-7.956384" lat="43.066758"><ele>666.75</ele></trkpt>
<trkpt lon="-7.957001" lat="43.066843"><ele>666.25</ele></trkpt>
<trkpt lon="-7.957409" lat="43.066882"><ele>666.25</ele></trkpt>
<trkpt lon="-7.957999" lat="43.066967"><ele>665.25</ele></trkpt>
<trkpt lon="-7.958215" lat="43.066972"><ele>665.0</ele></trkpt>
<trkpt lon="-7.959029" lat="43.066926"><ele>663.25</ele></trkpt>
<trkpt lon="-7.959662" lat="43.066922"><ele>660.25</ele></trkpt>
<trkpt lon="-7.960347" lat="43.066934"><ele>654.5</ele></trkpt>
<trkpt lon="-7.961328" lat="43.066981"><ele>647.5</ele></trkpt>
<trkpt lon="-7.961714" lat="43.067009"><ele>645.75</ele></trkpt>
<trkpt lon="-7.962158" lat="43.067033"><ele>643.0</ele></trkpt>
<trkpt lon="-7.962672" lat="43.066981"><ele>640.5</ele></trkpt>
<trkpt lon="-7.962972" lat="43.066958"><ele>639.25</ele></trkpt>
<trkpt lon="-7.963125" lat="43.066972"><ele>638.5</ele></trkpt>
<trkpt lon="-7.963322" lat="43.067030"><ele>637.25</ele></trkpt>
<trkpt lon="-7.964172" lat="43.067327"><ele>631.5</ele></trkpt>
<trkpt lon="-7.964929" lat="43.067561"><ele>628.5</ele></trkpt>
<trkpt lon="-7.965138" lat="43.067560"><ele>627.0</ele></trkpt>
<trkpt lon="-7.966371" lat="43.067251"><ele>618.0</ele></trkpt>
<trkpt lon="-7.966791" lat="43.067118"><ele>615.5</ele></trkpt>
<trkpt lon="-7.966910" lat="43.067007"><ele>614.5</ele></trkpt>
<trkpt lon="-7.967053" lat="43.066642"><ele>613.5</ele></trkpt>
<trkpt lon="-7.967194" lat="43.066551"><ele>612.5</ele></trkpt>
<trkpt lon="-7.967430" lat="43.066369"><ele>611.0</ele></trkpt>
<trkpt lon="-7.967913" lat="43.066143"><ele>608.5</ele></trkpt>
<trkpt lon="-7.968188" lat="43.066065"><ele>608.0</ele></trkpt>
<trkpt lon="-7.968533" lat="43.066045"><ele>608.25</ele></trkpt>
<trkpt lon="-7.968885" lat="43.065993"><ele>608.5</ele></trkpt>
<trkpt lon="-7.969099" lat="43.065876"><ele>607.25</ele></trkpt>
<trkpt lon="-7.969316" lat="43.065458"><ele>603.0</ele></trkpt>
<trkpt lon="-7.969367" lat="43.065172"><ele>601.5</ele></trkpt>
<trkpt lon="-7.969327" lat="43.064805"><ele>599.5</ele></trkpt>
<trkpt lon="-7.969424" lat="43.064417"><ele>596.75</ele></trkpt>
<trkpt lon="-7.969504" lat="43.064140"><ele>595.5</ele></trkpt>
<trkpt lon="-7.969821" lat="43.063821"><ele>592.25</ele></trkpt>
<trkpt lon="-7.970645" lat="43.063363"><ele>583.5</ele></trkpt>
<trkpt lon="-7.970830" lat="43.063095"><ele>579.25</ele></trkpt>
<trkpt lon="-7.971018" lat="43.062924"><ele>578.5</ele></trkpt>
<trkpt lon="-7.971785" lat="43.062544"><ele>575.0</ele></trkpt>
<trkpt lon="-7.972072" lat="43.062274"><ele>575.0</ele></trkpt>
<trkpt lon="-7.972373" lat="43.062019"><ele>577.0</ele></trkpt>
<trkpt lon="-7.972734" lat="43.061884"><ele>578.5</ele></trkpt>
<trkpt lon="-7.973249" lat="43.061748"><ele>577.75</ele></trkpt>
<trkpt lon="-7.973818" lat="43.061695"><ele>575.5</ele></trkpt>
<trkpt lon="-7.974126" lat="43.061658"><ele>574.0</ele></trkpt>
<trkpt lon="-7.974397" lat="43.061575"><ele>572.5</ele></trkpt>
<trkpt lon="-7.974543" lat="43.061654"><ele>572.0</ele></trkpt>
<trkpt lon="-7.974646" lat="43.061673"><ele>572.0</ele></trkpt>
<trkpt lon="-7.974801" lat="43.061639"><ele>571.75</ele></trkpt>
<trkpt lon="-7.975681" lat="43.061251"><ele>571.25</ele></trkpt>
<trkpt lon="-7.976009" lat="43.061153"><ele>571.75</ele></trkpt>
<trkpt lon="-7.976243" lat="43.061133"><ele>572.0</ele></trkpt>
<trkpt lon="-7.976971" lat="43.061344"><ele>572.75</ele></trkpt>
<trkpt lon="-7.977758" lat="43.061457"><ele>570.5</ele></trkpt>
<trkpt lon="-7.977961" lat="43.061485"><ele>569.5</ele></trkpt>
<trkpt lon="-7.978192" lat="43.061610"><ele>567.75</ele></trkpt>
<trkpt lon="-7.978372" lat="43.061761"><ele>566.5</ele></trkpt>
<trkpt lon="-7.979611" lat="43.062410"><ele>566.25</ele></trkpt>
<trkpt lon="-7.980032" lat="43.062651"><ele>565.5</ele></trkpt>
<trkpt lon="-7.980219" lat="43.062818"><ele>565.5</ele></trkpt>
<trkpt lon="-7.980402" lat="43.062882"><ele>565.5</ele></trkpt>
<trkpt lon="-7.980622" lat="43.062845"><ele>566.0</ele></trkpt>
<trkpt lon="-7.980856" lat="43.062730"><ele>566.75</ele></trkpt>
<trkpt lon="-7.981034" lat="43.062557"><ele>567.5</ele></trkpt>
<trkpt lon="-7.981175" lat="43.062249"><ele>569.5</ele></trkpt>
<trkpt lon="-7.981359" lat="43.062025"><ele>570.75</ele></trkpt>
<trkpt lon="-7.981485" lat="43.062014"><ele>571.5</ele></trkpt>
<trkpt lon="-7.982444" lat="43.062284"><ele>574.0</ele></trkpt>
<trkpt lon="-7.983368" lat="43.062697"><ele>573.5</ele></trkpt>
<trkpt lon="-7.983641" lat="43.062794"><ele>572.75</ele></trkpt>
<trkpt lon="-7.983911" lat="43.062724"><ele>571.75</ele></trkpt>
<trkpt lon="-7.984861" lat="43.062525"><ele>569.5</ele></trkpt>
<trkpt lon="-7.985718" lat="43.062320"><ele>566.75</ele></trkpt>
<trkpt lon="-7.986313" lat="43.062234"><ele>566.25</ele></trkpt>
<trkpt lon="-7.988003" lat="43.062300"><ele>564.25</ele></trkpt>
<trkpt lon="-7.988348" lat="43.062303"><ele>563.0</ele></trkpt>
<trkpt lon="-7.988535" lat="43.062411"><ele>562.75</ele></trkpt>
<trkpt lon="-7.988552" lat="43.062570"><ele>563.0</ele></trkpt>
<trkpt lon="-7.988487" lat="43.062780"><ele>563.25</ele></trkpt>
<trkpt lon="-7.988480" lat="43.063080"><ele>562.25</ele></trkpt>
<trkpt lon="-7.988497" lat="43.063330"><ele>560.25</ele></trkpt>
<trkpt lon="-7.988642" lat="43.063487"><ele>558.75</ele></trkpt>
<trkpt lon="-7.989226" lat="43.063664"><ele>558.75</ele></trkpt>
<trkpt lon="-7.990052" lat="43.063888"><ele>559.0</ele></trkpt>
<trkpt lon="-7.990293" lat="43.063906"><ele>559.75</ele></trkpt>
<trkpt lon="-7.990325" lat="43.063909"><ele>559.75</ele></trkpt>
<trkpt lon="-7.990896" lat="43.063853"><ele>563.25</ele></trkpt>
<trkpt lon="-7.991456" lat="43.063823"><ele>564.5</ele></trkpt>
<trkpt lon="-7.991684" lat="43.063793"><ele>564.75</ele></trkpt>
<trkpt lon="-7.992050" lat="43.063575"><ele>561.75</ele></trkpt>
<trkpt lon="-7.992285" lat="43.063507"><ele>561.0</ele></trkpt>
<trkpt lon="-7.992869" lat="43.063467"><ele>559.75</ele></trkpt>
<trkpt lon="-7.993574" lat="43.063353"><ele>558.0</ele></trkpt>
<trkpt lon="-7.994006" lat="43.063275"><ele>556.75</ele></trkpt>
<trkpt lon="-7.994141" lat="43.063189"><ele>555.0</ele></trkpt>
<trkpt lon="-7.994231" lat="43.063043"><ele>552.75</ele></trkpt>
<trkpt lon="-7.994279" lat="43.062525"><ele>546.0</ele></trkpt>
<trkpt lon="-7.994407" lat="43.061878"><ele>546.25</ele></trkpt>
<trkpt lon="-7.994518" lat="43.061762"><ele>545.75</ele></trkpt>
<trkpt lon="-7.994597" lat="43.061654"><ele>547.25</ele></trkpt>
<trkpt lon="-7.994618" lat="43.061442"><ele>550.25</ele></trkpt>
<trkpt lon="-7.994622" lat="43.060871"><ele>556.5</ele></trkpt>
<trkpt lon="-7.994687" lat="43.060719"><ele>558.75</ele></trkpt>
<trkpt lon="-7.995047" lat="43.060502"><ele>561.75</ele></trkpt>
<trkpt lon="-7.995240" lat="43.060438"><ele>563.5</ele></trkpt>
<trkpt lon="-7.995322" lat="43.060318"><ele>564.25</ele></trkpt>
<trkpt lon="-7.995587" lat="43.059864"><ele>565.25</ele></trkpt>
<trkpt lon="-7.996223" lat="43.058924"><ele>568.25</ele></trkpt>
<trkpt lon="-7.996318" lat="43.058707"><ele>569.0</ele></trkpt>
<trkpt lon="-7.996487" lat="43.058888"><ele>570.5</ele></trkpt>
<trkpt lon="-7.997060" lat="43.058566"><ele>572.75</ele></trkpt>
<trkpt lon="-7.997862" lat="43.057928"><ele>568.25</ele></trkpt>
<trkpt lon="-7.998871" lat="43.057772"><ele>564.75</ele></trkpt>
<trkpt lon="-7.999098" lat="43.057526"><ele>562.25</ele></trkpt>
<trkpt lon="-7.999270" lat="43.057173"><ele>558.5</ele></trkpt>
<trkpt lon="-7.999313" lat="43.056867"><ele>555.75</ele></trkpt>
<trkpt lon="-7.999243" lat="43.056668"><ele>554.0</ele></trkpt>
<trkpt lon="-7.999216" lat="43.056385"><ele>552.0</ele></trkpt>
<trkpt lon="-7.999243" lat="43.055935"><ele>549.75</ele></trkpt>
<trkpt lon="-7.999431" lat="43.055288"><ele>547.0</ele></trkpt>
<trkpt lon="-7.999501" lat="43.054939"><ele>545.75</ele></trkpt>
<trkpt lon="-7.999504" lat="43.054719"><ele>546.25</ele></trkpt>
<trkpt lon="-7.999852" lat="43.054597"><ele>543.0</ele></trkpt>
<trkpt lon="-8.000238" lat="43.054584"><ele>540.5</ele></trkpt>
<trkpt lon="-8.000386" lat="43.054561"><ele>540.75</ele></trkpt>
<trkpt lon="-8.000541" lat="43.054398"><ele>541.0</ele></trkpt>
<trkpt lon="-8.000881" lat="43.053936"><ele>543.5</ele></trkpt>
<trkpt lon="-8.001120" lat="43.053591"><ele>544.75</ele></trkpt>
<trkpt lon="-8.001532" lat="43.053450"><ele>546.5</ele></trkpt>
<trkpt lon="-8.002051" lat="43.053350"><ele>547.5</ele></trkpt>
<trkpt lon="-8.002744" lat="43.053300"><ele>549.5</ele></trkpt>
<trkpt lon="-8.003107" lat="43.053371"><ele>550.25</ele></trkpt>
<trkpt lon="-8.003527" lat="43.053372"><ele>552.5</ele></trkpt>
<trkpt lon="-8.004072" lat="43.053311"><ele>553.75</ele></trkpt>
<trkpt lon="-8.004969" lat="43.053325"><ele>555.75</ele></trkpt>
<trkpt lon="-8.005317" lat="43.053376"><ele>557.0</ele></trkpt>
<trkpt lon="-8.005680" lat="43.053410"><ele>559.25</ele></trkpt>
<trkpt lon="-8.005945" lat="43.053356"><ele>560.75</ele></trkpt>
<trkpt lon="-8.007145" lat="43.053010"><ele>562.0</ele></trkpt>
<trkpt lon="-8.008417" lat="43.052733"><ele>563.5</ele></trkpt>
<trkpt lon="-8.009208" lat="43.052590"><ele>566.25</ele></trkpt>
<trkpt lon="-8.011498" lat="43.052316"><ele>558.5</ele></trkpt>
<trkpt lon="-8.011974" lat="43.052277"><ele>555.25</ele></trkpt>
<trkpt lon="-8.012701" lat="43.052327"><ele>551.75</ele></trkpt>
<trkpt lon="-8.013258" lat="43.052299"><ele>550.5</ele></trkpt>
<trkpt lon="-8.013640" lat="43.052305"><ele>550.0</ele></trkpt>
<trkpt lon="-8.013794" lat="43.052304"><ele>550.0</ele></trkpt>
<trkpt lon="-8.014249" lat="43.052266"><ele>550.0</ele></trkpt>
<trkpt lon="-8.015192" lat="43.052009"><ele>550.25</ele></trkpt>
<trkpt lon="-8.015601" lat="43.051838"><ele>551.0</ele></trkpt>
<trkpt lon="-8.015876" lat="43.051757"><ele>550.75</ele></trkpt>
<trkpt lon="-8.016674" lat="43.050877"><ele>549.0</ele></trkpt>
<trkpt lon="-8.016935" lat="43.050782"><ele>548.75</ele></trkpt>
<trkpt lon="-8.017048" lat="43.050710"><ele>548.5</ele></trkpt>
<trkpt lon="-8.017267" lat="43.050468"><ele>548.75</ele></trkpt>
<trkpt lon="-8.017145" lat="43.050336"><ele>547.75</ele></trkpt>
<trkpt lon="-8.018517" lat="43.048758"><ele>547.5</ele></trkpt>
<trkpt lon="-8.018839" lat="43.048398"><ele>547.0</ele></trkpt>
<trkpt lon="-8.019143" lat="43.048204"><ele>547.25</ele></trkpt>
<trkpt lon="-8.019809" lat="43.047625"><ele>547.25</ele></trkpt>
<trkpt lon="-8.019941" lat="43.047487"><ele>546.75</ele></trkpt>
<trkpt lon="-8.020035" lat="43.047375"><ele>546.5</ele></trkpt>
<trkpt lon="-8.020101" lat="43.047266"><ele>546.5</ele></trkpt>
<trkpt lon="-8.020153" lat="43.047121"><ele>546.0</ele></trkpt>
<trkpt lon="-8.020186" lat="43.046969"><ele>545.25</ele></trkpt>
<trkpt lon="-8.020191" lat="43.046883"><ele>545.25</ele></trkpt>
<trkpt lon="-8.020482" lat="43.046542"><ele>544.5</ele></trkpt>
<trkpt lon="-8.020447" lat="43.046433"><ele>544.5</ele></trkpt>
<trkpt lon="-8.020619" lat="43.045954"><ele>542.75</ele></trkpt>
<trkpt lon="-8.020624" lat="43.045824"><ele>542.25</ele></trkpt>
<trkpt lon="-8.020510" lat="43.045602"><ele>541.5</ele></trkpt>
<trkpt lon="-8.020231" lat="43.045194"><ele>539.5</ele></trkpt>
<trkpt lon="-8.020119" lat="43.044926"><ele>539.5</ele></trkpt>
<trkpt lon="-8.020399" lat="43.044278"><ele>533.0</ele></trkpt>
<trkpt lon="-8.020544" lat="43.044034"><ele>532.0</ele></trkpt>
<trkpt lon="-8.020719" lat="43.043930"><ele>531.25</ele></trkpt>
<trkpt lon="-8.020922" lat="43.043899"><ele>530.25</ele></trkpt>
<trkpt lon="-8.021126" lat="43.043914"><ele>528.75</ele></trkpt>
<trkpt lon="-8.021522" lat="43.042796"><ele>521.5</ele></trkpt>
<trkpt lon="-8.021547" lat="43.042704"><ele>520.5</ele></trkpt>
<trkpt lon="-8.021577" lat="43.042517"><ele>518.75</ele></trkpt>
<trkpt lon="-8.021582" lat="43.042185"><ele>516.75</ele></trkpt>
<trkpt lon="-8.021594" lat="43.042087"><ele>516.0</ele></trkpt>
<trkpt lon="-8.021594" lat="43.041795"><ele>514.5</ele></trkpt>
<trkpt lon="-8.021557" lat="43.041522"><ele>513.25</ele></trkpt>
<trkpt lon="-8.021573" lat="43.041418"><ele>512.25</ele></trkpt>
<trkpt lon="-8.021607" lat="43.041285"><ele>511.5</ele></trkpt>
<trkpt lon="-8.021674" lat="43.041096"><ele>511.0</ele></trkpt>
<trkpt lon="-8.021740" lat="43.041007"><ele>511.0</ele></trkpt>
<trkpt lon="-8.021856" lat="43.040932"><ele>509.75</ele></trkpt>
<trkpt lon="-8.022014" lat="43.040860"><ele>508.0</ele></trkpt>
<trkpt lon="-8.022062" lat="43.040803"><ele>508.0</ele></trkpt>
<trkpt lon="-8.022140" lat="43.040737"><ele>507.75</ele></trkpt>
<trkpt lon="-8.022277" lat="43.040668"><ele>507.0</ele></trkpt>
<trkpt lon="-8.022267" lat="43.040612"><ele>506.75</ele></trkpt>
<trkpt lon="-8.022187" lat="43.040124"><ele>507.5</ele></trkpt>
<trkpt lon="-8.022585" lat="43.040135"><ele>503.5</ele></trkpt>
<trkpt lon="-8.022614" lat="43.040059"><ele>503.5</ele></trkpt>
<trkpt lon="-8.022665" lat="43.039956"><ele>503.25</ele></trkpt>
<trkpt lon="-8.022855" lat="43.039579"><ele>503.0</ele></trkpt>
<trkpt lon="-8.022875" lat="43.039524"><ele>503.25</ele></trkpt>
<trkpt lon="-8.022890" lat="43.039478"><ele>503.25</ele></trkpt>
<trkpt lon="-8.022808" lat="43.039462"><ele>503.75</ele></trkpt>
<trkpt lon="-8.022754" lat="43.039415"><ele>504.0</ele></trkpt>
<trkpt lon="-8.022689" lat="43.039380"><ele>504.5</ele></trkpt>
<trkpt lon="-8.022618" lat="43.039351"><ele>505.0</ele></trkpt>
<trkpt lon="-8.022473" lat="43.039329"><ele>506.0</ele></trkpt>
<trkpt lon="-8.022386" lat="43.039303"><ele>505.75</ele></trkpt>
<trkpt lon="-8.022297" lat="43.039260"><ele>505.75</ele></trkpt>
<trkpt lon="-8.022111" lat="43.039115"><ele>504.75</ele></trkpt>
<trkpt lon="-8.022000" lat="43.039039"><ele>504.5</ele></trkpt>
<trkpt lon="-8.021817" lat="43.038935"><ele>504.0</ele></trkpt>
<trkpt lon="-8.021694" lat="43.038892"><ele>503.0</ele></trkpt>
<trkpt lon="-8.021508" lat="43.038810"><ele>504.0</ele></trkpt>
<trkpt lon="-8.021543" lat="43.038658"><ele>503.0</ele></trkpt>
<trkpt lon="-8.021643" lat="43.038091"><ele>501.75</ele></trkpt>
<trkpt lon="-8.021685" lat="43.038008"><ele>501.5</ele></trkpt>
<trkpt lon="-8.021858" lat="43.038001"><ele>501.5</ele></trkpt>
<trkpt lon="-8.022451" lat="43.038095"><ele>503.0</ele></trkpt>
<trkpt lon="-8.023015" lat="43.038165"><ele>504.5</ele></trkpt>
<trkpt lon="-8.023115" lat="43.038109"><ele>504.25</ele></trkpt>
  </trkseg></trk></gpx>
