<?xml version="1.0" encoding="UTF-8"?>
<gpx version="1.1" creator="compostel-brouter" xmlns="http://www.topografix.com/GPX/1/1">
  <metadata><name>ES-32-Lourenza</name></metadata>
  <trk><name>ES-32-Lourenza</name><trkseg>
<trkpt lon="-7.043180" lat="43.537086"><ele>40.0</ele></trkpt>
<trkpt lon="-7.043806" lat="43.536406"><ele>41.0</ele></trkpt>
<trkpt lon="-7.044019" lat="43.536137"><ele>41.0</ele></trkpt>
<trkpt lon="-7.044085" lat="43.536050"><ele>41.0</ele></trkpt>
<trkpt lon="-7.044881" lat="43.535015"><ele>40.0</ele></trkpt>
<trkpt lon="-7.045041" lat="43.534806"><ele>40.0</ele></trkpt>
<trkpt lon="-7.045328" lat="43.534797"><ele>40.0</ele></trkpt>
<trkpt lon="-7.045803" lat="43.534783"><ele>40.0</ele></trkpt>
<trkpt lon="-7.046468" lat="43.534762"><ele>40.25</ele></trkpt>
<trkpt lon="-7.046612" lat="43.534758"><ele>40.75</ele></trkpt>
<trkpt lon="-7.046920" lat="43.534748"><ele>41.0</ele></trkpt>
<trkpt lon="-7.047089" lat="43.534731"><ele>40.75</ele></trkpt>
<trkpt lon="-7.047676" lat="43.534615"><ele>41.0</ele></trkpt>
<trkpt lon="-7.048049" lat="43.534535"><ele>41.0</ele></trkpt>
<trkpt lon="-7.048423" lat="43.534454"><ele>40.75</ele></trkpt>
<trkpt lon="-7.048701" lat="43.534397"><ele>41.25</ele></trkpt>
<trkpt lon="-7.048830" lat="43.534392"><ele>41.75</ele></trkpt>
<trkpt lon="-7.049785" lat="43.534503"><ele>42.0</ele></trkpt>
<trkpt lon="-7.050229" lat="43.534554"><ele>42.5</ele></trkpt>
<trkpt lon="-7.050292" lat="43.534513"><ele>42.75</ele></trkpt>
<trkpt lon="-7.050480" lat="43.534389"><ele>43.0</ele></trkpt>
<trkpt lon="-7.051579" lat="43.533870"><ele>43.0</ele></trkpt>
<trkpt lon="-7.052399" lat="43.533519"><ele>42.0</ele></trkpt>
<trkpt lon="-7.052561" lat="43.533451"><ele>41.75</ele></trkpt>
<trkpt lon="-7.052996" lat="43.533290"><ele>40.75</ele></trkpt>
<trkpt lon="-7.053445" lat="43.533103"><ele>40.0</ele></trkpt>
<trkpt lon="-7.054148" lat="43.532748"><ele>40.25</ele></trkpt>
<trkpt lon="-7.054123" lat="43.532655"><ele>38.25</ele></trkpt>
<trkpt lon="-7.054042" lat="43.532213"><ele>39.5</ele></trkpt>
<trkpt lon="-7.053996" lat="43.532012"><ele>40.5</ele></trkpt>
<trkpt lon="-7.053898" lat="43.531860"><ele>38.75</ele></trkpt>
<trkpt lon="-7.053755" lat="43.531724"><ele>37.5</ele></trkpt>
<trkpt lon="-7.053387" lat="43.531503"><ele>40.25</ele></trkpt>
<trkpt lon="-7.053572" lat="43.530982"><ele>45.75</ele></trkpt>
<trkpt lon="-7.053631" lat="43.530851"><ele>46.75</ele></trkpt>
<trkpt lon="-7.053700" lat="43.530753"><ele>47.0</ele></trkpt>
<trkpt lon="-7.053799" lat="43.530669"><ele>47.25</ele></trkpt>
<trkpt lon="-7.053899" lat="43.530619"><ele>47.75</ele></trkpt>
<trkpt lon="-7.054016" lat="43.530581"><ele>48.0</ele></trkpt>
<trkpt lon="-7.054151" lat="43.530560"><ele>48.75</ele></trkpt>
<trkpt lon="-7.054319" lat="43.530519"><ele>49.0</ele></trkpt>
<trkpt lon="-7.054448" lat="43.530447"><ele>49.25</ele></trkpt>
<trkpt lon="-7.054546" lat="43.530352"><ele>49.75</ele></trkpt>
<trkpt lon="-7.054709" lat="43.530140"><ele>51.25</ele></trkpt>
<trkpt lon="-7.055036" lat="43.529756"><ele>53.75</ele></trkpt>
<trkpt lon="-7.055038" lat="43.529643"><ele>54.25</ele></trkpt>
<trkpt lon="-7.055533" lat="43.529634"><ele>56.0</ele></trkpt>
<trkpt lon="-7.055873" lat="43.529621"><ele>56.25</ele></trkpt>
<trkpt lon="-7.056174" lat="43.529645"><ele>57.5</ele></trkpt>
<trkpt lon="-7.058270" lat="43.527810"><ele>77.25</ele></trkpt>
<trkpt lon="-7.058349" lat="43.527729"><ele>78.5</ele></trkpt>
<trkpt lon="-7.058528" lat="43.527546"><ele>82.0</ele></trkpt>
<trkpt lon="-7.059435" lat="43.526494"><ele>97.5</ele></trkpt>
<trkpt lon="-7.059942" lat="43.526112"><ele>102.75</ele></trkpt>
<trkpt lon="-7.060390" lat="43.525670"><ele>108.5</ele></trkpt>
<trkpt lon="-7.060682" lat="43.525371"><ele>111.75</ele></trkpt>
<trkpt lon="-7.061003" lat="43.525128"><ele>113.75</ele></trkpt>
<trkpt lon="-7.061230" lat="43.525003"><ele>114.25</ele></trkpt>
<trkpt lon="-7.061491" lat="43.524888"><ele>115.0</ele></trkpt>
<trkpt lon="-7.061615" lat="43.524852"><ele>115.75</ele></trkpt>
<trkpt lon="-7.062166" lat="43.524729"><ele>117.75</ele></trkpt>
<trkpt lon="-7.062773" lat="43.524531"><ele>118.75</ele></trkpt>
<trkpt lon="-7.062976" lat="43.524426"><ele>118.25</ele></trkpt>
<trkpt lon="-7.063158" lat="43.524291"><ele>120.0</ele></trkpt>
<trkpt lon="-7.063505" lat="43.523978"><ele>123.5</ele></trkpt>
<trkpt lon="-7.063776" lat="43.523795"><ele>125.5</ele></trkpt>
<trkpt lon="-7.064456" lat="43.523336"><ele>127.0</ele></trkpt>
<trkpt lon="-7.065474" lat="43.522781"><ele>131.25</ele></trkpt>
<trkpt lon="-7.066611" lat="43.522245"><ele>134.25</ele></trkpt>
<trkpt lon="-7.066808" lat="43.522182"><ele>133.0</ele></trkpt>
<trkpt lon="-7.066940" lat="43.522168"><ele>132.75</ele></trkpt>
<trkpt lon="-7.067182" lat="43.522161"><ele>132.0</ele></trkpt>
<trkpt lon="-7.067693" lat="43.522235"><ele>132.5</ele></trkpt>
<trkpt lon="-7.067876" lat="43.522144"><ele>131.5</ele></trkpt>
<trkpt lon="-7.067942" lat="43.522072"><ele>131.5</ele></trkpt>
<trkpt lon="-7.067944" lat="43.522001"><ele>131.5</ele></trkpt>
<trkpt lon="-7.067920" lat="43.521935"><ele>131.0</ele></trkpt>
<trkpt lon="-7.067851" lat="43.521639"><ele>133.75</ele></trkpt>
<trkpt lon="-7.067867" lat="43.521471"><ele>135.25</ele></trkpt>
<trkpt lon="-7.067917" lat="43.521375"><ele>136.5</ele></trkpt>
<trkpt lon="-7.068040" lat="43.521267"><ele>138.25</ele></trkpt>
<trkpt lon="-7.069145" lat="43.520686"><ele>140.5</ele></trkpt>
<trkpt lon="-7.069357" lat="43.520588"><ele>139.5</ele></trkpt>
<trkpt lon="-7.070227" lat="43.520363"><ele>139.5</ele></trkpt>
<trkpt lon="-7.070415" lat="43.520269"><ele>140.25</ele></trkpt>
<trkpt lon="-7.070563" lat="43.520151"><ele>142.0</ele></trkpt>
<trkpt lon="-7.070670" lat="43.519989"><ele>142.75</ele></trkpt>
<trkpt lon="-7.070890" lat="43.519592"><ele>146.25</ele></trkpt>
<trkpt lon="-7.071076" lat="43.519338"><ele>148.25</ele></trkpt>
<trkpt lon="-7.071332" lat="43.519034"><ele>150.0</ele></trkpt>
<trkpt lon="-7.071703" lat="43.518654"><ele>150.5</ele></trkpt>
<trkpt lon="-7.071981" lat="43.518411"><ele>150.75</ele></trkpt>
<trkpt lon="-7.073029" lat="43.517680"><ele>151.0</ele></trkpt>
<trkpt lon="-7.073935" lat="43.516843"><ele>149.75</ele></trkpt>
<trkpt lon="-7.074134" lat="43.516711"><ele>150.0</ele></trkpt>
<trkpt lon="-7.074193" lat="43.516673"><ele>150.0</ele></trkpt>
<trkpt lon="-7.074234" lat="43.516578"><ele>149.5</ele></trkpt>
<trkpt lon="-7.074289" lat="43.516570"><ele>149.5</ele></trkpt>
<trkpt lon="-7.074889" lat="43.516495"><ele>151.25</ele></trkpt>
<trkpt lon="-7.075531" lat="43.516368"><ele>152.75</ele></trkpt>
<trkpt lon="-7.076344" lat="43.516197"><ele>153.75</ele></trkpt>
<trkpt lon="-7.077979" lat="43.515818"><ele>147.75</ele></trkpt>
<trkpt lon="-7.078527" lat="43.515744"><ele>146.0</ele></trkpt>
<trkpt lon="-7.078764" lat="43.515738"><ele>144.5</ele></trkpt>
<trkpt lon="-7.078794" lat="43.515724"><ele>144.0</ele></trkpt>
<trkpt lon="-7.079144" lat="43.515710"><ele>141.25</ele></trkpt>
<trkpt lon="-7.079387" lat="43.515734"><ele>138.5</ele></trkpt>
<trkpt lon="-7.079777" lat="43.515828"><ele>135.5</ele></trkpt>
<trkpt lon="-7.080031" lat="43.515897"><ele>136.0</ele></trkpt>
<trkpt lon="-7.080127" lat="43.515901"><ele>136.75</ele></trkpt>
<trkpt lon="-7.080208" lat="43.515855"><ele>136.5</ele></trkpt>
<trkpt lon="-7.080268" lat="43.515770"><ele>136.5</ele></trkpt>
<trkpt lon="-7.080303" lat="43.515670"><ele>137.0</ele></trkpt>
<trkpt lon="-7.080307" lat="43.515545"><ele>136.5</ele></trkpt>
<trkpt lon="-7.080345" lat="43.515350"><ele>137.5</ele></trkpt>
<trkpt lon="-7.080397" lat="43.515181"><ele>137.75</ele></trkpt>
<trkpt lon="-7.080448" lat="43.515081"><ele>138.25</ele></trkpt>
<trkpt lon="-7.080491" lat="43.515018"><ele>138.5</ele></trkpt>
<trkpt lon="-7.080535" lat="43.514986"><ele>139.25</ele></trkpt>
<trkpt lon="-7.080565" lat="43.515005"><ele>140.0</ele></trkpt>
<trkpt lon="-7.080569" lat="43.515125"><ele>141.0</ele></trkpt>
<trkpt lon="-7.080584" lat="43.515250"><ele>142.0</ele></trkpt>
<trkpt lon="-7.080574" lat="43.515386"><ele>142.5</ele></trkpt>
<trkpt lon="-7.080600" lat="43.515558"><ele>143.25</ele></trkpt>
<trkpt lon="-7.080715" lat="43.515640"><ele>144.5</ele></trkpt>
<trkpt lon="-7.080833" lat="43.515520"><ele>145.0</ele></trkpt>
<trkpt lon="-7.081189" lat="43.515090"><ele>149.0</ele></trkpt>
<trkpt lon="-7.081516" lat="43.514823"><ele>151.0</ele></trkpt>
<trkpt lon="-7.081954" lat="43.514598"><ele>155.0</ele></trkpt>
<trkpt lon="-7.082104" lat="43.514546"><ele>156.0</ele></trkpt>
<trkpt lon="-7.082370" lat="43.514456"><ele>156.0</ele></trkpt>
<trkpt lon="-7.082712" lat="43.514381"><ele>158.5</ele></trkpt>
<trkpt lon="-7.083463" lat="43.514297"><ele>158.0</ele></trkpt>
<trkpt lon="-7.083786" lat="43.514271"><ele>157.75</ele></trkpt>
<trkpt lon="-7.084428" lat="43.514219"><ele>155.75</ele></trkpt>
<trkpt lon="-7.084917" lat="43.514140"><ele>154.0</ele></trkpt>
<trkpt lon="-7.085207" lat="43.514035"><ele>155.0</ele></trkpt>
<trkpt lon="-7.085430" lat="43.513555"><ele>153.25</ele></trkpt>
<trkpt lon="-7.085687" lat="43.513235"><ele>152.0</ele></trkpt>
<trkpt lon="-7.085954" lat="43.512977"><ele>150.0</ele></trkpt>
<trkpt lon="-7.086227" lat="43.512775"><ele>149.0</ele></trkpt>
<trkpt lon="-7.086705" lat="43.512494"><ele>147.0</ele></trkpt>
<trkpt lon="-7.086884" lat="43.512489"><ele>147.5</ele></trkpt>
<trkpt lon="-7.087081" lat="43.512526"><ele>148.5</ele></trkpt>
<trkpt lon="-7.087258" lat="43.512591"><ele>149.75</ele></trkpt>
<trkpt lon="-7.087391" lat="43.512676"><ele>151.75</ele></trkpt>
<trkpt lon="-7.087795" lat="43.512757"><ele>154.25</ele></trkpt>
<trkpt lon="-7.088163" lat="43.512876"><ele>156.75</ele></trkpt>
<trkpt lon="-7.089366" lat="43.512642"><ele>149.0</ele></trkpt>
<trkpt lon="-7.090665" lat="43.512392"><ele>143.25</ele></trkpt>
<trkpt lon="-7.091927" lat="43.512160"><ele>136.75</ele></trkpt>
<trkpt lon="-7.092204" lat="43.512080"><ele>135.25</ele></trkpt>
<trkpt lon="-7.092573" lat="43.511931"><ele>137.0</ele></trkpt>
<trkpt lon="-7.092713" lat="43.511854"><ele>136.5</ele></trkpt>
<trkpt lon="-7.094109" lat="43.511063"><ele>130.5</ele></trkpt>
<trkpt lon="-7.094098" lat="43.511041"><ele>130.0</ele></trkpt>
<trkpt lon="-7.094240" lat="43.510907"><ele>128.75</ele></trkpt>
<trkpt lon="-7.094537" lat="43.510695"><ele>127.0</ele></trkpt>
<trkpt lon="-7.094942" lat="43.510472"><ele>124.5</ele></trkpt>
<trkpt lon="-7.095427" lat="43.510281"><ele>121.5</ele></trkpt>
<trkpt lon="-7.095773" lat="43.510249"><ele>119.0</ele></trkpt>
<trkpt lon="-7.095880" lat="43.510314"><ele>119.5</ele></trkpt>
<trkpt lon="-7.095999" lat="43.510281"><ele>117.75</ele></trkpt>
<trkpt lon="-7.096176" lat="43.510344"><ele>119.0</ele></trkpt>
<trkpt lon="-7.097124" lat="43.510584"><ele>118.75</ele></trkpt>
<trkpt lon="-7.097360" lat="43.510633"><ele>118.25</ele></trkpt>
<trkpt lon="-7.097533" lat="43.510642"><ele>116.75</ele></trkpt>
<trkpt lon="-7.097904" lat="43.510619"><ele>113.5</ele></trkpt>
<trkpt lon="-7.098205" lat="43.510601"><ele>111.25</ele></trkpt>
<trkpt lon="-7.098631" lat="43.510616"><ele>109.5</ele></trkpt>
<trkpt lon="-7.099239" lat="43.510661"><ele>107.5</ele></trkpt>
<trkpt lon="-7.100966" lat="43.510878"><ele>108.5</ele></trkpt>
<trkpt lon="-7.101241" lat="43.510912"><ele>109.25</ele></trkpt>
<trkpt lon="-7.101541" lat="43.510954"><ele>110.25</ele></trkpt>
<trkpt lon="-7.102103" lat="43.510993"><ele>111.75</ele></trkpt>
<trkpt lon="-7.102852" lat="43.511046"><ele>112.5</ele></trkpt>
<trkpt lon="-7.103077" lat="43.511086"><ele>112.5</ele></trkpt>
<trkpt lon="-7.103291" lat="43.511140"><ele>113.25</ele></trkpt>
<trkpt lon="-7.103499" lat="43.511207"><ele>113.0</ele></trkpt>
<trkpt lon="-7.103824" lat="43.511352"><ele>112.25</ele></trkpt>
<trkpt lon="-7.104106" lat="43.511454"><ele>111.5</ele></trkpt>
<trkpt lon="-7.104348" lat="43.511490"><ele>111.0</ele></trkpt>
<trkpt lon="-7.104798" lat="43.511517"><ele>109.0</ele></trkpt>
<trkpt lon="-7.105032" lat="43.511559"><ele>108.75</ele></trkpt>
<trkpt lon="-7.106594" lat="43.512012"><ele>111.75</ele></trkpt>
<trkpt lon="-7.106828" lat="43.512073"><ele>114.5</ele></trkpt>
<trkpt lon="-7.107247" lat="43.512168"><ele>119.25</ele></trkpt>
<trkpt lon="-7.107428" lat="43.512176"><ele>121.0</ele></trkpt>
<trkpt lon="-7.107935" lat="43.512168"><ele>124.75</ele></trkpt>
<trkpt lon="-7.108494" lat="43.512235"><ele>126.5</ele></trkpt>
<trkpt lon="-7.108881" lat="43.512259"><ele>128.5</ele></trkpt>
<trkpt lon="-7.109396" lat="43.512233"><ele>132.5</ele></trkpt>
<trkpt lon="-7.109862" lat="43.512209"><ele>135.0</ele></trkpt>
<trkpt lon="-7.110260" lat="43.512218"><ele>137.75</ele></trkpt>
<trkpt lon="-7.110540" lat="43.512268"><ele>138.75</ele></trkpt>
<trkpt lon="-7.111426" lat="43.512529"><ele>142.25</ele></trkpt>
<trkpt lon="-7.112429" lat="43.512813"><ele>148.25</ele></trkpt>
<trkpt lon="-7.112836" lat="43.512858"><ele>151.75</ele></trkpt>
<trkpt lon="-7.113354" lat="43.512928"><ele>155.75</ele></trkpt>
<trkpt lon="-7.113660" lat="43.512951"><ele>157.25</ele></trkpt>
<trkpt lon="-7.114825" lat="43.512789"><ele>156.25</ele></trkpt>
<trkpt lon="-7.115270" lat="43.512671"><ele>154.25</ele></trkpt>
<trkpt lon="-7.115860" lat="43.512531"><ele>152.75</ele></trkpt>
<trkpt lon="-7.116224" lat="43.512508"><ele>152.0</ele></trkpt>
<trkpt lon="-7.116750" lat="43.512516"><ele>152.5</ele></trkpt>
<trkpt lon="-7.116932" lat="43.512542"><ele>153.25</ele></trkpt>
<trkpt lon="-7.117469" lat="43.512422"><ele>157.25</ele></trkpt>
<trkpt lon="-7.118306" lat="43.512095"><ele>160.25</ele></trkpt>
<trkpt lon="-7.119411" lat="43.511800"><ele>166.0</ele></trkpt>
<trkpt lon="-7.120323" lat="43.511496"><ele>169.75</ele></trkpt>
<trkpt lon="-7.120457" lat="43.511439"><ele>170.25</ele></trkpt>
<trkpt lon="-7.120917" lat="43.511243"><ele>174.75</ele></trkpt>
<trkpt lon="-7.120979" lat="43.511027"><ele>174.0</ele></trkpt>
<trkpt lon="-7.121065" lat="43.510933"><ele>174.25</ele></trkpt>
<trkpt lon="-7.121176" lat="43.510774"><ele>175.0</ele></trkpt>
<trkpt lon="-7.121292" lat="43.510526"><ele>177.5</ele></trkpt>
<trkpt lon="-7.121612" lat="43.510461"><ele>181.5</ele></trkpt>
<trkpt lon="-7.121713" lat="43.510419"><ele>183.25</ele></trkpt>
<trkpt lon="-7.121726" lat="43.510387"><ele>184.25</ele></trkpt>
<trkpt lon="-7.121694" lat="43.510329"><ele>185.25</ele></trkpt>
<trkpt lon="-7.121610" lat="43.510247"><ele>188.0</ele></trkpt>
<trkpt lon="-7.121520" lat="43.510188"><ele>191.75</ele></trkpt>
<trkpt lon="-7.121455" lat="43.510160"><ele>193.25</ele></trkpt>
<trkpt lon="-7.121355" lat="43.510140"><ele>193.75</ele></trkpt>
<trkpt lon="-7.121260" lat="43.510133"><ele>193.5</ele></trkpt>
<trkpt lon="-7.121131" lat="43.510097"><ele>195.25</ele></trkpt>
<trkpt lon="-7.120998" lat="43.510022"><ele>199.0</ele></trkpt>
<trkpt lon="-7.120849" lat="43.509958"><ele>199.25</ele></trkpt>
<trkpt lon="-7.120676" lat="43.509925"><ele>202.0</ele></trkpt>
<trkpt lon="-7.120573" lat="43.509898"><ele>203.5</ele></trkpt>
<trkpt lon="-7.120329" lat="43.509725"><ele>208.25</ele></trkpt>
<trkpt lon="-7.120028" lat="43.509529"><ele>212.5</ele></trkpt>
<trkpt lon="-7.119960" lat="43.509442"><ele>213.25</ele></trkpt>
<trkpt lon="-7.119912" lat="43.509347"><ele>215.0</ele></trkpt>
<trkpt lon="-7.119880" lat="43.509236"><ele>216.5</ele></trkpt>
<trkpt lon="-7.119849" lat="43.509164"><ele>217.5</ele></trkpt>
<trkpt lon="-7.119638" lat="43.508848"><ele>220.5</ele></trkpt>
<trkpt lon="-7.119494" lat="43.508590"><ele>222.25</ele></trkpt>
<trkpt lon="-7.119804" lat="43.508484"><ele>224.75</ele></trkpt>
<trkpt lon="-7.120007" lat="43.508390"><ele>227.25</ele></trkpt>
<trkpt lon="-7.120255" lat="43.508242"><ele>229.25</ele></trkpt>
<trkpt lon="-7.120636" lat="43.507948"><ele>231.5</ele></trkpt>
<trkpt lon="-7.120880" lat="43.507656"><ele>231.5</ele></trkpt>
<trkpt lon="-7.121330" lat="43.507166"><ele>229.25</ele></trkpt>
<trkpt lon="-7.122113" lat="43.506839"><ele>224.5</ele></trkpt>
<trkpt lon="-7.122510" lat="43.506575"><ele>220.5</ele></trkpt>
<trkpt lon="-7.122607" lat="43.506357"><ele>217.5</ele></trkpt>
<trkpt lon="-7.122800" lat="43.506193"><ele>215.75</ele></trkpt>
<trkpt lon="-7.123476" lat="43.505859"><ele>211.25</ele></trkpt>
<trkpt lon="-7.124173" lat="43.505448"><ele>206.0</ele></trkpt>
<trkpt lon="-7.124320" lat="43.505313"><ele>205.5</ele></trkpt>
<trkpt lon="-7.124549" lat="43.505065"><ele>204.0</ele></trkpt>
<trkpt lon="-7.124654" lat="43.504961"><ele>203.75</ele></trkpt>
<trkpt lon="-7.124816" lat="43.504819"><ele>204.25</ele></trkpt>
<trkpt lon="-7.125078" lat="43.504646"><ele>205.0</ele></trkpt>
<trkpt lon="-7.125243" lat="43.504563"><ele>205.75</ele></trkpt>
<trkpt lon="-7.125446" lat="43.504427"><ele>206.75</ele></trkpt>
<trkpt lon="-7.125619" lat="43.504263"><ele>207.75</ele></trkpt>
<trkpt lon="-7.125784" lat="43.504076"><ele>208.25</ele></trkpt>
<trkpt lon="-7.126168" lat="43.503699"><ele>208.0</ele></trkpt>
<trkpt lon="-7.126286" lat="43.503663"><ele>207.5</ele></trkpt>
<trkpt lon="-7.126479" lat="43.503649"><ele>207.75</ele></trkpt>
<trkpt lon="-7.126538" lat="43.503523"><ele>205.75</ele></trkpt>
<trkpt lon="-7.126643" lat="43.503339"><ele>202.0</ele></trkpt>
<trkpt lon="-7.126918" lat="43.503042"><ele>195.75</ele></trkpt>
<trkpt lon="-7.127392" lat="43.502641"><ele>187.5</ele></trkpt>
<trkpt lon="-7.127492" lat="43.502540"><ele>185.0</ele></trkpt>
<trkpt lon="-7.127571" lat="43.502443"><ele>183.0</ele></trkpt>
<trkpt lon="-7.127721" lat="43.502192"><ele>178.0</ele></trkpt>
<trkpt lon="-7.127822" lat="43.502070"><ele>175.75</ele></trkpt>
<trkpt lon="-7.127926" lat="43.501971"><ele>173.5</ele></trkpt>
<trkpt lon="-7.128068" lat="43.501850"><ele>170.25</ele></trkpt>
<trkpt lon="-7.128497" lat="43.501539"><ele>162.75</ele></trkpt>
<trkpt lon="-7.128790" lat="43.501299"><ele>157.0</ele></trkpt>
<trkpt lon="-7.128809" lat="43.501267"><ele>156.25</ele></trkpt>
<trkpt lon="-7.129050" lat="43.501106"><ele>152.75</ele></trkpt>
<trkpt lon="-7.129033" lat="43.501049"><ele>151.5</ele></trkpt>
<trkpt lon="-7.128802" lat="43.500942"><ele>149.75</ele></trkpt>
<trkpt lon="-7.128284" lat="43.500723"><ele>145.25</ele></trkpt>
<trkpt lon="-7.128039" lat="43.500606"><ele>142.75</ele></trkpt>
<trkpt lon="-7.127872" lat="43.500517"><ele>141.25</ele></trkpt>
<trkpt lon="-7.129241" lat="43.500418"><ele>142.25</ele></trkpt>
<trkpt lon="-7.129575" lat="43.500426"><ele>145.5</ele></trkpt>
<trkpt lon="-7.130838" lat="43.500541"><ele>154.75</ele></trkpt>
<trkpt lon="-7.131021" lat="43.500528"><ele>155.25</ele></trkpt>
<trkpt lon="-7.131161" lat="43.500475"><ele>155.25</ele></trkpt>
<trkpt lon="-7.131279" lat="43.500419"><ele>154.75</ele></trkpt>
<trkpt lon="-7.131484" lat="43.500495"><ele>156.5</ele></trkpt>
<trkpt lon="-7.131637" lat="43.500476"><ele>157.0</ele></trkpt>
<trkpt lon="-7.132114" lat="43.500230"><ele>154.25</ele></trkpt>
<trkpt lon="-7.132148" lat="43.500211"><ele>154.0</ele></trkpt>
<trkpt lon="-7.132478" lat="43.500126"><ele>153.5</ele></trkpt>
<trkpt lon="-7.132797" lat="43.500057"><ele>151.5</ele></trkpt>
<trkpt lon="-7.133234" lat="43.500014"><ele>149.25</ele></trkpt>
<trkpt lon="-7.133434" lat="43.499968"><ele>149.0</ele></trkpt>
<trkpt lon="-7.133633" lat="43.499907"><ele>149.0</ele></trkpt>
<trkpt lon="-7.134016" lat="43.499758"><ele>148.0</ele></trkpt>
<trkpt lon="-7.134613" lat="43.499686"><ele>148.0</ele></trkpt>
<trkpt lon="-7.135154" lat="43.499581"><ele>146.5</ele></trkpt>
<trkpt lon="-7.135649" lat="43.499523"><ele>146.25</ele></trkpt>
<trkpt lon="-7.136695" lat="43.499420"><ele>145.25</ele></trkpt>
<trkpt lon="-7.137087" lat="43.499357"><ele>144.25</ele></trkpt>
<trkpt lon="-7.137288" lat="43.499351"><ele>145.0</ele></trkpt>
<trkpt lon="-7.137938" lat="43.499113"><ele>143.0</ele></trkpt>
<trkpt lon="-7.138761" lat="43.498753"><ele>141.25</ele></trkpt>
<trkpt lon="-7.139282" lat="43.498590"><ele>139.75</ele></trkpt>
<trkpt lon="-7.139322" lat="43.498489"><ele>137.75</ele></trkpt>
<trkpt lon="-7.139676" lat="43.498488"><ele>138.75</ele></trkpt>
<trkpt lon="-7.139992" lat="43.498359"><ele>135.5</ele></trkpt>
<trkpt lon="-7.140161" lat="43.498248"><ele>132.0</ele></trkpt>
<trkpt lon="-7.140426" lat="43.498007"><ele>127.25</ele></trkpt>
<trkpt lon="-7.140675" lat="43.497774"><ele>123.5</ele></trkpt>
<trkpt lon="-7.140824" lat="43.497611"><ele>120.5</ele></trkpt>
<trkpt lon="-7.140899" lat="43.497518"><ele>119.25</ele></trkpt>
<trkpt lon="-7.140945" lat="43.497426"><ele>117.75</ele></trkpt>
<trkpt lon="-7.141506" lat="43.497410"><ele>115.5</ele></trkpt>
<trkpt lon="-7.141677" lat="43.497388"><ele>113.75</ele></trkpt>
<trkpt lon="-7.141426" lat="43.497120"><ele>110.75</ele></trkpt>
<trkpt lon="-7.141065" lat="43.496885"><ele>107.5</ele></trkpt>
<trkpt lon="-7.141116" lat="43.496839"><ele>106.25</ele></trkpt>
<trkpt lon="-7.141157" lat="43.496814"><ele>105.5</ele></trkpt>
<trkpt lon="-7.141362" lat="43.496785"><ele>104.5</ele></trkpt>
<trkpt lon="-7.141589" lat="43.496807"><ele>102.75</ele></trkpt>
<trkpt lon="-7.142267" lat="43.496948"><ele>97.75</ele></trkpt>
<trkpt lon="-7.142424" lat="43.496951"><ele>96.5</ele></trkpt>
<trkpt lon="-7.142694" lat="43.496896"><ele>95.5</ele></trkpt>
<trkpt lon="-7.143013" lat="43.496827"><ele>94.5</ele></trkpt>
<trkpt lon="-7.143421" lat="43.496703"><ele>97.0</ele></trkpt>
<trkpt lon="-7.144078" lat="43.496476"><ele>103.0</ele></trkpt>
<trkpt lon="-7.144533" lat="43.496329"><ele>105.75</ele></trkpt>
<trkpt lon="-7.144531" lat="43.496375"><ele>107.0</ele></trkpt>
<trkpt lon="-7.144358" lat="43.496484"><ele>107.5</ele></trkpt>
<trkpt lon="-7.144316" lat="43.496539"><ele>108.5</ele></trkpt>
<trkpt lon="-7.144309" lat="43.496592"><ele>110.25</ele></trkpt>
<trkpt lon="-7.144304" lat="43.496658"><ele>112.0</ele></trkpt>
<trkpt lon="-7.144314" lat="43.496741"><ele>113.0</ele></trkpt>
<trkpt lon="-7.144338" lat="43.496837"><ele>114.0</ele></trkpt>
<trkpt lon="-7.144416" lat="43.496915"><ele>116.75</ele></trkpt>
<trkpt lon="-7.144708" lat="43.497071"><ele>120.25</ele></trkpt>
<trkpt lon="-7.144795" lat="43.497076"><ele>122.25</ele></trkpt>
<trkpt lon="-7.144887" lat="43.497068"><ele>124.25</ele></trkpt>
<trkpt lon="-7.145783" lat="43.496896"><ele>137.0</ele></trkpt>
<trkpt lon="-7.145979" lat="43.496914"><ele>139.75</ele></trkpt>
<trkpt lon="-7.147220" lat="43.497388"><ele>157.75</ele></trkpt>
<trkpt lon="-7.148037" lat="43.497615"><ele>169.75</ele></trkpt>
<trkpt lon="-7.148679" lat="43.497600"><ele>174.0</ele></trkpt>
<trkpt lon="-7.148712" lat="43.497640"><ele>175.5</ele></trkpt>
<trkpt lon="-7.148607" lat="43.497701"><ele>176.0</ele></trkpt>
<trkpt lon="-7.148547" lat="43.497749"><ele>177.0</ele></trkpt>
<trkpt lon="-7.148496" lat="43.497814"><ele>178.5</ele></trkpt>
<trkpt lon="-7.148815" lat="43.497867"><ele>182.75</ele></trkpt>
<trkpt lon="-7.149370" lat="43.498087"><ele>188.25</ele></trkpt>
<trkpt lon="-7.150375" lat="43.498533"><ele>196.0</ele></trkpt>
<trkpt lon="-7.150861" lat="43.498691"><ele>200.5</ele></trkpt>
<trkpt lon="-7.151178" lat="43.498795"><ele>204.25</ele></trkpt>
<trkpt lon="-7.151528" lat="43.498999"><ele>209.0</ele></trkpt>
<trkpt lon="-7.151879" lat="43.499259"><ele>213.5</ele></trkpt>
<trkpt lon="-7.152078" lat="43.499379"><ele>215.25</ele></trkpt>
<trkpt lon="-7.152391" lat="43.499490"><ele>217.25</ele></trkpt>
<trkpt lon="-7.152578" lat="43.499570"><ele>219.5</ele></trkpt>
<trkpt lon="-7.153481" lat="43.499956"><ele>230.25</ele></trkpt>
<trkpt lon="-7.153739" lat="43.500141"><ele>234.25</ele></trkpt>
<trkpt lon="-7.154070" lat="43.500540"><ele>241.5</ele></trkpt>
<trkpt lon="-7.154313" lat="43.500792"><ele>246.0</ele></trkpt>
<trkpt lon="-7.154592" lat="43.500870"><ele>248.0</ele></trkpt>
<trkpt lon="-7.155194" lat="43.500948"><ele>252.0</ele></trkpt>
<trkpt lon="-7.155816" lat="43.500935"><ele>256.25</ele></trkpt>
<trkpt lon="-7.156867" lat="43.500791"><ele>261.75</ele></trkpt>
<trkpt lon="-7.157156" lat="43.500732"><ele>264.0</ele></trkpt>
<trkpt lon="-7.157837" lat="43.500202"><ele>268.25</ele></trkpt>
<trkpt lon="-7.158448" lat="43.499852"><ele>272.75</ele></trkpt>
<trkpt lon="-7.158772" lat="43.499764"><ele>274.75</ele></trkpt>
<trkpt lon="-7.159385" lat="43.499657"><ele>276.0</ele></trkpt>
<trkpt lon="-7.160025" lat="43.499497"><ele>277.75</ele></trkpt>
<trkpt lon="-7.160294" lat="43.499447"><ele>278.0</ele></trkpt>
<trkpt lon="-7.160424" lat="43.499434"><ele>278.0</ele></trkpt>
<trkpt lon="-7.160864" lat="43.499390"><ele>278.25</ele></trkpt>
<trkpt lon="-7.161276" lat="43.499334"><ele>278.25</ele></trkpt>
<trkpt lon="-7.161637" lat="43.499254"><ele>278.5</ele></trkpt>
<trkpt lon="-7.161927" lat="43.499148"><ele>277.25</ele></trkpt>
<trkpt lon="-7.162254" lat="43.498997"><ele>278.0</ele></trkpt>
<trkpt lon="-7.162836" lat="43.498648"><ele>278.0</ele></trkpt>
<trkpt lon="-7.163093" lat="43.498544"><ele>278.0</ele></trkpt>
<trkpt lon="-7.163285" lat="43.498523"><ele>277.5</ele></trkpt>
<trkpt lon="-7.164228" lat="43.498588"><ele>276.5</ele></trkpt>
<trkpt lon="-7.165084" lat="43.498515"><ele>280.0</ele></trkpt>
<trkpt lon="-7.166795" lat="43.498883"><ele>285.25</ele></trkpt>
<trkpt lon="-7.167077" lat="43.498933"><ele>286.5</ele></trkpt>
<trkpt lon="-7.167356" lat="43.498946"><ele>287.75</ele></trkpt>
<trkpt lon="-7.168287" lat="43.498897"><ele>292.5</ele></trkpt>
<trkpt lon="-7.168881" lat="43.499019"><ele>296.5</ele></trkpt>
<trkpt lon="-7.169374" lat="43.499043"><ele>297.5</ele></trkpt>
<trkpt lon="-7.170312" lat="43.499133"><ele>298.75</ele></trkpt>
<trkpt lon="-7.170967" lat="43.499069"><ele>299.25</ele></trkpt>
<trkpt lon="-7.171789" lat="43.499119"><ele>299.25</ele></trkpt>
<trkpt lon="-7.172461" lat="43.499103"><ele>299.5</ele></trkpt>
<trkpt lon="-7.173024" lat="43.498988"><ele>300.25</ele></trkpt>
<trkpt lon="-7.173559" lat="43.498766"><ele>302.0</ele></trkpt>
<trkpt lon="-7.173632" lat="43.498682"><ele>301.0</ele></trkpt>
<trkpt lon="-7.175375" lat="43.498477"><ele>313.25</ele></trkpt>
<trkpt lon="-7.175577" lat="43.498471"><ele>315.0</ele></trkpt>
<trkpt lon="-7.175796" lat="43.498548"><ele>318.0</ele></trkpt>
<trkpt lon="-7.175834" lat="43.498614"><ele>319.0</ele></trkpt>
<trkpt lon="-7.175851" lat="43.498677"><ele>319.25</ele></trkpt>
<trkpt lon="-7.175905" lat="43.499181"><ele>320.75</ele></trkpt>
<trkpt lon="-7.176941" lat="43.499022"><ele>326.5</ele></trkpt>
<trkpt lon="-7.177315" lat="43.498957"><ele>331.0</ele></trkpt>
<trkpt lon="-7.177433" lat="43.498917"><ele>331.5</ele></trkpt>
<trkpt lon="-7.178023" lat="43.498598"><ele>331.0</ele></trkpt>
<trkpt lon="-7.178210" lat="43.498511"><ele>331.0</ele></trkpt>
<trkpt lon="-7.178476" lat="43.498426"><ele>331.5</ele></trkpt>
<trkpt lon="-7.179376" lat="43.498161"><ele>333.0</ele></trkpt>
<trkpt lon="-7.179980" lat="43.497975"><ele>335.5</ele></trkpt>
<trkpt lon="-7.181271" lat="43.497564"><ele>341.75</ele></trkpt>
<trkpt lon="-7.181440" lat="43.497495"><ele>343.0</ele></trkpt>
<trkpt lon="-7.181803" lat="43.497261"><ele>347.0</ele></trkpt>
<trkpt lon="-7.181972" lat="43.497276"><ele>347.25</ele></trkpt>
<trkpt lon="-7.182498" lat="43.497376"><ele>347.0</ele></trkpt>
<trkpt lon="-7.182878" lat="43.497386"><ele>347.0</ele></trkpt>
<trkpt lon="-7.183223" lat="43.497300"><ele>347.0</ele></trkpt>
<trkpt lon="-7.183847" lat="43.497039"><ele>348.25</ele></trkpt>
<trkpt lon="-7.184308" lat="43.496759"><ele>350.25</ele></trkpt>
<trkpt lon="-7.184723" lat="43.496609"><ele>350.5</ele></trkpt>
<trkpt lon="-7.185310" lat="43.496479"><ele>351.25</ele></trkpt>
<trkpt lon="-7.185971" lat="43.496368"><ele>354.0</ele></trkpt>
<trkpt lon="-7.186553" lat="43.496228"><ele>359.25</ele></trkpt>
<trkpt lon="-7.186773" lat="43.496184"><ele>360.25</ele></trkpt>
<trkpt lon="-7.187511" lat="43.496091"><ele>361.0</ele></trkpt>
<trkpt lon="-7.187695" lat="43.496056"><ele>360.25</ele></trkpt>
<trkpt lon="-7.187895" lat="43.495955"><ele>360.5</ele></trkpt>
<trkpt lon="-7.188451" lat="43.495610"><ele>361.5</ele></trkpt>
<trkpt lon="-7.188710" lat="43.495472"><ele>361.0</ele></trkpt>
<trkpt lon="-7.189063" lat="43.495298"><ele>360.5</ele></trkpt>
<trkpt lon="-7.189286" lat="43.495213"><ele>360.0</ele></trkpt>
<trkpt lon="-7.189653" lat="43.495116"><ele>358.25</ele></trkpt>
<trkpt lon="-7.189865" lat="43.495036"><ele>357.0</ele></trkpt>
<trkpt lon="-7.190279" lat="43.494847"><ele>355.5</ele></trkpt>
<trkpt lon="-7.190569" lat="43.494738"><ele>353.5</ele></trkpt>
<trkpt lon="-7.190784" lat="43.494650"><ele>351.25</ele></trkpt>
<trkpt lon="-7.191095" lat="43.494551"><ele>348.25</ele></trkpt>
<trkpt lon="-7.191506" lat="43.494441"><ele>343.25</ele></trkpt>
<trkpt lon="-7.191931" lat="43.494361"><ele>338.25</ele></trkpt>
<trkpt lon="-7.192177" lat="43.494299"><ele>335.5</ele></trkpt>
<trkpt lon="-7.192289" lat="43.494263"><ele>334.25</ele></trkpt>
<trkpt lon="-7.192406" lat="43.494190"><ele>333.0</ele></trkpt>
<trkpt lon="-7.192911" lat="43.493731"><ele>331.75</ele></trkpt>
<trkpt lon="-7.192997" lat="43.493685"><ele>331.0</ele></trkpt>
<trkpt lon="-7.193315" lat="43.493368"><ele>331.5</ele></trkpt>
<trkpt lon="-7.193710" lat="43.493119"><ele>332.0</ele></trkpt>
<trkpt lon="-7.194292" lat="43.492828"><ele>332.5</ele></trkpt>
<trkpt lon="-7.194831" lat="43.492569"><ele>330.0</ele></trkpt>
<trkpt lon="-7.195338" lat="43.492298"><ele>328.75</ele></trkpt>
<trkpt lon="-7.195707" lat="43.492115"><ele>328.0</ele></trkpt>
<trkpt lon="-7.196072" lat="43.491957"><ele>328.75</ele></trkpt>
<trkpt lon="-7.196908" lat="43.491744"><ele>333.25</ele></trkpt>
<trkpt lon="-7.197276" lat="43.491640"><ele>335.25</ele></trkpt>
<trkpt lon="-7.197631" lat="43.491814"><ele>331.25</ele></trkpt>
<trkpt lon="-7.198662" lat="43.492351"><ele>319.75</ele></trkpt>
<trkpt lon="-7.198920" lat="43.492484"><ele>317.75</ele></trkpt>
<trkpt lon="-7.199796" lat="43.493196"><ele>305.25</ele></trkpt>
<trkpt lon="-7.199950" lat="43.493310"><ele>303.25</ele></trkpt>
<trkpt lon="-7.200110" lat="43.493328"><ele>301.25</ele></trkpt>
<trkpt lon="-7.200365" lat="43.493337"><ele>298.0</ele></trkpt>
<trkpt lon="-7.200831" lat="43.493341"><ele>291.75</ele></trkpt>
<trkpt lon="-7.200970" lat="43.493291"><ele>290.75</ele></trkpt>
<trkpt lon="-7.201041" lat="43.493234"><ele>290.5</ele></trkpt>
<trkpt lon="-7.201154" lat="43.493158"><ele>289.25</ele></trkpt>
<trkpt lon="-7.201228" lat="43.493085"><ele>288.5</ele></trkpt>
<trkpt lon="-7.201597" lat="43.492597"><ele>284.75</ele></trkpt>
<trkpt lon="-7.202479" lat="43.491457"><ele>284.5</ele></trkpt>
<trkpt lon="-7.202571" lat="43.491309"><ele>284.5</ele></trkpt>
<trkpt lon="-7.202654" lat="43.491126"><ele>284.5</ele></trkpt>
<trkpt lon="-7.202851" lat="43.490401"><ele>281.75</ele></trkpt>
<trkpt lon="-7.202941" lat="43.490287"><ele>281.25</ele></trkpt>
<trkpt lon="-7.203017" lat="43.490241"><ele>282.0</ele></trkpt>
<trkpt lon="-7.203131" lat="43.490199"><ele>282.5</ele></trkpt>
<trkpt lon="-7.203523" lat="43.490137"><ele>282.25</ele></trkpt>
<trkpt lon="-7.203642" lat="43.490103"><ele>282.5</ele></trkpt>
<trkpt lon="-7.203725" lat="43.490068"><ele>282.75</ele></trkpt>
<trkpt lon="-7.204943" lat="43.489858"><ele>276.75</ele></trkpt>
<trkpt lon="-7.205626" lat="43.489750"><ele>272.0</ele></trkpt>
<trkpt lon="-7.206156" lat="43.489630"><ele>269.25</ele></trkpt>
<trkpt lon="-7.206434" lat="43.489580"><ele>268.25</ele></trkpt>
<trkpt lon="-7.206612" lat="43.489476"><ele>268.0</ele></trkpt>
<trkpt lon="-7.207647" lat="43.488915"><ele>272.25</ele></trkpt>
<trkpt lon="-7.208296" lat="43.488529"><ele>273.0</ele></trkpt>
<trkpt lon="-7.208486" lat="43.488427"><ele>272.75</ele></trkpt>
<trkpt lon="-7.208820" lat="43.488611"><ele>268.25</ele></trkpt>
<trkpt lon="-7.209231" lat="43.488814"><ele>263.25</ele></trkpt>
<trkpt lon="-7.209386" lat="43.488949"><ele>262.0</ele></trkpt>
<trkpt lon="-7.209587" lat="43.489182"><ele>262.5</ele></trkpt>
<trkpt lon="-7.209750" lat="43.489436"><ele>266.0</ele></trkpt>
<trkpt lon="-7.210212" lat="43.490228"><ele>278.0</ele></trkpt>
<trkpt lon="-7.210467" lat="43.490636"><ele>283.5</ele></trkpt>
<trkpt lon="-7.210547" lat="43.490795"><ele>285.5</ele></trkpt>
<trkpt lon="-7.210591" lat="43.491025"><ele>289.0</ele></trkpt>
<trkpt lon="-7.210565" lat="43.491140"><ele>290.25</ele></trkpt>
<trkpt lon="-7.210537" lat="43.491413"><ele>293.0</ele></trkpt>
<trkpt lon="-7.210591" lat="43.491782"><ele>298.5</ele></trkpt>
<trkpt lon="-7.210739" lat="43.491935"><ele>301.0</ele></trkpt>
<trkpt lon="-7.211660" lat="43.492518"><ele>314.0</ele></trkpt>
<trkpt lon="-7.212094" lat="43.492781"><ele>319.0</ele></trkpt>
<trkpt lon="-7.212201" lat="43.492835"><ele>321.25</ele></trkpt>
<trkpt lon="-7.212375" lat="43.492888"><ele>323.25</ele></trkpt>
<trkpt lon="-7.212848" lat="43.493024"><ele>326.5</ele></trkpt>
<trkpt lon="-7.213109" lat="43.493075"><ele>328.0</ele></trkpt>
<trkpt lon="-7.213526" lat="43.493114"><ele>332.25</ele></trkpt>
<trkpt lon="-7.213808" lat="43.493119"><ele>333.5</ele></trkpt>
<trkpt lon="-7.214384" lat="43.493199"><ele>337.5</ele></trkpt>
<trkpt lon="-7.214662" lat="43.493224"><ele>338.5</ele></trkpt>
<trkpt lon="-7.214882" lat="43.493278"><ele>339.25</ele></trkpt>
<trkpt lon="-7.214928" lat="43.493314"><ele>339.75</ele></trkpt>
<trkpt lon="-7.214976" lat="43.493387"><ele>340.25</ele></trkpt>
<trkpt lon="-7.215053" lat="43.493445"><ele>340.5</ele></trkpt>
<trkpt lon="-7.215391" lat="43.493486"><ele>340.5</ele></trkpt>
<trkpt lon="-7.215615" lat="43.493530"><ele>340.25</ele></trkpt>
<trkpt lon="-7.215906" lat="43.493616"><ele>339.25</ele></trkpt>
<trkpt lon="-7.216106" lat="43.493640"><ele>337.25</ele></trkpt>
<trkpt lon="-7.216514" lat="43.493558"><ele>335.0</ele></trkpt>
<trkpt lon="-7.217165" lat="43.493014"><ele>334.5</ele></trkpt>
<trkpt lon="-7.217339" lat="43.492911"><ele>334.25</ele></trkpt>
<trkpt lon="-7.217500" lat="43.492862"><ele>334.0</ele></trkpt>
<trkpt lon="-7.218682" lat="43.492573"><ele>327.5</ele></trkpt>
<trkpt lon="-7.220283" lat="43.492053"><ele>311.75</ele></trkpt>
<trkpt lon="-7.221773" lat="43.491692"><ele>291.75</ele></trkpt>
<trkpt lon="-7.221909" lat="43.491653"><ele>289.75</ele></trkpt>
<trkpt lon="-7.222091" lat="43.491602"><ele>288.75</ele></trkpt>
<trkpt lon="-7.222760" lat="43.491195"><ele>281.75</ele></trkpt>
<trkpt lon="-7.222764" lat="43.490869"><ele>285.75</ele></trkpt>
<trkpt lon="-7.222592" lat="43.490437"><ele>295.5</ele></trkpt>
<trkpt lon="-7.222572" lat="43.490361"><ele>297.0</ele></trkpt>
<trkpt lon="-7.222624" lat="43.489997"><ele>302.75</ele></trkpt>
<trkpt lon="-7.222600" lat="43.489838"><ele>305.75</ele></trkpt>
<trkpt lon="-7.222714" lat="43.489748"><ele>304.0</ele></trkpt>
<trkpt lon="-7.223208" lat="43.489397"><ele>299.5</ele></trkpt>
<trkpt lon="-7.223453" lat="43.489213"><ele>298.5</ele></trkpt>
<trkpt lon="-7.223523" lat="43.489144"><ele>298.75</ele></trkpt>
<trkpt lon="-7.223621" lat="43.489019"><ele>299.25</ele></trkpt>
<trkpt lon="-7.223788" lat="43.488830"><ele>299.5</ele></trkpt>
<trkpt lon="-7.223999" lat="43.488558"><ele>299.5</ele></trkpt>
<trkpt lon="-7.224165" lat="43.488383"><ele>299.75</ele></trkpt>
<trkpt lon="-7.224328" lat="43.488394"><ele>299.25</ele></trkpt>
<trkpt lon="-7.224491" lat="43.488580"><ele>292.0</ele></trkpt>
<trkpt lon="-7.224602" lat="43.488842"><ele>283.25</ele></trkpt>
<trkpt lon="-7.224677" lat="43.488945"><ele>279.0</ele></trkpt>
<trkpt lon="-7.225283" lat="43.488862"><ele>296.5</ele></trkpt>
<trkpt lon="-7.225888" lat="43.488812"><ele>297.25</ele></trkpt>
<trkpt lon="-7.226296" lat="43.488761"><ele>296.0</ele></trkpt>
<trkpt lon="-7.226465" lat="43.488705"><ele>295.5</ele></trkpt>
<trkpt lon="-7.227198" lat="43.488344"><ele>293.0</ele></trkpt>
<trkpt lon="-7.227991" lat="43.488010"><ele>288.0</ele></trkpt>
<trkpt lon="-7.228606" lat="43.487891"><ele>283.5</ele></trkpt>
<trkpt lon="-7.229206" lat="43.487671"><ele>282.75</ele></trkpt>
<trkpt lon="-7.229494" lat="43.487615"><ele>282.25</ele></trkpt>
<trkpt lon="-7.229452" lat="43.487230"><ele>286.75</ele></trkpt>
<trkpt lon="-7.229368" lat="43.486956"><ele>289.0</ele></trkpt>
<trkpt lon="-7.229240" lat="43.486750"><ele>290.75</ele></trkpt>
<trkpt lon="-7.229157" lat="43.486646"><ele>292.25</ele></trkpt>
<trkpt lon="-7.229087" lat="43.486498"><ele>294.0</ele></trkpt>
<trkpt lon="-7.229021" lat="43.486313"><ele>295.5</ele></trkpt>
<trkpt lon="-7.228917" lat="43.486142"><ele>297.25</ele></trkpt>
<trkpt lon="-7.228812" lat="43.486038"><ele>298.75</ele></trkpt>
<trkpt lon="-7.228590" lat="43.485893"><ele>301.5</ele></trkpt>
<trkpt lon="-7.228201" lat="43.485684"><ele>306.75</ele></trkpt>
<trkpt lon="-7.227872" lat="43.485446"><ele>310.5</ele></trkpt>
<trkpt lon="-7.227594" lat="43.485256"><ele>312.75</ele></trkpt>
<trkpt lon="-7.227444" lat="43.485094"><ele>315.0</ele></trkpt>
<trkpt lon="-7.227379" lat="43.484888"><ele>317.75</ele></trkpt>
<trkpt lon="-7.227363" lat="43.484649"><ele>320.75</ele></trkpt>
<trkpt lon="-7.227376" lat="43.484460"><ele>322.5</ele></trkpt>
<trkpt lon="-7.227344" lat="43.484370"><ele>323.75</ele></trkpt>
<trkpt lon="-7.227273" lat="43.484318"><ele>325.25</ele></trkpt>
<trkpt lon="-7.227681" lat="43.484030"><ele>323.5</ele></trkpt>
<trkpt lon="-7.227900" lat="43.483817"><ele>321.25</ele></trkpt>
<trkpt lon="-7.228038" lat="43.483597"><ele>320.25</ele></trkpt>
<trkpt lon="-7.228472" lat="43.482770"><ele>314.0</ele></trkpt>
<trkpt lon="-7.228807" lat="43.482459"><ele>309.5</ele></trkpt>
<trkpt lon="-7.229281" lat="43.482196"><ele>303.75</ele></trkpt>
<trkpt lon="-7.229894" lat="43.481867"><ele>300.0</ele></trkpt>
<trkpt lon="-7.230284" lat="43.481642"><ele>295.25</ele></trkpt>
<trkpt lon="-7.230929" lat="43.481050"><ele>288.5</ele></trkpt>
<trkpt lon="-7.231176" lat="43.481004"><ele>288.0</ele></trkpt>
<trkpt lon="-7.232610" lat="43.481304"><ele>278.5</ele></trkpt>
<trkpt lon="-7.233004" lat="43.481276"><ele>275.5</ele></trkpt>
<trkpt lon="-7.233466" lat="43.481032"><ele>271.25</ele></trkpt>
<trkpt lon="-7.233908" lat="43.480542"><ele>266.75</ele></trkpt>
<trkpt lon="-7.234339" lat="43.479926"><ele>262.5</ele></trkpt>
<trkpt lon="-7.234683" lat="43.479480"><ele>255.75</ele></trkpt>
<trkpt lon="-7.235003" lat="43.479248"><ele>257.5</ele></trkpt>
<trkpt lon="-7.235310" lat="43.479195"><ele>254.25</ele></trkpt>
<trkpt lon="-7.235740" lat="43.479275"><ele>249.25</ele></trkpt>
<trkpt lon="-7.236121" lat="43.479302"><ele>248.25</ele></trkpt>
<trkpt lon="-7.237056" lat="43.479480"><ele>243.0</ele></trkpt>
<trkpt lon="-7.237498" lat="43.479543"><ele>238.75</ele></trkpt>
<trkpt lon="-7.238039" lat="43.479564"><ele>236.0</ele></trkpt>
<trkpt lon="-7.238062" lat="43.479527"><ele>237.25</ele></trkpt>
<trkpt lon="-7.238383" lat="43.479420"><ele>240.0</ele></trkpt>
<trkpt lon="-7.239133" lat="43.479269"><ele>247.0</ele></trkpt>
<trkpt lon="-7.239384" lat="43.479252"><ele>247.75</ele></trkpt>
<trkpt lon="-7.239886" lat="43.479133"><ele>249.5</ele></trkpt>
<trkpt lon="-7.240401" lat="43.479063"><ele>249.5</ele></trkpt>
<trkpt lon="-7.241061" lat="43.478948"><ele>247.5</ele></trkpt>
<trkpt lon="-7.241449" lat="43.478836"><ele>245.75</ele></trkpt>
<trkpt lon="-7.241851" lat="43.478761"><ele>244.75</ele></trkpt>
<trkpt lon="-7.242139" lat="43.478722"><ele>243.25</ele></trkpt>
<trkpt lon="-7.242403" lat="43.478732"><ele>241.75</ele></trkpt>
<trkpt lon="-7.242406" lat="43.478629"><ele>242.5</ele></trkpt>
<trkpt lon="-7.242469" lat="43.478460"><ele>244.25</ele></trkpt>
<trkpt lon="-7.242597" lat="43.478436"><ele>243.5</ele></trkpt>
<trkpt lon="-7.242853" lat="43.478286"><ele>242.25</ele></trkpt>
<trkpt lon="-7.242998" lat="43.478104"><ele>241.25</ele></trkpt>
<trkpt lon="-7.243291" lat="43.477652"><ele>239.75</ele></trkpt>
<trkpt lon="-7.243613" lat="43.477259"><ele>234.75</ele></trkpt>
<trkpt lon="-7.244041" lat="43.476641"><ele>225.5</ele></trkpt>
<trkpt lon="-7.244228" lat="43.476418"><ele>221.25</ele></trkpt>
<trkpt lon="-7.244257" lat="43.476408"><ele>220.75</ele></trkpt>
<trkpt lon="-7.244507" lat="43.476264"><ele>215.75</ele></trkpt>
<trkpt lon="-7.244888" lat="43.475882"><ele>205.75</ele></trkpt>
<trkpt lon="-7.245233" lat="43.475606"><ele>198.0</ele></trkpt>
<trkpt lon="-7.245340" lat="43.475482"><ele>195.25</ele></trkpt>
<trkpt lon="-7.245454" lat="43.475383"><ele>192.75</ele></trkpt>
<trkpt lon="-7.245773" lat="43.475299"><ele>188.75</ele></trkpt>
<trkpt lon="-7.245821" lat="43.475238"><ele>186.75</ele></trkpt>
<trkpt lon="-7.244827" lat="43.475034"><ele>182.75</ele></trkpt>
<trkpt lon="-7.244670" lat="43.474976"><ele>180.5</ele></trkpt>
<trkpt lon="-7.244699" lat="43.474951"><ele>179.5</ele></trkpt>
<trkpt lon="-7.244778" lat="43.474915"><ele>178.75</ele></trkpt>
<trkpt lon="-7.245281" lat="43.474809"><ele>174.25</ele></trkpt>
<trkpt lon="-7.245822" lat="43.474714"><ele>167.75</ele></trkpt>
<trkpt lon="-7.246335" lat="43.474694"><ele>165.75</ele></trkpt>
<trkpt lon="-7.247567" lat="43.474696"><ele>161.5</ele></trkpt>
<trkpt lon="-7.247468" lat="43.474634"><ele>160.75</ele></trkpt>
<trkpt lon="-7.247194" lat="43.474546"><ele>157.75</ele></trkpt>
<trkpt lon="-7.246951" lat="43.474476"><ele>156.0</ele></trkpt>
<trkpt lon="-7.246781" lat="43.474407"><ele>154.75</ele></trkpt>
<trkpt lon="-7.246690" lat="43.474290"><ele>153.5</ele></trkpt>
<trkpt lon="-7.246690" lat="43.474167"><ele>151.75</ele></trkpt>
<trkpt lon="-7.246925" lat="43.474019"><ele>156.5</ele></trkpt>
<trkpt lon="-7.247194" lat="43.473889"><ele>153.75</ele></trkpt>
<trkpt lon="-7.247653" lat="43.473727"><ele>147.0</ele></trkpt>
<trkpt lon="-7.247978" lat="43.473486"><ele>145.0</ele></trkpt>
<trkpt lon="-7.248129" lat="43.473335"><ele>146.0</ele></trkpt>
<trkpt lon="-7.248589" lat="43.473704"><ele>148.0</ele></trkpt>
<trkpt lon="-7.248790" lat="43.473842"><ele>145.5</ele></trkpt>
<trkpt lon="-7.248949" lat="43.473869"><ele>144.25</ele></trkpt>
<trkpt lon="-7.249535" lat="43.473794"><ele>146.0</ele></trkpt>
<trkpt lon="-7.249547" lat="43.473802"><ele>145.75</ele></trkpt>
<trkpt lon="-7.249630" lat="43.473857"><ele>144.5</ele></trkpt>
<trkpt lon="-7.249641" lat="43.474092"><ele>145.25</ele></trkpt>
<trkpt lon="-7.249763" lat="43.474489"><ele>147.75</ele></trkpt>
<trkpt lon="-7.250014" lat="43.474932"><ele>151.5</ele></trkpt>
<trkpt lon="-7.250245" lat="43.475228"><ele>153.0</ele></trkpt>
<trkpt lon="-7.250376" lat="43.475340"><ele>153.0</ele></trkpt>
<trkpt lon="-7.250529" lat="43.475398"><ele>154.75</ele></trkpt>
<trkpt lon="-7.250517" lat="43.475201"><ele>158.0</ele></trkpt>
<trkpt lon="-7.250478" lat="43.474905"><ele>161.75</ele></trkpt>
<trkpt lon="-7.250556" lat="43.474611"><ele>164.75</ele></trkpt>
<trkpt lon="-7.250781" lat="43.474264"><ele>170.0</ele></trkpt>
<trkpt lon="-7.250969" lat="43.474114"><ele>173.75</ele></trkpt>
<trkpt lon="-7.251169" lat="43.473988"><ele>176.75</ele></trkpt>
<trkpt lon="-7.251338" lat="43.473915"><ele>178.5</ele></trkpt>
<trkpt lon="-7.251508" lat="43.474169"><ele>185.0</ele></trkpt>
<trkpt lon="-7.251662" lat="43.474315"><ele>188.25</ele></trkpt>
<trkpt lon="-7.252140" lat="43.474582"><ele>197.0</ele></trkpt>
<trkpt lon="-7.252551" lat="43.474774"><ele>203.5</ele></trkpt>
<trkpt lon="-7.253059" lat="43.474921"><ele>213.5</ele></trkpt>
<trkpt lon="-7.253751" lat="43.475035"><ele>224.0</ele></trkpt>
<trkpt lon="-7.254075" lat="43.475060"><ele>229.25</ele></trkpt>
<trkpt lon="-7.254630" lat="43.475011"><ele>237.75</ele></trkpt>
<trkpt lon="-7.255114" lat="43.474921"><ele>245.75</ele></trkpt>
<trkpt lon="-7.255577" lat="43.474814"><ele>252.5</ele></trkpt>
<trkpt lon="-7.256114" lat="43.474743"><ele>257.5</ele></trkpt>
<trkpt lon="-7.256454" lat="43.474605"><ele>262.5</ele></trkpt>
<trkpt lon="-7.256742" lat="43.474305"><ele>270.0</ele></trkpt>
<trkpt lon="-7.257023" lat="43.474175"><ele>274.25</ele></trkpt>
<trkpt lon="-7.257254" lat="43.474142"><ele>276.5</ele></trkpt>
<trkpt lon="-7.257508" lat="43.474202"><ele>276.25</ele></trkpt>
<trkpt lon="-7.258201" lat="43.474491"><ele>279.75</ele></trkpt>
<trkpt lon="-7.258983" lat="43.474615"><ele>283.75</ele></trkpt>
<trkpt lon="-7.259363" lat="43.474700"><ele>285.25</ele></trkpt>
<trkpt lon="-7.259921" lat="43.474838"><ele>287.75</ele></trkpt>
<trkpt lon="-7.260325" lat="43.474805"><ele>289.5</ele></trkpt>
<trkpt lon="-7.260812" lat="43.474753"><ele>291.5</ele></trkpt>
<trkpt lon="-7.261208" lat="43.474799"><ele>289.75</ele></trkpt>
<trkpt lon="-7.261674" lat="43.474828"><ele>287.75</ele></trkpt>
<trkpt lon="-7.261841" lat="43.474814"><ele>287.75</ele></trkpt>
<trkpt lon="-7.261954" lat="43.474755"><ele>287.75</ele></trkpt>
<trkpt lon="-7.262206" lat="43.474706"><ele>287.0</ele></trkpt>
<trkpt lon="-7.262459" lat="43.474694"><ele>286.75</ele></trkpt>
<trkpt lon="-7.262603" lat="43.474681"><ele>286.25</ele></trkpt>
<trkpt lon="-7.262789" lat="43.474638"><ele>285.5</ele></trkpt>
<trkpt lon="-7.263102" lat="43.474634"><ele>284.25</ele></trkpt>
<trkpt lon="-7.263308" lat="43.474613"><ele>283.0</ele></trkpt>
<trkpt lon="-7.263794" lat="43.474528"><ele>281.0</ele></trkpt>
<trkpt lon="-7.263874" lat="43.474535"><ele>280.5</ele></trkpt>
<trkpt lon="-7.264578" lat="43.474697"><ele>280.0</ele></trkpt>
<trkpt lon="-7.264923" lat="43.474764"><ele>278.75</ele></trkpt>
<trkpt lon="-7.265157" lat="43.474842"><ele>278.5</ele></trkpt>
<trkpt lon="-7.265414" lat="43.474939"><ele>278.5</ele></trkpt>
<trkpt lon="-7.265614" lat="43.474987"><ele>278.75</ele></trkpt>
<trkpt lon="-7.265939" lat="43.475000"><ele>278.75</ele></trkpt>
<trkpt lon="-7.266299" lat="43.474990"><ele>278.5</ele></trkpt>
<trkpt lon="-7.266921" lat="43.474956"><ele>278.75</ele></trkpt>
<trkpt lon="-7.267328" lat="43.474947"><ele>277.75</ele></trkpt>
<trkpt lon="-7.267758" lat="43.474950"><ele>277.5</ele></trkpt>
<trkpt lon="-7.267901" lat="43.474933"><ele>277.0</ele></trkpt>
<trkpt lon="-7.268149" lat="43.474872"><ele>275.0</ele></trkpt>
<trkpt lon="-7.268701" lat="43.474789"><ele>273.25</ele></trkpt>
<trkpt lon="-7.269154" lat="43.474763"><ele>271.75</ele></trkpt>
<trkpt lon="-7.269468" lat="43.474764"><ele>270.5</ele></trkpt>
<trkpt lon="-7.269963" lat="43.474846"><ele>269.25</ele></trkpt>
<trkpt lon="-7.270424" lat="43.474883"><ele>267.5</ele></trkpt>
<trkpt lon="-7.270766" lat="43.474847"><ele>266.25</ele></trkpt>
<trkpt lon="-7.271563" lat="43.474676"><ele>260.75</ele></trkpt>
<trkpt lon="-7.271821" lat="43.474598"><ele>257.5</ele></trkpt>
<trkpt lon="-7.272035" lat="43.474443"><ele>253.25</ele></trkpt>
<trkpt lon="-7.273022" lat="43.474232"><ele>247.0</ele></trkpt>
<trkpt lon="-7.273226" lat="43.474067"><ele>244.5</ele></trkpt>
<trkpt lon="-7.273229" lat="43.474175"><ele>246.0</ele></trkpt>
<trkpt lon="-7.273184" lat="43.474416"><ele>249.5</ele></trkpt>
<trkpt lon="-7.273163" lat="43.474638"><ele>251.75</ele></trkpt>
<trkpt lon="-7.273221" lat="43.474905"><ele>253.75</ele></trkpt>
<trkpt lon="-7.273169" lat="43.475130"><ele>255.0</ele></trkpt>
<trkpt lon="-7.273171" lat="43.475311"><ele>255.0</ele></trkpt>
<trkpt lon="-7.273151" lat="43.475566"><ele>254.75</ele></trkpt>
<trkpt lon="-7.273217" lat="43.475571"><ele>254.0</ele></trkpt>
<trkpt lon="-7.273593" lat="43.475305"><ele>251.75</ele></trkpt>
<trkpt lon="-7.274027" lat="43.475032"><ele>249.75</ele></trkpt>
<trkpt lon="-7.274730" lat="43.474814"><ele>245.75</ele></trkpt>
<trkpt lon="-7.274920" lat="43.474659"><ele>245.5</ele></trkpt>
<trkpt lon="-7.275135" lat="43.474544"><ele>243.5</ele></trkpt>
<trkpt lon="-7.275482" lat="43.474419"><ele>241.5</ele></trkpt>
<trkpt lon="-7.275813" lat="43.474262"><ele>238.0</ele></trkpt>
<trkpt lon="-7.276034" lat="43.474184"><ele>237.0</ele></trkpt>
<trkpt lon="-7.276302" lat="43.474013"><ele>234.5</ele></trkpt>
<trkpt lon="-7.276482" lat="43.473852"><ele>231.75</ele></trkpt>
<trkpt lon="-7.276573" lat="43.473725"><ele>230.25</ele></trkpt>
<trkpt lon="-7.276606" lat="43.473618"><ele>229.25</ele></trkpt>
<trkpt lon="-7.276710" lat="43.473456"><ele>227.5</ele></trkpt>
<trkpt lon="-7.276794" lat="43.473390"><ele>226.25</ele></trkpt>
<trkpt lon="-7.277327" lat="43.473159"><ele>221.5</ele></trkpt>
<trkpt lon="-7.278489" lat="43.472640"><ele>212.25</ele></trkpt>
<trkpt lon="-7.279020" lat="43.472433"><ele>207.75</ele></trkpt>
<trkpt lon="-7.279115" lat="43.472460"><ele>207.0</ele></trkpt>
<trkpt lon="-7.279382" lat="43.472603"><ele>204.25</ele></trkpt>
<trkpt lon="-7.279545" lat="43.472580"><ele>202.5</ele></trkpt>
<trkpt lon="-7.279783" lat="43.472486"><ele>200.25</ele></trkpt>
<trkpt lon="-7.280105" lat="43.472330"><ele>198.25</ele></trkpt>
<trkpt lon="-7.280496" lat="43.472213"><ele>195.5</ele></trkpt>
<trkpt lon="-7.280700" lat="43.472091"><ele>194.0</ele></trkpt>
<trkpt lon="-7.280911" lat="43.471983"><ele>192.25</ele></trkpt>
<trkpt lon="-7.281227" lat="43.471896"><ele>190.0</ele></trkpt>
<trkpt lon="-7.281378" lat="43.471863"><ele>188.75</ele></trkpt>
<trkpt lon="-7.281808" lat="43.471703"><ele>184.25</ele></trkpt>
<trkpt lon="-7.282112" lat="43.471581"><ele>182.0</ele></trkpt>
<trkpt lon="-7.282265" lat="43.471581"><ele>181.0</ele></trkpt>
<trkpt lon="-7.282457" lat="43.471610"><ele>179.5</ele></trkpt>
<trkpt lon="-7.282838" lat="43.471688"><ele>176.5</ele></trkpt>
<trkpt lon="-7.283085" lat="43.471605"><ele>175.0</ele></trkpt>
<trkpt lon="-7.283191" lat="43.471533"><ele>174.5</ele></trkpt>
<trkpt lon="-7.283323" lat="43.471544"><ele>173.5</ele></trkpt>
<trkpt lon="-7.283470" lat="43.471500"><ele>172.25</ele></trkpt>
<trkpt lon="-7.283726" lat="43.471368"><ele>169.75</ele></trkpt>
<trkpt lon="-7.283790" lat="43.471356"><ele>169.0</ele></trkpt>
<trkpt lon="-7.284123" lat="43.471338"><ele>165.5</ele></trkpt>
<trkpt lon="-7.284285" lat="43.471312"><ele>163.75</ele></trkpt>
<trkpt lon="-7.284521" lat="43.471441"><ele>161.0</ele></trkpt>
<trkpt lon="-7.284840" lat="43.471543"><ele>158.0</ele></trkpt>
<trkpt lon="-7.285252" lat="43.471583"><ele>154.5</ele></trkpt>
<trkpt lon="-7.285608" lat="43.471527"><ele>150.25</ele></trkpt>
<trkpt lon="-7.285879" lat="43.471411"><ele>147.5</ele></trkpt>
<trkpt lon="-7.286154" lat="43.471349"><ele>145.5</ele></trkpt>
<trkpt lon="-7.286438" lat="43.471384"><ele>142.75</ele></trkpt>
<trkpt lon="-7.286749" lat="43.471336"><ele>141.0</ele></trkpt>
<trkpt lon="-7.287033" lat="43.471170"><ele>138.0</ele></trkpt>
<trkpt lon="-7.287483" lat="43.470818"><ele>131.0</ele></trkpt>
<trkpt lon="-7.288576" lat="43.470764"><ele>124.5</ele></trkpt>
<trkpt lon="-7.289859" lat="43.470690"><ele>112.25</ele></trkpt>
<trkpt lon="-7.289940" lat="43.470681"><ele>111.0</ele></trkpt>
<trkpt lon="-7.290325" lat="43.470639"><ele>107.5</ele></trkpt>
<trkpt lon="-7.290714" lat="43.470528"><ele>103.0</ele></trkpt>
<trkpt lon="-7.291184" lat="43.470468"><ele>97.0</ele></trkpt>
<trkpt lon="-7.292150" lat="43.470380"><ele>87.0</ele></trkpt>
<trkpt lon="-7.292191" lat="43.470600"><ele>84.5</ele></trkpt>
<trkpt lon="-7.292729" lat="43.471206"><ele>62.0</ele></trkpt>
<trkpt lon="-7.293470" lat="43.470819"><ele>61.25</ele></trkpt>
<trkpt lon="-7.293822" lat="43.470530"><ele>60.5</ele></trkpt>
<trkpt lon="-7.293862" lat="43.470479"><ele>59.75</ele></trkpt>
<trkpt lon="-7.293952" lat="43.470471"><ele>58.25</ele></trkpt>
<trkpt lon="-7.293982" lat="43.470650"><ele>56.5</ele></trkpt>
<trkpt lon="-7.294040" lat="43.470819"><ele>54.5</ele></trkpt>
<trkpt lon="-7.294120" lat="43.470906"><ele>53.75</ele></trkpt>
<trkpt lon="-7.294192" lat="43.470937"><ele>53.5</ele></trkpt>
<trkpt lon="-7.294326" lat="43.470947"><ele>53.25</ele></trkpt>
<trkpt lon="-7.294377" lat="43.470951"><ele>53.0</ele></trkpt>
<trkpt lon="-7.294531" lat="43.470946"><ele>53.0</ele></trkpt>
<trkpt lon="-7.294887" lat="43.470931"><ele>53.25</ele></trkpt>
<trkpt lon="-7.295073" lat="43.470953"><ele>53.5</ele></trkpt>
<trkpt lon="-7.295197" lat="43.470986"><ele>53.25</ele></trkpt>
<trkpt lon="-7.295229" lat="43.470994"><ele>53.25</ele></trkpt>
<trkpt lon="-7.295274" lat="43.471006"><ele>53.25</ele></trkpt>
<trkpt lon="-7.295462" lat="43.470902"><ele>53.75</ele></trkpt>
<trkpt lon="-7.296016" lat="43.470357"><ele>56.0</ele></trkpt>
<trkpt lon="-7.296363" lat="43.470079"><ele>58.25</ele></trkpt>
<trkpt lon="-7.296851" lat="43.469793"><ele>60.25</ele></trkpt>
<trkpt lon="-7.297304" lat="43.469546"><ele>62.25</ele></trkpt>
<trkpt lon="-7.297404" lat="43.469477"><ele>62.75</ele></trkpt>
<trkpt lon="-7.297608" lat="43.469438"><ele>62.5</ele></trkpt>
<trkpt lon="-7.297911" lat="43.469302"><ele>62.0</ele></trkpt>
<trkpt lon="-7.298126" lat="43.469235"><ele>60.75</ele></trkpt>
<trkpt lon="-7.298274" lat="43.469232"><ele>60.75</ele></trkpt>
<trkpt lon="-7.298475" lat="43.469312"><ele>60.75</ele></trkpt>
<trkpt lon="-7.298517" lat="43.469182"><ele>61.5</ele></trkpt>
<trkpt lon="-7.298591" lat="43.468939"><ele>63.25</ele></trkpt>
  </trkseg></trk></gpx>
