<?xml version="1.0" encoding="UTF-8"?>
<gpx version="1.1" creator="compostel-brouter" xmlns="http://www.topografix.com/GPX/1/1">
  <metadata><name>ES-30-Navia</name></metadata>
  <trk><name>ES-30-Navia</name><trkseg>
<trkpt lon="-6.537060" lat="43.542071"><ele>13.5</ele></trkpt>
<trkpt lon="-6.536545" lat="43.542295"><ele>21.0</ele></trkpt>
<trkpt lon="-6.537215" lat="43.542291"><ele>28.5</ele></trkpt>
<trkpt lon="-6.537301" lat="43.542299"><ele>30.75</ele></trkpt>
<trkpt lon="-6.537338" lat="43.542310"><ele>32.25</ele></trkpt>
<trkpt lon="-6.537343" lat="43.542328"><ele>33.5</ele></trkpt>
<trkpt lon="-6.537335" lat="43.542349"><ele>34.75</ele></trkpt>
<trkpt lon="-6.537300" lat="43.542358"><ele>34.75</ele></trkpt>
<trkpt lon="-6.537198" lat="43.542361"><ele>33.0</ele></trkpt>
<trkpt lon="-6.537080" lat="43.542379"><ele>33.0</ele></trkpt>
<trkpt lon="-6.536609" lat="43.542489"><ele>35.0</ele></trkpt>
<trkpt lon="-6.536241" lat="43.542581"><ele>37.0</ele></trkpt>
<trkpt lon="-6.536148" lat="43.542630"><ele>38.0</ele></trkpt>
<trkpt lon="-6.536078" lat="43.542685"><ele>38.0</ele></trkpt>
<trkpt lon="-6.536006" lat="43.542771"><ele>39.0</ele></trkpt>
<trkpt lon="-6.535965" lat="43.542840"><ele>38.5</ele></trkpt>
<trkpt lon="-6.535954" lat="43.542897"><ele>38.75</ele></trkpt>
<trkpt lon="-6.535964" lat="43.542950"><ele>39.25</ele></trkpt>
<trkpt lon="-6.536010" lat="43.542985"><ele>40.25</ele></trkpt>
<trkpt lon="-6.536787" lat="43.543300"><ele>49.0</ele></trkpt>
<trkpt lon="-6.536857" lat="43.543280"><ele>53.5</ele></trkpt>
<trkpt lon="-6.536848" lat="43.543258"><ele>54.0</ele></trkpt>
<trkpt lon="-6.536434" lat="43.542962"><ele>48.75</ele></trkpt>
<trkpt lon="-6.536402" lat="43.542922"><ele>47.5</ele></trkpt>
<trkpt lon="-6.536402" lat="43.542891"><ele>47.25</ele></trkpt>
<trkpt lon="-6.536424" lat="43.542868"><ele>47.75</ele></trkpt>
<trkpt lon="-6.536457" lat="43.542847"><ele>48.75</ele></trkpt>
<trkpt lon="-6.536498" lat="43.542839"><ele>50.25</ele></trkpt>
<trkpt lon="-6.537060" lat="43.542849"><ele>62.25</ele></trkpt>
<trkpt lon="-6.537731" lat="43.542843"><ele>68.75</ele></trkpt>
<trkpt lon="-6.537795" lat="43.542831"><ele>69.25</ele></trkpt>
<trkpt lon="-6.537900" lat="43.542783"><ele>69.25</ele></trkpt>
<trkpt lon="-6.538374" lat="43.542548"><ele>68.75</ele></trkpt>
<trkpt lon="-6.538571" lat="43.542438"><ele>67.25</ele></trkpt>
<trkpt lon="-6.539013" lat="43.542138"><ele>68.25</ele></trkpt>
<trkpt lon="-6.540170" lat="43.541353"><ele>70.0</ele></trkpt>
<trkpt lon="-6.540420" lat="43.541218"><ele>69.75</ele></trkpt>
<trkpt lon="-6.540639" lat="43.541110"><ele>70.5</ele></trkpt>
<trkpt lon="-6.541141" lat="43.540806"><ele>69.0</ele></trkpt>
<trkpt lon="-6.542266" lat="43.540079"><ele>73.25</ele></trkpt>
<trkpt lon="-6.542812" lat="43.539708"><ele>74.0</ele></trkpt>
<trkpt lon="-6.543048" lat="43.539593"><ele>75.25</ele></trkpt>
<trkpt lon="-6.543246" lat="43.539488"><ele>75.0</ele></trkpt>
<trkpt lon="-6.543399" lat="43.539422"><ele>75.0</ele></trkpt>
<trkpt lon="-6.543717" lat="43.539302"><ele>76.0</ele></trkpt>
<trkpt lon="-6.544524" lat="43.539106"><ele>75.75</ele></trkpt>
<trkpt lon="-6.544640" lat="43.539073"><ele>75.75</ele></trkpt>
<trkpt lon="-6.544709" lat="43.539122"><ele>75.75</ele></trkpt>
<trkpt lon="-6.545010" lat="43.539413"><ele>74.75</ele></trkpt>
<trkpt lon="-6.545269" lat="43.539624"><ele>75.0</ele></trkpt>
<trkpt lon="-6.545455" lat="43.539738"><ele>75.0</ele></trkpt>
<trkpt lon="-6.545843" lat="43.539975"><ele>74.0</ele></trkpt>
<trkpt lon="-6.546185" lat="43.540006"><ele>72.5</ele></trkpt>
<trkpt lon="-6.546552" lat="43.540040"><ele>71.25</ele></trkpt>
<trkpt lon="-6.547698" lat="43.539957"><ele>63.75</ele></trkpt>
<trkpt lon="-6.547783" lat="43.539842"><ele>61.5</ele></trkpt>
<trkpt lon="-6.547817" lat="43.539711"><ele>58.25</ele></trkpt>
<trkpt lon="-6.547450" lat="43.539237"><ele>55.75</ele></trkpt>
<trkpt lon="-6.547468" lat="43.538974"><ele>52.0</ele></trkpt>
<trkpt lon="-6.547602" lat="43.538778"><ele>49.0</ele></trkpt>
<trkpt lon="-6.547900" lat="43.538530"><ele>48.5</ele></trkpt>
<trkpt lon="-6.548070" lat="43.538230"><ele>51.0</ele></trkpt>
<trkpt lon="-6.548789" lat="43.537596"><ele>56.75</ele></trkpt>
<trkpt lon="-6.549025" lat="43.537412"><ele>58.75</ele></trkpt>
<trkpt lon="-6.549660" lat="43.537129"><ele>61.75</ele></trkpt>
<trkpt lon="-6.550188" lat="43.536878"><ele>63.75</ele></trkpt>
<trkpt lon="-6.550237" lat="43.536838"><ele>64.0</ele></trkpt>
<trkpt lon="-6.551133" lat="43.536103"><ele>67.0</ele></trkpt>
<trkpt lon="-6.551738" lat="43.535783"><ele>69.0</ele></trkpt>
<trkpt lon="-6.552707" lat="43.535555"><ele>70.5</ele></trkpt>
<trkpt lon="-6.552961" lat="43.535527"><ele>71.5</ele></trkpt>
<trkpt lon="-6.553307" lat="43.535461"><ele>72.5</ele></trkpt>
<trkpt lon="-6.553630" lat="43.535353"><ele>74.25</ele></trkpt>
<trkpt lon="-6.553816" lat="43.535268"><ele>74.75</ele></trkpt>
<trkpt lon="-6.554060" lat="43.535086"><ele>74.75</ele></trkpt>
<trkpt lon="-6.554140" lat="43.535038"><ele>75.25</ele></trkpt>
<trkpt lon="-6.554293" lat="43.534988"><ele>75.25</ele></trkpt>
<trkpt lon="-6.554693" lat="43.534903"><ele>75.25</ele></trkpt>
<trkpt lon="-6.556286" lat="43.534858"><ele>80.0</ele></trkpt>
<trkpt lon="-6.556503" lat="43.534839"><ele>80.75</ele></trkpt>
<trkpt lon="-6.558398" lat="43.534669"><ele>85.0</ele></trkpt>
<trkpt lon="-6.559086" lat="43.534514"><ele>87.25</ele></trkpt>
<trkpt lon="-6.560951" lat="43.534278"><ele>89.5</ele></trkpt>
<trkpt lon="-6.561114" lat="43.534258"><ele>89.5</ele></trkpt>
<trkpt lon="-6.563781" lat="43.533516"><ele>93.0</ele></trkpt>
<trkpt lon="-6.565556" lat="43.533022"><ele>100.0</ele></trkpt>
<trkpt lon="-6.565620" lat="43.533004"><ele>100.75</ele></trkpt>
<trkpt lon="-6.566196" lat="43.532917"><ele>103.75</ele></trkpt>
<trkpt lon="-6.566381" lat="43.532824"><ele>104.75</ele></trkpt>
<trkpt lon="-6.566562" lat="43.532721"><ele>105.0</ele></trkpt>
<trkpt lon="-6.567237" lat="43.532631"><ele>107.0</ele></trkpt>
<trkpt lon="-6.567378" lat="43.532585"><ele>107.5</ele></trkpt>
<trkpt lon="-6.568073" lat="43.532290"><ele>109.75</ele></trkpt>
<trkpt lon="-6.569790" lat="43.531697"><ele>115.0</ele></trkpt>
<trkpt lon="-6.570177" lat="43.531637"><ele>116.5</ele></trkpt>
<trkpt lon="-6.571950" lat="43.531792"><ele>121.0</ele></trkpt>
<trkpt lon="-6.572753" lat="43.532296"><ele>120.5</ele></trkpt>
<trkpt lon="-6.573087" lat="43.532539"><ele>119.75</ele></trkpt>
<trkpt lon="-6.573568" lat="43.532906"><ele>119.25</ele></trkpt>
<trkpt lon="-6.573749" lat="43.532993"><ele>119.0</ele></trkpt>
<trkpt lon="-6.573949" lat="43.533061"><ele>118.75</ele></trkpt>
<trkpt lon="-6.574493" lat="43.533072"><ele>118.75</ele></trkpt>
<trkpt lon="-6.576890" lat="43.532661"><ele>119.25</ele></trkpt>
<trkpt lon="-6.577892" lat="43.532423"><ele>116.25</ele></trkpt>
<trkpt lon="-6.578830" lat="43.532222"><ele>115.0</ele></trkpt>
<trkpt lon="-6.579461" lat="43.532252"><ele>115.0</ele></trkpt>
<trkpt lon="-6.581560" lat="43.532556"><ele>121.0</ele></trkpt>
<trkpt lon="-6.582371" lat="43.532636"><ele>123.5</ele></trkpt>
<trkpt lon="-6.583120" lat="43.532942"><ele>121.75</ele></trkpt>
<trkpt lon="-6.583325" lat="43.533119"><ele>120.75</ele></trkpt>
<trkpt lon="-6.583475" lat="43.533336"><ele>121.0</ele></trkpt>
<trkpt lon="-6.583614" lat="43.533619"><ele>119.75</ele></trkpt>
<trkpt lon="-6.584185" lat="43.534304"><ele>117.0</ele></trkpt>
<trkpt lon="-6.584593" lat="43.534663"><ele>115.75</ele></trkpt>
<trkpt lon="-6.585621" lat="43.535306"><ele>114.25</ele></trkpt>
<trkpt lon="-6.586298" lat="43.535815"><ele>117.5</ele></trkpt>
<trkpt lon="-6.586714" lat="43.536132"><ele>116.75</ele></trkpt>
<trkpt lon="-6.586904" lat="43.536138"><ele>118.0</ele></trkpt>
<trkpt lon="-6.587767" lat="43.536004"><ele>118.75</ele></trkpt>
<trkpt lon="-6.588187" lat="43.536056"><ele>116.75</ele></trkpt>
<trkpt lon="-6.590196" lat="43.536671"><ele>118.5</ele></trkpt>
<trkpt lon="-6.590261" lat="43.536682"><ele>118.75</ele></trkpt>
<trkpt lon="-6.591189" lat="43.536835"><ele>117.0</ele></trkpt>
<trkpt lon="-6.592452" lat="43.537043"><ele>112.5</ele></trkpt>
<trkpt lon="-6.592889" lat="43.536939"><ele>110.5</ele></trkpt>
<trkpt lon="-6.593000" lat="43.536919"><ele>110.5</ele></trkpt>
<trkpt lon="-6.594171" lat="43.537031"><ele>114.0</ele></trkpt>
<trkpt lon="-6.594433" lat="43.537035"><ele>115.25</ele></trkpt>
<trkpt lon="-6.594931" lat="43.536948"><ele>116.0</ele></trkpt>
<trkpt lon="-6.595874" lat="43.536499"><ele>118.5</ele></trkpt>
<trkpt lon="-6.596149" lat="43.536453"><ele>118.25</ele></trkpt>
<trkpt lon="-6.597338" lat="43.536474"><ele>115.0</ele></trkpt>
<trkpt lon="-6.598136" lat="43.537029"><ele>114.5</ele></trkpt>
<trkpt lon="-6.599409" lat="43.537450"><ele>112.25</ele></trkpt>
<trkpt lon="-6.599802" lat="43.537526"><ele>113.0</ele></trkpt>
<trkpt lon="-6.599943" lat="43.537539"><ele>113.25</ele></trkpt>
<trkpt lon="-6.600155" lat="43.537554"><ele>113.75</ele></trkpt>
<trkpt lon="-6.600362" lat="43.537616"><ele>114.0</ele></trkpt>
<trkpt lon="-6.600698" lat="43.537882"><ele>112.75</ele></trkpt>
<trkpt lon="-6.601844" lat="43.538180"><ele>114.75</ele></trkpt>
<trkpt lon="-6.602318" lat="43.538320"><ele>116.0</ele></trkpt>
<trkpt lon="-6.602553" lat="43.538435"><ele>116.25</ele></trkpt>
<trkpt lon="-6.602819" lat="43.538607"><ele>115.0</ele></trkpt>
<trkpt lon="-6.603106" lat="43.538859"><ele>112.75</ele></trkpt>
<trkpt lon="-6.603440" lat="43.539177"><ele>112.5</ele></trkpt>
<trkpt lon="-6.603666" lat="43.539309"><ele>113.75</ele></trkpt>
<trkpt lon="-6.603740" lat="43.539332"><ele>114.25</ele></trkpt>
<trkpt lon="-6.604653" lat="43.539415"><ele>118.75</ele></trkpt>
<trkpt lon="-6.605764" lat="43.539302"><ele>123.75</ele></trkpt>
<trkpt lon="-6.606516" lat="43.539130"><ele>127.25</ele></trkpt>
<trkpt lon="-6.606772" lat="43.539137"><ele>128.0</ele></trkpt>
<trkpt lon="-6.607041" lat="43.539189"><ele>129.25</ele></trkpt>
<trkpt lon="-6.607427" lat="43.539324"><ele>131.75</ele></trkpt>
<trkpt lon="-6.607576" lat="43.539395"><ele>133.75</ele></trkpt>
<trkpt lon="-6.607666" lat="43.539467"><ele>135.25</ele></trkpt>
<trkpt lon="-6.607824" lat="43.539653"><ele>137.75</ele></trkpt>
<trkpt lon="-6.607991" lat="43.539829"><ele>140.75</ele></trkpt>
<trkpt lon="-6.608094" lat="43.540012"><ele>141.25</ele></trkpt>
<trkpt lon="-6.608370" lat="43.540180"><ele>147.75</ele></trkpt>
<trkpt lon="-6.608867" lat="43.540341"><ele>151.75</ele></trkpt>
<trkpt lon="-6.609158" lat="43.540341"><ele>154.0</ele></trkpt>
<trkpt lon="-6.609576" lat="43.540373"><ele>153.75</ele></trkpt>
<trkpt lon="-6.610034" lat="43.540323"><ele>155.5</ele></trkpt>
<trkpt lon="-6.610609" lat="43.540285"><ele>158.25</ele></trkpt>
<trkpt lon="-6.610682" lat="43.540264"><ele>158.75</ele></trkpt>
<trkpt lon="-6.610984" lat="43.540220"><ele>159.75</ele></trkpt>
<trkpt lon="-6.611178" lat="43.540200"><ele>158.25</ele></trkpt>
<trkpt lon="-6.611296" lat="43.540221"><ele>156.5</ele></trkpt>
<trkpt lon="-6.611419" lat="43.540285"><ele>154.75</ele></trkpt>
<trkpt lon="-6.611591" lat="43.540297"><ele>148.75</ele></trkpt>
<trkpt lon="-6.611743" lat="43.540284"><ele>144.5</ele></trkpt>
<trkpt lon="-6.611842" lat="43.540269"><ele>142.75</ele></trkpt>
<trkpt lon="-6.611908" lat="43.540226"><ele>142.25</ele></trkpt>
<trkpt lon="-6.611965" lat="43.540171"><ele>142.5</ele></trkpt>
<trkpt lon="-6.612285" lat="43.540188"><ele>143.5</ele></trkpt>
<trkpt lon="-6.612392" lat="43.540188"><ele>145.0</ele></trkpt>
<trkpt lon="-6.612478" lat="43.540200"><ele>146.0</ele></trkpt>
<trkpt lon="-6.612582" lat="43.540232"><ele>147.25</ele></trkpt>
<trkpt lon="-6.612663" lat="43.540267"><ele>148.5</ele></trkpt>
<trkpt lon="-6.612742" lat="43.540314"><ele>150.25</ele></trkpt>
<trkpt lon="-6.612815" lat="43.540376"><ele>152.25</ele></trkpt>
<trkpt lon="-6.613050" lat="43.540641"><ele>157.0</ele></trkpt>
<trkpt lon="-6.613075" lat="43.540831"><ele>158.25</ele></trkpt>
<trkpt lon="-6.613076" lat="43.540957"><ele>159.0</ele></trkpt>
<trkpt lon="-6.613149" lat="43.541145"><ele>161.25</ele></trkpt>
<trkpt lon="-6.613174" lat="43.541186"><ele>161.5</ele></trkpt>
<trkpt lon="-6.613274" lat="43.541320"><ele>163.0</ele></trkpt>
<trkpt lon="-6.613767" lat="43.541779"><ele>166.5</ele></trkpt>
<trkpt lon="-6.613879" lat="43.541924"><ele>166.75</ele></trkpt>
<trkpt lon="-6.614268" lat="43.542168"><ele>168.0</ele></trkpt>
<trkpt lon="-6.614588" lat="43.542301"><ele>168.5</ele></trkpt>
<trkpt lon="-6.614936" lat="43.542399"><ele>169.75</ele></trkpt>
<trkpt lon="-6.615765" lat="43.542433"><ele>172.25</ele></trkpt>
<trkpt lon="-6.616376" lat="43.542409"><ele>172.0</ele></trkpt>
<trkpt lon="-6.616848" lat="43.542357"><ele>172.25</ele></trkpt>
<trkpt lon="-6.617100" lat="43.542352"><ele>172.25</ele></trkpt>
<trkpt lon="-6.617131" lat="43.542400"><ele>172.75</ele></trkpt>
<trkpt lon="-6.617231" lat="43.542497"><ele>173.75</ele></trkpt>
<trkpt lon="-6.617361" lat="43.542528"><ele>174.5</ele></trkpt>
<trkpt lon="-6.617542" lat="43.542542"><ele>174.75</ele></trkpt>
<trkpt lon="-6.617977" lat="43.542505"><ele>174.0</ele></trkpt>
<trkpt lon="-6.618524" lat="43.542441"><ele>175.5</ele></trkpt>
<trkpt lon="-6.618686" lat="43.542427"><ele>177.0</ele></trkpt>
<trkpt lon="-6.618911" lat="43.542394"><ele>178.75</ele></trkpt>
<trkpt lon="-6.619136" lat="43.542367"><ele>179.75</ele></trkpt>
<trkpt lon="-6.619560" lat="43.542276"><ele>180.0</ele></trkpt>
<trkpt lon="-6.620035" lat="43.542219"><ele>182.25</ele></trkpt>
<trkpt lon="-6.620559" lat="43.542244"><ele>186.5</ele></trkpt>
<trkpt lon="-6.620674" lat="43.542255"><ele>185.75</ele></trkpt>
<trkpt lon="-6.621221" lat="43.542343"><ele>183.25</ele></trkpt>
<trkpt lon="-6.621561" lat="43.542476"><ele>182.25</ele></trkpt>
<trkpt lon="-6.621826" lat="43.542602"><ele>180.5</ele></trkpt>
<trkpt lon="-6.622116" lat="43.542822"><ele>179.75</ele></trkpt>
<trkpt lon="-6.622370" lat="43.543051"><ele>176.0</ele></trkpt>
<trkpt lon="-6.622502" lat="43.543273"><ele>174.25</ele></trkpt>
<trkpt lon="-6.622541" lat="43.543499"><ele>172.25</ele></trkpt>
<trkpt lon="-6.622536" lat="43.543636"><ele>171.5</ele></trkpt>
<trkpt lon="-6.622546" lat="43.543891"><ele>168.25</ele></trkpt>
<trkpt lon="-6.622472" lat="43.544107"><ele>167.0</ele></trkpt>
<trkpt lon="-6.622326" lat="43.544446"><ele>166.5</ele></trkpt>
<trkpt lon="-6.622231" lat="43.544568"><ele>167.0</ele></trkpt>
<trkpt lon="-6.622229" lat="43.545025"><ele>156.0</ele></trkpt>
<trkpt lon="-6.622220" lat="43.545173"><ele>152.5</ele></trkpt>
<trkpt lon="-6.622128" lat="43.545653"><ele>142.5</ele></trkpt>
<trkpt lon="-6.621968" lat="43.545963"><ele>138.25</ele></trkpt>
<trkpt lon="-6.621914" lat="43.546054"><ele>136.75</ele></trkpt>
<trkpt lon="-6.622229" lat="43.545895"><ele>135.25</ele></trkpt>
<trkpt lon="-6.622398" lat="43.545855"><ele>132.0</ele></trkpt>
<trkpt lon="-6.622570" lat="43.545769"><ele>129.0</ele></trkpt>
<trkpt lon="-6.622691" lat="43.545688"><ele>127.25</ele></trkpt>
<trkpt lon="-6.622987" lat="43.545448"><ele>124.0</ele></trkpt>
<trkpt lon="-6.623117" lat="43.545326"><ele>122.0</ele></trkpt>
<trkpt lon="-6.623403" lat="43.544850"><ele>122.0</ele></trkpt>
<trkpt lon="-6.623513" lat="43.544735"><ele>120.25</ele></trkpt>
<trkpt lon="-6.623771" lat="43.544563"><ele>114.0</ele></trkpt>
<trkpt lon="-6.624353" lat="43.544271"><ele>109.5</ele></trkpt>
<trkpt lon="-6.624683" lat="43.544136"><ele>107.75</ele></trkpt>
<trkpt lon="-6.625000" lat="43.543987"><ele>104.75</ele></trkpt>
<trkpt lon="-6.625068" lat="43.543897"><ele>105.25</ele></trkpt>
<trkpt lon="-6.625056" lat="43.543857"><ele>105.5</ele></trkpt>
<trkpt lon="-6.625039" lat="43.543650"><ele>106.25</ele></trkpt>
<trkpt lon="-6.624941" lat="43.543444"><ele>108.25</ele></trkpt>
<trkpt lon="-6.624874" lat="43.543280"><ele>109.75</ele></trkpt>
<trkpt lon="-6.624992" lat="43.543179"><ele>108.5</ele></trkpt>
<trkpt lon="-6.625070" lat="43.543128"><ele>107.75</ele></trkpt>
<trkpt lon="-6.625101" lat="43.543107"><ele>107.5</ele></trkpt>
<trkpt lon="-6.625201" lat="43.542917"><ele>106.75</ele></trkpt>
<trkpt lon="-6.625316" lat="43.542787"><ele>105.75</ele></trkpt>
<trkpt lon="-6.625394" lat="43.542745"><ele>106.0</ele></trkpt>
<trkpt lon="-6.625536" lat="43.542708"><ele>106.5</ele></trkpt>
<trkpt lon="-6.625735" lat="43.542700"><ele>107.75</ele></trkpt>
<trkpt lon="-6.625845" lat="43.542685"><ele>108.75</ele></trkpt>
<trkpt lon="-6.625952" lat="43.542648"><ele>109.25</ele></trkpt>
<trkpt lon="-6.626035" lat="43.542531"><ele>111.0</ele></trkpt>
<trkpt lon="-6.626167" lat="43.542424"><ele>111.75</ele></trkpt>
<trkpt lon="-6.626263" lat="43.542372"><ele>111.75</ele></trkpt>
<trkpt lon="-6.626371" lat="43.542234"><ele>113.0</ele></trkpt>
<trkpt lon="-6.626513" lat="43.542107"><ele>113.5</ele></trkpt>
<trkpt lon="-6.626751" lat="43.541911"><ele>113.75</ele></trkpt>
<trkpt lon="-6.626971" lat="43.541697"><ele>114.5</ele></trkpt>
<trkpt lon="-6.627138" lat="43.541571"><ele>113.5</ele></trkpt>
<trkpt lon="-6.627454" lat="43.541374"><ele>111.5</ele></trkpt>
<trkpt lon="-6.627514" lat="43.541300"><ele>111.25</ele></trkpt>
<trkpt lon="-6.627615" lat="43.540945"><ele>113.5</ele></trkpt>
<trkpt lon="-6.627696" lat="43.540826"><ele>113.25</ele></trkpt>
<trkpt lon="-6.627797" lat="43.540648"><ele>113.0</ele></trkpt>
<trkpt lon="-6.627899" lat="43.540431"><ele>113.75</ele></trkpt>
<trkpt lon="-6.628145" lat="43.540057"><ele>113.75</ele></trkpt>
<trkpt lon="-6.628453" lat="43.539539"><ele>113.25</ele></trkpt>
<trkpt lon="-6.628581" lat="43.539305"><ele>113.5</ele></trkpt>
<trkpt lon="-6.628629" lat="43.539165"><ele>114.5</ele></trkpt>
<trkpt lon="-6.628621" lat="43.539004"><ele>114.75</ele></trkpt>
<trkpt lon="-6.628634" lat="43.538903"><ele>114.5</ele></trkpt>
<trkpt lon="-6.628905" lat="43.538658"><ele>115.5</ele></trkpt>
<trkpt lon="-6.629101" lat="43.538448"><ele>115.25</ele></trkpt>
<trkpt lon="-6.629238" lat="43.538275"><ele>115.25</ele></trkpt>
<trkpt lon="-6.629286" lat="43.538230"><ele>114.75</ele></trkpt>
<trkpt lon="-6.629348" lat="43.538187"><ele>114.0</ele></trkpt>
<trkpt lon="-6.629447" lat="43.538200"><ele>111.25</ele></trkpt>
<trkpt lon="-6.629551" lat="43.538175"><ele>108.75</ele></trkpt>
<trkpt lon="-6.629996" lat="43.537813"><ele>101.5</ele></trkpt>
<trkpt lon="-6.630193" lat="43.537763"><ele>101.75</ele></trkpt>
<trkpt lon="-6.630515" lat="43.537746"><ele>100.0</ele></trkpt>
<trkpt lon="-6.630991" lat="43.537544"><ele>96.25</ele></trkpt>
<trkpt lon="-6.631261" lat="43.537474"><ele>94.0</ele></trkpt>
<trkpt lon="-6.631533" lat="43.537451"><ele>91.75</ele></trkpt>
<trkpt lon="-6.631851" lat="43.537389"><ele>88.0</ele></trkpt>
<trkpt lon="-6.631792" lat="43.537558"><ele>85.25</ele></trkpt>
<trkpt lon="-6.631587" lat="43.537802"><ele>81.25</ele></trkpt>
<trkpt lon="-6.631360" lat="43.538160"><ele>77.5</ele></trkpt>
<trkpt lon="-6.631192" lat="43.538611"><ele>69.75</ele></trkpt>
<trkpt lon="-6.631124" lat="43.538719"><ele>68.5</ele></trkpt>
<trkpt lon="-6.630998" lat="43.538799"><ele>67.75</ele></trkpt>
<trkpt lon="-6.630787" lat="43.538877"><ele>68.0</ele></trkpt>
<trkpt lon="-6.630418" lat="43.538960"><ele>71.75</ele></trkpt>
<trkpt lon="-6.630279" lat="43.539011"><ele>72.0</ele></trkpt>
<trkpt lon="-6.630116" lat="43.539169"><ele>70.0</ele></trkpt>
<trkpt lon="-6.630006" lat="43.539499"><ele>65.5</ele></trkpt>
<trkpt lon="-6.629951" lat="43.539582"><ele>65.5</ele></trkpt>
<trkpt lon="-6.629871" lat="43.539802"><ele>63.75</ele></trkpt>
<trkpt lon="-6.629930" lat="43.539864"><ele>61.0</ele></trkpt>
<trkpt lon="-6.629993" lat="43.539836"><ele>59.75</ele></trkpt>
<trkpt lon="-6.630136" lat="43.539842"><ele>58.0</ele></trkpt>
<trkpt lon="-6.630317" lat="43.539905"><ele>57.0</ele></trkpt>
<trkpt lon="-6.630350" lat="43.539926"><ele>57.5</ele></trkpt>
<trkpt lon="-6.630745" lat="43.539589"><ele>57.5</ele></trkpt>
<trkpt lon="-6.630849" lat="43.539556"><ele>57.75</ele></trkpt>
<trkpt lon="-6.631239" lat="43.539582"><ele>61.5</ele></trkpt>
<trkpt lon="-6.631891" lat="43.539429"><ele>63.0</ele></trkpt>
<trkpt lon="-6.632243" lat="43.539265"><ele>64.5</ele></trkpt>
<trkpt lon="-6.631612" lat="43.539912"><ele>74.0</ele></trkpt>
<trkpt lon="-6.631563" lat="43.539994"><ele>76.25</ele></trkpt>
<trkpt lon="-6.631512" lat="43.540142"><ele>78.0</ele></trkpt>
<trkpt lon="-6.631523" lat="43.540264"><ele>80.0</ele></trkpt>
<trkpt lon="-6.631587" lat="43.540387"><ele>81.5</ele></trkpt>
<trkpt lon="-6.631713" lat="43.540498"><ele>83.75</ele></trkpt>
<trkpt lon="-6.631777" lat="43.540496"><ele>84.75</ele></trkpt>
<trkpt lon="-6.631915" lat="43.540609"><ele>87.0</ele></trkpt>
<trkpt lon="-6.632040" lat="43.540775"><ele>90.25</ele></trkpt>
<trkpt lon="-6.632113" lat="43.540923"><ele>93.0</ele></trkpt>
<trkpt lon="-6.632143" lat="43.541087"><ele>94.0</ele></trkpt>
<trkpt lon="-6.632193" lat="43.541323"><ele>95.75</ele></trkpt>
<trkpt lon="-6.632321" lat="43.541452"><ele>97.5</ele></trkpt>
<trkpt lon="-6.632867" lat="43.541950"><ele>98.5</ele></trkpt>
<trkpt lon="-6.633450" lat="43.542426"><ele>98.75</ele></trkpt>
<trkpt lon="-6.634221" lat="43.542910"><ele>96.75</ele></trkpt>
<trkpt lon="-6.634384" lat="43.542974"><ele>96.25</ele></trkpt>
<trkpt lon="-6.634828" lat="43.543030"><ele>96.0</ele></trkpt>
<trkpt lon="-6.635021" lat="43.543085"><ele>95.75</ele></trkpt>
<trkpt lon="-6.635643" lat="43.543356"><ele>94.75</ele></trkpt>
<trkpt lon="-6.636093" lat="43.543522"><ele>93.0</ele></trkpt>
<trkpt lon="-6.636529" lat="43.543629"><ele>87.75</ele></trkpt>
<trkpt lon="-6.636713" lat="43.543695"><ele>86.25</ele></trkpt>
<trkpt lon="-6.637437" lat="43.544071"><ele>80.75</ele></trkpt>
<trkpt lon="-6.637611" lat="43.544090"><ele>79.0</ele></trkpt>
<trkpt lon="-6.637976" lat="43.543983"><ele>78.0</ele></trkpt>
<trkpt lon="-6.638173" lat="43.543992"><ele>77.5</ele></trkpt>
<trkpt lon="-6.638327" lat="43.544059"><ele>77.25</ele></trkpt>
<trkpt lon="-6.638790" lat="43.544486"><ele>78.5</ele></trkpt>
<trkpt lon="-6.638916" lat="43.544570"><ele>78.75</ele></trkpt>
<trkpt lon="-6.639051" lat="43.544571"><ele>78.5</ele></trkpt>
<trkpt lon="-6.639264" lat="43.544452"><ele>78.75</ele></trkpt>
<trkpt lon="-6.639984" lat="43.543792"><ele>82.5</ele></trkpt>
<trkpt lon="-6.640269" lat="43.543577"><ele>83.75</ele></trkpt>
<trkpt lon="-6.640504" lat="43.543528"><ele>84.0</ele></trkpt>
<trkpt lon="-6.641024" lat="43.543623"><ele>86.5</ele></trkpt>
<trkpt lon="-6.641444" lat="43.543816"><ele>86.75</ele></trkpt>
<trkpt lon="-6.641649" lat="43.543831"><ele>86.75</ele></trkpt>
<trkpt lon="-6.641776" lat="43.543805"><ele>87.25</ele></trkpt>
<trkpt lon="-6.642491" lat="43.543945"><ele>85.25</ele></trkpt>
<trkpt lon="-6.643079" lat="43.543892"><ele>83.75</ele></trkpt>
<trkpt lon="-6.643366" lat="43.543868"><ele>84.25</ele></trkpt>
<trkpt lon="-6.644403" lat="43.543897"><ele>83.75</ele></trkpt>
<trkpt lon="-6.644777" lat="43.543863"><ele>84.0</ele></trkpt>
<trkpt lon="-6.645221" lat="43.543967"><ele>85.5</ele></trkpt>
<trkpt lon="-6.645576" lat="43.544147"><ele>88.25</ele></trkpt>
<trkpt lon="-6.646378" lat="43.544630"><ele>87.5</ele></trkpt>
<trkpt lon="-6.647160" lat="43.544996"><ele>84.0</ele></trkpt>
<trkpt lon="-6.647537" lat="43.545096"><ele>83.5</ele></trkpt>
<trkpt lon="-6.647657" lat="43.545127"><ele>82.75</ele></trkpt>
<trkpt lon="-6.648409" lat="43.545008"><ele>77.5</ele></trkpt>
<trkpt lon="-6.649218" lat="43.545148"><ele>74.25</ele></trkpt>
<trkpt lon="-6.649884" lat="43.545264"><ele>72.0</ele></trkpt>
<trkpt lon="-6.649923" lat="43.545320"><ele>71.5</ele></trkpt>
<trkpt lon="-6.650292" lat="43.545267"><ele>71.0</ele></trkpt>
<trkpt lon="-6.650297" lat="43.545342"><ele>70.5</ele></trkpt>
<trkpt lon="-6.650224" lat="43.545430"><ele>69.75</ele></trkpt>
<trkpt lon="-6.649711" lat="43.545791"><ele>67.5</ele></trkpt>
<trkpt lon="-6.649541" lat="43.546045"><ele>67.25</ele></trkpt>
<trkpt lon="-6.649506" lat="43.546282"><ele>67.0</ele></trkpt>
<trkpt lon="-6.649576" lat="43.546506"><ele>66.0</ele></trkpt>
<trkpt lon="-6.649862" lat="43.546967"><ele>64.0</ele></trkpt>
<trkpt lon="-6.651444" lat="43.546486"><ele>67.25</ele></trkpt>
<trkpt lon="-6.651525" lat="43.546501"><ele>67.25</ele></trkpt>
<trkpt lon="-6.651668" lat="43.546626"><ele>67.0</ele></trkpt>
<trkpt lon="-6.651631" lat="43.546685"><ele>67.0</ele></trkpt>
<trkpt lon="-6.651723" lat="43.546928"><ele>66.0</ele></trkpt>
<trkpt lon="-6.651956" lat="43.547145"><ele>65.5</ele></trkpt>
<trkpt lon="-6.651986" lat="43.547336"><ele>65.25</ele></trkpt>
<trkpt lon="-6.652038" lat="43.547441"><ele>65.75</ele></trkpt>
<trkpt lon="-6.652118" lat="43.547521"><ele>66.0</ele></trkpt>
<trkpt lon="-6.652369" lat="43.547722"><ele>66.75</ele></trkpt>
<trkpt lon="-6.652721" lat="43.547978"><ele>67.75</ele></trkpt>
<trkpt lon="-6.652976" lat="43.548089"><ele>68.0</ele></trkpt>
<trkpt lon="-6.653247" lat="43.548127"><ele>69.0</ele></trkpt>
<trkpt lon="-6.653594" lat="43.548164"><ele>70.5</ele></trkpt>
<trkpt lon="-6.654308" lat="43.548174"><ele>73.0</ele></trkpt>
<trkpt lon="-6.654760" lat="43.548224"><ele>71.25</ele></trkpt>
<trkpt lon="-6.655260" lat="43.548352"><ele>71.0</ele></trkpt>
<trkpt lon="-6.655691" lat="43.548488"><ele>71.25</ele></trkpt>
<trkpt lon="-6.655727" lat="43.548516"><ele>71.5</ele></trkpt>
<trkpt lon="-6.656136" lat="43.548537"><ele>73.0</ele></trkpt>
<trkpt lon="-6.656465" lat="43.548489"><ele>73.0</ele></trkpt>
<trkpt lon="-6.656650" lat="43.548396"><ele>73.5</ele></trkpt>
<trkpt lon="-6.656856" lat="43.548279"><ele>74.0</ele></trkpt>
<trkpt lon="-6.657104" lat="43.548150"><ele>74.25</ele></trkpt>
<trkpt lon="-6.657898" lat="43.547808"><ele>72.0</ele></trkpt>
<trkpt lon="-6.658888" lat="43.547391"><ele>70.25</ele></trkpt>
<trkpt lon="-6.660054" lat="43.546865"><ele>67.0</ele></trkpt>
<trkpt lon="-6.661856" lat="43.546076"><ele>58.5</ele></trkpt>
<trkpt lon="-6.662263" lat="43.545832"><ele>52.5</ele></trkpt>
<trkpt lon="-6.662405" lat="43.545645"><ele>50.0</ele></trkpt>
<trkpt lon="-6.662528" lat="43.545347"><ele>48.25</ele></trkpt>
<trkpt lon="-6.662753" lat="43.545055"><ele>46.75</ele></trkpt>
<trkpt lon="-6.662857" lat="43.544984"><ele>46.75</ele></trkpt>
<trkpt lon="-6.663094" lat="43.544963"><ele>46.0</ele></trkpt>
<trkpt lon="-6.663266" lat="43.545007"><ele>45.75</ele></trkpt>
<trkpt lon="-6.663912" lat="43.545320"><ele>42.25</ele></trkpt>
<trkpt lon="-6.664144" lat="43.545271"><ele>42.0</ele></trkpt>
<trkpt lon="-6.664341" lat="43.545263"><ele>40.25</ele></trkpt>
<trkpt lon="-6.664531" lat="43.545345"><ele>38.5</ele></trkpt>
<trkpt lon="-6.664683" lat="43.545464"><ele>39.25</ele></trkpt>
<trkpt lon="-6.664734" lat="43.545524"><ele>40.0</ele></trkpt>
<trkpt lon="-6.664734" lat="43.545640"><ele>41.25</ele></trkpt>
<trkpt lon="-6.664811" lat="43.545709"><ele>44.25</ele></trkpt>
<trkpt lon="-6.664974" lat="43.545684"><ele>49.0</ele></trkpt>
<trkpt lon="-6.665041" lat="43.545587"><ele>49.75</ele></trkpt>
<trkpt lon="-6.665181" lat="43.545559"><ele>52.25</ele></trkpt>
<trkpt lon="-6.665456" lat="43.545651"><ele>56.5</ele></trkpt>
<trkpt lon="-6.666012" lat="43.545672"><ele>60.5</ele></trkpt>
<trkpt lon="-6.666184" lat="43.545543"><ele>61.5</ele></trkpt>
<trkpt lon="-6.666958" lat="43.545050"><ele>70.0</ele></trkpt>
<trkpt lon="-6.667470" lat="43.544909"><ele>73.25</ele></trkpt>
<trkpt lon="-6.667963" lat="43.545088"><ele>74.25</ele></trkpt>
<trkpt lon="-6.668133" lat="43.545095"><ele>74.5</ele></trkpt>
<trkpt lon="-6.668657" lat="43.544767"><ele>76.0</ele></trkpt>
<trkpt lon="-6.668731" lat="43.544689"><ele>75.5</ele></trkpt>
<trkpt lon="-6.668792" lat="43.544605"><ele>75.75</ele></trkpt>
<trkpt lon="-6.668816" lat="43.544576"><ele>76.0</ele></trkpt>
<trkpt lon="-6.670696" lat="43.543671"><ele>81.75</ele></trkpt>
<trkpt lon="-6.671566" lat="43.543279"><ele>82.5</ele></trkpt>
<trkpt lon="-6.671846" lat="43.543446"><ele>80.5</ele></trkpt>
<trkpt lon="-6.672042" lat="43.544244"><ele>74.75</ele></trkpt>
<trkpt lon="-6.672199" lat="43.544474"><ele>75.25</ele></trkpt>
<trkpt lon="-6.672255" lat="43.544531"><ele>74.25</ele></trkpt>
<trkpt lon="-6.672305" lat="43.544612"><ele>72.75</ele></trkpt>
<trkpt lon="-6.672341" lat="43.544722"><ele>71.0</ele></trkpt>
<trkpt lon="-6.672299" lat="43.544840"><ele>70.25</ele></trkpt>
<trkpt lon="-6.672171" lat="43.544940"><ele>69.5</ele></trkpt>
<trkpt lon="-6.671948" lat="43.545070"><ele>68.25</ele></trkpt>
<trkpt lon="-6.672001" lat="43.545114"><ele>68.0</ele></trkpt>
<trkpt lon="-6.672384" lat="43.545380"><ele>65.0</ele></trkpt>
<trkpt lon="-6.672714" lat="43.545561"><ele>62.0</ele></trkpt>
<trkpt lon="-6.672966" lat="43.545709"><ele>59.5</ele></trkpt>
<trkpt lon="-6.673147" lat="43.545776"><ele>58.25</ele></trkpt>
<trkpt lon="-6.673288" lat="43.545798"><ele>57.5</ele></trkpt>
<trkpt lon="-6.673711" lat="43.545769"><ele>54.75</ele></trkpt>
<trkpt lon="-6.674448" lat="43.545708"><ele>47.75</ele></trkpt>
<trkpt lon="-6.674652" lat="43.545634"><ele>45.0</ele></trkpt>
<trkpt lon="-6.674784" lat="43.545621"><ele>43.25</ele></trkpt>
<trkpt lon="-6.674903" lat="43.545650"><ele>42.25</ele></trkpt>
<trkpt lon="-6.675132" lat="43.545756"><ele>41.25</ele></trkpt>
<trkpt lon="-6.675485" lat="43.545868"><ele>39.25</ele></trkpt>
<trkpt lon="-6.675722" lat="43.545895"><ele>37.75</ele></trkpt>
<trkpt lon="-6.675981" lat="43.545863"><ele>36.5</ele></trkpt>
<trkpt lon="-6.676259" lat="43.545847"><ele>37.25</ele></trkpt>
<trkpt lon="-6.676498" lat="43.545868"><ele>39.5</ele></trkpt>
<trkpt lon="-6.676749" lat="43.545953"><ele>44.25</ele></trkpt>
<trkpt lon="-6.677006" lat="43.546013"><ele>47.5</ele></trkpt>
<trkpt lon="-6.677307" lat="43.546132"><ele>49.25</ele></trkpt>
<trkpt lon="-6.677983" lat="43.546328"><ele>55.0</ele></trkpt>
<trkpt lon="-6.678240" lat="43.546390"><ele>56.5</ele></trkpt>
<trkpt lon="-6.678508" lat="43.546402"><ele>58.25</ele></trkpt>
<trkpt lon="-6.679327" lat="43.546377"><ele>64.5</ele></trkpt>
<trkpt lon="-6.679506" lat="43.546341"><ele>67.0</ele></trkpt>
<trkpt lon="-6.679616" lat="43.546207"><ele>68.25</ele></trkpt>
<trkpt lon="-6.679733" lat="43.546132"><ele>69.25</ele></trkpt>
<trkpt lon="-6.680034" lat="43.546025"><ele>72.25</ele></trkpt>
<trkpt lon="-6.680229" lat="43.545874"><ele>74.0</ele></trkpt>
<trkpt lon="-6.680463" lat="43.545758"><ele>76.25</ele></trkpt>
<trkpt lon="-6.680657" lat="43.545720"><ele>78.25</ele></trkpt>
<trkpt lon="-6.680956" lat="43.545751"><ele>81.25</ele></trkpt>
<trkpt lon="-6.681180" lat="43.545738"><ele>83.0</ele></trkpt>
<trkpt lon="-6.681464" lat="43.545758"><ele>85.0</ele></trkpt>
<trkpt lon="-6.681741" lat="43.545687"><ele>85.5</ele></trkpt>
<trkpt lon="-6.681987" lat="43.545664"><ele>86.25</ele></trkpt>
<trkpt lon="-6.682221" lat="43.545684"><ele>87.75</ele></trkpt>
<trkpt lon="-6.682458" lat="43.545749"><ele>89.25</ele></trkpt>
<trkpt lon="-6.682665" lat="43.545772"><ele>89.75</ele></trkpt>
<trkpt lon="-6.683490" lat="43.545702"><ele>89.5</ele></trkpt>
<trkpt lon="-6.684247" lat="43.545602"><ele>88.5</ele></trkpt>
<trkpt lon="-6.684771" lat="43.545450"><ele>86.75</ele></trkpt>
<trkpt lon="-6.685504" lat="43.545374"><ele>85.0</ele></trkpt>
<trkpt lon="-6.686070" lat="43.545363"><ele>84.5</ele></trkpt>
<trkpt lon="-6.686372" lat="43.545428"><ele>83.5</ele></trkpt>
<trkpt lon="-6.686689" lat="43.545542"><ele>84.0</ele></trkpt>
<trkpt lon="-6.686954" lat="43.545740"><ele>83.25</ele></trkpt>
<trkpt lon="-6.687157" lat="43.545838"><ele>83.5</ele></trkpt>
<trkpt lon="-6.687399" lat="43.545842"><ele>83.25</ele></trkpt>
<trkpt lon="-6.687724" lat="43.545793"><ele>83.0</ele></trkpt>
<trkpt lon="-6.688165" lat="43.545668"><ele>84.0</ele></trkpt>
<trkpt lon="-6.689251" lat="43.545456"><ele>84.0</ele></trkpt>
<trkpt lon="-6.689647" lat="43.545405"><ele>84.25</ele></trkpt>
<trkpt lon="-6.690670" lat="43.545380"><ele>83.5</ele></trkpt>
<trkpt lon="-6.690963" lat="43.544927"><ele>84.75</ele></trkpt>
<trkpt lon="-6.691105" lat="43.544577"><ele>85.25</ele></trkpt>
<trkpt lon="-6.691290" lat="43.543745"><ele>80.5</ele></trkpt>
<trkpt lon="-6.691869" lat="43.543841"><ele>81.5</ele></trkpt>
<trkpt lon="-6.692559" lat="43.544048"><ele>82.5</ele></trkpt>
<trkpt lon="-6.693738" lat="43.544480"><ele>85.75</ele></trkpt>
<trkpt lon="-6.694129" lat="43.544652"><ele>87.0</ele></trkpt>
<trkpt lon="-6.694595" lat="43.544786"><ele>88.75</ele></trkpt>
<trkpt lon="-6.694966" lat="43.544959"><ele>88.25</ele></trkpt>
<trkpt lon="-6.695879" lat="43.544972"><ele>87.0</ele></trkpt>
<trkpt lon="-6.696735" lat="43.544854"><ele>85.75</ele></trkpt>
<trkpt lon="-6.697021" lat="43.544755"><ele>85.75</ele></trkpt>
<trkpt lon="-6.697680" lat="43.544638"><ele>84.5</ele></trkpt>
<trkpt lon="-6.697847" lat="43.544886"><ele>83.75</ele></trkpt>
<trkpt lon="-6.698323" lat="43.544807"><ele>82.5</ele></trkpt>
<trkpt lon="-6.698424" lat="43.544841"><ele>82.5</ele></trkpt>
<trkpt lon="-6.698623" lat="43.544874"><ele>82.25</ele></trkpt>
<trkpt lon="-6.699426" lat="43.545040"><ele>82.75</ele></trkpt>
<trkpt lon="-6.699769" lat="43.545099"><ele>83.0</ele></trkpt>
<trkpt lon="-6.699970" lat="43.545112"><ele>83.0</ele></trkpt>
<trkpt lon="-6.700020" lat="43.545116"><ele>83.0</ele></trkpt>
<trkpt lon="-6.700186" lat="43.545079"><ele>83.25</ele></trkpt>
<trkpt lon="-6.700664" lat="43.545005"><ele>83.5</ele></trkpt>
<trkpt lon="-6.701029" lat="43.544914"><ele>83.75</ele></trkpt>
<trkpt lon="-6.701391" lat="43.544738"><ele>84.0</ele></trkpt>
<trkpt lon="-6.701723" lat="43.544547"><ele>84.0</ele></trkpt>
<trkpt lon="-6.702051" lat="43.545012"><ele>83.75</ele></trkpt>
<trkpt lon="-6.702542" lat="43.545421"><ele>83.5</ele></trkpt>
<trkpt lon="-6.703090" lat="43.546017"><ele>80.75</ele></trkpt>
<trkpt lon="-6.703167" lat="43.546106"><ele>80.5</ele></trkpt>
<trkpt lon="-6.703588" lat="43.546417"><ele>80.0</ele></trkpt>
<trkpt lon="-6.703956" lat="43.546573"><ele>79.75</ele></trkpt>
<trkpt lon="-6.704272" lat="43.546677"><ele>79.75</ele></trkpt>
<trkpt lon="-6.705000" lat="43.547106"><ele>77.5</ele></trkpt>
<trkpt lon="-6.705338" lat="43.547321"><ele>77.0</ele></trkpt>
<trkpt lon="-6.705413" lat="43.547363"><ele>77.0</ele></trkpt>
<trkpt lon="-6.705513" lat="43.547414"><ele>77.5</ele></trkpt>
<trkpt lon="-6.705572" lat="43.547447"><ele>77.75</ele></trkpt>
<trkpt lon="-6.706176" lat="43.547794"><ele>78.0</ele></trkpt>
<trkpt lon="-6.706299" lat="43.547939"><ele>78.0</ele></trkpt>
<trkpt lon="-6.706796" lat="43.548699"><ele>78.5</ele></trkpt>
<trkpt lon="-6.706966" lat="43.548867"><ele>78.75</ele></trkpt>
<trkpt lon="-6.707124" lat="43.548881"><ele>78.75</ele></trkpt>
<trkpt lon="-6.707302" lat="43.548866"><ele>79.25</ele></trkpt>
<trkpt lon="-6.707583" lat="43.548775"><ele>79.75</ele></trkpt>
<trkpt lon="-6.707763" lat="43.548646"><ele>80.0</ele></trkpt>
<trkpt lon="-6.707891" lat="43.548599"><ele>80.25</ele></trkpt>
<trkpt lon="-6.707896" lat="43.548516"><ele>80.25</ele></trkpt>
<trkpt lon="-6.708171" lat="43.548085"><ele>80.0</ele></trkpt>
<trkpt lon="-6.708331" lat="43.547758"><ele>79.75</ele></trkpt>
<trkpt lon="-6.708501" lat="43.547569"><ele>80.0</ele></trkpt>
<trkpt lon="-6.708780" lat="43.547357"><ele>80.0</ele></trkpt>
<trkpt lon="-6.708969" lat="43.547230"><ele>80.0</ele></trkpt>
<trkpt lon="-6.710201" lat="43.547128"><ele>80.0</ele></trkpt>
<trkpt lon="-6.711614" lat="43.546758"><ele>78.0</ele></trkpt>
<trkpt lon="-6.711809" lat="43.546684"><ele>78.0</ele></trkpt>
<trkpt lon="-6.712028" lat="43.546625"><ele>77.75</ele></trkpt>
<trkpt lon="-6.712193" lat="43.546614"><ele>77.25</ele></trkpt>
<trkpt lon="-6.712273" lat="43.546623"><ele>77.0</ele></trkpt>
<trkpt lon="-6.712562" lat="43.546658"><ele>77.0</ele></trkpt>
<trkpt lon="-6.712707" lat="43.546720"><ele>76.75</ele></trkpt>
<trkpt lon="-6.712965" lat="43.546945"><ele>75.25</ele></trkpt>
<trkpt lon="-6.713126" lat="43.547069"><ele>75.0</ele></trkpt>
<trkpt lon="-6.713221" lat="43.547108"><ele>74.75</ele></trkpt>
<trkpt lon="-6.713348" lat="43.547113"><ele>74.25</ele></trkpt>
<trkpt lon="-6.713536" lat="43.546932"><ele>71.75</ele></trkpt>
<trkpt lon="-6.713861" lat="43.546721"><ele>71.25</ele></trkpt>
<trkpt lon="-6.714096" lat="43.546646"><ele>70.5</ele></trkpt>
<trkpt lon="-6.714425" lat="43.546444"><ele>68.0</ele></trkpt>
<trkpt lon="-6.714716" lat="43.546136"><ele>65.0</ele></trkpt>
<trkpt lon="-6.714982" lat="43.545619"><ele>61.5</ele></trkpt>
<trkpt lon="-6.715166" lat="43.545145"><ele>56.25</ele></trkpt>
<trkpt lon="-6.716108" lat="43.545026"><ele>45.25</ele></trkpt>
<trkpt lon="-6.716344" lat="43.544919"><ele>43.25</ele></trkpt>
<trkpt lon="-6.716565" lat="43.544778"><ele>40.75</ele></trkpt>
<trkpt lon="-6.717001" lat="43.544253"><ele>34.0</ele></trkpt>
<trkpt lon="-6.717394" lat="43.543870"><ele>26.0</ele></trkpt>
<trkpt lon="-6.717750" lat="43.543551"><ele>19.5</ele></trkpt>
<trkpt lon="-6.717986" lat="43.543399"><ele>15.25</ele></trkpt>
<trkpt lon="-6.718103" lat="43.543374"><ele>13.75</ele></trkpt>
<trkpt lon="-6.718303" lat="43.543422"><ele>10.75</ele></trkpt>
<trkpt lon="-6.718732" lat="43.543661"><ele>5.0</ele></trkpt>
<trkpt lon="-6.718850" lat="43.543745"><ele>4.0</ele></trkpt>
<trkpt lon="-6.718876" lat="43.543639"><ele>4.0</ele></trkpt>
<trkpt lon="-6.718950" lat="43.543351"><ele>3.75</ele></trkpt>
<trkpt lon="-6.718960" lat="43.543290"><ele>3.75</ele></trkpt>
<trkpt lon="-6.718958" lat="43.543217"><ele>4.0</ele></trkpt>
<trkpt lon="-6.718928" lat="43.543153"><ele>4.25</ele></trkpt>
<trkpt lon="-6.719103" lat="43.543033"><ele>3.5</ele></trkpt>
<trkpt lon="-6.719183" lat="43.542975"><ele>3.0</ele></trkpt>
<trkpt lon="-6.719307" lat="43.542884"><ele>3.0</ele></trkpt>
<trkpt lon="-6.719262" lat="43.542852"><ele>3.25</ele></trkpt>
<trkpt lon="-6.719327" lat="43.542808"><ele>3.25</ele></trkpt>
<trkpt lon="-6.719360" lat="43.542787"><ele>3.25</ele></trkpt>
<trkpt lon="-6.719434" lat="43.542735"><ele>3.0</ele></trkpt>
<trkpt lon="-6.719528" lat="43.542664"><ele>2.5</ele></trkpt>
<trkpt lon="-6.720079" lat="43.542264"><ele>3.5</ele></trkpt>
<trkpt lon="-6.720160" lat="43.542179"><ele>3.5</ele></trkpt>
<trkpt lon="-6.720207" lat="43.542143"><ele>3.25</ele></trkpt>
<trkpt lon="-6.720266" lat="43.542099"><ele>3.25</ele></trkpt>
<trkpt lon="-6.720319" lat="43.542058"><ele>3.25</ele></trkpt>
<trkpt lon="-6.720367" lat="43.542021"><ele>3.25</ele></trkpt>
<trkpt lon="-6.720411" lat="43.542005"><ele>3.25</ele></trkpt>
<trkpt lon="-6.720653" lat="43.541825"><ele>3.25</ele></trkpt>
<trkpt lon="-6.720964" lat="43.541594"><ele>3.0</ele></trkpt>
<trkpt lon="-6.721132" lat="43.541464"><ele>3.0</ele></trkpt>
<trkpt lon="-6.721233" lat="43.541386"><ele>3.0</ele></trkpt>
<trkpt lon="-6.721244" lat="43.541362"><ele>3.0</ele></trkpt>
<trkpt lon="-6.721290" lat="43.541328"><ele>3.0</ele></trkpt>
<trkpt lon="-6.721353" lat="43.541281"><ele>3.25</ele></trkpt>
<trkpt lon="-6.721418" lat="43.541236"><ele>3.5</ele></trkpt>
<trkpt lon="-6.721454" lat="43.541207"><ele>3.5</ele></trkpt>
<trkpt lon="-6.721768" lat="43.540981"><ele>3.0</ele></trkpt>
<trkpt lon="-6.722087" lat="43.540739"><ele>3.75</ele></trkpt>
<trkpt lon="-6.722120" lat="43.540705"><ele>3.75</ele></trkpt>
<trkpt lon="-6.722140" lat="43.540660"><ele>4.0</ele></trkpt>
<trkpt lon="-6.722149" lat="43.540598"><ele>4.0</ele></trkpt>
<trkpt lon="-6.722134" lat="43.540505"><ele>4.25</ele></trkpt>
<trkpt lon="-6.722177" lat="43.540484"><ele>4.0</ele></trkpt>
<trkpt lon="-6.722249" lat="43.540452"><ele>4.0</ele></trkpt>
<trkpt lon="-6.722305" lat="43.540426"><ele>4.0</ele></trkpt>
<trkpt lon="-6.722160" lat="43.540348"><ele>4.5</ele></trkpt>
<trkpt lon="-6.722031" lat="43.540255"><ele>5.75</ele></trkpt>
<trkpt lon="-6.721919" lat="43.540185"><ele>6.5</ele></trkpt>
<trkpt lon="-6.721862" lat="43.540158"><ele>7.75</ele></trkpt>
  </trkseg></trk></gpx>
