<?xml version="1.0" encoding="UTF-8"?>
<gpx version="1.1" creator="compostel-brouter" xmlns="http://www.topografix.com/GPX/1/1">
  <metadata><name>ES-37-Arzua</name></metadata>
  <trk><name>ES-37-Arzua</name><trkseg>
<trkpt lon="-8.023115" lat="43.038109"><ele>504.25</ele></trkpt>
<trkpt lon="-8.023196" lat="43.038064"><ele>504.25</ele></trkpt>
<trkpt lon="-8.023551" lat="43.037809"><ele>504.25</ele></trkpt>
<trkpt lon="-8.023763" lat="43.037521"><ele>502.75</ele></trkpt>
<trkpt lon="-8.023830" lat="43.037339"><ele>503.0</ele></trkpt>
<trkpt lon="-8.023841" lat="43.037186"><ele>503.25</ele></trkpt>
<trkpt lon="-8.023747" lat="43.036977"><ele>504.0</ele></trkpt>
<trkpt lon="-8.023844" lat="43.036738"><ele>502.5</ele></trkpt>
<trkpt lon="-8.024309" lat="43.035755"><ele>492.5</ele></trkpt>
<trkpt lon="-8.024616" lat="43.035405"><ele>489.75</ele></trkpt>
<trkpt lon="-8.025298" lat="43.034860"><ele>486.25</ele></trkpt>
<trkpt lon="-8.026391" lat="43.034198"><ele>482.0</ele></trkpt>
<trkpt lon="-8.026583" lat="43.034167"><ele>482.0</ele></trkpt>
<trkpt lon="-8.026808" lat="43.034163"><ele>481.75</ele></trkpt>
<trkpt lon="-8.027794" lat="43.034326"><ele>483.5</ele></trkpt>
<trkpt lon="-8.028447" lat="43.034347"><ele>487.0</ele></trkpt>
<trkpt lon="-8.030270" lat="43.034335"><ele>490.75</ele></trkpt>
<trkpt lon="-8.030987" lat="43.034231"><ele>484.5</ele></trkpt>
<trkpt lon="-8.031115" lat="43.034212"><ele>482.25</ele></trkpt>
<trkpt lon="-8.031359" lat="43.033988"><ele>480.5</ele></trkpt>
<trkpt lon="-8.031483" lat="43.033838"><ele>479.5</ele></trkpt>
<trkpt lon="-8.031606" lat="43.033710"><ele>479.5</ele></trkpt>
<trkpt lon="-8.031772" lat="43.033573"><ele>480.5</ele></trkpt>
<trkpt lon="-8.032408" lat="43.033106"><ele>482.5</ele></trkpt>
<trkpt lon="-8.032960" lat="43.032677"><ele>483.0</ele></trkpt>
<trkpt lon="-8.033099" lat="43.032594"><ele>483.5</ele></trkpt>
<trkpt lon="-8.034598" lat="43.031808"><ele>488.5</ele></trkpt>
<trkpt lon="-8.035943" lat="43.031094"><ele>492.0</ele></trkpt>
<trkpt lon="-8.036592" lat="43.030755"><ele>491.25</ele></trkpt>
<trkpt lon="-8.037742" lat="43.030178"><ele>495.25</ele></trkpt>
<trkpt lon="-8.037989" lat="43.030041"><ele>496.0</ele></trkpt>
<trkpt lon="-8.038667" lat="43.029491"><ele>496.0</ele></trkpt>
<trkpt lon="-8.039646" lat="43.028723"><ele>487.5</ele></trkpt>
<trkpt lon="-8.040020" lat="43.028450"><ele>486.25</ele></trkpt>
<trkpt lon="-8.040210" lat="43.028335"><ele>486.0</ele></trkpt>
<trkpt lon="-8.040852" lat="43.028015"><ele>487.25</ele></trkpt>
<trkpt lon="-8.041075" lat="43.027884"><ele>487.75</ele></trkpt>
<trkpt lon="-8.041807" lat="43.027278"><ele>484.75</ele></trkpt>
<trkpt lon="-8.042064" lat="43.027077"><ele>485.0</ele></trkpt>
<trkpt lon="-8.042695" lat="43.026583"><ele>485.0</ele></trkpt>
<trkpt lon="-8.043167" lat="43.026172"><ele>492.5</ele></trkpt>
<trkpt lon="-8.043587" lat="43.025915"><ele>495.25</ele></trkpt>
<trkpt lon="-8.044302" lat="43.025478"><ele>501.0</ele></trkpt>
<trkpt lon="-8.044806" lat="43.025197"><ele>504.5</ele></trkpt>
<trkpt lon="-8.045369" lat="43.024928"><ele>509.0</ele></trkpt>
<trkpt lon="-8.046459" lat="43.024496"><ele>521.0</ele></trkpt>
<trkpt lon="-8.046619" lat="43.024445"><ele>522.25</ele></trkpt>
<trkpt lon="-8.046793" lat="43.024403"><ele>524.75</ele></trkpt>
<trkpt lon="-8.047004" lat="43.024377"><ele>527.5</ele></trkpt>
<trkpt lon="-8.048120" lat="43.024322"><ele>537.75</ele></trkpt>
<trkpt lon="-8.048368" lat="43.024271"><ele>539.0</ele></trkpt>
<trkpt lon="-8.048603" lat="43.024186"><ele>539.0</ele></trkpt>
<trkpt lon="-8.049000" lat="43.023999"><ele>539.75</ele></trkpt>
<trkpt lon="-8.049252" lat="43.023823"><ele>540.0</ele></trkpt>
<trkpt lon="-8.049527" lat="43.023586"><ele>540.0</ele></trkpt>
<trkpt lon="-8.049642" lat="43.023495"><ele>540.0</ele></trkpt>
<trkpt lon="-8.049781" lat="43.023386"><ele>539.75</ele></trkpt>
<trkpt lon="-8.050261" lat="43.023058"><ele>540.75</ele></trkpt>
<trkpt lon="-8.050489" lat="43.022862"><ele>542.5</ele></trkpt>
<trkpt lon="-8.050764" lat="43.022598"><ele>545.75</ele></trkpt>
<trkpt lon="-8.050969" lat="43.022440"><ele>549.25</ele></trkpt>
<trkpt lon="-8.051193" lat="43.022301"><ele>552.25</ele></trkpt>
<trkpt lon="-8.051593" lat="43.022104"><ele>556.0</ele></trkpt>
<trkpt lon="-8.052339" lat="43.021663"><ele>559.25</ele></trkpt>
<trkpt lon="-8.052625" lat="43.021508"><ele>560.25</ele></trkpt>
<trkpt lon="-8.053040" lat="43.021336"><ele>559.75</ele></trkpt>
<trkpt lon="-8.053279" lat="43.021204"><ele>558.75</ele></trkpt>
<trkpt lon="-8.053632" lat="43.020975"><ele>555.75</ele></trkpt>
<trkpt lon="-8.054067" lat="43.020706"><ele>551.5</ele></trkpt>
<trkpt lon="-8.054139" lat="43.020643"><ele>550.75</ele></trkpt>
<trkpt lon="-8.054204" lat="43.020538"><ele>549.5</ele></trkpt>
<trkpt lon="-8.054242" lat="43.020509"><ele>549.0</ele></trkpt>
<trkpt lon="-8.054518" lat="43.020394"><ele>547.25</ele></trkpt>
<trkpt lon="-8.054848" lat="43.020325"><ele>545.5</ele></trkpt>
<trkpt lon="-8.055189" lat="43.020287"><ele>543.25</ele></trkpt>
<trkpt lon="-8.055563" lat="43.020237"><ele>542.5</ele></trkpt>
<trkpt lon="-8.055722" lat="43.020242"><ele>542.0</ele></trkpt>
<trkpt lon="-8.055823" lat="43.020260"><ele>541.75</ele></trkpt>
<trkpt lon="-8.056023" lat="43.020329"><ele>541.75</ele></trkpt>
<trkpt lon="-8.056150" lat="43.020351"><ele>541.5</ele></trkpt>
<trkpt lon="-8.056270" lat="43.020334"><ele>541.25</ele></trkpt>
<trkpt lon="-8.056769" lat="43.020146"><ele>540.5</ele></trkpt>
<trkpt lon="-8.056993" lat="43.020082"><ele>541.0</ele></trkpt>
<trkpt lon="-8.057520" lat="43.020021"><ele>541.0</ele></trkpt>
<trkpt lon="-8.057757" lat="43.019955"><ele>541.75</ele></trkpt>
<trkpt lon="-8.058477" lat="43.019571"><ele>542.5</ele></trkpt>
<trkpt lon="-8.058642" lat="43.019550"><ele>543.75</ele></trkpt>
<trkpt lon="-8.058832" lat="43.019611"><ele>546.5</ele></trkpt>
<trkpt lon="-8.060061" lat="43.020214"><ele>554.5</ele></trkpt>
<trkpt lon="-8.060571" lat="43.020179"><ele>557.25</ele></trkpt>
<trkpt lon="-8.061357" lat="43.020136"><ele>560.25</ele></trkpt>
<trkpt lon="-8.062301" lat="43.020039"><ele>559.75</ele></trkpt>
<trkpt lon="-8.063978" lat="43.019773"><ele>555.25</ele></trkpt>
<trkpt lon="-8.064008" lat="43.019507"><ele>555.25</ele></trkpt>
<trkpt lon="-8.063998" lat="43.018943"><ele>556.0</ele></trkpt>
<trkpt lon="-8.064040" lat="43.018427"><ele>552.25</ele></trkpt>
<trkpt lon="-8.064254" lat="43.018487"><ele>551.25</ele></trkpt>
<trkpt lon="-8.064639" lat="43.018129"><ele>546.5</ele></trkpt>
<trkpt lon="-8.064692" lat="43.018087"><ele>546.0</ele></trkpt>
<trkpt lon="-8.064774" lat="43.018059"><ele>545.5</ele></trkpt>
<trkpt lon="-8.065224" lat="43.018043"><ele>542.0</ele></trkpt>
<trkpt lon="-8.065324" lat="43.018011"><ele>541.0</ele></trkpt>
<trkpt lon="-8.065411" lat="43.018075"><ele>541.5</ele></trkpt>
<trkpt lon="-8.065479" lat="43.018110"><ele>541.5</ele></trkpt>
<trkpt lon="-8.065505" lat="43.018135"><ele>541.75</ele></trkpt>
<trkpt lon="-8.065600" lat="43.018152"><ele>541.25</ele></trkpt>
<trkpt lon="-8.066397" lat="43.018337"><ele>542.0</ele></trkpt>
<trkpt lon="-8.066739" lat="43.018372"><ele>545.0</ele></trkpt>
<trkpt lon="-8.066832" lat="43.018341"><ele>545.75</ele></trkpt>
<trkpt lon="-8.066992" lat="43.018370"><ele>547.75</ele></trkpt>
<trkpt lon="-8.067389" lat="43.018370"><ele>551.25</ele></trkpt>
<trkpt lon="-8.067735" lat="43.018381"><ele>554.0</ele></trkpt>
<trkpt lon="-8.068185" lat="43.018357"><ele>554.0</ele></trkpt>
<trkpt lon="-8.068376" lat="43.018325"><ele>553.75</ele></trkpt>
<trkpt lon="-8.068896" lat="43.018281"><ele>555.0</ele></trkpt>
<trkpt lon="-8.070162" lat="43.018116"><ele>553.0</ele></trkpt>
<trkpt lon="-8.070472" lat="43.018061"><ele>552.0</ele></trkpt>
<trkpt lon="-8.071197" lat="43.017880"><ele>550.75</ele></trkpt>
<trkpt lon="-8.071304" lat="43.017804"><ele>550.25</ele></trkpt>
<trkpt lon="-8.071548" lat="43.017455"><ele>547.5</ele></trkpt>
<trkpt lon="-8.071796" lat="43.017156"><ele>545.75</ele></trkpt>
<trkpt lon="-8.072248" lat="43.016695"><ele>540.0</ele></trkpt>
<trkpt lon="-8.072410" lat="43.016623"><ele>538.75</ele></trkpt>
<trkpt lon="-8.072578" lat="43.016580"><ele>538.0</ele></trkpt>
<trkpt lon="-8.073022" lat="43.016495"><ele>536.0</ele></trkpt>
<trkpt lon="-8.075034" lat="43.016155"><ele>523.0</ele></trkpt>
<trkpt lon="-8.075223" lat="43.016155"><ele>521.75</ele></trkpt>
<trkpt lon="-8.075381" lat="43.016175"><ele>520.75</ele></trkpt>
<trkpt lon="-8.075540" lat="43.016216"><ele>520.0</ele></trkpt>
<trkpt lon="-8.075735" lat="43.016288"><ele>519.75</ele></trkpt>
<trkpt lon="-8.076169" lat="43.016322"><ele>515.5</ele></trkpt>
<trkpt lon="-8.076302" lat="43.016304"><ele>515.0</ele></trkpt>
<trkpt lon="-8.076476" lat="43.016251"><ele>513.5</ele></trkpt>
<trkpt lon="-8.077070" lat="43.016244"><ele>506.75</ele></trkpt>
<trkpt lon="-8.077281" lat="43.016612"><ele>507.25</ele></trkpt>
<trkpt lon="-8.077465" lat="43.016793"><ele>506.5</ele></trkpt>
<trkpt lon="-8.077689" lat="43.016879"><ele>506.0</ele></trkpt>
<trkpt lon="-8.078750" lat="43.016874"><ele>504.5</ele></trkpt>
<trkpt lon="-8.079012" lat="43.016819"><ele>504.25</ele></trkpt>
<trkpt lon="-8.079237" lat="43.016760"><ele>504.0</ele></trkpt>
<trkpt lon="-8.079262" lat="43.016596"><ele>503.0</ele></trkpt>
<trkpt lon="-8.079334" lat="43.016426"><ele>501.75</ele></trkpt>
<trkpt lon="-8.079409" lat="43.016207"><ele>500.5</ele></trkpt>
<trkpt lon="-8.079629" lat="43.015969"><ele>498.75</ele></trkpt>
<trkpt lon="-8.079428" lat="43.015777"><ele>494.5</ele></trkpt>
<trkpt lon="-8.079361" lat="43.015586"><ele>489.0</ele></trkpt>
<trkpt lon="-8.079376" lat="43.015425"><ele>486.0</ele></trkpt>
<trkpt lon="-8.079396" lat="43.015247"><ele>484.0</ele></trkpt>
<trkpt lon="-8.079426" lat="43.015180"><ele>485.5</ele></trkpt>
<trkpt lon="-8.079527" lat="43.015071"><ele>487.0</ele></trkpt>
<trkpt lon="-8.079703" lat="43.014946"><ele>486.75</ele></trkpt>
<trkpt lon="-8.079843" lat="43.014879"><ele>486.5</ele></trkpt>
<trkpt lon="-8.079995" lat="43.014819"><ele>485.5</ele></trkpt>
<trkpt lon="-8.080119" lat="43.014815"><ele>486.0</ele></trkpt>
<trkpt lon="-8.080217" lat="43.014830"><ele>486.0</ele></trkpt>
<trkpt lon="-8.081422" lat="43.014286"><ele>497.25</ele></trkpt>
<trkpt lon="-8.081636" lat="43.014153"><ele>499.25</ele></trkpt>
<trkpt lon="-8.081916" lat="43.013811"><ele>504.0</ele></trkpt>
<trkpt lon="-8.081940" lat="43.013615"><ele>506.0</ele></trkpt>
<trkpt lon="-8.081833" lat="43.013502"><ele>508.25</ele></trkpt>
<trkpt lon="-8.081169" lat="43.013204"><ele>515.5</ele></trkpt>
<trkpt lon="-8.080224" lat="43.012678"><ele>522.5</ele></trkpt>
<trkpt lon="-8.079999" lat="43.012513"><ele>523.75</ele></trkpt>
<trkpt lon="-8.078765" lat="43.011212"><ele>518.75</ele></trkpt>
<trkpt lon="-8.078029" lat="43.010538"><ele>519.0</ele></trkpt>
<trkpt lon="-8.077828" lat="43.010388"><ele>520.5</ele></trkpt>
<trkpt lon="-8.077638" lat="43.010324"><ele>521.25</ele></trkpt>
<trkpt lon="-8.077112" lat="43.010209"><ele>523.25</ele></trkpt>
<trkpt lon="-8.076978" lat="43.010157"><ele>524.5</ele></trkpt>
<trkpt lon="-8.077565" lat="43.009805"><ele>529.5</ele></trkpt>
<trkpt lon="-8.078348" lat="43.009266"><ele>537.25</ele></trkpt>
<trkpt lon="-8.079640" lat="43.008397"><ele>534.25</ele></trkpt>
<trkpt lon="-8.080021" lat="43.008172"><ele>531.0</ele></trkpt>
<trkpt lon="-8.080747" lat="43.007836"><ele>524.0</ele></trkpt>
<trkpt lon="-8.081988" lat="43.006925"><ele>519.75</ele></trkpt>
<trkpt lon="-8.082668" lat="43.006480"><ele>518.0</ele></trkpt>
<trkpt lon="-8.082792" lat="43.006433"><ele>517.5</ele></trkpt>
<trkpt lon="-8.084596" lat="43.006310"><ele>516.0</ele></trkpt>
<trkpt lon="-8.085070" lat="43.006295"><ele>516.25</ele></trkpt>
<trkpt lon="-8.085525" lat="43.006303"><ele>516.0</ele></trkpt>
<trkpt lon="-8.085933" lat="43.006262"><ele>515.75</ele></trkpt>
<trkpt lon="-8.086281" lat="43.006199"><ele>515.0</ele></trkpt>
<trkpt lon="-8.086646" lat="43.006100"><ele>515.0</ele></trkpt>
<trkpt lon="-8.087133" lat="43.005796"><ele>514.75</ele></trkpt>
<trkpt lon="-8.088156" lat="43.005092"><ele>511.25</ele></trkpt>
<trkpt lon="-8.088480" lat="43.004855"><ele>510.0</ele></trkpt>
<trkpt lon="-8.089139" lat="43.004394"><ele>508.75</ele></trkpt>
<trkpt lon="-8.089682" lat="43.004021"><ele>504.5</ele></trkpt>
<trkpt lon="-8.090316" lat="43.003603"><ele>497.5</ele></trkpt>
<trkpt lon="-8.090569" lat="43.003339"><ele>494.75</ele></trkpt>
<trkpt lon="-8.090968" lat="43.002929"><ele>489.0</ele></trkpt>
<trkpt lon="-8.091263" lat="43.002669"><ele>485.75</ele></trkpt>
<trkpt lon="-8.091676" lat="43.002497"><ele>481.75</ele></trkpt>
<trkpt lon="-8.091972" lat="43.002362"><ele>480.25</ele></trkpt>
<trkpt lon="-8.091994" lat="43.002458"><ele>480.5</ele></trkpt>
<trkpt lon="-8.092107" lat="43.002432"><ele>479.5</ele></trkpt>
<trkpt lon="-8.092311" lat="43.002297"><ele>479.0</ele></trkpt>
<trkpt lon="-8.092474" lat="43.002080"><ele>478.0</ele></trkpt>
<trkpt lon="-8.093156" lat="43.001218"><ele>473.25</ele></trkpt>
<trkpt lon="-8.093766" lat="43.000661"><ele>469.75</ele></trkpt>
<trkpt lon="-8.094698" lat="42.999778"><ele>463.25</ele></trkpt>
<trkpt lon="-8.095236" lat="42.999175"><ele>460.0</ele></trkpt>
<trkpt lon="-8.095690" lat="42.998828"><ele>459.0</ele></trkpt>
<trkpt lon="-8.096233" lat="42.998514"><ele>457.75</ele></trkpt>
<trkpt lon="-8.096677" lat="42.998458"><ele>457.75</ele></trkpt>
<trkpt lon="-8.097119" lat="42.998307"><ele>456.75</ele></trkpt>
<trkpt lon="-8.097438" lat="42.998053"><ele>454.0</ele></trkpt>
<trkpt lon="-8.097490" lat="42.997899"><ele>454.0</ele></trkpt>
<trkpt lon="-8.097509" lat="42.997843"><ele>453.75</ele></trkpt>
<trkpt lon="-8.098107" lat="42.996818"><ele>451.5</ele></trkpt>
<trkpt lon="-8.098423" lat="42.996278"><ele>451.5</ele></trkpt>
<trkpt lon="-8.098606" lat="42.995994"><ele>451.75</ele></trkpt>
<trkpt lon="-8.098869" lat="42.995739"><ele>452.75</ele></trkpt>
<trkpt lon="-8.099241" lat="42.995548"><ele>453.25</ele></trkpt>
<trkpt lon="-8.100074" lat="42.995263"><ele>456.0</ele></trkpt>
<trkpt lon="-8.100379" lat="42.995243"><ele>457.25</ele></trkpt>
<trkpt lon="-8.100617" lat="42.995305"><ele>457.5</ele></trkpt>
<trkpt lon="-8.100954" lat="42.995416"><ele>459.25</ele></trkpt>
<trkpt lon="-8.101222" lat="42.995389"><ele>461.25</ele></trkpt>
<trkpt lon="-8.101850" lat="42.995253"><ele>464.25</ele></trkpt>
<trkpt lon="-8.102597" lat="42.995308"><ele>466.75</ele></trkpt>
<trkpt lon="-8.103094" lat="42.995407"><ele>470.75</ele></trkpt>
<trkpt lon="-8.103637" lat="42.995444"><ele>472.25</ele></trkpt>
<trkpt lon="-8.104289" lat="42.995345"><ele>469.25</ele></trkpt>
<trkpt lon="-8.105066" lat="42.995193"><ele>466.25</ele></trkpt>
<trkpt lon="-8.105728" lat="42.995102"><ele>466.25</ele></trkpt>
<trkpt lon="-8.106170" lat="42.995116"><ele>466.75</ele></trkpt>
<trkpt lon="-8.106995" lat="42.995364"><ele>466.75</ele></trkpt>
<trkpt lon="-8.107785" lat="42.995585"><ele>463.75</ele></trkpt>
<trkpt lon="-8.108578" lat="42.995655"><ele>458.5</ele></trkpt>
<trkpt lon="-8.109964" lat="42.995670"><ele>448.25</ele></trkpt>
<trkpt lon="-8.110587" lat="42.995640"><ele>444.5</ele></trkpt>
<trkpt lon="-8.110869" lat="42.995593"><ele>443.5</ele></trkpt>
<trkpt lon="-8.112255" lat="42.995364"><ele>439.0</ele></trkpt>
<trkpt lon="-8.113109" lat="42.995241"><ele>437.5</ele></trkpt>
<trkpt lon="-8.113499" lat="42.995129"><ele>436.25</ele></trkpt>
<trkpt lon="-8.114520" lat="42.994541"><ele>427.25</ele></trkpt>
<trkpt lon="-8.115629" lat="42.994216"><ele>419.5</ele></trkpt>
<trkpt lon="-8.116101" lat="42.994130"><ele>417.5</ele></trkpt>
<trkpt lon="-8.116380" lat="42.994166"><ele>416.0</ele></trkpt>
<trkpt lon="-8.117415" lat="42.994570"><ele>406.5</ele></trkpt>
<trkpt lon="-8.118277" lat="42.993557"><ele>396.25</ele></trkpt>
<trkpt lon="-8.118405" lat="42.993460"><ele>395.75</ele></trkpt>
<trkpt lon="-8.118828" lat="42.993292"><ele>393.75</ele></trkpt>
<trkpt lon="-8.118995" lat="42.993203"><ele>392.0</ele></trkpt>
<trkpt lon="-8.119262" lat="42.992850"><ele>390.25</ele></trkpt>
<trkpt lon="-8.120044" lat="42.991763"><ele>381.25</ele></trkpt>
<trkpt lon="-8.120260" lat="42.991407"><ele>378.25</ele></trkpt>
<trkpt lon="-8.120293" lat="42.991289"><ele>377.0</ele></trkpt>
<trkpt lon="-8.120287" lat="42.991007"><ele>374.75</ele></trkpt>
<trkpt lon="-8.120308" lat="42.990930"><ele>374.0</ele></trkpt>
<trkpt lon="-8.120364" lat="42.990874"><ele>373.25</ele></trkpt>
<trkpt lon="-8.120487" lat="42.990802"><ele>372.25</ele></trkpt>
<trkpt lon="-8.121223" lat="42.990585"><ele>368.0</ele></trkpt>
<trkpt lon="-8.121361" lat="42.990538"><ele>367.5</ele></trkpt>
<trkpt lon="-8.121515" lat="42.990367"><ele>364.75</ele></trkpt>
<trkpt lon="-8.121683" lat="42.990127"><ele>364.0</ele></trkpt>
<trkpt lon="-8.121716" lat="42.990119"><ele>364.0</ele></trkpt>
<trkpt lon="-8.121808" lat="42.990104"><ele>364.25</ele></trkpt>
<trkpt lon="-8.121894" lat="42.990092"><ele>364.5</ele></trkpt>
<trkpt lon="-8.123057" lat="42.989963"><ele>373.5</ele></trkpt>
<trkpt lon="-8.123280" lat="42.989889"><ele>375.0</ele></trkpt>
<trkpt lon="-8.123544" lat="42.989731"><ele>376.75</ele></trkpt>
<trkpt lon="-8.124143" lat="42.989289"><ele>382.0</ele></trkpt>
<trkpt lon="-8.124767" lat="42.989013"><ele>386.0</ele></trkpt>
<trkpt lon="-8.124921" lat="42.988985"><ele>387.0</ele></trkpt>
<trkpt lon="-8.125047" lat="42.988976"><ele>388.5</ele></trkpt>
<trkpt lon="-8.125166" lat="42.988975"><ele>390.75</ele></trkpt>
<trkpt lon="-8.125258" lat="42.988954"><ele>391.25</ele></trkpt>
<trkpt lon="-8.125335" lat="42.988926"><ele>391.75</ele></trkpt>
<trkpt lon="-8.125379" lat="42.988815"><ele>392.5</ele></trkpt>
<trkpt lon="-8.125299" lat="42.988487"><ele>395.25</ele></trkpt>
<trkpt lon="-8.125236" lat="42.988264"><ele>396.25</ele></trkpt>
<trkpt lon="-8.125211" lat="42.988053"><ele>397.75</ele></trkpt>
<trkpt lon="-8.125227" lat="42.987961"><ele>398.25</ele></trkpt>
<trkpt lon="-8.125282" lat="42.987866"><ele>399.5</ele></trkpt>
<trkpt lon="-8.125319" lat="42.987830"><ele>400.25</ele></trkpt>
<trkpt lon="-8.125486" lat="42.987668"><ele>402.0</ele></trkpt>
<trkpt lon="-8.126933" lat="42.986801"><ele>413.5</ele></trkpt>
<trkpt lon="-8.127382" lat="42.986566"><ele>417.75</ele></trkpt>
<trkpt lon="-8.127453" lat="42.986457"><ele>418.5</ele></trkpt>
<trkpt lon="-8.127479" lat="42.986155"><ele>419.25</ele></trkpt>
<trkpt lon="-8.127676" lat="42.985599"><ele>422.0</ele></trkpt>
<trkpt lon="-8.127829" lat="42.985425"><ele>422.75</ele></trkpt>
<trkpt lon="-8.127944" lat="42.985380"><ele>423.25</ele></trkpt>
<trkpt lon="-8.128291" lat="42.985367"><ele>425.0</ele></trkpt>
<trkpt lon="-8.128410" lat="42.985341"><ele>425.0</ele></trkpt>
<trkpt lon="-8.128511" lat="42.985291"><ele>424.75</ele></trkpt>
<trkpt lon="-8.128692" lat="42.985157"><ele>423.5</ele></trkpt>
<trkpt lon="-8.128821" lat="42.985034"><ele>422.0</ele></trkpt>
<trkpt lon="-8.129051" lat="42.984712"><ele>420.5</ele></trkpt>
<trkpt lon="-8.129477" lat="42.984064"><ele>418.5</ele></trkpt>
<trkpt lon="-8.129618" lat="42.983889"><ele>418.75</ele></trkpt>
<trkpt lon="-8.130263" lat="42.983235"><ele>420.25</ele></trkpt>
<trkpt lon="-8.130412" lat="42.983042"><ele>421.75</ele></trkpt>
<trkpt lon="-8.130364" lat="42.982980"><ele>420.5</ele></trkpt>
<trkpt lon="-8.130241" lat="42.982530"><ele>415.75</ele></trkpt>
<trkpt lon="-8.130140" lat="42.982284"><ele>412.5</ele></trkpt>
<trkpt lon="-8.130026" lat="42.981902"><ele>406.75</ele></trkpt>
<trkpt lon="-8.129961" lat="42.981615"><ele>401.5</ele></trkpt>
<trkpt lon="-8.129957" lat="42.981474"><ele>399.5</ele></trkpt>
<trkpt lon="-8.129973" lat="42.981391"><ele>398.5</ele></trkpt>
<trkpt lon="-8.130046" lat="42.981212"><ele>397.5</ele></trkpt>
<trkpt lon="-8.131391" lat="42.978895"><ele>407.0</ele></trkpt>
<trkpt lon="-8.132888" lat="42.976383"><ele>402.75</ele></trkpt>
<trkpt lon="-8.133002" lat="42.976235"><ele>402.5</ele></trkpt>
<trkpt lon="-8.132120" lat="42.975718"><ele>392.25</ele></trkpt>
<trkpt lon="-8.131974" lat="42.975586"><ele>390.25</ele></trkpt>
<trkpt lon="-8.131918" lat="42.975502"><ele>389.0</ele></trkpt>
<trkpt lon="-8.131903" lat="42.975446"><ele>388.0</ele></trkpt>
<trkpt lon="-8.131912" lat="42.975330"><ele>386.5</ele></trkpt>
<trkpt lon="-8.131943" lat="42.975203"><ele>384.5</ele></trkpt>
<trkpt lon="-8.131697" lat="42.975183"><ele>383.0</ele></trkpt>
<trkpt lon="-8.131578" lat="42.975188"><ele>382.0</ele></trkpt>
<trkpt lon="-8.131401" lat="42.975221"><ele>381.0</ele></trkpt>
<trkpt lon="-8.130618" lat="42.975453"><ele>373.75</ele></trkpt>
<trkpt lon="-8.130510" lat="42.975465"><ele>372.5</ele></trkpt>
<trkpt lon="-8.130322" lat="42.975453"><ele>370.5</ele></trkpt>
<trkpt lon="-8.130108" lat="42.975358"><ele>368.75</ele></trkpt>
<trkpt lon="-8.129911" lat="42.975214"><ele>367.0</ele></trkpt>
<trkpt lon="-8.131612" lat="42.972876"><ele>360.75</ele></trkpt>
<trkpt lon="-8.131417" lat="42.972718"><ele>358.75</ele></trkpt>
<trkpt lon="-8.130133" lat="42.971413"><ele>345.5</ele></trkpt>
<trkpt lon="-8.130240" lat="42.971314"><ele>345.5</ele></trkpt>
<trkpt lon="-8.131498" lat="42.969759"><ele>342.5</ele></trkpt>
<trkpt lon="-8.132571" lat="42.968395"><ele>341.5</ele></trkpt>
<trkpt lon="-8.134724" lat="42.965655"><ele>345.25</ele></trkpt>
<trkpt lon="-8.135788" lat="42.964302"><ele>339.75</ele></trkpt>
<trkpt lon="-8.137730" lat="42.961800"><ele>347.25</ele></trkpt>
<trkpt lon="-8.138240" lat="42.961085"><ele>346.5</ele></trkpt>
<trkpt lon="-8.138774" lat="42.961209"><ele>350.5</ele></trkpt>
<trkpt lon="-8.138898" lat="42.961215"><ele>351.25</ele></trkpt>
<trkpt lon="-8.139328" lat="42.961165"><ele>353.5</ele></trkpt>
<trkpt lon="-8.139546" lat="42.961162"><ele>354.5</ele></trkpt>
<trkpt lon="-8.139921" lat="42.961210"><ele>356.0</ele></trkpt>
<trkpt lon="-8.140104" lat="42.961283"><ele>357.0</ele></trkpt>
<trkpt lon="-8.140190" lat="42.961364"><ele>357.5</ele></trkpt>
<trkpt lon="-8.140927" lat="42.960236"><ele>354.75</ele></trkpt>
<trkpt lon="-8.141099" lat="42.959991"><ele>353.75</ele></trkpt>
<trkpt lon="-8.141285" lat="42.959746"><ele>353.0</ele></trkpt>
<trkpt lon="-8.141457" lat="42.959594"><ele>351.75</ele></trkpt>
<trkpt lon="-8.141795" lat="42.959466"><ele>349.5</ele></trkpt>
<trkpt lon="-8.142243" lat="42.959404"><ele>346.75</ele></trkpt>
<trkpt lon="-8.142662" lat="42.959368"><ele>344.5</ele></trkpt>
<trkpt lon="-8.142646" lat="42.959272"><ele>344.5</ele></trkpt>
<trkpt lon="-8.142653" lat="42.959111"><ele>344.25</ele></trkpt>
<trkpt lon="-8.142639" lat="42.958421"><ele>343.75</ele></trkpt>
<trkpt lon="-8.142666" lat="42.958374"><ele>343.5</ele></trkpt>
<trkpt lon="-8.142896" lat="42.958298"><ele>342.75</ele></trkpt>
<trkpt lon="-8.143108" lat="42.958345"><ele>342.75</ele></trkpt>
<trkpt lon="-8.143248" lat="42.958384"><ele>342.25</ele></trkpt>
<trkpt lon="-8.143409" lat="42.958310"><ele>341.5</ele></trkpt>
<trkpt lon="-8.143455" lat="42.958181"><ele>341.25</ele></trkpt>
<trkpt lon="-8.143457" lat="42.958021"><ele>341.0</ele></trkpt>
<trkpt lon="-8.143551" lat="42.957849"><ele>341.0</ele></trkpt>
<trkpt lon="-8.143655" lat="42.957701"><ele>340.75</ele></trkpt>
<trkpt lon="-8.143744" lat="42.957550"><ele>340.5</ele></trkpt>
<trkpt lon="-8.143806" lat="42.957489"><ele>340.25</ele></trkpt>
<trkpt lon="-8.143854" lat="42.957275"><ele>340.0</ele></trkpt>
<trkpt lon="-8.143841" lat="42.957077"><ele>338.25</ele></trkpt>
<trkpt lon="-8.143919" lat="42.956942"><ele>337.0</ele></trkpt>
<trkpt lon="-8.144075" lat="42.956895"><ele>336.5</ele></trkpt>
<trkpt lon="-8.144397" lat="42.956872"><ele>337.25</ele></trkpt>
<trkpt lon="-8.144571" lat="42.956754"><ele>336.75</ele></trkpt>
<trkpt lon="-8.144815" lat="42.956387"><ele>330.5</ele></trkpt>
<trkpt lon="-8.144838" lat="42.955721"><ele>325.25</ele></trkpt>
<trkpt lon="-8.144916" lat="42.955540"><ele>324.75</ele></trkpt>
<trkpt lon="-8.145081" lat="42.955422"><ele>326.75</ele></trkpt>
<trkpt lon="-8.145523" lat="42.955281"><ele>329.0</ele></trkpt>
<trkpt lon="-8.145831" lat="42.955193"><ele>327.75</ele></trkpt>
<trkpt lon="-8.146042" lat="42.955217"><ele>327.25</ele></trkpt>
<trkpt lon="-8.146286" lat="42.955136"><ele>324.75</ele></trkpt>
<trkpt lon="-8.146488" lat="42.955160"><ele>324.5</ele></trkpt>
<trkpt lon="-8.146768" lat="42.955112"><ele>323.0</ele></trkpt>
<trkpt lon="-8.146966" lat="42.955042"><ele>321.5</ele></trkpt>
<trkpt lon="-8.147136" lat="42.954941"><ele>320.75</ele></trkpt>
<trkpt lon="-8.147177" lat="42.954850"><ele>320.75</ele></trkpt>
<trkpt lon="-8.147209" lat="42.954675"><ele>320.75</ele></trkpt>
<trkpt lon="-8.147287" lat="42.954544"><ele>322.0</ele></trkpt>
<trkpt lon="-8.147430" lat="42.954167"><ele>325.0</ele></trkpt>
<trkpt lon="-8.147319" lat="42.953801"><ele>322.0</ele></trkpt>
<trkpt lon="-8.148779" lat="42.953232"><ele>335.5</ele></trkpt>
<trkpt lon="-8.149017" lat="42.953172"><ele>337.0</ele></trkpt>
<trkpt lon="-8.149187" lat="42.953161"><ele>338.0</ele></trkpt>
<trkpt lon="-8.149714" lat="42.953245"><ele>339.75</ele></trkpt>
<trkpt lon="-8.149951" lat="42.953234"><ele>340.0</ele></trkpt>
<trkpt lon="-8.150081" lat="42.953212"><ele>340.25</ele></trkpt>
<trkpt lon="-8.150167" lat="42.953174"><ele>340.75</ele></trkpt>
<trkpt lon="-8.150309" lat="42.953039"><ele>341.25</ele></trkpt>
<trkpt lon="-8.150365" lat="42.953014"><ele>341.75</ele></trkpt>
<trkpt lon="-8.150416" lat="42.953010"><ele>342.0</ele></trkpt>
<trkpt lon="-8.150501" lat="42.953036"><ele>342.5</ele></trkpt>
<trkpt lon="-8.150542" lat="42.952866"><ele>343.5</ele></trkpt>
<trkpt lon="-8.150619" lat="42.952671"><ele>343.75</ele></trkpt>
<trkpt lon="-8.151165" lat="42.951550"><ele>340.5</ele></trkpt>
<trkpt lon="-8.151305" lat="42.951071"><ele>338.75</ele></trkpt>
<trkpt lon="-8.151326" lat="42.951023"><ele>338.5</ele></trkpt>
<trkpt lon="-8.152228" lat="42.947424"><ele>325.0</ele></trkpt>
<trkpt lon="-8.152513" lat="42.946320"><ele>326.5</ele></trkpt>
<trkpt lon="-8.152767" lat="42.943044"><ele>327.0</ele></trkpt>
<trkpt lon="-8.152822" lat="42.942414"><ele>331.75</ele></trkpt>
<trkpt lon="-8.152815" lat="42.942380"><ele>331.75</ele></trkpt>
<trkpt lon="-8.152985" lat="42.940417"><ele>340.25</ele></trkpt>
<trkpt lon="-8.153117" lat="42.938818"><ele>348.25</ele></trkpt>
<trkpt lon="-8.153115" lat="42.938699"><ele>348.5</ele></trkpt>
<trkpt lon="-8.153084" lat="42.938383"><ele>348.25</ele></trkpt>
<trkpt lon="-8.153100" lat="42.938165"><ele>348.0</ele></trkpt>
<trkpt lon="-8.153170" lat="42.937994"><ele>348.5</ele></trkpt>
<trkpt lon="-8.153326" lat="42.937700"><ele>349.5</ele></trkpt>
<trkpt lon="-8.153693" lat="42.937515"><ele>352.5</ele></trkpt>
<trkpt lon="-8.153767" lat="42.937481"><ele>353.25</ele></trkpt>
<trkpt lon="-8.153517" lat="42.937210"><ele>355.5</ele></trkpt>
<trkpt lon="-8.153290" lat="42.936996"><ele>358.25</ele></trkpt>
<trkpt lon="-8.153225" lat="42.936882"><ele>359.75</ele></trkpt>
<trkpt lon="-8.153160" lat="42.936380"><ele>365.75</ele></trkpt>
<trkpt lon="-8.153172" lat="42.936277"><ele>367.25</ele></trkpt>
<trkpt lon="-8.153222" lat="42.936182"><ele>368.5</ele></trkpt>
<trkpt lon="-8.153372" lat="42.936039"><ele>370.5</ele></trkpt>
<trkpt lon="-8.153609" lat="42.935890"><ele>372.5</ele></trkpt>
<trkpt lon="-8.153942" lat="42.935248"><ele>379.5</ele></trkpt>
<trkpt lon="-8.154214" lat="42.934455"><ele>390.0</ele></trkpt>
<trkpt lon="-8.154344" lat="42.934146"><ele>393.75</ele></trkpt>
<trkpt lon="-8.154477" lat="42.933787"><ele>397.25</ele></trkpt>
<trkpt lon="-8.154719" lat="42.933339"><ele>401.75</ele></trkpt>
<trkpt lon="-8.154940" lat="42.933030"><ele>404.0</ele></trkpt>
<trkpt lon="-8.155037" lat="42.932953"><ele>404.5</ele></trkpt>
<trkpt lon="-8.155865" lat="42.932088"><ele>410.75</ele></trkpt>
<trkpt lon="-8.155965" lat="42.931971"><ele>411.25</ele></trkpt>
<trkpt lon="-8.156134" lat="42.931846"><ele>411.5</ele></trkpt>
<trkpt lon="-8.156322" lat="42.931748"><ele>411.75</ele></trkpt>
<trkpt lon="-8.156830" lat="42.931551"><ele>412.0</ele></trkpt>
<trkpt lon="-8.157575" lat="42.931214"><ele>411.25</ele></trkpt>
<trkpt lon="-8.157823" lat="42.931091"><ele>410.5</ele></trkpt>
<trkpt lon="-8.158572" lat="42.930587"><ele>406.0</ele></trkpt>
<trkpt lon="-8.158730" lat="42.930481"><ele>405.25</ele></trkpt>
<trkpt lon="-8.158910" lat="42.930366"><ele>404.25</ele></trkpt>
<trkpt lon="-8.158990" lat="42.930316"><ele>403.75</ele></trkpt>
<trkpt lon="-8.159087" lat="42.930223"><ele>403.0</ele></trkpt>
<trkpt lon="-8.160612" lat="42.928758"><ele>398.25</ele></trkpt>
<trkpt lon="-8.160719" lat="42.928627"><ele>397.5</ele></trkpt>
<trkpt lon="-8.160800" lat="42.928636"><ele>397.25</ele></trkpt>
<trkpt lon="-8.160857" lat="42.928644"><ele>397.0</ele></trkpt>
<trkpt lon="-8.161483" lat="42.928689"><ele>396.75</ele></trkpt>
<trkpt lon="-8.162076" lat="42.928663"><ele>395.0</ele></trkpt>
<trkpt lon="-8.162527" lat="42.928673"><ele>394.0</ele></trkpt>
<trkpt lon="-8.162773" lat="42.928689"><ele>393.0</ele></trkpt>
<trkpt lon="-8.162929" lat="42.928707"><ele>392.25</ele></trkpt>
<trkpt lon="-8.163404" lat="42.928897"><ele>389.5</ele></trkpt>
<trkpt lon="-8.163459" lat="42.928962"><ele>389.25</ele></trkpt>
<trkpt lon="-8.163494" lat="42.928982"><ele>389.0</ele></trkpt>
<trkpt lon="-8.163576" lat="42.929006"><ele>388.75</ele></trkpt>
<trkpt lon="-8.163559" lat="42.929042"><ele>388.5</ele></trkpt>
<trkpt lon="-8.163219" lat="42.929965"><ele>388.0</ele></trkpt>
<trkpt lon="-8.163184" lat="42.930044"><ele>387.0</ele></trkpt>
  </trkseg></trk></gpx>
