<?xml version="1.0" encoding="UTF-8"?>
<gpx version="1.1" creator="compostel-brouter" xmlns="http://www.topografix.com/GPX/1/1">
  <metadata><name>ES-34-Vilalba</name></metadata>
  <trk><name>ES-34-Vilalba</name><trkseg>
<trkpt lon="-7.363099" lat="43.427972"><ele>126.75</ele></trkpt>
<trkpt lon="-7.363120" lat="43.427969"><ele>126.75</ele></trkpt>
<trkpt lon="-7.363135" lat="43.428038"><ele>126.75</ele></trkpt>
<trkpt lon="-7.363132" lat="43.428085"><ele>127.0</ele></trkpt>
<trkpt lon="-7.363114" lat="43.428084"><ele>127.0</ele></trkpt>
<trkpt lon="-7.363107" lat="43.428159"><ele>127.0</ele></trkpt>
<trkpt lon="-7.363095" lat="43.428288"><ele>127.0</ele></trkpt>
<trkpt lon="-7.363114" lat="43.428289"><ele>127.0</ele></trkpt>
<trkpt lon="-7.363112" lat="43.428334"><ele>127.0</ele></trkpt>
<trkpt lon="-7.363046" lat="43.428333"><ele>126.75</ele></trkpt>
<trkpt lon="-7.363048" lat="43.428355"><ele>127.0</ele></trkpt>
<trkpt lon="-7.363205" lat="43.428355"><ele>127.0</ele></trkpt>
<trkpt lon="-7.363532" lat="43.428337"><ele>129.75</ele></trkpt>
<trkpt lon="-7.363570" lat="43.428361"><ele>130.5</ele></trkpt>
<trkpt lon="-7.363598" lat="43.428379"><ele>131.0</ele></trkpt>
<trkpt lon="-7.364131" lat="43.428122"><ele>136.0</ele></trkpt>
<trkpt lon="-7.364203" lat="43.428254"><ele>136.75</ele></trkpt>
<trkpt lon="-7.364253" lat="43.428300"><ele>137.25</ele></trkpt>
<trkpt lon="-7.364286" lat="43.428321"><ele>137.25</ele></trkpt>
<trkpt lon="-7.364314" lat="43.428330"><ele>137.5</ele></trkpt>
<trkpt lon="-7.364709" lat="43.428314"><ele>140.75</ele></trkpt>
<trkpt lon="-7.364872" lat="43.428302"><ele>141.75</ele></trkpt>
<trkpt lon="-7.365147" lat="43.428298"><ele>143.5</ele></trkpt>
<trkpt lon="-7.365397" lat="43.428362"><ele>144.25</ele></trkpt>
<trkpt lon="-7.365501" lat="43.428430"><ele>144.25</ele></trkpt>
<trkpt lon="-7.365609" lat="43.428304"><ele>146.0</ele></trkpt>
<trkpt lon="-7.365735" lat="43.428294"><ele>147.5</ele></trkpt>
<trkpt lon="-7.365994" lat="43.428261"><ele>150.0</ele></trkpt>
<trkpt lon="-7.366114" lat="43.428236"><ele>151.0</ele></trkpt>
<trkpt lon="-7.366142" lat="43.428224"><ele>151.25</ele></trkpt>
<trkpt lon="-7.366374" lat="43.428111"><ele>153.0</ele></trkpt>
<trkpt lon="-7.366492" lat="43.428044"><ele>154.0</ele></trkpt>
<trkpt lon="-7.366636" lat="43.427924"><ele>155.25</ele></trkpt>
<trkpt lon="-7.366743" lat="43.427820"><ele>156.75</ele></trkpt>
<trkpt lon="-7.366868" lat="43.427797"><ele>157.5</ele></trkpt>
<trkpt lon="-7.366890" lat="43.427669"><ele>159.25</ele></trkpt>
<trkpt lon="-7.366897" lat="43.427651"><ele>159.5</ele></trkpt>
<trkpt lon="-7.366934" lat="43.427607"><ele>160.25</ele></trkpt>
<trkpt lon="-7.366983" lat="43.427567"><ele>161.0</ele></trkpt>
<trkpt lon="-7.367002" lat="43.427551"><ele>161.25</ele></trkpt>
<trkpt lon="-7.366966" lat="43.427515"><ele>161.75</ele></trkpt>
<trkpt lon="-7.366930" lat="43.427463"><ele>162.0</ele></trkpt>
<trkpt lon="-7.366927" lat="43.427413"><ele>162.5</ele></trkpt>
<trkpt lon="-7.367173" lat="43.426930"><ele>166.5</ele></trkpt>
<trkpt lon="-7.367193" lat="43.426870"><ele>167.0</ele></trkpt>
<trkpt lon="-7.367192" lat="43.426843"><ele>167.0</ele></trkpt>
<trkpt lon="-7.367699" lat="43.426847"><ele>171.0</ele></trkpt>
<trkpt lon="-7.367966" lat="43.426763"><ele>173.0</ele></trkpt>
<trkpt lon="-7.368372" lat="43.426651"><ele>176.0</ele></trkpt>
<trkpt lon="-7.368331" lat="43.426445"><ele>179.0</ele></trkpt>
<trkpt lon="-7.368339" lat="43.426387"><ele>180.0</ele></trkpt>
<trkpt lon="-7.368365" lat="43.426362"><ele>180.25</ele></trkpt>
<trkpt lon="-7.369072" lat="43.426174"><ele>185.5</ele></trkpt>
<trkpt lon="-7.369015" lat="43.426110"><ele>186.25</ele></trkpt>
<trkpt lon="-7.368979" lat="43.426054"><ele>186.25</ele></trkpt>
<trkpt lon="-7.368977" lat="43.425937"><ele>187.75</ele></trkpt>
<trkpt lon="-7.369002" lat="43.425905"><ele>188.5</ele></trkpt>
<trkpt lon="-7.369072" lat="43.425873"><ele>189.25</ele></trkpt>
<trkpt lon="-7.369124" lat="43.425825"><ele>189.75</ele></trkpt>
<trkpt lon="-7.369244" lat="43.425655"><ele>193.25</ele></trkpt>
<trkpt lon="-7.369354" lat="43.425552"><ele>195.25</ele></trkpt>
<trkpt lon="-7.369445" lat="43.425495"><ele>196.5</ele></trkpt>
<trkpt lon="-7.369584" lat="43.425444"><ele>199.5</ele></trkpt>
<trkpt lon="-7.369885" lat="43.425374"><ele>204.75</ele></trkpt>
<trkpt lon="-7.370054" lat="43.425368"><ele>206.75</ele></trkpt>
<trkpt lon="-7.370438" lat="43.425431"><ele>210.5</ele></trkpt>
<trkpt lon="-7.370600" lat="43.425431"><ele>212.0</ele></trkpt>
<trkpt lon="-7.370975" lat="43.425363"><ele>214.25</ele></trkpt>
<trkpt lon="-7.371258" lat="43.425329"><ele>214.25</ele></trkpt>
<trkpt lon="-7.371342" lat="43.425324"><ele>213.75</ele></trkpt>
<trkpt lon="-7.371417" lat="43.425336"><ele>213.0</ele></trkpt>
<trkpt lon="-7.371517" lat="43.425271"><ele>214.25</ele></trkpt>
<trkpt lon="-7.371641" lat="43.425235"><ele>214.5</ele></trkpt>
<trkpt lon="-7.371758" lat="43.425252"><ele>215.0</ele></trkpt>
<trkpt lon="-7.371863" lat="43.425290"><ele>215.25</ele></trkpt>
<trkpt lon="-7.371954" lat="43.425332"><ele>215.5</ele></trkpt>
<trkpt lon="-7.372114" lat="43.425377"><ele>215.75</ele></trkpt>
<trkpt lon="-7.372438" lat="43.425376"><ele>217.5</ele></trkpt>
<trkpt lon="-7.372660" lat="43.425361"><ele>219.0</ele></trkpt>
<trkpt lon="-7.373224" lat="43.425292"><ele>222.25</ele></trkpt>
<trkpt lon="-7.373443" lat="43.425295"><ele>223.0</ele></trkpt>
<trkpt lon="-7.373812" lat="43.425267"><ele>223.5</ele></trkpt>
<trkpt lon="-7.374205" lat="43.425193"><ele>226.25</ele></trkpt>
<trkpt lon="-7.374567" lat="43.425158"><ele>226.5</ele></trkpt>
<trkpt lon="-7.374710" lat="43.425086"><ele>228.5</ele></trkpt>
<trkpt lon="-7.375357" lat="43.424866"><ele>235.75</ele></trkpt>
<trkpt lon="-7.375389" lat="43.424860"><ele>236.0</ele></trkpt>
<trkpt lon="-7.375512" lat="43.424864"><ele>235.75</ele></trkpt>
<trkpt lon="-7.375601" lat="43.424856"><ele>236.0</ele></trkpt>
<trkpt lon="-7.375850" lat="43.424807"><ele>237.75</ele></trkpt>
<trkpt lon="-7.375898" lat="43.424788"><ele>238.0</ele></trkpt>
<trkpt lon="-7.376000" lat="43.424708"><ele>240.25</ele></trkpt>
<trkpt lon="-7.376065" lat="43.424685"><ele>241.0</ele></trkpt>
<trkpt lon="-7.376121" lat="43.424677"><ele>241.0</ele></trkpt>
<trkpt lon="-7.376185" lat="43.424681"><ele>240.5</ele></trkpt>
<trkpt lon="-7.376295" lat="43.424712"><ele>238.0</ele></trkpt>
<trkpt lon="-7.376408" lat="43.424726"><ele>236.75</ele></trkpt>
<trkpt lon="-7.376724" lat="43.424714"><ele>236.0</ele></trkpt>
<trkpt lon="-7.376878" lat="43.424663"><ele>237.25</ele></trkpt>
<trkpt lon="-7.376983" lat="43.424639"><ele>237.75</ele></trkpt>
<trkpt lon="-7.377434" lat="43.424742"><ele>230.25</ele></trkpt>
<trkpt lon="-7.377847" lat="43.424765"><ele>226.25</ele></trkpt>
<trkpt lon="-7.378305" lat="43.424803"><ele>222.5</ele></trkpt>
<trkpt lon="-7.379042" lat="43.424882"><ele>218.75</ele></trkpt>
<trkpt lon="-7.379347" lat="43.424803"><ele>220.0</ele></trkpt>
<trkpt lon="-7.379596" lat="43.424814"><ele>217.75</ele></trkpt>
<trkpt lon="-7.380072" lat="43.424758"><ele>216.25</ele></trkpt>
<trkpt lon="-7.380639" lat="43.424641"><ele>215.0</ele></trkpt>
<trkpt lon="-7.381150" lat="43.424552"><ele>212.25</ele></trkpt>
<trkpt lon="-7.381618" lat="43.424430"><ele>209.25</ele></trkpt>
<trkpt lon="-7.382038" lat="43.424232"><ele>209.0</ele></trkpt>
<trkpt lon="-7.382434" lat="43.424097"><ele>207.0</ele></trkpt>
<trkpt lon="-7.383571" lat="43.423439"><ele>206.25</ele></trkpt>
<trkpt lon="-7.383983" lat="43.423281"><ele>202.75</ele></trkpt>
<trkpt lon="-7.384407" lat="43.423073"><ele>199.5</ele></trkpt>
<trkpt lon="-7.384722" lat="43.422997"><ele>195.5</ele></trkpt>
<trkpt lon="-7.385124" lat="43.422776"><ele>194.0</ele></trkpt>
<trkpt lon="-7.385330" lat="43.422618"><ele>195.5</ele></trkpt>
<trkpt lon="-7.385642" lat="43.422529"><ele>194.25</ele></trkpt>
<trkpt lon="-7.385810" lat="43.422448"><ele>191.5</ele></trkpt>
<trkpt lon="-7.385901" lat="43.422448"><ele>192.0</ele></trkpt>
<trkpt lon="-7.386054" lat="43.422484"><ele>194.0</ele></trkpt>
<trkpt lon="-7.386194" lat="43.422555"><ele>194.75</ele></trkpt>
<trkpt lon="-7.386373" lat="43.422542"><ele>195.5</ele></trkpt>
<trkpt lon="-7.386527" lat="43.422484"><ele>197.0</ele></trkpt>
<trkpt lon="-7.386694" lat="43.422486"><ele>198.25</ele></trkpt>
<trkpt lon="-7.386804" lat="43.422429"><ele>199.5</ele></trkpt>
<trkpt lon="-7.386920" lat="43.422386"><ele>200.75</ele></trkpt>
<trkpt lon="-7.386982" lat="43.422359"><ele>201.25</ele></trkpt>
<trkpt lon="-7.387212" lat="43.422352"><ele>201.0</ele></trkpt>
<trkpt lon="-7.387401" lat="43.422224"><ele>202.5</ele></trkpt>
<trkpt lon="-7.387590" lat="43.422077"><ele>204.0</ele></trkpt>
<trkpt lon="-7.387635" lat="43.422016"><ele>205.0</ele></trkpt>
<trkpt lon="-7.387634" lat="43.421932"><ele>207.25</ele></trkpt>
<trkpt lon="-7.387617" lat="43.421833"><ele>210.0</ele></trkpt>
<trkpt lon="-7.387633" lat="43.421757"><ele>212.0</ele></trkpt>
<trkpt lon="-7.387727" lat="43.421683"><ele>213.0</ele></trkpt>
<trkpt lon="-7.387838" lat="43.421646"><ele>213.0</ele></trkpt>
<trkpt lon="-7.388104" lat="43.421566"><ele>214.0</ele></trkpt>
<trkpt lon="-7.388372" lat="43.421555"><ele>211.75</ele></trkpt>
<trkpt lon="-7.388508" lat="43.421558"><ele>209.75</ele></trkpt>
<trkpt lon="-7.388626" lat="43.421538"><ele>209.5</ele></trkpt>
<trkpt lon="-7.389320" lat="43.421319"><ele>207.75</ele></trkpt>
<trkpt lon="-7.389623" lat="43.421589"><ele>209.5</ele></trkpt>
<trkpt lon="-7.389381" lat="43.421686"><ele>206.75</ele></trkpt>
<trkpt lon="-7.389171" lat="43.421908"><ele>206.0</ele></trkpt>
<trkpt lon="-7.389153" lat="43.421966"><ele>206.0</ele></trkpt>
<trkpt lon="-7.389357" lat="43.422219"><ele>207.75</ele></trkpt>
<trkpt lon="-7.389692" lat="43.422131"><ele>210.25</ele></trkpt>
<trkpt lon="-7.390016" lat="43.422003"><ele>212.5</ele></trkpt>
<trkpt lon="-7.390155" lat="43.421981"><ele>213.5</ele></trkpt>
<trkpt lon="-7.390272" lat="43.421982"><ele>214.25</ele></trkpt>
<trkpt lon="-7.390329" lat="43.422030"><ele>213.75</ele></trkpt>
<trkpt lon="-7.390406" lat="43.422156"><ele>211.5</ele></trkpt>
<trkpt lon="-7.391139" lat="43.421779"><ele>214.25</ele></trkpt>
<trkpt lon="-7.391606" lat="43.421552"><ele>217.25</ele></trkpt>
<trkpt lon="-7.392190" lat="43.421299"><ele>222.0</ele></trkpt>
<trkpt lon="-7.392576" lat="43.421113"><ele>227.0</ele></trkpt>
<trkpt lon="-7.392979" lat="43.420985"><ele>230.5</ele></trkpt>
<trkpt lon="-7.393161" lat="43.420876"><ele>235.0</ele></trkpt>
<trkpt lon="-7.393279" lat="43.420827"><ele>236.5</ele></trkpt>
<trkpt lon="-7.393561" lat="43.420790"><ele>236.0</ele></trkpt>
<trkpt lon="-7.393911" lat="43.420711"><ele>240.75</ele></trkpt>
<trkpt lon="-7.394225" lat="43.420606"><ele>244.5</ele></trkpt>
<trkpt lon="-7.394516" lat="43.420529"><ele>247.0</ele></trkpt>
<trkpt lon="-7.394658" lat="43.420485"><ele>249.25</ele></trkpt>
<trkpt lon="-7.394680" lat="43.420442"><ele>251.5</ele></trkpt>
<trkpt lon="-7.394662" lat="43.420371"><ele>255.0</ele></trkpt>
<trkpt lon="-7.394582" lat="43.420339"><ele>256.0</ele></trkpt>
<trkpt lon="-7.394458" lat="43.420350"><ele>254.75</ele></trkpt>
<trkpt lon="-7.394476" lat="43.420287"><ele>257.75</ele></trkpt>
<trkpt lon="-7.394549" lat="43.420226"><ele>259.75</ele></trkpt>
<trkpt lon="-7.394750" lat="43.420165"><ele>263.5</ele></trkpt>
<trkpt lon="-7.394969" lat="43.420073"><ele>267.75</ele></trkpt>
<trkpt lon="-7.395218" lat="43.419793"><ele>278.25</ele></trkpt>
<trkpt lon="-7.395422" lat="43.419438"><ele>286.5</ele></trkpt>
<trkpt lon="-7.395625" lat="43.419122"><ele>290.0</ele></trkpt>
<trkpt lon="-7.395929" lat="43.418876"><ele>297.75</ele></trkpt>
<trkpt lon="-7.396157" lat="43.418606"><ele>300.25</ele></trkpt>
<trkpt lon="-7.396317" lat="43.418467"><ele>303.25</ele></trkpt>
<trkpt lon="-7.396573" lat="43.418217"><ele>309.25</ele></trkpt>
<trkpt lon="-7.396801" lat="43.417918"><ele>315.5</ele></trkpt>
<trkpt lon="-7.397092" lat="43.417461"><ele>324.25</ele></trkpt>
<trkpt lon="-7.397176" lat="43.417379"><ele>328.0</ele></trkpt>
<trkpt lon="-7.397253" lat="43.417367"><ele>330.75</ele></trkpt>
<trkpt lon="-7.397379" lat="43.417389"><ele>334.75</ele></trkpt>
<trkpt lon="-7.397493" lat="43.417400"><ele>338.5</ele></trkpt>
<trkpt lon="-7.397686" lat="43.417052"><ele>348.0</ele></trkpt>
<trkpt lon="-7.397967" lat="43.416418"><ele>359.25</ele></trkpt>
<trkpt lon="-7.398042" lat="43.416314"><ele>361.5</ele></trkpt>
<trkpt lon="-7.398247" lat="43.416084"><ele>367.75</ele></trkpt>
<trkpt lon="-7.398503" lat="43.415852"><ele>373.25</ele></trkpt>
<trkpt lon="-7.398756" lat="43.415676"><ele>377.75</ele></trkpt>
<trkpt lon="-7.398940" lat="43.415593"><ele>381.0</ele></trkpt>
<trkpt lon="-7.399266" lat="43.415489"><ele>386.75</ele></trkpt>
<trkpt lon="-7.399641" lat="43.415319"><ele>392.5</ele></trkpt>
<trkpt lon="-7.399841" lat="43.415206"><ele>395.75</ele></trkpt>
<trkpt lon="-7.400006" lat="43.415074"><ele>398.75</ele></trkpt>
<trkpt lon="-7.400209" lat="43.414934"><ele>401.0</ele></trkpt>
<trkpt lon="-7.400460" lat="43.414773"><ele>405.75</ele></trkpt>
<trkpt lon="-7.400714" lat="43.414685"><ele>410.25</ele></trkpt>
<trkpt lon="-7.400993" lat="43.414609"><ele>417.0</ele></trkpt>
<trkpt lon="-7.401162" lat="43.414527"><ele>420.75</ele></trkpt>
<trkpt lon="-7.401285" lat="43.414383"><ele>420.5</ele></trkpt>
<trkpt lon="-7.401787" lat="43.414173"><ele>428.0</ele></trkpt>
<trkpt lon="-7.402222" lat="43.414036"><ele>436.5</ele></trkpt>
<trkpt lon="-7.402411" lat="43.413953"><ele>439.0</ele></trkpt>
<trkpt lon="-7.402518" lat="43.413886"><ele>439.5</ele></trkpt>
<trkpt lon="-7.403074" lat="43.413439"><ele>449.75</ele></trkpt>
<trkpt lon="-7.403355" lat="43.413255"><ele>453.75</ele></trkpt>
<trkpt lon="-7.403665" lat="43.413115"><ele>460.25</ele></trkpt>
<trkpt lon="-7.403970" lat="43.412874"><ele>463.75</ele></trkpt>
<trkpt lon="-7.404244" lat="43.412740"><ele>464.5</ele></trkpt>
<trkpt lon="-7.404477" lat="43.412655"><ele>467.75</ele></trkpt>
<trkpt lon="-7.404852" lat="43.412657"><ele>475.5</ele></trkpt>
<trkpt lon="-7.405202" lat="43.412575"><ele>480.75</ele></trkpt>
<trkpt lon="-7.405524" lat="43.412330"><ele>485.75</ele></trkpt>
<trkpt lon="-7.405771" lat="43.412202"><ele>489.75</ele></trkpt>
<trkpt lon="-7.406083" lat="43.412065"><ele>494.0</ele></trkpt>
<trkpt lon="-7.406285" lat="43.411984"><ele>497.75</ele></trkpt>
<trkpt lon="-7.406425" lat="43.411958"><ele>500.25</ele></trkpt>
<trkpt lon="-7.406751" lat="43.411985"><ele>505.25</ele></trkpt>
<trkpt lon="-7.407274" lat="43.411965"><ele>513.75</ele></trkpt>
<trkpt lon="-7.407607" lat="43.411930"><ele>518.75</ele></trkpt>
<trkpt lon="-7.407879" lat="43.411923"><ele>522.0</ele></trkpt>
<trkpt lon="-7.408161" lat="43.411903"><ele>526.75</ele></trkpt>
<trkpt lon="-7.408259" lat="43.411694"><ele>531.0</ele></trkpt>
<trkpt lon="-7.408467" lat="43.411442"><ele>537.0</ele></trkpt>
<trkpt lon="-7.408767" lat="43.411149"><ele>541.25</ele></trkpt>
<trkpt lon="-7.408844" lat="43.411102"><ele>541.5</ele></trkpt>
<trkpt lon="-7.408932" lat="43.411095"><ele>544.0</ele></trkpt>
<trkpt lon="-7.409016" lat="43.411165"><ele>548.0</ele></trkpt>
<trkpt lon="-7.409036" lat="43.411406"><ele>551.5</ele></trkpt>
<trkpt lon="-7.409054" lat="43.411516"><ele>551.25</ele></trkpt>
<trkpt lon="-7.409175" lat="43.411701"><ele>552.5</ele></trkpt>
<trkpt lon="-7.409296" lat="43.411799"><ele>553.75</ele></trkpt>
<trkpt lon="-7.409438" lat="43.411873"><ele>555.0</ele></trkpt>
<trkpt lon="-7.409578" lat="43.411926"><ele>555.5</ele></trkpt>
<trkpt lon="-7.409796" lat="43.411954"><ele>557.25</ele></trkpt>
<trkpt lon="-7.410103" lat="43.411914"><ele>562.0</ele></trkpt>
<trkpt lon="-7.410426" lat="43.411817"><ele>568.25</ele></trkpt>
<trkpt lon="-7.410959" lat="43.411709"><ele>571.25</ele></trkpt>
<trkpt lon="-7.412156" lat="43.411439"><ele>585.0</ele></trkpt>
<trkpt lon="-7.413183" lat="43.411286"><ele>587.0</ele></trkpt>
<trkpt lon="-7.412691" lat="43.411144"><ele>595.75</ele></trkpt>
<trkpt lon="-7.412443" lat="43.411127"><ele>597.75</ele></trkpt>
<trkpt lon="-7.412397" lat="43.411100"><ele>599.5</ele></trkpt>
<trkpt lon="-7.412429" lat="43.411037"><ele>602.0</ele></trkpt>
<trkpt lon="-7.412792" lat="43.410840"><ele>606.5</ele></trkpt>
<trkpt lon="-7.413472" lat="43.410443"><ele>614.0</ele></trkpt>
<trkpt lon="-7.414056" lat="43.409979"><ele>620.75</ele></trkpt>
<trkpt lon="-7.414433" lat="43.409635"><ele>626.25</ele></trkpt>
<trkpt lon="-7.414910" lat="43.409171"><ele>634.25</ele></trkpt>
<trkpt lon="-7.415664" lat="43.408393"><ele>646.0</ele></trkpt>
<trkpt lon="-7.415908" lat="43.407969"><ele>652.0</ele></trkpt>
<trkpt lon="-7.416160" lat="43.407649"><ele>658.0</ele></trkpt>
<trkpt lon="-7.416418" lat="43.407482"><ele>659.0</ele></trkpt>
<trkpt lon="-7.416611" lat="43.407328"><ele>663.25</ele></trkpt>
<trkpt lon="-7.416817" lat="43.407282"><ele>666.0</ele></trkpt>
<trkpt lon="-7.416987" lat="43.407268"><ele>667.25</ele></trkpt>
<trkpt lon="-7.417594" lat="43.407345"><ele>669.25</ele></trkpt>
<trkpt lon="-7.418008" lat="43.407362"><ele>670.75</ele></trkpt>
<trkpt lon="-7.418550" lat="43.407325"><ele>674.25</ele></trkpt>
<trkpt lon="-7.419409" lat="43.407175"><ele>677.0</ele></trkpt>
<trkpt lon="-7.420190" lat="43.406874"><ele>676.0</ele></trkpt>
<trkpt lon="-7.420436" lat="43.406697"><ele>674.75</ele></trkpt>
<trkpt lon="-7.420671" lat="43.406828"><ele>673.75</ele></trkpt>
<trkpt lon="-7.420724" lat="43.406672"><ele>673.25</ele></trkpt>
<trkpt lon="-7.420774" lat="43.406476"><ele>672.75</ele></trkpt>
<trkpt lon="-7.420718" lat="43.405821"><ele>669.0</ele></trkpt>
<trkpt lon="-7.420575" lat="43.405405"><ele>665.5</ele></trkpt>
<trkpt lon="-7.420408" lat="43.405059"><ele>660.5</ele></trkpt>
<trkpt lon="-7.419705" lat="43.404844"><ele>660.5</ele></trkpt>
<trkpt lon="-7.421174" lat="43.403470"><ele>640.5</ele></trkpt>
<trkpt lon="-7.421484" lat="43.403180"><ele>641.0</ele></trkpt>
<trkpt lon="-7.421523" lat="43.403152"><ele>641.25</ele></trkpt>
<trkpt lon="-7.424622" lat="43.400876"><ele>639.25</ele></trkpt>
<trkpt lon="-7.428379" lat="43.397981"><ele>630.75</ele></trkpt>
<trkpt lon="-7.429483" lat="43.396818"><ele>628.25</ele></trkpt>
<trkpt lon="-7.430318" lat="43.395978"><ele>632.25</ele></trkpt>
<trkpt lon="-7.430743" lat="43.395594"><ele>636.5</ele></trkpt>
<trkpt lon="-7.431329" lat="43.395653"><ele>637.75</ele></trkpt>
<trkpt lon="-7.432056" lat="43.395609"><ele>643.25</ele></trkpt>
<trkpt lon="-7.432491" lat="43.395485"><ele>647.25</ele></trkpt>
<trkpt lon="-7.433319" lat="43.394941"><ele>657.25</ele></trkpt>
<trkpt lon="-7.434138" lat="43.394442"><ele>665.75</ele></trkpt>
<trkpt lon="-7.435370" lat="43.393774"><ele>668.25</ele></trkpt>
<trkpt lon="-7.436390" lat="43.393297"><ele>664.75</ele></trkpt>
<trkpt lon="-7.438613" lat="43.392320"><ele>647.5</ele></trkpt>
<trkpt lon="-7.439694" lat="43.391674"><ele>637.25</ele></trkpt>
<trkpt lon="-7.439987" lat="43.391483"><ele>634.75</ele></trkpt>
<trkpt lon="-7.440128" lat="43.390999"><ele>631.25</ele></trkpt>
<trkpt lon="-7.441301" lat="43.389564"><ele>616.0</ele></trkpt>
<trkpt lon="-7.441745" lat="43.388995"><ele>612.5</ele></trkpt>
<trkpt lon="-7.442573" lat="43.387835"><ele>607.75</ele></trkpt>
<trkpt lon="-7.443240" lat="43.386954"><ele>604.25</ele></trkpt>
<trkpt lon="-7.444725" lat="43.385118"><ele>587.75</ele></trkpt>
<trkpt lon="-7.445394" lat="43.384369"><ele>581.0</ele></trkpt>
<trkpt lon="-7.445966" lat="43.383715"><ele>575.75</ele></trkpt>
<trkpt lon="-7.446201" lat="43.383413"><ele>574.25</ele></trkpt>
<trkpt lon="-7.446483" lat="43.383062"><ele>572.25</ele></trkpt>
<trkpt lon="-7.447140" lat="43.382754"><ele>571.0</ele></trkpt>
<trkpt lon="-7.448766" lat="43.382071"><ele>571.0</ele></trkpt>
<trkpt lon="-7.449706" lat="43.381726"><ele>573.25</ele></trkpt>
<trkpt lon="-7.450868" lat="43.381263"><ele>574.5</ele></trkpt>
<trkpt lon="-7.451767" lat="43.380728"><ele>574.0</ele></trkpt>
<trkpt lon="-7.452353" lat="43.380309"><ele>572.25</ele></trkpt>
<trkpt lon="-7.452888" lat="43.380030"><ele>570.25</ele></trkpt>
<trkpt lon="-7.453878" lat="43.379626"><ele>573.5</ele></trkpt>
<trkpt lon="-7.455060" lat="43.379186"><ele>570.25</ele></trkpt>
<trkpt lon="-7.456161" lat="43.378385"><ele>571.0</ele></trkpt>
<trkpt lon="-7.457162" lat="43.377453"><ele>566.75</ele></trkpt>
<trkpt lon="-7.458300" lat="43.376184"><ele>564.25</ele></trkpt>
<trkpt lon="-7.459030" lat="43.375426"><ele>560.0</ele></trkpt>
<trkpt lon="-7.459815" lat="43.374681"><ele>553.5</ele></trkpt>
<trkpt lon="-7.461036" lat="43.373553"><ele>545.75</ele></trkpt>
<trkpt lon="-7.461998" lat="43.372724"><ele>540.75</ele></trkpt>
<trkpt lon="-7.462859" lat="43.373267"><ele>533.0</ele></trkpt>
<trkpt lon="-7.463041" lat="43.373388"><ele>530.5</ele></trkpt>
<trkpt lon="-7.463096" lat="43.373387"><ele>530.0</ele></trkpt>
<trkpt lon="-7.463397" lat="43.373184"><ele>529.5</ele></trkpt>
<trkpt lon="-7.464266" lat="43.372574"><ele>528.0</ele></trkpt>
<trkpt lon="-7.465620" lat="43.371313"><ele>517.25</ele></trkpt>
<trkpt lon="-7.466095" lat="43.370892"><ele>512.0</ele></trkpt>
<trkpt lon="-7.466551" lat="43.370457"><ele>505.25</ele></trkpt>
<trkpt lon="-7.466398" lat="43.370302"><ele>508.5</ele></trkpt>
<trkpt lon="-7.466191" lat="43.370193"><ele>510.75</ele></trkpt>
<trkpt lon="-7.467214" lat="43.369175"><ele>496.0</ele></trkpt>
<trkpt lon="-7.467393" lat="43.368989"><ele>494.5</ele></trkpt>
<trkpt lon="-7.467664" lat="43.368596"><ele>489.25</ele></trkpt>
<trkpt lon="-7.467692" lat="43.368560"><ele>488.75</ele></trkpt>
<trkpt lon="-7.467725" lat="43.368546"><ele>488.75</ele></trkpt>
<trkpt lon="-7.467723" lat="43.368517"><ele>488.5</ele></trkpt>
<trkpt lon="-7.467788" lat="43.368284"><ele>486.5</ele></trkpt>
<trkpt lon="-7.467989" lat="43.368043"><ele>484.25</ele></trkpt>
<trkpt lon="-7.468147" lat="43.367824"><ele>482.5</ele></trkpt>
<trkpt lon="-7.468362" lat="43.367540"><ele>480.0</ele></trkpt>
<trkpt lon="-7.468717" lat="43.367082"><ele>478.0</ele></trkpt>
<trkpt lon="-7.468752" lat="43.367037"><ele>478.0</ele></trkpt>
<trkpt lon="-7.468850" lat="43.366887"><ele>478.0</ele></trkpt>
<trkpt lon="-7.468927" lat="43.366743"><ele>477.75</ele></trkpt>
<trkpt lon="-7.469107" lat="43.366521"><ele>477.5</ele></trkpt>
<trkpt lon="-7.469153" lat="43.366465"><ele>477.5</ele></trkpt>
<trkpt lon="-7.469222" lat="43.366469"><ele>477.75</ele></trkpt>
<trkpt lon="-7.469331" lat="43.366417"><ele>477.75</ele></trkpt>
<trkpt lon="-7.469729" lat="43.366245"><ele>478.25</ele></trkpt>
<trkpt lon="-7.469963" lat="43.366109"><ele>478.0</ele></trkpt>
<trkpt lon="-7.470233" lat="43.365899"><ele>480.75</ele></trkpt>
<trkpt lon="-7.470419" lat="43.365738"><ele>482.5</ele></trkpt>
<trkpt lon="-7.470686" lat="43.365527"><ele>489.75</ele></trkpt>
<trkpt lon="-7.470705" lat="43.365506"><ele>490.75</ele></trkpt>
<trkpt lon="-7.470724" lat="43.365464"><ele>492.75</ele></trkpt>
<trkpt lon="-7.471186" lat="43.365490"><ele>492.75</ele></trkpt>
<trkpt lon="-7.471353" lat="43.365468"><ele>494.0</ele></trkpt>
<trkpt lon="-7.471486" lat="43.365440"><ele>495.0</ele></trkpt>
<trkpt lon="-7.471783" lat="43.365333"><ele>497.5</ele></trkpt>
<trkpt lon="-7.472003" lat="43.365218"><ele>498.25</ele></trkpt>
<trkpt lon="-7.472148" lat="43.365102"><ele>499.75</ele></trkpt>
<trkpt lon="-7.472214" lat="43.365038"><ele>499.75</ele></trkpt>
<trkpt lon="-7.472266" lat="43.364961"><ele>500.5</ele></trkpt>
<trkpt lon="-7.472300" lat="43.364900"><ele>501.25</ele></trkpt>
<trkpt lon="-7.472340" lat="43.364826"><ele>502.0</ele></trkpt>
<trkpt lon="-7.472388" lat="43.364624"><ele>503.25</ele></trkpt>
<trkpt lon="-7.472356" lat="43.364480"><ele>504.25</ele></trkpt>
<trkpt lon="-7.472342" lat="43.364416"><ele>504.75</ele></trkpt>
<trkpt lon="-7.472330" lat="43.364380"><ele>505.0</ele></trkpt>
<trkpt lon="-7.472277" lat="43.364215"><ele>506.25</ele></trkpt>
<trkpt lon="-7.472307" lat="43.364014"><ele>507.75</ele></trkpt>
<trkpt lon="-7.472471" lat="43.363818"><ele>509.25</ele></trkpt>
<trkpt lon="-7.473659" lat="43.362831"><ele>511.75</ele></trkpt>
<trkpt lon="-7.473983" lat="43.362562"><ele>511.5</ele></trkpt>
<trkpt lon="-7.474427" lat="43.362857"><ele>510.5</ele></trkpt>
<trkpt lon="-7.474698" lat="43.363054"><ele>509.75</ele></trkpt>
<trkpt lon="-7.475291" lat="43.363494"><ele>508.75</ele></trkpt>
<trkpt lon="-7.475326" lat="43.363545"><ele>508.75</ele></trkpt>
<trkpt lon="-7.475491" lat="43.363701"><ele>509.25</ele></trkpt>
<trkpt lon="-7.475675" lat="43.363875"><ele>509.75</ele></trkpt>
<trkpt lon="-7.475892" lat="43.363834"><ele>509.25</ele></trkpt>
<trkpt lon="-7.476315" lat="43.363895"><ele>507.5</ele></trkpt>
<trkpt lon="-7.477016" lat="43.364029"><ele>503.75</ele></trkpt>
<trkpt lon="-7.478057" lat="43.364076"><ele>496.5</ele></trkpt>
<trkpt lon="-7.478702" lat="43.364359"><ele>494.5</ele></trkpt>
<trkpt lon="-7.479099" lat="43.364634"><ele>496.25</ele></trkpt>
<trkpt lon="-7.479548" lat="43.364993"><ele>500.25</ele></trkpt>
<trkpt lon="-7.479799" lat="43.364969"><ele>505.0</ele></trkpt>
<trkpt lon="-7.480011" lat="43.364865"><ele>507.5</ele></trkpt>
<trkpt lon="-7.480321" lat="43.364558"><ele>509.5</ele></trkpt>
<trkpt lon="-7.480535" lat="43.364375"><ele>510.25</ele></trkpt>
<trkpt lon="-7.480691" lat="43.364292"><ele>510.0</ele></trkpt>
<trkpt lon="-7.482482" lat="43.363710"><ele>503.5</ele></trkpt>
<trkpt lon="-7.482622" lat="43.363684"><ele>503.5</ele></trkpt>
<trkpt lon="-7.482807" lat="43.363650"><ele>503.5</ele></trkpt>
<trkpt lon="-7.483419" lat="43.363636"><ele>503.75</ele></trkpt>
<trkpt lon="-7.483614" lat="43.363672"><ele>503.75</ele></trkpt>
<trkpt lon="-7.484062" lat="43.363801"><ele>504.25</ele></trkpt>
<trkpt lon="-7.484654" lat="43.363786"><ele>510.0</ele></trkpt>
<trkpt lon="-7.485149" lat="43.363824"><ele>513.25</ele></trkpt>
<trkpt lon="-7.485700" lat="43.363849"><ele>515.5</ele></trkpt>
<trkpt lon="-7.486387" lat="43.363855"><ele>516.0</ele></trkpt>
<trkpt lon="-7.487070" lat="43.363814"><ele>514.75</ele></trkpt>
<trkpt lon="-7.487443" lat="43.363771"><ele>514.25</ele></trkpt>
<trkpt lon="-7.487856" lat="43.363651"><ele>514.25</ele></trkpt>
<trkpt lon="-7.488031" lat="43.363900"><ele>511.75</ele></trkpt>
<trkpt lon="-7.489155" lat="43.364113"><ele>507.25</ele></trkpt>
<trkpt lon="-7.489436" lat="43.364083"><ele>506.5</ele></trkpt>
<trkpt lon="-7.489674" lat="43.364025"><ele>507.0</ele></trkpt>
<trkpt lon="-7.489825" lat="43.363890"><ele>506.5</ele></trkpt>
<trkpt lon="-7.490559" lat="43.362754"><ele>512.75</ele></trkpt>
<trkpt lon="-7.491451" lat="43.361937"><ele>501.0</ele></trkpt>
<trkpt lon="-7.492611" lat="43.361715"><ele>483.5</ele></trkpt>
<trkpt lon="-7.494675" lat="43.360978"><ele>462.75</ele></trkpt>
<trkpt lon="-7.494865" lat="43.360837"><ele>461.75</ele></trkpt>
<trkpt lon="-7.494944" lat="43.360571"><ele>462.0</ele></trkpt>
<trkpt lon="-7.495102" lat="43.360348"><ele>461.5</ele></trkpt>
<trkpt lon="-7.495347" lat="43.360179"><ele>460.5</ele></trkpt>
<trkpt lon="-7.495658" lat="43.359741"><ele>460.0</ele></trkpt>
<trkpt lon="-7.495961" lat="43.359865"><ele>459.75</ele></trkpt>
<trkpt lon="-7.496119" lat="43.359856"><ele>460.5</ele></trkpt>
<trkpt lon="-7.496412" lat="43.359638"><ele>462.5</ele></trkpt>
<trkpt lon="-7.496815" lat="43.359206"><ele>467.0</ele></trkpt>
<trkpt lon="-7.497020" lat="43.359101"><ele>470.0</ele></trkpt>
<trkpt lon="-7.497234" lat="43.359115"><ele>474.25</ele></trkpt>
<trkpt lon="-7.499916" lat="43.360010"><ele>502.75</ele></trkpt>
<trkpt lon="-7.500074" lat="43.360044"><ele>504.25</ele></trkpt>
<trkpt lon="-7.500248" lat="43.359643"><ele>500.5</ele></trkpt>
<trkpt lon="-7.500537" lat="43.359302"><ele>498.25</ele></trkpt>
<trkpt lon="-7.501366" lat="43.358715"><ele>495.0</ele></trkpt>
<trkpt lon="-7.502104" lat="43.358418"><ele>493.75</ele></trkpt>
<trkpt lon="-7.502351" lat="43.358287"><ele>494.0</ele></trkpt>
<trkpt lon="-7.502678" lat="43.358043"><ele>497.5</ele></trkpt>
<trkpt lon="-7.502955" lat="43.357872"><ele>501.25</ele></trkpt>
<trkpt lon="-7.503091" lat="43.357807"><ele>502.0</ele></trkpt>
<trkpt lon="-7.503233" lat="43.357757"><ele>503.25</ele></trkpt>
<trkpt lon="-7.503452" lat="43.357726"><ele>505.25</ele></trkpt>
<trkpt lon="-7.504194" lat="43.357737"><ele>508.75</ele></trkpt>
<trkpt lon="-7.504340" lat="43.357696"><ele>509.25</ele></trkpt>
<trkpt lon="-7.505520" lat="43.356864"><ele>512.25</ele></trkpt>
<trkpt lon="-7.505707" lat="43.356670"><ele>516.25</ele></trkpt>
<trkpt lon="-7.505795" lat="43.356380"><ele>517.25</ele></trkpt>
<trkpt lon="-7.505912" lat="43.355471"><ele>518.25</ele></trkpt>
<trkpt lon="-7.505994" lat="43.354972"><ele>516.5</ele></trkpt>
<trkpt lon="-7.506820" lat="43.354414"><ele>519.5</ele></trkpt>
<trkpt lon="-7.507980" lat="43.353656"><ele>525.75</ele></trkpt>
<trkpt lon="-7.508154" lat="43.353478"><ele>527.25</ele></trkpt>
<trkpt lon="-7.508502" lat="43.352936"><ele>527.5</ele></trkpt>
<trkpt lon="-7.509061" lat="43.352561"><ele>529.0</ele></trkpt>
<trkpt lon="-7.510853" lat="43.351963"><ele>540.25</ele></trkpt>
<trkpt lon="-7.513422" lat="43.351105"><ele>541.75</ele></trkpt>
<trkpt lon="-7.516101" lat="43.350197"><ele>540.25</ele></trkpt>
<trkpt lon="-7.516501" lat="43.349910"><ele>540.75</ele></trkpt>
<trkpt lon="-7.516804" lat="43.349703"><ele>541.75</ele></trkpt>
<trkpt lon="-7.517274" lat="43.349341"><ele>540.25</ele></trkpt>
<trkpt lon="-7.517539" lat="43.349123"><ele>539.75</ele></trkpt>
<trkpt lon="-7.518130" lat="43.348533"><ele>537.75</ele></trkpt>
<trkpt lon="-7.518495" lat="43.348239"><ele>536.75</ele></trkpt>
<trkpt lon="-7.518711" lat="43.348106"><ele>536.0</ele></trkpt>
<trkpt lon="-7.518941" lat="43.347998"><ele>535.75</ele></trkpt>
<trkpt lon="-7.519365" lat="43.347856"><ele>534.75</ele></trkpt>
<trkpt lon="-7.519801" lat="43.347771"><ele>534.0</ele></trkpt>
<trkpt lon="-7.520305" lat="43.347772"><ele>535.75</ele></trkpt>
<trkpt lon="-7.520814" lat="43.347657"><ele>535.0</ele></trkpt>
<trkpt lon="-7.521612" lat="43.347256"><ele>529.5</ele></trkpt>
<trkpt lon="-7.522078" lat="43.346970"><ele>527.0</ele></trkpt>
<trkpt lon="-7.523784" lat="43.346952"><ele>523.25</ele></trkpt>
<trkpt lon="-7.524095" lat="43.346985"><ele>522.5</ele></trkpt>
<trkpt lon="-7.524372" lat="43.347010"><ele>522.0</ele></trkpt>
<trkpt lon="-7.527003" lat="43.346734"><ele>500.25</ele></trkpt>
<trkpt lon="-7.526998" lat="43.346612"><ele>499.25</ele></trkpt>
<trkpt lon="-7.526953" lat="43.346047"><ele>497.75</ele></trkpt>
<trkpt lon="-7.526919" lat="43.345940"><ele>499.5</ele></trkpt>
<trkpt lon="-7.526848" lat="43.345893"><ele>500.5</ele></trkpt>
<trkpt lon="-7.527014" lat="43.345824"><ele>500.5</ele></trkpt>
<trkpt lon="-7.528476" lat="43.345605"><ele>493.0</ele></trkpt>
<trkpt lon="-7.529470" lat="43.345628"><ele>490.25</ele></trkpt>
<trkpt lon="-7.530497" lat="43.345247"><ele>486.25</ele></trkpt>
<trkpt lon="-7.530582" lat="43.345215"><ele>486.25</ele></trkpt>
<trkpt lon="-7.531552" lat="43.345147"><ele>483.5</ele></trkpt>
<trkpt lon="-7.532332" lat="43.345342"><ele>482.25</ele></trkpt>
<trkpt lon="-7.533024" lat="43.345403"><ele>481.0</ele></trkpt>
<trkpt lon="-7.533113" lat="43.345399"><ele>480.75</ele></trkpt>
<trkpt lon="-7.533181" lat="43.345365"><ele>480.5</ele></trkpt>
<trkpt lon="-7.533516" lat="43.345344"><ele>478.75</ele></trkpt>
<trkpt lon="-7.533878" lat="43.345292"><ele>476.0</ele></trkpt>
<trkpt lon="-7.534724" lat="43.345055"><ele>465.75</ele></trkpt>
<trkpt lon="-7.535261" lat="43.344781"><ele>458.5</ele></trkpt>
<trkpt lon="-7.535939" lat="43.344570"><ele>447.0</ele></trkpt>
<trkpt lon="-7.536569" lat="43.344356"><ele>438.5</ele></trkpt>
<trkpt lon="-7.536724" lat="43.344265"><ele>437.75</ele></trkpt>
<trkpt lon="-7.536851" lat="43.344311"><ele>437.25</ele></trkpt>
<trkpt lon="-7.537052" lat="43.344400"><ele>438.0</ele></trkpt>
<trkpt lon="-7.537126" lat="43.344411"><ele>438.25</ele></trkpt>
<trkpt lon="-7.537318" lat="43.344355"><ele>439.75</ele></trkpt>
<trkpt lon="-7.537854" lat="43.344201"><ele>442.5</ele></trkpt>
<trkpt lon="-7.538242" lat="43.344151"><ele>444.25</ele></trkpt>
<trkpt lon="-7.538463" lat="43.344140"><ele>445.75</ele></trkpt>
<trkpt lon="-7.538601" lat="43.344134"><ele>446.75</ele></trkpt>
<trkpt lon="-7.538744" lat="43.344200"><ele>451.5</ele></trkpt>
<trkpt lon="-7.539083" lat="43.344428"><ele>452.25</ele></trkpt>
<trkpt lon="-7.539153" lat="43.344467"><ele>450.75</ele></trkpt>
<trkpt lon="-7.539192" lat="43.344489"><ele>451.25</ele></trkpt>
<trkpt lon="-7.539347" lat="43.344502"><ele>452.5</ele></trkpt>
<trkpt lon="-7.539503" lat="43.344451"><ele>453.0</ele></trkpt>
<trkpt lon="-7.539823" lat="43.344160"><ele>455.0</ele></trkpt>
<trkpt lon="-7.540061" lat="43.344010"><ele>455.5</ele></trkpt>
<trkpt lon="-7.540375" lat="43.343899"><ele>457.0</ele></trkpt>
<trkpt lon="-7.541105" lat="43.343796"><ele>459.75</ele></trkpt>
<trkpt lon="-7.542091" lat="43.343684"><ele>462.5</ele></trkpt>
<trkpt lon="-7.542607" lat="43.343682"><ele>463.75</ele></trkpt>
<trkpt lon="-7.542838" lat="43.343743"><ele>465.0</ele></trkpt>
<trkpt lon="-7.542979" lat="43.343748"><ele>465.5</ele></trkpt>
<trkpt lon="-7.543042" lat="43.343718"><ele>465.5</ele></trkpt>
<trkpt lon="-7.543331" lat="43.343379"><ele>465.0</ele></trkpt>
<trkpt lon="-7.543488" lat="43.343331"><ele>464.75</ele></trkpt>
<trkpt lon="-7.544094" lat="43.343443"><ele>466.0</ele></trkpt>
<trkpt lon="-7.544534" lat="43.343629"><ele>468.0</ele></trkpt>
<trkpt lon="-7.544962" lat="43.343585"><ele>468.5</ele></trkpt>
<trkpt lon="-7.545439" lat="43.343581"><ele>468.75</ele></trkpt>
<trkpt lon="-7.546230" lat="43.343293"><ele>466.5</ele></trkpt>
<trkpt lon="-7.546469" lat="43.343133"><ele>465.0</ele></trkpt>
<trkpt lon="-7.546914" lat="43.342882"><ele>462.5</ele></trkpt>
<trkpt lon="-7.547881" lat="43.342635"><ele>458.5</ele></trkpt>
<trkpt lon="-7.548447" lat="43.342505"><ele>455.5</ele></trkpt>
<trkpt lon="-7.549443" lat="43.342343"><ele>453.25</ele></trkpt>
<trkpt lon="-7.549996" lat="43.342198"><ele>451.75</ele></trkpt>
<trkpt lon="-7.550548" lat="43.342192"><ele>452.75</ele></trkpt>
<trkpt lon="-7.552038" lat="43.341997"><ele>450.0</ele></trkpt>
<trkpt lon="-7.552323" lat="43.341848"><ele>448.25</ele></trkpt>
<trkpt lon="-7.553946" lat="43.340207"><ele>436.25</ele></trkpt>
<trkpt lon="-7.554456" lat="43.339730"><ele>435.0</ele></trkpt>
<trkpt lon="-7.554771" lat="43.339230"><ele>433.75</ele></trkpt>
<trkpt lon="-7.555541" lat="43.338642"><ele>434.0</ele></trkpt>
<trkpt lon="-7.555907" lat="43.338233"><ele>433.25</ele></trkpt>
<trkpt lon="-7.556107" lat="43.338111"><ele>433.0</ele></trkpt>
<trkpt lon="-7.556277" lat="43.338070"><ele>433.0</ele></trkpt>
<trkpt lon="-7.557692" lat="43.337725"><ele>431.0</ele></trkpt>
<trkpt lon="-7.557699" lat="43.337622"><ele>432.25</ele></trkpt>
<trkpt lon="-7.557658" lat="43.337302"><ele>431.0</ele></trkpt>
<trkpt lon="-7.557659" lat="43.337243"><ele>430.25</ele></trkpt>
<trkpt lon="-7.558097" lat="43.336988"><ele>430.75</ele></trkpt>
<trkpt lon="-7.559057" lat="43.336177"><ele>433.0</ele></trkpt>
<trkpt lon="-7.560132" lat="43.335072"><ele>433.0</ele></trkpt>
<trkpt lon="-7.560357" lat="43.334823"><ele>432.75</ele></trkpt>
<trkpt lon="-7.561283" lat="43.333811"><ele>431.25</ele></trkpt>
<trkpt lon="-7.561358" lat="43.333714"><ele>431.0</ele></trkpt>
<trkpt lon="-7.561391" lat="43.333638"><ele>430.75</ele></trkpt>
<trkpt lon="-7.561496" lat="43.333542"><ele>431.0</ele></trkpt>
<trkpt lon="-7.562509" lat="43.332441"><ele>430.25</ele></trkpt>
<trkpt lon="-7.562714" lat="43.332095"><ele>432.0</ele></trkpt>
<trkpt lon="-7.562867" lat="43.331641"><ele>435.0</ele></trkpt>
<trkpt lon="-7.563222" lat="43.331339"><ele>436.0</ele></trkpt>
<trkpt lon="-7.563736" lat="43.331122"><ele>438.25</ele></trkpt>
<trkpt lon="-7.564749" lat="43.330445"><ele>439.5</ele></trkpt>
<trkpt lon="-7.564952" lat="43.330347"><ele>439.0</ele></trkpt>
<trkpt lon="-7.565062" lat="43.330167"><ele>438.75</ele></trkpt>
<trkpt lon="-7.565137" lat="43.330044"><ele>438.5</ele></trkpt>
<trkpt lon="-7.565722" lat="43.329265"><ele>433.5</ele></trkpt>
<trkpt lon="-7.566176" lat="43.328905"><ele>430.0</ele></trkpt>
<trkpt lon="-7.567331" lat="43.328104"><ele>422.0</ele></trkpt>
<trkpt lon="-7.567448" lat="43.327978"><ele>421.25</ele></trkpt>
<trkpt lon="-7.567646" lat="43.327797"><ele>421.75</ele></trkpt>
<trkpt lon="-7.567708" lat="43.327751"><ele>421.75</ele></trkpt>
<trkpt lon="-7.567868" lat="43.327609"><ele>422.5</ele></trkpt>
<trkpt lon="-7.570812" lat="43.326989"><ele>434.75</ele></trkpt>
<trkpt lon="-7.572592" lat="43.326792"><ele>441.5</ele></trkpt>
<trkpt lon="-7.573837" lat="43.326687"><ele>443.0</ele></trkpt>
<trkpt lon="-7.574154" lat="43.326619"><ele>443.0</ele></trkpt>
<trkpt lon="-7.574576" lat="43.326502"><ele>443.0</ele></trkpt>
<trkpt lon="-7.575312" lat="43.326259"><ele>443.0</ele></trkpt>
<trkpt lon="-7.576450" lat="43.325809"><ele>443.0</ele></trkpt>
<trkpt lon="-7.577866" lat="43.325392"><ele>442.75</ele></trkpt>
<trkpt lon="-7.580473" lat="43.324587"><ele>447.0</ele></trkpt>
<trkpt lon="-7.580988" lat="43.324370"><ele>448.25</ele></trkpt>
<trkpt lon="-7.582831" lat="43.323655"><ele>452.0</ele></trkpt>
<trkpt lon="-7.585049" lat="43.322628"><ele>454.0</ele></trkpt>
<trkpt lon="-7.587852" lat="43.320739"><ele>452.25</ele></trkpt>
<trkpt lon="-7.588455" lat="43.320376"><ele>452.0</ele></trkpt>
<trkpt lon="-7.589051" lat="43.319973"><ele>449.75</ele></trkpt>
<trkpt lon="-7.589140" lat="43.319872"><ele>449.5</ele></trkpt>
<trkpt lon="-7.589279" lat="43.319753"><ele>449.75</ele></trkpt>
<trkpt lon="-7.591128" lat="43.319330"><ele>457.0</ele></trkpt>
<trkpt lon="-7.591210" lat="43.319245"><ele>457.25</ele></trkpt>
<trkpt lon="-7.591590" lat="43.319067"><ele>458.5</ele></trkpt>
<trkpt lon="-7.591664" lat="43.319001"><ele>458.75</ele></trkpt>
<trkpt lon="-7.592577" lat="43.318626"><ele>463.0</ele></trkpt>
<trkpt lon="-7.593651" lat="43.318055"><ele>465.75</ele></trkpt>
<trkpt lon="-7.595250" lat="43.317272"><ele>466.75</ele></trkpt>
<trkpt lon="-7.596538" lat="43.316686"><ele>472.75</ele></trkpt>
<trkpt lon="-7.597693" lat="43.316400"><ele>471.25</ele></trkpt>
<trkpt lon="-7.599861" lat="43.316069"><ele>475.0</ele></trkpt>
<trkpt lon="-7.600521" lat="43.316010"><ele>476.0</ele></trkpt>
<trkpt lon="-7.601285" lat="43.315849"><ele>477.5</ele></trkpt>
<trkpt lon="-7.602001" lat="43.316032"><ele>476.5</ele></trkpt>
<trkpt lon="-7.602606" lat="43.316212"><ele>475.5</ele></trkpt>
<trkpt lon="-7.603956" lat="43.316717"><ele>471.75</ele></trkpt>
<trkpt lon="-7.604064" lat="43.316740"><ele>471.5</ele></trkpt>
<trkpt lon="-7.605281" lat="43.317004"><ele>468.75</ele></trkpt>
<trkpt lon="-7.605557" lat="43.317247"><ele>465.75</ele></trkpt>
<trkpt lon="-7.607193" lat="43.317651"><ele>460.25</ele></trkpt>
<trkpt lon="-7.607660" lat="43.317959"><ele>458.0</ele></trkpt>
<trkpt lon="-7.608379" lat="43.318229"><ele>454.75</ele></trkpt>
<trkpt lon="-7.609308" lat="43.318495"><ele>455.75</ele></trkpt>
<trkpt lon="-7.611421" lat="43.318232"><ele>462.0</ele></trkpt>
<trkpt lon="-7.612056" lat="43.318226"><ele>462.75</ele></trkpt>
<trkpt lon="-7.612493" lat="43.318106"><ele>463.75</ele></trkpt>
<trkpt lon="-7.612908" lat="43.317930"><ele>465.25</ele></trkpt>
<trkpt lon="-7.613923" lat="43.318015"><ele>468.25</ele></trkpt>
<trkpt lon="-7.614413" lat="43.318119"><ele>469.25</ele></trkpt>
<trkpt lon="-7.614747" lat="43.318279"><ele>469.0</ele></trkpt>
<trkpt lon="-7.614901" lat="43.318293"><ele>469.0</ele></trkpt>
<trkpt lon="-7.615577" lat="43.318101"><ele>471.0</ele></trkpt>
<trkpt lon="-7.615730" lat="43.318009"><ele>471.5</ele></trkpt>
<trkpt lon="-7.615834" lat="43.317922"><ele>472.0</ele></trkpt>
<trkpt lon="-7.615990" lat="43.317745"><ele>472.0</ele></trkpt>
<trkpt lon="-7.616139" lat="43.317681"><ele>472.25</ele></trkpt>
<trkpt lon="-7.617507" lat="43.317049"><ele>476.0</ele></trkpt>
<trkpt lon="-7.617930" lat="43.316956"><ele>476.75</ele></trkpt>
<trkpt lon="-7.618320" lat="43.316992"><ele>477.0</ele></trkpt>
<trkpt lon="-7.618807" lat="43.317293"><ele>479.0</ele></trkpt>
<trkpt lon="-7.619067" lat="43.317532"><ele>480.5</ele></trkpt>
<trkpt lon="-7.619544" lat="43.317942"><ele>482.5</ele></trkpt>
<trkpt lon="-7.619758" lat="43.317952"><ele>483.0</ele></trkpt>
<trkpt lon="-7.620338" lat="43.317724"><ele>485.0</ele></trkpt>
<trkpt lon="-7.621162" lat="43.317512"><ele>487.0</ele></trkpt>
<trkpt lon="-7.621372" lat="43.317409"><ele>487.75</ele></trkpt>
<trkpt lon="-7.621531" lat="43.317325"><ele>488.5</ele></trkpt>
<trkpt lon="-7.621821" lat="43.317251"><ele>489.5</ele></trkpt>
<trkpt lon="-7.622590" lat="43.317116"><ele>490.5</ele></trkpt>
<trkpt lon="-7.623455" lat="43.316923"><ele>491.0</ele></trkpt>
<trkpt lon="-7.623581" lat="43.316832"><ele>491.0</ele></trkpt>
<trkpt lon="-7.624105" lat="43.316632"><ele>491.0</ele></trkpt>
<trkpt lon="-7.624380" lat="43.316499"><ele>491.0</ele></trkpt>
<trkpt lon="-7.624635" lat="43.316414"><ele>491.0</ele></trkpt>
<trkpt lon="-7.624850" lat="43.316395"><ele>490.5</ele></trkpt>
<trkpt lon="-7.624932" lat="43.316369"><ele>490.25</ele></trkpt>
<trkpt lon="-7.625092" lat="43.316220"><ele>490.5</ele></trkpt>
<trkpt lon="-7.625244" lat="43.316133"><ele>490.75</ele></trkpt>
<trkpt lon="-7.625456" lat="43.316061"><ele>490.25</ele></trkpt>
<trkpt lon="-7.625629" lat="43.316031"><ele>490.0</ele></trkpt>
<trkpt lon="-7.625774" lat="43.316036"><ele>489.25</ele></trkpt>
<trkpt lon="-7.626148" lat="43.316126"><ele>488.75</ele></trkpt>
<trkpt lon="-7.626610" lat="43.316200"><ele>487.5</ele></trkpt>
<trkpt lon="-7.626611" lat="43.316135"><ele>487.75</ele></trkpt>
<trkpt lon="-7.626510" lat="43.315480"><ele>490.25</ele></trkpt>
<trkpt lon="-7.626437" lat="43.314614"><ele>493.0</ele></trkpt>
<trkpt lon="-7.626481" lat="43.313986"><ele>494.25</ele></trkpt>
<trkpt lon="-7.626611" lat="43.313447"><ele>495.5</ele></trkpt>
<trkpt lon="-7.627105" lat="43.312787"><ele>495.75</ele></trkpt>
<trkpt lon="-7.627790" lat="43.311949"><ele>495.75</ele></trkpt>
<trkpt lon="-7.627914" lat="43.312064"><ele>495.0</ele></trkpt>
<trkpt lon="-7.628131" lat="43.312351"><ele>494.0</ele></trkpt>
<trkpt lon="-7.628298" lat="43.312499"><ele>494.0</ele></trkpt>
<trkpt lon="-7.628479" lat="43.312620"><ele>493.0</ele></trkpt>
<trkpt lon="-7.628689" lat="43.312874"><ele>491.5</ele></trkpt>
<trkpt lon="-7.628798" lat="43.313055"><ele>490.5</ele></trkpt>
<trkpt lon="-7.629549" lat="43.313589"><ele>486.25</ele></trkpt>
<trkpt lon="-7.630003" lat="43.313938"><ele>483.75</ele></trkpt>
<trkpt lon="-7.630215" lat="43.314143"><ele>482.25</ele></trkpt>
<trkpt lon="-7.630202" lat="43.314350"><ele>481.75</ele></trkpt>
<trkpt lon="-7.630148" lat="43.314656"><ele>481.0</ele></trkpt>
<trkpt lon="-7.630218" lat="43.314743"><ele>480.75</ele></trkpt>
<trkpt lon="-7.630517" lat="43.314856"><ele>479.5</ele></trkpt>
<trkpt lon="-7.630596" lat="43.314894"><ele>479.0</ele></trkpt>
<trkpt lon="-7.630689" lat="43.315096"><ele>478.0</ele></trkpt>
<trkpt lon="-7.630980" lat="43.315326"><ele>476.25</ele></trkpt>
<trkpt lon="-7.631114" lat="43.315630"><ele>474.75</ele></trkpt>
<trkpt lon="-7.631248" lat="43.315832"><ele>474.75</ele></trkpt>
<trkpt lon="-7.631386" lat="43.315796"><ele>474.75</ele></trkpt>
<trkpt lon="-7.631530" lat="43.315929"><ele>474.25</ele></trkpt>
<trkpt lon="-7.631517" lat="43.316209"><ele>474.25</ele></trkpt>
<trkpt lon="-7.631606" lat="43.316243"><ele>473.75</ele></trkpt>
<trkpt lon="-7.631869" lat="43.316263"><ele>473.25</ele></trkpt>
<trkpt lon="-7.631860" lat="43.316314"><ele>473.25</ele></trkpt>
<trkpt lon="-7.632047" lat="43.316340"><ele>473.0</ele></trkpt>
<trkpt lon="-7.632632" lat="43.316329"><ele>474.0</ele></trkpt>
<trkpt lon="-7.633126" lat="43.316399"><ele>475.25</ele></trkpt>
<trkpt lon="-7.634445" lat="43.316766"><ele>477.75</ele></trkpt>
<trkpt lon="-7.635761" lat="43.317125"><ele>475.5</ele></trkpt>
<trkpt lon="-7.636753" lat="43.317431"><ele>476.5</ele></trkpt>
<trkpt lon="-7.637390" lat="43.317568"><ele>476.5</ele></trkpt>
<trkpt lon="-7.637602" lat="43.317543"><ele>476.0</ele></trkpt>
<trkpt lon="-7.637720" lat="43.317538"><ele>476.0</ele></trkpt>
<trkpt lon="-7.638043" lat="43.317590"><ele>476.25</ele></trkpt>
<trkpt lon="-7.638438" lat="43.317599"><ele>475.25</ele></trkpt>
<trkpt lon="-7.639193" lat="43.317531"><ele>473.0</ele></trkpt>
<trkpt lon="-7.639415" lat="43.317461"><ele>472.25</ele></trkpt>
<trkpt lon="-7.639699" lat="43.317356"><ele>474.25</ele></trkpt>
<trkpt lon="-7.640557" lat="43.317179"><ele>478.0</ele></trkpt>
<trkpt lon="-7.641069" lat="43.317122"><ele>478.75</ele></trkpt>
<trkpt lon="-7.641436" lat="43.317104"><ele>479.5</ele></trkpt>
<trkpt lon="-7.641657" lat="43.317059"><ele>479.75</ele></trkpt>
<trkpt lon="-7.641771" lat="43.317051"><ele>480.0</ele></trkpt>
<trkpt lon="-7.641827" lat="43.317002"><ele>480.0</ele></trkpt>
<trkpt lon="-7.642317" lat="43.316877"><ele>480.75</ele></trkpt>
<trkpt lon="-7.642762" lat="43.316847"><ele>481.5</ele></trkpt>
<trkpt lon="-7.644444" lat="43.316826"><ele>482.75</ele></trkpt>
<trkpt lon="-7.646271" lat="43.317001"><ele>487.5</ele></trkpt>
<trkpt lon="-7.647038" lat="43.317115"><ele>489.0</ele></trkpt>
<trkpt lon="-7.647086" lat="43.317063"><ele>489.0</ele></trkpt>
<trkpt lon="-7.647511" lat="43.316694"><ele>489.0</ele></trkpt>
<trkpt lon="-7.647777" lat="43.316451"><ele>488.0</ele></trkpt>
<trkpt lon="-7.647928" lat="43.316206"><ele>488.0</ele></trkpt>
<trkpt lon="-7.648124" lat="43.315621"><ele>487.0</ele></trkpt>
<trkpt lon="-7.648619" lat="43.315182"><ele>487.25</ele></trkpt>
<trkpt lon="-7.648928" lat="43.314993"><ele>486.0</ele></trkpt>
<trkpt lon="-7.649146" lat="43.314840"><ele>486.25</ele></trkpt>
<trkpt lon="-7.649663" lat="43.314390"><ele>484.75</ele></trkpt>
<trkpt lon="-7.651095" lat="43.313250"><ele>480.0</ele></trkpt>
<trkpt lon="-7.652012" lat="43.312424"><ele>478.75</ele></trkpt>
<trkpt lon="-7.652446" lat="43.312033"><ele>477.25</ele></trkpt>
<trkpt lon="-7.653060" lat="43.311622"><ele>475.75</ele></trkpt>
<trkpt lon="-7.653494" lat="43.311361"><ele>474.25</ele></trkpt>
<trkpt lon="-7.654028" lat="43.311024"><ele>472.75</ele></trkpt>
<trkpt lon="-7.654799" lat="43.310632"><ele>471.25</ele></trkpt>
<trkpt lon="-7.656286" lat="43.310034"><ele>468.25</ele></trkpt>
<trkpt lon="-7.657184" lat="43.309600"><ele>466.5</ele></trkpt>
<trkpt lon="-7.657297" lat="43.309522"><ele>466.0</ele></trkpt>
<trkpt lon="-7.657476" lat="43.309334"><ele>465.25</ele></trkpt>
<trkpt lon="-7.657568" lat="43.309236"><ele>465.5</ele></trkpt>
<trkpt lon="-7.658730" lat="43.308875"><ele>465.25</ele></trkpt>
<trkpt lon="-7.659045" lat="43.308739"><ele>465.0</ele></trkpt>
<trkpt lon="-7.659326" lat="43.308618"><ele>465.5</ele></trkpt>
<trkpt lon="-7.659728" lat="43.308429"><ele>467.0</ele></trkpt>
<trkpt lon="-7.661384" lat="43.307646"><ele>470.0</ele></trkpt>
<trkpt lon="-7.661415" lat="43.307631"><ele>470.0</ele></trkpt>
<trkpt lon="-7.661452" lat="43.307624"><ele>470.0</ele></trkpt>
<trkpt lon="-7.661489" lat="43.307627"><ele>470.25</ele></trkpt>
<trkpt lon="-7.661523" lat="43.307638"><ele>470.25</ele></trkpt>
<trkpt lon="-7.661549" lat="43.307657"><ele>470.5</ele></trkpt>
<trkpt lon="-7.661565" lat="43.307681"><ele>470.5</ele></trkpt>
<trkpt lon="-7.661569" lat="43.307708"><ele>470.5</ele></trkpt>
<trkpt lon="-7.661561" lat="43.307734"><ele>470.5</ele></trkpt>
<trkpt lon="-7.661698" lat="43.307599"><ele>471.0</ele></trkpt>
<trkpt lon="-7.662343" lat="43.307262"><ele>470.0</ele></trkpt>
<trkpt lon="-7.662472" lat="43.307333"><ele>470.75</ele></trkpt>
<trkpt lon="-7.662716" lat="43.307239"><ele>470.75</ele></trkpt>
<trkpt lon="-7.662842" lat="43.307171"><ele>470.75</ele></trkpt>
<trkpt lon="-7.663054" lat="43.307137"><ele>470.25</ele></trkpt>
<trkpt lon="-7.663166" lat="43.307134"><ele>469.75</ele></trkpt>
<trkpt lon="-7.663307" lat="43.307168"><ele>469.0</ele></trkpt>
<trkpt lon="-7.663543" lat="43.307332"><ele>470.25</ele></trkpt>
<trkpt lon="-7.663772" lat="43.307431"><ele>470.25</ele></trkpt>
<trkpt lon="-7.663785" lat="43.307512"><ele>470.25</ele></trkpt>
<trkpt lon="-7.663895" lat="43.307554"><ele>470.5</ele></trkpt>
<trkpt lon="-7.664096" lat="43.307569"><ele>470.0</ele></trkpt>
<trkpt lon="-7.664490" lat="43.307557"><ele>470.75</ele></trkpt>
<trkpt lon="-7.665212" lat="43.307516"><ele>470.0</ele></trkpt>
<trkpt lon="-7.665450" lat="43.307517"><ele>470.5</ele></trkpt>
<trkpt lon="-7.665688" lat="43.307239"><ele>470.0</ele></trkpt>
<trkpt lon="-7.665425" lat="43.307045"><ele>469.5</ele></trkpt>
<trkpt lon="-7.665149" lat="43.306871"><ele>469.0</ele></trkpt>
<trkpt lon="-7.664967" lat="43.306703"><ele>469.0</ele></trkpt>
<trkpt lon="-7.664842" lat="43.306529"><ele>468.25</ele></trkpt>
<trkpt lon="-7.664781" lat="43.306156"><ele>467.0</ele></trkpt>
<trkpt lon="-7.664726" lat="43.306301"><ele>467.0</ele></trkpt>
<trkpt lon="-7.664740" lat="43.306565"><ele>468.25</ele></trkpt>
<trkpt lon="-7.664918" lat="43.306880"><ele>468.75</ele></trkpt>
<trkpt lon="-7.665169" lat="43.307078"><ele>469.25</ele></trkpt>
<trkpt lon="-7.665958" lat="43.307444"><ele>471.0</ele></trkpt>
<trkpt lon="-7.666234" lat="43.307355"><ele>470.25</ele></trkpt>
<trkpt lon="-7.667386" lat="43.306959"><ele>471.0</ele></trkpt>
<trkpt lon="-7.667510" lat="43.306844"><ele>471.0</ele></trkpt>
<trkpt lon="-7.668115" lat="43.306578"><ele>471.25</ele></trkpt>
<trkpt lon="-7.668565" lat="43.306311"><ele>470.0</ele></trkpt>
<trkpt lon="-7.669704" lat="43.305577"><ele>469.0</ele></trkpt>
<trkpt lon="-7.670278" lat="43.305159"><ele>471.0</ele></trkpt>
<trkpt lon="-7.671047" lat="43.304553"><ele>472.0</ele></trkpt>
<trkpt lon="-7.671332" lat="43.304345"><ele>472.75</ele></trkpt>
<trkpt lon="-7.671576" lat="43.304094"><ele>473.5</ele></trkpt>
<trkpt lon="-7.671735" lat="43.303945"><ele>474.0</ele></trkpt>
<trkpt lon="-7.671956" lat="43.303647"><ele>474.0</ele></trkpt>
<trkpt lon="-7.672308" lat="43.303192"><ele>475.25</ele></trkpt>
<trkpt lon="-7.672754" lat="43.302818"><ele>476.75</ele></trkpt>
<trkpt lon="-7.673410" lat="43.302291"><ele>477.75</ele></trkpt>
<trkpt lon="-7.674053" lat="43.301826"><ele>479.25</ele></trkpt>
<trkpt lon="-7.674300" lat="43.301617"><ele>479.0</ele></trkpt>
<trkpt lon="-7.674429" lat="43.301509"><ele>479.0</ele></trkpt>
<trkpt lon="-7.674391" lat="43.301474"><ele>478.75</ele></trkpt>
<trkpt lon="-7.674352" lat="43.301439"><ele>479.0</ele></trkpt>
<trkpt lon="-7.674647" lat="43.301303"><ele>479.0</ele></trkpt>
<trkpt lon="-7.674596" lat="43.301247"><ele>479.0</ele></trkpt>
<trkpt lon="-7.674037" lat="43.300635"><ele>480.75</ele></trkpt>
<trkpt lon="-7.675125" lat="43.300130"><ele>481.0</ele></trkpt>
<trkpt lon="-7.675426" lat="43.299934"><ele>481.0</ele></trkpt>
<trkpt lon="-7.675993" lat="43.299879"><ele>480.5</ele></trkpt>
<trkpt lon="-7.676878" lat="43.299803"><ele>478.75</ele></trkpt>
<trkpt lon="-7.677272" lat="43.299789"><ele>478.25</ele></trkpt>
<trkpt lon="-7.677436" lat="43.299768"><ele>478.0</ele></trkpt>
<trkpt lon="-7.677620" lat="43.299678"><ele>477.75</ele></trkpt>
<trkpt lon="-7.677909" lat="43.299475"><ele>478.25</ele></trkpt>
<trkpt lon="-7.678116" lat="43.299318"><ele>479.0</ele></trkpt>
<trkpt lon="-7.678317" lat="43.299158"><ele>479.0</ele></trkpt>
<trkpt lon="-7.678401" lat="43.299084"><ele>479.0</ele></trkpt>
<trkpt lon="-7.678488" lat="43.299013"><ele>479.25</ele></trkpt>
<trkpt lon="-7.678528" lat="43.298990"><ele>479.25</ele></trkpt>
<trkpt lon="-7.678917" lat="43.298786"><ele>479.0</ele></trkpt>
<trkpt lon="-7.678976" lat="43.298755"><ele>479.0</ele></trkpt>
<trkpt lon="-7.679066" lat="43.298718"><ele>479.0</ele></trkpt>
<trkpt lon="-7.679399" lat="43.298549"><ele>480.25</ele></trkpt>
<trkpt lon="-7.680012" lat="43.298212"><ele>480.75</ele></trkpt>
<trkpt lon="-7.680141" lat="43.298158"><ele>480.75</ele></trkpt>
<trkpt lon="-7.680381" lat="43.298079"><ele>480.5</ele></trkpt>
<trkpt lon="-7.680447" lat="43.298057"><ele>480.25</ele></trkpt>
<trkpt lon="-7.680488" lat="43.298045"><ele>480.25</ele></trkpt>
<trkpt lon="-7.680794" lat="43.297957"><ele>478.75</ele></trkpt>
<trkpt lon="-7.680834" lat="43.297946"><ele>478.75</ele></trkpt>
<trkpt lon="-7.681065" lat="43.297880"><ele>478.5</ele></trkpt>
<trkpt lon="-7.681035" lat="43.297978"><ele>478.25</ele></trkpt>
  </trkseg></trk></gpx>
