<?xml version="1.0" encoding="UTF-8"?>
<gpx version="1.1" creator="compostel-brouter" xmlns="http://www.topografix.com/GPX/1/1">
  <metadata><name>ES-33-Mondonedo</name></metadata>
  <trk><name>ES-33-Mondonedo</name><trkseg>
<trkpt lon="-7.298591" lat="43.468939"><ele>63.25</ele></trkpt>
<trkpt lon="-7.299364" lat="43.468449"><ele>77.25</ele></trkpt>
<trkpt lon="-7.299630" lat="43.468345"><ele>80.0</ele></trkpt>
<trkpt lon="-7.300422" lat="43.468128"><ele>86.0</ele></trkpt>
<trkpt lon="-7.300605" lat="43.468063"><ele>86.25</ele></trkpt>
<trkpt lon="-7.300806" lat="43.467938"><ele>86.0</ele></trkpt>
<trkpt lon="-7.300909" lat="43.467888"><ele>85.75</ele></trkpt>
<trkpt lon="-7.301032" lat="43.467863"><ele>85.75</ele></trkpt>
<trkpt lon="-7.301148" lat="43.467847"><ele>86.0</ele></trkpt>
<trkpt lon="-7.301319" lat="43.467845"><ele>86.5</ele></trkpt>
<trkpt lon="-7.301416" lat="43.467854"><ele>86.75</ele></trkpt>
<trkpt lon="-7.302087" lat="43.468003"><ele>91.5</ele></trkpt>
<trkpt lon="-7.302317" lat="43.467957"><ele>93.0</ele></trkpt>
<trkpt lon="-7.302650" lat="43.467941"><ele>95.0</ele></trkpt>
<trkpt lon="-7.302813" lat="43.467918"><ele>96.0</ele></trkpt>
<trkpt lon="-7.303681" lat="43.467844"><ele>101.75</ele></trkpt>
<trkpt lon="-7.303773" lat="43.467877"><ele>102.5</ele></trkpt>
<trkpt lon="-7.304258" lat="43.467808"><ele>106.0</ele></trkpt>
<trkpt lon="-7.304810" lat="43.467739"><ele>110.25</ele></trkpt>
<trkpt lon="-7.305404" lat="43.467673"><ele>116.25</ele></trkpt>
<trkpt lon="-7.305896" lat="43.467590"><ele>122.0</ele></trkpt>
<trkpt lon="-7.306047" lat="43.467515"><ele>125.0</ele></trkpt>
<trkpt lon="-7.306090" lat="43.467418"><ele>127.0</ele></trkpt>
<trkpt lon="-7.306084" lat="43.467335"><ele>128.5</ele></trkpt>
<trkpt lon="-7.306096" lat="43.467214"><ele>130.75</ele></trkpt>
<trkpt lon="-7.306145" lat="43.467107"><ele>132.5</ele></trkpt>
<trkpt lon="-7.306618" lat="43.466590"><ele>143.75</ele></trkpt>
<trkpt lon="-7.306784" lat="43.466383"><ele>147.5</ele></trkpt>
<trkpt lon="-7.306838" lat="43.466248"><ele>149.0</ele></trkpt>
<trkpt lon="-7.306970" lat="43.466269"><ele>150.25</ele></trkpt>
<trkpt lon="-7.307038" lat="43.466255"><ele>151.5</ele></trkpt>
<trkpt lon="-7.307230" lat="43.466135"><ele>155.0</ele></trkpt>
<trkpt lon="-7.307447" lat="43.465923"><ele>158.0</ele></trkpt>
<trkpt lon="-7.307558" lat="43.465766"><ele>160.0</ele></trkpt>
<trkpt lon="-7.307913" lat="43.465297"><ele>163.0</ele></trkpt>
<trkpt lon="-7.309393" lat="43.464381"><ele>174.5</ele></trkpt>
<trkpt lon="-7.310193" lat="43.464092"><ele>180.75</ele></trkpt>
<trkpt lon="-7.310991" lat="43.463553"><ele>186.0</ele></trkpt>
<trkpt lon="-7.311397" lat="43.463218"><ele>189.25</ele></trkpt>
<trkpt lon="-7.311789" lat="43.462859"><ele>190.25</ele></trkpt>
<trkpt lon="-7.312590" lat="43.462455"><ele>195.75</ele></trkpt>
<trkpt lon="-7.312780" lat="43.462326"><ele>197.5</ele></trkpt>
<trkpt lon="-7.313337" lat="43.461891"><ele>200.25</ele></trkpt>
<trkpt lon="-7.313756" lat="43.461663"><ele>203.0</ele></trkpt>
<trkpt lon="-7.314076" lat="43.461382"><ele>203.5</ele></trkpt>
<trkpt lon="-7.314539" lat="43.460816"><ele>204.5</ele></trkpt>
<trkpt lon="-7.315164" lat="43.460205"><ele>213.75</ele></trkpt>
<trkpt lon="-7.315612" lat="43.459559"><ele>222.75</ele></trkpt>
<trkpt lon="-7.315842" lat="43.459293"><ele>225.5</ele></trkpt>
<trkpt lon="-7.315974" lat="43.459049"><ele>226.5</ele></trkpt>
<trkpt lon="-7.316047" lat="43.458939"><ele>227.25</ele></trkpt>
<trkpt lon="-7.316795" lat="43.458297"><ele>236.5</ele></trkpt>
<trkpt lon="-7.316867" lat="43.458242"><ele>237.5</ele></trkpt>
<trkpt lon="-7.316921" lat="43.458142"><ele>237.75</ele></trkpt>
<trkpt lon="-7.316930" lat="43.458050"><ele>237.5</ele></trkpt>
<trkpt lon="-7.317019" lat="43.457937"><ele>237.0</ele></trkpt>
<trkpt lon="-7.317348" lat="43.457552"><ele>236.0</ele></trkpt>
<trkpt lon="-7.317791" lat="43.456968"><ele>233.5</ele></trkpt>
<trkpt lon="-7.317971" lat="43.456787"><ele>232.75</ele></trkpt>
<trkpt lon="-7.318387" lat="43.456709"><ele>234.75</ele></trkpt>
<trkpt lon="-7.318541" lat="43.456700"><ele>235.75</ele></trkpt>
<trkpt lon="-7.318688" lat="43.456699"><ele>237.0</ele></trkpt>
<trkpt lon="-7.319046" lat="43.456673"><ele>238.5</ele></trkpt>
<trkpt lon="-7.319072" lat="43.456514"><ele>237.0</ele></trkpt>
<trkpt lon="-7.319514" lat="43.456149"><ele>235.0</ele></trkpt>
<trkpt lon="-7.320278" lat="43.455585"><ele>236.0</ele></trkpt>
<trkpt lon="-7.320585" lat="43.455250"><ele>237.0</ele></trkpt>
<trkpt lon="-7.320718" lat="43.455206"><ele>236.75</ele></trkpt>
<trkpt lon="-7.320778" lat="43.454792"><ele>236.0</ele></trkpt>
<trkpt lon="-7.320886" lat="43.454382"><ele>232.75</ele></trkpt>
<trkpt lon="-7.321092" lat="43.453965"><ele>228.5</ele></trkpt>
<trkpt lon="-7.321393" lat="43.453536"><ele>223.5</ele></trkpt>
<trkpt lon="-7.321538" lat="43.453355"><ele>222.5</ele></trkpt>
<trkpt lon="-7.322037" lat="43.452992"><ele>232.0</ele></trkpt>
<trkpt lon="-7.322449" lat="43.452703"><ele>219.0</ele></trkpt>
<trkpt lon="-7.322738" lat="43.452531"><ele>214.25</ele></trkpt>
<trkpt lon="-7.323438" lat="43.452172"><ele>209.0</ele></trkpt>
<trkpt lon="-7.323787" lat="43.452070"><ele>207.0</ele></trkpt>
<trkpt lon="-7.324238" lat="43.451952"><ele>203.25</ele></trkpt>
<trkpt lon="-7.324596" lat="43.451874"><ele>202.0</ele></trkpt>
<trkpt lon="-7.325735" lat="43.451715"><ele>197.0</ele></trkpt>
<trkpt lon="-7.325943" lat="43.451701"><ele>195.75</ele></trkpt>
<trkpt lon="-7.326263" lat="43.451649"><ele>193.0</ele></trkpt>
<trkpt lon="-7.327252" lat="43.451441"><ele>182.75</ele></trkpt>
<trkpt lon="-7.327534" lat="43.451366"><ele>180.25</ele></trkpt>
<trkpt lon="-7.327662" lat="43.451290"><ele>181.25</ele></trkpt>
<trkpt lon="-7.327718" lat="43.451288"><ele>181.5</ele></trkpt>
<trkpt lon="-7.327780" lat="43.451295"><ele>181.5</ele></trkpt>
<trkpt lon="-7.327973" lat="43.451345"><ele>182.25</ele></trkpt>
<trkpt lon="-7.328205" lat="43.451342"><ele>183.0</ele></trkpt>
<trkpt lon="-7.328305" lat="43.451316"><ele>182.75</ele></trkpt>
<trkpt lon="-7.328366" lat="43.451295"><ele>182.5</ele></trkpt>
<trkpt lon="-7.328678" lat="43.451273"><ele>181.5</ele></trkpt>
<trkpt lon="-7.329148" lat="43.451226"><ele>182.0</ele></trkpt>
<trkpt lon="-7.329188" lat="43.451205"><ele>182.0</ele></trkpt>
<trkpt lon="-7.329301" lat="43.451011"><ele>182.75</ele></trkpt>
<trkpt lon="-7.329200" lat="43.450959"><ele>183.5</ele></trkpt>
<trkpt lon="-7.329051" lat="43.450908"><ele>184.25</ele></trkpt>
<trkpt lon="-7.328960" lat="43.450892"><ele>184.5</ele></trkpt>
<trkpt lon="-7.328709" lat="43.450793"><ele>185.75</ele></trkpt>
<trkpt lon="-7.328585" lat="43.450682"><ele>187.0</ele></trkpt>
<trkpt lon="-7.328539" lat="43.450669"><ele>187.25</ele></trkpt>
<trkpt lon="-7.328350" lat="43.450616"><ele>187.75</ele></trkpt>
<trkpt lon="-7.328910" lat="43.450602"><ele>188.25</ele></trkpt>
<trkpt lon="-7.329333" lat="43.450554"><ele>189.0</ele></trkpt>
<trkpt lon="-7.329485" lat="43.450545"><ele>188.75</ele></trkpt>
<trkpt lon="-7.329732" lat="43.450554"><ele>188.0</ele></trkpt>
<trkpt lon="-7.330015" lat="43.450536"><ele>189.25</ele></trkpt>
<trkpt lon="-7.330188" lat="43.450579"><ele>190.0</ele></trkpt>
<trkpt lon="-7.330542" lat="43.450737"><ele>189.75</ele></trkpt>
<trkpt lon="-7.330995" lat="43.450864"><ele>193.0</ele></trkpt>
<trkpt lon="-7.331965" lat="43.450671"><ele>198.0</ele></trkpt>
<trkpt lon="-7.332971" lat="43.450592"><ele>192.75</ele></trkpt>
<trkpt lon="-7.333778" lat="43.450415"><ele>193.0</ele></trkpt>
<trkpt lon="-7.334985" lat="43.450173"><ele>188.5</ele></trkpt>
<trkpt lon="-7.335211" lat="43.450138"><ele>187.25</ele></trkpt>
<trkpt lon="-7.335419" lat="43.450072"><ele>186.5</ele></trkpt>
<trkpt lon="-7.335791" lat="43.450066"><ele>184.0</ele></trkpt>
<trkpt lon="-7.337132" lat="43.449967"><ele>169.75</ele></trkpt>
<trkpt lon="-7.338102" lat="43.449908"><ele>165.25</ele></trkpt>
<trkpt lon="-7.338684" lat="43.449728"><ele>160.75</ele></trkpt>
<trkpt lon="-7.339224" lat="43.449462"><ele>154.5</ele></trkpt>
<trkpt lon="-7.339489" lat="43.449434"><ele>153.75</ele></trkpt>
<trkpt lon="-7.339659" lat="43.449432"><ele>153.25</ele></trkpt>
<trkpt lon="-7.340164" lat="43.449409"><ele>149.0</ele></trkpt>
<trkpt lon="-7.340200" lat="43.449306"><ele>148.75</ele></trkpt>
<trkpt lon="-7.340167" lat="43.449155"><ele>149.0</ele></trkpt>
<trkpt lon="-7.340042" lat="43.448723"><ele>149.75</ele></trkpt>
<trkpt lon="-7.340088" lat="43.448559"><ele>150.0</ele></trkpt>
<trkpt lon="-7.340233" lat="43.448374"><ele>151.25</ele></trkpt>
<trkpt lon="-7.340610" lat="43.448276"><ele>152.25</ele></trkpt>
<trkpt lon="-7.340788" lat="43.448187"><ele>154.75</ele></trkpt>
<trkpt lon="-7.340949" lat="43.448078"><ele>157.0</ele></trkpt>
<trkpt lon="-7.341224" lat="43.447659"><ele>162.0</ele></trkpt>
<trkpt lon="-7.341261" lat="43.447595"><ele>163.0</ele></trkpt>
<trkpt lon="-7.341357" lat="43.447550"><ele>164.0</ele></trkpt>
<trkpt lon="-7.341530" lat="43.447424"><ele>165.75</ele></trkpt>
<trkpt lon="-7.341695" lat="43.447284"><ele>167.25</ele></trkpt>
<trkpt lon="-7.341799" lat="43.447125"><ele>168.75</ele></trkpt>
<trkpt lon="-7.341788" lat="43.446902"><ele>170.75</ele></trkpt>
<trkpt lon="-7.341694" lat="43.446860"><ele>171.75</ele></trkpt>
<trkpt lon="-7.341295" lat="43.446821"><ele>172.5</ele></trkpt>
<trkpt lon="-7.340813" lat="43.446617"><ele>179.0</ele></trkpt>
<trkpt lon="-7.340286" lat="43.446272"><ele>187.25</ele></trkpt>
<trkpt lon="-7.340276" lat="43.446096"><ele>191.0</ele></trkpt>
<trkpt lon="-7.340236" lat="43.446027"><ele>192.0</ele></trkpt>
<trkpt lon="-7.340179" lat="43.445968"><ele>193.25</ele></trkpt>
<trkpt lon="-7.340148" lat="43.445612"><ele>195.25</ele></trkpt>
<trkpt lon="-7.340192" lat="43.445346"><ele>195.75</ele></trkpt>
<trkpt lon="-7.340276" lat="43.445154"><ele>197.5</ele></trkpt>
<trkpt lon="-7.340505" lat="43.444899"><ele>198.25</ele></trkpt>
<trkpt lon="-7.340976" lat="43.444577"><ele>195.5</ele></trkpt>
<trkpt lon="-7.341246" lat="43.444310"><ele>195.25</ele></trkpt>
<trkpt lon="-7.341769" lat="43.443879"><ele>192.25</ele></trkpt>
<trkpt lon="-7.341905" lat="43.443769"><ele>191.5</ele></trkpt>
<trkpt lon="-7.342318" lat="43.443379"><ele>186.5</ele></trkpt>
<trkpt lon="-7.342581" lat="43.443247"><ele>186.75</ele></trkpt>
<trkpt lon="-7.342862" lat="43.443228"><ele>186.25</ele></trkpt>
<trkpt lon="-7.343478" lat="43.442931"><ele>186.25</ele></trkpt>
<trkpt lon="-7.343856" lat="43.442457"><ele>186.25</ele></trkpt>
<trkpt lon="-7.344149" lat="43.442273"><ele>183.5</ele></trkpt>
<trkpt lon="-7.344367" lat="43.442286"><ele>182.25</ele></trkpt>
<trkpt lon="-7.344593" lat="43.442326"><ele>180.75</ele></trkpt>
<trkpt lon="-7.344693" lat="43.442490"><ele>175.25</ele></trkpt>
<trkpt lon="-7.344847" lat="43.442530"><ele>173.5</ele></trkpt>
<trkpt lon="-7.345101" lat="43.442484"><ele>172.75</ele></trkpt>
<trkpt lon="-7.345363" lat="43.442315"><ele>173.25</ele></trkpt>
<trkpt lon="-7.345597" lat="43.442411"><ele>170.5</ele></trkpt>
<trkpt lon="-7.345777" lat="43.442554"><ele>166.75</ele></trkpt>
<trkpt lon="-7.346277" lat="43.442822"><ele>160.25</ele></trkpt>
<trkpt lon="-7.346377" lat="43.442857"><ele>159.5</ele></trkpt>
<trkpt lon="-7.347068" lat="43.443061"><ele>150.75</ele></trkpt>
<trkpt lon="-7.347337" lat="43.443087"><ele>148.75</ele></trkpt>
<trkpt lon="-7.347586" lat="43.443071"><ele>145.5</ele></trkpt>
<trkpt lon="-7.348319" lat="43.442909"><ele>139.75</ele></trkpt>
<trkpt lon="-7.349071" lat="43.442689"><ele>131.25</ele></trkpt>
<trkpt lon="-7.349344" lat="43.442642"><ele>128.5</ele></trkpt>
<trkpt lon="-7.349570" lat="43.442634"><ele>126.0</ele></trkpt>
<trkpt lon="-7.349680" lat="43.442678"><ele>124.5</ele></trkpt>
<trkpt lon="-7.349776" lat="43.442755"><ele>122.75</ele></trkpt>
<trkpt lon="-7.349955" lat="43.442999"><ele>117.5</ele></trkpt>
<trkpt lon="-7.350025" lat="43.443051"><ele>115.75</ele></trkpt>
<trkpt lon="-7.350086" lat="43.443070"><ele>114.75</ele></trkpt>
<trkpt lon="-7.350223" lat="43.443045"><ele>113.5</ele></trkpt>
<trkpt lon="-7.350431" lat="43.442996"><ele>111.75</ele></trkpt>
<trkpt lon="-7.350782" lat="43.442966"><ele>107.25</ele></trkpt>
<trkpt lon="-7.350900" lat="43.442931"><ele>105.5</ele></trkpt>
<trkpt lon="-7.350996" lat="43.442843"><ele>103.75</ele></trkpt>
<trkpt lon="-7.351210" lat="43.442604"><ele>99.25</ele></trkpt>
<trkpt lon="-7.351256" lat="43.442508"><ele>98.25</ele></trkpt>
<trkpt lon="-7.351326" lat="43.442260"><ele>96.75</ele></trkpt>
<trkpt lon="-7.351385" lat="43.442111"><ele>95.0</ele></trkpt>
<trkpt lon="-7.351454" lat="43.442022"><ele>93.75</ele></trkpt>
<trkpt lon="-7.351562" lat="43.441941"><ele>91.75</ele></trkpt>
<trkpt lon="-7.351794" lat="43.441831"><ele>89.75</ele></trkpt>
<trkpt lon="-7.352025" lat="43.441851"><ele>89.0</ele></trkpt>
<trkpt lon="-7.352192" lat="43.441878"><ele>89.0</ele></trkpt>
<trkpt lon="-7.352369" lat="43.441922"><ele>88.75</ele></trkpt>
<trkpt lon="-7.352515" lat="43.441842"><ele>88.5</ele></trkpt>
<trkpt lon="-7.352630" lat="43.441716"><ele>88.0</ele></trkpt>
<trkpt lon="-7.352970" lat="43.441376"><ele>88.0</ele></trkpt>
<trkpt lon="-7.353016" lat="43.441389"><ele>88.0</ele></trkpt>
<trkpt lon="-7.353824" lat="43.440589"><ele>88.75</ele></trkpt>
<trkpt lon="-7.354719" lat="43.439758"><ele>90.75</ele></trkpt>
<trkpt lon="-7.354829" lat="43.439755"><ele>90.25</ele></trkpt>
<trkpt lon="-7.354959" lat="43.439728"><ele>90.0</ele></trkpt>
<trkpt lon="-7.355162" lat="43.439688"><ele>90.0</ele></trkpt>
<trkpt lon="-7.356452" lat="43.439416"><ele>91.0</ele></trkpt>
<trkpt lon="-7.357029" lat="43.439264"><ele>92.0</ele></trkpt>
<trkpt lon="-7.357421" lat="43.439087"><ele>92.75</ele></trkpt>
<trkpt lon="-7.357627" lat="43.439005"><ele>93.0</ele></trkpt>
<trkpt lon="-7.357716" lat="43.439006"><ele>93.0</ele></trkpt>
<trkpt lon="-7.357751" lat="43.438847"><ele>93.0</ele></trkpt>
<trkpt lon="-7.357865" lat="43.438434"><ele>93.0</ele></trkpt>
<trkpt lon="-7.357995" lat="43.438119"><ele>93.75</ele></trkpt>
<trkpt lon="-7.358046" lat="43.438036"><ele>94.0</ele></trkpt>
<trkpt lon="-7.358096" lat="43.438053"><ele>94.0</ele></trkpt>
<trkpt lon="-7.358399" lat="43.437675"><ele>95.25</ele></trkpt>
<trkpt lon="-7.359192" lat="43.436676"><ele>99.0</ele></trkpt>
<trkpt lon="-7.360321" lat="43.435278"><ele>105.75</ele></trkpt>
<trkpt lon="-7.360259" lat="43.435252"><ele>106.0</ele></trkpt>
<trkpt lon="-7.360212" lat="43.435233"><ele>105.75</ele></trkpt>
<trkpt lon="-7.360167" lat="43.435290"><ele>105.5</ele></trkpt>
<trkpt lon="-7.360122" lat="43.435301"><ele>105.25</ele></trkpt>
<trkpt lon="-7.360084" lat="43.435301"><ele>105.25</ele></trkpt>
<trkpt lon="-7.360047" lat="43.435291"><ele>105.0</ele></trkpt>
<trkpt lon="-7.359993" lat="43.435247"><ele>105.0</ele></trkpt>
<trkpt lon="-7.359969" lat="43.435203"><ele>105.5</ele></trkpt>
<trkpt lon="-7.359945" lat="43.435159"><ele>105.75</ele></trkpt>
<trkpt lon="-7.359899" lat="43.435015"><ele>106.5</ele></trkpt>
<trkpt lon="-7.359565" lat="43.433921"><ele>109.75</ele></trkpt>
<trkpt lon="-7.359512" lat="43.433702"><ele>110.75</ele></trkpt>
<trkpt lon="-7.359496" lat="43.433602"><ele>111.0</ele></trkpt>
<trkpt lon="-7.359498" lat="43.433498"><ele>111.5</ele></trkpt>
<trkpt lon="-7.359516" lat="43.433408"><ele>111.75</ele></trkpt>
<trkpt lon="-7.359560" lat="43.433283"><ele>112.25</ele></trkpt>
<trkpt lon="-7.359618" lat="43.433141"><ele>112.5</ele></trkpt>
<trkpt lon="-7.359769" lat="43.432868"><ele>113.0</ele></trkpt>
<trkpt lon="-7.359904" lat="43.432612"><ele>113.75</ele></trkpt>
<trkpt lon="-7.360289" lat="43.431966"><ele>115.75</ele></trkpt>
<trkpt lon="-7.360319" lat="43.431930"><ele>116.0</ele></trkpt>
<trkpt lon="-7.360348" lat="43.431911"><ele>116.0</ele></trkpt>
<trkpt lon="-7.360370" lat="43.431912"><ele>116.0</ele></trkpt>
<trkpt lon="-7.360481" lat="43.431973"><ele>115.75</ele></trkpt>
<trkpt lon="-7.360524" lat="43.431938"><ele>116.0</ele></trkpt>
<trkpt lon="-7.360298" lat="43.431842"><ele>116.0</ele></trkpt>
<trkpt lon="-7.360429" lat="43.431762"><ele>116.0</ele></trkpt>
<trkpt lon="-7.360527" lat="43.431663"><ele>115.75</ele></trkpt>
<trkpt lon="-7.361204" lat="43.430987"><ele>116.75</ele></trkpt>
<trkpt lon="-7.361494" lat="43.430685"><ele>118.5</ele></trkpt>
<trkpt lon="-7.361656" lat="43.430512"><ele>120.0</ele></trkpt>
<trkpt lon="-7.361839" lat="43.430304"><ele>121.5</ele></trkpt>
<trkpt lon="-7.361918" lat="43.430186"><ele>122.0</ele></trkpt>
<trkpt lon="-7.362032" lat="43.430043"><ele>122.75</ele></trkpt>
<trkpt lon="-7.362143" lat="43.429871"><ele>125.25</ele></trkpt>
<trkpt lon="-7.362159" lat="43.429756"><ele>125.0</ele></trkpt>
<trkpt lon="-7.362160" lat="43.429686"><ele>125.5</ele></trkpt>
<trkpt lon="-7.362169" lat="43.429327"><ele>129.75</ele></trkpt>
<trkpt lon="-7.362145" lat="43.429147"><ele>129.5</ele></trkpt>
<trkpt lon="-7.362384" lat="43.429008"><ele>131.0</ele></trkpt>
<trkpt lon="-7.362785" lat="43.428826"><ele>131.0</ele></trkpt>
<trkpt lon="-7.363060" lat="43.428653"><ele>129.75</ele></trkpt>
<trkpt lon="-7.363098" lat="43.428609"><ele>129.25</ele></trkpt>
<trkpt lon="-7.362999" lat="43.428451"><ele>127.5</ele></trkpt>
<trkpt lon="-7.362993" lat="43.428351"><ele>126.75</ele></trkpt>
<trkpt lon="-7.363048" lat="43.428355"><ele>127.0</ele></trkpt>
<trkpt lon="-7.363046" lat="43.428333"><ele>126.75</ele></trkpt>
<trkpt lon="-7.363112" lat="43.428334"><ele>127.0</ele></trkpt>
<trkpt lon="-7.363114" lat="43.428289"><ele>127.0</ele></trkpt>
<trkpt lon="-7.363095" lat="43.428288"><ele>127.0</ele></trkpt>
<trkpt lon="-7.363107" lat="43.428159"><ele>127.0</ele></trkpt>
<trkpt lon="-7.363114" lat="43.428084"><ele>127.0</ele></trkpt>
<trkpt lon="-7.363132" lat="43.428085"><ele>127.0</ele></trkpt>
<trkpt lon="-7.363135" lat="43.428038"><ele>126.75</ele></trkpt>
<trkpt lon="-7.363120" lat="43.427969"><ele>126.75</ele></trkpt>
<trkpt lon="-7.363099" lat="43.427972"><ele>126.75</ele></trkpt>
  </trkseg></trk></gpx>
