<?xml version="1.0" encoding="UTF-8"?>
<gpx version="1.1" creator="compostel-brouter" xmlns="http://www.topografix.com/GPX/1/1">
  <metadata><name>ES-35-Miraz</name></metadata>
  <trk><name>ES-35-Miraz</name><trkseg>
<trkpt lon="-7.681039" lat="43.297982"><ele>478.0</ele></trkpt>
<trkpt lon="-7.681035" lat="43.297978"><ele>478.25</ele></trkpt>
<trkpt lon="-7.681065" lat="43.297880"><ele>478.5</ele></trkpt>
<trkpt lon="-7.681421" lat="43.297775"><ele>477.75</ele></trkpt>
<trkpt lon="-7.681676" lat="43.297703"><ele>477.25</ele></trkpt>
<trkpt lon="-7.681842" lat="43.297768"><ele>477.0</ele></trkpt>
<trkpt lon="-7.681824" lat="43.297838"><ele>476.75</ele></trkpt>
<trkpt lon="-7.681808" lat="43.297871"><ele>476.5</ele></trkpt>
<trkpt lon="-7.681764" lat="43.297926"><ele>476.5</ele></trkpt>
<trkpt lon="-7.681784" lat="43.297984"><ele>476.25</ele></trkpt>
<trkpt lon="-7.681911" lat="43.298251"><ele>473.75</ele></trkpt>
<trkpt lon="-7.682516" lat="43.298190"><ele>473.25</ele></trkpt>
<trkpt lon="-7.682738" lat="43.298173"><ele>472.0</ele></trkpt>
<trkpt lon="-7.682937" lat="43.298333"><ele>471.25</ele></trkpt>
<trkpt lon="-7.682946" lat="43.298351"><ele>471.25</ele></trkpt>
<trkpt lon="-7.683113" lat="43.298257"><ele>470.75</ele></trkpt>
<trkpt lon="-7.683208" lat="43.298207"><ele>470.75</ele></trkpt>
<trkpt lon="-7.683479" lat="43.298054"><ele>468.75</ele></trkpt>
<trkpt lon="-7.683601" lat="43.297988"><ele>468.25</ele></trkpt>
<trkpt lon="-7.683702" lat="43.297967"><ele>467.5</ele></trkpt>
<trkpt lon="-7.683872" lat="43.297895"><ele>465.25</ele></trkpt>
<trkpt lon="-7.683909" lat="43.297876"><ele>464.75</ele></trkpt>
<trkpt lon="-7.683858" lat="43.297808"><ele>464.75</ele></trkpt>
<trkpt lon="-7.684068" lat="43.297697"><ele>462.75</ele></trkpt>
<trkpt lon="-7.684271" lat="43.297578"><ele>460.75</ele></trkpt>
<trkpt lon="-7.684386" lat="43.297496"><ele>459.5</ele></trkpt>
<trkpt lon="-7.684455" lat="43.297384"><ele>458.75</ele></trkpt>
<trkpt lon="-7.684529" lat="43.297172"><ele>457.5</ele></trkpt>
<trkpt lon="-7.684632" lat="43.296938"><ele>455.75</ele></trkpt>
<trkpt lon="-7.684695" lat="43.296659"><ele>455.25</ele></trkpt>
<trkpt lon="-7.684792" lat="43.296489"><ele>456.0</ele></trkpt>
<trkpt lon="-7.684855" lat="43.296251"><ele>456.0</ele></trkpt>
<trkpt lon="-7.684856" lat="43.296112"><ele>456.0</ele></trkpt>
<trkpt lon="-7.684819" lat="43.296008"><ele>455.5</ele></trkpt>
<trkpt lon="-7.684758" lat="43.295739"><ele>453.0</ele></trkpt>
<trkpt lon="-7.684796" lat="43.295593"><ele>451.5</ele></trkpt>
<trkpt lon="-7.684861" lat="43.295402"><ele>449.25</ele></trkpt>
<trkpt lon="-7.684907" lat="43.295223"><ele>446.5</ele></trkpt>
<trkpt lon="-7.684873" lat="43.295069"><ele>444.0</ele></trkpt>
<trkpt lon="-7.684764" lat="43.294914"><ele>443.25</ele></trkpt>
<trkpt lon="-7.684707" lat="43.294748"><ele>442.25</ele></trkpt>
<trkpt lon="-7.684715" lat="43.294417"><ele>440.75</ele></trkpt>
<trkpt lon="-7.684746" lat="43.294362"><ele>440.0</ele></trkpt>
<trkpt lon="-7.684894" lat="43.294178"><ele>437.25</ele></trkpt>
<trkpt lon="-7.685003" lat="43.294012"><ele>434.75</ele></trkpt>
<trkpt lon="-7.685215" lat="43.293589"><ele>432.5</ele></trkpt>
<trkpt lon="-7.685276" lat="43.293333"><ele>434.0</ele></trkpt>
<trkpt lon="-7.685412" lat="43.293275"><ele>433.0</ele></trkpt>
<trkpt lon="-7.685992" lat="43.292981"><ele>428.75</ele></trkpt>
<trkpt lon="-7.686367" lat="43.292665"><ele>425.5</ele></trkpt>
<trkpt lon="-7.686491" lat="43.292521"><ele>424.25</ele></trkpt>
<trkpt lon="-7.686549" lat="43.292413"><ele>423.25</ele></trkpt>
<trkpt lon="-7.687091" lat="43.291300"><ele>418.25</ele></trkpt>
<trkpt lon="-7.687250" lat="43.291254"><ele>415.5</ele></trkpt>
<trkpt lon="-7.687358" lat="43.291245"><ele>414.25</ele></trkpt>
<trkpt lon="-7.687697" lat="43.291232"><ele>413.25</ele></trkpt>
<trkpt lon="-7.687780" lat="43.291231"><ele>413.25</ele></trkpt>
<trkpt lon="-7.687780" lat="43.291317"><ele>413.75</ele></trkpt>
<trkpt lon="-7.687829" lat="43.291376"><ele>414.5</ele></trkpt>
<trkpt lon="-7.687989" lat="43.291442"><ele>417.0</ele></trkpt>
<trkpt lon="-7.688113" lat="43.291442"><ele>418.5</ele></trkpt>
<trkpt lon="-7.688329" lat="43.291415"><ele>420.75</ele></trkpt>
<trkpt lon="-7.688691" lat="43.291347"><ele>424.25</ele></trkpt>
<trkpt lon="-7.689397" lat="43.291209"><ele>429.5</ele></trkpt>
<trkpt lon="-7.689551" lat="43.291163"><ele>431.0</ele></trkpt>
<trkpt lon="-7.689611" lat="43.290967"><ele>431.0</ele></trkpt>
<trkpt lon="-7.690093" lat="43.290425"><ele>436.0</ele></trkpt>
<trkpt lon="-7.690469" lat="43.289970"><ele>441.0</ele></trkpt>
<trkpt lon="-7.690800" lat="43.289684"><ele>445.5</ele></trkpt>
<trkpt lon="-7.690909" lat="43.289520"><ele>446.0</ele></trkpt>
<trkpt lon="-7.690884" lat="43.289333"><ele>445.0</ele></trkpt>
<trkpt lon="-7.690772" lat="43.289155"><ele>443.0</ele></trkpt>
<trkpt lon="-7.690732" lat="43.288888"><ele>443.0</ele></trkpt>
<trkpt lon="-7.690732" lat="43.288626"><ele>442.75</ele></trkpt>
<trkpt lon="-7.690903" lat="43.288238"><ele>444.75</ele></trkpt>
<trkpt lon="-7.691039" lat="43.288097"><ele>445.5</ele></trkpt>
<trkpt lon="-7.692560" lat="43.287669"><ele>448.75</ele></trkpt>
<trkpt lon="-7.693674" lat="43.287245"><ele>439.75</ele></trkpt>
<trkpt lon="-7.694393" lat="43.286987"><ele>432.75</ele></trkpt>
<trkpt lon="-7.695133" lat="43.286677"><ele>426.5</ele></trkpt>
<trkpt lon="-7.695271" lat="43.286611"><ele>425.5</ele></trkpt>
<trkpt lon="-7.695347" lat="43.286575"><ele>425.25</ele></trkpt>
<trkpt lon="-7.695655" lat="43.286406"><ele>424.25</ele></trkpt>
<trkpt lon="-7.696201" lat="43.285995"><ele>422.25</ele></trkpt>
<trkpt lon="-7.696499" lat="43.285875"><ele>422.0</ele></trkpt>
<trkpt lon="-7.696925" lat="43.285769"><ele>421.5</ele></trkpt>
<trkpt lon="-7.697195" lat="43.285748"><ele>421.5</ele></trkpt>
<trkpt lon="-7.697782" lat="43.285475"><ele>420.5</ele></trkpt>
<trkpt lon="-7.697975" lat="43.285416"><ele>420.0</ele></trkpt>
<trkpt lon="-7.698343" lat="43.285336"><ele>416.5</ele></trkpt>
<trkpt lon="-7.698752" lat="43.285308"><ele>412.75</ele></trkpt>
<trkpt lon="-7.699066" lat="43.285101"><ele>411.0</ele></trkpt>
<trkpt lon="-7.699506" lat="43.284691"><ele>410.25</ele></trkpt>
<trkpt lon="-7.699591" lat="43.284619"><ele>411.0</ele></trkpt>
<trkpt lon="-7.699657" lat="43.284558"><ele>411.75</ele></trkpt>
<trkpt lon="-7.699743" lat="43.284478"><ele>412.75</ele></trkpt>
<trkpt lon="-7.699943" lat="43.284427"><ele>413.75</ele></trkpt>
<trkpt lon="-7.700216" lat="43.284294"><ele>416.0</ele></trkpt>
<trkpt lon="-7.700594" lat="43.283930"><ele>420.5</ele></trkpt>
<trkpt lon="-7.700893" lat="43.283806"><ele>424.5</ele></trkpt>
<trkpt lon="-7.701105" lat="43.283574"><ele>426.75</ele></trkpt>
<trkpt lon="-7.701074" lat="43.283398"><ele>426.5</ele></trkpt>
<trkpt lon="-7.701214" lat="43.283200"><ele>429.75</ele></trkpt>
<trkpt lon="-7.701205" lat="43.283022"><ele>432.25</ele></trkpt>
<trkpt lon="-7.702080" lat="43.282618"><ele>445.25</ele></trkpt>
<trkpt lon="-7.702191" lat="43.282487"><ele>446.75</ele></trkpt>
<trkpt lon="-7.703022" lat="43.282143"><ele>456.0</ele></trkpt>
<trkpt lon="-7.703482" lat="43.282155"><ele>458.25</ele></trkpt>
<trkpt lon="-7.703637" lat="43.282129"><ele>459.25</ele></trkpt>
<trkpt lon="-7.704211" lat="43.281926"><ele>461.0</ele></trkpt>
<trkpt lon="-7.704410" lat="43.281813"><ele>461.25</ele></trkpt>
<trkpt lon="-7.704459" lat="43.281710"><ele>461.75</ele></trkpt>
<trkpt lon="-7.704632" lat="43.281480"><ele>464.0</ele></trkpt>
<trkpt lon="-7.704967" lat="43.281179"><ele>469.0</ele></trkpt>
<trkpt lon="-7.705278" lat="43.281019"><ele>473.25</ele></trkpt>
<trkpt lon="-7.705309" lat="43.280962"><ele>474.25</ele></trkpt>
<trkpt lon="-7.705258" lat="43.280886"><ele>475.0</ele></trkpt>
<trkpt lon="-7.704910" lat="43.280684"><ele>474.5</ele></trkpt>
<trkpt lon="-7.705247" lat="43.280302"><ele>484.0</ele></trkpt>
<trkpt lon="-7.705824" lat="43.279743"><ele>488.75</ele></trkpt>
<trkpt lon="-7.705950" lat="43.279728"><ele>489.25</ele></trkpt>
<trkpt lon="-7.706203" lat="43.279607"><ele>490.5</ele></trkpt>
<trkpt lon="-7.706152" lat="43.279183"><ele>492.25</ele></trkpt>
<trkpt lon="-7.706172" lat="43.279138"><ele>492.75</ele></trkpt>
<trkpt lon="-7.706493" lat="43.279198"><ele>495.25</ele></trkpt>
<trkpt lon="-7.706538" lat="43.279097"><ele>496.25</ele></trkpt>
<trkpt lon="-7.706768" lat="43.278926"><ele>498.5</ele></trkpt>
<trkpt lon="-7.707101" lat="43.278835"><ele>500.25</ele></trkpt>
<trkpt lon="-7.707305" lat="43.278842"><ele>501.0</ele></trkpt>
<trkpt lon="-7.707522" lat="43.278900"><ele>501.75</ele></trkpt>
<trkpt lon="-7.707661" lat="43.278895"><ele>501.75</ele></trkpt>
<trkpt lon="-7.708718" lat="43.278455"><ele>505.0</ele></trkpt>
<trkpt lon="-7.708757" lat="43.278365"><ele>505.0</ele></trkpt>
<trkpt lon="-7.708781" lat="43.278257"><ele>504.5</ele></trkpt>
<trkpt lon="-7.708757" lat="43.278195"><ele>504.0</ele></trkpt>
<trkpt lon="-7.708678" lat="43.277984"><ele>501.5</ele></trkpt>
<trkpt lon="-7.708771" lat="43.277827"><ele>500.0</ele></trkpt>
<trkpt lon="-7.708865" lat="43.277773"><ele>499.75</ele></trkpt>
<trkpt lon="-7.709340" lat="43.277326"><ele>494.75</ele></trkpt>
<trkpt lon="-7.709417" lat="43.277130"><ele>493.75</ele></trkpt>
<trkpt lon="-7.709413" lat="43.276936"><ele>494.0</ele></trkpt>
<trkpt lon="-7.709242" lat="43.276607"><ele>497.25</ele></trkpt>
<trkpt lon="-7.709229" lat="43.276180"><ele>502.5</ele></trkpt>
<trkpt lon="-7.708845" lat="43.275865"><ele>505.75</ele></trkpt>
<trkpt lon="-7.708855" lat="43.275653"><ele>507.25</ele></trkpt>
<trkpt lon="-7.708905" lat="43.275545"><ele>508.0</ele></trkpt>
<trkpt lon="-7.708865" lat="43.275167"><ele>510.75</ele></trkpt>
<trkpt lon="-7.708884" lat="43.274963"><ele>513.25</ele></trkpt>
<trkpt lon="-7.708828" lat="43.274793"><ele>514.5</ele></trkpt>
<trkpt lon="-7.708826" lat="43.274618"><ele>516.25</ele></trkpt>
<trkpt lon="-7.708820" lat="43.274421"><ele>517.75</ele></trkpt>
<trkpt lon="-7.708748" lat="43.274292"><ele>517.25</ele></trkpt>
<trkpt lon="-7.708371" lat="43.273835"><ele>518.0</ele></trkpt>
<trkpt lon="-7.708202" lat="43.273568"><ele>519.0</ele></trkpt>
<trkpt lon="-7.708128" lat="43.273377"><ele>519.0</ele></trkpt>
<trkpt lon="-7.708025" lat="43.272948"><ele>518.25</ele></trkpt>
<trkpt lon="-7.707980" lat="43.272878"><ele>517.75</ele></trkpt>
<trkpt lon="-7.707887" lat="43.272791"><ele>516.75</ele></trkpt>
<trkpt lon="-7.707888" lat="43.272638"><ele>514.25</ele></trkpt>
<trkpt lon="-7.707949" lat="43.272476"><ele>512.5</ele></trkpt>
<trkpt lon="-7.708084" lat="43.272260"><ele>511.0</ele></trkpt>
<trkpt lon="-7.708229" lat="43.271926"><ele>513.5</ele></trkpt>
<trkpt lon="-7.708377" lat="43.271386"><ele>516.0</ele></trkpt>
<trkpt lon="-7.708524" lat="43.271147"><ele>516.25</ele></trkpt>
<trkpt lon="-7.708630" lat="43.271035"><ele>517.0</ele></trkpt>
<trkpt lon="-7.708694" lat="43.270967"><ele>517.25</ele></trkpt>
<trkpt lon="-7.708725" lat="43.270833"><ele>517.25</ele></trkpt>
<trkpt lon="-7.708895" lat="43.270722"><ele>518.0</ele></trkpt>
<trkpt lon="-7.709131" lat="43.270584"><ele>518.75</ele></trkpt>
<trkpt lon="-7.709264" lat="43.270446"><ele>518.75</ele></trkpt>
<trkpt lon="-7.709569" lat="43.270171"><ele>519.0</ele></trkpt>
<trkpt lon="-7.709592" lat="43.269987"><ele>518.5</ele></trkpt>
<trkpt lon="-7.709574" lat="43.269812"><ele>518.25</ele></trkpt>
<trkpt lon="-7.709641" lat="43.269548"><ele>518.5</ele></trkpt>
<trkpt lon="-7.709950" lat="43.268921"><ele>518.75</ele></trkpt>
<trkpt lon="-7.709974" lat="43.268744"><ele>517.75</ele></trkpt>
<trkpt lon="-7.710045" lat="43.268502"><ele>516.5</ele></trkpt>
<trkpt lon="-7.710084" lat="43.268280"><ele>515.25</ele></trkpt>
<trkpt lon="-7.710282" lat="43.267865"><ele>511.5</ele></trkpt>
<trkpt lon="-7.710305" lat="43.267784"><ele>511.0</ele></trkpt>
<trkpt lon="-7.710305" lat="43.267672"><ele>510.5</ele></trkpt>
<trkpt lon="-7.710279" lat="43.267552"><ele>510.0</ele></trkpt>
<trkpt lon="-7.710194" lat="43.267132"><ele>509.0</ele></trkpt>
<trkpt lon="-7.710181" lat="43.266810"><ele>509.5</ele></trkpt>
<trkpt lon="-7.710195" lat="43.266713"><ele>509.5</ele></trkpt>
<trkpt lon="-7.710424" lat="43.266377"><ele>510.25</ele></trkpt>
<trkpt lon="-7.710421" lat="43.266158"><ele>509.5</ele></trkpt>
<trkpt lon="-7.710467" lat="43.266065"><ele>509.25</ele></trkpt>
<trkpt lon="-7.711041" lat="43.265634"><ele>511.0</ele></trkpt>
<trkpt lon="-7.711081" lat="43.265655"><ele>511.5</ele></trkpt>
<trkpt lon="-7.711428" lat="43.265400"><ele>510.25</ele></trkpt>
<trkpt lon="-7.712008" lat="43.265049"><ele>510.0</ele></trkpt>
<trkpt lon="-7.712858" lat="43.264601"><ele>506.25</ele></trkpt>
<trkpt lon="-7.713761" lat="43.264214"><ele>506.0</ele></trkpt>
<trkpt lon="-7.715235" lat="43.263586"><ele>500.5</ele></trkpt>
<trkpt lon="-7.716045" lat="43.263200"><ele>496.75</ele></trkpt>
<trkpt lon="-7.717012" lat="43.262580"><ele>491.5</ele></trkpt>
<trkpt lon="-7.717403" lat="43.262343"><ele>490.25</ele></trkpt>
<trkpt lon="-7.717729" lat="43.262241"><ele>490.0</ele></trkpt>
<trkpt lon="-7.717933" lat="43.262250"><ele>490.5</ele></trkpt>
<trkpt lon="-7.718133" lat="43.262304"><ele>491.25</ele></trkpt>
<trkpt lon="-7.719040" lat="43.262491"><ele>487.0</ele></trkpt>
<trkpt lon="-7.719567" lat="43.262585"><ele>489.0</ele></trkpt>
<trkpt lon="-7.720147" lat="43.262712"><ele>489.0</ele></trkpt>
<trkpt lon="-7.720295" lat="43.262697"><ele>488.75</ele></trkpt>
<trkpt lon="-7.720364" lat="43.262626"><ele>488.75</ele></trkpt>
<trkpt lon="-7.720433" lat="43.262519"><ele>488.25</ele></trkpt>
<trkpt lon="-7.720331" lat="43.262411"><ele>487.5</ele></trkpt>
<trkpt lon="-7.720084" lat="43.262321"><ele>486.75</ele></trkpt>
<trkpt lon="-7.719690" lat="43.262200"><ele>487.0</ele></trkpt>
<trkpt lon="-7.719612" lat="43.262009"><ele>486.75</ele></trkpt>
<trkpt lon="-7.719676" lat="43.261874"><ele>484.5</ele></trkpt>
<trkpt lon="-7.719832" lat="43.261454"><ele>482.75</ele></trkpt>
<trkpt lon="-7.719832" lat="43.261007"><ele>481.25</ele></trkpt>
<trkpt lon="-7.719797" lat="43.260808"><ele>480.5</ele></trkpt>
<trkpt lon="-7.719778" lat="43.260356"><ele>477.25</ele></trkpt>
<trkpt lon="-7.719808" lat="43.260095"><ele>476.5</ele></trkpt>
<trkpt lon="-7.719998" lat="43.259722"><ele>473.0</ele></trkpt>
<trkpt lon="-7.720583" lat="43.258469"><ele>466.0</ele></trkpt>
<trkpt lon="-7.720850" lat="43.257686"><ele>456.25</ele></trkpt>
<trkpt lon="-7.720669" lat="43.257655"><ele>461.75</ele></trkpt>
<trkpt lon="-7.720151" lat="43.257581"><ele>462.0</ele></trkpt>
<trkpt lon="-7.719983" lat="43.257556"><ele>457.75</ele></trkpt>
<trkpt lon="-7.720041" lat="43.257186"><ele>456.75</ele></trkpt>
<trkpt lon="-7.720095" lat="43.256590"><ele>452.25</ele></trkpt>
<trkpt lon="-7.720323" lat="43.255895"><ele>450.5</ele></trkpt>
<trkpt lon="-7.720515" lat="43.255534"><ele>449.25</ele></trkpt>
<trkpt lon="-7.720800" lat="43.254996"><ele>452.0</ele></trkpt>
<trkpt lon="-7.721192" lat="43.254065"><ele>457.25</ele></trkpt>
<trkpt lon="-7.721588" lat="43.253568"><ele>454.75</ele></trkpt>
<trkpt lon="-7.721653" lat="43.253486"><ele>454.5</ele></trkpt>
<trkpt lon="-7.722402" lat="43.252736"><ele>448.75</ele></trkpt>
<trkpt lon="-7.723155" lat="43.252033"><ele>447.5</ele></trkpt>
<trkpt lon="-7.723920" lat="43.251455"><ele>445.25</ele></trkpt>
<trkpt lon="-7.724156" lat="43.251218"><ele>444.5</ele></trkpt>
<trkpt lon="-7.723920" lat="43.250516"><ele>448.0</ele></trkpt>
<trkpt lon="-7.723705" lat="43.250219"><ele>451.5</ele></trkpt>
<trkpt lon="-7.723818" lat="43.249418"><ele>454.75</ele></trkpt>
<trkpt lon="-7.723706" lat="43.249202"><ele>457.5</ele></trkpt>
<trkpt lon="-7.723663" lat="43.249064"><ele>458.75</ele></trkpt>
<trkpt lon="-7.723646" lat="43.248838"><ele>460.0</ele></trkpt>
<trkpt lon="-7.723534" lat="43.248694"><ele>461.25</ele></trkpt>
<trkpt lon="-7.723481" lat="43.248639"><ele>461.75</ele></trkpt>
<trkpt lon="-7.723607" lat="43.248533"><ele>461.25</ele></trkpt>
<trkpt lon="-7.723715" lat="43.248420"><ele>461.25</ele></trkpt>
<trkpt lon="-7.723778" lat="43.248305"><ele>461.25</ele></trkpt>
<trkpt lon="-7.723969" lat="43.248286"><ele>461.25</ele></trkpt>
<trkpt lon="-7.724259" lat="43.248139"><ele>461.25</ele></trkpt>
<trkpt lon="-7.724671" lat="43.247864"><ele>455.5</ele></trkpt>
<trkpt lon="-7.724739" lat="43.247863"><ele>454.5</ele></trkpt>
<trkpt lon="-7.724905" lat="43.247862"><ele>452.5</ele></trkpt>
<trkpt lon="-7.725205" lat="43.247922"><ele>447.75</ele></trkpt>
<trkpt lon="-7.725446" lat="43.247787"><ele>444.0</ele></trkpt>
<trkpt lon="-7.725859" lat="43.247491"><ele>436.75</ele></trkpt>
<trkpt lon="-7.725956" lat="43.247364"><ele>436.5</ele></trkpt>
<trkpt lon="-7.726046" lat="43.247298"><ele>435.75</ele></trkpt>
<trkpt lon="-7.726188" lat="43.247260"><ele>434.25</ele></trkpt>
<trkpt lon="-7.726418" lat="43.247260"><ele>432.25</ele></trkpt>
<trkpt lon="-7.726840" lat="43.247310"><ele>429.5</ele></trkpt>
<trkpt lon="-7.726991" lat="43.247267"><ele>428.25</ele></trkpt>
<trkpt lon="-7.727087" lat="43.247174"><ele>427.75</ele></trkpt>
<trkpt lon="-7.727174" lat="43.246711"><ele>426.25</ele></trkpt>
<trkpt lon="-7.727361" lat="43.245932"><ele>426.5</ele></trkpt>
<trkpt lon="-7.727462" lat="43.245277"><ele>421.5</ele></trkpt>
<trkpt lon="-7.727543" lat="43.244655"><ele>424.5</ele></trkpt>
<trkpt lon="-7.727728" lat="43.240651"><ele>421.5</ele></trkpt>
<trkpt lon="-7.727862" lat="43.239247"><ele>414.5</ele></trkpt>
<trkpt lon="-7.728087" lat="43.238138"><ele>416.0</ele></trkpt>
<trkpt lon="-7.728307" lat="43.237323"><ele>414.25</ele></trkpt>
<trkpt lon="-7.728687" lat="43.236380"><ele>412.25</ele></trkpt>
<trkpt lon="-7.728910" lat="43.235942"><ele>410.25</ele></trkpt>
<trkpt lon="-7.729120" lat="43.235983"><ele>413.25</ele></trkpt>
<trkpt lon="-7.729530" lat="43.236092"><ele>412.5</ele></trkpt>
<trkpt lon="-7.729772" lat="43.236163"><ele>407.5</ele></trkpt>
<trkpt lon="-7.729934" lat="43.235984"><ele>407.75</ele></trkpt>
<trkpt lon="-7.730223" lat="43.235497"><ele>407.5</ele></trkpt>
<trkpt lon="-7.730333" lat="43.235294"><ele>406.75</ele></trkpt>
<trkpt lon="-7.730502" lat="43.235104"><ele>406.5</ele></trkpt>
<trkpt lon="-7.730682" lat="43.234984"><ele>406.0</ele></trkpt>
<trkpt lon="-7.730795" lat="43.234896"><ele>405.5</ele></trkpt>
<trkpt lon="-7.730928" lat="43.234625"><ele>405.0</ele></trkpt>
<trkpt lon="-7.731056" lat="43.234455"><ele>404.75</ele></trkpt>
<trkpt lon="-7.731078" lat="43.234399"><ele>405.0</ele></trkpt>
<trkpt lon="-7.731408" lat="43.234404"><ele>404.0</ele></trkpt>
<trkpt lon="-7.731580" lat="43.234402"><ele>404.0</ele></trkpt>
<trkpt lon="-7.732001" lat="43.234389"><ele>404.25</ele></trkpt>
<trkpt lon="-7.732364" lat="43.234395"><ele>405.0</ele></trkpt>
<trkpt lon="-7.732949" lat="43.234368"><ele>405.0</ele></trkpt>
<trkpt lon="-7.732998" lat="43.234347"><ele>405.25</ele></trkpt>
<trkpt lon="-7.733045" lat="43.234236"><ele>405.5</ele></trkpt>
<trkpt lon="-7.733169" lat="43.234172"><ele>405.75</ele></trkpt>
<trkpt lon="-7.733617" lat="43.234013"><ele>407.5</ele></trkpt>
<trkpt lon="-7.733616" lat="43.233835"><ele>408.0</ele></trkpt>
<trkpt lon="-7.733682" lat="43.233668"><ele>409.5</ele></trkpt>
<trkpt lon="-7.733804" lat="43.233473"><ele>411.5</ele></trkpt>
<trkpt lon="-7.733826" lat="43.233370"><ele>412.0</ele></trkpt>
<trkpt lon="-7.733949" lat="43.233048"><ele>413.75</ele></trkpt>
<trkpt lon="-7.734020" lat="43.232747"><ele>415.25</ele></trkpt>
<trkpt lon="-7.734038" lat="43.232386"><ele>414.5</ele></trkpt>
<trkpt lon="-7.734327" lat="43.231733"><ele>419.5</ele></trkpt>
<trkpt lon="-7.734473" lat="43.231457"><ele>422.0</ele></trkpt>
<trkpt lon="-7.734518" lat="43.231143"><ele>424.25</ele></trkpt>
<trkpt lon="-7.734605" lat="43.230981"><ele>425.25</ele></trkpt>
<trkpt lon="-7.734680" lat="43.230380"><ele>427.5</ele></trkpt>
<trkpt lon="-7.734764" lat="43.230179"><ele>427.5</ele></trkpt>
<trkpt lon="-7.734670" lat="43.229844"><ele>425.5</ele></trkpt>
<trkpt lon="-7.734781" lat="43.229617"><ele>426.0</ele></trkpt>
<trkpt lon="-7.734686" lat="43.229470"><ele>424.75</ele></trkpt>
<trkpt lon="-7.734751" lat="43.229411"><ele>425.5</ele></trkpt>
<trkpt lon="-7.734706" lat="43.229176"><ele>426.5</ele></trkpt>
<trkpt lon="-7.734778" lat="43.228679"><ele>427.25</ele></trkpt>
<trkpt lon="-7.734908" lat="43.227998"><ele>428.5</ele></trkpt>
<trkpt lon="-7.734974" lat="43.227496"><ele>431.5</ele></trkpt>
<trkpt lon="-7.734912" lat="43.226948"><ele>435.0</ele></trkpt>
<trkpt lon="-7.734839" lat="43.226569"><ele>437.75</ele></trkpt>
<trkpt lon="-7.734830" lat="43.226141"><ele>441.5</ele></trkpt>
<trkpt lon="-7.734933" lat="43.225353"><ele>447.0</ele></trkpt>
<trkpt lon="-7.735088" lat="43.224796"><ele>451.0</ele></trkpt>
<trkpt lon="-7.735470" lat="43.223976"><ele>459.5</ele></trkpt>
<trkpt lon="-7.735821" lat="43.223328"><ele>467.0</ele></trkpt>
<trkpt lon="-7.736400" lat="43.222809"><ele>469.75</ele></trkpt>
<trkpt lon="-7.736709" lat="43.222726"><ele>472.25</ele></trkpt>
<trkpt lon="-7.737123" lat="43.222847"><ele>480.5</ele></trkpt>
<trkpt lon="-7.737515" lat="43.223050"><ele>485.0</ele></trkpt>
<trkpt lon="-7.737846" lat="43.223133"><ele>487.5</ele></trkpt>
<trkpt lon="-7.737945" lat="43.223103"><ele>487.25</ele></trkpt>
<trkpt lon="-7.738073" lat="43.223065"><ele>487.0</ele></trkpt>
<trkpt lon="-7.738693" lat="43.222651"><ele>486.5</ele></trkpt>
<trkpt lon="-7.738940" lat="43.222425"><ele>485.75</ele></trkpt>
<trkpt lon="-7.739385" lat="43.221966"><ele>484.75</ele></trkpt>
<trkpt lon="-7.739756" lat="43.221687"><ele>484.75</ele></trkpt>
<trkpt lon="-7.740015" lat="43.221401"><ele>484.75</ele></trkpt>
<trkpt lon="-7.740335" lat="43.220747"><ele>480.75</ele></trkpt>
<trkpt lon="-7.740469" lat="43.220333"><ele>478.0</ele></trkpt>
<trkpt lon="-7.740606" lat="43.219725"><ele>473.25</ele></trkpt>
<trkpt lon="-7.740726" lat="43.219394"><ele>469.75</ele></trkpt>
<trkpt lon="-7.740462" lat="43.219228"><ele>469.75</ele></trkpt>
<trkpt lon="-7.740301" lat="43.219147"><ele>469.75</ele></trkpt>
<trkpt lon="-7.739976" lat="43.218985"><ele>469.5</ele></trkpt>
<trkpt lon="-7.740297" lat="43.218578"><ele>473.0</ele></trkpt>
<trkpt lon="-7.740453" lat="43.218420"><ele>473.0</ele></trkpt>
<trkpt lon="-7.740485" lat="43.218117"><ele>473.25</ele></trkpt>
<trkpt lon="-7.740839" lat="43.217650"><ele>472.25</ele></trkpt>
<trkpt lon="-7.740826" lat="43.217384"><ele>473.0</ele></trkpt>
<trkpt lon="-7.740689" lat="43.217093"><ele>475.0</ele></trkpt>
<trkpt lon="-7.740622" lat="43.216927"><ele>476.0</ele></trkpt>
<trkpt lon="-7.740557" lat="43.216575"><ele>477.25</ele></trkpt>
<trkpt lon="-7.740490" lat="43.216391"><ele>478.5</ele></trkpt>
<trkpt lon="-7.740329" lat="43.215740"><ele>479.5</ele></trkpt>
<trkpt lon="-7.740288" lat="43.215512"><ele>478.5</ele></trkpt>
<trkpt lon="-7.740219" lat="43.215298"><ele>478.75</ele></trkpt>
<trkpt lon="-7.740156" lat="43.214952"><ele>478.75</ele></trkpt>
<trkpt lon="-7.740104" lat="43.214549"><ele>477.25</ele></trkpt>
<trkpt lon="-7.740037" lat="43.214366"><ele>477.0</ele></trkpt>
<trkpt lon="-7.740075" lat="43.214250"><ele>475.75</ele></trkpt>
<trkpt lon="-7.740037" lat="43.213963"><ele>474.25</ele></trkpt>
<trkpt lon="-7.739855" lat="43.213706"><ele>472.5</ele></trkpt>
<trkpt lon="-7.739739" lat="43.213699"><ele>472.0</ele></trkpt>
<trkpt lon="-7.739385" lat="43.213261"><ele>464.75</ele></trkpt>
<trkpt lon="-7.738566" lat="43.212489"><ele>457.0</ele></trkpt>
<trkpt lon="-7.738937" lat="43.211420"><ele>453.25</ele></trkpt>
<trkpt lon="-7.739280" lat="43.210785"><ele>448.25</ele></trkpt>
<trkpt lon="-7.739506" lat="43.210320"><ele>442.5</ele></trkpt>
<trkpt lon="-7.739660" lat="43.209956"><ele>440.5</ele></trkpt>
<trkpt lon="-7.739738" lat="43.209744"><ele>437.0</ele></trkpt>
<trkpt lon="-7.739789" lat="43.209638"><ele>437.25</ele></trkpt>
<trkpt lon="-7.739828" lat="43.209442"><ele>438.5</ele></trkpt>
<trkpt lon="-7.739845" lat="43.209264"><ele>439.0</ele></trkpt>
<trkpt lon="-7.739929" lat="43.208916"><ele>437.25</ele></trkpt>
<trkpt lon="-7.740117" lat="43.208298"><ele>429.0</ele></trkpt>
<trkpt lon="-7.740136" lat="43.208120"><ele>428.25</ele></trkpt>
<trkpt lon="-7.740592" lat="43.207997"><ele>424.0</ele></trkpt>
<trkpt lon="-7.741796" lat="43.208050"><ele>425.25</ele></trkpt>
<trkpt lon="-7.741960" lat="43.207809"><ele>426.0</ele></trkpt>
<trkpt lon="-7.742048" lat="43.207654"><ele>426.0</ele></trkpt>
<trkpt lon="-7.742320" lat="43.207260"><ele>426.0</ele></trkpt>
<trkpt lon="-7.743969" lat="43.207191"><ele>429.0</ele></trkpt>
<trkpt lon="-7.744563" lat="43.206935"><ele>430.75</ele></trkpt>
<trkpt lon="-7.745073" lat="43.206712"><ele>433.25</ele></trkpt>
<trkpt lon="-7.745904" lat="43.206114"><ele>434.25</ele></trkpt>
<trkpt lon="-7.746539" lat="43.205748"><ele>435.5</ele></trkpt>
<trkpt lon="-7.746768" lat="43.205498"><ele>435.5</ele></trkpt>
<trkpt lon="-7.747275" lat="43.204716"><ele>436.0</ele></trkpt>
<trkpt lon="-7.747360" lat="43.203925"><ele>435.25</ele></trkpt>
<trkpt lon="-7.747246" lat="43.203735"><ele>434.5</ele></trkpt>
<trkpt lon="-7.747386" lat="43.203133"><ele>432.5</ele></trkpt>
<trkpt lon="-7.747673" lat="43.202655"><ele>431.25</ele></trkpt>
<trkpt lon="-7.747858" lat="43.202187"><ele>428.75</ele></trkpt>
<trkpt lon="-7.747892" lat="43.201913"><ele>427.25</ele></trkpt>
<trkpt lon="-7.747989" lat="43.201646"><ele>425.75</ele></trkpt>
<trkpt lon="-7.748279" lat="43.201537"><ele>425.0</ele></trkpt>
<trkpt lon="-7.748682" lat="43.201464"><ele>420.75</ele></trkpt>
<trkpt lon="-7.749324" lat="43.201394"><ele>421.5</ele></trkpt>
<trkpt lon="-7.749598" lat="43.201318"><ele>422.0</ele></trkpt>
<trkpt lon="-7.749771" lat="43.201202"><ele>422.0</ele></trkpt>
<trkpt lon="-7.749984" lat="43.200755"><ele>422.75</ele></trkpt>
<trkpt lon="-7.750034" lat="43.200627"><ele>423.0</ele></trkpt>
<trkpt lon="-7.750698" lat="43.200144"><ele>427.75</ele></trkpt>
<trkpt lon="-7.750849" lat="43.200000"><ele>429.0</ele></trkpt>
<trkpt lon="-7.750854" lat="43.199566"><ele>429.5</ele></trkpt>
<trkpt lon="-7.750842" lat="43.199526"><ele>429.5</ele></trkpt>
<trkpt lon="-7.750660" lat="43.198913"><ele>429.25</ele></trkpt>
<trkpt lon="-7.750034" lat="43.197621"><ele>428.5</ele></trkpt>
<trkpt lon="-7.749326" lat="43.196507"><ele>428.5</ele></trkpt>
<trkpt lon="-7.749172" lat="43.195777"><ele>429.0</ele></trkpt>
<trkpt lon="-7.749243" lat="43.195692"><ele>429.25</ele></trkpt>
<trkpt lon="-7.749488" lat="43.195615"><ele>430.0</ele></trkpt>
<trkpt lon="-7.750383" lat="43.195557"><ele>432.25</ele></trkpt>
<trkpt lon="-7.751145" lat="43.195552"><ele>434.0</ele></trkpt>
<trkpt lon="-7.752539" lat="43.195422"><ele>439.0</ele></trkpt>
<trkpt lon="-7.752989" lat="43.195395"><ele>441.5</ele></trkpt>
<trkpt lon="-7.753401" lat="43.195477"><ele>445.0</ele></trkpt>
<trkpt lon="-7.753814" lat="43.195777"><ele>449.75</ele></trkpt>
<trkpt lon="-7.754226" lat="43.195982"><ele>454.25</ele></trkpt>
<trkpt lon="-7.754676" lat="43.195969"><ele>455.75</ele></trkpt>
<trkpt lon="-7.755519" lat="43.195887"><ele>461.5</ele></trkpt>
<trkpt lon="-7.756400" lat="43.195846"><ele>468.0</ele></trkpt>
<trkpt lon="-7.756756" lat="43.195969"><ele>471.75</ele></trkpt>
<trkpt lon="-7.757281" lat="43.196338"><ele>477.75</ele></trkpt>
<trkpt lon="-7.757730" lat="43.196638"><ele>482.5</ele></trkpt>
<trkpt lon="-7.758236" lat="43.196857"><ele>487.25</ele></trkpt>
<trkpt lon="-7.758911" lat="43.197034"><ele>491.5</ele></trkpt>
<trkpt lon="-7.759979" lat="43.197103"><ele>498.25</ele></trkpt>
<trkpt lon="-7.760954" lat="43.197116"><ele>503.25</ele></trkpt>
<trkpt lon="-7.762678" lat="43.196816"><ele>512.25</ele></trkpt>
<trkpt lon="-7.763791" lat="43.196514"><ele>516.5</ele></trkpt>
<trkpt lon="-7.764546" lat="43.196359"><ele>522.75</ele></trkpt>
<trkpt lon="-7.765341" lat="43.196354"><ele>529.25</ele></trkpt>
<trkpt lon="-7.765971" lat="43.196489"><ele>531.25</ele></trkpt>
<trkpt lon="-7.766872" lat="43.196736"><ele>533.0</ele></trkpt>
<trkpt lon="-7.766885" lat="43.196369"><ele>533.0</ele></trkpt>
<trkpt lon="-7.766859" lat="43.195963"><ele>532.25</ele></trkpt>
<trkpt lon="-7.767004" lat="43.195605"><ele>531.75</ele></trkpt>
<trkpt lon="-7.767084" lat="43.195171"><ele>530.0</ele></trkpt>
<trkpt lon="-7.767124" lat="43.194910"><ele>529.0</ele></trkpt>
<trkpt lon="-7.767193" lat="43.194699"><ele>528.0</ele></trkpt>
<trkpt lon="-7.767158" lat="43.194443"><ele>527.0</ele></trkpt>
<trkpt lon="-7.766982" lat="43.194065"><ele>526.0</ele></trkpt>
<trkpt lon="-7.766878" lat="43.193810"><ele>524.75</ele></trkpt>
<trkpt lon="-7.766970" lat="43.193782"><ele>524.5</ele></trkpt>
<trkpt lon="-7.767861" lat="43.193953"><ele>522.5</ele></trkpt>
<trkpt lon="-7.768645" lat="43.194123"><ele>519.25</ele></trkpt>
<trkpt lon="-7.768909" lat="43.194226"><ele>518.0</ele></trkpt>
<trkpt lon="-7.769018" lat="43.194332"><ele>517.25</ele></trkpt>
<trkpt lon="-7.769077" lat="43.194347"><ele>516.75</ele></trkpt>
<trkpt lon="-7.769369" lat="43.194320"><ele>513.75</ele></trkpt>
<trkpt lon="-7.769530" lat="43.194227"><ele>512.0</ele></trkpt>
<trkpt lon="-7.769678" lat="43.194049"><ele>510.25</ele></trkpt>
<trkpt lon="-7.769709" lat="43.193591"><ele>507.0</ele></trkpt>
<trkpt lon="-7.769720" lat="43.193526"><ele>506.5</ele></trkpt>
<trkpt lon="-7.769788" lat="43.193153"><ele>505.25</ele></trkpt>
<trkpt lon="-7.769927" lat="43.192617"><ele>502.25</ele></trkpt>
<trkpt lon="-7.769946" lat="43.191968"><ele>498.75</ele></trkpt>
<trkpt lon="-7.770038" lat="43.191622"><ele>498.0</ele></trkpt>
<trkpt lon="-7.770160" lat="43.191501"><ele>498.25</ele></trkpt>
<trkpt lon="-7.770399" lat="43.191493"><ele>499.0</ele></trkpt>
<trkpt lon="-7.770685" lat="43.191545"><ele>500.0</ele></trkpt>
<trkpt lon="-7.770979" lat="43.191395"><ele>500.0</ele></trkpt>
<trkpt lon="-7.771254" lat="43.191267"><ele>500.25</ele></trkpt>
<trkpt lon="-7.771474" lat="43.190994"><ele>499.25</ele></trkpt>
<trkpt lon="-7.771603" lat="43.190806"><ele>501.25</ele></trkpt>
<trkpt lon="-7.771627" lat="43.190448"><ele>503.0</ele></trkpt>
<trkpt lon="-7.771890" lat="43.190480"><ele>507.0</ele></trkpt>
<trkpt lon="-7.772577" lat="43.190460"><ele>518.75</ele></trkpt>
<trkpt lon="-7.772899" lat="43.190550"><ele>519.75</ele></trkpt>
<trkpt lon="-7.773371" lat="43.190707"><ele>525.75</ele></trkpt>
<trkpt lon="-7.773612" lat="43.190695"><ele>529.5</ele></trkpt>
<trkpt lon="-7.774626" lat="43.190867"><ele>538.0</ele></trkpt>
<trkpt lon="-7.774840" lat="43.190884"><ele>539.75</ele></trkpt>
<trkpt lon="-7.775013" lat="43.190898"><ele>541.25</ele></trkpt>
<trkpt lon="-7.775281" lat="43.190980"><ele>543.5</ele></trkpt>
<trkpt lon="-7.775930" lat="43.191375"><ele>545.5</ele></trkpt>
<trkpt lon="-7.776236" lat="43.191404"><ele>546.75</ele></trkpt>
<trkpt lon="-7.777132" lat="43.191414"><ele>559.75</ele></trkpt>
<trkpt lon="-7.777313" lat="43.191460"><ele>563.0</ele></trkpt>
<trkpt lon="-7.777475" lat="43.191575"><ele>565.25</ele></trkpt>
<trkpt lon="-7.777700" lat="43.190957"><ele>565.0</ele></trkpt>
<trkpt lon="-7.777969" lat="43.190617"><ele>564.5</ele></trkpt>
<trkpt lon="-7.778323" lat="43.190276"><ele>564.75</ele></trkpt>
<trkpt lon="-7.778768" lat="43.189893"><ele>565.75</ele></trkpt>
<trkpt lon="-7.778924" lat="43.189643"><ele>566.25</ele></trkpt>
<trkpt lon="-7.779063" lat="43.189334"><ele>566.75</ele></trkpt>
<trkpt lon="-7.779501" lat="43.188888"><ele>567.5</ele></trkpt>
<trkpt lon="-7.780031" lat="43.188354"><ele>568.25</ele></trkpt>
<trkpt lon="-7.780650" lat="43.187679"><ele>568.5</ele></trkpt>
<trkpt lon="-7.781259" lat="43.186882"><ele>567.5</ele></trkpt>
<trkpt lon="-7.781266" lat="43.186850"><ele>567.25</ele></trkpt>
<trkpt lon="-7.781618" lat="43.186962"><ele>570.75</ele></trkpt>
<trkpt lon="-7.781788" lat="43.186063"><ele>568.5</ele></trkpt>
<trkpt lon="-7.782166" lat="43.184320"><ele>555.75</ele></trkpt>
<trkpt lon="-7.782348" lat="43.183578"><ele>550.0</ele></trkpt>
<trkpt lon="-7.782896" lat="43.183785"><ele>551.75</ele></trkpt>
<trkpt lon="-7.786640" lat="43.185084"><ele>541.0</ele></trkpt>
<trkpt lon="-7.786804" lat="43.184827"><ele>541.25</ele></trkpt>
<trkpt lon="-7.787149" lat="43.184406"><ele>542.0</ele></trkpt>
<trkpt lon="-7.787294" lat="43.183714"><ele>535.75</ele></trkpt>
<trkpt lon="-7.787326" lat="43.183165"><ele>530.5</ele></trkpt>
<trkpt lon="-7.787998" lat="43.182391"><ele>530.75</ele></trkpt>
<trkpt lon="-7.788963" lat="43.181898"><ele>537.25</ele></trkpt>
<trkpt lon="-7.789478" lat="43.181843"><ele>540.5</ele></trkpt>
<trkpt lon="-7.789570" lat="43.181849"><ele>540.25</ele></trkpt>
<trkpt lon="-7.789725" lat="43.181859"><ele>539.75</ele></trkpt>
<trkpt lon="-7.790122" lat="43.181932"><ele>538.0</ele></trkpt>
<trkpt lon="-7.791356" lat="43.182045"><ele>534.75</ele></trkpt>
<trkpt lon="-7.791635" lat="43.182029"><ele>536.25</ele></trkpt>
<trkpt lon="-7.791850" lat="43.182049"><ele>536.25</ele></trkpt>
<trkpt lon="-7.792005" lat="43.182100"><ele>535.25</ele></trkpt>
<trkpt lon="-7.792152" lat="43.182203"><ele>533.75</ele></trkpt>
<trkpt lon="-7.792268" lat="43.182264"><ele>532.75</ele></trkpt>
<trkpt lon="-7.792421" lat="43.182319"><ele>531.5</ele></trkpt>
<trkpt lon="-7.793188" lat="43.182407"><ele>522.5</ele></trkpt>
<trkpt lon="-7.793974" lat="43.182565"><ele>514.5</ele></trkpt>
<trkpt lon="-7.795065" lat="43.182745"><ele>505.25</ele></trkpt>
<trkpt lon="-7.795583" lat="43.182767"><ele>501.5</ele></trkpt>
<trkpt lon="-7.795913" lat="43.182749"><ele>498.25</ele></trkpt>
<trkpt lon="-7.796036" lat="43.182594"><ele>496.75</ele></trkpt>
<trkpt lon="-7.796473" lat="43.182409"><ele>493.25</ele></trkpt>
<trkpt lon="-7.797002" lat="43.182293"><ele>489.5</ele></trkpt>
<trkpt lon="-7.797254" lat="43.182260"><ele>487.5</ele></trkpt>
<trkpt lon="-7.797549" lat="43.182107"><ele>483.75</ele></trkpt>
<trkpt lon="-7.797654" lat="43.182100"><ele>482.5</ele></trkpt>
<trkpt lon="-7.797629" lat="43.182025"><ele>482.5</ele></trkpt>
<trkpt lon="-7.797573" lat="43.181974"><ele>483.0</ele></trkpt>
<trkpt lon="-7.797251" lat="43.181924"><ele>485.5</ele></trkpt>
<trkpt lon="-7.796967" lat="43.181667"><ele>488.5</ele></trkpt>
<trkpt lon="-7.796688" lat="43.181622"><ele>491.5</ele></trkpt>
<trkpt lon="-7.796538" lat="43.181575"><ele>493.0</ele></trkpt>
<trkpt lon="-7.796264" lat="43.181464"><ele>494.25</ele></trkpt>
<trkpt lon="-7.796275" lat="43.181288"><ele>493.25</ele></trkpt>
<trkpt lon="-7.796315" lat="43.181106"><ele>491.25</ele></trkpt>
<trkpt lon="-7.796431" lat="43.180785"><ele>488.25</ele></trkpt>
<trkpt lon="-7.796516" lat="43.180704"><ele>487.0</ele></trkpt>
<trkpt lon="-7.796457" lat="43.180494"><ele>485.0</ele></trkpt>
<trkpt lon="-7.796511" lat="43.180157"><ele>483.5</ele></trkpt>
<trkpt lon="-7.796452" lat="43.179909"><ele>483.0</ele></trkpt>
<trkpt lon="-7.796444" lat="43.179518"><ele>479.75</ele></trkpt>
<trkpt lon="-7.796304" lat="43.178990"><ele>476.75</ele></trkpt>
<trkpt lon="-7.796409" lat="43.178426"><ele>477.0</ele></trkpt>
<trkpt lon="-7.796329" lat="43.177918"><ele>474.75</ele></trkpt>
<trkpt lon="-7.796380" lat="43.177599"><ele>473.25</ele></trkpt>
<trkpt lon="-7.796752" lat="43.177053"><ele>468.5</ele></trkpt>
<trkpt lon="-7.796777" lat="43.176926"><ele>467.75</ele></trkpt>
<trkpt lon="-7.796739" lat="43.176811"><ele>467.5</ele></trkpt>
<trkpt lon="-7.796591" lat="43.176580"><ele>466.25</ele></trkpt>
<trkpt lon="-7.796498" lat="43.176304"><ele>465.25</ele></trkpt>
<trkpt lon="-7.796616" lat="43.176132"><ele>465.0</ele></trkpt>
<trkpt lon="-7.796908" lat="43.175835"><ele>462.25</ele></trkpt>
<trkpt lon="-7.797021" lat="43.175798"><ele>460.75</ele></trkpt>
<trkpt lon="-7.797643" lat="43.175784"><ele>450.75</ele></trkpt>
<trkpt lon="-7.798002" lat="43.175717"><ele>444.25</ele></trkpt>
<trkpt lon="-7.798399" lat="43.175572"><ele>437.75</ele></trkpt>
<trkpt lon="-7.797880" lat="43.175327"><ele>440.75</ele></trkpt>
<trkpt lon="-7.797399" lat="43.175190"><ele>448.25</ele></trkpt>
<trkpt lon="-7.796990" lat="43.175022"><ele>450.5</ele></trkpt>
<trkpt lon="-7.796215" lat="43.174614"><ele>441.0</ele></trkpt>
<trkpt lon="-7.795893" lat="43.174464"><ele>438.0</ele></trkpt>
<trkpt lon="-7.795055" lat="43.174155"><ele>426.0</ele></trkpt>
<trkpt lon="-7.794598" lat="43.174060"><ele>422.25</ele></trkpt>
<trkpt lon="-7.794451" lat="43.173951"><ele>422.5</ele></trkpt>
<trkpt lon="-7.794792" lat="43.173375"><ele>420.5</ele></trkpt>
<trkpt lon="-7.794794" lat="43.173184"><ele>417.5</ele></trkpt>
<trkpt lon="-7.794701" lat="43.173069"><ele>415.75</ele></trkpt>
<trkpt lon="-7.794517" lat="43.173082"><ele>414.75</ele></trkpt>
<trkpt lon="-7.794331" lat="43.173050"><ele>413.25</ele></trkpt>
<trkpt lon="-7.794064" lat="43.172983"><ele>411.75</ele></trkpt>
<trkpt lon="-7.793803" lat="43.172874"><ele>410.5</ele></trkpt>
<trkpt lon="-7.793638" lat="43.172771"><ele>408.75</ele></trkpt>
<trkpt lon="-7.793434" lat="43.172627"><ele>407.75</ele></trkpt>
<trkpt lon="-7.792997" lat="43.172491"><ele>405.75</ele></trkpt>
<trkpt lon="-7.793003" lat="43.172445"><ele>405.0</ele></trkpt>
<trkpt lon="-7.792999" lat="43.172414"><ele>404.5</ele></trkpt>
<trkpt lon="-7.793001" lat="43.172261"><ele>402.25</ele></trkpt>
<trkpt lon="-7.792961" lat="43.171922"><ele>402.25</ele></trkpt>
<trkpt lon="-7.793001" lat="43.171802"><ele>406.0</ele></trkpt>
<trkpt lon="-7.793379" lat="43.171729"><ele>407.0</ele></trkpt>
<trkpt lon="-7.793557" lat="43.171653"><ele>408.5</ele></trkpt>
<trkpt lon="-7.793567" lat="43.171744"><ele>406.25</ele></trkpt>
<trkpt lon="-7.793616" lat="43.171792"><ele>405.25</ele></trkpt>
<trkpt lon="-7.793740" lat="43.171867"><ele>403.25</ele></trkpt>
<trkpt lon="-7.793917" lat="43.171920"><ele>402.25</ele></trkpt>
<trkpt lon="-7.793971" lat="43.171924"><ele>402.25</ele></trkpt>
<trkpt lon="-7.794037" lat="43.171912"><ele>402.25</ele></trkpt>
<trkpt lon="-7.794079" lat="43.171912"><ele>402.25</ele></trkpt>
<trkpt lon="-7.794124" lat="43.171921"><ele>402.0</ele></trkpt>
<trkpt lon="-7.794150" lat="43.171941"><ele>402.0</ele></trkpt>
<trkpt lon="-7.794142" lat="43.171999"><ele>401.75</ele></trkpt>
<trkpt lon="-7.794162" lat="43.172037"><ele>401.5</ele></trkpt>
<trkpt lon="-7.794204" lat="43.172044"><ele>401.5</ele></trkpt>
<trkpt lon="-7.794250" lat="43.172030"><ele>401.5</ele></trkpt>
<trkpt lon="-7.794276" lat="43.172000"><ele>401.75</ele></trkpt>
<trkpt lon="-7.794287" lat="43.171891"><ele>402.0</ele></trkpt>
<trkpt lon="-7.794325" lat="43.171850"><ele>402.25</ele></trkpt>
<trkpt lon="-7.794365" lat="43.171832"><ele>402.0</ele></trkpt>
<trkpt lon="-7.794405" lat="43.171832"><ele>402.0</ele></trkpt>
<trkpt lon="-7.794450" lat="43.171870"><ele>401.75</ele></trkpt>
<trkpt lon="-7.794473" lat="43.171865"><ele>401.75</ele></trkpt>
<trkpt lon="-7.794493" lat="43.171849"><ele>401.75</ele></trkpt>
<trkpt lon="-7.794472" lat="43.171828"><ele>401.75</ele></trkpt>
<trkpt lon="-7.794480" lat="43.171796"><ele>402.0</ele></trkpt>
<trkpt lon="-7.794471" lat="43.171758"><ele>402.0</ele></trkpt>
<trkpt lon="-7.794859" lat="43.171676"><ele>403.25</ele></trkpt>
<trkpt lon="-7.794949" lat="43.171675"><ele>403.75</ele></trkpt>
<trkpt lon="-7.795026" lat="43.171698"><ele>403.75</ele></trkpt>
<trkpt lon="-7.795090" lat="43.171730"><ele>403.75</ele></trkpt>
<trkpt lon="-7.795337" lat="43.171895"><ele>402.0</ele></trkpt>
<trkpt lon="-7.795562" lat="43.171935"><ele>402.0</ele></trkpt>
<trkpt lon="-7.796009" lat="43.171975"><ele>402.75</ele></trkpt>
<trkpt lon="-7.796221" lat="43.172021"><ele>402.75</ele></trkpt>
<trkpt lon="-7.796388" lat="43.172086"><ele>402.75</ele></trkpt>
<trkpt lon="-7.796549" lat="43.172140"><ele>403.0</ele></trkpt>
<trkpt lon="-7.796863" lat="43.172228"><ele>403.0</ele></trkpt>
<trkpt lon="-7.797317" lat="43.172538"><ele>403.25</ele></trkpt>
<trkpt lon="-7.797580" lat="43.172704"><ele>404.25</ele></trkpt>
<trkpt lon="-7.798163" lat="43.172838"><ele>404.5</ele></trkpt>
<trkpt lon="-7.798722" lat="43.172919"><ele>404.25</ele></trkpt>
<trkpt lon="-7.799619" lat="43.172987"><ele>404.75</ele></trkpt>
<trkpt lon="-7.800077" lat="43.172970"><ele>403.75</ele></trkpt>
<trkpt lon="-7.800364" lat="43.172929"><ele>404.0</ele></trkpt>
<trkpt lon="-7.800757" lat="43.172771"><ele>405.0</ele></trkpt>
<trkpt lon="-7.801413" lat="43.172353"><ele>404.5</ele></trkpt>
<trkpt lon="-7.801651" lat="43.172310"><ele>404.25</ele></trkpt>
<trkpt lon="-7.801945" lat="43.172309"><ele>405.0</ele></trkpt>
<trkpt lon="-7.802810" lat="43.172474"><ele>404.5</ele></trkpt>
<trkpt lon="-7.803325" lat="43.172670"><ele>404.0</ele></trkpt>
<trkpt lon="-7.803813" lat="43.172820"><ele>405.0</ele></trkpt>
<trkpt lon="-7.804763" lat="43.172984"><ele>410.0</ele></trkpt>
<trkpt lon="-7.805085" lat="43.172977"><ele>412.75</ele></trkpt>
<trkpt lon="-7.805676" lat="43.172863"><ele>420.75</ele></trkpt>
<trkpt lon="-7.806069" lat="43.172656"><ele>427.0</ele></trkpt>
<trkpt lon="-7.806693" lat="43.172424"><ele>430.75</ele></trkpt>
<trkpt lon="-7.807135" lat="43.172532"><ele>433.25</ele></trkpt>
<trkpt lon="-7.807165" lat="43.172582"><ele>433.25</ele></trkpt>
<trkpt lon="-7.807276" lat="43.172764"><ele>433.25</ele></trkpt>
<trkpt lon="-7.807392" lat="43.173098"><ele>434.25</ele></trkpt>
<trkpt lon="-7.807475" lat="43.173260"><ele>435.5</ele></trkpt>
<trkpt lon="-7.807660" lat="43.173422"><ele>436.75</ele></trkpt>
<trkpt lon="-7.807678" lat="43.173769"><ele>435.75</ele></trkpt>
<trkpt lon="-7.807692" lat="43.173901"><ele>435.5</ele></trkpt>
<trkpt lon="-7.807766" lat="43.174116"><ele>435.0</ele></trkpt>
<trkpt lon="-7.807830" lat="43.174573"><ele>432.25</ele></trkpt>
<trkpt lon="-7.807732" lat="43.175326"><ele>428.0</ele></trkpt>
<trkpt lon="-7.807768" lat="43.175515"><ele>425.5</ele></trkpt>
<trkpt lon="-7.807880" lat="43.175653"><ele>422.0</ele></trkpt>
<trkpt lon="-7.808126" lat="43.175767"><ele>420.25</ele></trkpt>
<trkpt lon="-7.808439" lat="43.175949"><ele>416.5</ele></trkpt>
<trkpt lon="-7.808559" lat="43.175965"><ele>416.75</ele></trkpt>
<trkpt lon="-7.808602" lat="43.176004"><ele>415.5</ele></trkpt>
<trkpt lon="-7.808588" lat="43.176067"><ele>412.75</ele></trkpt>
<trkpt lon="-7.808750" lat="43.176131"><ele>411.5</ele></trkpt>
<trkpt lon="-7.808755" lat="43.176151"><ele>411.0</ele></trkpt>
<trkpt lon="-7.808721" lat="43.176245"><ele>409.0</ele></trkpt>
<trkpt lon="-7.808774" lat="43.176305"><ele>408.25</ele></trkpt>
<trkpt lon="-7.808792" lat="43.176503"><ele>407.0</ele></trkpt>
<trkpt lon="-7.808800" lat="43.176536"><ele>407.0</ele></trkpt>
<trkpt lon="-7.808868" lat="43.176595"><ele>407.5</ele></trkpt>
<trkpt lon="-7.808991" lat="43.176660"><ele>408.5</ele></trkpt>
<trkpt lon="-7.809041" lat="43.176694"><ele>409.25</ele></trkpt>
<trkpt lon="-7.809097" lat="43.176604"><ele>408.75</ele></trkpt>
<trkpt lon="-7.809451" lat="43.176380"><ele>408.0</ele></trkpt>
<trkpt lon="-7.809670" lat="43.176252"><ele>410.25</ele></trkpt>
<trkpt lon="-7.809831" lat="43.176070"><ele>410.75</ele></trkpt>
<trkpt lon="-7.809865" lat="43.175907"><ele>409.0</ele></trkpt>
<trkpt lon="-7.810046" lat="43.175779"><ele>408.75</ele></trkpt>
<trkpt lon="-7.810208" lat="43.175688"><ele>410.5</ele></trkpt>
<trkpt lon="-7.810346" lat="43.175548"><ele>410.25</ele></trkpt>
<trkpt lon="-7.810515" lat="43.175224"><ele>409.0</ele></trkpt>
<trkpt lon="-7.810672" lat="43.175096"><ele>412.0</ele></trkpt>
<trkpt lon="-7.810850" lat="43.174863"><ele>412.0</ele></trkpt>
<trkpt lon="-7.811056" lat="43.174658"><ele>410.5</ele></trkpt>
<trkpt lon="-7.811447" lat="43.173982"><ele>410.25</ele></trkpt>
<trkpt lon="-7.811479" lat="43.173813"><ele>410.25</ele></trkpt>
<trkpt lon="-7.811451" lat="43.173386"><ele>410.0</ele></trkpt>
<trkpt lon="-7.811470" lat="43.173243"><ele>410.25</ele></trkpt>
<trkpt lon="-7.811602" lat="43.173076"><ele>410.75</ele></trkpt>
<trkpt lon="-7.811928" lat="43.172968"><ele>410.5</ele></trkpt>
<trkpt lon="-7.812111" lat="43.172941"><ele>410.5</ele></trkpt>
<trkpt lon="-7.812351" lat="43.172896"><ele>410.25</ele></trkpt>
<trkpt lon="-7.812581" lat="43.172841"><ele>410.25</ele></trkpt>
<trkpt lon="-7.812861" lat="43.172815"><ele>411.0</ele></trkpt>
<trkpt lon="-7.813250" lat="43.172822"><ele>411.0</ele></trkpt>
<trkpt lon="-7.813748" lat="43.172675"><ele>411.25</ele></trkpt>
<trkpt lon="-7.814040" lat="43.172693"><ele>411.25</ele></trkpt>
<trkpt lon="-7.814356" lat="43.172866"><ele>411.25</ele></trkpt>
<trkpt lon="-7.814773" lat="43.172970"><ele>411.75</ele></trkpt>
<trkpt lon="-7.815240" lat="43.173162"><ele>412.0</ele></trkpt>
<trkpt lon="-7.815698" lat="43.173317"><ele>411.75</ele></trkpt>
<trkpt lon="-7.816135" lat="43.173408"><ele>412.0</ele></trkpt>
<trkpt lon="-7.816415" lat="43.173528"><ele>413.0</ele></trkpt>
<trkpt lon="-7.816837" lat="43.173518"><ele>411.75</ele></trkpt>
<trkpt lon="-7.817013" lat="43.173455"><ele>411.25</ele></trkpt>
<trkpt lon="-7.817408" lat="43.173417"><ele>411.5</ele></trkpt>
<trkpt lon="-7.817695" lat="43.173366"><ele>411.0</ele></trkpt>
<trkpt lon="-7.818046" lat="43.173380"><ele>412.25</ele></trkpt>
<trkpt lon="-7.818301" lat="43.173346"><ele>412.0</ele></trkpt>
<trkpt lon="-7.818551" lat="43.173342"><ele>412.0</ele></trkpt>
<trkpt lon="-7.819044" lat="43.173382"><ele>412.5</ele></trkpt>
<trkpt lon="-7.820148" lat="43.173203"><ele>413.5</ele></trkpt>
<trkpt lon="-7.820931" lat="43.173183"><ele>415.0</ele></trkpt>
<trkpt lon="-7.821198" lat="43.173234"><ele>417.25</ele></trkpt>
<trkpt lon="-7.821552" lat="43.173187"><ele>417.5</ele></trkpt>
<trkpt lon="-7.821783" lat="43.173115"><ele>416.75</ele></trkpt>
<trkpt lon="-7.821845" lat="43.173061"><ele>415.25</ele></trkpt>
<trkpt lon="-7.822000" lat="43.173041"><ele>417.5</ele></trkpt>
<trkpt lon="-7.822174" lat="43.172972"><ele>418.25</ele></trkpt>
<trkpt lon="-7.822366" lat="43.172875"><ele>417.5</ele></trkpt>
<trkpt lon="-7.822500" lat="43.172815"><ele>416.5</ele></trkpt>
<trkpt lon="-7.822578" lat="43.172739"><ele>416.25</ele></trkpt>
<trkpt lon="-7.822735" lat="43.172656"><ele>417.0</ele></trkpt>
<trkpt lon="-7.823008" lat="43.172540"><ele>415.25</ele></trkpt>
<trkpt lon="-7.823244" lat="43.172461"><ele>416.25</ele></trkpt>
<trkpt lon="-7.823452" lat="43.172439"><ele>418.0</ele></trkpt>
<trkpt lon="-7.823582" lat="43.172447"><ele>419.75</ele></trkpt>
<trkpt lon="-7.823804" lat="43.172420"><ele>420.75</ele></trkpt>
<trkpt lon="-7.823922" lat="43.172418"><ele>420.75</ele></trkpt>
<trkpt lon="-7.824115" lat="43.172474"><ele>418.5</ele></trkpt>
<trkpt lon="-7.824226" lat="43.172551"><ele>417.5</ele></trkpt>
<trkpt lon="-7.824280" lat="43.172628"><ele>417.5</ele></trkpt>
<trkpt lon="-7.824428" lat="43.172781"><ele>415.5</ele></trkpt>
<trkpt lon="-7.824502" lat="43.172896"><ele>416.75</ele></trkpt>
<trkpt lon="-7.824733" lat="43.173145"><ele>417.75</ele></trkpt>
<trkpt lon="-7.824902" lat="43.173216"><ele>417.5</ele></trkpt>
<trkpt lon="-7.825174" lat="43.173221"><ele>416.5</ele></trkpt>
<trkpt lon="-7.825406" lat="43.173238"><ele>416.5</ele></trkpt>
<trkpt lon="-7.825566" lat="43.173277"><ele>416.5</ele></trkpt>
<trkpt lon="-7.825665" lat="43.173286"><ele>416.25</ele></trkpt>
<trkpt lon="-7.825910" lat="43.173274"><ele>416.0</ele></trkpt>
<trkpt lon="-7.826240" lat="43.173237"><ele>416.25</ele></trkpt>
<trkpt lon="-7.826459" lat="43.173181"><ele>416.0</ele></trkpt>
<trkpt lon="-7.826536" lat="43.173089"><ele>415.5</ele></trkpt>
<trkpt lon="-7.826683" lat="43.172907"><ele>415.5</ele></trkpt>
<trkpt lon="-7.827097" lat="43.172237"><ele>416.25</ele></trkpt>
<trkpt lon="-7.827485" lat="43.172038"><ele>415.75</ele></trkpt>
<trkpt lon="-7.827719" lat="43.171903"><ele>416.25</ele></trkpt>
<trkpt lon="-7.828076" lat="43.171732"><ele>416.5</ele></trkpt>
<trkpt lon="-7.828506" lat="43.171477"><ele>417.0</ele></trkpt>
<trkpt lon="-7.828724" lat="43.171209"><ele>417.25</ele></trkpt>
<trkpt lon="-7.828801" lat="43.170992"><ele>417.0</ele></trkpt>
<trkpt lon="-7.828717" lat="43.170753"><ele>416.5</ele></trkpt>
<trkpt lon="-7.828552" lat="43.170555"><ele>416.5</ele></trkpt>
<trkpt lon="-7.828075" lat="43.170172"><ele>415.75</ele></trkpt>
<trkpt lon="-7.827925" lat="43.169834"><ele>416.75</ele></trkpt>
<trkpt lon="-7.827880" lat="43.169652"><ele>416.5</ele></trkpt>
<trkpt lon="-7.827900" lat="43.169373"><ele>416.75</ele></trkpt>
<trkpt lon="-7.827950" lat="43.169254"><ele>417.0</ele></trkpt>
<trkpt lon="-7.827964" lat="43.169121"><ele>417.25</ele></trkpt>
<trkpt lon="-7.828087" lat="43.168825"><ele>417.5</ele></trkpt>
<trkpt lon="-7.828244" lat="43.168700"><ele>417.5</ele></trkpt>
<trkpt lon="-7.828940" lat="43.168319"><ele>417.75</ele></trkpt>
<trkpt lon="-7.829055" lat="43.168256"><ele>417.5</ele></trkpt>
<trkpt lon="-7.829504" lat="43.168130"><ele>417.5</ele></trkpt>
<trkpt lon="-7.829890" lat="43.167978"><ele>418.25</ele></trkpt>
<trkpt lon="-7.830144" lat="43.167784"><ele>418.0</ele></trkpt>
<trkpt lon="-7.830290" lat="43.167727"><ele>418.5</ele></trkpt>
<trkpt lon="-7.830817" lat="43.167229"><ele>417.75</ele></trkpt>
<trkpt lon="-7.831032" lat="43.166966"><ele>417.5</ele></trkpt>
<trkpt lon="-7.831462" lat="43.166309"><ele>417.75</ele></trkpt>
<trkpt lon="-7.831608" lat="43.165995"><ele>417.75</ele></trkpt>
<trkpt lon="-7.831649" lat="43.165859"><ele>417.75</ele></trkpt>
<trkpt lon="-7.831850" lat="43.165574"><ele>417.5</ele></trkpt>
<trkpt lon="-7.832230" lat="43.165258"><ele>417.75</ele></trkpt>
<trkpt lon="-7.832722" lat="43.164957"><ele>417.5</ele></trkpt>
<trkpt lon="-7.832986" lat="43.164877"><ele>418.25</ele></trkpt>
<trkpt lon="-7.833191" lat="43.164806"><ele>418.5</ele></trkpt>
<trkpt lon="-7.833360" lat="43.164665"><ele>418.75</ele></trkpt>
<trkpt lon="-7.833462" lat="43.164525"><ele>418.25</ele></trkpt>
<trkpt lon="-7.833372" lat="43.164289"><ele>418.0</ele></trkpt>
<trkpt lon="-7.833238" lat="43.164066"><ele>418.0</ele></trkpt>
<trkpt lon="-7.833053" lat="43.163793"><ele>417.25</ele></trkpt>
<trkpt lon="-7.832999" lat="43.163677"><ele>417.5</ele></trkpt>
<trkpt lon="-7.833092" lat="43.163481"><ele>417.5</ele></trkpt>
<trkpt lon="-7.833314" lat="43.163336"><ele>417.75</ele></trkpt>
<trkpt lon="-7.833550" lat="43.163208"><ele>418.25</ele></trkpt>
<trkpt lon="-7.833582" lat="43.163142"><ele>418.0</ele></trkpt>
<trkpt lon="-7.833866" lat="43.163007"><ele>418.5</ele></trkpt>
<trkpt lon="-7.834049" lat="43.162958"><ele>418.25</ele></trkpt>
<trkpt lon="-7.834288" lat="43.162815"><ele>418.0</ele></trkpt>
<trkpt lon="-7.834481" lat="43.162673"><ele>418.5</ele></trkpt>
<trkpt lon="-7.834750" lat="43.162545"><ele>418.0</ele></trkpt>
<trkpt lon="-7.835256" lat="43.162270"><ele>418.0</ele></trkpt>
<trkpt lon="-7.835519" lat="43.162059"><ele>418.25</ele></trkpt>
<trkpt lon="-7.835829" lat="43.161951"><ele>418.75</ele></trkpt>
<trkpt lon="-7.836273" lat="43.161773"><ele>418.0</ele></trkpt>
<trkpt lon="-7.836490" lat="43.161604"><ele>418.25</ele></trkpt>
<trkpt lon="-7.836865" lat="43.161358"><ele>418.5</ele></trkpt>
<trkpt lon="-7.837546" lat="43.160793"><ele>419.0</ele></trkpt>
<trkpt lon="-7.837626" lat="43.160732"><ele>419.0</ele></trkpt>
<trkpt lon="-7.837743" lat="43.160781"><ele>419.0</ele></trkpt>
<trkpt lon="-7.837811" lat="43.160823"><ele>419.0</ele></trkpt>
<trkpt lon="-7.837901" lat="43.160797"><ele>419.25</ele></trkpt>
<trkpt lon="-7.838011" lat="43.160733"><ele>419.5</ele></trkpt>
<trkpt lon="-7.838335" lat="43.160921"><ele>420.5</ele></trkpt>
<trkpt lon="-7.838417" lat="43.160965"><ele>421.25</ele></trkpt>
<trkpt lon="-7.838688" lat="43.160752"><ele>421.0</ele></trkpt>
<trkpt lon="-7.838979" lat="43.160560"><ele>421.0</ele></trkpt>
<trkpt lon="-7.839054" lat="43.160435"><ele>420.75</ele></trkpt>
<trkpt lon="-7.839277" lat="43.160403"><ele>421.25</ele></trkpt>
<trkpt lon="-7.839408" lat="43.160299"><ele>421.0</ele></trkpt>
<trkpt lon="-7.839559" lat="43.160149"><ele>421.0</ele></trkpt>
<trkpt lon="-7.839698" lat="43.160003"><ele>420.75</ele></trkpt>
<trkpt lon="-7.839913" lat="43.159771"><ele>420.25</ele></trkpt>
<trkpt lon="-7.840230" lat="43.159676"><ele>420.5</ele></trkpt>
<trkpt lon="-7.840538" lat="43.159517"><ele>420.5</ele></trkpt>
<trkpt lon="-7.840878" lat="43.159415"><ele>419.75</ele></trkpt>
<trkpt lon="-7.841976" lat="43.159100"><ele>420.0</ele></trkpt>
<trkpt lon="-7.842537" lat="43.158994"><ele>420.0</ele></trkpt>
<trkpt lon="-7.842789" lat="43.158955"><ele>420.0</ele></trkpt>
<trkpt lon="-7.843387" lat="43.158828"><ele>420.0</ele></trkpt>
<trkpt lon="-7.843870" lat="43.158771"><ele>420.0</ele></trkpt>
<trkpt lon="-7.844378" lat="43.158731"><ele>421.25</ele></trkpt>
<trkpt lon="-7.844672" lat="43.158651"><ele>420.25</ele></trkpt>
<trkpt lon="-7.845069" lat="43.158531"><ele>420.0</ele></trkpt>
<trkpt lon="-7.845220" lat="43.158456"><ele>420.0</ele></trkpt>
<trkpt lon="-7.845537" lat="43.158365"><ele>420.0</ele></trkpt>
<trkpt lon="-7.845790" lat="43.158320"><ele>420.0</ele></trkpt>
<trkpt lon="-7.846069" lat="43.158341"><ele>420.0</ele></trkpt>
<trkpt lon="-7.846338" lat="43.158413"><ele>420.5</ele></trkpt>
<trkpt lon="-7.846657" lat="43.158504"><ele>420.5</ele></trkpt>
<trkpt lon="-7.846901" lat="43.158624"><ele>420.0</ele></trkpt>
<trkpt lon="-7.847093" lat="43.158688"><ele>420.25</ele></trkpt>
<trkpt lon="-7.847377" lat="43.158683"><ele>420.25</ele></trkpt>
<trkpt lon="-7.847744" lat="43.158697"><ele>420.25</ele></trkpt>
<trkpt lon="-7.847979" lat="43.158639"><ele>420.0</ele></trkpt>
<trkpt lon="-7.848089" lat="43.158613"><ele>420.0</ele></trkpt>
<trkpt lon="-7.848443" lat="43.158432"><ele>420.25</ele></trkpt>
<trkpt lon="-7.848810" lat="43.158105"><ele>420.0</ele></trkpt>
<trkpt lon="-7.849145" lat="43.157968"><ele>420.0</ele></trkpt>
<trkpt lon="-7.849481" lat="43.157724"><ele>420.75</ele></trkpt>
<trkpt lon="-7.849733" lat="43.157562"><ele>420.25</ele></trkpt>
<trkpt lon="-7.849937" lat="43.157178"><ele>420.0</ele></trkpt>
<trkpt lon="-7.850098" lat="43.156737"><ele>420.25</ele></trkpt>
<trkpt lon="-7.850168" lat="43.156470"><ele>420.5</ele></trkpt>
<trkpt lon="-7.850289" lat="43.156291"><ele>420.5</ele></trkpt>
<trkpt lon="-7.850472" lat="43.156130"><ele>420.5</ele></trkpt>
<trkpt lon="-7.850566" lat="43.156018"><ele>421.0</ele></trkpt>
<trkpt lon="-7.850503" lat="43.155900"><ele>420.75</ele></trkpt>
<trkpt lon="-7.850435" lat="43.155476"><ele>420.5</ele></trkpt>
<trkpt lon="-7.850498" lat="43.155162"><ele>420.25</ele></trkpt>
<trkpt lon="-7.850756" lat="43.154864"><ele>420.25</ele></trkpt>
<trkpt lon="-7.851018" lat="43.154607"><ele>420.25</ele></trkpt>
<trkpt lon="-7.851182" lat="43.154354"><ele>420.0</ele></trkpt>
<trkpt lon="-7.851289" lat="43.154270"><ele>420.0</ele></trkpt>
<trkpt lon="-7.851529" lat="43.154170"><ele>420.5</ele></trkpt>
<trkpt lon="-7.851751" lat="43.154126"><ele>420.75</ele></trkpt>
<trkpt lon="-7.851984" lat="43.154032"><ele>420.5</ele></trkpt>
<trkpt lon="-7.852088" lat="43.153799"><ele>420.5</ele></trkpt>
<trkpt lon="-7.852216" lat="43.153624"><ele>420.75</ele></trkpt>
<trkpt lon="-7.852324" lat="43.153506"><ele>420.75</ele></trkpt>
<trkpt lon="-7.852479" lat="43.153405"><ele>420.25</ele></trkpt>
<trkpt lon="-7.852690" lat="43.153330"><ele>420.5</ele></trkpt>
<trkpt lon="-7.853039" lat="43.153243"><ele>420.5</ele></trkpt>
<trkpt lon="-7.853145" lat="43.153069"><ele>420.25</ele></trkpt>
<trkpt lon="-7.853445" lat="43.153067"><ele>421.0</ele></trkpt>
<trkpt lon="-7.853620" lat="43.152990"><ele>421.0</ele></trkpt>
<trkpt lon="-7.853909" lat="43.152983"><ele>420.75</ele></trkpt>
<trkpt lon="-7.854065" lat="43.152941"><ele>420.5</ele></trkpt>
<trkpt lon="-7.854288" lat="43.152827"><ele>420.5</ele></trkpt>
<trkpt lon="-7.854447" lat="43.152577"><ele>421.0</ele></trkpt>
<trkpt lon="-7.854473" lat="43.152083"><ele>420.5</ele></trkpt>
<trkpt lon="-7.854663" lat="43.151857"><ele>420.5</ele></trkpt>
<trkpt lon="-7.854865" lat="43.151635"><ele>420.5</ele></trkpt>
<trkpt lon="-7.855143" lat="43.151377"><ele>420.5</ele></trkpt>
<trkpt lon="-7.855457" lat="43.150984"><ele>420.5</ele></trkpt>
<trkpt lon="-7.855796" lat="43.150679"><ele>421.25</ele></trkpt>
<trkpt lon="-7.855980" lat="43.150442"><ele>421.25</ele></trkpt>
<trkpt lon="-7.856198" lat="43.150313"><ele>422.0</ele></trkpt>
<trkpt lon="-7.856377" lat="43.150272"><ele>421.75</ele></trkpt>
<trkpt lon="-7.856579" lat="43.150256"><ele>421.75</ele></trkpt>
<trkpt lon="-7.856928" lat="43.150326"><ele>421.0</ele></trkpt>
<trkpt lon="-7.857516" lat="43.150487"><ele>421.75</ele></trkpt>
<trkpt lon="-7.858082" lat="43.150657"><ele>421.25</ele></trkpt>
<trkpt lon="-7.858372" lat="43.150676"><ele>422.0</ele></trkpt>
<trkpt lon="-7.858758" lat="43.150819"><ele>421.25</ele></trkpt>
<trkpt lon="-7.859155" lat="43.151120"><ele>422.0</ele></trkpt>
<trkpt lon="-7.859406" lat="43.151202"><ele>421.25</ele></trkpt>
<trkpt lon="-7.859857" lat="43.151176"><ele>421.5</ele></trkpt>
<trkpt lon="-7.860378" lat="43.151086"><ele>421.75</ele></trkpt>
<trkpt lon="-7.860573" lat="43.150960"><ele>422.0</ele></trkpt>
<trkpt lon="-7.860891" lat="43.150912"><ele>422.0</ele></trkpt>
<trkpt lon="-7.861206" lat="43.150914"><ele>422.0</ele></trkpt>
<trkpt lon="-7.861937" lat="43.150891"><ele>421.25</ele></trkpt>
<trkpt lon="-7.862204" lat="43.151140"><ele>422.0</ele></trkpt>
<trkpt lon="-7.862258" lat="43.151241"><ele>421.75</ele></trkpt>
<trkpt lon="-7.862549" lat="43.151583"><ele>422.0</ele></trkpt>
<trkpt lon="-7.863248" lat="43.152033"><ele>422.0</ele></trkpt>
<trkpt lon="-7.863556" lat="43.152243"><ele>422.0</ele></trkpt>
<trkpt lon="-7.863961" lat="43.152556"><ele>422.0</ele></trkpt>
<trkpt lon="-7.864200" lat="43.152811"><ele>422.0</ele></trkpt>
<trkpt lon="-7.864504" lat="43.153243"><ele>422.75</ele></trkpt>
<trkpt lon="-7.864965" lat="43.154163"><ele>422.0</ele></trkpt>
<trkpt lon="-7.865157" lat="43.154675"><ele>422.25</ele></trkpt>
<trkpt lon="-7.865174" lat="43.154875"><ele>422.5</ele></trkpt>
<trkpt lon="-7.865224" lat="43.154976"><ele>422.75</ele></trkpt>
<trkpt lon="-7.865395" lat="43.154915"><ele>422.25</ele></trkpt>
<trkpt lon="-7.865617" lat="43.154842"><ele>421.75</ele></trkpt>
<trkpt lon="-7.865914" lat="43.154745"><ele>423.25</ele></trkpt>
<trkpt lon="-7.866383" lat="43.154578"><ele>424.25</ele></trkpt>
<trkpt lon="-7.866690" lat="43.154367"><ele>426.25</ele></trkpt>
<trkpt lon="-7.867127" lat="43.153981"><ele>430.0</ele></trkpt>
<trkpt lon="-7.867417" lat="43.154119"><ele>430.75</ele></trkpt>
<trkpt lon="-7.867576" lat="43.154170"><ele>431.25</ele></trkpt>
<trkpt lon="-7.867638" lat="43.154183"><ele>431.25</ele></trkpt>
<trkpt lon="-7.868008" lat="43.154196"><ele>432.5</ele></trkpt>
<trkpt lon="-7.868531" lat="43.154271"><ele>434.25</ele></trkpt>
<trkpt lon="-7.868766" lat="43.154159"><ele>435.5</ele></trkpt>
<trkpt lon="-7.869084" lat="43.154039"><ele>437.0</ele></trkpt>
<trkpt lon="-7.869325" lat="43.154000"><ele>436.75</ele></trkpt>
<trkpt lon="-7.869548" lat="43.153839"><ele>436.0</ele></trkpt>
<trkpt lon="-7.869654" lat="43.153840"><ele>435.75</ele></trkpt>
<trkpt lon="-7.869863" lat="43.153883"><ele>435.5</ele></trkpt>
<trkpt lon="-7.870176" lat="43.153872"><ele>437.5</ele></trkpt>
<trkpt lon="-7.870414" lat="43.153942"><ele>437.0</ele></trkpt>
<trkpt lon="-7.870481" lat="43.153968"><ele>436.75</ele></trkpt>
<trkpt lon="-7.870863" lat="43.153895"><ele>438.0</ele></trkpt>
<trkpt lon="-7.871244" lat="43.153849"><ele>439.5</ele></trkpt>
<trkpt lon="-7.871446" lat="43.153837"><ele>440.0</ele></trkpt>
<trkpt lon="-7.871697" lat="43.153830"><ele>440.5</ele></trkpt>
<trkpt lon="-7.872119" lat="43.153856"><ele>441.75</ele></trkpt>
<trkpt lon="-7.872948" lat="43.153830"><ele>445.0</ele></trkpt>
<trkpt lon="-7.873040" lat="43.153803"><ele>445.5</ele></trkpt>
<trkpt lon="-7.873175" lat="43.153643"><ele>447.0</ele></trkpt>
<trkpt lon="-7.873301" lat="43.153546"><ele>448.0</ele></trkpt>
<trkpt lon="-7.873356" lat="43.153443"><ele>448.5</ele></trkpt>
<trkpt lon="-7.873252" lat="43.152988"><ele>450.0</ele></trkpt>
<trkpt lon="-7.873458" lat="43.152560"><ele>450.25</ele></trkpt>
<trkpt lon="-7.873500" lat="43.152313"><ele>449.25</ele></trkpt>
<trkpt lon="-7.873469" lat="43.152082"><ele>449.0</ele></trkpt>
<trkpt lon="-7.873415" lat="43.151812"><ele>449.0</ele></trkpt>
<trkpt lon="-7.873362" lat="43.151699"><ele>449.0</ele></trkpt>
<trkpt lon="-7.873374" lat="43.151573"><ele>449.0</ele></trkpt>
<trkpt lon="-7.873429" lat="43.151405"><ele>449.25</ele></trkpt>
<trkpt lon="-7.873661" lat="43.151133"><ele>449.75</ele></trkpt>
<trkpt lon="-7.873786" lat="43.151032"><ele>448.75</ele></trkpt>
<trkpt lon="-7.873999" lat="43.150759"><ele>447.25</ele></trkpt>
<trkpt lon="-7.874220" lat="43.150542"><ele>445.75</ele></trkpt>
<trkpt lon="-7.874406" lat="43.150403"><ele>445.25</ele></trkpt>
<trkpt lon="-7.874517" lat="43.150385"><ele>445.25</ele></trkpt>
<trkpt lon="-7.875202" lat="43.150005"><ele>445.0</ele></trkpt>
<trkpt lon="-7.875871" lat="43.149526"><ele>446.25</ele></trkpt>
<trkpt lon="-7.876469" lat="43.149618"><ele>448.5</ele></trkpt>
<trkpt lon="-7.877176" lat="43.149588"><ele>452.5</ele></trkpt>
<trkpt lon="-7.877569" lat="43.149715"><ele>455.0</ele></trkpt>
<trkpt lon="-7.878160" lat="43.149573"><ele>456.75</ele></trkpt>
<trkpt lon="-7.878821" lat="43.149528"><ele>459.75</ele></trkpt>
<trkpt lon="-7.879079" lat="43.149542"><ele>461.0</ele></trkpt>
<trkpt lon="-7.879342" lat="43.149514"><ele>461.0</ele></trkpt>
<trkpt lon="-7.879540" lat="43.149428"><ele>460.75</ele></trkpt>
  </trkseg></trk></gpx>
