<?xml version="1.0" encoding="UTF-8"?>
<gpx version="1.1" creator="compostel-brouter" xmlns="http://www.topografix.com/GPX/1/1">
  <metadata><name>FR-04-Verzy</name></metadata>
  <trk><name>FR-04-Verzy</name><trkseg>
<trkpt lon="4.031979" lat="49.258386"><ele>86.75</ele></trkpt>
<trkpt lon="4.032030" lat="49.258317"><ele>86.75</ele></trkpt>
<trkpt lon="4.032270" lat="49.258011"><ele>86.0</ele></trkpt>
<trkpt lon="4.032311" lat="49.257951"><ele>86.0</ele></trkpt>
<trkpt lon="4.032278" lat="49.257940"><ele>86.0</ele></trkpt>
<trkpt lon="4.032357" lat="49.257842"><ele>86.0</ele></trkpt>
<trkpt lon="4.032119" lat="49.257759"><ele>86.0</ele></trkpt>
<trkpt lon="4.032149" lat="49.257704"><ele>86.0</ele></trkpt>
<trkpt lon="4.032184" lat="49.257633"><ele>86.0</ele></trkpt>
<trkpt lon="4.033104" lat="49.256670"><ele>86.0</ele></trkpt>
<trkpt lon="4.033093" lat="49.256667"><ele>86.0</ele></trkpt>
<trkpt lon="4.033044" lat="49.256650"><ele>86.0</ele></trkpt>
<trkpt lon="4.033095" lat="49.256597"><ele>86.0</ele></trkpt>
<trkpt lon="4.033144" lat="49.256543"><ele>86.0</ele></trkpt>
<trkpt lon="4.033179" lat="49.256505"><ele>86.0</ele></trkpt>
<trkpt lon="4.033407" lat="49.256256"><ele>86.0</ele></trkpt>
<trkpt lon="4.033480" lat="49.256177"><ele>86.0</ele></trkpt>
<trkpt lon="4.033526" lat="49.256128"><ele>85.75</ele></trkpt>
<trkpt lon="4.033552" lat="49.256102"><ele>86.0</ele></trkpt>
<trkpt lon="4.033799" lat="49.255848"><ele>85.75</ele></trkpt>
<trkpt lon="4.033892" lat="49.255752"><ele>86.0</ele></trkpt>
<trkpt lon="4.033978" lat="49.255665"><ele>86.0</ele></trkpt>
<trkpt lon="4.033897" lat="49.255622"><ele>86.0</ele></trkpt>
<trkpt lon="4.033858" lat="49.255579"><ele>86.0</ele></trkpt>
<trkpt lon="4.033831" lat="49.255518"><ele>85.75</ele></trkpt>
<trkpt lon="4.033833" lat="49.255471"><ele>85.75</ele></trkpt>
<trkpt lon="4.033855" lat="49.255421"><ele>85.75</ele></trkpt>
<trkpt lon="4.033737" lat="49.255376"><ele>85.5</ele></trkpt>
<trkpt lon="4.033682" lat="49.255355"><ele>85.25</ele></trkpt>
<trkpt lon="4.033531" lat="49.255298"><ele>85.0</ele></trkpt>
<trkpt lon="4.033478" lat="49.255280"><ele>85.0</ele></trkpt>
<trkpt lon="4.033444" lat="49.255269"><ele>85.0</ele></trkpt>
<trkpt lon="4.033264" lat="49.255197"><ele>85.0</ele></trkpt>
<trkpt lon="4.032965" lat="49.255084"><ele>84.75</ele></trkpt>
<trkpt lon="4.032488" lat="49.254919"><ele>84.0</ele></trkpt>
<trkpt lon="4.032229" lat="49.254821"><ele>84.0</ele></trkpt>
<trkpt lon="4.032152" lat="49.254792"><ele>84.0</ele></trkpt>
<trkpt lon="4.032142" lat="49.254788"><ele>84.0</ele></trkpt>
<trkpt lon="4.032097" lat="49.254771"><ele>84.0</ele></trkpt>
<trkpt lon="4.032109" lat="49.254708"><ele>84.0</ele></trkpt>
<trkpt lon="4.032129" lat="49.254679"><ele>84.0</ele></trkpt>
<trkpt lon="4.032219" lat="49.254566"><ele>84.0</ele></trkpt>
<trkpt lon="4.032683" lat="49.254070"><ele>85.0</ele></trkpt>
<trkpt lon="4.032729" lat="49.254011"><ele>85.0</ele></trkpt>
<trkpt lon="4.032907" lat="49.253803"><ele>85.25</ele></trkpt>
<trkpt lon="4.032829" lat="49.253755"><ele>85.0</ele></trkpt>
<trkpt lon="4.032872" lat="49.253694"><ele>85.25</ele></trkpt>
<trkpt lon="4.032856" lat="49.253637"><ele>85.25</ele></trkpt>
<trkpt lon="4.032870" lat="49.253622"><ele>85.25</ele></trkpt>
<trkpt lon="4.032854" lat="49.253616"><ele>85.25</ele></trkpt>
<trkpt lon="4.032880" lat="49.253571"><ele>85.25</ele></trkpt>
<trkpt lon="4.032993" lat="49.253466"><ele>85.25</ele></trkpt>
<trkpt lon="4.033144" lat="49.253301"><ele>85.25</ele></trkpt>
<trkpt lon="4.033161" lat="49.253307"><ele>85.25</ele></trkpt>
<trkpt lon="4.033338" lat="49.253173"><ele>85.25</ele></trkpt>
<trkpt lon="4.033648" lat="49.252832"><ele>85.25</ele></trkpt>
<trkpt lon="4.033613" lat="49.252831"><ele>85.0</ele></trkpt>
<trkpt lon="4.033622" lat="49.252820"><ele>85.0</ele></trkpt>
<trkpt lon="4.033649" lat="49.252787"><ele>85.0</ele></trkpt>
<trkpt lon="4.033815" lat="49.252849"><ele>85.75</ele></trkpt>
<trkpt lon="4.033845" lat="49.252816"><ele>85.75</ele></trkpt>
<trkpt lon="4.033813" lat="49.252804"><ele>85.75</ele></trkpt>
<trkpt lon="4.033800" lat="49.252800"><ele>85.5</ele></trkpt>
<trkpt lon="4.034380" lat="49.252168"><ele>87.0</ele></trkpt>
<trkpt lon="4.034828" lat="49.251834"><ele>86.75</ele></trkpt>
<trkpt lon="4.034664" lat="49.251647"><ele>85.5</ele></trkpt>
<trkpt lon="4.034642" lat="49.251623"><ele>85.5</ele></trkpt>
<trkpt lon="4.034622" lat="49.251602"><ele>85.25</ele></trkpt>
<trkpt lon="4.034435" lat="49.251347"><ele>83.75</ele></trkpt>
<trkpt lon="4.034448" lat="49.251343"><ele>83.75</ele></trkpt>
<trkpt lon="4.034495" lat="49.251327"><ele>83.75</ele></trkpt>
<trkpt lon="4.034392" lat="49.251212"><ele>83.25</ele></trkpt>
<trkpt lon="4.035012" lat="49.250958"><ele>83.25</ele></trkpt>
<trkpt lon="4.035028" lat="49.250950"><ele>83.25</ele></trkpt>
<trkpt lon="4.035112" lat="49.250898"><ele>83.0</ele></trkpt>
<trkpt lon="4.035151" lat="49.250873"><ele>83.0</ele></trkpt>
<trkpt lon="4.035250" lat="49.250800"><ele>83.0</ele></trkpt>
<trkpt lon="4.035263" lat="49.250791"><ele>83.0</ele></trkpt>
<trkpt lon="4.035943" lat="49.250292"><ele>83.0</ele></trkpt>
<trkpt lon="4.036072" lat="49.250182"><ele>83.0</ele></trkpt>
<trkpt lon="4.036079" lat="49.250175"><ele>83.0</ele></trkpt>
<trkpt lon="4.036186" lat="49.250068"><ele>83.0</ele></trkpt>
<trkpt lon="4.036271" lat="49.249983"><ele>83.0</ele></trkpt>
<trkpt lon="4.036301" lat="49.249953"><ele>83.0</ele></trkpt>
<trkpt lon="4.036331" lat="49.249924"><ele>83.0</ele></trkpt>
<trkpt lon="4.036840" lat="49.249325"><ele>84.25</ele></trkpt>
<trkpt lon="4.036868" lat="49.249292"><ele>84.25</ele></trkpt>
<trkpt lon="4.036945" lat="49.249200"><ele>84.0</ele></trkpt>
<trkpt lon="4.036966" lat="49.249159"><ele>84.0</ele></trkpt>
<trkpt lon="4.037028" lat="49.249106"><ele>84.0</ele></trkpt>
<trkpt lon="4.037148" lat="49.248938"><ele>84.0</ele></trkpt>
<trkpt lon="4.037365" lat="49.248684"><ele>84.75</ele></trkpt>
<trkpt lon="4.037834" lat="49.248118"><ele>85.75</ele></trkpt>
<trkpt lon="4.037965" lat="49.247940"><ele>86.25</ele></trkpt>
<trkpt lon="4.038046" lat="49.247887"><ele>86.5</ele></trkpt>
<trkpt lon="4.038203" lat="49.247683"><ele>87.0</ele></trkpt>
<trkpt lon="4.038223" lat="49.247658"><ele>87.0</ele></trkpt>
<trkpt lon="4.038257" lat="49.247619"><ele>87.0</ele></trkpt>
<trkpt lon="4.038284" lat="49.247588"><ele>87.0</ele></trkpt>
<trkpt lon="4.038444" lat="49.247401"><ele>87.0</ele></trkpt>
<trkpt lon="4.038572" lat="49.247253"><ele>87.0</ele></trkpt>
<trkpt lon="4.038988" lat="49.246774"><ele>87.0</ele></trkpt>
<trkpt lon="4.039022" lat="49.246736"><ele>87.0</ele></trkpt>
<trkpt lon="4.039085" lat="49.246668"><ele>87.0</ele></trkpt>
<trkpt lon="4.039137" lat="49.246611"><ele>87.0</ele></trkpt>
<trkpt lon="4.039290" lat="49.246468"><ele>87.25</ele></trkpt>
<trkpt lon="4.039403" lat="49.246353"><ele>87.25</ele></trkpt>
<trkpt lon="4.039578" lat="49.246134"><ele>87.75</ele></trkpt>
<trkpt lon="4.039853" lat="49.245734"><ele>87.5</ele></trkpt>
<trkpt lon="4.039865" lat="49.245716"><ele>87.5</ele></trkpt>
<trkpt lon="4.039933" lat="49.245631"><ele>87.25</ele></trkpt>
<trkpt lon="4.039865" lat="49.245602"><ele>87.0</ele></trkpt>
<trkpt lon="4.039141" lat="49.245322"><ele>86.25</ele></trkpt>
<trkpt lon="4.038967" lat="49.245262"><ele>86.0</ele></trkpt>
<trkpt lon="4.038798" lat="49.245203"><ele>85.75</ele></trkpt>
<trkpt lon="4.038618" lat="49.245140"><ele>85.5</ele></trkpt>
<trkpt lon="4.038483" lat="49.245067"><ele>85.0</ele></trkpt>
<trkpt lon="4.038112" lat="49.244923"><ele>84.0</ele></trkpt>
<trkpt lon="4.037984" lat="49.244876"><ele>84.0</ele></trkpt>
<trkpt lon="4.037889" lat="49.244817"><ele>84.0</ele></trkpt>
<trkpt lon="4.037782" lat="49.244776"><ele>84.0</ele></trkpt>
<trkpt lon="4.037750" lat="49.244764"><ele>84.0</ele></trkpt>
<trkpt lon="4.037735" lat="49.244758"><ele>83.75</ele></trkpt>
<trkpt lon="4.037682" lat="49.244738"><ele>83.5</ele></trkpt>
<trkpt lon="4.037463" lat="49.244690"><ele>83.0</ele></trkpt>
<trkpt lon="4.037416" lat="49.244674"><ele>83.0</ele></trkpt>
<trkpt lon="4.037380" lat="49.244661"><ele>83.25</ele></trkpt>
<trkpt lon="4.037223" lat="49.244605"><ele>83.0</ele></trkpt>
<trkpt lon="4.037082" lat="49.244555"><ele>82.25</ele></trkpt>
<trkpt lon="4.037021" lat="49.244533"><ele>82.25</ele></trkpt>
<trkpt lon="4.036881" lat="49.244480"><ele>82.0</ele></trkpt>
<trkpt lon="4.037769" lat="49.242910"><ele>83.25</ele></trkpt>
<trkpt lon="4.037651" lat="49.242880"><ele>82.75</ele></trkpt>
<trkpt lon="4.037580" lat="49.242824"><ele>82.5</ele></trkpt>
<trkpt lon="4.037489" lat="49.242753"><ele>82.0</ele></trkpt>
<trkpt lon="4.037703" lat="49.242490"><ele>82.5</ele></trkpt>
<trkpt lon="4.037251" lat="49.242374"><ele>81.5</ele></trkpt>
<trkpt lon="4.037140" lat="49.242315"><ele>81.0</ele></trkpt>
<trkpt lon="4.037067" lat="49.242257"><ele>81.0</ele></trkpt>
<trkpt lon="4.036962" lat="49.242100"><ele>81.0</ele></trkpt>
<trkpt lon="4.036872" lat="49.241996"><ele>80.75</ele></trkpt>
<trkpt lon="4.036840" lat="49.241973"><ele>80.75</ele></trkpt>
<trkpt lon="4.036808" lat="49.241962"><ele>80.75</ele></trkpt>
<trkpt lon="4.036271" lat="49.241846"><ele>81.5</ele></trkpt>
<trkpt lon="4.036213" lat="49.241834"><ele>81.75</ele></trkpt>
<trkpt lon="4.036145" lat="49.241888"><ele>81.75</ele></trkpt>
<trkpt lon="4.036043" lat="49.241862"><ele>81.75</ele></trkpt>
<trkpt lon="4.035952" lat="49.241845"><ele>81.5</ele></trkpt>
<trkpt lon="4.035744" lat="49.241794"><ele>80.75</ele></trkpt>
<trkpt lon="4.035656" lat="49.241770"><ele>80.75</ele></trkpt>
<trkpt lon="4.035613" lat="49.241734"><ele>81.0</ele></trkpt>
<trkpt lon="4.035327" lat="49.241672"><ele>81.5</ele></trkpt>
<trkpt lon="4.035225" lat="49.241650"><ele>81.5</ele></trkpt>
<trkpt lon="4.035253" lat="49.241601"><ele>81.5</ele></trkpt>
<trkpt lon="4.035275" lat="49.241543"><ele>81.5</ele></trkpt>
<trkpt lon="4.035297" lat="49.241483"><ele>81.0</ele></trkpt>
<trkpt lon="4.035364" lat="49.241390"><ele>80.75</ele></trkpt>
<trkpt lon="4.035909" lat="49.240911"><ele>79.5</ele></trkpt>
<trkpt lon="4.036127" lat="49.240720"><ele>79.5</ele></trkpt>
<trkpt lon="4.036313" lat="49.240747"><ele>80.25</ele></trkpt>
<trkpt lon="4.036529" lat="49.240540"><ele>80.25</ele></trkpt>
<trkpt lon="4.038674" lat="49.238561"><ele>80.25</ele></trkpt>
<trkpt lon="4.040576" lat="49.236762"><ele>80.0</ele></trkpt>
<trkpt lon="4.041263" lat="49.236137"><ele>80.5</ele></trkpt>
<trkpt lon="4.041986" lat="49.235455"><ele>84.0</ele></trkpt>
<trkpt lon="4.042247" lat="49.235209"><ele>83.0</ele></trkpt>
<trkpt lon="4.042289" lat="49.235170"><ele>83.0</ele></trkpt>
<trkpt lon="4.042523" lat="49.234945"><ele>82.25</ele></trkpt>
<trkpt lon="4.042903" lat="49.234653"><ele>81.75</ele></trkpt>
<trkpt lon="4.043325" lat="49.234387"><ele>82.25</ele></trkpt>
<trkpt lon="4.044042" lat="49.234007"><ele>81.25</ele></trkpt>
<trkpt lon="4.044874" lat="49.233675"><ele>81.5</ele></trkpt>
<trkpt lon="4.045259" lat="49.233558"><ele>82.0</ele></trkpt>
<trkpt lon="4.045693" lat="49.233439"><ele>81.25</ele></trkpt>
<trkpt lon="4.047714" lat="49.232929"><ele>82.25</ele></trkpt>
<trkpt lon="4.048418" lat="49.232807"><ele>84.75</ele></trkpt>
<trkpt lon="4.049136" lat="49.232561"><ele>85.0</ele></trkpt>
<trkpt lon="4.049241" lat="49.232525"><ele>85.0</ele></trkpt>
<trkpt lon="4.051630" lat="49.231894"><ele>85.25</ele></trkpt>
<trkpt lon="4.054508" lat="49.231161"><ele>85.0</ele></trkpt>
<trkpt lon="4.058165" lat="49.230210"><ele>84.75</ele></trkpt>
<trkpt lon="4.059510" lat="49.229861"><ele>84.5</ele></trkpt>
<trkpt lon="4.060145" lat="49.229727"><ele>85.0</ele></trkpt>
<trkpt lon="4.060681" lat="49.229614"><ele>84.5</ele></trkpt>
<trkpt lon="4.062356" lat="49.229262"><ele>84.5</ele></trkpt>
<trkpt lon="4.065281" lat="49.228670"><ele>85.0</ele></trkpt>
<trkpt lon="4.067573" lat="49.228213"><ele>85.0</ele></trkpt>
<trkpt lon="4.069776" lat="49.227749"><ele>84.75</ele></trkpt>
<trkpt lon="4.070072" lat="49.227700"><ele>85.0</ele></trkpt>
<trkpt lon="4.070176" lat="49.227682"><ele>85.25</ele></trkpt>
<trkpt lon="4.070579" lat="49.227639"><ele>86.75</ele></trkpt>
<trkpt lon="4.070927" lat="49.227516"><ele>86.0</ele></trkpt>
<trkpt lon="4.071521" lat="49.227380"><ele>84.0</ele></trkpt>
<trkpt lon="4.072317" lat="49.227216"><ele>84.75</ele></trkpt>
<trkpt lon="4.075296" lat="49.226624"><ele>84.75</ele></trkpt>
<trkpt lon="4.089051" lat="49.223778"><ele>84.5</ele></trkpt>
<trkpt lon="4.092308" lat="49.223138"><ele>84.5</ele></trkpt>
<trkpt lon="4.094606" lat="49.222667"><ele>84.75</ele></trkpt>
<trkpt lon="4.094820" lat="49.222626"><ele>85.75</ele></trkpt>
<trkpt lon="4.095131" lat="49.222568"><ele>87.0</ele></trkpt>
<trkpt lon="4.095159" lat="49.222560"><ele>87.0</ele></trkpt>
<trkpt lon="4.096658" lat="49.222132"><ele>84.5</ele></trkpt>
<trkpt lon="4.098023" lat="49.221593"><ele>84.5</ele></trkpt>
<trkpt lon="4.101589" lat="49.219999"><ele>84.75</ele></trkpt>
<trkpt lon="4.107248" lat="49.217475"><ele>84.75</ele></trkpt>
<trkpt lon="4.108206" lat="49.216960"><ele>84.5</ele></trkpt>
<trkpt lon="4.108972" lat="49.216473"><ele>84.5</ele></trkpt>
<trkpt lon="4.111401" lat="49.214752"><ele>85.0</ele></trkpt>
<trkpt lon="4.113117" lat="49.213507"><ele>84.5</ele></trkpt>
<trkpt lon="4.115145" lat="49.212070"><ele>84.75</ele></trkpt>
<trkpt lon="4.116110" lat="49.211493"><ele>85.25</ele></trkpt>
<trkpt lon="4.116957" lat="49.211090"><ele>84.75</ele></trkpt>
<trkpt lon="4.117512" lat="49.210875"><ele>85.0</ele></trkpt>
<trkpt lon="4.118306" lat="49.210607"><ele>85.0</ele></trkpt>
<trkpt lon="4.122523" lat="49.209247"><ele>85.25</ele></trkpt>
<trkpt lon="4.124241" lat="49.208712"><ele>86.0</ele></trkpt>
<trkpt lon="4.124606" lat="49.208592"><ele>85.75</ele></trkpt>
<trkpt lon="4.125083" lat="49.208407"><ele>85.25</ele></trkpt>
<trkpt lon="4.126539" lat="49.207881"><ele>85.75</ele></trkpt>
<trkpt lon="4.131102" lat="49.206399"><ele>86.75</ele></trkpt>
<trkpt lon="4.133104" lat="49.205827"><ele>84.75</ele></trkpt>
<trkpt lon="4.133477" lat="49.205677"><ele>84.5</ele></trkpt>
<trkpt lon="4.133753" lat="49.205545"><ele>84.75</ele></trkpt>
<trkpt lon="4.134017" lat="49.205399"><ele>85.25</ele></trkpt>
<trkpt lon="4.134277" lat="49.205238"><ele>85.5</ele></trkpt>
<trkpt lon="4.134529" lat="49.205039"><ele>85.75</ele></trkpt>
<trkpt lon="4.134885" lat="49.204744"><ele>86.0</ele></trkpt>
<trkpt lon="4.135121" lat="49.204479"><ele>85.5</ele></trkpt>
<trkpt lon="4.135428" lat="49.204054"><ele>85.0</ele></trkpt>
<trkpt lon="4.135534" lat="49.203894"><ele>84.75</ele></trkpt>
<trkpt lon="4.135657" lat="49.203574"><ele>85.0</ele></trkpt>
<trkpt lon="4.135716" lat="49.203390"><ele>85.0</ele></trkpt>
<trkpt lon="4.136002" lat="49.201724"><ele>85.75</ele></trkpt>
<trkpt lon="4.136021" lat="49.201622"><ele>86.0</ele></trkpt>
<trkpt lon="4.136141" lat="49.201308"><ele>87.5</ele></trkpt>
<trkpt lon="4.136207" lat="49.201112"><ele>87.5</ele></trkpt>
<trkpt lon="4.136288" lat="49.200955"><ele>86.25</ele></trkpt>
<trkpt lon="4.136305" lat="49.200802"><ele>85.25</ele></trkpt>
<trkpt lon="4.136235" lat="49.200735"><ele>86.0</ele></trkpt>
<trkpt lon="4.136245" lat="49.200678"><ele>86.5</ele></trkpt>
<trkpt lon="4.136432" lat="49.199572"><ele>89.0</ele></trkpt>
<trkpt lon="4.136509" lat="49.199199"><ele>90.0</ele></trkpt>
<trkpt lon="4.136564" lat="49.198897"><ele>89.0</ele></trkpt>
<trkpt lon="4.136583" lat="49.198862"><ele>89.0</ele></trkpt>
<trkpt lon="4.136548" lat="49.198597"><ele>89.0</ele></trkpt>
<trkpt lon="4.136472" lat="49.198557"><ele>89.0</ele></trkpt>
<trkpt lon="4.136313" lat="49.198535"><ele>88.75</ele></trkpt>
<trkpt lon="4.136147" lat="49.198527"><ele>88.25</ele></trkpt>
<trkpt lon="4.136072" lat="49.198473"><ele>88.25</ele></trkpt>
<trkpt lon="4.136228" lat="49.197942"><ele>89.0</ele></trkpt>
<trkpt lon="4.136366" lat="49.197673"><ele>89.0</ele></trkpt>
<trkpt lon="4.136455" lat="49.197467"><ele>89.0</ele></trkpt>
<trkpt lon="4.136560" lat="49.197330"><ele>89.0</ele></trkpt>
<trkpt lon="4.136626" lat="49.197245"><ele>89.0</ele></trkpt>
<trkpt lon="4.136798" lat="49.197053"><ele>89.0</ele></trkpt>
<trkpt lon="4.136876" lat="49.196981"><ele>89.0</ele></trkpt>
<trkpt lon="4.136945" lat="49.196971"><ele>88.75</ele></trkpt>
<trkpt lon="4.137464" lat="49.196573"><ele>89.0</ele></trkpt>
<trkpt lon="4.137816" lat="49.196364"><ele>89.0</ele></trkpt>
<trkpt lon="4.138157" lat="49.196212"><ele>89.0</ele></trkpt>
<trkpt lon="4.138521" lat="49.196051"><ele>89.0</ele></trkpt>
<trkpt lon="4.138542" lat="49.195989"><ele>89.0</ele></trkpt>
<trkpt lon="4.138584" lat="49.195955"><ele>89.0</ele></trkpt>
<trkpt lon="4.138676" lat="49.195945"><ele>89.0</ele></trkpt>
<trkpt lon="4.138760" lat="49.195956"><ele>89.0</ele></trkpt>
<trkpt lon="4.139192" lat="49.196132"><ele>89.0</ele></trkpt>
<trkpt lon="4.139292" lat="49.196149"><ele>89.0</ele></trkpt>
<trkpt lon="4.139464" lat="49.196140"><ele>89.0</ele></trkpt>
<trkpt lon="4.139690" lat="49.196085"><ele>89.0</ele></trkpt>
<trkpt lon="4.139850" lat="49.196024"><ele>89.0</ele></trkpt>
<trkpt lon="4.139984" lat="49.195973"><ele>89.0</ele></trkpt>
<trkpt lon="4.141160" lat="49.195591"><ele>88.0</ele></trkpt>
<trkpt lon="4.143026" lat="49.195009"><ele>87.75</ele></trkpt>
<trkpt lon="4.147165" lat="49.193712"><ele>90.75</ele></trkpt>
<trkpt lon="4.147510" lat="49.193608"><ele>89.0</ele></trkpt>
<trkpt lon="4.148328" lat="49.193356"><ele>89.0</ele></trkpt>
<trkpt lon="4.149596" lat="49.192953"><ele>88.25</ele></trkpt>
<trkpt lon="4.150853" lat="49.192520"><ele>88.75</ele></trkpt>
<trkpt lon="4.151054" lat="49.192490"><ele>89.0</ele></trkpt>
<trkpt lon="4.152308" lat="49.192093"><ele>89.0</ele></trkpt>
<trkpt lon="4.153056" lat="49.191782"><ele>89.0</ele></trkpt>
<trkpt lon="4.154305" lat="49.191234"><ele>89.0</ele></trkpt>
<trkpt lon="4.154833" lat="49.191011"><ele>89.0</ele></trkpt>
<trkpt lon="4.155518" lat="49.190726"><ele>89.0</ele></trkpt>
<trkpt lon="4.155813" lat="49.190616"><ele>89.75</ele></trkpt>
<trkpt lon="4.156060" lat="49.190471"><ele>89.25</ele></trkpt>
<trkpt lon="4.157166" lat="49.189997"><ele>89.0</ele></trkpt>
<trkpt lon="4.157350" lat="49.189914"><ele>89.0</ele></trkpt>
<trkpt lon="4.158311" lat="49.189494"><ele>92.0</ele></trkpt>
<trkpt lon="4.158367" lat="49.189481"><ele>92.25</ele></trkpt>
<trkpt lon="4.158406" lat="49.189522"><ele>91.75</ele></trkpt>
<trkpt lon="4.158585" lat="49.189707"><ele>91.5</ele></trkpt>
<trkpt lon="4.158600" lat="49.189724"><ele>91.75</ele></trkpt>
<trkpt lon="4.158677" lat="49.189689"><ele>91.5</ele></trkpt>
<trkpt lon="4.158800" lat="49.189603"><ele>91.0</ele></trkpt>
<trkpt lon="4.159009" lat="49.189513"><ele>91.0</ele></trkpt>
<trkpt lon="4.159173" lat="49.189444"><ele>91.0</ele></trkpt>
<trkpt lon="4.162541" lat="49.187993"><ele>90.0</ele></trkpt>
<trkpt lon="4.164974" lat="49.186952"><ele>91.0</ele></trkpt>
<trkpt lon="4.165535" lat="49.186708"><ele>90.75</ele></trkpt>
<trkpt lon="4.169155" lat="49.185140"><ele>92.25</ele></trkpt>
<trkpt lon="4.168896" lat="49.184884"><ele>92.75</ele></trkpt>
<trkpt lon="4.168489" lat="49.184467"><ele>92.0</ele></trkpt>
<trkpt lon="4.167743" lat="49.183636"><ele>90.75</ele></trkpt>
<trkpt lon="4.167380" lat="49.183213"><ele>91.5</ele></trkpt>
<trkpt lon="4.167465" lat="49.183131"><ele>91.25</ele></trkpt>
<trkpt lon="4.167455" lat="49.183068"><ele>91.0</ele></trkpt>
<trkpt lon="4.167133" lat="49.182612"><ele>92.0</ele></trkpt>
<trkpt lon="4.167090" lat="49.182485"><ele>92.5</ele></trkpt>
<trkpt lon="4.167176" lat="49.182205"><ele>92.25</ele></trkpt>
<trkpt lon="4.167326" lat="49.182044"><ele>93.0</ele></trkpt>
<trkpt lon="4.167562" lat="49.181896"><ele>93.0</ele></trkpt>
<trkpt lon="4.180748" lat="49.175220"><ele>94.0</ele></trkpt>
<trkpt lon="4.180627" lat="49.175137"><ele>94.0</ele></trkpt>
<trkpt lon="4.180512" lat="49.175045"><ele>94.0</ele></trkpt>
<trkpt lon="4.179197" lat="49.173992"><ele>94.5</ele></trkpt>
<trkpt lon="4.176185" lat="49.171497"><ele>99.75</ele></trkpt>
<trkpt lon="4.178296" lat="49.170551"><ele>106.75</ele></trkpt>
<trkpt lon="4.178459" lat="49.170507"><ele>106.25</ele></trkpt>
<trkpt lon="4.178329" lat="49.170427"><ele>104.5</ele></trkpt>
<trkpt lon="4.177924" lat="49.170175"><ele>104.75</ele></trkpt>
<trkpt lon="4.177725" lat="49.170049"><ele>107.25</ele></trkpt>
<trkpt lon="4.177598" lat="49.169975"><ele>106.25</ele></trkpt>
<trkpt lon="4.177060" lat="49.169673"><ele>106.5</ele></trkpt>
<trkpt lon="4.176871" lat="49.169560"><ele>109.25</ele></trkpt>
<trkpt lon="4.176525" lat="49.169301"><ele>110.25</ele></trkpt>
<trkpt lon="4.176302" lat="49.169120"><ele>111.0</ele></trkpt>
<trkpt lon="4.175546" lat="49.168502"><ele>108.75</ele></trkpt>
<trkpt lon="4.175152" lat="49.168191"><ele>109.0</ele></trkpt>
<trkpt lon="4.174869" lat="49.167962"><ele>114.0</ele></trkpt>
<trkpt lon="4.174999" lat="49.167915"><ele>114.0</ele></trkpt>
<trkpt lon="4.175088" lat="49.167915"><ele>113.5</ele></trkpt>
<trkpt lon="4.175226" lat="49.167950"><ele>113.0</ele></trkpt>
<trkpt lon="4.175328" lat="49.167944"><ele>112.25</ele></trkpt>
<trkpt lon="4.175456" lat="49.167900"><ele>111.25</ele></trkpt>
<trkpt lon="4.177844" lat="49.166817"><ele>107.25</ele></trkpt>
<trkpt lon="4.177908" lat="49.166756"><ele>107.5</ele></trkpt>
<trkpt lon="4.177921" lat="49.166681"><ele>108.25</ele></trkpt>
<trkpt lon="4.177899" lat="49.166608"><ele>108.5</ele></trkpt>
<trkpt lon="4.176690" lat="49.165636"><ele>111.75</ele></trkpt>
<trkpt lon="4.176347" lat="49.165284"><ele>112.0</ele></trkpt>
<trkpt lon="4.175111" lat="49.163693"><ele>113.0</ele></trkpt>
<trkpt lon="4.174993" lat="49.163563"><ele>113.0</ele></trkpt>
<trkpt lon="4.174908" lat="49.163487"><ele>113.0</ele></trkpt>
<trkpt lon="4.174682" lat="49.163338"><ele>113.0</ele></trkpt>
<trkpt lon="4.174046" lat="49.162940"><ele>113.75</ele></trkpt>
<trkpt lon="4.173472" lat="49.162560"><ele>113.25</ele></trkpt>
<trkpt lon="4.172948" lat="49.162225"><ele>113.25</ele></trkpt>
<trkpt lon="4.171268" lat="49.161429"><ele>112.5</ele></trkpt>
<trkpt lon="4.170525" lat="49.161092"><ele>113.0</ele></trkpt>
<trkpt lon="4.170004" lat="49.160826"><ele>113.75</ele></trkpt>
<trkpt lon="4.169748" lat="49.160713"><ele>114.5</ele></trkpt>
<trkpt lon="4.169614" lat="49.160237"><ele>114.25</ele></trkpt>
<trkpt lon="4.169463" lat="49.160175"><ele>114.75</ele></trkpt>
<trkpt lon="4.169210" lat="49.160058"><ele>115.0</ele></trkpt>
<trkpt lon="4.167037" lat="49.159191"><ele>119.5</ele></trkpt>
<trkpt lon="4.167151" lat="49.159078"><ele>119.75</ele></trkpt>
<trkpt lon="4.166650" lat="49.158817"><ele>122.25</ele></trkpt>
<trkpt lon="4.166493" lat="49.158728"><ele>123.5</ele></trkpt>
<trkpt lon="4.166032" lat="49.158266"><ele>127.75</ele></trkpt>
<trkpt lon="4.165735" lat="49.158003"><ele>131.0</ele></trkpt>
<trkpt lon="4.165386" lat="49.157679"><ele>136.0</ele></trkpt>
<trkpt lon="4.165358" lat="49.157610"><ele>137.0</ele></trkpt>
<trkpt lon="4.165234" lat="49.157460"><ele>139.5</ele></trkpt>
<trkpt lon="4.165107" lat="49.157233"><ele>142.75</ele></trkpt>
<trkpt lon="4.165008" lat="49.156918"><ele>147.25</ele></trkpt>
<trkpt lon="4.164810" lat="49.156636"><ele>151.25</ele></trkpt>
<trkpt lon="4.164577" lat="49.156366"><ele>154.0</ele></trkpt>
<trkpt lon="4.164485" lat="49.156288"><ele>155.0</ele></trkpt>
<trkpt lon="4.164349" lat="49.156152"><ele>156.0</ele></trkpt>
<trkpt lon="4.163975" lat="49.155625"><ele>158.0</ele></trkpt>
<trkpt lon="4.163834" lat="49.155487"><ele>159.0</ele></trkpt>
<trkpt lon="4.163604" lat="49.155350"><ele>159.5</ele></trkpt>
<trkpt lon="4.163462" lat="49.155218"><ele>160.75</ele></trkpt>
<trkpt lon="4.163079" lat="49.154825"><ele>164.5</ele></trkpt>
<trkpt lon="4.162533" lat="49.154335"><ele>168.5</ele></trkpt>
<trkpt lon="4.162120" lat="49.153985"><ele>170.5</ele></trkpt>
<trkpt lon="4.161374" lat="49.153378"><ele>173.0</ele></trkpt>
<trkpt lon="4.160781" lat="49.152941"><ele>173.75</ele></trkpt>
<trkpt lon="4.160270" lat="49.152600"><ele>175.5</ele></trkpt>
<trkpt lon="4.160073" lat="49.152426"><ele>176.75</ele></trkpt>
<trkpt lon="4.159888" lat="49.152177"><ele>178.5</ele></trkpt>
<trkpt lon="4.159745" lat="49.151923"><ele>181.25</ele></trkpt>
<trkpt lon="4.159736" lat="49.151828"><ele>181.75</ele></trkpt>
<trkpt lon="4.159765" lat="49.151703"><ele>183.0</ele></trkpt>
<trkpt lon="4.159614" lat="49.151681"><ele>182.0</ele></trkpt>
<trkpt lon="4.159465" lat="49.151504"><ele>184.5</ele></trkpt>
<trkpt lon="4.159335" lat="49.151331"><ele>187.0</ele></trkpt>
<trkpt lon="4.159286" lat="49.151049"><ele>193.0</ele></trkpt>
<trkpt lon="4.159288" lat="49.151005"><ele>193.75</ele></trkpt>
<trkpt lon="4.159289" lat="49.150717"><ele>197.5</ele></trkpt>
<trkpt lon="4.159305" lat="49.150569"><ele>199.75</ele></trkpt>
<trkpt lon="4.159372" lat="49.150283"><ele>203.75</ele></trkpt>
<trkpt lon="4.159483" lat="49.150258"><ele>204.0</ele></trkpt>
<trkpt lon="4.159718" lat="49.150183"><ele>205.0</ele></trkpt>
<trkpt lon="4.159792" lat="49.150135"><ele>205.25</ele></trkpt>
<trkpt lon="4.159818" lat="49.150101"><ele>205.5</ele></trkpt>
<trkpt lon="4.159821" lat="49.150080"><ele>205.75</ele></trkpt>
<trkpt lon="4.159653" lat="49.149982"><ele>207.0</ele></trkpt>
<trkpt lon="4.159485" lat="49.149904"><ele>207.25</ele></trkpt>
<trkpt lon="4.159535" lat="49.149848"><ele>207.5</ele></trkpt>
<trkpt lon="4.159581" lat="49.149753"><ele>207.75</ele></trkpt>
<trkpt lon="4.159644" lat="49.149581"><ele>207.75</ele></trkpt>
<trkpt lon="4.159659" lat="49.149529"><ele>207.5</ele></trkpt>
<trkpt lon="4.159757" lat="49.149524"><ele>207.0</ele></trkpt>
<trkpt lon="4.159840" lat="49.149512"><ele>206.5</ele></trkpt>
<trkpt lon="4.159782" lat="49.149354"><ele>206.5</ele></trkpt>
<trkpt lon="4.159735" lat="49.149256"><ele>206.75</ele></trkpt>
<trkpt lon="4.159673" lat="49.149140"><ele>207.0</ele></trkpt>
<trkpt lon="4.159520" lat="49.148814"><ele>207.0</ele></trkpt>
<trkpt lon="4.159505" lat="49.148776"><ele>207.25</ele></trkpt>
<trkpt lon="4.159482" lat="49.148690"><ele>207.25</ele></trkpt>
<trkpt lon="4.159477" lat="49.148613"><ele>207.25</ele></trkpt>
<trkpt lon="4.159474" lat="49.148538"><ele>208.0</ele></trkpt>
<trkpt lon="4.159481" lat="49.148475"><ele>208.5</ele></trkpt>
<trkpt lon="4.159503" lat="49.148380"><ele>209.25</ele></trkpt>
<trkpt lon="4.159577" lat="49.148123"><ele>210.25</ele></trkpt>
<trkpt lon="4.159642" lat="49.147927"><ele>209.25</ele></trkpt>
<trkpt lon="4.159675" lat="49.147782"><ele>208.25</ele></trkpt>
<trkpt lon="4.159705" lat="49.147612"><ele>206.25</ele></trkpt>
<trkpt lon="4.159675" lat="49.147449"><ele>205.75</ele></trkpt>
<trkpt lon="4.159587" lat="49.147286"><ele>206.0</ele></trkpt>
<trkpt lon="4.159373" lat="49.146995"><ele>207.75</ele></trkpt>
<trkpt lon="4.159139" lat="49.146685"><ele>209.5</ele></trkpt>
<trkpt lon="4.159027" lat="49.146515"><ele>209.5</ele></trkpt>
<trkpt lon="4.159008" lat="49.146439"><ele>209.25</ele></trkpt>
<trkpt lon="4.158925" lat="49.145885"><ele>211.5</ele></trkpt>
<trkpt lon="4.158925" lat="49.145777"><ele>212.5</ele></trkpt>
<trkpt lon="4.159037" lat="49.145540"><ele>212.0</ele></trkpt>
<trkpt lon="4.159377" lat="49.145207"><ele>210.75</ele></trkpt>
<trkpt lon="4.159714" lat="49.145025"><ele>210.25</ele></trkpt>
<trkpt lon="4.160519" lat="49.144713"><ele>208.0</ele></trkpt>
<trkpt lon="4.160967" lat="49.144456"><ele>206.25</ele></trkpt>
<trkpt lon="4.159775" lat="49.143995"><ele>235.5</ele></trkpt>
<trkpt lon="4.159629" lat="49.143817"><ele>248.5</ele></trkpt>
  </trkseg></trk></gpx>
