<?xml version="1.0" encoding="UTF-8"?>
<gpx version="1.1" creator="compostel-brouter" xmlns="http://www.topografix.com/GPX/1/1">
  <metadata><name>FR-05-Chalons</name></metadata>
  <trk><name>FR-05-Chalons</name><trkseg>
<trkpt lon="4.159629" lat="49.143817"><ele>237.25</ele></trkpt>
<trkpt lon="4.158741" lat="49.142739"><ele>248.5</ele></trkpt>
<trkpt lon="4.158103" lat="49.141336"><ele>273.0</ele></trkpt>
<trkpt lon="4.157321" lat="49.141025"><ele>280.25</ele></trkpt>
<trkpt lon="4.157168" lat="49.141135"><ele>279.75</ele></trkpt>
<trkpt lon="4.157026" lat="49.141199"><ele>279.75</ele></trkpt>
<trkpt lon="4.156585" lat="49.140837"><ele>282.75</ele></trkpt>
<trkpt lon="4.156540" lat="49.140818"><ele>283.0</ele></trkpt>
<trkpt lon="4.156476" lat="49.140804"><ele>283.0</ele></trkpt>
<trkpt lon="4.156428" lat="49.140735"><ele>283.0</ele></trkpt>
<trkpt lon="4.156396" lat="49.140627"><ele>283.0</ele></trkpt>
<trkpt lon="4.156409" lat="49.140494"><ele>283.0</ele></trkpt>
<trkpt lon="4.156390" lat="49.140398"><ele>283.0</ele></trkpt>
<trkpt lon="4.156210" lat="49.140061"><ele>283.0</ele></trkpt>
<trkpt lon="4.156175" lat="49.139957"><ele>283.0</ele></trkpt>
<trkpt lon="4.156137" lat="49.139701"><ele>284.0</ele></trkpt>
<trkpt lon="4.156248" lat="49.139279"><ele>284.0</ele></trkpt>
<trkpt lon="4.156254" lat="49.139073"><ele>284.25</ele></trkpt>
<trkpt lon="4.156282" lat="49.138978"><ele>284.5</ele></trkpt>
<trkpt lon="4.156632" lat="49.138320"><ele>285.0</ele></trkpt>
<trkpt lon="4.156906" lat="49.137989"><ele>286.0</ele></trkpt>
<trkpt lon="4.157013" lat="49.137885"><ele>286.0</ele></trkpt>
<trkpt lon="4.157501" lat="49.137511"><ele>286.0</ele></trkpt>
<trkpt lon="4.157924" lat="49.137038"><ele>286.0</ele></trkpt>
<trkpt lon="4.157624" lat="49.136915"><ele>286.0</ele></trkpt>
<trkpt lon="4.157453" lat="49.135349"><ele>284.25</ele></trkpt>
<trkpt lon="4.157568" lat="49.134527"><ele>283.0</ele></trkpt>
<trkpt lon="4.158506" lat="49.131113"><ele>281.5</ele></trkpt>
<trkpt lon="4.155614" lat="49.130083"><ele>278.0</ele></trkpt>
<trkpt lon="4.156163" lat="49.129417"><ele>280.0</ele></trkpt>
<trkpt lon="4.156996" lat="49.128405"><ele>281.0</ele></trkpt>
<trkpt lon="4.158450" lat="49.126617"><ele>279.0</ele></trkpt>
<trkpt lon="4.159506" lat="49.125338"><ele>279.0</ele></trkpt>
<trkpt lon="4.160468" lat="49.124138"><ele>277.0</ele></trkpt>
<trkpt lon="4.161874" lat="49.122413"><ele>281.0</ele></trkpt>
<trkpt lon="4.162858" lat="49.121206"><ele>281.75</ele></trkpt>
<trkpt lon="4.166082" lat="49.117250"><ele>276.75</ele></trkpt>
<trkpt lon="4.169478" lat="49.117288"><ele>276.0</ele></trkpt>
<trkpt lon="4.170329" lat="49.117163"><ele>275.75</ele></trkpt>
<trkpt lon="4.172265" lat="49.116618"><ele>275.5</ele></trkpt>
<trkpt lon="4.172475" lat="49.116627"><ele>275.5</ele></trkpt>
<trkpt lon="4.172572" lat="49.116519"><ele>274.75</ele></trkpt>
<trkpt lon="4.173940" lat="49.114193"><ele>252.0</ele></trkpt>
<trkpt lon="4.173789" lat="49.114059"><ele>251.0</ele></trkpt>
<trkpt lon="4.173730" lat="49.114007"><ele>250.75</ele></trkpt>
<trkpt lon="4.173441" lat="49.113676"><ele>250.25</ele></trkpt>
<trkpt lon="4.172794" lat="49.113148"><ele>252.0</ele></trkpt>
<trkpt lon="4.172603" lat="49.112913"><ele>253.0</ele></trkpt>
<trkpt lon="4.172504" lat="49.112477"><ele>256.0</ele></trkpt>
<trkpt lon="4.172373" lat="49.112197"><ele>255.5</ele></trkpt>
<trkpt lon="4.172332" lat="49.112005"><ele>255.5</ele></trkpt>
<trkpt lon="4.172629" lat="49.111271"><ele>258.25</ele></trkpt>
<trkpt lon="4.172626" lat="49.111047"><ele>259.0</ele></trkpt>
<trkpt lon="4.172572" lat="49.110892"><ele>259.0</ele></trkpt>
<trkpt lon="4.172399" lat="49.110660"><ele>258.25</ele></trkpt>
<trkpt lon="4.172099" lat="49.110323"><ele>256.25</ele></trkpt>
<trkpt lon="4.171968" lat="49.110201"><ele>255.75</ele></trkpt>
<trkpt lon="4.171775" lat="49.109980"><ele>256.75</ele></trkpt>
<trkpt lon="4.172266" lat="49.109966"><ele>252.75</ele></trkpt>
<trkpt lon="4.172320" lat="49.109919"><ele>253.0</ele></trkpt>
<trkpt lon="4.172456" lat="49.109886"><ele>251.75</ele></trkpt>
<trkpt lon="4.172645" lat="49.109874"><ele>249.75</ele></trkpt>
<trkpt lon="4.172963" lat="49.109871"><ele>246.75</ele></trkpt>
<trkpt lon="4.173329" lat="49.109883"><ele>242.0</ele></trkpt>
<trkpt lon="4.173538" lat="49.109874"><ele>239.5</ele></trkpt>
<trkpt lon="4.173638" lat="49.109850"><ele>238.0</ele></trkpt>
<trkpt lon="4.173723" lat="49.109789"><ele>236.5</ele></trkpt>
<trkpt lon="4.173813" lat="49.109680"><ele>234.0</ele></trkpt>
<trkpt lon="4.173876" lat="49.109562"><ele>231.75</ele></trkpt>
<trkpt lon="4.173997" lat="49.109437"><ele>229.0</ele></trkpt>
<trkpt lon="4.174010" lat="49.109347"><ele>227.75</ele></trkpt>
<trkpt lon="4.174072" lat="49.109225"><ele>225.75</ele></trkpt>
<trkpt lon="4.174348" lat="49.108231"><ele>222.5</ele></trkpt>
<trkpt lon="4.174589" lat="49.107584"><ele>221.5</ele></trkpt>
<trkpt lon="4.174769" lat="49.107250"><ele>217.5</ele></trkpt>
<trkpt lon="4.174629" lat="49.107060"><ele>220.25</ele></trkpt>
<trkpt lon="4.174604" lat="49.106932"><ele>221.0</ele></trkpt>
<trkpt lon="4.174896" lat="49.106635"><ele>219.0</ele></trkpt>
<trkpt lon="4.175089" lat="49.106370"><ele>221.0</ele></trkpt>
<trkpt lon="4.175210" lat="49.106133"><ele>223.0</ele></trkpt>
<trkpt lon="4.175220" lat="49.105908"><ele>223.0</ele></trkpt>
<trkpt lon="4.175124" lat="49.105755"><ele>223.5</ele></trkpt>
<trkpt lon="4.174893" lat="49.105587"><ele>224.0</ele></trkpt>
<trkpt lon="4.174762" lat="49.105438"><ele>224.0</ele></trkpt>
<trkpt lon="4.174714" lat="49.105241"><ele>223.25</ele></trkpt>
<trkpt lon="4.174730" lat="49.105085"><ele>223.5</ele></trkpt>
<trkpt lon="4.174969" lat="49.104880"><ele>221.25</ele></trkpt>
<trkpt lon="4.175349" lat="49.104756"><ele>218.0</ele></trkpt>
<trkpt lon="4.175521" lat="49.104475"><ele>216.25</ele></trkpt>
<trkpt lon="4.175674" lat="49.104258"><ele>214.25</ele></trkpt>
<trkpt lon="4.175448" lat="49.104145"><ele>215.5</ele></trkpt>
<trkpt lon="4.175054" lat="49.103864"><ele>215.25</ele></trkpt>
<trkpt lon="4.174799" lat="49.103620"><ele>216.0</ele></trkpt>
<trkpt lon="4.175365" lat="49.103121"><ele>209.5</ele></trkpt>
<trkpt lon="4.175363" lat="49.103049"><ele>209.0</ele></trkpt>
<trkpt lon="4.175014" lat="49.102832"><ele>209.25</ele></trkpt>
<trkpt lon="4.175014" lat="49.102768"><ele>208.75</ele></trkpt>
<trkpt lon="4.175561" lat="49.102310"><ele>201.25</ele></trkpt>
<trkpt lon="4.175760" lat="49.102163"><ele>199.25</ele></trkpt>
<trkpt lon="4.176202" lat="49.101783"><ele>194.75</ele></trkpt>
<trkpt lon="4.176618" lat="49.101327"><ele>190.0</ele></trkpt>
<trkpt lon="4.176951" lat="49.101489"><ele>189.25</ele></trkpt>
<trkpt lon="4.177943" lat="49.100454"><ele>180.5</ele></trkpt>
<trkpt lon="4.178380" lat="49.100071"><ele>177.25</ele></trkpt>
<trkpt lon="4.178691" lat="49.099823"><ele>175.25</ele></trkpt>
<trkpt lon="4.178943" lat="49.099476"><ele>172.0</ele></trkpt>
<trkpt lon="4.179338" lat="49.099070"><ele>169.25</ele></trkpt>
<trkpt lon="4.179584" lat="49.098917"><ele>167.5</ele></trkpt>
<trkpt lon="4.179908" lat="49.098779"><ele>165.5</ele></trkpt>
<trkpt lon="4.179497" lat="49.098194"><ele>162.25</ele></trkpt>
<trkpt lon="4.179592" lat="49.097417"><ele>159.0</ele></trkpt>
<trkpt lon="4.179646" lat="49.097247"><ele>158.25</ele></trkpt>
<trkpt lon="4.180011" lat="49.096323"><ele>157.75</ele></trkpt>
<trkpt lon="4.180231" lat="49.095828"><ele>159.0</ele></trkpt>
<trkpt lon="4.180499" lat="49.095340"><ele>161.75</ele></trkpt>
<trkpt lon="4.180660" lat="49.094910"><ele>161.0</ele></trkpt>
<trkpt lon="4.180622" lat="49.094896"><ele>161.0</ele></trkpt>
<trkpt lon="4.180687" lat="49.094806"><ele>160.5</ele></trkpt>
<trkpt lon="4.180685" lat="49.094688"><ele>160.25</ele></trkpt>
<trkpt lon="4.179700" lat="49.092979"><ele>147.0</ele></trkpt>
<trkpt lon="4.179405" lat="49.092468"><ele>143.75</ele></trkpt>
<trkpt lon="4.178812" lat="49.090292"><ele>138.0</ele></trkpt>
<trkpt lon="4.178407" lat="49.088797"><ele>136.5</ele></trkpt>
<trkpt lon="4.178141" lat="49.088117"><ele>134.0</ele></trkpt>
<trkpt lon="4.177478" lat="49.086559"><ele>124.0</ele></trkpt>
<trkpt lon="4.174705" lat="49.085385"><ele>116.75</ele></trkpt>
<trkpt lon="4.173804" lat="49.085054"><ele>114.0</ele></trkpt>
<trkpt lon="4.175381" lat="49.082679"><ele>103.25</ele></trkpt>
<trkpt lon="4.175561" lat="49.082466"><ele>102.75</ele></trkpt>
<trkpt lon="4.175733" lat="49.082297"><ele>102.25</ele></trkpt>
<trkpt lon="4.177063" lat="49.081412"><ele>102.0</ele></trkpt>
<trkpt lon="4.177181" lat="49.081285"><ele>101.5</ele></trkpt>
<trkpt lon="4.177149" lat="49.081187"><ele>101.25</ele></trkpt>
<trkpt lon="4.176227" lat="49.080463"><ele>98.75</ele></trkpt>
<trkpt lon="4.175312" lat="49.079714"><ele>98.75</ele></trkpt>
<trkpt lon="4.174862" lat="49.079466"><ele>99.0</ele></trkpt>
<trkpt lon="4.176301" lat="49.078358"><ele>97.0</ele></trkpt>
<trkpt lon="4.176351" lat="49.078320"><ele>97.0</ele></trkpt>
<trkpt lon="4.176367" lat="49.078282"><ele>97.0</ele></trkpt>
<trkpt lon="4.176348" lat="49.078249"><ele>97.0</ele></trkpt>
<trkpt lon="4.175995" lat="49.078023"><ele>97.0</ele></trkpt>
<trkpt lon="4.175081" lat="49.077441"><ele>97.25</ele></trkpt>
<trkpt lon="4.175017" lat="49.077404"><ele>97.25</ele></trkpt>
<trkpt lon="4.175403" lat="49.077023"><ele>98.25</ele></trkpt>
<trkpt lon="4.175805" lat="49.076785"><ele>98.75</ele></trkpt>
<trkpt lon="4.176843" lat="49.075991"><ele>98.0</ele></trkpt>
<trkpt lon="4.176891" lat="49.075975"><ele>98.0</ele></trkpt>
<trkpt lon="4.176980" lat="49.075943"><ele>97.75</ele></trkpt>
<trkpt lon="4.177417" lat="49.075684"><ele>98.0</ele></trkpt>
<trkpt lon="4.177535" lat="49.075629"><ele>97.75</ele></trkpt>
<trkpt lon="4.177420" lat="49.075479"><ele>98.0</ele></trkpt>
<trkpt lon="4.176721" lat="49.074391"><ele>101.0</ele></trkpt>
<trkpt lon="4.176966" lat="49.074252"><ele>100.75</ele></trkpt>
<trkpt lon="4.176398" lat="49.073406"><ele>101.5</ele></trkpt>
<trkpt lon="4.176343" lat="49.073351"><ele>101.75</ele></trkpt>
<trkpt lon="4.176276" lat="49.073297"><ele>101.5</ele></trkpt>
<trkpt lon="4.176196" lat="49.073218"><ele>101.5</ele></trkpt>
<trkpt lon="4.176119" lat="49.073110"><ele>101.75</ele></trkpt>
<trkpt lon="4.175933" lat="49.072804"><ele>101.75</ele></trkpt>
<trkpt lon="4.175691" lat="49.072439"><ele>101.75</ele></trkpt>
<trkpt lon="4.175599" lat="49.072337"><ele>101.75</ele></trkpt>
<trkpt lon="4.175507" lat="49.072251"><ele>102.0</ele></trkpt>
<trkpt lon="4.175356" lat="49.072167"><ele>101.75</ele></trkpt>
<trkpt lon="4.175273" lat="49.072135"><ele>101.5</ele></trkpt>
<trkpt lon="4.175274" lat="49.072069"><ele>101.25</ele></trkpt>
<trkpt lon="4.175256" lat="49.072010"><ele>101.25</ele></trkpt>
<trkpt lon="4.175218" lat="49.071951"><ele>101.0</ele></trkpt>
<trkpt lon="4.174977" lat="49.071696"><ele>101.0</ele></trkpt>
<trkpt lon="4.174814" lat="49.071500"><ele>100.5</ele></trkpt>
<trkpt lon="4.174697" lat="49.071330"><ele>99.75</ele></trkpt>
<trkpt lon="4.174488" lat="49.070986"><ele>99.25</ele></trkpt>
<trkpt lon="4.174420" lat="49.070892"><ele>99.0</ele></trkpt>
<trkpt lon="4.174350" lat="49.070818"><ele>98.75</ele></trkpt>
<trkpt lon="4.174273" lat="49.070763"><ele>98.25</ele></trkpt>
<trkpt lon="4.174183" lat="49.070713"><ele>98.0</ele></trkpt>
<trkpt lon="4.174068" lat="49.070673"><ele>97.5</ele></trkpt>
<trkpt lon="4.173994" lat="49.070662"><ele>97.5</ele></trkpt>
<trkpt lon="4.173889" lat="49.070628"><ele>97.25</ele></trkpt>
<trkpt lon="4.173889" lat="49.070533"><ele>96.75</ele></trkpt>
<trkpt lon="4.173962" lat="49.070103"><ele>94.5</ele></trkpt>
<trkpt lon="4.174059" lat="49.069618"><ele>93.25</ele></trkpt>
<trkpt lon="4.174072" lat="49.069429"><ele>93.0</ele></trkpt>
<trkpt lon="4.174043" lat="49.069276"><ele>93.0</ele></trkpt>
<trkpt lon="4.174091" lat="49.069119"><ele>93.0</ele></trkpt>
<trkpt lon="4.174223" lat="49.067763"><ele>96.0</ele></trkpt>
<trkpt lon="4.174429" lat="49.065862"><ele>102.75</ele></trkpt>
<trkpt lon="4.173883" lat="49.065289"><ele>104.75</ele></trkpt>
<trkpt lon="4.173695" lat="49.065068"><ele>104.75</ele></trkpt>
<trkpt lon="4.173780" lat="49.065089"><ele>104.75</ele></trkpt>
<trkpt lon="4.173865" lat="49.065087"><ele>104.75</ele></trkpt>
<trkpt lon="4.174589" lat="49.064703"><ele>106.0</ele></trkpt>
<trkpt lon="4.174713" lat="49.064612"><ele>106.0</ele></trkpt>
<trkpt lon="4.174821" lat="49.064504"><ele>106.0</ele></trkpt>
<trkpt lon="4.175717" lat="49.062802"><ele>105.0</ele></trkpt>
<trkpt lon="4.176686" lat="49.060969"><ele>103.25</ele></trkpt>
<trkpt lon="4.176797" lat="49.060703"><ele>102.5</ele></trkpt>
<trkpt lon="4.176840" lat="49.060544"><ele>101.75</ele></trkpt>
<trkpt lon="4.176863" lat="49.060420"><ele>101.5</ele></trkpt>
<trkpt lon="4.176912" lat="49.059968"><ele>99.75</ele></trkpt>
<trkpt lon="4.177000" lat="49.058215"><ele>90.0</ele></trkpt>
<trkpt lon="4.177131" lat="49.056664"><ele>84.5</ele></trkpt>
<trkpt lon="4.177205" lat="49.055272"><ele>82.0</ele></trkpt>
<trkpt lon="4.177239" lat="49.054812"><ele>82.0</ele></trkpt>
<trkpt lon="4.177254" lat="49.054303"><ele>82.0</ele></trkpt>
<trkpt lon="4.177256" lat="49.054227"><ele>82.0</ele></trkpt>
<trkpt lon="4.177354" lat="49.053885"><ele>83.0</ele></trkpt>
<trkpt lon="4.177661" lat="49.053137"><ele>84.0</ele></trkpt>
<trkpt lon="4.178404" lat="49.051265"><ele>87.5</ele></trkpt>
<trkpt lon="4.178465" lat="49.051128"><ele>87.5</ele></trkpt>
<trkpt lon="4.178467" lat="49.051066"><ele>87.5</ele></trkpt>
<trkpt lon="4.177789" lat="49.050382"><ele>87.75</ele></trkpt>
<trkpt lon="4.177216" lat="49.049828"><ele>88.0</ele></trkpt>
<trkpt lon="4.177171" lat="49.049768"><ele>88.0</ele></trkpt>
<trkpt lon="4.177156" lat="49.049709"><ele>87.75</ele></trkpt>
<trkpt lon="4.177163" lat="49.049635"><ele>87.5</ele></trkpt>
<trkpt lon="4.177507" lat="49.048691"><ele>85.25</ele></trkpt>
<trkpt lon="4.177661" lat="49.048313"><ele>83.75</ele></trkpt>
<trkpt lon="4.177712" lat="49.048215"><ele>83.5</ele></trkpt>
<trkpt lon="4.177739" lat="49.048164"><ele>83.25</ele></trkpt>
<trkpt lon="4.177849" lat="49.048026"><ele>83.0</ele></trkpt>
<trkpt lon="4.177941" lat="49.047928"><ele>83.0</ele></trkpt>
<trkpt lon="4.177993" lat="49.047962"><ele>83.0</ele></trkpt>
<trkpt lon="4.178083" lat="49.047985"><ele>82.75</ele></trkpt>
<trkpt lon="4.179377" lat="49.047809"><ele>81.0</ele></trkpt>
<trkpt lon="4.179732" lat="49.047760"><ele>81.75</ele></trkpt>
<trkpt lon="4.180750" lat="49.047560"><ele>80.0</ele></trkpt>
<trkpt lon="4.180933" lat="49.047516"><ele>80.0</ele></trkpt>
<trkpt lon="4.180999" lat="49.047480"><ele>80.0</ele></trkpt>
<trkpt lon="4.181045" lat="49.047436"><ele>80.0</ele></trkpt>
<trkpt lon="4.181070" lat="49.047381"><ele>80.0</ele></trkpt>
<trkpt lon="4.181071" lat="49.047331"><ele>80.0</ele></trkpt>
<trkpt lon="4.181049" lat="49.047259"><ele>80.0</ele></trkpt>
<trkpt lon="4.180558" lat="49.046443"><ele>79.0</ele></trkpt>
<trkpt lon="4.180432" lat="49.045954"><ele>80.0</ele></trkpt>
<trkpt lon="4.179901" lat="49.044924"><ele>80.0</ele></trkpt>
<trkpt lon="4.179876" lat="49.044856"><ele>80.0</ele></trkpt>
<trkpt lon="4.179981" lat="49.044755"><ele>80.0</ele></trkpt>
<trkpt lon="4.180069" lat="49.044689"><ele>79.75</ele></trkpt>
<trkpt lon="4.179931" lat="49.044560"><ele>80.0</ele></trkpt>
<trkpt lon="4.179651" lat="49.044316"><ele>80.0</ele></trkpt>
<trkpt lon="4.179410" lat="49.044111"><ele>80.25</ele></trkpt>
<trkpt lon="4.178674" lat="49.044396"><ele>81.75</ele></trkpt>
<trkpt lon="4.178522" lat="49.044241"><ele>81.25</ele></trkpt>
<trkpt lon="4.178377" lat="49.044040"><ele>80.5</ele></trkpt>
<trkpt lon="4.178353" lat="49.043981"><ele>80.25</ele></trkpt>
<trkpt lon="4.178303" lat="49.043796"><ele>79.5</ele></trkpt>
<trkpt lon="4.178212" lat="49.043567"><ele>78.75</ele></trkpt>
<trkpt lon="4.178182" lat="49.043517"><ele>78.5</ele></trkpt>
<trkpt lon="4.178144" lat="49.043473"><ele>78.5</ele></trkpt>
<trkpt lon="4.177166" lat="49.042532"><ele>78.0</ele></trkpt>
<trkpt lon="4.177121" lat="49.042482"><ele>78.0</ele></trkpt>
<trkpt lon="4.176918" lat="49.042257"><ele>77.75</ele></trkpt>
<trkpt lon="4.176880" lat="49.042218"><ele>78.0</ele></trkpt>
<trkpt lon="4.176977" lat="49.042167"><ele>77.75</ele></trkpt>
<trkpt lon="4.177246" lat="49.042080"><ele>76.25</ele></trkpt>
<trkpt lon="4.177559" lat="49.041988"><ele>75.75</ele></trkpt>
<trkpt lon="4.177637" lat="49.041966"><ele>75.5</ele></trkpt>
<trkpt lon="4.177803" lat="49.041901"><ele>75.0</ele></trkpt>
<trkpt lon="4.181012" lat="49.040574"><ele>75.5</ele></trkpt>
<trkpt lon="4.181561" lat="49.040365"><ele>74.25</ele></trkpt>
<trkpt lon="4.181692" lat="49.040301"><ele>75.0</ele></trkpt>
<trkpt lon="4.182207" lat="49.040026"><ele>78.5</ele></trkpt>
<trkpt lon="4.182921" lat="49.039784"><ele>76.0</ele></trkpt>
<trkpt lon="4.184755" lat="49.039021"><ele>75.5</ele></trkpt>
<trkpt lon="4.188979" lat="49.037284"><ele>75.25</ele></trkpt>
<trkpt lon="4.189166" lat="49.037206"><ele>75.75</ele></trkpt>
<trkpt lon="4.193746" lat="49.035304"><ele>75.75</ele></trkpt>
<trkpt lon="4.198994" lat="49.033172"><ele>75.5</ele></trkpt>
<trkpt lon="4.202667" lat="49.031610"><ele>75.5</ele></trkpt>
<trkpt lon="4.203360" lat="49.031303"><ele>75.5</ele></trkpt>
<trkpt lon="4.203919" lat="49.031108"><ele>75.75</ele></trkpt>
<trkpt lon="4.205742" lat="49.030340"><ele>75.5</ele></trkpt>
<trkpt lon="4.209647" lat="49.028751"><ele>75.75</ele></trkpt>
<trkpt lon="4.214609" lat="49.026678"><ele>76.0</ele></trkpt>
<trkpt lon="4.217037" lat="49.025676"><ele>76.0</ele></trkpt>
<trkpt lon="4.220800" lat="49.024122"><ele>75.75</ele></trkpt>
<trkpt lon="4.225486" lat="49.022168"><ele>75.75</ele></trkpt>
<trkpt lon="4.226357" lat="49.021813"><ele>76.25</ele></trkpt>
<trkpt lon="4.226542" lat="49.021712"><ele>76.75</ele></trkpt>
<trkpt lon="4.227161" lat="49.021427"><ele>78.0</ele></trkpt>
<trkpt lon="4.227580" lat="49.021300"><ele>77.25</ele></trkpt>
<trkpt lon="4.229164" lat="49.020637"><ele>76.5</ele></trkpt>
<trkpt lon="4.230554" lat="49.020067"><ele>76.25</ele></trkpt>
<trkpt lon="4.233530" lat="49.018861"><ele>77.5</ele></trkpt>
<trkpt lon="4.243193" lat="49.014862"><ele>77.25</ele></trkpt>
<trkpt lon="4.246094" lat="49.013609"><ele>77.75</ele></trkpt>
<trkpt lon="4.247413" lat="49.013071"><ele>79.75</ele></trkpt>
<trkpt lon="4.247688" lat="49.012968"><ele>78.25</ele></trkpt>
<trkpt lon="4.250774" lat="49.011686"><ele>77.75</ele></trkpt>
<trkpt lon="4.258943" lat="49.008333"><ele>77.75</ele></trkpt>
<trkpt lon="4.264132" lat="49.006172"><ele>78.0</ele></trkpt>
<trkpt lon="4.266894" lat="49.005051"><ele>78.0</ele></trkpt>
<trkpt lon="4.267359" lat="49.004881"><ele>79.0</ele></trkpt>
<trkpt lon="4.267499" lat="49.004820"><ele>78.5</ele></trkpt>
<trkpt lon="4.267815" lat="49.004649"><ele>78.0</ele></trkpt>
<trkpt lon="4.269136" lat="49.004101"><ele>77.75</ele></trkpt>
<trkpt lon="4.270657" lat="49.003458"><ele>78.5</ele></trkpt>
<trkpt lon="4.271530" lat="49.003079"><ele>78.25</ele></trkpt>
<trkpt lon="4.274106" lat="49.002029"><ele>78.5</ele></trkpt>
<trkpt lon="4.283336" lat="48.998215"><ele>78.25</ele></trkpt>
<trkpt lon="4.295394" lat="48.993229"><ele>79.5</ele></trkpt>
<trkpt lon="4.297971" lat="48.992149"><ele>79.5</ele></trkpt>
<trkpt lon="4.308781" lat="48.987681"><ele>79.25</ele></trkpt>
<trkpt lon="4.309338" lat="48.987393"><ele>80.75</ele></trkpt>
<trkpt lon="4.309595" lat="48.987306"><ele>80.5</ele></trkpt>
<trkpt lon="4.310019" lat="48.987161"><ele>79.75</ele></trkpt>
<trkpt lon="4.320220" lat="48.982913"><ele>81.0</ele></trkpt>
<trkpt lon="4.320838" lat="48.982652"><ele>80.75</ele></trkpt>
<trkpt lon="4.320961" lat="48.982588"><ele>81.5</ele></trkpt>
<trkpt lon="4.321111" lat="48.982512"><ele>82.75</ele></trkpt>
<trkpt lon="4.321186" lat="48.982467"><ele>82.25</ele></trkpt>
<trkpt lon="4.321345" lat="48.982409"><ele>81.0</ele></trkpt>
<trkpt lon="4.321441" lat="48.982390"><ele>80.75</ele></trkpt>
<trkpt lon="4.321626" lat="48.982339"><ele>80.5</ele></trkpt>
<trkpt lon="4.321708" lat="48.982314"><ele>80.5</ele></trkpt>
<trkpt lon="4.323830" lat="48.981434"><ele>81.0</ele></trkpt>
<trkpt lon="4.325819" lat="48.980625"><ele>81.25</ele></trkpt>
<trkpt lon="4.326176" lat="48.980514"><ele>80.5</ele></trkpt>
<trkpt lon="4.326270" lat="48.980471"><ele>81.0</ele></trkpt>
<trkpt lon="4.326335" lat="48.980431"><ele>81.5</ele></trkpt>
<trkpt lon="4.326692" lat="48.980253"><ele>81.0</ele></trkpt>
<trkpt lon="4.327632" lat="48.979857"><ele>80.75</ele></trkpt>
<trkpt lon="4.328566" lat="48.979452"><ele>81.0</ele></trkpt>
<trkpt lon="4.329300" lat="48.979065"><ele>80.25</ele></trkpt>
<trkpt lon="4.330012" lat="48.978637"><ele>80.75</ele></trkpt>
<trkpt lon="4.330292" lat="48.978454"><ele>80.5</ele></trkpt>
<trkpt lon="4.330668" lat="48.978183"><ele>80.5</ele></trkpt>
<trkpt lon="4.331080" lat="48.977870"><ele>80.5</ele></trkpt>
<trkpt lon="4.331337" lat="48.977656"><ele>80.25</ele></trkpt>
<trkpt lon="4.331422" lat="48.977576"><ele>80.5</ele></trkpt>
<trkpt lon="4.331624" lat="48.977361"><ele>80.25</ele></trkpt>
<trkpt lon="4.331984" lat="48.977108"><ele>80.75</ele></trkpt>
<trkpt lon="4.332553" lat="48.976631"><ele>80.5</ele></trkpt>
<trkpt lon="4.334966" lat="48.974555"><ele>80.5</ele></trkpt>
<trkpt lon="4.335081" lat="48.974440"><ele>80.5</ele></trkpt>
<trkpt lon="4.335238" lat="48.974223"><ele>82.25</ele></trkpt>
<trkpt lon="4.335353" lat="48.974128"><ele>81.75</ele></trkpt>
<trkpt lon="4.335415" lat="48.974093"><ele>80.75</ele></trkpt>
<trkpt lon="4.335753" lat="48.973956"><ele>81.0</ele></trkpt>
<trkpt lon="4.335947" lat="48.973788"><ele>81.0</ele></trkpt>
<trkpt lon="4.336150" lat="48.973546"><ele>81.0</ele></trkpt>
<trkpt lon="4.336205" lat="48.973275"><ele>80.75</ele></trkpt>
<trkpt lon="4.336440" lat="48.972991"><ele>80.0</ele></trkpt>
<trkpt lon="4.338974" lat="48.970826"><ele>80.25</ele></trkpt>
<trkpt lon="4.341080" lat="48.968983"><ele>81.0</ele></trkpt>
<trkpt lon="4.341379" lat="48.968722"><ele>80.75</ele></trkpt>
<trkpt lon="4.342535" lat="48.967710"><ele>80.0</ele></trkpt>
<trkpt lon="4.343965" lat="48.966536"><ele>81.0</ele></trkpt>
<trkpt lon="4.344019" lat="48.966489"><ele>81.0</ele></trkpt>
<trkpt lon="4.346242" lat="48.964567"><ele>80.5</ele></trkpt>
<trkpt lon="4.347003" lat="48.963931"><ele>81.25</ele></trkpt>
<trkpt lon="4.347546" lat="48.963511"><ele>81.25</ele></trkpt>
<trkpt lon="4.348627" lat="48.962542"><ele>81.75</ele></trkpt>
<trkpt lon="4.348813" lat="48.962438"><ele>81.75</ele></trkpt>
<trkpt lon="4.349114" lat="48.962140"><ele>81.5</ele></trkpt>
<trkpt lon="4.349649" lat="48.961663"><ele>81.0</ele></trkpt>
<trkpt lon="4.350053" lat="48.961305"><ele>81.0</ele></trkpt>
<trkpt lon="4.351058" lat="48.960445"><ele>81.75</ele></trkpt>
<trkpt lon="4.351577" lat="48.959995"><ele>81.5</ele></trkpt>
<trkpt lon="4.351624" lat="48.960092"><ele>81.5</ele></trkpt>
<trkpt lon="4.351366" lat="48.960302"><ele>81.75</ele></trkpt>
<trkpt lon="4.350982" lat="48.960672"><ele>81.75</ele></trkpt>
<trkpt lon="4.351006" lat="48.960721"><ele>81.5</ele></trkpt>
<trkpt lon="4.351704" lat="48.961084"><ele>84.25</ele></trkpt>
<trkpt lon="4.351996" lat="48.961281"><ele>81.5</ele></trkpt>
<trkpt lon="4.352095" lat="48.961220"><ele>81.5</ele></trkpt>
<trkpt lon="4.352009" lat="48.961114"><ele>82.5</ele></trkpt>
<trkpt lon="4.351806" lat="48.961017"><ele>82.75</ele></trkpt>
<trkpt lon="4.351716" lat="48.960887"><ele>81.5</ele></trkpt>
<trkpt lon="4.351823" lat="48.960828"><ele>81.0</ele></trkpt>
<trkpt lon="4.351702" lat="48.960731"><ele>81.0</ele></trkpt>
<trkpt lon="4.351872" lat="48.960585"><ele>81.0</ele></trkpt>
<trkpt lon="4.352529" lat="48.960021"><ele>81.0</ele></trkpt>
<trkpt lon="4.353232" lat="48.959407"><ele>81.0</ele></trkpt>
<trkpt lon="4.353364" lat="48.959299"><ele>81.0</ele></trkpt>
<trkpt lon="4.353820" lat="48.958926"><ele>81.5</ele></trkpt>
<trkpt lon="4.354130" lat="48.958590"><ele>81.75</ele></trkpt>
<trkpt lon="4.354375" lat="48.958264"><ele>82.0</ele></trkpt>
<trkpt lon="4.354877" lat="48.957321"><ele>82.25</ele></trkpt>
<trkpt lon="4.354916" lat="48.957248"><ele>82.25</ele></trkpt>
<trkpt lon="4.354969" lat="48.957177"><ele>82.25</ele></trkpt>
<trkpt lon="4.355171" lat="48.957025"><ele>80.75</ele></trkpt>
<trkpt lon="4.355521" lat="48.956886"><ele>83.25</ele></trkpt>
<trkpt lon="4.355551" lat="48.956874"><ele>83.5</ele></trkpt>
<trkpt lon="4.355591" lat="48.956859"><ele>83.5</ele></trkpt>
<trkpt lon="4.355728" lat="48.956804"><ele>83.25</ele></trkpt>
<trkpt lon="4.355835" lat="48.956762"><ele>83.25</ele></trkpt>
<trkpt lon="4.355820" lat="48.956733"><ele>83.0</ele></trkpt>
<trkpt lon="4.355821" lat="48.956702"><ele>83.0</ele></trkpt>
<trkpt lon="4.355838" lat="48.956673"><ele>83.0</ele></trkpt>
<trkpt lon="4.355869" lat="48.956649"><ele>83.0</ele></trkpt>
<trkpt lon="4.355910" lat="48.956634"><ele>83.0</ele></trkpt>
<trkpt lon="4.355988" lat="48.956631"><ele>83.0</ele></trkpt>
<trkpt lon="4.356024" lat="48.956640"><ele>83.0</ele></trkpt>
<trkpt lon="4.356078" lat="48.956676"><ele>83.0</ele></trkpt>
<trkpt lon="4.356185" lat="48.956631"><ele>83.0</ele></trkpt>
<trkpt lon="4.356329" lat="48.956569"><ele>83.25</ele></trkpt>
<trkpt lon="4.356598" lat="48.956453"><ele>83.25</ele></trkpt>
<trkpt lon="4.356748" lat="48.956389"><ele>83.25</ele></trkpt>
<trkpt lon="4.356813" lat="48.956366"><ele>83.5</ele></trkpt>
<trkpt lon="4.356869" lat="48.956362"><ele>83.75</ele></trkpt>
<trkpt lon="4.357123" lat="48.956415"><ele>84.0</ele></trkpt>
<trkpt lon="4.357267" lat="48.956437"><ele>84.0</ele></trkpt>
<trkpt lon="4.357328" lat="48.956445"><ele>84.0</ele></trkpt>
<trkpt lon="4.358082" lat="48.956522"><ele>85.0</ele></trkpt>
<trkpt lon="4.358344" lat="48.956549"><ele>84.75</ele></trkpt>
<trkpt lon="4.358580" lat="48.956178"><ele>86.0</ele></trkpt>
<trkpt lon="4.358657" lat="48.956151"><ele>85.75</ele></trkpt>
<trkpt lon="4.358827" lat="48.956184"><ele>85.5</ele></trkpt>
<trkpt lon="4.358921" lat="48.956179"><ele>85.25</ele></trkpt>
<trkpt lon="4.359398" lat="48.956284"><ele>84.5</ele></trkpt>
<trkpt lon="4.359510" lat="48.956063"><ele>84.75</ele></trkpt>
<trkpt lon="4.359568" lat="48.956075"><ele>84.5</ele></trkpt>
<trkpt lon="4.359862" lat="48.956137"><ele>83.75</ele></trkpt>
<trkpt lon="4.360388" lat="48.956248"><ele>83.5</ele></trkpt>
<trkpt lon="4.360439" lat="48.956258"><ele>83.5</ele></trkpt>
<trkpt lon="4.360510" lat="48.956273"><ele>83.5</ele></trkpt>
<trkpt lon="4.360589" lat="48.956290"><ele>83.5</ele></trkpt>
<trkpt lon="4.361199" lat="48.956418"><ele>84.0</ele></trkpt>
<trkpt lon="4.361448" lat="48.956470"><ele>84.25</ele></trkpt>
<trkpt lon="4.361842" lat="48.956553"><ele>85.0</ele></trkpt>
<trkpt lon="4.361874" lat="48.956559"><ele>85.0</ele></trkpt>
<trkpt lon="4.361812" lat="48.956754"><ele>85.0</ele></trkpt>
<trkpt lon="4.362210" lat="48.956827"><ele>85.0</ele></trkpt>
<trkpt lon="4.362526" lat="48.956930"><ele>85.0</ele></trkpt>
<trkpt lon="4.362549" lat="48.956939"><ele>85.0</ele></trkpt>
<trkpt lon="4.363006" lat="48.957126"><ele>84.0</ele></trkpt>
<trkpt lon="4.363013" lat="48.957137"><ele>84.0</ele></trkpt>
<trkpt lon="4.363028" lat="48.957160"><ele>84.0</ele></trkpt>
<trkpt lon="4.363117" lat="48.957152"><ele>84.0</ele></trkpt>
<trkpt lon="4.363200" lat="48.957155"><ele>84.0</ele></trkpt>
<trkpt lon="4.363337" lat="48.957179"><ele>84.0</ele></trkpt>
<trkpt lon="4.363515" lat="48.957227"><ele>83.75</ele></trkpt>
<trkpt lon="4.363606" lat="48.957242"><ele>83.75</ele></trkpt>
<trkpt lon="4.364143" lat="48.957335"><ele>83.0</ele></trkpt>
<trkpt lon="4.364227" lat="48.957361"><ele>83.0</ele></trkpt>
<trkpt lon="4.364197" lat="48.957398"><ele>83.0</ele></trkpt>
<trkpt lon="4.364190" lat="48.957427"><ele>83.0</ele></trkpt>
<trkpt lon="4.364196" lat="48.957449"><ele>83.0</ele></trkpt>
<trkpt lon="4.364322" lat="48.957639"><ele>83.0</ele></trkpt>
<trkpt lon="4.364407" lat="48.957747"><ele>83.0</ele></trkpt>
<trkpt lon="4.364573" lat="48.957685"><ele>83.0</ele></trkpt>
<trkpt lon="4.364929" lat="48.957552"><ele>83.0</ele></trkpt>
<trkpt lon="4.365021" lat="48.957568"><ele>82.75</ele></trkpt>
<trkpt lon="4.365045" lat="48.957508"><ele>82.75</ele></trkpt>
  </trkseg></trk></gpx>
