<?xml version="1.0" encoding="UTF-8"?>
<gpx version="1.1" creator="compostel-brouter" xmlns="http://www.topografix.com/GPX/1/1">
  <metadata><name>FR-01-Signy</name></metadata>
  <trk><name>FR-01-Signy</name><trkseg>
<trkpt lon="4.520987" lat="49.923686"><ele>385.25</ele></trkpt>
<trkpt lon="4.521389" lat="49.923903"><ele>384.75</ele></trkpt>
<trkpt lon="4.521460" lat="49.923951"><ele>384.75</ele></trkpt>
<trkpt lon="4.521440" lat="49.924035"><ele>384.75</ele></trkpt>
<trkpt lon="4.521537" lat="49.923944"><ele>384.75</ele></trkpt>
<trkpt lon="4.521558" lat="49.923902"><ele>384.0</ele></trkpt>
<trkpt lon="4.521638" lat="49.923749"><ele>381.5</ele></trkpt>
<trkpt lon="4.521580" lat="49.923712"><ele>380.5</ele></trkpt>
<trkpt lon="4.521599" lat="49.923685"><ele>380.25</ele></trkpt>
<trkpt lon="4.521907" lat="49.923403"><ele>380.25</ele></trkpt>
<trkpt lon="4.522053" lat="49.923275"><ele>382.0</ele></trkpt>
<trkpt lon="4.522125" lat="49.923303"><ele>382.0</ele></trkpt>
<trkpt lon="4.522340" lat="49.923441"><ele>380.75</ele></trkpt>
<trkpt lon="4.522420" lat="49.923476"><ele>380.25</ele></trkpt>
<trkpt lon="4.522442" lat="49.923478"><ele>380.5</ele></trkpt>
<trkpt lon="4.522693" lat="49.923492"><ele>380.0</ele></trkpt>
<trkpt lon="4.522714" lat="49.923495"><ele>379.75</ele></trkpt>
<trkpt lon="4.522795" lat="49.923575"><ele>379.25</ele></trkpt>
<trkpt lon="4.522854" lat="49.923587"><ele>379.0</ele></trkpt>
<trkpt lon="4.522890" lat="49.923569"><ele>379.25</ele></trkpt>
<trkpt lon="4.523305" lat="49.923528"><ele>382.5</ele></trkpt>
<trkpt lon="4.523395" lat="49.923495"><ele>383.0</ele></trkpt>
<trkpt lon="4.523470" lat="49.923488"><ele>383.0</ele></trkpt>
<trkpt lon="4.523842" lat="49.923246"><ele>381.0</ele></trkpt>
<trkpt lon="4.524084" lat="49.923076"><ele>380.25</ele></trkpt>
<trkpt lon="4.524142" lat="49.923042"><ele>380.0</ele></trkpt>
<trkpt lon="4.524233" lat="49.922984"><ele>379.5</ele></trkpt>
<trkpt lon="4.524734" lat="49.922628"><ele>377.75</ele></trkpt>
<trkpt lon="4.525385" lat="49.922206"><ele>374.5</ele></trkpt>
<trkpt lon="4.525495" lat="49.922107"><ele>374.0</ele></trkpt>
<trkpt lon="4.525780" lat="49.921798"><ele>373.5</ele></trkpt>
<trkpt lon="4.525866" lat="49.921722"><ele>373.5</ele></trkpt>
<trkpt lon="4.526421" lat="49.921363"><ele>375.0</ele></trkpt>
<trkpt lon="4.526558" lat="49.921289"><ele>375.5</ele></trkpt>
<trkpt lon="4.527699" lat="49.920727"><ele>376.75</ele></trkpt>
<trkpt lon="4.528199" lat="49.920491"><ele>376.5</ele></trkpt>
<trkpt lon="4.528399" lat="49.920390"><ele>376.5</ele></trkpt>
<trkpt lon="4.528551" lat="49.920287"><ele>376.75</ele></trkpt>
<trkpt lon="4.528653" lat="49.920173"><ele>376.75</ele></trkpt>
<trkpt lon="4.528775" lat="49.919940"><ele>377.0</ele></trkpt>
<trkpt lon="4.528854" lat="49.919828"><ele>377.5</ele></trkpt>
<trkpt lon="4.528936" lat="49.919738"><ele>377.75</ele></trkpt>
<trkpt lon="4.529196" lat="49.919555"><ele>373.75</ele></trkpt>
<trkpt lon="4.529495" lat="49.919327"><ele>373.75</ele></trkpt>
<trkpt lon="4.529657" lat="49.919187"><ele>377.5</ele></trkpt>
<trkpt lon="4.529750" lat="49.919085"><ele>378.75</ele></trkpt>
<trkpt lon="4.529813" lat="49.918955"><ele>378.75</ele></trkpt>
<trkpt lon="4.529864" lat="49.918690"><ele>379.5</ele></trkpt>
<trkpt lon="4.529894" lat="49.918588"><ele>380.0</ele></trkpt>
<trkpt lon="4.529975" lat="49.918494"><ele>380.25</ele></trkpt>
<trkpt lon="4.530115" lat="49.918373"><ele>380.25</ele></trkpt>
<trkpt lon="4.530308" lat="49.918255"><ele>380.25</ele></trkpt>
<trkpt lon="4.530791" lat="49.917993"><ele>379.25</ele></trkpt>
<trkpt lon="4.531872" lat="49.917432"><ele>377.25</ele></trkpt>
<trkpt lon="4.532311" lat="49.917178"><ele>376.0</ele></trkpt>
<trkpt lon="4.532775" lat="49.916889"><ele>376.0</ele></trkpt>
<trkpt lon="4.533021" lat="49.916720"><ele>375.0</ele></trkpt>
<trkpt lon="4.533846" lat="49.916247"><ele>374.0</ele></trkpt>
<trkpt lon="4.534116" lat="49.916061"><ele>374.0</ele></trkpt>
<trkpt lon="4.534339" lat="49.915875"><ele>373.25</ele></trkpt>
<trkpt lon="4.534451" lat="49.915768"><ele>372.75</ele></trkpt>
<trkpt lon="4.534751" lat="49.915401"><ele>371.75</ele></trkpt>
<trkpt lon="4.534909" lat="49.915259"><ele>371.25</ele></trkpt>
<trkpt lon="4.535571" lat="49.914712"><ele>368.75</ele></trkpt>
<trkpt lon="4.535774" lat="49.914512"><ele>367.5</ele></trkpt>
<trkpt lon="4.535822" lat="49.914419"><ele>366.75</ele></trkpt>
<trkpt lon="4.535822" lat="49.914360"><ele>366.5</ele></trkpt>
<trkpt lon="4.535899" lat="49.914311"><ele>366.5</ele></trkpt>
<trkpt lon="4.536306" lat="49.913639"><ele>362.0</ele></trkpt>
<trkpt lon="4.536477" lat="49.913385"><ele>360.25</ele></trkpt>
<trkpt lon="4.536609" lat="49.913162"><ele>358.25</ele></trkpt>
<trkpt lon="4.536761" lat="49.912867"><ele>354.75</ele></trkpt>
<trkpt lon="4.536904" lat="49.912536"><ele>351.5</ele></trkpt>
<trkpt lon="4.536974" lat="49.912401"><ele>350.0</ele></trkpt>
<trkpt lon="4.537041" lat="49.912312"><ele>349.25</ele></trkpt>
<trkpt lon="4.537375" lat="49.912053"><ele>345.25</ele></trkpt>
<trkpt lon="4.537622" lat="49.911826"><ele>342.0</ele></trkpt>
<trkpt lon="4.537802" lat="49.911700"><ele>340.25</ele></trkpt>
<trkpt lon="4.538008" lat="49.911581"><ele>338.75</ele></trkpt>
<trkpt lon="4.538312" lat="49.911430"><ele>335.0</ele></trkpt>
<trkpt lon="4.538796" lat="49.911213"><ele>330.25</ele></trkpt>
<trkpt lon="4.539010" lat="49.911142"><ele>327.5</ele></trkpt>
<trkpt lon="4.539477" lat="49.911017"><ele>324.0</ele></trkpt>
<trkpt lon="4.539989" lat="49.910900"><ele>319.75</ele></trkpt>
<trkpt lon="4.540087" lat="49.910865"><ele>318.5</ele></trkpt>
<trkpt lon="4.540156" lat="49.910829"><ele>317.75</ele></trkpt>
<trkpt lon="4.540212" lat="49.910759"><ele>316.75</ele></trkpt>
<trkpt lon="4.540245" lat="49.910574"><ele>315.25</ele></trkpt>
<trkpt lon="4.540278" lat="49.910487"><ele>315.0</ele></trkpt>
<trkpt lon="4.540297" lat="49.910447"><ele>315.25</ele></trkpt>
<trkpt lon="4.540309" lat="49.910432"><ele>315.25</ele></trkpt>
<trkpt lon="4.540288" lat="49.910412"><ele>315.5</ele></trkpt>
<trkpt lon="4.540286" lat="49.910395"><ele>315.5</ele></trkpt>
<trkpt lon="4.540371" lat="49.910130"><ele>319.5</ele></trkpt>
<trkpt lon="4.540299" lat="49.908515"><ele>332.5</ele></trkpt>
<trkpt lon="4.540507" lat="49.907750"><ele>339.5</ele></trkpt>
<trkpt lon="4.540612" lat="49.907044"><ele>344.5</ele></trkpt>
<trkpt lon="4.541325" lat="49.906106"><ele>352.5</ele></trkpt>
<trkpt lon="4.541420" lat="49.906029"><ele>353.0</ele></trkpt>
<trkpt lon="4.542003" lat="49.905560"><ele>356.0</ele></trkpt>
<trkpt lon="4.542134" lat="49.905493"><ele>356.75</ele></trkpt>
<trkpt lon="4.543357" lat="49.904618"><ele>362.0</ele></trkpt>
<trkpt lon="4.544669" lat="49.902457"><ele>368.75</ele></trkpt>
<trkpt lon="4.544685" lat="49.902083"><ele>369.5</ele></trkpt>
<trkpt lon="4.544604" lat="49.901728"><ele>369.75</ele></trkpt>
<trkpt lon="4.544541" lat="49.901382"><ele>370.25</ele></trkpt>
<trkpt lon="4.544602" lat="49.900128"><ele>372.5</ele></trkpt>
<trkpt lon="4.544582" lat="49.899228"><ele>373.75</ele></trkpt>
<trkpt lon="4.544397" lat="49.898520"><ele>374.25</ele></trkpt>
<trkpt lon="4.543406" lat="49.897002"><ele>375.75</ele></trkpt>
<trkpt lon="4.543115" lat="49.896704"><ele>375.75</ele></trkpt>
<trkpt lon="4.540180" lat="49.894100"><ele>379.0</ele></trkpt>
<trkpt lon="4.538819" lat="49.892870"><ele>377.5</ele></trkpt>
<trkpt lon="4.537388" lat="49.891630"><ele>376.25</ele></trkpt>
<trkpt lon="4.536696" lat="49.890977"><ele>375.75</ele></trkpt>
<trkpt lon="4.536213" lat="49.890581"><ele>375.25</ele></trkpt>
<trkpt lon="4.534956" lat="49.889490"><ele>374.75</ele></trkpt>
<trkpt lon="4.534812" lat="49.889347"><ele>375.25</ele></trkpt>
<trkpt lon="4.534734" lat="49.889184"><ele>375.75</ele></trkpt>
<trkpt lon="4.535716" lat="49.889154"><ele>376.0</ele></trkpt>
<trkpt lon="4.535693" lat="49.889004"><ele>376.5</ele></trkpt>
<trkpt lon="4.536604" lat="49.888970"><ele>376.5</ele></trkpt>
<trkpt lon="4.536640" lat="49.888974"><ele>376.5</ele></trkpt>
<trkpt lon="4.536779" lat="49.888989"><ele>376.5</ele></trkpt>
<trkpt lon="4.536874" lat="49.889073"><ele>376.25</ele></trkpt>
<trkpt lon="4.537177" lat="49.889021"><ele>376.75</ele></trkpt>
<trkpt lon="4.537281" lat="49.888998"><ele>376.75</ele></trkpt>
<trkpt lon="4.537614" lat="49.888867"><ele>376.0</ele></trkpt>
<trkpt lon="4.537903" lat="49.888687"><ele>376.25</ele></trkpt>
<trkpt lon="4.538033" lat="49.888521"><ele>376.0</ele></trkpt>
<trkpt lon="4.538086" lat="49.888424"><ele>375.75</ele></trkpt>
<trkpt lon="4.538140" lat="49.888253"><ele>375.75</ele></trkpt>
<trkpt lon="4.538132" lat="49.888087"><ele>375.75</ele></trkpt>
<trkpt lon="4.538090" lat="49.887942"><ele>376.25</ele></trkpt>
<trkpt lon="4.537837" lat="49.887600"><ele>377.0</ele></trkpt>
<trkpt lon="4.536873" lat="49.886461"><ele>379.0</ele></trkpt>
<trkpt lon="4.536046" lat="49.885510"><ele>378.75</ele></trkpt>
<trkpt lon="4.534968" lat="49.884493"><ele>378.0</ele></trkpt>
<trkpt lon="4.534984" lat="49.884056"><ele>376.0</ele></trkpt>
<trkpt lon="4.535961" lat="49.873608"><ele>373.0</ele></trkpt>
<trkpt lon="4.535125" lat="49.873567"><ele>373.0</ele></trkpt>
<trkpt lon="4.535366" lat="49.869738"><ele>370.0</ele></trkpt>
<trkpt lon="4.535551" lat="49.867198"><ele>366.75</ele></trkpt>
<trkpt lon="4.536168" lat="49.863572"><ele>349.25</ele></trkpt>
<trkpt lon="4.536185" lat="49.862828"><ele>350.5</ele></trkpt>
<trkpt lon="4.536272" lat="49.861900"><ele>356.0</ele></trkpt>
<trkpt lon="4.536507" lat="49.859959"><ele>353.0</ele></trkpt>
<trkpt lon="4.536566" lat="49.859466"><ele>350.0</ele></trkpt>
<trkpt lon="4.525953" lat="49.858985"><ele>336.0</ele></trkpt>
<trkpt lon="4.526360" lat="49.855025"><ele>289.25</ele></trkpt>
<trkpt lon="4.526273" lat="49.853958"><ele>283.5</ele></trkpt>
<trkpt lon="4.525888" lat="49.853310"><ele>282.5</ele></trkpt>
<trkpt lon="4.525501" lat="49.852632"><ele>276.5</ele></trkpt>
<trkpt lon="4.524686" lat="49.852120"><ele>270.0</ele></trkpt>
<trkpt lon="4.524144" lat="49.852013"><ele>270.25</ele></trkpt>
<trkpt lon="4.523994" lat="49.851847"><ele>269.5</ele></trkpt>
<trkpt lon="4.523977" lat="49.851699"><ele>268.75</ele></trkpt>
<trkpt lon="4.523962" lat="49.851556"><ele>268.25</ele></trkpt>
<trkpt lon="4.523951" lat="49.851459"><ele>268.0</ele></trkpt>
<trkpt lon="4.524316" lat="49.850560"><ele>266.0</ele></trkpt>
<trkpt lon="4.524895" lat="49.849951"><ele>265.0</ele></trkpt>
<trkpt lon="4.525710" lat="49.849495"><ele>265.5</ele></trkpt>
<trkpt lon="4.526376" lat="49.848720"><ele>271.5</ele></trkpt>
<trkpt lon="4.527363" lat="49.846963"><ele>277.75</ele></trkpt>
<trkpt lon="4.527878" lat="49.846160"><ele>276.5</ele></trkpt>
<trkpt lon="4.529047" lat="49.845178"><ele>275.25</ele></trkpt>
<trkpt lon="4.530270" lat="49.844278"><ele>274.5</ele></trkpt>
<trkpt lon="4.531386" lat="49.843379"><ele>272.0</ele></trkpt>
<trkpt lon="4.531683" lat="49.843137"><ele>271.25</ele></trkpt>
<trkpt lon="4.531919" lat="49.842914"><ele>270.25</ele></trkpt>
<trkpt lon="4.531937" lat="49.842868"><ele>270.25</ele></trkpt>
<trkpt lon="4.531930" lat="49.842787"><ele>270.0</ele></trkpt>
<trkpt lon="4.532270" lat="49.842742"><ele>269.75</ele></trkpt>
<trkpt lon="4.532263" lat="49.842680"><ele>269.25</ele></trkpt>
<trkpt lon="4.532281" lat="49.842639"><ele>269.0</ele></trkpt>
<trkpt lon="4.532297" lat="49.842602"><ele>268.75</ele></trkpt>
<trkpt lon="4.532503" lat="49.842300"><ele>266.75</ele></trkpt>
<trkpt lon="4.532563" lat="49.842175"><ele>266.0</ele></trkpt>
<trkpt lon="4.532731" lat="49.841946"><ele>265.0</ele></trkpt>
<trkpt lon="4.532826" lat="49.841854"><ele>264.25</ele></trkpt>
<trkpt lon="4.533004" lat="49.841768"><ele>263.5</ele></trkpt>
<trkpt lon="4.534367" lat="49.841474"><ele>262.5</ele></trkpt>
<trkpt lon="4.534510" lat="49.841414"><ele>262.25</ele></trkpt>
<trkpt lon="4.534646" lat="49.841315"><ele>262.0</ele></trkpt>
<trkpt lon="4.534907" lat="49.841052"><ele>260.0</ele></trkpt>
<trkpt lon="4.535177" lat="49.840766"><ele>257.75</ele></trkpt>
<trkpt lon="4.535474" lat="49.840514"><ele>255.5</ele></trkpt>
<trkpt lon="4.535870" lat="49.840265"><ele>254.0</ele></trkpt>
<trkpt lon="4.535916" lat="49.840245"><ele>253.75</ele></trkpt>
<trkpt lon="4.536851" lat="49.839438"><ele>245.25</ele></trkpt>
<trkpt lon="4.536916" lat="49.839390"><ele>244.5</ele></trkpt>
<trkpt lon="4.536972" lat="49.839352"><ele>244.25</ele></trkpt>
<trkpt lon="4.536941" lat="49.839332"><ele>244.0</ele></trkpt>
<trkpt lon="4.536921" lat="49.839306"><ele>244.0</ele></trkpt>
<trkpt lon="4.536915" lat="49.839277"><ele>243.75</ele></trkpt>
<trkpt lon="4.536923" lat="49.839249"><ele>243.5</ele></trkpt>
<trkpt lon="4.536946" lat="49.839224"><ele>243.25</ele></trkpt>
<trkpt lon="4.536979" lat="49.839205"><ele>243.5</ele></trkpt>
<trkpt lon="4.537020" lat="49.839194"><ele>243.5</ele></trkpt>
<trkpt lon="4.537065" lat="49.839193"><ele>244.0</ele></trkpt>
<trkpt lon="4.537108" lat="49.839200"><ele>244.25</ele></trkpt>
<trkpt lon="4.537067" lat="49.839102"><ele>243.75</ele></trkpt>
<trkpt lon="4.536775" lat="49.838468"><ele>239.0</ele></trkpt>
<trkpt lon="4.536640" lat="49.838308"><ele>237.75</ele></trkpt>
<trkpt lon="4.536959" lat="49.838077"><ele>237.25</ele></trkpt>
<trkpt lon="4.537149" lat="49.837975"><ele>236.75</ele></trkpt>
<trkpt lon="4.537504" lat="49.837852"><ele>235.75</ele></trkpt>
<trkpt lon="4.537976" lat="49.837796"><ele>235.25</ele></trkpt>
<trkpt lon="4.537847" lat="49.837655"><ele>233.5</ele></trkpt>
<trkpt lon="4.537723" lat="49.837601"><ele>232.25</ele></trkpt>
<trkpt lon="4.537737" lat="49.837344"><ele>229.25</ele></trkpt>
<trkpt lon="4.537749" lat="49.836746"><ele>222.75</ele></trkpt>
<trkpt lon="4.537702" lat="49.836510"><ele>220.25</ele></trkpt>
<trkpt lon="4.537638" lat="49.836261"><ele>217.75</ele></trkpt>
<trkpt lon="4.537491" lat="49.836017"><ele>214.75</ele></trkpt>
<trkpt lon="4.537435" lat="49.835923"><ele>213.75</ele></trkpt>
<trkpt lon="4.537400" lat="49.835870"><ele>213.25</ele></trkpt>
<trkpt lon="4.537350" lat="49.835795"><ele>213.0</ele></trkpt>
<trkpt lon="4.537294" lat="49.835713"><ele>213.25</ele></trkpt>
<trkpt lon="4.537054" lat="49.835300"><ele>215.75</ele></trkpt>
<trkpt lon="4.537001" lat="49.835268"><ele>216.0</ele></trkpt>
<trkpt lon="4.537043" lat="49.835213"><ele>217.0</ele></trkpt>
<trkpt lon="4.537208" lat="49.835128"><ele>217.5</ele></trkpt>
<trkpt lon="4.537518" lat="49.835036"><ele>217.5</ele></trkpt>
<trkpt lon="4.537901" lat="49.834962"><ele>219.0</ele></trkpt>
<trkpt lon="4.538959" lat="49.834848"><ele>223.25</ele></trkpt>
<trkpt lon="4.539834" lat="49.833905"><ele>231.75</ele></trkpt>
<trkpt lon="4.540783" lat="49.833192"><ele>239.25</ele></trkpt>
<trkpt lon="4.539521" lat="49.831955"><ele>248.0</ele></trkpt>
<trkpt lon="4.539147" lat="49.831396"><ele>251.75</ele></trkpt>
<trkpt lon="4.538991" lat="49.830966"><ele>249.5</ele></trkpt>
<trkpt lon="4.538985" lat="49.830656"><ele>247.5</ele></trkpt>
<trkpt lon="4.539022" lat="49.829679"><ele>241.75</ele></trkpt>
<trkpt lon="4.539235" lat="49.829029"><ele>237.75</ele></trkpt>
<trkpt lon="4.539608" lat="49.828381"><ele>235.0</ele></trkpt>
<trkpt lon="4.540194" lat="49.827656"><ele>232.5</ele></trkpt>
<trkpt lon="4.540863" lat="49.826958"><ele>226.25</ele></trkpt>
<trkpt lon="4.541795" lat="49.826329"><ele>222.0</ele></trkpt>
<trkpt lon="4.541109" lat="49.825913"><ele>214.0</ele></trkpt>
<trkpt lon="4.541000" lat="49.825716"><ele>211.75</ele></trkpt>
<trkpt lon="4.541001" lat="49.825415"><ele>207.0</ele></trkpt>
<trkpt lon="4.541752" lat="49.824927"><ele>202.5</ele></trkpt>
<trkpt lon="4.542214" lat="49.824678"><ele>201.25</ele></trkpt>
<trkpt lon="4.542596" lat="49.824383"><ele>199.5</ele></trkpt>
<trkpt lon="4.542694" lat="49.824309"><ele>199.0</ele></trkpt>
<trkpt lon="4.542725" lat="49.824194"><ele>196.75</ele></trkpt>
<trkpt lon="4.542735" lat="49.824053"><ele>194.75</ele></trkpt>
<trkpt lon="4.542713" lat="49.823974"><ele>193.75</ele></trkpt>
<trkpt lon="4.542682" lat="49.823941"><ele>193.25</ele></trkpt>
<trkpt lon="4.542648" lat="49.823906"><ele>192.75</ele></trkpt>
<trkpt lon="4.542381" lat="49.823761"><ele>190.75</ele></trkpt>
<trkpt lon="4.542316" lat="49.823725"><ele>190.25</ele></trkpt>
<trkpt lon="4.542243" lat="49.823665"><ele>189.5</ele></trkpt>
<trkpt lon="4.542189" lat="49.823591"><ele>188.75</ele></trkpt>
<trkpt lon="4.542166" lat="49.823499"><ele>188.5</ele></trkpt>
<trkpt lon="4.542112" lat="49.823012"><ele>186.0</ele></trkpt>
<trkpt lon="4.542040" lat="49.822643"><ele>185.0</ele></trkpt>
<trkpt lon="4.542024" lat="49.822516"><ele>184.75</ele></trkpt>
<trkpt lon="4.542089" lat="49.822441"><ele>184.0</ele></trkpt>
<trkpt lon="4.542048" lat="49.822337"><ele>183.25</ele></trkpt>
<trkpt lon="4.541820" lat="49.822147"><ele>182.25</ele></trkpt>
<trkpt lon="4.541560" lat="49.821900"><ele>177.5</ele></trkpt>
<trkpt lon="4.541442" lat="49.821789"><ele>175.75</ele></trkpt>
<trkpt lon="4.541321" lat="49.821715"><ele>174.25</ele></trkpt>
<trkpt lon="4.541207" lat="49.821674"><ele>173.25</ele></trkpt>
<trkpt lon="4.541040" lat="49.821657"><ele>172.5</ele></trkpt>
<trkpt lon="4.540099" lat="49.821664"><ele>170.75</ele></trkpt>
<trkpt lon="4.539945" lat="49.821648"><ele>170.75</ele></trkpt>
<trkpt lon="4.539810" lat="49.821621"><ele>170.75</ele></trkpt>
<trkpt lon="4.539711" lat="49.821559"><ele>170.5</ele></trkpt>
<trkpt lon="4.539044" lat="49.820810"><ele>168.0</ele></trkpt>
<trkpt lon="4.538859" lat="49.820627"><ele>168.0</ele></trkpt>
<trkpt lon="4.538686" lat="49.820536"><ele>167.75</ele></trkpt>
<trkpt lon="4.538258" lat="49.820380"><ele>168.0</ele></trkpt>
<trkpt lon="4.538181" lat="49.820338"><ele>168.25</ele></trkpt>
<trkpt lon="4.538131" lat="49.820311"><ele>168.5</ele></trkpt>
<trkpt lon="4.538072" lat="49.820114"><ele>167.0</ele></trkpt>
<trkpt lon="4.538076" lat="49.819914"><ele>167.25</ele></trkpt>
<trkpt lon="4.538090" lat="49.819763"><ele>169.25</ele></trkpt>
<trkpt lon="4.538158" lat="49.819541"><ele>170.75</ele></trkpt>
<trkpt lon="4.538254" lat="49.819410"><ele>172.0</ele></trkpt>
<trkpt lon="4.538379" lat="49.819276"><ele>173.0</ele></trkpt>
<trkpt lon="4.538555" lat="49.819187"><ele>173.75</ele></trkpt>
<trkpt lon="4.538695" lat="49.819030"><ele>176.75</ele></trkpt>
<trkpt lon="4.538865" lat="49.818436"><ele>185.75</ele></trkpt>
<trkpt lon="4.538861" lat="49.818365"><ele>186.75</ele></trkpt>
<trkpt lon="4.538818" lat="49.818294"><ele>189.0</ele></trkpt>
<trkpt lon="4.538448" lat="49.817933"><ele>197.25</ele></trkpt>
<trkpt lon="4.538404" lat="49.817803"><ele>198.0</ele></trkpt>
<trkpt lon="4.538395" lat="49.817670"><ele>198.5</ele></trkpt>
<trkpt lon="4.538438" lat="49.817644"><ele>198.5</ele></trkpt>
<trkpt lon="4.538512" lat="49.817529"><ele>198.75</ele></trkpt>
<trkpt lon="4.538269" lat="49.817288"><ele>198.25</ele></trkpt>
<trkpt lon="4.538154" lat="49.817064"><ele>197.75</ele></trkpt>
<trkpt lon="4.538146" lat="49.817036"><ele>197.75</ele></trkpt>
<trkpt lon="4.537857" lat="49.817073"><ele>197.0</ele></trkpt>
<trkpt lon="4.537834" lat="49.817044"><ele>196.75</ele></trkpt>
<trkpt lon="4.537693" lat="49.816878"><ele>195.5</ele></trkpt>
<trkpt lon="4.537537" lat="49.816716"><ele>194.25</ele></trkpt>
<trkpt lon="4.537066" lat="49.816264"><ele>193.0</ele></trkpt>
<trkpt lon="4.536582" lat="49.815836"><ele>191.0</ele></trkpt>
<trkpt lon="4.535849" lat="49.815112"><ele>187.75</ele></trkpt>
<trkpt lon="4.535776" lat="49.814975"><ele>186.75</ele></trkpt>
<trkpt lon="4.535677" lat="49.814492"><ele>185.0</ele></trkpt>
<trkpt lon="4.536557" lat="49.814396"><ele>184.75</ele></trkpt>
<trkpt lon="4.536651" lat="49.814381"><ele>184.75</ele></trkpt>
<trkpt lon="4.536825" lat="49.814330"><ele>184.75</ele></trkpt>
<trkpt lon="4.536961" lat="49.814249"><ele>184.5</ele></trkpt>
<trkpt lon="4.537075" lat="49.814143"><ele>183.75</ele></trkpt>
<trkpt lon="4.537127" lat="49.814076"><ele>183.5</ele></trkpt>
<trkpt lon="4.537188" lat="49.813982"><ele>183.25</ele></trkpt>
<trkpt lon="4.537378" lat="49.813646"><ele>182.5</ele></trkpt>
<trkpt lon="4.537549" lat="49.813369"><ele>182.0</ele></trkpt>
<trkpt lon="4.537665" lat="49.813202"><ele>181.5</ele></trkpt>
<trkpt lon="4.538216" lat="49.812558"><ele>179.5</ele></trkpt>
<trkpt lon="4.538290" lat="49.812449"><ele>178.75</ele></trkpt>
<trkpt lon="4.538186" lat="49.811966"><ele>177.5</ele></trkpt>
<trkpt lon="4.538132" lat="49.811588"><ele>176.0</ele></trkpt>
<trkpt lon="4.538199" lat="49.811146"><ele>174.5</ele></trkpt>
<trkpt lon="4.538118" lat="49.810803"><ele>172.75</ele></trkpt>
<trkpt lon="4.537213" lat="49.809332"><ele>166.5</ele></trkpt>
<trkpt lon="4.537132" lat="49.809163"><ele>166.0</ele></trkpt>
<trkpt lon="4.537105" lat="49.808402"><ele>169.0</ele></trkpt>
<trkpt lon="4.536974" lat="49.807861"><ele>170.75</ele></trkpt>
<trkpt lon="4.536830" lat="49.807585"><ele>170.5</ele></trkpt>
<trkpt lon="4.536136" lat="49.806797"><ele>170.25</ele></trkpt>
<trkpt lon="4.536086" lat="49.806640"><ele>169.75</ele></trkpt>
<trkpt lon="4.536519" lat="49.805535"><ele>165.25</ele></trkpt>
<trkpt lon="4.537150" lat="49.804686"><ele>164.0</ele></trkpt>
<trkpt lon="4.537488" lat="49.803915"><ele>166.75</ele></trkpt>
<trkpt lon="4.537753" lat="49.803168"><ele>168.75</ele></trkpt>
<trkpt lon="4.537794" lat="49.802804"><ele>169.0</ele></trkpt>
<trkpt lon="4.537663" lat="49.802304"><ele>171.25</ele></trkpt>
<trkpt lon="4.537585" lat="49.800767"><ele>175.0</ele></trkpt>
<trkpt lon="4.537890" lat="49.800720"><ele>174.5</ele></trkpt>
<trkpt lon="4.537784" lat="49.800109"><ele>173.25</ele></trkpt>
<trkpt lon="4.537659" lat="49.799183"><ele>170.0</ele></trkpt>
<trkpt lon="4.537649" lat="49.798656"><ele>168.0</ele></trkpt>
<trkpt lon="4.540450" lat="49.798504"><ele>170.75</ele></trkpt>
<trkpt lon="4.543313" lat="49.798494"><ele>168.5</ele></trkpt>
<trkpt lon="4.545631" lat="49.798715"><ele>168.5</ele></trkpt>
<trkpt lon="4.545817" lat="49.798642"><ele>168.0</ele></trkpt>
<trkpt lon="4.545767" lat="49.798581"><ele>167.75</ele></trkpt>
<trkpt lon="4.545747" lat="49.798524"><ele>167.5</ele></trkpt>
<trkpt lon="4.545736" lat="49.798431"><ele>167.25</ele></trkpt>
<trkpt lon="4.545732" lat="49.798396"><ele>167.0</ele></trkpt>
<trkpt lon="4.545728" lat="49.798310"><ele>166.75</ele></trkpt>
<trkpt lon="4.545707" lat="49.798235"><ele>166.25</ele></trkpt>
<trkpt lon="4.545587" lat="49.797517"><ele>162.75</ele></trkpt>
<trkpt lon="4.545329" lat="49.795976"><ele>160.0</ele></trkpt>
<trkpt lon="4.545246" lat="49.795188"><ele>160.0</ele></trkpt>
<trkpt lon="4.545273" lat="49.794725"><ele>160.0</ele></trkpt>
<trkpt lon="4.545298" lat="49.794517"><ele>158.5</ele></trkpt>
<trkpt lon="4.545319" lat="49.794333"><ele>158.75</ele></trkpt>
<trkpt lon="4.545252" lat="49.794129"><ele>159.75</ele></trkpt>
<trkpt lon="4.545061" lat="49.793930"><ele>159.75</ele></trkpt>
<trkpt lon="4.544876" lat="49.793753"><ele>160.0</ele></trkpt>
<trkpt lon="4.543848" lat="49.792889"><ele>161.5</ele></trkpt>
<trkpt lon="4.543587" lat="49.792678"><ele>165.25</ele></trkpt>
<trkpt lon="4.543380" lat="49.792492"><ele>165.5</ele></trkpt>
<trkpt lon="4.543013" lat="49.792196"><ele>165.5</ele></trkpt>
<trkpt lon="4.542940" lat="49.792137"><ele>166.25</ele></trkpt>
<trkpt lon="4.542720" lat="49.791903"><ele>168.5</ele></trkpt>
<trkpt lon="4.542616" lat="49.791742"><ele>170.0</ele></trkpt>
<trkpt lon="4.542413" lat="49.791347"><ele>173.5</ele></trkpt>
<trkpt lon="4.542330" lat="49.791356"><ele>173.75</ele></trkpt>
<trkpt lon="4.541922" lat="49.791282"><ele>175.0</ele></trkpt>
<trkpt lon="4.539323" lat="49.790636"><ele>175.25</ele></trkpt>
<trkpt lon="4.537404" lat="49.790175"><ele>173.5</ele></trkpt>
<trkpt lon="4.535656" lat="49.790231"><ele>179.5</ele></trkpt>
<trkpt lon="4.535179" lat="49.790126"><ele>181.0</ele></trkpt>
<trkpt lon="4.534913" lat="49.789966"><ele>183.25</ele></trkpt>
<trkpt lon="4.534746" lat="49.789745"><ele>185.75</ele></trkpt>
<trkpt lon="4.534624" lat="49.789128"><ele>191.5</ele></trkpt>
<trkpt lon="4.534324" lat="49.786624"><ele>208.75</ele></trkpt>
<trkpt lon="4.534089" lat="49.785819"><ele>214.0</ele></trkpt>
<trkpt lon="4.533977" lat="49.785584"><ele>217.25</ele></trkpt>
<trkpt lon="4.533818" lat="49.785413"><ele>218.5</ele></trkpt>
<trkpt lon="4.533491" lat="49.785121"><ele>220.5</ele></trkpt>
<trkpt lon="4.533282" lat="49.784853"><ele>221.75</ele></trkpt>
<trkpt lon="4.533168" lat="49.784585"><ele>222.75</ele></trkpt>
<trkpt lon="4.533109" lat="49.784347"><ele>222.75</ele></trkpt>
<trkpt lon="4.533013" lat="49.783860"><ele>224.75</ele></trkpt>
<trkpt lon="4.532847" lat="49.783396"><ele>227.25</ele></trkpt>
<trkpt lon="4.532520" lat="49.782690"><ele>230.75</ele></trkpt>
<trkpt lon="4.532112" lat="49.782067"><ele>235.75</ele></trkpt>
<trkpt lon="4.531967" lat="49.781343"><ele>242.5</ele></trkpt>
<trkpt lon="4.531924" lat="49.781127"><ele>244.75</ele></trkpt>
<trkpt lon="4.531077" lat="49.781184"><ele>242.0</ele></trkpt>
<trkpt lon="4.530979" lat="49.781138"><ele>241.0</ele></trkpt>
<trkpt lon="4.530917" lat="49.781062"><ele>240.75</ele></trkpt>
<trkpt lon="4.530870" lat="49.780979"><ele>240.25</ele></trkpt>
<trkpt lon="4.530884" lat="49.780849"><ele>241.25</ele></trkpt>
<trkpt lon="4.530783" lat="49.780835"><ele>240.75</ele></trkpt>
<trkpt lon="4.530601" lat="49.780817"><ele>240.25</ele></trkpt>
<trkpt lon="4.530442" lat="49.780819"><ele>240.5</ele></trkpt>
<trkpt lon="4.530281" lat="49.780859"><ele>240.5</ele></trkpt>
<trkpt lon="4.530160" lat="49.780738"><ele>242.75</ele></trkpt>
<trkpt lon="4.530068" lat="49.780616"><ele>244.75</ele></trkpt>
<trkpt lon="4.530000" lat="49.780545"><ele>246.0</ele></trkpt>
<trkpt lon="4.529891" lat="49.780519"><ele>247.75</ele></trkpt>
<trkpt lon="4.529734" lat="49.780518"><ele>249.25</ele></trkpt>
<trkpt lon="4.529473" lat="49.780530"><ele>250.0</ele></trkpt>
<trkpt lon="4.528684" lat="49.780606"><ele>249.75</ele></trkpt>
<trkpt lon="4.527494" lat="49.780641"><ele>251.0</ele></trkpt>
<trkpt lon="4.527352" lat="49.780669"><ele>251.0</ele></trkpt>
<trkpt lon="4.527147" lat="49.780649"><ele>252.5</ele></trkpt>
<trkpt lon="4.526477" lat="49.780661"><ele>255.75</ele></trkpt>
<trkpt lon="4.526247" lat="49.780681"><ele>256.75</ele></trkpt>
<trkpt lon="4.525370" lat="49.780850"><ele>261.75</ele></trkpt>
<trkpt lon="4.525134" lat="49.780843"><ele>263.75</ele></trkpt>
<trkpt lon="4.524909" lat="49.780746"><ele>267.0</ele></trkpt>
<trkpt lon="4.524313" lat="49.780103"><ele>273.75</ele></trkpt>
<trkpt lon="4.524086" lat="49.779782"><ele>276.25</ele></trkpt>
<trkpt lon="4.523715" lat="49.778680"><ele>287.0</ele></trkpt>
<trkpt lon="4.523569" lat="49.778048"><ele>291.0</ele></trkpt>
<trkpt lon="4.523336" lat="49.778059"><ele>290.75</ele></trkpt>
<trkpt lon="4.522432" lat="49.778219"><ele>289.5</ele></trkpt>
<trkpt lon="4.522047" lat="49.778251"><ele>289.5</ele></trkpt>
<trkpt lon="4.520779" lat="49.778255"><ele>288.0</ele></trkpt>
<trkpt lon="4.520461" lat="49.778241"><ele>288.0</ele></trkpt>
<trkpt lon="4.519128" lat="49.778110"><ele>287.0</ele></trkpt>
<trkpt lon="4.515733" lat="49.777932"><ele>279.75</ele></trkpt>
<trkpt lon="4.513314" lat="49.777022"><ele>265.5</ele></trkpt>
<trkpt lon="4.512196" lat="49.777999"><ele>257.5</ele></trkpt>
<trkpt lon="4.511944" lat="49.778169"><ele>257.25</ele></trkpt>
<trkpt lon="4.510275" lat="49.779118"><ele>250.0</ele></trkpt>
<trkpt lon="4.509895" lat="49.779255"><ele>247.0</ele></trkpt>
<trkpt lon="4.507786" lat="49.779621"><ele>232.0</ele></trkpt>
<trkpt lon="4.507050" lat="49.779787"><ele>227.75</ele></trkpt>
<trkpt lon="4.506693" lat="49.779892"><ele>225.0</ele></trkpt>
<trkpt lon="4.505916" lat="49.780394"><ele>221.25</ele></trkpt>
<trkpt lon="4.505212" lat="49.780921"><ele>216.0</ele></trkpt>
<trkpt lon="4.504361" lat="49.781464"><ele>210.5</ele></trkpt>
<trkpt lon="4.503976" lat="49.781873"><ele>206.25</ele></trkpt>
<trkpt lon="4.503664" lat="49.782104"><ele>204.25</ele></trkpt>
<trkpt lon="4.503472" lat="49.782211"><ele>203.0</ele></trkpt>
<trkpt lon="4.502233" lat="49.782418"><ele>194.25</ele></trkpt>
<trkpt lon="4.501157" lat="49.782552"><ele>184.0</ele></trkpt>
<trkpt lon="4.500912" lat="49.782652"><ele>184.5</ele></trkpt>
<trkpt lon="4.500819" lat="49.782754"><ele>185.0</ele></trkpt>
<trkpt lon="4.500678" lat="49.783044"><ele>186.0</ele></trkpt>
<trkpt lon="4.500639" lat="49.783085"><ele>186.25</ele></trkpt>
<trkpt lon="4.500638" lat="49.783194"><ele>185.75</ele></trkpt>
<trkpt lon="4.499764" lat="49.783140"><ele>190.75</ele></trkpt>
<trkpt lon="4.499618" lat="49.783175"><ele>191.5</ele></trkpt>
<trkpt lon="4.499028" lat="49.783594"><ele>193.5</ele></trkpt>
<trkpt lon="4.498754" lat="49.783720"><ele>194.0</ele></trkpt>
<trkpt lon="4.498452" lat="49.783837"><ele>195.5</ele></trkpt>
<trkpt lon="4.498210" lat="49.783907"><ele>196.0</ele></trkpt>
<trkpt lon="4.497923" lat="49.783952"><ele>197.25</ele></trkpt>
<trkpt lon="4.497318" lat="49.783924"><ele>202.0</ele></trkpt>
<trkpt lon="4.496403" lat="49.783819"><ele>209.75</ele></trkpt>
<trkpt lon="4.496069" lat="49.783695"><ele>214.25</ele></trkpt>
<trkpt lon="4.495801" lat="49.783450"><ele>219.25</ele></trkpt>
<trkpt lon="4.495476" lat="49.783179"><ele>225.0</ele></trkpt>
<trkpt lon="4.495100" lat="49.782907"><ele>230.0</ele></trkpt>
<trkpt lon="4.494470" lat="49.782502"><ele>238.0</ele></trkpt>
<trkpt lon="4.494202" lat="49.782210"><ele>245.0</ele></trkpt>
<trkpt lon="4.494011" lat="49.781795"><ele>251.5</ele></trkpt>
<trkpt lon="4.493896" lat="49.781597"><ele>254.5</ele></trkpt>
<trkpt lon="4.493469" lat="49.781284"><ele>258.0</ele></trkpt>
<trkpt lon="4.492705" lat="49.780322"><ele>264.25</ele></trkpt>
<trkpt lon="4.491379" lat="49.778779"><ele>273.25</ele></trkpt>
<trkpt lon="4.490334" lat="49.777158"><ele>280.0</ele></trkpt>
<trkpt lon="4.488002" lat="49.776376"><ele>281.75</ele></trkpt>
<trkpt lon="4.485785" lat="49.774722"><ele>282.5</ele></trkpt>
<trkpt lon="4.483753" lat="49.774212"><ele>271.0</ele></trkpt>
<trkpt lon="4.482994" lat="49.774154"><ele>267.25</ele></trkpt>
<trkpt lon="4.482001" lat="49.774171"><ele>261.0</ele></trkpt>
<trkpt lon="4.481166" lat="49.774080"><ele>256.5</ele></trkpt>
<trkpt lon="4.480497" lat="49.773973"><ele>253.0</ele></trkpt>
<trkpt lon="4.480070" lat="49.773879"><ele>252.25</ele></trkpt>
<trkpt lon="4.479267" lat="49.773936"><ele>246.0</ele></trkpt>
<trkpt lon="4.478853" lat="49.773891"><ele>243.5</ele></trkpt>
<trkpt lon="4.478471" lat="49.773673"><ele>240.5</ele></trkpt>
<trkpt lon="4.478248" lat="49.773393"><ele>238.5</ele></trkpt>
<trkpt lon="4.478076" lat="49.772940"><ele>233.25</ele></trkpt>
<trkpt lon="4.477885" lat="49.772681"><ele>229.5</ele></trkpt>
<trkpt lon="4.476693" lat="49.771368"><ele>211.75</ele></trkpt>
<trkpt lon="4.476669" lat="49.771220"><ele>209.5</ele></trkpt>
<trkpt lon="4.476711" lat="49.770947"><ele>205.0</ele></trkpt>
<trkpt lon="4.476538" lat="49.770963"><ele>204.75</ele></trkpt>
<trkpt lon="4.476398" lat="49.770887"><ele>202.75</ele></trkpt>
<trkpt lon="4.476324" lat="49.770728"><ele>201.75</ele></trkpt>
<trkpt lon="4.476111" lat="49.770553"><ele>202.0</ele></trkpt>
<trkpt lon="4.475503" lat="49.770348"><ele>204.75</ele></trkpt>
<trkpt lon="4.475264" lat="49.770200"><ele>207.75</ele></trkpt>
<trkpt lon="4.475100" lat="49.769994"><ele>210.0</ele></trkpt>
<trkpt lon="4.474351" lat="49.769105"><ele>223.0</ele></trkpt>
<trkpt lon="4.473755" lat="49.768406"><ele>230.25</ele></trkpt>
<trkpt lon="4.473388" lat="49.767466"><ele>238.75</ele></trkpt>
<trkpt lon="4.473303" lat="49.767249"><ele>239.25</ele></trkpt>
<trkpt lon="4.473265" lat="49.767083"><ele>240.0</ele></trkpt>
<trkpt lon="4.473283" lat="49.766986"><ele>240.75</ele></trkpt>
<trkpt lon="4.473389" lat="49.766449"><ele>242.75</ele></trkpt>
<trkpt lon="4.473539" lat="49.766091"><ele>243.0</ele></trkpt>
<trkpt lon="4.473819" lat="49.765731"><ele>243.75</ele></trkpt>
<trkpt lon="4.474428" lat="49.765200"><ele>245.25</ele></trkpt>
<trkpt lon="4.474756" lat="49.765002"><ele>245.25</ele></trkpt>
<trkpt lon="4.475132" lat="49.764836"><ele>246.0</ele></trkpt>
<trkpt lon="4.475406" lat="49.764618"><ele>246.5</ele></trkpt>
<trkpt lon="4.477862" lat="49.762391"><ele>262.0</ele></trkpt>
<trkpt lon="4.479546" lat="49.761149"><ele>264.25</ele></trkpt>
<trkpt lon="4.479794" lat="49.760892"><ele>264.75</ele></trkpt>
<trkpt lon="4.480578" lat="49.759938"><ele>268.75</ele></trkpt>
<trkpt lon="4.480704" lat="49.759606"><ele>269.25</ele></trkpt>
<trkpt lon="4.480825" lat="49.759094"><ele>270.75</ele></trkpt>
<trkpt lon="4.480829" lat="49.758594"><ele>272.0</ele></trkpt>
<trkpt lon="4.480830" lat="49.758503"><ele>272.25</ele></trkpt>
<trkpt lon="4.480897" lat="49.757959"><ele>276.0</ele></trkpt>
<trkpt lon="4.480920" lat="49.757537"><ele>278.25</ele></trkpt>
<trkpt lon="4.481046" lat="49.756748"><ele>285.25</ele></trkpt>
<trkpt lon="4.481307" lat="49.755825"><ele>292.0</ele></trkpt>
<trkpt lon="4.481574" lat="49.753993"><ele>298.5</ele></trkpt>
<trkpt lon="4.482294" lat="49.751509"><ele>310.0</ele></trkpt>
<trkpt lon="4.480879" lat="49.751184"><ele>309.25</ele></trkpt>
<trkpt lon="4.479419" lat="49.750869"><ele>310.0</ele></trkpt>
<trkpt lon="4.478580" lat="49.750757"><ele>310.75</ele></trkpt>
<trkpt lon="4.478270" lat="49.750715"><ele>310.5</ele></trkpt>
<trkpt lon="4.474375" lat="49.749708"><ele>306.0</ele></trkpt>
<trkpt lon="4.472704" lat="49.749069"><ele>306.5</ele></trkpt>
<trkpt lon="4.472348" lat="49.748875"><ele>306.75</ele></trkpt>
<trkpt lon="4.471866" lat="49.748440"><ele>306.5</ele></trkpt>
<trkpt lon="4.471837" lat="49.748414"><ele>306.5</ele></trkpt>
<trkpt lon="4.469413" lat="49.747284"><ele>300.75</ele></trkpt>
<trkpt lon="4.469000" lat="49.747105"><ele>302.5</ele></trkpt>
<trkpt lon="4.468761" lat="49.746973"><ele>303.25</ele></trkpt>
<trkpt lon="4.468562" lat="49.746835"><ele>303.25</ele></trkpt>
<trkpt lon="4.466956" lat="49.745658"><ele>303.75</ele></trkpt>
<trkpt lon="4.465478" lat="49.744683"><ele>298.75</ele></trkpt>
<trkpt lon="4.464451" lat="49.744266"><ele>295.5</ele></trkpt>
<trkpt lon="4.463991" lat="49.743917"><ele>295.25</ele></trkpt>
<trkpt lon="4.463559" lat="49.743335"><ele>297.25</ele></trkpt>
<trkpt lon="4.462829" lat="49.741885"><ele>292.5</ele></trkpt>
<trkpt lon="4.462735" lat="49.741776"><ele>291.75</ele></trkpt>
<trkpt lon="4.462625" lat="49.741648"><ele>290.75</ele></trkpt>
<trkpt lon="4.461947" lat="49.741296"><ele>287.25</ele></trkpt>
<trkpt lon="4.460930" lat="49.741049"><ele>281.0</ele></trkpt>
<trkpt lon="4.459564" lat="49.740615"><ele>273.0</ele></trkpt>
<trkpt lon="4.459121" lat="49.740133"><ele>271.5</ele></trkpt>
<trkpt lon="4.459016" lat="49.739620"><ele>271.25</ele></trkpt>
<trkpt lon="4.459207" lat="49.739071"><ele>272.0</ele></trkpt>
<trkpt lon="4.459051" lat="49.738527"><ele>274.25</ele></trkpt>
<trkpt lon="4.458637" lat="49.737695"><ele>271.25</ele></trkpt>
<trkpt lon="4.458490" lat="49.737175"><ele>267.5</ele></trkpt>
<trkpt lon="4.458471" lat="49.737106"><ele>267.0</ele></trkpt>
<trkpt lon="4.458315" lat="49.736865"><ele>265.75</ele></trkpt>
<trkpt lon="4.457066" lat="49.735581"><ele>262.5</ele></trkpt>
<trkpt lon="4.456651" lat="49.735053"><ele>261.0</ele></trkpt>
<trkpt lon="4.456384" lat="49.734278"><ele>259.25</ele></trkpt>
<trkpt lon="4.456091" lat="49.733665"><ele>259.0</ele></trkpt>
<trkpt lon="4.455638" lat="49.732297"><ele>257.25</ele></trkpt>
<trkpt lon="4.455250" lat="49.730770"><ele>252.0</ele></trkpt>
<trkpt lon="4.453826" lat="49.729886"><ele>248.25</ele></trkpt>
<trkpt lon="4.452867" lat="49.729291"><ele>243.75</ele></trkpt>
<trkpt lon="4.449315" lat="49.727425"><ele>216.5</ele></trkpt>
<trkpt lon="4.447986" lat="49.727162"><ele>214.0</ele></trkpt>
<trkpt lon="4.447429" lat="49.726871"><ele>217.75</ele></trkpt>
<trkpt lon="4.445758" lat="49.725939"><ele>230.0</ele></trkpt>
<trkpt lon="4.440180" lat="49.721446"><ele>240.5</ele></trkpt>
<trkpt lon="4.438378" lat="49.719995"><ele>230.0</ele></trkpt>
<trkpt lon="4.437270" lat="49.719115"><ele>221.25</ele></trkpt>
<trkpt lon="4.436297" lat="49.717111"><ele>217.25</ele></trkpt>
<trkpt lon="4.435720" lat="49.716103"><ele>224.0</ele></trkpt>
<trkpt lon="4.435450" lat="49.715349"><ele>229.25</ele></trkpt>
<trkpt lon="4.434998" lat="49.714688"><ele>233.0</ele></trkpt>
<trkpt lon="4.433963" lat="49.713699"><ele>235.5</ele></trkpt>
<trkpt lon="4.432924" lat="49.712896"><ele>234.5</ele></trkpt>
<trkpt lon="4.432620" lat="49.712506"><ele>232.25</ele></trkpt>
<trkpt lon="4.432491" lat="49.712342"><ele>231.25</ele></trkpt>
<trkpt lon="4.431658" lat="49.711766"><ele>225.25</ele></trkpt>
<trkpt lon="4.429885" lat="49.710540"><ele>216.75</ele></trkpt>
<trkpt lon="4.426935" lat="49.708903"><ele>204.0</ele></trkpt>
<trkpt lon="4.425509" lat="49.708128"><ele>195.0</ele></trkpt>
<trkpt lon="4.425293" lat="49.707996"><ele>192.75</ele></trkpt>
<trkpt lon="4.425092" lat="49.707850"><ele>191.0</ele></trkpt>
<trkpt lon="4.424296" lat="49.707160"><ele>184.5</ele></trkpt>
<trkpt lon="4.423774" lat="49.706742"><ele>179.5</ele></trkpt>
<trkpt lon="4.423610" lat="49.706592"><ele>177.5</ele></trkpt>
<trkpt lon="4.423498" lat="49.706455"><ele>176.75</ele></trkpt>
<trkpt lon="4.423422" lat="49.706321"><ele>175.75</ele></trkpt>
<trkpt lon="4.423365" lat="49.706148"><ele>174.25</ele></trkpt>
<trkpt lon="4.423336" lat="49.705947"><ele>172.75</ele></trkpt>
<trkpt lon="4.423243" lat="49.704901"><ele>161.25</ele></trkpt>
<trkpt lon="4.423210" lat="49.704464"><ele>153.75</ele></trkpt>
<trkpt lon="4.423125" lat="49.704076"><ele>150.0</ele></trkpt>
<trkpt lon="4.423104" lat="49.703984"><ele>150.5</ele></trkpt>
<trkpt lon="4.423094" lat="49.703804"><ele>149.25</ele></trkpt>
<trkpt lon="4.423103" lat="49.703600"><ele>145.75</ele></trkpt>
<trkpt lon="4.423153" lat="49.703405"><ele>144.25</ele></trkpt>
<trkpt lon="4.423213" lat="49.703252"><ele>144.0</ele></trkpt>
<trkpt lon="4.423682" lat="49.702448"><ele>144.25</ele></trkpt>
<trkpt lon="4.423381" lat="49.701998"><ele>144.0</ele></trkpt>
<trkpt lon="4.423271" lat="49.701829"><ele>143.25</ele></trkpt>
<trkpt lon="4.423219" lat="49.701767"><ele>143.0</ele></trkpt>
<trkpt lon="4.422704" lat="49.701193"><ele>141.25</ele></trkpt>
<trkpt lon="4.422604" lat="49.701088"><ele>141.25</ele></trkpt>
<trkpt lon="4.421893" lat="49.700357"><ele>140.0</ele></trkpt>
<trkpt lon="4.421607" lat="49.700085"><ele>140.0</ele></trkpt>
<trkpt lon="4.421332" lat="49.699905"><ele>140.0</ele></trkpt>
<trkpt lon="4.421185" lat="49.699810"><ele>140.5</ele></trkpt>
<trkpt lon="4.421122" lat="49.699769"><ele>140.75</ele></trkpt>
<trkpt lon="4.421065" lat="49.699732"><ele>140.75</ele></trkpt>
<trkpt lon="4.420432" lat="49.699302"><ele>140.25</ele></trkpt>
<trkpt lon="4.420340" lat="49.699238"><ele>140.25</ele></trkpt>
<trkpt lon="4.420173" lat="49.699067"><ele>139.75</ele></trkpt>
<trkpt lon="4.420018" lat="49.698859"><ele>139.75</ele></trkpt>
<trkpt lon="4.419943" lat="49.698676"><ele>139.25</ele></trkpt>
<trkpt lon="4.419921" lat="49.698646"><ele>139.25</ele></trkpt>
<trkpt lon="4.419554" lat="49.698205"><ele>138.25</ele></trkpt>
<trkpt lon="4.419515" lat="49.698158"><ele>138.25</ele></trkpt>
<trkpt lon="4.419485" lat="49.698125"><ele>138.0</ele></trkpt>
<trkpt lon="4.419278" lat="49.698187"><ele>138.25</ele></trkpt>
<trkpt lon="4.419168" lat="49.698227"><ele>138.5</ele></trkpt>
<trkpt lon="4.418971" lat="49.698259"><ele>139.25</ele></trkpt>
<trkpt lon="4.418813" lat="49.698268"><ele>139.75</ele></trkpt>
<trkpt lon="4.418736" lat="49.698264"><ele>139.75</ele></trkpt>
<trkpt lon="4.418677" lat="49.698255"><ele>139.75</ele></trkpt>
<trkpt lon="4.418616" lat="49.698230"><ele>139.75</ele></trkpt>
<trkpt lon="4.418557" lat="49.698247"><ele>140.25</ele></trkpt>
<trkpt lon="4.418411" lat="49.698269"><ele>141.25</ele></trkpt>
<trkpt lon="4.418446" lat="49.698563"><ele>142.0</ele></trkpt>
<trkpt lon="4.418473" lat="49.698869"><ele>142.25</ele></trkpt>
<trkpt lon="4.418554" lat="49.698939"><ele>142.5</ele></trkpt>
<trkpt lon="4.418499" lat="49.699097"><ele>143.5</ele></trkpt>
<trkpt lon="4.418476" lat="49.699164"><ele>143.75</ele></trkpt>
<trkpt lon="4.418423" lat="49.699257"><ele>144.5</ele></trkpt>
<trkpt lon="4.418331" lat="49.699390"><ele>145.5</ele></trkpt>
<trkpt lon="4.417961" lat="49.699818"><ele>148.25</ele></trkpt>
<trkpt lon="4.417386" lat="49.700484"><ele>153.0</ele></trkpt>
<trkpt lon="4.417506" lat="49.700665"><ele>154.0</ele></trkpt>
<trkpt lon="4.417656" lat="49.700913"><ele>149.75</ele></trkpt>
  </trkseg></trk></gpx>
