<?xml version="1.0" encoding="UTF-8"?>
<gpx version="1.1" creator="compostel-brouter" xmlns="http://www.topografix.com/GPX/1/1">
  <metadata><name>FR-08-Montier</name></metadata>
  <trk><name>FR-08-Montier</name><trkseg>
<trkpt lon="4.747139" lat="48.555932"><ele>129.25</ele></trkpt>
<trkpt lon="4.747465" lat="48.556138"><ele>129.75</ele></trkpt>
<trkpt lon="4.747885" lat="48.556317"><ele>129.5</ele></trkpt>
<trkpt lon="4.748122" lat="48.556393"><ele>130.0</ele></trkpt>
<trkpt lon="4.749938" lat="48.556855"><ele>132.0</ele></trkpt>
<trkpt lon="4.750260" lat="48.556876"><ele>132.0</ele></trkpt>
<trkpt lon="4.750366" lat="48.556855"><ele>132.0</ele></trkpt>
<trkpt lon="4.750474" lat="48.556803"><ele>132.25</ele></trkpt>
<trkpt lon="4.750568" lat="48.556651"><ele>131.75</ele></trkpt>
<trkpt lon="4.752048" lat="48.556911"><ele>134.0</ele></trkpt>
<trkpt lon="4.752590" lat="48.557039"><ele>134.5</ele></trkpt>
<trkpt lon="4.753346" lat="48.557271"><ele>135.0</ele></trkpt>
<trkpt lon="4.753883" lat="48.557445"><ele>135.75</ele></trkpt>
<trkpt lon="4.754176" lat="48.557540"><ele>136.0</ele></trkpt>
<trkpt lon="4.754221" lat="48.557621"><ele>136.0</ele></trkpt>
<trkpt lon="4.754407" lat="48.557988"><ele>136.0</ele></trkpt>
<trkpt lon="4.754859" lat="48.558889"><ele>137.0</ele></trkpt>
<trkpt lon="4.754925" lat="48.559021"><ele>137.25</ele></trkpt>
<trkpt lon="4.754988" lat="48.559141"><ele>137.75</ele></trkpt>
<trkpt lon="4.756608" lat="48.558687"><ele>141.0</ele></trkpt>
<trkpt lon="4.757003" lat="48.558438"><ele>141.5</ele></trkpt>
<trkpt lon="4.758044" lat="48.557749"><ele>142.25</ele></trkpt>
<trkpt lon="4.758675" lat="48.557301"><ele>142.25</ele></trkpt>
<trkpt lon="4.758920" lat="48.557150"><ele>142.75</ele></trkpt>
<trkpt lon="4.759403" lat="48.556887"><ele>142.5</ele></trkpt>
<trkpt lon="4.759872" lat="48.556700"><ele>143.0</ele></trkpt>
<trkpt lon="4.760377" lat="48.556542"><ele>142.5</ele></trkpt>
<trkpt lon="4.766998" lat="48.554979"><ele>142.5</ele></trkpt>
<trkpt lon="4.768336" lat="48.554665"><ele>143.0</ele></trkpt>
<trkpt lon="4.768453" lat="48.554637"><ele>143.0</ele></trkpt>
<trkpt lon="4.768499" lat="48.554602"><ele>143.0</ele></trkpt>
<trkpt lon="4.768609" lat="48.554605"><ele>143.0</ele></trkpt>
<trkpt lon="4.768681" lat="48.554588"><ele>142.75</ele></trkpt>
<trkpt lon="4.769022" lat="48.554504"><ele>142.75</ele></trkpt>
<trkpt lon="4.769207" lat="48.554464"><ele>142.75</ele></trkpt>
<trkpt lon="4.769435" lat="48.554414"><ele>142.0</ele></trkpt>
<trkpt lon="4.769648" lat="48.554368"><ele>142.0</ele></trkpt>
<trkpt lon="4.770247" lat="48.554224"><ele>142.0</ele></trkpt>
<trkpt lon="4.770834" lat="48.554077"><ele>141.75</ele></trkpt>
<trkpt lon="4.771095" lat="48.554022"><ele>141.5</ele></trkpt>
<trkpt lon="4.771078" lat="48.553958"><ele>141.25</ele></trkpt>
<trkpt lon="4.771108" lat="48.553918"><ele>141.0</ele></trkpt>
<trkpt lon="4.771253" lat="48.553793"><ele>141.0</ele></trkpt>
<trkpt lon="4.771270" lat="48.553718"><ele>141.0</ele></trkpt>
<trkpt lon="4.771250" lat="48.553460"><ele>141.0</ele></trkpt>
<trkpt lon="4.771231" lat="48.553348"><ele>141.0</ele></trkpt>
<trkpt lon="4.771231" lat="48.553262"><ele>141.0</ele></trkpt>
<trkpt lon="4.771297" lat="48.553217"><ele>141.0</ele></trkpt>
<trkpt lon="4.771295" lat="48.553165"><ele>141.0</ele></trkpt>
<trkpt lon="4.771399" lat="48.553004"><ele>140.75</ele></trkpt>
<trkpt lon="4.771585" lat="48.552836"><ele>140.75</ele></trkpt>
<trkpt lon="4.771894" lat="48.552605"><ele>141.0</ele></trkpt>
<trkpt lon="4.772096" lat="48.552506"><ele>140.75</ele></trkpt>
<trkpt lon="4.772073" lat="48.552407"><ele>141.25</ele></trkpt>
<trkpt lon="4.772161" lat="48.552297"><ele>141.5</ele></trkpt>
<trkpt lon="4.772191" lat="48.552245"><ele>141.75</ele></trkpt>
<trkpt lon="4.772206" lat="48.552174"><ele>142.0</ele></trkpt>
<trkpt lon="4.772494" lat="48.552155"><ele>142.0</ele></trkpt>
<trkpt lon="4.772887" lat="48.552105"><ele>141.25</ele></trkpt>
<trkpt lon="4.773008" lat="48.552101"><ele>141.25</ele></trkpt>
<trkpt lon="4.773227" lat="48.552179"><ele>141.0</ele></trkpt>
<trkpt lon="4.773613" lat="48.551707"><ele>142.75</ele></trkpt>
<trkpt lon="4.773817" lat="48.551599"><ele>143.0</ele></trkpt>
<trkpt lon="4.774102" lat="48.551497"><ele>143.5</ele></trkpt>
<trkpt lon="4.773943" lat="48.551319"><ele>144.25</ele></trkpt>
<trkpt lon="4.773493" lat="48.550818"><ele>146.0</ele></trkpt>
<trkpt lon="4.773109" lat="48.550404"><ele>147.0</ele></trkpt>
<trkpt lon="4.772926" lat="48.550386"><ele>147.25</ele></trkpt>
<trkpt lon="4.772787" lat="48.550329"><ele>147.75</ele></trkpt>
<trkpt lon="4.772706" lat="48.550226"><ele>147.75</ele></trkpt>
<trkpt lon="4.772691" lat="48.550162"><ele>147.5</ele></trkpt>
<trkpt lon="4.772680" lat="48.550114"><ele>147.5</ele></trkpt>
<trkpt lon="4.772712" lat="48.550031"><ele>147.25</ele></trkpt>
<trkpt lon="4.772857" lat="48.549942"><ele>146.75</ele></trkpt>
<trkpt lon="4.772983" lat="48.549923"><ele>146.5</ele></trkpt>
<trkpt lon="4.772975" lat="48.549868"><ele>146.5</ele></trkpt>
<trkpt lon="4.772879" lat="48.549717"><ele>146.0</ele></trkpt>
<trkpt lon="4.772803" lat="48.549637"><ele>146.0</ele></trkpt>
<trkpt lon="4.772691" lat="48.549575"><ele>146.25</ele></trkpt>
<trkpt lon="4.772556" lat="48.549481"><ele>146.0</ele></trkpt>
<trkpt lon="4.772522" lat="48.549448"><ele>146.0</ele></trkpt>
<trkpt lon="4.771704" lat="48.548668"><ele>147.75</ele></trkpt>
<trkpt lon="4.771492" lat="48.548573"><ele>148.5</ele></trkpt>
<trkpt lon="4.771297" lat="48.548459"><ele>149.25</ele></trkpt>
<trkpt lon="4.771154" lat="48.548357"><ele>149.75</ele></trkpt>
<trkpt lon="4.771062" lat="48.548258"><ele>149.75</ele></trkpt>
<trkpt lon="4.770981" lat="48.548115"><ele>149.5</ele></trkpt>
<trkpt lon="4.770963" lat="48.547995"><ele>149.25</ele></trkpt>
<trkpt lon="4.770738" lat="48.547779"><ele>149.25</ele></trkpt>
<trkpt lon="4.770598" lat="48.547644"><ele>149.75</ele></trkpt>
<trkpt lon="4.769379" lat="48.546480"><ele>151.0</ele></trkpt>
<trkpt lon="4.769156" lat="48.546226"><ele>151.0</ele></trkpt>
<trkpt lon="4.769048" lat="48.546029"><ele>151.25</ele></trkpt>
<trkpt lon="4.768979" lat="48.545874"><ele>151.0</ele></trkpt>
<trkpt lon="4.768909" lat="48.545637"><ele>150.75</ele></trkpt>
<trkpt lon="4.768905" lat="48.545298"><ele>150.75</ele></trkpt>
<trkpt lon="4.768895" lat="48.545147"><ele>151.25</ele></trkpt>
<trkpt lon="4.768850" lat="48.545023"><ele>152.0</ele></trkpt>
<trkpt lon="4.768709" lat="48.544848"><ele>152.75</ele></trkpt>
<trkpt lon="4.768735" lat="48.544635"><ele>153.0</ele></trkpt>
<trkpt lon="4.768781" lat="48.544247"><ele>153.25</ele></trkpt>
<trkpt lon="4.768446" lat="48.543606"><ele>153.75</ele></trkpt>
<trkpt lon="4.768087" lat="48.542837"><ele>153.0</ele></trkpt>
<trkpt lon="4.767955" lat="48.542436"><ele>151.5</ele></trkpt>
<trkpt lon="4.768012" lat="48.541193"><ele>151.75</ele></trkpt>
<trkpt lon="4.768006" lat="48.540255"><ele>152.0</ele></trkpt>
<trkpt lon="4.768182" lat="48.539401"><ele>151.25</ele></trkpt>
<trkpt lon="4.768686" lat="48.538313"><ele>148.5</ele></trkpt>
<trkpt lon="4.769007" lat="48.537902"><ele>147.5</ele></trkpt>
<trkpt lon="4.769382" lat="48.537510"><ele>147.75</ele></trkpt>
<trkpt lon="4.770320" lat="48.536863"><ele>146.75</ele></trkpt>
<trkpt lon="4.771389" lat="48.536047"><ele>146.75</ele></trkpt>
<trkpt lon="4.771548" lat="48.535926"><ele>146.75</ele></trkpt>
<trkpt lon="4.772113" lat="48.535238"><ele>146.75</ele></trkpt>
<trkpt lon="4.772262" lat="48.535013"><ele>147.0</ele></trkpt>
<trkpt lon="4.772521" lat="48.534621"><ele>147.0</ele></trkpt>
<trkpt lon="4.772670" lat="48.534119"><ele>147.0</ele></trkpt>
<trkpt lon="4.772707" lat="48.533824"><ele>147.0</ele></trkpt>
<trkpt lon="4.772595" lat="48.533512"><ele>147.0</ele></trkpt>
<trkpt lon="4.772439" lat="48.533144"><ele>146.75</ele></trkpt>
<trkpt lon="4.771789" lat="48.531704"><ele>145.5</ele></trkpt>
<trkpt lon="4.771392" lat="48.530337"><ele>139.0</ele></trkpt>
<trkpt lon="4.771182" lat="48.529659"><ele>137.25</ele></trkpt>
<trkpt lon="4.771159" lat="48.529580"><ele>137.0</ele></trkpt>
<trkpt lon="4.771120" lat="48.529474"><ele>137.0</ele></trkpt>
<trkpt lon="4.770415" lat="48.527405"><ele>131.5</ele></trkpt>
<trkpt lon="4.769635" lat="48.524874"><ele>126.0</ele></trkpt>
<trkpt lon="4.769603" lat="48.524613"><ele>126.0</ele></trkpt>
<trkpt lon="4.769683" lat="48.524139"><ele>124.75</ele></trkpt>
<trkpt lon="4.769752" lat="48.523953"><ele>124.25</ele></trkpt>
<trkpt lon="4.769813" lat="48.523853"><ele>124.25</ele></trkpt>
<trkpt lon="4.769910" lat="48.523731"><ele>124.25</ele></trkpt>
<trkpt lon="4.770743" lat="48.522682"><ele>125.0</ele></trkpt>
<trkpt lon="4.771397" lat="48.521984"><ele>125.75</ele></trkpt>
<trkpt lon="4.772029" lat="48.521125"><ele>126.75</ele></trkpt>
<trkpt lon="4.772570" lat="48.520136"><ele>128.0</ele></trkpt>
<trkpt lon="4.772853" lat="48.519704"><ele>128.0</ele></trkpt>
<trkpt lon="4.773782" lat="48.518444"><ele>129.25</ele></trkpt>
<trkpt lon="4.774341" lat="48.517443"><ele>132.0</ele></trkpt>
<trkpt lon="4.774386" lat="48.517307"><ele>132.0</ele></trkpt>
<trkpt lon="4.774433" lat="48.517082"><ele>132.25</ele></trkpt>
<trkpt lon="4.774440" lat="48.515871"><ele>132.0</ele></trkpt>
<trkpt lon="4.774650" lat="48.513817"><ele>132.75</ele></trkpt>
<trkpt lon="4.774738" lat="48.513264"><ele>133.0</ele></trkpt>
<trkpt lon="4.774730" lat="48.513027"><ele>133.0</ele></trkpt>
<trkpt lon="4.774608" lat="48.512407"><ele>134.5</ele></trkpt>
<trkpt lon="4.774574" lat="48.512236"><ele>134.75</ele></trkpt>
<trkpt lon="4.774615" lat="48.512103"><ele>134.75</ele></trkpt>
<trkpt lon="4.774601" lat="48.511984"><ele>134.5</ele></trkpt>
<trkpt lon="4.774361" lat="48.511869"><ele>134.0</ele></trkpt>
<trkpt lon="4.773568" lat="48.510880"><ele>134.75</ele></trkpt>
<trkpt lon="4.773494" lat="48.510242"><ele>136.0</ele></trkpt>
<trkpt lon="4.773540" lat="48.509752"><ele>136.75</ele></trkpt>
<trkpt lon="4.773678" lat="48.509296"><ele>137.5</ele></trkpt>
<trkpt lon="4.773685" lat="48.508664"><ele>138.5</ele></trkpt>
<trkpt lon="4.773649" lat="48.507588"><ele>139.75</ele></trkpt>
<trkpt lon="4.773558" lat="48.505810"><ele>140.0</ele></trkpt>
<trkpt lon="4.773720" lat="48.505067"><ele>140.75</ele></trkpt>
<trkpt lon="4.774062" lat="48.503738"><ele>142.0</ele></trkpt>
<trkpt lon="4.774246" lat="48.503378"><ele>142.0</ele></trkpt>
<trkpt lon="4.774483" lat="48.503085"><ele>143.0</ele></trkpt>
<trkpt lon="4.774651" lat="48.502792"><ele>143.0</ele></trkpt>
<trkpt lon="4.774847" lat="48.502234"><ele>143.75</ele></trkpt>
<trkpt lon="4.774883" lat="48.502057"><ele>144.0</ele></trkpt>
<trkpt lon="4.774952" lat="48.501740"><ele>144.0</ele></trkpt>
<trkpt lon="4.774976" lat="48.501449"><ele>144.0</ele></trkpt>
<trkpt lon="4.774956" lat="48.501169"><ele>144.0</ele></trkpt>
<trkpt lon="4.774846" lat="48.500874"><ele>144.0</ele></trkpt>
<trkpt lon="4.774711" lat="48.500645"><ele>144.0</ele></trkpt>
<trkpt lon="4.774096" lat="48.499732"><ele>145.0</ele></trkpt>
<trkpt lon="4.773746" lat="48.498881"><ele>146.0</ele></trkpt>
<trkpt lon="4.773532" lat="48.498279"><ele>146.0</ele></trkpt>
<trkpt lon="4.773420" lat="48.497819"><ele>146.75</ele></trkpt>
<trkpt lon="4.773200" lat="48.497361"><ele>147.5</ele></trkpt>
<trkpt lon="4.772524" lat="48.496304"><ele>149.75</ele></trkpt>
<trkpt lon="4.772472" lat="48.496212"><ele>150.0</ele></trkpt>
<trkpt lon="4.772409" lat="48.495861"><ele>150.0</ele></trkpt>
<trkpt lon="4.772350" lat="48.495514"><ele>150.0</ele></trkpt>
<trkpt lon="4.772145" lat="48.494856"><ele>150.0</ele></trkpt>
<trkpt lon="4.772028" lat="48.494294"><ele>150.5</ele></trkpt>
<trkpt lon="4.771930" lat="48.494007"><ele>151.0</ele></trkpt>
<trkpt lon="4.771905" lat="48.493867"><ele>151.0</ele></trkpt>
<trkpt lon="4.771868" lat="48.493445"><ele>150.25</ele></trkpt>
<trkpt lon="4.771893" lat="48.493121"><ele>150.0</ele></trkpt>
<trkpt lon="4.771945" lat="48.493016"><ele>149.75</ele></trkpt>
<trkpt lon="4.772033" lat="48.492837"><ele>149.75</ele></trkpt>
<trkpt lon="4.772721" lat="48.492226"><ele>149.75</ele></trkpt>
<trkpt lon="4.773303" lat="48.491345"><ele>151.0</ele></trkpt>
<trkpt lon="4.775062" lat="48.491621"><ele>152.0</ele></trkpt>
<trkpt lon="4.775856" lat="48.491763"><ele>152.0</ele></trkpt>
<trkpt lon="4.776893" lat="48.491884"><ele>152.0</ele></trkpt>
<trkpt lon="4.777940" lat="48.491941"><ele>152.0</ele></trkpt>
<trkpt lon="4.778915" lat="48.491974"><ele>151.0</ele></trkpt>
<trkpt lon="4.781575" lat="48.492036"><ele>146.5</ele></trkpt>
<trkpt lon="4.784958" lat="48.491429"><ele>140.0</ele></trkpt>
<trkpt lon="4.783533" lat="48.489384"><ele>141.0</ele></trkpt>
<trkpt lon="4.782276" lat="48.487596"><ele>143.5</ele></trkpt>
<trkpt lon="4.787588" lat="48.486128"><ele>145.0</ele></trkpt>
<trkpt lon="4.787641" lat="48.486079"><ele>145.0</ele></trkpt>
<trkpt lon="4.786898" lat="48.485834"><ele>143.75</ele></trkpt>
<trkpt lon="4.786042" lat="48.485261"><ele>139.75</ele></trkpt>
<trkpt lon="4.785626" lat="48.485028"><ele>139.0</ele></trkpt>
<trkpt lon="4.784948" lat="48.484742"><ele>137.0</ele></trkpt>
<trkpt lon="4.783908" lat="48.484369"><ele>135.25</ele></trkpt>
<trkpt lon="4.782845" lat="48.484042"><ele>133.5</ele></trkpt>
<trkpt lon="4.781899" lat="48.483799"><ele>131.5</ele></trkpt>
<trkpt lon="4.779152" lat="48.483082"><ele>132.75</ele></trkpt>
<trkpt lon="4.777564" lat="48.482677"><ele>136.25</ele></trkpt>
<trkpt lon="4.776929" lat="48.482501"><ele>137.0</ele></trkpt>
<trkpt lon="4.775617" lat="48.482081"><ele>135.75</ele></trkpt>
<trkpt lon="4.775097" lat="48.481859"><ele>134.5</ele></trkpt>
<trkpt lon="4.774598" lat="48.481590"><ele>132.5</ele></trkpt>
<trkpt lon="4.774200" lat="48.481376"><ele>132.75</ele></trkpt>
<trkpt lon="4.774063" lat="48.481300"><ele>132.5</ele></trkpt>
<trkpt lon="4.773851" lat="48.481168"><ele>132.0</ele></trkpt>
<trkpt lon="4.773711" lat="48.481080"><ele>131.75</ele></trkpt>
<trkpt lon="4.773353" lat="48.480799"><ele>131.0</ele></trkpt>
<trkpt lon="4.773170" lat="48.480653"><ele>131.5</ele></trkpt>
<trkpt lon="4.773073" lat="48.480599"><ele>131.75</ele></trkpt>
<trkpt lon="4.772960" lat="48.480548"><ele>131.5</ele></trkpt>
<trkpt lon="4.772833" lat="48.480504"><ele>131.0</ele></trkpt>
<trkpt lon="4.772444" lat="48.480396"><ele>131.25</ele></trkpt>
<trkpt lon="4.771813" lat="48.480234"><ele>131.75</ele></trkpt>
<trkpt lon="4.771684" lat="48.479767"><ele>131.0</ele></trkpt>
<trkpt lon="4.771594" lat="48.479467"><ele>131.0</ele></trkpt>
<trkpt lon="4.771560" lat="48.479389"><ele>130.75</ele></trkpt>
<trkpt lon="4.771502" lat="48.479330"><ele>130.5</ele></trkpt>
<trkpt lon="4.771455" lat="48.479303"><ele>130.25</ele></trkpt>
<trkpt lon="4.771281" lat="48.479279"><ele>130.25</ele></trkpt>
<trkpt lon="4.771197" lat="48.479267"><ele>130.25</ele></trkpt>
<trkpt lon="4.771068" lat="48.479236"><ele>130.0</ele></trkpt>
<trkpt lon="4.770884" lat="48.479147"><ele>129.75</ele></trkpt>
<trkpt lon="4.770902" lat="48.479111"><ele>129.75</ele></trkpt>
<trkpt lon="4.770892" lat="48.479073"><ele>129.5</ele></trkpt>
<trkpt lon="4.770859" lat="48.479042"><ele>129.5</ele></trkpt>
<trkpt lon="4.770807" lat="48.479025"><ele>129.25</ele></trkpt>
<trkpt lon="4.770750" lat="48.479025"><ele>129.25</ele></trkpt>
<trkpt lon="4.770623" lat="48.478741"><ele>129.0</ele></trkpt>
<trkpt lon="4.770573" lat="48.478605"><ele>129.0</ele></trkpt>
<trkpt lon="4.770532" lat="48.478494"><ele>129.0</ele></trkpt>
<trkpt lon="4.770500" lat="48.478406"><ele>129.0</ele></trkpt>
<trkpt lon="4.770456" lat="48.478299"><ele>129.0</ele></trkpt>
<trkpt lon="4.770379" lat="48.478128"><ele>129.0</ele></trkpt>
<trkpt lon="4.770635" lat="48.478070"><ele>129.0</ele></trkpt>
<trkpt lon="4.770843" lat="48.478006"><ele>129.0</ele></trkpt>
<trkpt lon="4.771117" lat="48.477937"><ele>129.0</ele></trkpt>
<trkpt lon="4.771085" lat="48.477850"><ele>129.0</ele></trkpt>
<trkpt lon="4.771119" lat="48.477713"><ele>129.0</ele></trkpt>
<trkpt lon="4.771145" lat="48.477670"><ele>129.25</ele></trkpt>
<trkpt lon="4.771167" lat="48.477636"><ele>129.25</ele></trkpt>
<trkpt lon="4.771162" lat="48.477627"><ele>129.25</ele></trkpt>
<trkpt lon="4.771135" lat="48.477570"><ele>129.5</ele></trkpt>
<trkpt lon="4.771090" lat="48.477514"><ele>129.75</ele></trkpt>
<trkpt lon="4.771084" lat="48.477478"><ele>129.75</ele></trkpt>
<trkpt lon="4.770876" lat="48.477175"><ele>129.0</ele></trkpt>
  </trkseg></trk></gpx>
