<?xml version="1.0" encoding="UTF-8"?>
<gpx version="1.1" creator="compostel-brouter" xmlns="http://www.topografix.com/GPX/1/1">
  <metadata><name>FR-02-Chateau-Porcien</name></metadata>
  <trk><name>FR-02-Chateau-Porcien</name><trkseg>
<trkpt lon="4.417656" lat="49.700913"><ele>152.75</ele></trkpt>
<trkpt lon="4.417506" lat="49.700665"><ele>154.0</ele></trkpt>
<trkpt lon="4.417386" lat="49.700484"><ele>153.0</ele></trkpt>
<trkpt lon="4.416932" lat="49.700993"><ele>156.5</ele></trkpt>
<trkpt lon="4.416869" lat="49.701054"><ele>157.0</ele></trkpt>
<trkpt lon="4.416790" lat="49.701115"><ele>157.5</ele></trkpt>
<trkpt lon="4.416696" lat="49.701175"><ele>157.25</ele></trkpt>
<trkpt lon="4.416592" lat="49.701232"><ele>157.25</ele></trkpt>
<trkpt lon="4.416376" lat="49.701334"><ele>157.25</ele></trkpt>
<trkpt lon="4.416156" lat="49.700222"><ele>159.75</ele></trkpt>
<trkpt lon="4.416172" lat="49.700133"><ele>159.75</ele></trkpt>
<trkpt lon="4.416400" lat="49.699666"><ele>158.75</ele></trkpt>
<trkpt lon="4.415895" lat="49.699658"><ele>163.0</ele></trkpt>
<trkpt lon="4.415644" lat="49.699646"><ele>165.75</ele></trkpt>
<trkpt lon="4.415039" lat="49.699593"><ele>171.5</ele></trkpt>
<trkpt lon="4.414233" lat="49.699553"><ele>176.5</ele></trkpt>
<trkpt lon="4.413321" lat="49.699609"><ele>180.0</ele></trkpt>
<trkpt lon="4.413060" lat="49.699620"><ele>180.5</ele></trkpt>
<trkpt lon="4.412795" lat="49.699643"><ele>180.75</ele></trkpt>
<trkpt lon="4.412247" lat="49.699757"><ele>181.5</ele></trkpt>
<trkpt lon="4.410415" lat="49.700213"><ele>181.75</ele></trkpt>
<trkpt lon="4.408160" lat="49.700215"><ele>182.0</ele></trkpt>
<trkpt lon="4.407110" lat="49.700308"><ele>184.0</ele></trkpt>
<trkpt lon="4.405745" lat="49.700355"><ele>190.0</ele></trkpt>
<trkpt lon="4.403797" lat="49.700573"><ele>200.25</ele></trkpt>
<trkpt lon="4.403627" lat="49.700612"><ele>200.75</ele></trkpt>
<trkpt lon="4.403694" lat="49.700816"><ele>200.5</ele></trkpt>
<trkpt lon="4.403704" lat="49.701027"><ele>199.75</ele></trkpt>
<trkpt lon="4.403624" lat="49.701274"><ele>199.25</ele></trkpt>
<trkpt lon="4.403466" lat="49.701507"><ele>198.25</ele></trkpt>
<trkpt lon="4.403106" lat="49.701770"><ele>197.5</ele></trkpt>
<trkpt lon="4.402886" lat="49.701930"><ele>197.0</ele></trkpt>
<trkpt lon="4.402795" lat="49.702062"><ele>196.5</ele></trkpt>
<trkpt lon="4.402739" lat="49.702259"><ele>195.5</ele></trkpt>
<trkpt lon="4.402791" lat="49.703315"><ele>195.75</ele></trkpt>
<trkpt lon="4.402819" lat="49.703735"><ele>196.0</ele></trkpt>
<trkpt lon="4.402833" lat="49.703899"><ele>196.0</ele></trkpt>
<trkpt lon="4.402867" lat="49.704042"><ele>196.25</ele></trkpt>
<trkpt lon="4.402600" lat="49.704325"><ele>194.75</ele></trkpt>
<trkpt lon="4.400161" lat="49.706194"><ele>194.0</ele></trkpt>
<trkpt lon="4.398738" lat="49.705971"><ele>190.25</ele></trkpt>
<trkpt lon="4.397351" lat="49.705726"><ele>182.5</ele></trkpt>
<trkpt lon="4.394314" lat="49.705230"><ele>167.5</ele></trkpt>
<trkpt lon="4.393846" lat="49.705132"><ele>165.25</ele></trkpt>
<trkpt lon="4.393146" lat="49.704920"><ele>160.75</ele></trkpt>
<trkpt lon="4.392819" lat="49.704745"><ele>158.25</ele></trkpt>
<trkpt lon="4.392509" lat="49.704551"><ele>154.5</ele></trkpt>
<trkpt lon="4.392383" lat="49.704488"><ele>153.5</ele></trkpt>
<trkpt lon="4.392270" lat="49.704397"><ele>152.25</ele></trkpt>
<trkpt lon="4.391896" lat="49.704143"><ele>150.75</ele></trkpt>
<trkpt lon="4.391062" lat="49.703362"><ele>149.25</ele></trkpt>
<trkpt lon="4.390107" lat="49.702648"><ele>150.0</ele></trkpt>
<trkpt lon="4.388895" lat="49.701951"><ele>157.75</ele></trkpt>
<trkpt lon="4.387910" lat="49.701607"><ele>162.5</ele></trkpt>
<trkpt lon="4.386883" lat="49.701399"><ele>167.75</ele></trkpt>
<trkpt lon="4.385542" lat="49.701246"><ele>174.5</ele></trkpt>
<trkpt lon="4.383761" lat="49.701232"><ele>178.25</ele></trkpt>
<trkpt lon="4.382085" lat="49.701218"><ele>181.0</ele></trkpt>
<trkpt lon="4.379958" lat="49.701201"><ele>183.25</ele></trkpt>
<trkpt lon="4.376074" lat="49.701169"><ele>192.0</ele></trkpt>
<trkpt lon="4.375930" lat="49.701125"><ele>192.0</ele></trkpt>
<trkpt lon="4.375660" lat="49.701029"><ele>191.75</ele></trkpt>
<trkpt lon="4.375418" lat="49.700822"><ele>191.75</ele></trkpt>
<trkpt lon="4.375363" lat="49.700715"><ele>191.75</ele></trkpt>
<trkpt lon="4.375262" lat="49.700520"><ele>192.0</ele></trkpt>
<trkpt lon="4.375115" lat="49.700038"><ele>192.0</ele></trkpt>
<trkpt lon="4.374925" lat="49.699507"><ele>191.0</ele></trkpt>
<trkpt lon="4.374397" lat="49.698992"><ele>190.75</ele></trkpt>
<trkpt lon="4.372008" lat="49.697458"><ele>185.0</ele></trkpt>
<trkpt lon="4.371319" lat="49.696889"><ele>181.5</ele></trkpt>
<trkpt lon="4.370461" lat="49.696048"><ele>180.0</ele></trkpt>
<trkpt lon="4.369699" lat="49.694882"><ele>179.25</ele></trkpt>
<trkpt lon="4.369202" lat="49.693726"><ele>177.0</ele></trkpt>
<trkpt lon="4.369133" lat="49.693146"><ele>177.75</ele></trkpt>
<trkpt lon="4.369092" lat="49.692993"><ele>177.5</ele></trkpt>
<trkpt lon="4.369000" lat="49.692648"><ele>176.25</ele></trkpt>
<trkpt lon="4.368577" lat="49.691721"><ele>176.0</ele></trkpt>
<trkpt lon="4.367977" lat="49.690917"><ele>185.5</ele></trkpt>
<trkpt lon="4.367176" lat="49.690831"><ele>195.25</ele></trkpt>
<trkpt lon="4.366412" lat="49.690831"><ele>202.75</ele></trkpt>
<trkpt lon="4.365914" lat="49.690696"><ele>205.5</ele></trkpt>
<trkpt lon="4.365421" lat="49.690480"><ele>207.5</ele></trkpt>
<trkpt lon="4.364468" lat="49.690292"><ele>208.75</ele></trkpt>
<trkpt lon="4.363446" lat="49.689900"><ele>213.0</ele></trkpt>
<trkpt lon="4.362657" lat="49.689406"><ele>214.5</ele></trkpt>
<trkpt lon="4.362506" lat="49.689104"><ele>214.5</ele></trkpt>
<trkpt lon="4.362076" lat="49.688659"><ele>213.25</ele></trkpt>
<trkpt lon="4.362092" lat="49.688512"><ele>212.0</ele></trkpt>
<trkpt lon="4.361641" lat="49.687920"><ele>214.0</ele></trkpt>
<trkpt lon="4.361565" lat="49.687365"><ele>217.25</ele></trkpt>
<trkpt lon="4.361641" lat="49.686965"><ele>220.75</ele></trkpt>
<trkpt lon="4.361559" lat="49.686544"><ele>221.0</ele></trkpt>
<trkpt lon="4.361310" lat="49.686272"><ele>220.75</ele></trkpt>
<trkpt lon="4.361726" lat="49.685907"><ele>218.75</ele></trkpt>
<trkpt lon="4.362326" lat="49.685489"><ele>214.5</ele></trkpt>
<trkpt lon="4.362610" lat="49.685250"><ele>213.0</ele></trkpt>
<trkpt lon="4.362884" lat="49.685105"><ele>212.25</ele></trkpt>
<trkpt lon="4.363478" lat="49.684841"><ele>211.5</ele></trkpt>
<trkpt lon="4.364058" lat="49.684613"><ele>212.0</ele></trkpt>
<trkpt lon="4.365585" lat="49.683832"><ele>211.75</ele></trkpt>
<trkpt lon="4.365699" lat="49.683765"><ele>211.75</ele></trkpt>
<trkpt lon="4.365753" lat="49.683640"><ele>211.25</ele></trkpt>
<trkpt lon="4.368001" lat="49.682163"><ele>206.75</ele></trkpt>
<trkpt lon="4.369083" lat="49.680913"><ele>208.0</ele></trkpt>
<trkpt lon="4.371733" lat="49.676940"><ele>200.75</ele></trkpt>
<trkpt lon="4.374054" lat="49.674776"><ele>198.0</ele></trkpt>
<trkpt lon="4.374849" lat="49.673845"><ele>197.75</ele></trkpt>
<trkpt lon="4.375303" lat="49.672930"><ele>192.75</ele></trkpt>
<trkpt lon="4.375354" lat="49.672619"><ele>189.0</ele></trkpt>
<trkpt lon="4.375745" lat="49.671999"><ele>179.0</ele></trkpt>
<trkpt lon="4.375695" lat="49.671639"><ele>172.75</ele></trkpt>
<trkpt lon="4.375442" lat="49.671321"><ele>167.75</ele></trkpt>
<trkpt lon="4.375291" lat="49.671223"><ele>166.25</ele></trkpt>
<trkpt lon="4.375388" lat="49.671156"><ele>164.5</ele></trkpt>
<trkpt lon="4.375697" lat="49.671079"><ele>161.5</ele></trkpt>
<trkpt lon="4.376366" lat="49.671079"><ele>156.5</ele></trkpt>
<trkpt lon="4.376668" lat="49.671061"><ele>153.75</ele></trkpt>
<trkpt lon="4.377426" lat="49.670820"><ele>140.75</ele></trkpt>
<trkpt lon="4.377267" lat="49.670553"><ele>138.25</ele></trkpt>
<trkpt lon="4.377231" lat="49.670443"><ele>136.25</ele></trkpt>
<trkpt lon="4.376628" lat="49.669495"><ele>126.5</ele></trkpt>
<trkpt lon="4.376718" lat="49.669436"><ele>125.5</ele></trkpt>
<trkpt lon="4.377074" lat="49.669304"><ele>123.25</ele></trkpt>
<trkpt lon="4.377573" lat="49.669099"><ele>120.75</ele></trkpt>
<trkpt lon="4.377620" lat="49.669063"><ele>120.5</ele></trkpt>
<trkpt lon="4.377637" lat="49.669019"><ele>120.25</ele></trkpt>
<trkpt lon="4.377624" lat="49.668973"><ele>120.25</ele></trkpt>
<trkpt lon="4.377588" lat="49.668919"><ele>120.0</ele></trkpt>
<trkpt lon="4.377518" lat="49.668862"><ele>119.75</ele></trkpt>
<trkpt lon="4.377671" lat="49.668810"><ele>119.5</ele></trkpt>
<trkpt lon="4.377823" lat="49.668762"><ele>119.5</ele></trkpt>
<trkpt lon="4.377911" lat="49.668717"><ele>119.25</ele></trkpt>
<trkpt lon="4.378149" lat="49.668565"><ele>119.25</ele></trkpt>
<trkpt lon="4.378355" lat="49.668392"><ele>119.25</ele></trkpt>
<trkpt lon="4.378500" lat="49.668326"><ele>119.5</ele></trkpt>
<trkpt lon="4.378663" lat="49.668287"><ele>120.0</ele></trkpt>
<trkpt lon="4.378726" lat="49.668285"><ele>120.0</ele></trkpt>
<trkpt lon="4.377476" lat="49.666213"><ele>122.0</ele></trkpt>
<trkpt lon="4.376486" lat="49.663254"><ele>122.5</ele></trkpt>
<trkpt lon="4.376233" lat="49.662946"><ele>123.0</ele></trkpt>
<trkpt lon="4.376062" lat="49.663011"><ele>122.0</ele></trkpt>
<trkpt lon="4.375707" lat="49.663118"><ele>120.25</ele></trkpt>
<trkpt lon="4.375310" lat="49.663201"><ele>119.0</ele></trkpt>
<trkpt lon="4.375161" lat="49.663230"><ele>119.0</ele></trkpt>
<trkpt lon="4.374928" lat="49.663281"><ele>118.75</ele></trkpt>
<trkpt lon="4.374548" lat="49.663402"><ele>118.75</ele></trkpt>
<trkpt lon="4.374212" lat="49.663533"><ele>119.0</ele></trkpt>
<trkpt lon="4.373915" lat="49.663657"><ele>120.0</ele></trkpt>
<trkpt lon="4.373796" lat="49.663540"><ele>120.0</ele></trkpt>
<trkpt lon="4.373723" lat="49.663447"><ele>120.0</ele></trkpt>
<trkpt lon="4.373626" lat="49.663301"><ele>120.0</ele></trkpt>
<trkpt lon="4.373380" lat="49.662655"><ele>125.5</ele></trkpt>
<trkpt lon="4.373512" lat="49.661470"><ele>128.25</ele></trkpt>
<trkpt lon="4.373456" lat="49.660747"><ele>127.25</ele></trkpt>
<trkpt lon="4.372970" lat="49.660396"><ele>125.0</ele></trkpt>
<trkpt lon="4.371398" lat="49.659881"><ele>132.25</ele></trkpt>
<trkpt lon="4.370975" lat="49.659179"><ele>139.75</ele></trkpt>
<trkpt lon="4.371247" lat="49.658631"><ele>143.5</ele></trkpt>
<trkpt lon="4.372591" lat="49.657757"><ele>131.25</ele></trkpt>
<trkpt lon="4.372774" lat="49.657332"><ele>129.0</ele></trkpt>
<trkpt lon="4.370407" lat="49.656123"><ele>119.75</ele></trkpt>
<trkpt lon="4.369850" lat="49.655524"><ele>124.0</ele></trkpt>
<trkpt lon="4.369365" lat="49.654897"><ele>130.5</ele></trkpt>
<trkpt lon="4.368827" lat="49.654112"><ele>139.25</ele></trkpt>
<trkpt lon="4.368664" lat="49.653797"><ele>141.25</ele></trkpt>
<trkpt lon="4.368514" lat="49.653553"><ele>141.5</ele></trkpt>
<trkpt lon="4.368271" lat="49.653194"><ele>141.75</ele></trkpt>
<trkpt lon="4.368057" lat="49.652936"><ele>142.0</ele></trkpt>
<trkpt lon="4.367410" lat="49.652515"><ele>143.25</ele></trkpt>
<trkpt lon="4.366704" lat="49.652270"><ele>141.5</ele></trkpt>
<trkpt lon="4.365798" lat="49.652082"><ele>138.25</ele></trkpt>
<trkpt lon="4.364593" lat="49.651923"><ele>133.0</ele></trkpt>
<trkpt lon="4.363447" lat="49.651888"><ele>127.25</ele></trkpt>
<trkpt lon="4.363324" lat="49.651847"><ele>127.0</ele></trkpt>
<trkpt lon="4.363264" lat="49.651778"><ele>127.0</ele></trkpt>
<trkpt lon="4.363296" lat="49.651631"><ele>127.25</ele></trkpt>
<trkpt lon="4.363400" lat="49.651390"><ele>128.5</ele></trkpt>
<trkpt lon="4.363526" lat="49.650910"><ele>127.75</ele></trkpt>
<trkpt lon="4.363709" lat="49.650295"><ele>126.25</ele></trkpt>
<trkpt lon="4.363807" lat="49.650135"><ele>126.0</ele></trkpt>
<trkpt lon="4.364103" lat="49.649845"><ele>126.75</ele></trkpt>
<trkpt lon="4.364362" lat="49.649549"><ele>128.25</ele></trkpt>
<trkpt lon="4.364583" lat="49.649247"><ele>131.0</ele></trkpt>
<trkpt lon="4.364785" lat="49.648942"><ele>133.75</ele></trkpt>
<trkpt lon="4.364858" lat="49.648660"><ele>136.75</ele></trkpt>
<trkpt lon="4.364589" lat="49.648664"><ele>137.5</ele></trkpt>
<trkpt lon="4.363984" lat="49.648660"><ele>138.75</ele></trkpt>
<trkpt lon="4.363704" lat="49.648637"><ele>139.75</ele></trkpt>
<trkpt lon="4.360884" lat="49.648727"><ele>151.25</ele></trkpt>
<trkpt lon="4.360788" lat="49.648692"><ele>151.75</ele></trkpt>
<trkpt lon="4.360093" lat="49.648284"><ele>152.25</ele></trkpt>
<trkpt lon="4.358122" lat="49.649304"><ele>161.0</ele></trkpt>
<trkpt lon="4.357875" lat="49.649470"><ele>159.0</ele></trkpt>
<trkpt lon="4.357767" lat="49.649491"><ele>158.5</ele></trkpt>
<trkpt lon="4.355086" lat="49.648859"><ele>156.25</ele></trkpt>
<trkpt lon="4.355158" lat="49.646751"><ele>158.25</ele></trkpt>
<trkpt lon="4.355213" lat="49.646544"><ele>156.75</ele></trkpt>
<trkpt lon="4.355329" lat="49.646255"><ele>154.25</ele></trkpt>
<trkpt lon="4.355699" lat="49.645636"><ele>148.0</ele></trkpt>
<trkpt lon="4.355887" lat="49.645289"><ele>145.25</ele></trkpt>
<trkpt lon="4.356320" lat="49.644264"><ele>139.25</ele></trkpt>
<trkpt lon="4.356219" lat="49.643939"><ele>137.25</ele></trkpt>
<trkpt lon="4.356276" lat="49.643796"><ele>135.25</ele></trkpt>
<trkpt lon="4.356807" lat="49.643366"><ele>126.25</ele></trkpt>
<trkpt lon="4.356870" lat="49.643126"><ele>122.75</ele></trkpt>
<trkpt lon="4.356808" lat="49.642851"><ele>119.75</ele></trkpt>
<trkpt lon="4.357118" lat="49.642533"><ele>114.25</ele></trkpt>
<trkpt lon="4.357043" lat="49.642254"><ele>112.5</ele></trkpt>
<trkpt lon="4.356671" lat="49.641877"><ele>111.75</ele></trkpt>
<trkpt lon="4.356735" lat="49.641641"><ele>108.25</ele></trkpt>
<trkpt lon="4.357268" lat="49.641351"><ele>103.75</ele></trkpt>
<trkpt lon="4.357055" lat="49.641107"><ele>103.75</ele></trkpt>
<trkpt lon="4.356894" lat="49.641075"><ele>104.0</ele></trkpt>
<trkpt lon="4.356616" lat="49.641056"><ele>105.0</ele></trkpt>
<trkpt lon="4.356487" lat="49.641027"><ele>105.75</ele></trkpt>
<trkpt lon="4.356437" lat="49.640996"><ele>105.75</ele></trkpt>
<trkpt lon="4.356394" lat="49.640942"><ele>105.75</ele></trkpt>
<trkpt lon="4.356291" lat="49.640504"><ele>104.5</ele></trkpt>
<trkpt lon="4.356246" lat="49.640237"><ele>104.25</ele></trkpt>
<trkpt lon="4.355753" lat="49.639214"><ele>105.0</ele></trkpt>
<trkpt lon="4.355839" lat="49.638115"><ele>109.5</ele></trkpt>
<trkpt lon="4.355961" lat="49.637682"><ele>108.5</ele></trkpt>
<trkpt lon="4.355981" lat="49.637233"><ele>109.25</ele></trkpt>
<trkpt lon="4.355917" lat="49.637011"><ele>109.25</ele></trkpt>
<trkpt lon="4.355803" lat="49.636819"><ele>109.25</ele></trkpt>
<trkpt lon="4.355589" lat="49.636528"><ele>108.25</ele></trkpt>
<trkpt lon="4.354517" lat="49.635260"><ele>108.0</ele></trkpt>
<trkpt lon="4.354218" lat="49.634964"><ele>107.0</ele></trkpt>
<trkpt lon="4.354190" lat="49.634890"><ele>106.5</ele></trkpt>
<trkpt lon="4.354209" lat="49.634828"><ele>105.75</ele></trkpt>
<trkpt lon="4.354303" lat="49.634616"><ele>103.25</ele></trkpt>
<trkpt lon="4.354278" lat="49.634441"><ele>102.5</ele></trkpt>
<trkpt lon="4.354206" lat="49.634322"><ele>102.25</ele></trkpt>
<trkpt lon="4.353975" lat="49.634105"><ele>102.25</ele></trkpt>
<trkpt lon="4.353470" lat="49.633905"><ele>105.0</ele></trkpt>
<trkpt lon="4.353283" lat="49.633791"><ele>106.25</ele></trkpt>
<trkpt lon="4.353189" lat="49.633538"><ele>107.25</ele></trkpt>
<trkpt lon="4.353167" lat="49.633508"><ele>107.75</ele></trkpt>
<trkpt lon="4.353157" lat="49.633418"><ele>108.0</ele></trkpt>
<trkpt lon="4.353178" lat="49.633236"><ele>108.75</ele></trkpt>
<trkpt lon="4.353180" lat="49.633091"><ele>109.75</ele></trkpt>
<trkpt lon="4.353219" lat="49.632938"><ele>111.0</ele></trkpt>
<trkpt lon="4.353288" lat="49.632716"><ele>113.5</ele></trkpt>
<trkpt lon="4.353457" lat="49.632524"><ele>115.0</ele></trkpt>
<trkpt lon="4.353483" lat="49.632416"><ele>116.5</ele></trkpt>
<trkpt lon="4.353351" lat="49.632429"><ele>117.5</ele></trkpt>
<trkpt lon="4.353192" lat="49.632434"><ele>118.0</ele></trkpt>
<trkpt lon="4.352785" lat="49.632433"><ele>119.0</ele></trkpt>
<trkpt lon="4.352038" lat="49.632474"><ele>120.0</ele></trkpt>
<trkpt lon="4.350484" lat="49.632591"><ele>120.5</ele></trkpt>
<trkpt lon="4.350324" lat="49.632602"><ele>120.0</ele></trkpt>
<trkpt lon="4.349580" lat="49.632660"><ele>118.25</ele></trkpt>
<trkpt lon="4.349293" lat="49.632042"><ele>119.5</ele></trkpt>
<trkpt lon="4.349036" lat="49.631650"><ele>121.0</ele></trkpt>
<trkpt lon="4.348612" lat="49.631181"><ele>121.25</ele></trkpt>
<trkpt lon="4.348038" lat="49.630583"><ele>119.0</ele></trkpt>
<trkpt lon="4.347683" lat="49.630324"><ele>119.0</ele></trkpt>
<trkpt lon="4.347126" lat="49.630347"><ele>117.0</ele></trkpt>
<trkpt lon="4.346810" lat="49.630316"><ele>114.25</ele></trkpt>
<trkpt lon="4.346493" lat="49.630197"><ele>111.5</ele></trkpt>
<trkpt lon="4.346043" lat="49.629940"><ele>107.75</ele></trkpt>
<trkpt lon="4.345265" lat="49.629516"><ele>104.0</ele></trkpt>
<trkpt lon="4.343961" lat="49.629213"><ele>100.0</ele></trkpt>
<trkpt lon="4.343510" lat="49.629056"><ele>99.5</ele></trkpt>
<trkpt lon="4.343178" lat="49.628872"><ele>98.75</ele></trkpt>
<trkpt lon="4.342920" lat="49.629147"><ele>98.25</ele></trkpt>
<trkpt lon="4.342620" lat="49.629345"><ele>100.0</ele></trkpt>
<trkpt lon="4.342226" lat="49.629480"><ele>101.25</ele></trkpt>
<trkpt lon="4.341965" lat="49.629532"><ele>101.0</ele></trkpt>
<trkpt lon="4.341874" lat="49.628629"><ele>95.5</ele></trkpt>
<trkpt lon="4.341754" lat="49.628378"><ele>95.0</ele></trkpt>
<trkpt lon="4.341874" lat="49.628268"><ele>95.0</ele></trkpt>
<trkpt lon="4.341976" lat="49.627942"><ele>95.0</ele></trkpt>
<trkpt lon="4.342513" lat="49.627025"><ele>100.5</ele></trkpt>
<trkpt lon="4.342953" lat="49.626441"><ele>103.5</ele></trkpt>
<trkpt lon="4.343511" lat="49.625899"><ele>102.25</ele></trkpt>
<trkpt lon="4.344272" lat="49.625260"><ele>102.5</ele></trkpt>
<trkpt lon="4.345286" lat="49.624649"><ele>102.0</ele></trkpt>
<trkpt lon="4.344942" lat="49.624390"><ele>102.0</ele></trkpt>
<trkpt lon="4.343611" lat="49.623252"><ele>100.25</ele></trkpt>
<trkpt lon="4.343066" lat="49.622758"><ele>99.75</ele></trkpt>
<trkpt lon="4.343003" lat="49.622401"><ele>98.75</ele></trkpt>
<trkpt lon="4.342715" lat="49.621576"><ele>96.75</ele></trkpt>
<trkpt lon="4.342133" lat="49.620214"><ele>93.0</ele></trkpt>
<trkpt lon="4.341321" lat="49.618244"><ele>91.0</ele></trkpt>
<trkpt lon="4.340676" lat="49.617079"><ele>90.0</ele></trkpt>
<trkpt lon="4.339272" lat="49.614318"><ele>88.0</ele></trkpt>
<trkpt lon="4.338698" lat="49.613765"><ele>88.0</ele></trkpt>
<trkpt lon="4.338546" lat="49.613398"><ele>87.75</ele></trkpt>
<trkpt lon="4.338401" lat="49.613234"><ele>88.0</ele></trkpt>
<trkpt lon="4.338394" lat="49.613052"><ele>88.0</ele></trkpt>
<trkpt lon="4.338043" lat="49.612393"><ele>87.5</ele></trkpt>
<trkpt lon="4.337870" lat="49.612227"><ele>87.5</ele></trkpt>
<trkpt lon="4.337220" lat="49.611792"><ele>87.0</ele></trkpt>
<trkpt lon="4.337168" lat="49.611693"><ele>87.0</ele></trkpt>
<trkpt lon="4.336220" lat="49.611065"><ele>87.0</ele></trkpt>
<trkpt lon="4.335635" lat="49.610592"><ele>87.0</ele></trkpt>
<trkpt lon="4.335242" lat="49.610002"><ele>87.0</ele></trkpt>
<trkpt lon="4.333126" lat="49.606698"><ele>85.25</ele></trkpt>
<trkpt lon="4.332759" lat="49.606292"><ele>85.0</ele></trkpt>
<trkpt lon="4.331750" lat="49.605559"><ele>85.0</ele></trkpt>
<trkpt lon="4.331128" lat="49.605131"><ele>85.0</ele></trkpt>
<trkpt lon="4.330692" lat="49.604616"><ele>84.5</ele></trkpt>
<trkpt lon="4.330140" lat="49.604054"><ele>84.5</ele></trkpt>
<trkpt lon="4.328423" lat="49.603025"><ele>84.75</ele></trkpt>
<trkpt lon="4.327320" lat="49.601768"><ele>84.0</ele></trkpt>
<trkpt lon="4.326958" lat="49.601081"><ele>84.0</ele></trkpt>
<trkpt lon="4.325899" lat="49.600431"><ele>84.0</ele></trkpt>
<trkpt lon="4.325018" lat="49.600128"><ele>84.0</ele></trkpt>
<trkpt lon="4.325292" lat="49.599925"><ele>84.0</ele></trkpt>
<trkpt lon="4.325451" lat="49.599806"><ele>84.25</ele></trkpt>
<trkpt lon="4.325561" lat="49.599725"><ele>84.75</ele></trkpt>
<trkpt lon="4.326018" lat="49.599488"><ele>84.0</ele></trkpt>
<trkpt lon="4.324788" lat="49.599012"><ele>83.0</ele></trkpt>
<trkpt lon="4.324740" lat="49.598970"><ele>83.0</ele></trkpt>
<trkpt lon="4.324722" lat="49.598932"><ele>82.75</ele></trkpt>
<trkpt lon="4.324769" lat="49.598617"><ele>83.0</ele></trkpt>
<trkpt lon="4.324783" lat="49.598306"><ele>84.0</ele></trkpt>
<trkpt lon="4.324716" lat="49.597829"><ele>84.0</ele></trkpt>
<trkpt lon="4.324449" lat="49.597638"><ele>84.5</ele></trkpt>
<trkpt lon="4.323660" lat="49.596896"><ele>86.25</ele></trkpt>
<trkpt lon="4.323605" lat="49.596846"><ele>86.5</ele></trkpt>
<trkpt lon="4.323405" lat="49.596900"><ele>86.0</ele></trkpt>
<trkpt lon="4.323130" lat="49.596984"><ele>85.0</ele></trkpt>
<trkpt lon="4.322840" lat="49.597086"><ele>84.0</ele></trkpt>
<trkpt lon="4.322615" lat="49.597193"><ele>84.0</ele></trkpt>
<trkpt lon="4.322534" lat="49.597239"><ele>84.0</ele></trkpt>
<trkpt lon="4.322375" lat="49.597357"><ele>83.5</ele></trkpt>
<trkpt lon="4.321809" lat="49.597799"><ele>83.0</ele></trkpt>
<trkpt lon="4.321683" lat="49.597899"><ele>83.0</ele></trkpt>
<trkpt lon="4.321618" lat="49.597933"><ele>83.0</ele></trkpt>
<trkpt lon="4.321519" lat="49.597956"><ele>83.0</ele></trkpt>
<trkpt lon="4.321409" lat="49.597960"><ele>83.0</ele></trkpt>
<trkpt lon="4.321256" lat="49.597947"><ele>83.0</ele></trkpt>
<trkpt lon="4.321090" lat="49.597957"><ele>83.0</ele></trkpt>
<trkpt lon="4.320680" lat="49.598097"><ele>83.0</ele></trkpt>
<trkpt lon="4.320433" lat="49.598129"><ele>83.0</ele></trkpt>
<trkpt lon="4.318738" lat="49.597639"><ele>83.0</ele></trkpt>
<trkpt lon="4.313360" lat="49.595936"><ele>82.0</ele></trkpt>
<trkpt lon="4.308556" lat="49.591814"><ele>81.0</ele></trkpt>
<trkpt lon="4.308239" lat="49.591439"><ele>81.0</ele></trkpt>
<trkpt lon="4.307394" lat="49.590104"><ele>80.5</ele></trkpt>
<trkpt lon="4.307182" lat="49.589201"><ele>80.0</ele></trkpt>
<trkpt lon="4.306668" lat="49.588189"><ele>80.0</ele></trkpt>
<trkpt lon="4.307373" lat="49.585511"><ele>80.0</ele></trkpt>
<trkpt lon="4.307886" lat="49.583788"><ele>80.0</ele></trkpt>
<trkpt lon="4.307899" lat="49.583720"><ele>80.0</ele></trkpt>
<trkpt lon="4.307895" lat="49.583680"><ele>80.0</ele></trkpt>
<trkpt lon="4.307882" lat="49.583642"><ele>80.0</ele></trkpt>
<trkpt lon="4.307845" lat="49.583597"><ele>79.75</ele></trkpt>
<trkpt lon="4.307647" lat="49.583620"><ele>78.0</ele></trkpt>
<trkpt lon="4.307357" lat="49.583651"><ele>78.0</ele></trkpt>
<trkpt lon="4.304094" lat="49.584003"><ele>80.0</ele></trkpt>
<trkpt lon="4.302974" lat="49.584116"><ele>81.0</ele></trkpt>
<trkpt lon="4.301777" lat="49.584185"><ele>83.5</ele></trkpt>
<trkpt lon="4.301585" lat="49.583690"><ele>83.5</ele></trkpt>
<trkpt lon="4.301244" lat="49.583245"><ele>82.5</ele></trkpt>
<trkpt lon="4.300993" lat="49.582863"><ele>82.0</ele></trkpt>
<trkpt lon="4.301119" lat="49.582783"><ele>82.0</ele></trkpt>
<trkpt lon="4.301221" lat="49.582701"><ele>82.0</ele></trkpt>
<trkpt lon="4.301387" lat="49.582540"><ele>82.0</ele></trkpt>
<trkpt lon="4.301609" lat="49.582200"><ele>82.0</ele></trkpt>
<trkpt lon="4.301682" lat="49.582021"><ele>82.5</ele></trkpt>
<trkpt lon="4.301726" lat="49.581849"><ele>82.75</ele></trkpt>
<trkpt lon="4.301876" lat="49.581035"><ele>84.0</ele></trkpt>
<trkpt lon="4.301999" lat="49.580354"><ele>85.75</ele></trkpt>
<trkpt lon="4.302013" lat="49.580206"><ele>86.25</ele></trkpt>
<trkpt lon="4.301998" lat="49.580065"><ele>86.75</ele></trkpt>
<trkpt lon="4.301949" lat="49.579945"><ele>87.0</ele></trkpt>
<trkpt lon="4.301918" lat="49.579894"><ele>87.0</ele></trkpt>
<trkpt lon="4.301770" lat="49.579757"><ele>87.5</ele></trkpt>
<trkpt lon="4.301574" lat="49.579652"><ele>88.5</ele></trkpt>
<trkpt lon="4.301470" lat="49.579610"><ele>88.75</ele></trkpt>
<trkpt lon="4.299075" lat="49.578806"><ele>91.0</ele></trkpt>
<trkpt lon="4.298619" lat="49.578808"><ele>91.25</ele></trkpt>
<trkpt lon="4.295597" lat="49.578525"><ele>99.0</ele></trkpt>
<trkpt lon="4.294359" lat="49.578371"><ele>103.25</ele></trkpt>
<trkpt lon="4.293292" lat="49.578193"><ele>106.5</ele></trkpt>
<trkpt lon="4.293040" lat="49.578089"><ele>106.75</ele></trkpt>
<trkpt lon="4.290534" lat="49.577045"><ele>113.0</ele></trkpt>
<trkpt lon="4.289229" lat="49.576098"><ele>128.75</ele></trkpt>
<trkpt lon="4.288651" lat="49.575886"><ele>134.5</ele></trkpt>
<trkpt lon="4.287813" lat="49.575790"><ele>138.25</ele></trkpt>
<trkpt lon="4.286486" lat="49.575766"><ele>142.5</ele></trkpt>
<trkpt lon="4.286049" lat="49.575626"><ele>143.0</ele></trkpt>
<trkpt lon="4.285278" lat="49.575300"><ele>141.0</ele></trkpt>
<trkpt lon="4.284425" lat="49.575093"><ele>139.5</ele></trkpt>
<trkpt lon="4.283335" lat="49.574876"><ele>138.0</ele></trkpt>
<trkpt lon="4.279360" lat="49.573453"><ele>135.25</ele></trkpt>
<trkpt lon="4.277261" lat="49.572078"><ele>131.25</ele></trkpt>
<trkpt lon="4.275194" lat="49.570452"><ele>134.0</ele></trkpt>
<trkpt lon="4.273876" lat="49.569980"><ele>136.0</ele></trkpt>
<trkpt lon="4.272655" lat="49.569390"><ele>140.25</ele></trkpt>
<trkpt lon="4.271969" lat="49.568702"><ele>146.25</ele></trkpt>
<trkpt lon="4.270791" lat="49.567444"><ele>142.25</ele></trkpt>
<trkpt lon="4.269991" lat="49.566864"><ele>137.25</ele></trkpt>
<trkpt lon="4.269732" lat="49.566833"><ele>137.0</ele></trkpt>
<trkpt lon="4.268308" lat="49.567344"><ele>142.0</ele></trkpt>
<trkpt lon="4.267721" lat="49.566634"><ele>137.75</ele></trkpt>
<trkpt lon="4.266487" lat="49.565243"><ele>129.25</ele></trkpt>
<trkpt lon="4.266370" lat="49.565111"><ele>128.75</ele></trkpt>
<trkpt lon="4.266299" lat="49.565068"><ele>128.25</ele></trkpt>
<trkpt lon="4.266249" lat="49.565028"><ele>128.0</ele></trkpt>
<trkpt lon="4.264623" lat="49.563150"><ele>120.75</ele></trkpt>
<trkpt lon="4.262541" lat="49.560671"><ele>113.75</ele></trkpt>
<trkpt lon="4.262404" lat="49.560449"><ele>113.5</ele></trkpt>
<trkpt lon="4.261966" lat="49.559675"><ele>116.25</ele></trkpt>
<trkpt lon="4.261565" lat="49.558985"><ele>121.0</ele></trkpt>
<trkpt lon="4.261408" lat="49.558615"><ele>124.0</ele></trkpt>
<trkpt lon="4.260958" lat="49.557463"><ele>129.0</ele></trkpt>
<trkpt lon="4.260884" lat="49.557294"><ele>129.75</ele></trkpt>
<trkpt lon="4.260295" lat="49.556476"><ele>135.5</ele></trkpt>
<trkpt lon="4.259952" lat="49.556023"><ele>137.25</ele></trkpt>
<trkpt lon="4.259772" lat="49.555823"><ele>138.0</ele></trkpt>
<trkpt lon="4.259565" lat="49.555610"><ele>138.75</ele></trkpt>
<trkpt lon="4.258247" lat="49.554283"><ele>139.25</ele></trkpt>
<trkpt lon="4.257842" lat="49.553935"><ele>139.0</ele></trkpt>
<trkpt lon="4.257778" lat="49.553834"><ele>138.75</ele></trkpt>
<trkpt lon="4.257441" lat="49.553380"><ele>138.0</ele></trkpt>
<trkpt lon="4.257109" lat="49.553070"><ele>137.25</ele></trkpt>
<trkpt lon="4.254327" lat="49.549340"><ele>127.25</ele></trkpt>
<trkpt lon="4.252728" lat="49.547419"><ele>120.75</ele></trkpt>
<trkpt lon="4.252052" lat="49.546570"><ele>116.5</ele></trkpt>
<trkpt lon="4.251104" lat="49.545449"><ele>111.25</ele></trkpt>
<trkpt lon="4.250666" lat="49.544965"><ele>109.75</ele></trkpt>
<trkpt lon="4.250348" lat="49.544588"><ele>109.5</ele></trkpt>
<trkpt lon="4.249992" lat="49.544127"><ele>108.75</ele></trkpt>
<trkpt lon="4.249466" lat="49.543284"><ele>108.5</ele></trkpt>
<trkpt lon="4.249215" lat="49.542778"><ele>108.5</ele></trkpt>
<trkpt lon="4.249112" lat="49.542553"><ele>108.5</ele></trkpt>
<trkpt lon="4.248354" lat="49.541084"><ele>109.0</ele></trkpt>
<trkpt lon="4.248177" lat="49.540802"><ele>111.0</ele></trkpt>
<trkpt lon="4.247558" lat="49.539930"><ele>117.0</ele></trkpt>
<trkpt lon="4.247392" lat="49.539727"><ele>117.75</ele></trkpt>
<trkpt lon="4.247353" lat="49.536997"><ele>127.25</ele></trkpt>
<trkpt lon="4.247342" lat="49.536914"><ele>127.25</ele></trkpt>
<trkpt lon="4.247343" lat="49.536665"><ele>125.75</ele></trkpt>
<trkpt lon="4.247321" lat="49.536043"><ele>125.0</ele></trkpt>
<trkpt lon="4.247267" lat="49.535694"><ele>123.75</ele></trkpt>
<trkpt lon="4.247197" lat="49.535546"><ele>123.0</ele></trkpt>
<trkpt lon="4.247069" lat="49.535318"><ele>122.75</ele></trkpt>
<trkpt lon="4.246366" lat="49.534170"><ele>112.0</ele></trkpt>
<trkpt lon="4.246291" lat="49.534031"><ele>111.25</ele></trkpt>
<trkpt lon="4.246264" lat="49.533923"><ele>110.5</ele></trkpt>
<trkpt lon="4.246151" lat="49.533701"><ele>108.75</ele></trkpt>
<trkpt lon="4.245687" lat="49.533098"><ele>105.5</ele></trkpt>
<trkpt lon="4.245379" lat="49.532722"><ele>99.75</ele></trkpt>
<trkpt lon="4.245026" lat="49.532233"><ele>96.0</ele></trkpt>
<trkpt lon="4.244641" lat="49.531803"><ele>92.25</ele></trkpt>
<trkpt lon="4.244407" lat="49.531540"><ele>90.0</ele></trkpt>
<trkpt lon="4.244362" lat="49.531490"><ele>89.5</ele></trkpt>
<trkpt lon="4.244312" lat="49.531449"><ele>89.0</ele></trkpt>
<trkpt lon="4.244347" lat="49.531421"><ele>88.75</ele></trkpt>
<trkpt lon="4.244348" lat="49.531385"><ele>88.5</ele></trkpt>
<trkpt lon="4.244315" lat="49.531356"><ele>88.0</ele></trkpt>
<trkpt lon="4.244275" lat="49.531346"><ele>87.75</ele></trkpt>
<trkpt lon="4.244325" lat="49.530868"><ele>83.25</ele></trkpt>
<trkpt lon="4.244403" lat="49.529930"><ele>73.25</ele></trkpt>
<trkpt lon="4.244419" lat="49.529749"><ele>72.0</ele></trkpt>
<trkpt lon="4.244438" lat="49.529489"><ele>70.25</ele></trkpt>
<trkpt lon="4.244436" lat="49.529461"><ele>70.0</ele></trkpt>
<trkpt lon="4.244429" lat="49.529417"><ele>69.75</ele></trkpt>
<trkpt lon="4.244424" lat="49.529388"><ele>69.75</ele></trkpt>
<trkpt lon="4.244452" lat="49.529227"><ele>69.0</ele></trkpt>
<trkpt lon="4.244474" lat="49.529200"><ele>69.0</ele></trkpt>
<trkpt lon="4.244505" lat="49.529184"><ele>69.0</ele></trkpt>
<trkpt lon="4.244559" lat="49.529173"><ele>69.0</ele></trkpt>
<trkpt lon="4.244655" lat="49.529165"><ele>68.75</ele></trkpt>
<trkpt lon="4.244637" lat="49.529119"><ele>68.25</ele></trkpt>
<trkpt lon="4.244594" lat="49.529009"><ele>66.25</ele></trkpt>
<trkpt lon="4.244503" lat="49.528760"><ele>65.75</ele></trkpt>
<trkpt lon="4.244469" lat="49.528673"><ele>67.0</ele></trkpt>
<trkpt lon="4.244444" lat="49.528600"><ele>68.0</ele></trkpt>
<trkpt lon="4.244320" lat="49.528292"><ele>68.0</ele></trkpt>
<trkpt lon="4.244274" lat="49.528194"><ele>68.0</ele></trkpt>
<trkpt lon="4.244191" lat="49.528210"><ele>68.0</ele></trkpt>
<trkpt lon="4.244070" lat="49.528232"><ele>68.0</ele></trkpt>
<trkpt lon="4.243780" lat="49.528328"><ele>68.0</ele></trkpt>
<trkpt lon="4.243491" lat="49.528338"><ele>67.75</ele></trkpt>
<trkpt lon="4.243340" lat="49.528330"><ele>68.0</ele></trkpt>
  </trkseg></trk></gpx>
