<?xml version="1.0" encoding="UTF-8"?>
<gpx version="1.1" creator="compostel-brouter" xmlns="http://www.topografix.com/GPX/1/1">
  <metadata><name>FR-06-Vitry</name></metadata>
  <trk><name>FR-06-Vitry</name><trkseg>
<trkpt lon="4.365045" lat="48.957508"><ele>82.75</ele></trkpt>
<trkpt lon="4.365021" lat="48.957568"><ele>82.75</ele></trkpt>
<trkpt lon="4.364929" lat="48.957552"><ele>83.0</ele></trkpt>
<trkpt lon="4.364573" lat="48.957685"><ele>83.0</ele></trkpt>
<trkpt lon="4.364407" lat="48.957747"><ele>83.0</ele></trkpt>
<trkpt lon="4.364322" lat="48.957639"><ele>83.0</ele></trkpt>
<trkpt lon="4.364196" lat="48.957449"><ele>83.0</ele></trkpt>
<trkpt lon="4.364190" lat="48.957427"><ele>83.0</ele></trkpt>
<trkpt lon="4.364197" lat="48.957398"><ele>83.0</ele></trkpt>
<trkpt lon="4.364227" lat="48.957361"><ele>83.0</ele></trkpt>
<trkpt lon="4.364143" lat="48.957335"><ele>83.0</ele></trkpt>
<trkpt lon="4.363606" lat="48.957242"><ele>83.75</ele></trkpt>
<trkpt lon="4.363515" lat="48.957227"><ele>83.75</ele></trkpt>
<trkpt lon="4.363337" lat="48.957179"><ele>84.0</ele></trkpt>
<trkpt lon="4.363200" lat="48.957155"><ele>84.0</ele></trkpt>
<trkpt lon="4.363117" lat="48.957152"><ele>84.0</ele></trkpt>
<trkpt lon="4.363028" lat="48.957160"><ele>84.0</ele></trkpt>
<trkpt lon="4.363013" lat="48.957137"><ele>84.0</ele></trkpt>
<trkpt lon="4.363006" lat="48.957126"><ele>84.0</ele></trkpt>
<trkpt lon="4.362549" lat="48.956939"><ele>85.0</ele></trkpt>
<trkpt lon="4.362526" lat="48.956930"><ele>85.0</ele></trkpt>
<trkpt lon="4.362640" lat="48.956585"><ele>84.75</ele></trkpt>
<trkpt lon="4.362737" lat="48.956469"><ele>84.25</ele></trkpt>
<trkpt lon="4.362752" lat="48.956455"><ele>84.25</ele></trkpt>
<trkpt lon="4.362765" lat="48.956444"><ele>84.0</ele></trkpt>
<trkpt lon="4.362788" lat="48.956415"><ele>84.0</ele></trkpt>
<trkpt lon="4.362901" lat="48.956272"><ele>84.0</ele></trkpt>
<trkpt lon="4.362997" lat="48.956148"><ele>84.0</ele></trkpt>
<trkpt lon="4.363135" lat="48.955970"><ele>84.0</ele></trkpt>
<trkpt lon="4.363275" lat="48.955772"><ele>84.0</ele></trkpt>
<trkpt lon="4.363461" lat="48.955523"><ele>83.75</ele></trkpt>
<trkpt lon="4.363594" lat="48.955346"><ele>83.25</ele></trkpt>
<trkpt lon="4.363654" lat="48.955255"><ele>83.0</ele></trkpt>
<trkpt lon="4.363681" lat="48.955215"><ele>83.0</ele></trkpt>
<trkpt lon="4.363633" lat="48.955199"><ele>83.0</ele></trkpt>
<trkpt lon="4.363220" lat="48.954999"><ele>84.0</ele></trkpt>
<trkpt lon="4.363122" lat="48.954952"><ele>84.0</ele></trkpt>
<trkpt lon="4.362799" lat="48.954791"><ele>83.0</ele></trkpt>
<trkpt lon="4.362715" lat="48.954750"><ele>83.0</ele></trkpt>
<trkpt lon="4.362661" lat="48.954724"><ele>83.0</ele></trkpt>
<trkpt lon="4.362012" lat="48.954407"><ele>83.75</ele></trkpt>
<trkpt lon="4.361961" lat="48.954417"><ele>83.75</ele></trkpt>
<trkpt lon="4.361909" lat="48.954417"><ele>84.0</ele></trkpt>
<trkpt lon="4.361858" lat="48.954408"><ele>84.0</ele></trkpt>
<trkpt lon="4.361813" lat="48.954388"><ele>84.0</ele></trkpt>
<trkpt lon="4.361778" lat="48.954361"><ele>84.0</ele></trkpt>
<trkpt lon="4.361757" lat="48.954328"><ele>84.0</ele></trkpt>
<trkpt lon="4.361751" lat="48.954292"><ele>84.0</ele></trkpt>
<trkpt lon="4.361701" lat="48.954292"><ele>84.0</ele></trkpt>
<trkpt lon="4.361679" lat="48.954291"><ele>84.0</ele></trkpt>
<trkpt lon="4.361678" lat="48.954046"><ele>83.75</ele></trkpt>
<trkpt lon="4.361616" lat="48.954042"><ele>83.75</ele></trkpt>
<trkpt lon="4.361559" lat="48.953979"><ele>83.5</ele></trkpt>
<trkpt lon="4.361356" lat="48.953889"><ele>83.0</ele></trkpt>
<trkpt lon="4.361213" lat="48.953892"><ele>83.0</ele></trkpt>
<trkpt lon="4.361069" lat="48.953873"><ele>83.0</ele></trkpt>
<trkpt lon="4.360965" lat="48.953847"><ele>83.25</ele></trkpt>
<trkpt lon="4.360878" lat="48.953785"><ele>83.5</ele></trkpt>
<trkpt lon="4.360836" lat="48.953703"><ele>83.25</ele></trkpt>
<trkpt lon="4.360832" lat="48.953638"><ele>83.0</ele></trkpt>
<trkpt lon="4.360807" lat="48.953575"><ele>83.25</ele></trkpt>
<trkpt lon="4.360656" lat="48.953408"><ele>84.0</ele></trkpt>
<trkpt lon="4.360603" lat="48.953250"><ele>84.0</ele></trkpt>
<trkpt lon="4.359985" lat="48.952666"><ele>82.5</ele></trkpt>
<trkpt lon="4.359566" lat="48.952235"><ele>82.75</ele></trkpt>
<trkpt lon="4.359614" lat="48.952201"><ele>83.0</ele></trkpt>
<trkpt lon="4.359646" lat="48.952159"><ele>83.0</ele></trkpt>
<trkpt lon="4.359657" lat="48.952113"><ele>83.0</ele></trkpt>
<trkpt lon="4.359648" lat="48.952067"><ele>83.0</ele></trkpt>
<trkpt lon="4.359620" lat="48.952025"><ele>83.0</ele></trkpt>
<trkpt lon="4.359574" lat="48.951990"><ele>83.0</ele></trkpt>
<trkpt lon="4.359515" lat="48.951965"><ele>83.0</ele></trkpt>
<trkpt lon="4.359440" lat="48.951951"><ele>83.0</ele></trkpt>
<trkpt lon="4.359362" lat="48.951954"><ele>83.0</ele></trkpt>
<trkpt lon="4.359289" lat="48.951972"><ele>83.0</ele></trkpt>
<trkpt lon="4.358197" lat="48.950906"><ele>83.0</ele></trkpt>
<trkpt lon="4.357873" lat="48.950819"><ele>83.0</ele></trkpt>
<trkpt lon="4.357892" lat="48.950734"><ele>83.0</ele></trkpt>
<trkpt lon="4.357953" lat="48.950570"><ele>83.0</ele></trkpt>
<trkpt lon="4.358167" lat="48.950262"><ele>83.0</ele></trkpt>
<trkpt lon="4.358578" lat="48.949816"><ele>82.5</ele></trkpt>
<trkpt lon="4.358747" lat="48.949695"><ele>83.0</ele></trkpt>
<trkpt lon="4.359034" lat="48.949529"><ele>83.5</ele></trkpt>
<trkpt lon="4.359189" lat="48.949516"><ele>84.25</ele></trkpt>
<trkpt lon="4.359273" lat="48.949519"><ele>83.5</ele></trkpt>
<trkpt lon="4.359178" lat="48.949458"><ele>84.75</ele></trkpt>
<trkpt lon="4.358810" lat="48.949257"><ele>83.75</ele></trkpt>
<trkpt lon="4.358844" lat="48.949236"><ele>83.75</ele></trkpt>
<trkpt lon="4.358990" lat="48.949142"><ele>83.25</ele></trkpt>
<trkpt lon="4.359361" lat="48.948863"><ele>82.5</ele></trkpt>
<trkpt lon="4.362339" lat="48.946473"><ele>82.5</ele></trkpt>
<trkpt lon="4.366665" lat="48.942972"><ele>82.5</ele></trkpt>
<trkpt lon="4.367164" lat="48.942638"><ele>83.75</ele></trkpt>
<trkpt lon="4.367212" lat="48.942596"><ele>84.25</ele></trkpt>
<trkpt lon="4.367497" lat="48.942298"><ele>83.5</ele></trkpt>
<trkpt lon="4.367595" lat="48.942193"><ele>83.25</ele></trkpt>
<trkpt lon="4.370182" lat="48.940080"><ele>82.5</ele></trkpt>
<trkpt lon="4.374190" lat="48.936863"><ele>82.25</ele></trkpt>
<trkpt lon="4.377283" lat="48.934361"><ele>83.0</ele></trkpt>
<trkpt lon="4.380900" lat="48.931449"><ele>83.5</ele></trkpt>
<trkpt lon="4.383124" lat="48.929643"><ele>83.0</ele></trkpt>
<trkpt lon="4.392977" lat="48.921673"><ele>83.5</ele></trkpt>
<trkpt lon="4.396920" lat="48.918460"><ele>84.0</ele></trkpt>
<trkpt lon="4.397002" lat="48.918414"><ele>84.0</ele></trkpt>
<trkpt lon="4.397089" lat="48.918367"><ele>83.75</ele></trkpt>
<trkpt lon="4.397158" lat="48.918321"><ele>83.5</ele></trkpt>
<trkpt lon="4.397473" lat="48.918071"><ele>84.0</ele></trkpt>
<trkpt lon="4.397569" lat="48.917996"><ele>84.0</ele></trkpt>
<trkpt lon="4.397829" lat="48.917778"><ele>83.75</ele></trkpt>
<trkpt lon="4.397924" lat="48.917685"><ele>83.5</ele></trkpt>
<trkpt lon="4.397979" lat="48.917613"><ele>83.5</ele></trkpt>
<trkpt lon="4.400451" lat="48.915610"><ele>83.25</ele></trkpt>
<trkpt lon="4.402034" lat="48.914317"><ele>83.75</ele></trkpt>
<trkpt lon="4.403560" lat="48.913088"><ele>84.75</ele></trkpt>
<trkpt lon="4.403544" lat="48.912833"><ele>84.5</ele></trkpt>
<trkpt lon="4.404777" lat="48.911843"><ele>83.75</ele></trkpt>
<trkpt lon="4.404879" lat="48.911704"><ele>83.5</ele></trkpt>
<trkpt lon="4.405489" lat="48.910742"><ele>83.75</ele></trkpt>
<trkpt lon="4.405611" lat="48.910427"><ele>83.75</ele></trkpt>
<trkpt lon="4.405773" lat="48.909887"><ele>84.0</ele></trkpt>
<trkpt lon="4.406134" lat="48.909056"><ele>84.0</ele></trkpt>
<trkpt lon="4.406362" lat="48.908685"><ele>84.0</ele></trkpt>
<trkpt lon="4.406787" lat="48.908074"><ele>84.0</ele></trkpt>
<trkpt lon="4.407037" lat="48.907676"><ele>84.0</ele></trkpt>
<trkpt lon="4.407125" lat="48.907477"><ele>84.0</ele></trkpt>
<trkpt lon="4.407242" lat="48.907263"><ele>84.0</ele></trkpt>
<trkpt lon="4.407414" lat="48.907014"><ele>83.75</ele></trkpt>
<trkpt lon="4.407695" lat="48.906702"><ele>84.0</ele></trkpt>
<trkpt lon="4.407997" lat="48.906382"><ele>83.75</ele></trkpt>
<trkpt lon="4.408098" lat="48.906304"><ele>84.0</ele></trkpt>
<trkpt lon="4.408793" lat="48.905612"><ele>83.5</ele></trkpt>
<trkpt lon="4.408823" lat="48.905172"><ele>83.75</ele></trkpt>
<trkpt lon="4.409433" lat="48.904331"><ele>84.0</ele></trkpt>
<trkpt lon="4.409549" lat="48.904200"><ele>84.0</ele></trkpt>
<trkpt lon="4.409629" lat="48.904172"><ele>84.0</ele></trkpt>
<trkpt lon="4.409720" lat="48.904172"><ele>84.0</ele></trkpt>
<trkpt lon="4.409857" lat="48.904220"><ele>84.0</ele></trkpt>
<trkpt lon="4.410792" lat="48.904653"><ele>84.0</ele></trkpt>
<trkpt lon="4.410885" lat="48.904687"><ele>84.0</ele></trkpt>
<trkpt lon="4.410976" lat="48.904690"><ele>84.0</ele></trkpt>
<trkpt lon="4.411054" lat="48.904674"><ele>84.0</ele></trkpt>
<trkpt lon="4.411134" lat="48.904632"><ele>84.0</ele></trkpt>
<trkpt lon="4.413735" lat="48.901850"><ele>84.0</ele></trkpt>
<trkpt lon="4.413900" lat="48.901682"><ele>84.0</ele></trkpt>
<trkpt lon="4.414109" lat="48.901439"><ele>84.0</ele></trkpt>
<trkpt lon="4.414178" lat="48.901323"><ele>84.0</ele></trkpt>
<trkpt lon="4.414286" lat="48.901226"><ele>84.5</ele></trkpt>
<trkpt lon="4.417620" lat="48.898130"><ele>84.0</ele></trkpt>
<trkpt lon="4.417971" lat="48.897729"><ele>84.0</ele></trkpt>
<trkpt lon="4.418368" lat="48.897186"><ele>84.0</ele></trkpt>
<trkpt lon="4.419293" lat="48.896557"><ele>85.0</ele></trkpt>
<trkpt lon="4.420849" lat="48.895175"><ele>85.0</ele></trkpt>
<trkpt lon="4.421018" lat="48.895062"><ele>85.0</ele></trkpt>
<trkpt lon="4.421225" lat="48.895048"><ele>85.0</ele></trkpt>
<trkpt lon="4.421428" lat="48.894977"><ele>85.0</ele></trkpt>
<trkpt lon="4.421533" lat="48.894844"><ele>85.0</ele></trkpt>
<trkpt lon="4.422351" lat="48.893517"><ele>85.0</ele></trkpt>
<trkpt lon="4.422491" lat="48.893411"><ele>85.0</ele></trkpt>
<trkpt lon="4.422584" lat="48.893412"><ele>85.0</ele></trkpt>
<trkpt lon="4.422759" lat="48.893446"><ele>85.0</ele></trkpt>
<trkpt lon="4.423835" lat="48.893902"><ele>84.75</ele></trkpt>
<trkpt lon="4.425881" lat="48.891048"><ele>85.5</ele></trkpt>
<trkpt lon="4.426568" lat="48.890237"><ele>85.25</ele></trkpt>
<trkpt lon="4.427433" lat="48.889285"><ele>85.0</ele></trkpt>
<trkpt lon="4.427930" lat="48.888452"><ele>85.0</ele></trkpt>
<trkpt lon="4.428195" lat="48.888248"><ele>85.0</ele></trkpt>
<trkpt lon="4.429700" lat="48.887835"><ele>85.0</ele></trkpt>
<trkpt lon="4.429831" lat="48.887872"><ele>85.0</ele></trkpt>
<trkpt lon="4.430104" lat="48.888031"><ele>85.0</ele></trkpt>
<trkpt lon="4.430252" lat="48.888128"><ele>84.75</ele></trkpt>
<trkpt lon="4.430550" lat="48.888233"><ele>85.0</ele></trkpt>
<trkpt lon="4.430698" lat="48.888298"><ele>85.0</ele></trkpt>
<trkpt lon="4.432494" lat="48.889206"><ele>86.0</ele></trkpt>
<trkpt lon="4.432586" lat="48.889216"><ele>86.0</ele></trkpt>
<trkpt lon="4.432657" lat="48.889208"><ele>86.0</ele></trkpt>
<trkpt lon="4.435759" lat="48.886704"><ele>85.75</ele></trkpt>
<trkpt lon="4.438491" lat="48.884516"><ele>86.5</ele></trkpt>
<trkpt lon="4.438847" lat="48.884219"><ele>86.0</ele></trkpt>
<trkpt lon="4.439105" lat="48.883973"><ele>86.0</ele></trkpt>
<trkpt lon="4.439611" lat="48.883438"><ele>86.0</ele></trkpt>
<trkpt lon="4.439759" lat="48.883251"><ele>86.0</ele></trkpt>
<trkpt lon="4.439887" lat="48.883057"><ele>86.0</ele></trkpt>
<trkpt lon="4.440058" lat="48.882732"><ele>86.0</ele></trkpt>
<trkpt lon="4.440164" lat="48.882591"><ele>85.75</ele></trkpt>
<trkpt lon="4.440318" lat="48.882437"><ele>86.0</ele></trkpt>
<trkpt lon="4.440733" lat="48.882076"><ele>86.0</ele></trkpt>
<trkpt lon="4.440867" lat="48.881948"><ele>86.0</ele></trkpt>
<trkpt lon="4.440971" lat="48.881791"><ele>86.25</ele></trkpt>
<trkpt lon="4.441042" lat="48.881595"><ele>86.5</ele></trkpt>
<trkpt lon="4.441131" lat="48.880997"><ele>86.0</ele></trkpt>
<trkpt lon="4.441270" lat="48.880824"><ele>86.5</ele></trkpt>
<trkpt lon="4.441624" lat="48.880562"><ele>86.75</ele></trkpt>
<trkpt lon="4.441773" lat="48.880621"><ele>86.5</ele></trkpt>
<trkpt lon="4.442876" lat="48.881172"><ele>87.5</ele></trkpt>
<trkpt lon="4.443350" lat="48.880865"><ele>86.0</ele></trkpt>
<trkpt lon="4.444532" lat="48.879875"><ele>86.5</ele></trkpt>
<trkpt lon="4.454150" lat="48.872084"><ele>88.0</ele></trkpt>
<trkpt lon="4.454375" lat="48.871888"><ele>87.75</ele></trkpt>
<trkpt lon="4.454569" lat="48.871672"><ele>88.25</ele></trkpt>
<trkpt lon="4.454861" lat="48.871408"><ele>90.25</ele></trkpt>
<trkpt lon="4.454941" lat="48.871360"><ele>90.25</ele></trkpt>
<trkpt lon="4.455143" lat="48.871242"><ele>88.0</ele></trkpt>
<trkpt lon="4.455367" lat="48.871076"><ele>87.75</ele></trkpt>
<trkpt lon="4.455868" lat="48.870703"><ele>87.5</ele></trkpt>
<trkpt lon="4.456828" lat="48.870058"><ele>87.5</ele></trkpt>
<trkpt lon="4.457730" lat="48.869616"><ele>87.5</ele></trkpt>
<trkpt lon="4.458594" lat="48.869271"><ele>87.75</ele></trkpt>
<trkpt lon="4.459939" lat="48.868727"><ele>87.5</ele></trkpt>
<trkpt lon="4.460469" lat="48.868525"><ele>87.75</ele></trkpt>
<trkpt lon="4.472286" lat="48.863864"><ele>88.75</ele></trkpt>
<trkpt lon="4.472900" lat="48.863522"><ele>88.25</ele></trkpt>
<trkpt lon="4.473421" lat="48.863213"><ele>88.75</ele></trkpt>
<trkpt lon="4.477636" lat="48.859907"><ele>88.5</ele></trkpt>
<trkpt lon="4.478095" lat="48.859450"><ele>89.5</ele></trkpt>
<trkpt lon="4.480050" lat="48.857123"><ele>88.25</ele></trkpt>
<trkpt lon="4.480145" lat="48.856970"><ele>88.0</ele></trkpt>
<trkpt lon="4.480298" lat="48.856724"><ele>89.5</ele></trkpt>
<trkpt lon="4.480442" lat="48.856543"><ele>89.25</ele></trkpt>
<trkpt lon="4.480736" lat="48.856216"><ele>89.0</ele></trkpt>
<trkpt lon="4.480841" lat="48.856109"><ele>89.75</ele></trkpt>
<trkpt lon="4.481042" lat="48.855904"><ele>89.0</ele></trkpt>
<trkpt lon="4.481374" lat="48.855642"><ele>88.5</ele></trkpt>
<trkpt lon="4.482008" lat="48.855224"><ele>89.0</ele></trkpt>
<trkpt lon="4.483113" lat="48.854463"><ele>88.75</ele></trkpt>
<trkpt lon="4.484540" lat="48.853086"><ele>89.25</ele></trkpt>
<trkpt lon="4.485201" lat="48.852418"><ele>89.0</ele></trkpt>
<trkpt lon="4.485318" lat="48.852266"><ele>89.5</ele></trkpt>
<trkpt lon="4.485366" lat="48.852173"><ele>89.5</ele></trkpt>
<trkpt lon="4.485396" lat="48.852036"><ele>89.75</ele></trkpt>
<trkpt lon="4.485406" lat="48.851901"><ele>90.0</ele></trkpt>
<trkpt lon="4.485393" lat="48.851806"><ele>90.0</ele></trkpt>
<trkpt lon="4.485335" lat="48.851623"><ele>89.75</ele></trkpt>
<trkpt lon="4.485236" lat="48.851462"><ele>89.0</ele></trkpt>
<trkpt lon="4.485204" lat="48.851378"><ele>89.0</ele></trkpt>
<trkpt lon="4.485206" lat="48.851262"><ele>89.25</ele></trkpt>
<trkpt lon="4.485229" lat="48.851221"><ele>89.25</ele></trkpt>
<trkpt lon="4.485297" lat="48.851137"><ele>89.75</ele></trkpt>
<trkpt lon="4.485465" lat="48.851002"><ele>88.25</ele></trkpt>
<trkpt lon="4.485588" lat="48.850951"><ele>88.0</ele></trkpt>
<trkpt lon="4.485710" lat="48.850923"><ele>88.25</ele></trkpt>
<trkpt lon="4.485834" lat="48.850915"><ele>88.5</ele></trkpt>
<trkpt lon="4.485921" lat="48.850919"><ele>88.5</ele></trkpt>
<trkpt lon="4.486063" lat="48.850956"><ele>88.25</ele></trkpt>
<trkpt lon="4.486288" lat="48.851039"><ele>89.0</ele></trkpt>
<trkpt lon="4.486388" lat="48.851047"><ele>89.5</ele></trkpt>
<trkpt lon="4.486495" lat="48.851036"><ele>89.25</ele></trkpt>
<trkpt lon="4.486597" lat="48.851003"><ele>89.0</ele></trkpt>
<trkpt lon="4.486708" lat="48.850935"><ele>88.75</ele></trkpt>
<trkpt lon="4.486792" lat="48.850841"><ele>88.75</ele></trkpt>
<trkpt lon="4.487211" lat="48.850233"><ele>89.5</ele></trkpt>
<trkpt lon="4.487408" lat="48.849900"><ele>89.0</ele></trkpt>
<trkpt lon="4.487765" lat="48.849243"><ele>91.25</ele></trkpt>
<trkpt lon="4.487851" lat="48.849109"><ele>90.5</ele></trkpt>
<trkpt lon="4.488141" lat="48.848754"><ele>89.5</ele></trkpt>
<trkpt lon="4.488392" lat="48.848397"><ele>89.0</ele></trkpt>
<trkpt lon="4.488883" lat="48.847652"><ele>89.75</ele></trkpt>
<trkpt lon="4.489013" lat="48.847450"><ele>89.75</ele></trkpt>
<trkpt lon="4.489110" lat="48.847326"><ele>90.25</ele></trkpt>
<trkpt lon="4.489205" lat="48.847223"><ele>90.75</ele></trkpt>
<trkpt lon="4.489275" lat="48.847159"><ele>90.25</ele></trkpt>
<trkpt lon="4.489597" lat="48.846950"><ele>89.75</ele></trkpt>
<trkpt lon="4.490204" lat="48.846569"><ele>89.75</ele></trkpt>
<trkpt lon="4.498575" lat="48.842391"><ele>89.25</ele></trkpt>
<trkpt lon="4.500221" lat="48.841464"><ele>89.5</ele></trkpt>
<trkpt lon="4.505035" lat="48.839046"><ele>89.0</ele></trkpt>
<trkpt lon="4.505174" lat="48.838981"><ele>89.5</ele></trkpt>
<trkpt lon="4.505777" lat="48.838803"><ele>90.0</ele></trkpt>
<trkpt lon="4.506165" lat="48.838605"><ele>90.0</ele></trkpt>
<trkpt lon="4.506322" lat="48.838443"><ele>90.0</ele></trkpt>
<trkpt lon="4.509397" lat="48.836871"><ele>90.25</ele></trkpt>
<trkpt lon="4.509887" lat="48.836596"><ele>90.5</ele></trkpt>
<trkpt lon="4.510266" lat="48.836313"><ele>90.25</ele></trkpt>
<trkpt lon="4.510531" lat="48.836056"><ele>90.75</ele></trkpt>
<trkpt lon="4.510686" lat="48.835784"><ele>90.75</ele></trkpt>
<trkpt lon="4.510748" lat="48.835602"><ele>90.25</ele></trkpt>
<trkpt lon="4.510915" lat="48.835478"><ele>91.0</ele></trkpt>
<trkpt lon="4.510985" lat="48.835342"><ele>91.25</ele></trkpt>
<trkpt lon="4.511091" lat="48.835166"><ele>91.75</ele></trkpt>
<trkpt lon="4.511162" lat="48.835011"><ele>92.5</ele></trkpt>
<trkpt lon="4.511191" lat="48.834845"><ele>91.25</ele></trkpt>
<trkpt lon="4.511274" lat="48.834581"><ele>90.5</ele></trkpt>
<trkpt lon="4.511687" lat="48.833516"><ele>90.5</ele></trkpt>
<trkpt lon="4.512092" lat="48.832539"><ele>89.5</ele></trkpt>
<trkpt lon="4.512170" lat="48.832450"><ele>89.75</ele></trkpt>
<trkpt lon="4.512187" lat="48.832270"><ele>90.5</ele></trkpt>
<trkpt lon="4.512219" lat="48.832164"><ele>90.75</ele></trkpt>
<trkpt lon="4.512410" lat="48.831701"><ele>91.0</ele></trkpt>
<trkpt lon="4.513023" lat="48.830111"><ele>90.5</ele></trkpt>
<trkpt lon="4.514146" lat="48.827341"><ele>90.75</ele></trkpt>
<trkpt lon="4.514542" lat="48.826657"><ele>91.0</ele></trkpt>
<trkpt lon="4.514656" lat="48.826480"><ele>92.0</ele></trkpt>
<trkpt lon="4.514689" lat="48.826445"><ele>92.5</ele></trkpt>
<trkpt lon="4.514745" lat="48.826388"><ele>92.75</ele></trkpt>
<trkpt lon="4.515083" lat="48.825954"><ele>90.5</ele></trkpt>
<trkpt lon="4.518342" lat="48.821187"><ele>91.5</ele></trkpt>
<trkpt lon="4.518688" lat="48.820656"><ele>91.75</ele></trkpt>
<trkpt lon="4.518971" lat="48.820085"><ele>92.0</ele></trkpt>
<trkpt lon="4.519742" lat="48.818099"><ele>92.5</ele></trkpt>
<trkpt lon="4.520145" lat="48.817020"><ele>91.5</ele></trkpt>
<trkpt lon="4.520267" lat="48.815928"><ele>92.0</ele></trkpt>
<trkpt lon="4.520455" lat="48.814432"><ele>91.25</ele></trkpt>
<trkpt lon="4.520451" lat="48.814271"><ele>91.25</ele></trkpt>
<trkpt lon="4.520437" lat="48.813997"><ele>91.5</ele></trkpt>
<trkpt lon="4.520469" lat="48.813601"><ele>93.75</ele></trkpt>
<trkpt lon="4.520472" lat="48.812881"><ele>91.25</ele></trkpt>
<trkpt lon="4.520511" lat="48.812298"><ele>92.0</ele></trkpt>
<trkpt lon="4.520592" lat="48.811719"><ele>91.75</ele></trkpt>
<trkpt lon="4.520788" lat="48.811427"><ele>92.0</ele></trkpt>
<trkpt lon="4.520884" lat="48.811208"><ele>91.5</ele></trkpt>
<trkpt lon="4.521089" lat="48.809565"><ele>91.5</ele></trkpt>
<trkpt lon="4.521297" lat="48.808962"><ele>92.75</ele></trkpt>
<trkpt lon="4.521297" lat="48.808695"><ele>92.5</ele></trkpt>
<trkpt lon="4.521349" lat="48.808361"><ele>91.5</ele></trkpt>
<trkpt lon="4.522748" lat="48.803868"><ele>91.75</ele></trkpt>
<trkpt lon="4.523509" lat="48.801327"><ele>92.0</ele></trkpt>
<trkpt lon="4.523665" lat="48.800843"><ele>92.0</ele></trkpt>
<trkpt lon="4.524130" lat="48.800051"><ele>92.5</ele></trkpt>
<trkpt lon="4.525446" lat="48.798460"><ele>92.5</ele></trkpt>
<trkpt lon="4.526120" lat="48.797684"><ele>92.5</ele></trkpt>
<trkpt lon="4.527475" lat="48.796462"><ele>92.25</ele></trkpt>
<trkpt lon="4.529844" lat="48.795014"><ele>93.0</ele></trkpt>
<trkpt lon="4.530974" lat="48.794399"><ele>92.25</ele></trkpt>
<trkpt lon="4.531650" lat="48.793864"><ele>92.75</ele></trkpt>
<trkpt lon="4.532221" lat="48.793201"><ele>92.75</ele></trkpt>
<trkpt lon="4.532596" lat="48.792464"><ele>92.5</ele></trkpt>
<trkpt lon="4.533186" lat="48.791120"><ele>94.0</ele></trkpt>
<trkpt lon="4.533216" lat="48.790992"><ele>94.5</ele></trkpt>
<trkpt lon="4.533227" lat="48.790949"><ele>94.5</ele></trkpt>
<trkpt lon="4.533232" lat="48.790919"><ele>94.75</ele></trkpt>
<trkpt lon="4.533327" lat="48.790375"><ele>93.75</ele></trkpt>
<trkpt lon="4.533423" lat="48.790047"><ele>93.0</ele></trkpt>
<trkpt lon="4.533751" lat="48.789266"><ele>93.0</ele></trkpt>
<trkpt lon="4.533907" lat="48.788917"><ele>94.0</ele></trkpt>
<trkpt lon="4.534461" lat="48.787742"><ele>93.75</ele></trkpt>
<trkpt lon="4.534809" lat="48.787482"><ele>94.5</ele></trkpt>
<trkpt lon="4.534925" lat="48.787372"><ele>93.75</ele></trkpt>
<trkpt lon="4.535591" lat="48.786338"><ele>93.75</ele></trkpt>
<trkpt lon="4.539250" lat="48.780806"><ele>94.25</ele></trkpt>
<trkpt lon="4.539394" lat="48.780535"><ele>94.75</ele></trkpt>
<trkpt lon="4.539466" lat="48.780307"><ele>95.5</ele></trkpt>
<trkpt lon="4.539637" lat="48.780102"><ele>94.5</ele></trkpt>
<trkpt lon="4.539813" lat="48.779927"><ele>94.25</ele></trkpt>
<trkpt lon="4.540434" lat="48.779008"><ele>93.75</ele></trkpt>
<trkpt lon="4.540990" lat="48.778203"><ele>93.5</ele></trkpt>
<trkpt lon="4.541574" lat="48.777434"><ele>93.75</ele></trkpt>
<trkpt lon="4.542712" lat="48.776460"><ele>94.0</ele></trkpt>
<trkpt lon="4.543660" lat="48.775733"><ele>94.25</ele></trkpt>
<trkpt lon="4.544966" lat="48.774981"><ele>94.75</ele></trkpt>
<trkpt lon="4.546130" lat="48.774315"><ele>94.0</ele></trkpt>
<trkpt lon="4.547135" lat="48.773717"><ele>94.0</ele></trkpt>
<trkpt lon="4.547480" lat="48.773499"><ele>94.0</ele></trkpt>
<trkpt lon="4.548560" lat="48.772858"><ele>95.0</ele></trkpt>
<trkpt lon="4.550688" lat="48.771790"><ele>94.5</ele></trkpt>
<trkpt lon="4.551589" lat="48.771350"><ele>94.0</ele></trkpt>
<trkpt lon="4.555404" lat="48.769455"><ele>94.5</ele></trkpt>
<trkpt lon="4.555844" lat="48.769242"><ele>95.0</ele></trkpt>
<trkpt lon="4.557032" lat="48.768552"><ele>94.5</ele></trkpt>
<trkpt lon="4.558040" lat="48.767681"><ele>95.0</ele></trkpt>
<trkpt lon="4.558745" lat="48.766965"><ele>94.75</ele></trkpt>
<trkpt lon="4.559117" lat="48.766478"><ele>94.5</ele></trkpt>
<trkpt lon="4.559430" lat="48.766043"><ele>95.0</ele></trkpt>
<trkpt lon="4.559518" lat="48.765893"><ele>95.25</ele></trkpt>
<trkpt lon="4.559663" lat="48.765552"><ele>95.25</ele></trkpt>
<trkpt lon="4.559705" lat="48.765445"><ele>96.0</ele></trkpt>
<trkpt lon="4.559801" lat="48.765292"><ele>96.25</ele></trkpt>
<trkpt lon="4.559820" lat="48.765263"><ele>96.0</ele></trkpt>
<trkpt lon="4.559829" lat="48.765248"><ele>96.0</ele></trkpt>
<trkpt lon="4.559874" lat="48.765198"><ele>95.5</ele></trkpt>
<trkpt lon="4.559939" lat="48.765130"><ele>95.25</ele></trkpt>
<trkpt lon="4.560117" lat="48.764943"><ele>95.0</ele></trkpt>
<trkpt lon="4.560222" lat="48.764816"><ele>94.5</ele></trkpt>
<trkpt lon="4.561313" lat="48.763141"><ele>95.75</ele></trkpt>
<trkpt lon="4.561345" lat="48.763092"><ele>96.25</ele></trkpt>
<trkpt lon="4.561382" lat="48.763023"><ele>97.0</ele></trkpt>
<trkpt lon="4.561487" lat="48.762874"><ele>96.5</ele></trkpt>
<trkpt lon="4.561889" lat="48.762470"><ele>95.75</ele></trkpt>
<trkpt lon="4.562102" lat="48.762276"><ele>95.5</ele></trkpt>
<trkpt lon="4.562631" lat="48.761912"><ele>95.25</ele></trkpt>
<trkpt lon="4.564533" lat="48.760889"><ele>94.75</ele></trkpt>
<trkpt lon="4.565548" lat="48.760379"><ele>95.25</ele></trkpt>
<trkpt lon="4.566126" lat="48.760052"><ele>95.5</ele></trkpt>
<trkpt lon="4.566622" lat="48.759711"><ele>95.0</ele></trkpt>
<trkpt lon="4.567102" lat="48.759404"><ele>95.75</ele></trkpt>
<trkpt lon="4.567994" lat="48.758683"><ele>95.5</ele></trkpt>
<trkpt lon="4.568311" lat="48.758354"><ele>95.75</ele></trkpt>
<trkpt lon="4.568685" lat="48.757830"><ele>95.5</ele></trkpt>
<trkpt lon="4.568863" lat="48.757482"><ele>95.75</ele></trkpt>
<trkpt lon="4.569070" lat="48.756911"><ele>96.0</ele></trkpt>
<trkpt lon="4.569103" lat="48.756490"><ele>97.25</ele></trkpt>
<trkpt lon="4.569129" lat="48.756389"><ele>97.75</ele></trkpt>
<trkpt lon="4.569149" lat="48.756258"><ele>96.75</ele></trkpt>
<trkpt lon="4.569156" lat="48.756083"><ele>95.75</ele></trkpt>
<trkpt lon="4.569128" lat="48.755712"><ele>96.0</ele></trkpt>
<trkpt lon="4.569018" lat="48.754992"><ele>95.5</ele></trkpt>
<trkpt lon="4.569004" lat="48.754651"><ele>95.5</ele></trkpt>
<trkpt lon="4.569025" lat="48.754325"><ele>95.5</ele></trkpt>
<trkpt lon="4.569133" lat="48.753798"><ele>95.75</ele></trkpt>
<trkpt lon="4.569567" lat="48.752665"><ele>95.75</ele></trkpt>
<trkpt lon="4.569820" lat="48.752191"><ele>96.0</ele></trkpt>
<trkpt lon="4.570226" lat="48.751570"><ele>95.5</ele></trkpt>
<trkpt lon="4.570743" lat="48.750863"><ele>95.75</ele></trkpt>
<trkpt lon="4.570883" lat="48.750625"><ele>96.25</ele></trkpt>
<trkpt lon="4.571056" lat="48.749917"><ele>96.25</ele></trkpt>
<trkpt lon="4.571075" lat="48.749735"><ele>97.5</ele></trkpt>
<trkpt lon="4.571117" lat="48.749690"><ele>97.75</ele></trkpt>
<trkpt lon="4.571212" lat="48.749666"><ele>96.75</ele></trkpt>
<trkpt lon="4.571465" lat="48.749662"><ele>95.75</ele></trkpt>
<trkpt lon="4.571720" lat="48.749669"><ele>98.0</ele></trkpt>
<trkpt lon="4.571862" lat="48.749655"><ele>98.25</ele></trkpt>
<trkpt lon="4.572000" lat="48.749597"><ele>98.0</ele></trkpt>
<trkpt lon="4.572426" lat="48.749370"><ele>98.0</ele></trkpt>
<trkpt lon="4.572946" lat="48.749061"><ele>97.5</ele></trkpt>
<trkpt lon="4.574814" lat="48.748082"><ele>97.75</ele></trkpt>
<trkpt lon="4.575639" lat="48.747668"><ele>97.75</ele></trkpt>
<trkpt lon="4.577505" lat="48.746653"><ele>97.75</ele></trkpt>
<trkpt lon="4.577933" lat="48.746467"><ele>97.5</ele></trkpt>
<trkpt lon="4.578255" lat="48.746378"><ele>97.75</ele></trkpt>
<trkpt lon="4.578739" lat="48.746339"><ele>98.25</ele></trkpt>
<trkpt lon="4.579037" lat="48.746321"><ele>98.25</ele></trkpt>
<trkpt lon="4.581184" lat="48.746143"><ele>98.0</ele></trkpt>
<trkpt lon="4.582856" lat="48.746011"><ele>98.0</ele></trkpt>
<trkpt lon="4.583445" lat="48.745946"><ele>97.0</ele></trkpt>
<trkpt lon="4.583718" lat="48.745890"><ele>97.0</ele></trkpt>
<trkpt lon="4.584008" lat="48.745830"><ele>98.25</ele></trkpt>
<trkpt lon="4.584464" lat="48.745542"><ele>97.75</ele></trkpt>
<trkpt lon="4.584646" lat="48.745302"><ele>98.0</ele></trkpt>
<trkpt lon="4.584742" lat="48.745118"><ele>98.25</ele></trkpt>
<trkpt lon="4.584791" lat="48.744854"><ele>97.75</ele></trkpt>
<trkpt lon="4.584786" lat="48.744018"><ele>97.75</ele></trkpt>
<trkpt lon="4.584741" lat="48.743292"><ele>100.75</ele></trkpt>
<trkpt lon="4.584779" lat="48.743235"><ele>100.5</ele></trkpt>
<trkpt lon="4.584780" lat="48.743200"><ele>100.5</ele></trkpt>
<trkpt lon="4.584792" lat="48.742823"><ele>97.5</ele></trkpt>
<trkpt lon="4.584789" lat="48.742278"><ele>98.0</ele></trkpt>
<trkpt lon="4.584788" lat="48.742214"><ele>99.0</ele></trkpt>
<trkpt lon="4.584746" lat="48.741360"><ele>100.0</ele></trkpt>
<trkpt lon="4.584719" lat="48.739345"><ele>100.5</ele></trkpt>
<trkpt lon="4.584713" lat="48.738935"><ele>100.5</ele></trkpt>
<trkpt lon="4.584673" lat="48.737732"><ele>100.25</ele></trkpt>
<trkpt lon="4.584668" lat="48.736528"><ele>100.25</ele></trkpt>
<trkpt lon="4.584663" lat="48.735312"><ele>100.5</ele></trkpt>
<trkpt lon="4.584625" lat="48.733728"><ele>100.75</ele></trkpt>
<trkpt lon="4.584625" lat="48.733647"><ele>100.5</ele></trkpt>
<trkpt lon="4.584644" lat="48.733587"><ele>100.75</ele></trkpt>
<trkpt lon="4.584642" lat="48.733412"><ele>101.25</ele></trkpt>
<trkpt lon="4.584660" lat="48.733407"><ele>101.5</ele></trkpt>
<trkpt lon="4.584918" lat="48.733401"><ele>101.0</ele></trkpt>
<trkpt lon="4.584988" lat="48.733389"><ele>101.0</ele></trkpt>
<trkpt lon="4.585052" lat="48.733367"><ele>101.0</ele></trkpt>
<trkpt lon="4.585047" lat="48.733167"><ele>101.0</ele></trkpt>
<trkpt lon="4.585029" lat="48.732672"><ele>101.0</ele></trkpt>
<trkpt lon="4.585023" lat="48.732570"><ele>101.0</ele></trkpt>
<trkpt lon="4.585020" lat="48.732415"><ele>101.0</ele></trkpt>
<trkpt lon="4.585040" lat="48.732218"><ele>101.0</ele></trkpt>
<trkpt lon="4.585058" lat="48.732147"><ele>101.0</ele></trkpt>
<trkpt lon="4.585133" lat="48.731944"><ele>101.0</ele></trkpt>
<trkpt lon="4.585131" lat="48.731907"><ele>101.0</ele></trkpt>
<trkpt lon="4.585132" lat="48.731885"><ele>101.0</ele></trkpt>
<trkpt lon="4.585112" lat="48.731880"><ele>101.0</ele></trkpt>
<trkpt lon="4.585084" lat="48.731860"><ele>101.0</ele></trkpt>
<trkpt lon="4.585078" lat="48.731833"><ele>101.0</ele></trkpt>
<trkpt lon="4.585098" lat="48.731808"><ele>101.0</ele></trkpt>
<trkpt lon="4.585115" lat="48.731800"><ele>101.0</ele></trkpt>
<trkpt lon="4.585101" lat="48.731771"><ele>101.0</ele></trkpt>
<trkpt lon="4.585050" lat="48.731664"><ele>101.0</ele></trkpt>
<trkpt lon="4.585056" lat="48.731629"><ele>101.0</ele></trkpt>
<trkpt lon="4.585116" lat="48.731514"><ele>101.25</ele></trkpt>
<trkpt lon="4.585540" lat="48.730844"><ele>101.75</ele></trkpt>
<trkpt lon="4.585651" lat="48.730662"><ele>101.75</ele></trkpt>
<trkpt lon="4.585692" lat="48.730607"><ele>102.0</ele></trkpt>
<trkpt lon="4.585810" lat="48.730530"><ele>102.0</ele></trkpt>
<trkpt lon="4.585932" lat="48.730478"><ele>102.0</ele></trkpt>
<trkpt lon="4.585975" lat="48.730471"><ele>102.0</ele></trkpt>
<trkpt lon="4.586066" lat="48.730457"><ele>102.0</ele></trkpt>
<trkpt lon="4.586129" lat="48.730446"><ele>102.0</ele></trkpt>
<trkpt lon="4.586000" lat="48.730118"><ele>102.0</ele></trkpt>
<trkpt lon="4.585962" lat="48.730055"><ele>101.75</ele></trkpt>
<trkpt lon="4.586027" lat="48.730030"><ele>102.0</ele></trkpt>
<trkpt lon="4.586006" lat="48.729843"><ele>102.0</ele></trkpt>
<trkpt lon="4.585939" lat="48.729658"><ele>102.5</ele></trkpt>
<trkpt lon="4.585919" lat="48.729637"><ele>102.75</ele></trkpt>
<trkpt lon="4.585896" lat="48.729615"><ele>102.75</ele></trkpt>
<trkpt lon="4.585712" lat="48.729583"><ele>102.75</ele></trkpt>
<trkpt lon="4.585671" lat="48.729564"><ele>102.5</ele></trkpt>
<trkpt lon="4.585633" lat="48.729524"><ele>102.75</ele></trkpt>
<trkpt lon="4.585467" lat="48.729366"><ele>102.75</ele></trkpt>
<trkpt lon="4.585430" lat="48.729328"><ele>102.5</ele></trkpt>
<trkpt lon="4.585210" lat="48.729289"><ele>102.5</ele></trkpt>
<trkpt lon="4.585065" lat="48.729066"><ele>103.0</ele></trkpt>
<trkpt lon="4.585048" lat="48.729034"><ele>103.0</ele></trkpt>
<trkpt lon="4.585031" lat="48.729001"><ele>103.0</ele></trkpt>
<trkpt lon="4.584725" lat="48.728538"><ele>103.0</ele></trkpt>
<trkpt lon="4.584652" lat="48.728434"><ele>102.75</ele></trkpt>
<trkpt lon="4.584242" lat="48.727828"><ele>102.0</ele></trkpt>
<trkpt lon="4.584211" lat="48.727780"><ele>101.75</ele></trkpt>
<trkpt lon="4.584169" lat="48.727718"><ele>102.0</ele></trkpt>
<trkpt lon="4.583852" lat="48.727245"><ele>102.0</ele></trkpt>
<trkpt lon="4.583820" lat="48.727197"><ele>102.0</ele></trkpt>
<trkpt lon="4.583734" lat="48.727059"><ele>102.0</ele></trkpt>
<trkpt lon="4.583691" lat="48.726997"><ele>102.0</ele></trkpt>
<trkpt lon="4.583769" lat="48.726974"><ele>102.0</ele></trkpt>
<trkpt lon="4.583778" lat="48.726971"><ele>102.0</ele></trkpt>
<trkpt lon="4.583921" lat="48.726932"><ele>102.0</ele></trkpt>
<trkpt lon="4.584251" lat="48.726835"><ele>102.25</ele></trkpt>
<trkpt lon="4.584463" lat="48.726773"><ele>103.0</ele></trkpt>
<trkpt lon="4.584419" lat="48.726702"><ele>102.75</ele></trkpt>
<trkpt lon="4.584350" lat="48.726593"><ele>102.25</ele></trkpt>
<trkpt lon="4.584165" lat="48.726300"><ele>101.75</ele></trkpt>
<trkpt lon="4.584230" lat="48.726282"><ele>102.0</ele></trkpt>
<trkpt lon="4.584562" lat="48.726184"><ele>102.0</ele></trkpt>
<trkpt lon="4.584247" lat="48.725709"><ele>102.0</ele></trkpt>
<trkpt lon="4.584435" lat="48.725654"><ele>102.0</ele></trkpt>
  </trkseg></trk></gpx>
