<?xml version="1.0" encoding="UTF-8"?>
<gpx version="1.1" creator="compostel-brouter" xmlns="http://www.topografix.com/GPX/1/1">
  <metadata><name>FR-03-Reims</name></metadata>
  <trk><name>FR-03-Reims</name><trkseg>
<trkpt lon="4.243340" lat="49.528330"><ele>68.0</ele></trkpt>
<trkpt lon="4.243291" lat="49.528309"><ele>68.0</ele></trkpt>
<trkpt lon="4.243216" lat="49.528123"><ele>68.0</ele></trkpt>
<trkpt lon="4.243180" lat="49.527942"><ele>68.0</ele></trkpt>
<trkpt lon="4.243625" lat="49.527958"><ele>68.0</ele></trkpt>
<trkpt lon="4.243867" lat="49.527937"><ele>68.0</ele></trkpt>
<trkpt lon="4.244158" lat="49.527894"><ele>68.0</ele></trkpt>
<trkpt lon="4.244111" lat="49.527767"><ele>68.0</ele></trkpt>
<trkpt lon="4.244389" lat="49.527713"><ele>68.0</ele></trkpt>
<trkpt lon="4.244636" lat="49.527652"><ele>68.0</ele></trkpt>
<trkpt lon="4.244635" lat="49.527559"><ele>68.0</ele></trkpt>
<trkpt lon="4.244707" lat="49.527309"><ele>68.0</ele></trkpt>
<trkpt lon="4.245188" lat="49.527244"><ele>68.0</ele></trkpt>
<trkpt lon="4.245144" lat="49.527071"><ele>68.0</ele></trkpt>
<trkpt lon="4.245144" lat="49.527028"><ele>68.0</ele></trkpt>
<trkpt lon="4.245170" lat="49.527003"><ele>68.0</ele></trkpt>
<trkpt lon="4.245803" lat="49.526884"><ele>68.0</ele></trkpt>
<trkpt lon="4.245836" lat="49.526867"><ele>67.75</ele></trkpt>
<trkpt lon="4.245854" lat="49.526842"><ele>67.75</ele></trkpt>
<trkpt lon="4.245826" lat="49.526722"><ele>68.0</ele></trkpt>
<trkpt lon="4.245804" lat="49.526527"><ele>67.5</ele></trkpt>
<trkpt lon="4.245737" lat="49.526211"><ele>65.75</ele></trkpt>
<trkpt lon="4.245628" lat="49.525988"><ele>65.0</ele></trkpt>
<trkpt lon="4.245475" lat="49.525892"><ele>65.0</ele></trkpt>
<trkpt lon="4.245340" lat="49.525864"><ele>65.75</ele></trkpt>
<trkpt lon="4.244878" lat="49.525907"><ele>67.25</ele></trkpt>
<trkpt lon="4.244791" lat="49.525905"><ele>67.75</ele></trkpt>
<trkpt lon="4.244583" lat="49.525883"><ele>68.0</ele></trkpt>
<trkpt lon="4.244450" lat="49.525892"><ele>68.0</ele></trkpt>
<trkpt lon="4.243657" lat="49.525982"><ele>68.0</ele></trkpt>
<trkpt lon="4.243518" lat="49.525550"><ele>67.75</ele></trkpt>
<trkpt lon="4.243341" lat="49.525314"><ele>66.25</ele></trkpt>
<trkpt lon="4.243007" lat="49.524963"><ele>66.5</ele></trkpt>
<trkpt lon="4.242745" lat="49.524613"><ele>68.25</ele></trkpt>
<trkpt lon="4.242542" lat="49.524234"><ele>68.75</ele></trkpt>
<trkpt lon="4.242486" lat="49.524079"><ele>69.5</ele></trkpt>
<trkpt lon="4.242497" lat="49.523850"><ele>70.25</ele></trkpt>
<trkpt lon="4.242502" lat="49.523565"><ele>67.25</ele></trkpt>
<trkpt lon="4.242510" lat="49.523511"><ele>67.5</ele></trkpt>
<trkpt lon="4.242290" lat="49.523530"><ele>67.0</ele></trkpt>
<trkpt lon="4.241720" lat="49.523556"><ele>67.0</ele></trkpt>
<trkpt lon="4.240952" lat="49.523451"><ele>67.0</ele></trkpt>
<trkpt lon="4.240340" lat="49.523339"><ele>66.75</ele></trkpt>
<trkpt lon="4.239464" lat="49.523018"><ele>67.0</ele></trkpt>
<trkpt lon="4.238932" lat="49.522705"><ele>67.0</ele></trkpt>
<trkpt lon="4.237649" lat="49.521800"><ele>67.0</ele></trkpt>
<trkpt lon="4.235094" lat="49.520024"><ele>66.75</ele></trkpt>
<trkpt lon="4.232605" lat="49.518313"><ele>67.0</ele></trkpt>
<trkpt lon="4.228996" lat="49.515858"><ele>67.0</ele></trkpt>
<trkpt lon="4.228107" lat="49.515401"><ele>66.75</ele></trkpt>
<trkpt lon="4.227172" lat="49.515002"><ele>66.0</ele></trkpt>
<trkpt lon="4.224873" lat="49.514223"><ele>66.0</ele></trkpt>
<trkpt lon="4.221093" lat="49.512903"><ele>66.25</ele></trkpt>
<trkpt lon="4.219456" lat="49.512348"><ele>66.25</ele></trkpt>
<trkpt lon="4.218074" lat="49.511879"><ele>66.5</ele></trkpt>
<trkpt lon="4.217197" lat="49.511561"><ele>66.5</ele></trkpt>
<trkpt lon="4.216310" lat="49.511260"><ele>66.5</ele></trkpt>
<trkpt lon="4.215729" lat="49.511091"><ele>66.0</ele></trkpt>
<trkpt lon="4.215597" lat="49.510999"><ele>65.75</ele></trkpt>
<trkpt lon="4.215543" lat="49.511066"><ele>65.5</ele></trkpt>
<trkpt lon="4.215458" lat="49.511170"><ele>65.25</ele></trkpt>
<trkpt lon="4.215406" lat="49.511243"><ele>65.25</ele></trkpt>
<trkpt lon="4.214892" lat="49.511051"><ele>65.25</ele></trkpt>
<trkpt lon="4.214185" lat="49.510771"><ele>63.75</ele></trkpt>
<trkpt lon="4.213780" lat="49.510488"><ele>63.0</ele></trkpt>
<trkpt lon="4.213298" lat="49.510205"><ele>63.0</ele></trkpt>
<trkpt lon="4.212159" lat="49.509718"><ele>63.0</ele></trkpt>
<trkpt lon="4.211687" lat="49.509442"><ele>63.75</ele></trkpt>
<trkpt lon="4.211272" lat="49.509064"><ele>63.5</ele></trkpt>
<trkpt lon="4.211027" lat="49.508740"><ele>63.0</ele></trkpt>
<trkpt lon="4.210937" lat="49.508255"><ele>63.0</ele></trkpt>
<trkpt lon="4.210719" lat="49.507696"><ele>63.0</ele></trkpt>
<trkpt lon="4.210266" lat="49.507268"><ele>63.0</ele></trkpt>
<trkpt lon="4.209922" lat="49.506981"><ele>63.0</ele></trkpt>
<trkpt lon="4.209356" lat="49.506728"><ele>63.0</ele></trkpt>
<trkpt lon="4.208753" lat="49.506548"><ele>63.0</ele></trkpt>
<trkpt lon="4.207986" lat="49.506454"><ele>63.0</ele></trkpt>
<trkpt lon="4.207179" lat="49.506404"><ele>63.0</ele></trkpt>
<trkpt lon="4.206010" lat="49.506409"><ele>63.75</ele></trkpt>
<trkpt lon="4.205193" lat="49.506483"><ele>64.25</ele></trkpt>
<trkpt lon="4.203686" lat="49.506693"><ele>65.0</ele></trkpt>
<trkpt lon="4.203257" lat="49.506711"><ele>65.25</ele></trkpt>
<trkpt lon="4.202681" lat="49.506687"><ele>65.0</ele></trkpt>
<trkpt lon="4.200699" lat="49.506352"><ele>64.75</ele></trkpt>
<trkpt lon="4.199480" lat="49.506100"><ele>64.0</ele></trkpt>
<trkpt lon="4.199115" lat="49.506008"><ele>64.0</ele></trkpt>
<trkpt lon="4.197671" lat="49.505576"><ele>64.0</ele></trkpt>
<trkpt lon="4.195886" lat="49.505054"><ele>63.75</ele></trkpt>
<trkpt lon="4.195535" lat="49.504895"><ele>63.25</ele></trkpt>
<trkpt lon="4.194945" lat="49.504499"><ele>63.75</ele></trkpt>
<trkpt lon="4.194647" lat="49.504142"><ele>63.75</ele></trkpt>
<trkpt lon="4.193709" lat="49.502624"><ele>63.25</ele></trkpt>
<trkpt lon="4.193227" lat="49.502329"><ele>64.0</ele></trkpt>
<trkpt lon="4.192741" lat="49.502105"><ele>63.75</ele></trkpt>
<trkpt lon="4.189088" lat="49.500850"><ele>65.0</ele></trkpt>
<trkpt lon="4.187969" lat="49.500443"><ele>65.0</ele></trkpt>
<trkpt lon="4.186740" lat="49.499890"><ele>64.75</ele></trkpt>
<trkpt lon="4.186336" lat="49.499691"><ele>64.0</ele></trkpt>
<trkpt lon="4.185849" lat="49.499451"><ele>63.0</ele></trkpt>
<trkpt lon="4.185407" lat="49.499077"><ele>63.0</ele></trkpt>
<trkpt lon="4.184784" lat="49.498609"><ele>63.75</ele></trkpt>
<trkpt lon="4.184178" lat="49.498257"><ele>63.5</ele></trkpt>
<trkpt lon="4.183164" lat="49.497736"><ele>63.75</ele></trkpt>
<trkpt lon="4.183021" lat="49.497663"><ele>63.5</ele></trkpt>
<trkpt lon="4.181611" lat="49.496990"><ele>64.0</ele></trkpt>
<trkpt lon="4.181461" lat="49.496934"><ele>63.75</ele></trkpt>
<trkpt lon="4.179050" lat="49.495662"><ele>64.0</ele></trkpt>
<trkpt lon="4.172645" lat="49.492512"><ele>63.75</ele></trkpt>
<trkpt lon="4.172335" lat="49.492377"><ele>63.75</ele></trkpt>
<trkpt lon="4.171387" lat="49.491811"><ele>63.5</ele></trkpt>
<trkpt lon="4.171092" lat="49.491689"><ele>63.0</ele></trkpt>
<trkpt lon="4.170810" lat="49.491678"><ele>64.0</ele></trkpt>
<trkpt lon="4.170551" lat="49.491683"><ele>64.0</ele></trkpt>
<trkpt lon="4.170337" lat="49.491605"><ele>63.75</ele></trkpt>
<trkpt lon="4.170118" lat="49.491445"><ele>63.0</ele></trkpt>
<trkpt lon="4.170091" lat="49.491265"><ele>63.0</ele></trkpt>
<trkpt lon="4.169974" lat="49.491143"><ele>63.0</ele></trkpt>
<trkpt lon="4.169103" lat="49.490687"><ele>63.0</ele></trkpt>
<trkpt lon="4.167292" lat="49.489761"><ele>63.0</ele></trkpt>
<trkpt lon="4.166385" lat="49.489312"><ele>63.5</ele></trkpt>
<trkpt lon="4.165978" lat="49.489134"><ele>63.0</ele></trkpt>
<trkpt lon="4.165513" lat="49.488851"><ele>63.0</ele></trkpt>
<trkpt lon="4.164614" lat="49.488493"><ele>63.5</ele></trkpt>
<trkpt lon="4.163871" lat="49.488099"><ele>63.0</ele></trkpt>
<trkpt lon="4.163543" lat="49.487897"><ele>63.25</ele></trkpt>
<trkpt lon="4.163252" lat="49.487744"><ele>64.75</ele></trkpt>
<trkpt lon="4.162878" lat="49.487592"><ele>65.75</ele></trkpt>
<trkpt lon="4.162960" lat="49.487513"><ele>65.0</ele></trkpt>
<trkpt lon="4.163166" lat="49.487339"><ele>65.25</ele></trkpt>
<trkpt lon="4.163232" lat="49.487282"><ele>66.0</ele></trkpt>
<trkpt lon="4.162865" lat="49.487154"><ele>64.5</ele></trkpt>
<trkpt lon="4.159750" lat="49.485584"><ele>63.75</ele></trkpt>
<trkpt lon="4.158712" lat="49.485146"><ele>63.25</ele></trkpt>
<trkpt lon="4.157267" lat="49.484715"><ele>63.0</ele></trkpt>
<trkpt lon="4.156727" lat="49.484560"><ele>63.0</ele></trkpt>
<trkpt lon="4.156797" lat="49.484438"><ele>63.0</ele></trkpt>
<trkpt lon="4.155014" lat="49.483926"><ele>62.75</ele></trkpt>
<trkpt lon="4.154028" lat="49.483638"><ele>63.0</ele></trkpt>
<trkpt lon="4.153070" lat="49.483209"><ele>63.0</ele></trkpt>
<trkpt lon="4.151823" lat="49.482430"><ele>62.0</ele></trkpt>
<trkpt lon="4.150940" lat="49.482034"><ele>62.0</ele></trkpt>
<trkpt lon="4.150261" lat="49.481754"><ele>62.0</ele></trkpt>
<trkpt lon="4.149961" lat="49.481696"><ele>61.75</ele></trkpt>
<trkpt lon="4.147689" lat="49.481547"><ele>63.0</ele></trkpt>
<trkpt lon="4.146634" lat="49.481450"><ele>62.75</ele></trkpt>
<trkpt lon="4.145961" lat="49.481304"><ele>62.5</ele></trkpt>
<trkpt lon="4.143694" lat="49.480640"><ele>62.25</ele></trkpt>
<trkpt lon="4.142510" lat="49.480306"><ele>63.0</ele></trkpt>
<trkpt lon="4.141288" lat="49.480060"><ele>63.0</ele></trkpt>
<trkpt lon="4.140873" lat="49.479993"><ele>62.75</ele></trkpt>
<trkpt lon="4.139976" lat="49.479912"><ele>62.5</ele></trkpt>
<trkpt lon="4.139500" lat="49.479891"><ele>62.75</ele></trkpt>
<trkpt lon="4.138973" lat="49.479884"><ele>63.0</ele></trkpt>
<trkpt lon="4.138442" lat="49.479895"><ele>63.0</ele></trkpt>
<trkpt lon="4.137355" lat="49.479953"><ele>62.75</ele></trkpt>
<trkpt lon="4.136122" lat="49.480145"><ele>62.5</ele></trkpt>
<trkpt lon="4.133361" lat="49.480827"><ele>62.75</ele></trkpt>
<trkpt lon="4.132432" lat="49.480980"><ele>62.5</ele></trkpt>
<trkpt lon="4.131831" lat="49.481003"><ele>62.25</ele></trkpt>
<trkpt lon="4.131060" lat="49.481002"><ele>62.5</ele></trkpt>
<trkpt lon="4.130161" lat="49.480863"><ele>63.0</ele></trkpt>
<trkpt lon="4.129495" lat="49.480731"><ele>63.0</ele></trkpt>
<trkpt lon="4.128751" lat="49.480607"><ele>62.5</ele></trkpt>
<trkpt lon="4.126337" lat="49.480201"><ele>63.25</ele></trkpt>
<trkpt lon="4.126094" lat="49.480151"><ele>63.75</ele></trkpt>
<trkpt lon="4.125687" lat="49.480088"><ele>63.5</ele></trkpt>
<trkpt lon="4.125027" lat="49.480023"><ele>63.75</ele></trkpt>
<trkpt lon="4.124121" lat="49.479917"><ele>65.5</ele></trkpt>
<trkpt lon="4.123685" lat="49.479868"><ele>67.0</ele></trkpt>
<trkpt lon="4.123219" lat="49.479785"><ele>66.0</ele></trkpt>
<trkpt lon="4.121482" lat="49.479402"><ele>63.5</ele></trkpt>
<trkpt lon="4.121062" lat="49.479277"><ele>63.0</ele></trkpt>
<trkpt lon="4.120841" lat="49.479172"><ele>62.75</ele></trkpt>
<trkpt lon="4.120690" lat="49.479117"><ele>62.25</ele></trkpt>
<trkpt lon="4.120449" lat="49.478984"><ele>62.25</ele></trkpt>
<trkpt lon="4.118583" lat="49.477369"><ele>61.75</ele></trkpt>
<trkpt lon="4.116865" lat="49.475550"><ele>62.25</ele></trkpt>
<trkpt lon="4.116734" lat="49.475309"><ele>63.25</ele></trkpt>
<trkpt lon="4.116567" lat="49.474598"><ele>64.0</ele></trkpt>
<trkpt lon="4.116404" lat="49.473137"><ele>63.0</ele></trkpt>
<trkpt lon="4.116300" lat="49.472315"><ele>63.0</ele></trkpt>
<trkpt lon="4.116216" lat="49.472127"><ele>62.75</ele></trkpt>
<trkpt lon="4.116023" lat="49.471857"><ele>62.0</ele></trkpt>
<trkpt lon="4.115460" lat="49.471250"><ele>62.0</ele></trkpt>
<trkpt lon="4.114801" lat="49.470562"><ele>63.0</ele></trkpt>
<trkpt lon="4.114831" lat="49.470567"><ele>63.0</ele></trkpt>
<trkpt lon="4.114882" lat="49.470575"><ele>63.0</ele></trkpt>
<trkpt lon="4.114980" lat="49.470571"><ele>63.0</ele></trkpt>
<trkpt lon="4.115072" lat="49.470558"><ele>62.5</ele></trkpt>
<trkpt lon="4.115369" lat="49.470472"><ele>62.0</ele></trkpt>
<trkpt lon="4.116047" lat="49.470283"><ele>62.75</ele></trkpt>
<trkpt lon="4.116158" lat="49.470271"><ele>63.0</ele></trkpt>
<trkpt lon="4.116171" lat="49.470246"><ele>63.25</ele></trkpt>
<trkpt lon="4.116194" lat="49.470225"><ele>63.25</ele></trkpt>
<trkpt lon="4.116228" lat="49.470210"><ele>63.5</ele></trkpt>
<trkpt lon="4.116266" lat="49.470202"><ele>63.5</ele></trkpt>
<trkpt lon="4.116307" lat="49.470203"><ele>63.5</ele></trkpt>
<trkpt lon="4.116345" lat="49.470212"><ele>63.5</ele></trkpt>
<trkpt lon="4.116376" lat="49.470228"><ele>63.5</ele></trkpt>
<trkpt lon="4.116398" lat="49.470251"><ele>63.25</ele></trkpt>
<trkpt lon="4.116497" lat="49.470222"><ele>63.75</ele></trkpt>
<trkpt lon="4.116578" lat="49.470181"><ele>64.25</ele></trkpt>
<trkpt lon="4.117270" lat="49.469832"><ele>66.0</ele></trkpt>
<trkpt lon="4.117410" lat="49.469756"><ele>66.0</ele></trkpt>
<trkpt lon="4.117621" lat="49.469641"><ele>65.5</ele></trkpt>
<trkpt lon="4.117996" lat="49.469427"><ele>65.0</ele></trkpt>
<trkpt lon="4.117796" lat="49.469271"><ele>65.0</ele></trkpt>
<trkpt lon="4.117769" lat="49.469245"><ele>65.0</ele></trkpt>
<trkpt lon="4.117612" lat="49.469098"><ele>65.0</ele></trkpt>
<trkpt lon="4.117813" lat="49.468858"><ele>65.0</ele></trkpt>
<trkpt lon="4.118141" lat="49.468581"><ele>65.0</ele></trkpt>
<trkpt lon="4.118850" lat="49.468181"><ele>64.0</ele></trkpt>
<trkpt lon="4.118922" lat="49.468144"><ele>64.0</ele></trkpt>
<trkpt lon="4.118938" lat="49.468101"><ele>64.0</ele></trkpt>
<trkpt lon="4.118985" lat="49.467918"><ele>64.0</ele></trkpt>
<trkpt lon="4.119660" lat="49.467515"><ele>64.75</ele></trkpt>
<trkpt lon="4.119730" lat="49.467244"><ele>64.75</ele></trkpt>
<trkpt lon="4.121591" lat="49.466166"><ele>66.75</ele></trkpt>
<trkpt lon="4.121751" lat="49.466023"><ele>66.75</ele></trkpt>
<trkpt lon="4.122446" lat="49.465377"><ele>68.5</ele></trkpt>
<trkpt lon="4.119822" lat="49.463846"><ele>67.0</ele></trkpt>
<trkpt lon="4.121850" lat="49.462247"><ele>69.75</ele></trkpt>
<trkpt lon="4.122893" lat="49.461477"><ele>72.5</ele></trkpt>
<trkpt lon="4.123933" lat="49.460769"><ele>76.0</ele></trkpt>
<trkpt lon="4.124195" lat="49.460629"><ele>77.75</ele></trkpt>
<trkpt lon="4.124188" lat="49.460482"><ele>78.0</ele></trkpt>
<trkpt lon="4.121973" lat="49.458548"><ele>79.0</ele></trkpt>
<trkpt lon="4.120340" lat="49.457084"><ele>79.25</ele></trkpt>
<trkpt lon="4.119879" lat="49.456583"><ele>80.0</ele></trkpt>
<trkpt lon="4.119560" lat="49.456288"><ele>79.75</ele></trkpt>
<trkpt lon="4.119241" lat="49.455813"><ele>79.0</ele></trkpt>
<trkpt lon="4.119319" lat="49.455721"><ele>79.0</ele></trkpt>
<trkpt lon="4.118964" lat="49.455437"><ele>78.0</ele></trkpt>
<trkpt lon="4.118073" lat="49.454481"><ele>74.0</ele></trkpt>
<trkpt lon="4.116613" lat="49.453121"><ele>72.75</ele></trkpt>
<trkpt lon="4.115935" lat="49.452414"><ele>75.0</ele></trkpt>
<trkpt lon="4.115548" lat="49.452026"><ele>76.5</ele></trkpt>
<trkpt lon="4.115254" lat="49.451581"><ele>79.25</ele></trkpt>
<trkpt lon="4.115028" lat="49.451105"><ele>82.0</ele></trkpt>
<trkpt lon="4.114726" lat="49.450432"><ele>84.0</ele></trkpt>
<trkpt lon="4.114497" lat="49.449764"><ele>84.5</ele></trkpt>
<trkpt lon="4.113618" lat="49.447303"><ele>87.0</ele></trkpt>
<trkpt lon="4.113551" lat="49.447189"><ele>86.5</ele></trkpt>
<trkpt lon="4.113446" lat="49.446965"><ele>86.0</ele></trkpt>
<trkpt lon="4.113272" lat="49.446359"><ele>86.75</ele></trkpt>
<trkpt lon="4.113036" lat="49.445643"><ele>87.75</ele></trkpt>
<trkpt lon="4.112802" lat="49.445097"><ele>87.75</ele></trkpt>
<trkpt lon="4.112553" lat="49.444339"><ele>89.25</ele></trkpt>
<trkpt lon="4.112408" lat="49.443829"><ele>90.0</ele></trkpt>
<trkpt lon="4.111647" lat="49.441303"><ele>98.5</ele></trkpt>
<trkpt lon="4.111480" lat="49.440546"><ele>99.0</ele></trkpt>
<trkpt lon="4.111484" lat="49.439346"><ele>98.5</ele></trkpt>
<trkpt lon="4.111199" lat="49.439286"><ele>98.25</ele></trkpt>
<trkpt lon="4.111022" lat="49.439286"><ele>98.25</ele></trkpt>
<trkpt lon="4.110974" lat="49.437699"><ele>93.5</ele></trkpt>
<trkpt lon="4.110918" lat="49.437444"><ele>93.0</ele></trkpt>
<trkpt lon="4.110849" lat="49.437111"><ele>93.0</ele></trkpt>
<trkpt lon="4.110520" lat="49.435539"><ele>90.75</ele></trkpt>
<trkpt lon="4.109638" lat="49.431638"><ele>87.5</ele></trkpt>
<trkpt lon="4.110892" lat="49.431677"><ele>90.0</ele></trkpt>
<trkpt lon="4.111016" lat="49.431591"><ele>89.5</ele></trkpt>
<trkpt lon="4.110628" lat="49.430437"><ele>86.5</ele></trkpt>
<trkpt lon="4.109845" lat="49.427778"><ele>78.5</ele></trkpt>
<trkpt lon="4.108732" lat="49.424628"><ele>66.75</ele></trkpt>
<trkpt lon="4.108620" lat="49.424160"><ele>65.0</ele></trkpt>
<trkpt lon="4.108551" lat="49.423614"><ele>64.75</ele></trkpt>
<trkpt lon="4.108570" lat="49.423047"><ele>64.0</ele></trkpt>
<trkpt lon="4.108564" lat="49.422540"><ele>64.0</ele></trkpt>
<trkpt lon="4.108478" lat="49.422345"><ele>64.0</ele></trkpt>
<trkpt lon="4.108337" lat="49.422258"><ele>64.0</ele></trkpt>
<trkpt lon="4.108310" lat="49.422241"><ele>64.0</ele></trkpt>
<trkpt lon="4.108363" lat="49.422210"><ele>63.75</ele></trkpt>
<trkpt lon="4.108388" lat="49.422110"><ele>63.5</ele></trkpt>
<trkpt lon="4.108368" lat="49.420745"><ele>63.0</ele></trkpt>
<trkpt lon="4.108372" lat="49.420655"><ele>63.0</ele></trkpt>
<trkpt lon="4.108374" lat="49.420595"><ele>62.75</ele></trkpt>
<trkpt lon="4.108446" lat="49.419534"><ele>63.0</ele></trkpt>
<trkpt lon="4.108446" lat="49.419116"><ele>63.25</ele></trkpt>
<trkpt lon="4.108095" lat="49.415300"><ele>66.75</ele></trkpt>
<trkpt lon="4.107631" lat="49.411494"><ele>75.0</ele></trkpt>
<trkpt lon="4.106781" lat="49.406072"><ele>78.0</ele></trkpt>
<trkpt lon="4.106276" lat="49.402008"><ele>94.0</ele></trkpt>
<trkpt lon="4.105564" lat="49.401976"><ele>93.75</ele></trkpt>
<trkpt lon="4.105347" lat="49.398017"><ele>87.75</ele></trkpt>
<trkpt lon="4.105228" lat="49.394196"><ele>79.75</ele></trkpt>
<trkpt lon="4.105023" lat="49.390308"><ele>78.0</ele></trkpt>
<trkpt lon="4.099209" lat="49.390495"><ele>74.0</ele></trkpt>
<trkpt lon="4.099209" lat="49.388603"><ele>74.0</ele></trkpt>
<trkpt lon="4.097675" lat="49.388261"><ele>72.5</ele></trkpt>
<trkpt lon="4.097408" lat="49.388181"><ele>72.25</ele></trkpt>
<trkpt lon="4.097126" lat="49.388058"><ele>72.0</ele></trkpt>
<trkpt lon="4.096952" lat="49.387971"><ele>72.0</ele></trkpt>
<trkpt lon="4.096693" lat="49.387810"><ele>72.0</ele></trkpt>
<trkpt lon="4.096500" lat="49.387662"><ele>71.25</ele></trkpt>
<trkpt lon="4.096076" lat="49.387300"><ele>69.25</ele></trkpt>
<trkpt lon="4.096838" lat="49.387038"><ele>68.5</ele></trkpt>
<trkpt lon="4.096677" lat="49.386947"><ele>68.0</ele></trkpt>
<trkpt lon="4.096435" lat="49.386837"><ele>68.0</ele></trkpt>
<trkpt lon="4.096519" lat="49.386703"><ele>68.0</ele></trkpt>
<trkpt lon="4.096746" lat="49.386000"><ele>67.25</ele></trkpt>
<trkpt lon="4.096848" lat="49.385794"><ele>67.25</ele></trkpt>
<trkpt lon="4.096438" lat="49.385708"><ele>68.0</ele></trkpt>
<trkpt lon="4.096345" lat="49.385614"><ele>67.75</ele></trkpt>
<trkpt lon="4.096387" lat="49.385296"><ele>67.0</ele></trkpt>
<trkpt lon="4.096919" lat="49.385191"><ele>66.5</ele></trkpt>
<trkpt lon="4.097071" lat="49.385209"><ele>66.75</ele></trkpt>
<trkpt lon="4.097363" lat="49.384984"><ele>66.75</ele></trkpt>
<trkpt lon="4.097864" lat="49.384597"><ele>66.0</ele></trkpt>
<trkpt lon="4.098074" lat="49.384435"><ele>66.75</ele></trkpt>
<trkpt lon="4.098307" lat="49.384219"><ele>66.75</ele></trkpt>
<trkpt lon="4.098561" lat="49.383931"><ele>67.0</ele></trkpt>
<trkpt lon="4.099241" lat="49.383075"><ele>67.5</ele></trkpt>
<trkpt lon="4.099355" lat="49.382887"><ele>67.0</ele></trkpt>
<trkpt lon="4.099408" lat="49.382763"><ele>67.0</ele></trkpt>
<trkpt lon="4.099445" lat="49.382649"><ele>67.0</ele></trkpt>
<trkpt lon="4.099486" lat="49.382403"><ele>67.0</ele></trkpt>
<trkpt lon="4.099589" lat="49.381810"><ele>67.0</ele></trkpt>
<trkpt lon="4.099607" lat="49.381749"><ele>67.0</ele></trkpt>
<trkpt lon="4.099643" lat="49.381702"><ele>67.0</ele></trkpt>
<trkpt lon="4.099697" lat="49.381659"><ele>67.0</ele></trkpt>
<trkpt lon="4.099616" lat="49.381578"><ele>67.0</ele></trkpt>
<trkpt lon="4.099559" lat="49.381477"><ele>67.0</ele></trkpt>
<trkpt lon="4.099508" lat="49.381303"><ele>67.0</ele></trkpt>
<trkpt lon="4.099563" lat="49.381241"><ele>67.0</ele></trkpt>
<trkpt lon="4.099606" lat="49.381136"><ele>67.0</ele></trkpt>
<trkpt lon="4.099757" lat="49.380186"><ele>68.0</ele></trkpt>
<trkpt lon="4.100119" lat="49.378078"><ele>70.75</ele></trkpt>
<trkpt lon="4.100229" lat="49.377124"><ele>72.25</ele></trkpt>
<trkpt lon="4.100250" lat="49.376401"><ele>74.0</ele></trkpt>
<trkpt lon="4.099896" lat="49.372161"><ele>85.0</ele></trkpt>
<trkpt lon="4.099810" lat="49.371518"><ele>87.5</ele></trkpt>
<trkpt lon="4.099622" lat="49.370606"><ele>89.0</ele></trkpt>
<trkpt lon="4.099576" lat="49.370289"><ele>89.75</ele></trkpt>
<trkpt lon="4.099456" lat="49.369467"><ele>90.0</ele></trkpt>
<trkpt lon="4.099113" lat="49.367687"><ele>93.25</ele></trkpt>
<trkpt lon="4.099046" lat="49.367225"><ele>94.75</ele></trkpt>
<trkpt lon="4.098877" lat="49.366288"><ele>97.0</ele></trkpt>
<trkpt lon="4.098824" lat="49.365754"><ele>97.0</ele></trkpt>
<trkpt lon="4.098851" lat="49.365647"><ele>97.0</ele></trkpt>
<trkpt lon="4.099070" lat="49.363811"><ele>90.5</ele></trkpt>
<trkpt lon="4.099199" lat="49.363053"><ele>88.0</ele></trkpt>
<trkpt lon="4.099255" lat="49.362918"><ele>88.0</ele></trkpt>
<trkpt lon="4.099542" lat="49.362526"><ele>89.25</ele></trkpt>
<trkpt lon="4.099435" lat="49.362428"><ele>88.75</ele></trkpt>
<trkpt lon="4.096667" lat="49.358403"><ele>88.0</ele></trkpt>
<trkpt lon="4.096452" lat="49.358124"><ele>87.0</ele></trkpt>
<trkpt lon="4.095435" lat="49.357132"><ele>83.5</ele></trkpt>
<trkpt lon="4.095132" lat="49.356761"><ele>79.75</ele></trkpt>
<trkpt lon="4.091028" lat="49.350813"><ele>79.5</ele></trkpt>
<trkpt lon="4.091300" lat="49.350612"><ele>80.5</ele></trkpt>
<trkpt lon="4.091356" lat="49.350513"><ele>80.75</ele></trkpt>
<trkpt lon="4.090111" lat="49.348696"><ele>82.25</ele></trkpt>
<trkpt lon="4.087451" lat="49.344810"><ele>84.75</ele></trkpt>
<trkpt lon="4.087215" lat="49.344244"><ele>83.75</ele></trkpt>
<trkpt lon="4.087021" lat="49.343918"><ele>83.75</ele></trkpt>
<trkpt lon="4.086975" lat="49.343853"><ele>84.0</ele></trkpt>
<trkpt lon="4.086108" lat="49.343271"><ele>84.0</ele></trkpt>
<trkpt lon="4.081913" lat="49.340600"><ele>85.75</ele></trkpt>
<trkpt lon="4.084100" lat="49.338198"><ele>90.0</ele></trkpt>
<trkpt lon="4.088786" lat="49.335490"><ele>89.0</ele></trkpt>
<trkpt lon="4.090329" lat="49.334605"><ele>88.0</ele></trkpt>
<trkpt lon="4.091062" lat="49.334185"><ele>88.75</ele></trkpt>
<trkpt lon="4.090951" lat="49.334129"><ele>89.0</ele></trkpt>
<trkpt lon="4.089989" lat="49.333046"><ele>90.0</ele></trkpt>
<trkpt lon="4.089991" lat="49.332981"><ele>90.25</ele></trkpt>
<trkpt lon="4.090024" lat="49.332941"><ele>90.25</ele></trkpt>
<trkpt lon="4.090132" lat="49.332897"><ele>90.75</ele></trkpt>
<trkpt lon="4.089740" lat="49.332463"><ele>91.0</ele></trkpt>
<trkpt lon="4.089504" lat="49.332119"><ele>91.0</ele></trkpt>
<trkpt lon="4.089479" lat="49.332062"><ele>91.0</ele></trkpt>
<trkpt lon="4.089342" lat="49.331523"><ele>91.0</ele></trkpt>
<trkpt lon="4.088963" lat="49.329771"><ele>93.75</ele></trkpt>
<trkpt lon="4.088818" lat="49.329429"><ele>94.0</ele></trkpt>
<trkpt lon="4.088569" lat="49.329062"><ele>94.25</ele></trkpt>
<trkpt lon="4.088375" lat="49.328845"><ele>94.25</ele></trkpt>
<trkpt lon="4.088181" lat="49.328662"><ele>94.25</ele></trkpt>
<trkpt lon="4.087433" lat="49.328148"><ele>94.5</ele></trkpt>
<trkpt lon="4.085573" lat="49.326848"><ele>98.25</ele></trkpt>
<trkpt lon="4.085538" lat="49.326807"><ele>98.25</ele></trkpt>
<trkpt lon="4.085559" lat="49.326703"><ele>98.75</ele></trkpt>
<trkpt lon="4.085644" lat="49.326655"><ele>98.5</ele></trkpt>
<trkpt lon="4.085460" lat="49.326527"><ele>98.75</ele></trkpt>
<trkpt lon="4.084857" lat="49.326118"><ele>99.75</ele></trkpt>
<trkpt lon="4.083105" lat="49.324874"><ele>103.0</ele></trkpt>
<trkpt lon="4.081735" lat="49.323926"><ele>104.0</ele></trkpt>
<trkpt lon="4.080088" lat="49.322778"><ele>105.5</ele></trkpt>
<trkpt lon="4.076698" lat="49.321063"><ele>102.75</ele></trkpt>
<trkpt lon="4.075108" lat="49.320225"><ele>99.75</ele></trkpt>
<trkpt lon="4.074768" lat="49.320026"><ele>99.0</ele></trkpt>
<trkpt lon="4.074183" lat="49.319640"><ele>98.5</ele></trkpt>
<trkpt lon="4.073202" lat="49.319002"><ele>96.25</ele></trkpt>
<trkpt lon="4.073111" lat="49.319055"><ele>96.5</ele></trkpt>
<trkpt lon="4.072989" lat="49.318964"><ele>96.25</ele></trkpt>
<trkpt lon="4.072785" lat="49.318826"><ele>96.5</ele></trkpt>
<trkpt lon="4.072684" lat="49.318735"><ele>95.75</ele></trkpt>
<trkpt lon="4.072565" lat="49.318612"><ele>95.0</ele></trkpt>
<trkpt lon="4.072433" lat="49.318428"><ele>94.25</ele></trkpt>
<trkpt lon="4.072302" lat="49.318218"><ele>94.0</ele></trkpt>
<trkpt lon="4.072249" lat="49.318024"><ele>92.75</ele></trkpt>
<trkpt lon="4.072109" lat="49.317886"><ele>92.25</ele></trkpt>
<trkpt lon="4.071947" lat="49.317791"><ele>92.0</ele></trkpt>
<trkpt lon="4.071721" lat="49.318136"><ele>93.25</ele></trkpt>
<trkpt lon="4.071601" lat="49.318079"><ele>93.0</ele></trkpt>
<trkpt lon="4.070907" lat="49.317658"><ele>91.5</ele></trkpt>
<trkpt lon="4.070553" lat="49.317303"><ele>90.25</ele></trkpt>
<trkpt lon="4.069908" lat="49.316290"><ele>88.5</ele></trkpt>
<trkpt lon="4.070972" lat="49.314602"><ele>89.25</ele></trkpt>
<trkpt lon="4.071275" lat="49.314141"><ele>90.0</ele></trkpt>
<trkpt lon="4.071273" lat="49.314096"><ele>90.0</ele></trkpt>
<trkpt lon="4.071248" lat="49.314064"><ele>90.0</ele></trkpt>
<trkpt lon="4.071199" lat="49.314026"><ele>90.0</ele></trkpt>
<trkpt lon="4.071115" lat="49.313995"><ele>90.0</ele></trkpt>
<trkpt lon="4.070186" lat="49.313755"><ele>90.0</ele></trkpt>
<trkpt lon="4.070127" lat="49.313710"><ele>90.0</ele></trkpt>
<trkpt lon="4.070121" lat="49.313682"><ele>90.0</ele></trkpt>
<trkpt lon="4.070131" lat="49.313625"><ele>90.0</ele></trkpt>
<trkpt lon="4.070258" lat="49.313434"><ele>90.5</ele></trkpt>
<trkpt lon="4.070272" lat="49.313369"><ele>90.75</ele></trkpt>
<trkpt lon="4.070250" lat="49.313323"><ele>91.0</ele></trkpt>
<trkpt lon="4.070196" lat="49.313272"><ele>91.0</ele></trkpt>
<trkpt lon="4.068404" lat="49.312364"><ele>91.0</ele></trkpt>
<trkpt lon="4.066908" lat="49.311622"><ele>91.0</ele></trkpt>
<trkpt lon="4.066802" lat="49.311514"><ele>91.0</ele></trkpt>
<trkpt lon="4.065853" lat="49.310029"><ele>92.0</ele></trkpt>
<trkpt lon="4.065757" lat="49.309820"><ele>92.0</ele></trkpt>
<trkpt lon="4.065709" lat="49.309563"><ele>92.0</ele></trkpt>
<trkpt lon="4.065769" lat="49.308657"><ele>93.5</ele></trkpt>
<trkpt lon="4.064866" lat="49.309096"><ele>93.0</ele></trkpt>
<trkpt lon="4.064792" lat="49.309076"><ele>93.0</ele></trkpt>
<trkpt lon="4.061005" lat="49.308059"><ele>91.75</ele></trkpt>
<trkpt lon="4.060929" lat="49.308025"><ele>92.0</ele></trkpt>
<trkpt lon="4.060751" lat="49.307878"><ele>92.0</ele></trkpt>
<trkpt lon="4.060655" lat="49.307837"><ele>91.75</ele></trkpt>
<trkpt lon="4.060329" lat="49.307751"><ele>92.0</ele></trkpt>
<trkpt lon="4.060261" lat="49.307754"><ele>91.75</ele></trkpt>
<trkpt lon="4.060190" lat="49.307773"><ele>91.5</ele></trkpt>
<trkpt lon="4.059843" lat="49.307960"><ele>91.0</ele></trkpt>
<trkpt lon="4.059747" lat="49.307962"><ele>91.0</ele></trkpt>
<trkpt lon="4.057733" lat="49.307439"><ele>91.0</ele></trkpt>
<trkpt lon="4.057645" lat="49.307398"><ele>91.0</ele></trkpt>
<trkpt lon="4.057611" lat="49.307346"><ele>91.0</ele></trkpt>
<trkpt lon="4.057606" lat="49.307298"><ele>91.0</ele></trkpt>
<trkpt lon="4.057640" lat="49.307213"><ele>91.0</ele></trkpt>
<trkpt lon="4.058644" lat="49.306627"><ele>93.0</ele></trkpt>
<trkpt lon="4.058736" lat="49.306552"><ele>93.0</ele></trkpt>
<trkpt lon="4.058644" lat="49.306533"><ele>93.0</ele></trkpt>
<trkpt lon="4.058580" lat="49.306491"><ele>92.75</ele></trkpt>
<trkpt lon="4.055204" lat="49.298392"><ele>97.0</ele></trkpt>
<trkpt lon="4.053829" lat="49.295081"><ele>91.25</ele></trkpt>
<trkpt lon="4.051123" lat="49.295058"><ele>93.0</ele></trkpt>
<trkpt lon="4.050972" lat="49.295023"><ele>93.0</ele></trkpt>
<trkpt lon="4.050928" lat="49.294944"><ele>92.75</ele></trkpt>
<trkpt lon="4.052024" lat="49.291049"><ele>89.0</ele></trkpt>
<trkpt lon="4.052036" lat="49.290891"><ele>89.25</ele></trkpt>
<trkpt lon="4.052206" lat="49.290794"><ele>89.75</ele></trkpt>
<trkpt lon="4.052348" lat="49.290668"><ele>89.25</ele></trkpt>
<trkpt lon="4.052144" lat="49.290582"><ele>89.0</ele></trkpt>
<trkpt lon="4.052189" lat="49.290535"><ele>89.0</ele></trkpt>
<trkpt lon="4.052104" lat="49.290486"><ele>89.0</ele></trkpt>
<trkpt lon="4.052106" lat="49.290432"><ele>89.0</ele></trkpt>
<trkpt lon="4.052328" lat="49.290229"><ele>89.25</ele></trkpt>
<trkpt lon="4.052367" lat="49.290164"><ele>89.5</ele></trkpt>
<trkpt lon="4.052355" lat="49.290094"><ele>89.25</ele></trkpt>
<trkpt lon="4.052051" lat="49.289598"><ele>89.25</ele></trkpt>
<trkpt lon="4.052023" lat="49.289436"><ele>89.25</ele></trkpt>
<trkpt lon="4.051958" lat="49.289321"><ele>89.0</ele></trkpt>
<trkpt lon="4.051915" lat="49.289290"><ele>89.0</ele></trkpt>
<trkpt lon="4.051809" lat="49.289215"><ele>89.0</ele></trkpt>
<trkpt lon="4.051486" lat="49.288681"><ele>89.0</ele></trkpt>
<trkpt lon="4.050769" lat="49.287684"><ele>89.25</ele></trkpt>
<trkpt lon="4.050704" lat="49.287637"><ele>89.25</ele></trkpt>
<trkpt lon="4.050557" lat="49.287568"><ele>89.0</ele></trkpt>
<trkpt lon="4.050687" lat="49.287427"><ele>89.25</ele></trkpt>
<trkpt lon="4.050630" lat="49.287395"><ele>89.25</ele></trkpt>
<trkpt lon="4.050690" lat="49.287348"><ele>89.25</ele></trkpt>
<trkpt lon="4.050665" lat="49.287335"><ele>89.25</ele></trkpt>
<trkpt lon="4.050641" lat="49.287309"><ele>89.25</ele></trkpt>
<trkpt lon="4.050630" lat="49.287278"><ele>89.25</ele></trkpt>
<trkpt lon="4.050635" lat="49.287247"><ele>89.25</ele></trkpt>
<trkpt lon="4.050661" lat="49.287214"><ele>89.25</ele></trkpt>
<trkpt lon="4.050703" lat="49.287190"><ele>89.25</ele></trkpt>
<trkpt lon="4.050756" lat="49.287177"><ele>89.5</ele></trkpt>
<trkpt lon="4.050733" lat="49.287140"><ele>89.25</ele></trkpt>
<trkpt lon="4.050664" lat="49.287026"><ele>89.0</ele></trkpt>
<trkpt lon="4.050609" lat="49.286936"><ele>89.0</ele></trkpt>
<trkpt lon="4.050592" lat="49.286909"><ele>89.0</ele></trkpt>
<trkpt lon="4.050554" lat="49.286847"><ele>89.0</ele></trkpt>
<trkpt lon="4.050480" lat="49.286732"><ele>89.0</ele></trkpt>
<trkpt lon="4.050336" lat="49.286488"><ele>89.0</ele></trkpt>
<trkpt lon="4.049851" lat="49.285733"><ele>89.0</ele></trkpt>
<trkpt lon="4.049814" lat="49.285668"><ele>89.0</ele></trkpt>
<trkpt lon="4.049761" lat="49.285582"><ele>89.0</ele></trkpt>
<trkpt lon="4.049598" lat="49.285316"><ele>89.0</ele></trkpt>
<trkpt lon="4.048926" lat="49.284275"><ele>89.0</ele></trkpt>
<trkpt lon="4.048869" lat="49.284181"><ele>89.0</ele></trkpt>
<trkpt lon="4.048816" lat="49.284095"><ele>89.0</ele></trkpt>
<trkpt lon="4.048323" lat="49.283328"><ele>88.0</ele></trkpt>
<trkpt lon="4.048317" lat="49.283321"><ele>88.0</ele></trkpt>
<trkpt lon="4.048282" lat="49.283274"><ele>88.25</ele></trkpt>
<trkpt lon="4.048252" lat="49.283234"><ele>88.5</ele></trkpt>
<trkpt lon="4.048179" lat="49.283244"><ele>88.5</ele></trkpt>
<trkpt lon="4.048106" lat="49.283237"><ele>88.75</ele></trkpt>
<trkpt lon="4.048041" lat="49.283214"><ele>88.75</ele></trkpt>
<trkpt lon="4.048001" lat="49.283184"><ele>88.75</ele></trkpt>
<trkpt lon="4.047976" lat="49.283149"><ele>88.75</ele></trkpt>
<trkpt lon="4.047968" lat="49.283110"><ele>88.75</ele></trkpt>
<trkpt lon="4.047978" lat="49.283072"><ele>88.75</ele></trkpt>
<trkpt lon="4.048007" lat="49.283035"><ele>89.0</ele></trkpt>
<trkpt lon="4.048051" lat="49.283005"><ele>89.0</ele></trkpt>
<trkpt lon="4.048108" lat="49.282986"><ele>89.0</ele></trkpt>
<trkpt lon="4.048052" lat="49.282906"><ele>89.0</ele></trkpt>
<trkpt lon="4.048035" lat="49.282884"><ele>89.0</ele></trkpt>
<trkpt lon="4.047849" lat="49.282601"><ele>89.0</ele></trkpt>
<trkpt lon="4.047567" lat="49.282202"><ele>89.0</ele></trkpt>
<trkpt lon="4.047547" lat="49.282174"><ele>89.0</ele></trkpt>
<trkpt lon="4.047086" lat="49.281526"><ele>88.25</ele></trkpt>
<trkpt lon="4.047049" lat="49.281475"><ele>88.25</ele></trkpt>
<trkpt lon="4.046442" lat="49.280632"><ele>88.0</ele></trkpt>
<trkpt lon="4.046398" lat="49.280584"><ele>88.0</ele></trkpt>
<trkpt lon="4.046359" lat="49.280558"><ele>88.0</ele></trkpt>
<trkpt lon="4.046301" lat="49.280535"><ele>88.0</ele></trkpt>
<trkpt lon="4.046186" lat="49.280505"><ele>88.0</ele></trkpt>
<trkpt lon="4.046077" lat="49.280484"><ele>88.0</ele></trkpt>
<trkpt lon="4.045982" lat="49.280473"><ele>88.0</ele></trkpt>
<trkpt lon="4.045892" lat="49.280473"><ele>88.0</ele></trkpt>
<trkpt lon="4.045867" lat="49.280416"><ele>88.0</ele></trkpt>
<trkpt lon="4.045785" lat="49.280451"><ele>88.0</ele></trkpt>
<trkpt lon="4.045358" lat="49.280510"><ele>87.25</ele></trkpt>
<trkpt lon="4.045296" lat="49.280509"><ele>87.0</ele></trkpt>
<trkpt lon="4.045220" lat="49.280493"><ele>87.0</ele></trkpt>
<trkpt lon="4.045103" lat="49.280497"><ele>87.0</ele></trkpt>
<trkpt lon="4.044970" lat="49.280526"><ele>87.0</ele></trkpt>
<trkpt lon="4.044566" lat="49.280498"><ele>88.25</ele></trkpt>
<trkpt lon="4.044213" lat="49.280426"><ele>88.75</ele></trkpt>
<trkpt lon="4.043859" lat="49.280296"><ele>90.75</ele></trkpt>
<trkpt lon="4.043680" lat="49.280220"><ele>91.0</ele></trkpt>
<trkpt lon="4.043552" lat="49.280114"><ele>91.75</ele></trkpt>
<trkpt lon="4.043524" lat="49.280042"><ele>92.0</ele></trkpt>
<trkpt lon="4.043530" lat="49.279952"><ele>92.0</ele></trkpt>
<trkpt lon="4.043555" lat="49.279887"><ele>91.75</ele></trkpt>
<trkpt lon="4.043532" lat="49.279879"><ele>91.75</ele></trkpt>
<trkpt lon="4.043492" lat="49.279865"><ele>91.75</ele></trkpt>
<trkpt lon="4.043420" lat="49.279881"><ele>92.25</ele></trkpt>
<trkpt lon="4.043283" lat="49.279852"><ele>92.0</ele></trkpt>
<trkpt lon="4.043157" lat="49.279848"><ele>91.25</ele></trkpt>
<trkpt lon="4.043087" lat="49.279799"><ele>90.25</ele></trkpt>
<trkpt lon="4.042759" lat="49.279474"><ele>91.5</ele></trkpt>
<trkpt lon="4.042674" lat="49.279404"><ele>92.25</ele></trkpt>
<trkpt lon="4.042631" lat="49.279323"><ele>92.25</ele></trkpt>
<trkpt lon="4.042636" lat="49.279243"><ele>92.0</ele></trkpt>
<trkpt lon="4.042668" lat="49.279177"><ele>92.0</ele></trkpt>
<trkpt lon="4.042647" lat="49.279120"><ele>91.25</ele></trkpt>
<trkpt lon="4.042518" lat="49.279064"><ele>90.75</ele></trkpt>
<trkpt lon="4.042379" lat="49.279029"><ele>90.75</ele></trkpt>
<trkpt lon="4.042228" lat="49.278949"><ele>91.0</ele></trkpt>
<trkpt lon="4.042132" lat="49.278760"><ele>89.5</ele></trkpt>
<trkpt lon="4.041005" lat="49.277598"><ele>86.75</ele></trkpt>
<trkpt lon="4.040866" lat="49.277469"><ele>87.75</ele></trkpt>
<trkpt lon="4.040839" lat="49.277409"><ele>87.75</ele></trkpt>
<trkpt lon="4.040860" lat="49.277346"><ele>87.75</ele></trkpt>
<trkpt lon="4.040925" lat="49.277276"><ele>87.75</ele></trkpt>
<trkpt lon="4.040879" lat="49.277203"><ele>88.0</ele></trkpt>
<trkpt lon="4.040796" lat="49.277122"><ele>88.25</ele></trkpt>
<trkpt lon="4.040699" lat="49.277133"><ele>88.5</ele></trkpt>
<trkpt lon="4.040571" lat="49.277111"><ele>88.75</ele></trkpt>
<trkpt lon="4.040474" lat="49.277080"><ele>89.0</ele></trkpt>
<trkpt lon="4.039476" lat="49.276033"><ele>89.75</ele></trkpt>
<trkpt lon="4.039299" lat="49.275775"><ele>91.0</ele></trkpt>
<trkpt lon="4.039267" lat="49.275659"><ele>91.25</ele></trkpt>
<trkpt lon="4.039251" lat="49.275491"><ele>91.75</ele></trkpt>
<trkpt lon="4.039264" lat="49.274633"><ele>93.5</ele></trkpt>
<trkpt lon="4.039254" lat="49.274604"><ele>93.0</ele></trkpt>
<trkpt lon="4.039200" lat="49.274532"><ele>92.5</ele></trkpt>
<trkpt lon="4.039200" lat="49.274438"><ele>90.75</ele></trkpt>
<trkpt lon="4.039208" lat="49.274266"><ele>93.5</ele></trkpt>
<trkpt lon="4.039195" lat="49.274130"><ele>95.0</ele></trkpt>
<trkpt lon="4.039175" lat="49.274077"><ele>94.75</ele></trkpt>
<trkpt lon="4.039142" lat="49.274022"><ele>94.25</ele></trkpt>
<trkpt lon="4.039063" lat="49.273933"><ele>94.0</ele></trkpt>
<trkpt lon="4.038924" lat="49.273842"><ele>95.25</ele></trkpt>
<trkpt lon="4.038868" lat="49.273788"><ele>95.5</ele></trkpt>
<trkpt lon="4.038832" lat="49.273736"><ele>95.25</ele></trkpt>
<trkpt lon="4.038824" lat="49.273690"><ele>95.0</ele></trkpt>
<trkpt lon="4.038838" lat="49.273642"><ele>95.0</ele></trkpt>
<trkpt lon="4.038886" lat="49.273596"><ele>94.75</ele></trkpt>
<trkpt lon="4.038850" lat="49.273580"><ele>94.75</ele></trkpt>
<trkpt lon="4.038789" lat="49.273532"><ele>94.75</ele></trkpt>
<trkpt lon="4.038755" lat="49.273506"><ele>94.5</ele></trkpt>
<trkpt lon="4.038923" lat="49.273436"><ele>94.75</ele></trkpt>
<trkpt lon="4.039165" lat="49.273284"><ele>93.75</ele></trkpt>
<trkpt lon="4.039180" lat="49.273267"><ele>93.25</ele></trkpt>
<trkpt lon="4.039733" lat="49.272954"><ele>91.5</ele></trkpt>
<trkpt lon="4.039851" lat="49.272911"><ele>93.25</ele></trkpt>
<trkpt lon="4.039919" lat="49.272843"><ele>94.25</ele></trkpt>
<trkpt lon="4.040104" lat="49.272842"><ele>95.0</ele></trkpt>
<trkpt lon="4.040020" lat="49.272778"><ele>95.0</ele></trkpt>
<trkpt lon="4.039980" lat="49.272743"><ele>94.75</ele></trkpt>
<trkpt lon="4.039346" lat="49.272182"><ele>94.5</ele></trkpt>
<trkpt lon="4.038882" lat="49.271764"><ele>94.5</ele></trkpt>
<trkpt lon="4.038208" lat="49.271158"><ele>94.25</ele></trkpt>
<trkpt lon="4.038158" lat="49.271108"><ele>94.5</ele></trkpt>
<trkpt lon="4.038135" lat="49.271058"><ele>94.75</ele></trkpt>
<trkpt lon="4.038053" lat="49.271014"><ele>94.75</ele></trkpt>
<trkpt lon="4.036737" lat="49.269793"><ele>94.0</ele></trkpt>
<trkpt lon="4.036705" lat="49.269763"><ele>94.0</ele></trkpt>
<trkpt lon="4.036269" lat="49.269344"><ele>94.0</ele></trkpt>
<trkpt lon="4.036100" lat="49.269180"><ele>93.75</ele></trkpt>
<trkpt lon="4.035509" lat="49.268602"><ele>93.0</ele></trkpt>
<trkpt lon="4.035335" lat="49.268430"><ele>93.25</ele></trkpt>
<trkpt lon="4.035273" lat="49.268378"><ele>93.0</ele></trkpt>
<trkpt lon="4.035332" lat="49.268352"><ele>93.0</ele></trkpt>
<trkpt lon="4.035072" lat="49.268150"><ele>91.25</ele></trkpt>
<trkpt lon="4.034840" lat="49.268048"><ele>90.75</ele></trkpt>
<trkpt lon="4.034295" lat="49.267908"><ele>88.75</ele></trkpt>
<trkpt lon="4.034101" lat="49.267822"><ele>88.5</ele></trkpt>
<trkpt lon="4.033610" lat="49.267337"><ele>87.75</ele></trkpt>
<trkpt lon="4.033507" lat="49.267181"><ele>87.75</ele></trkpt>
<trkpt lon="4.033284" lat="49.266792"><ele>86.75</ele></trkpt>
<trkpt lon="4.033200" lat="49.266589"><ele>87.0</ele></trkpt>
<trkpt lon="4.033112" lat="49.266495"><ele>86.25</ele></trkpt>
<trkpt lon="4.032999" lat="49.266404"><ele>86.0</ele></trkpt>
<trkpt lon="4.032816" lat="49.266267"><ele>86.0</ele></trkpt>
<trkpt lon="4.032539" lat="49.266149"><ele>86.0</ele></trkpt>
<trkpt lon="4.032396" lat="49.266079"><ele>86.0</ele></trkpt>
<trkpt lon="4.032148" lat="49.265938"><ele>86.0</ele></trkpt>
<trkpt lon="4.031853" lat="49.265726"><ele>86.25</ele></trkpt>
<trkpt lon="4.031451" lat="49.265356"><ele>86.0</ele></trkpt>
<trkpt lon="4.031375" lat="49.265269"><ele>86.0</ele></trkpt>
<trkpt lon="4.031402" lat="49.265200"><ele>86.25</ele></trkpt>
<trkpt lon="4.031423" lat="49.265077"><ele>86.75</ele></trkpt>
<trkpt lon="4.031362" lat="49.264922"><ele>86.75</ele></trkpt>
<trkpt lon="4.031092" lat="49.264366"><ele>86.0</ele></trkpt>
<trkpt lon="4.030912" lat="49.264003"><ele>86.0</ele></trkpt>
<trkpt lon="4.030796" lat="49.263828"><ele>86.0</ele></trkpt>
<trkpt lon="4.030768" lat="49.263768"><ele>86.0</ele></trkpt>
<trkpt lon="4.030607" lat="49.263416"><ele>86.0</ele></trkpt>
<trkpt lon="4.030497" lat="49.263229"><ele>86.0</ele></trkpt>
<trkpt lon="4.030421" lat="49.263061"><ele>86.0</ele></trkpt>
<trkpt lon="4.030392" lat="49.263004"><ele>86.0</ele></trkpt>
<trkpt lon="4.030249" lat="49.262944"><ele>86.0</ele></trkpt>
<trkpt lon="4.029748" lat="49.261930"><ele>87.0</ele></trkpt>
<trkpt lon="4.029743" lat="49.261893"><ele>87.0</ele></trkpt>
<trkpt lon="4.029776" lat="49.261839"><ele>87.25</ele></trkpt>
<trkpt lon="4.029816" lat="49.261820"><ele>87.5</ele></trkpt>
<trkpt lon="4.029864" lat="49.261772"><ele>87.75</ele></trkpt>
<trkpt lon="4.029896" lat="49.261744"><ele>87.75</ele></trkpt>
<trkpt lon="4.029880" lat="49.261732"><ele>87.75</ele></trkpt>
<trkpt lon="4.029843" lat="49.261702"><ele>87.75</ele></trkpt>
<trkpt lon="4.029829" lat="49.261691"><ele>87.75</ele></trkpt>
<trkpt lon="4.029809" lat="49.261675"><ele>87.75</ele></trkpt>
<trkpt lon="4.029787" lat="49.261657"><ele>88.0</ele></trkpt>
<trkpt lon="4.029753" lat="49.261628"><ele>88.0</ele></trkpt>
<trkpt lon="4.029715" lat="49.261596"><ele>87.75</ele></trkpt>
<trkpt lon="4.029669" lat="49.261559"><ele>87.75</ele></trkpt>
<trkpt lon="4.029644" lat="49.261538"><ele>87.75</ele></trkpt>
<trkpt lon="4.029902" lat="49.261396"><ele>88.0</ele></trkpt>
<trkpt lon="4.030072" lat="49.261278"><ele>88.0</ele></trkpt>
<trkpt lon="4.030215" lat="49.261159"><ele>88.0</ele></trkpt>
<trkpt lon="4.030321" lat="49.261053"><ele>87.75</ele></trkpt>
<trkpt lon="4.030556" lat="49.260765"><ele>88.0</ele></trkpt>
<trkpt lon="4.030591" lat="49.260720"><ele>88.0</ele></trkpt>
<trkpt lon="4.030598" lat="49.260670"><ele>88.0</ele></trkpt>
<trkpt lon="4.030549" lat="49.260619"><ele>87.75</ele></trkpt>
<trkpt lon="4.030520" lat="49.260607"><ele>87.75</ele></trkpt>
<trkpt lon="4.030565" lat="49.260555"><ele>88.0</ele></trkpt>
<trkpt lon="4.030591" lat="49.260526"><ele>88.0</ele></trkpt>
<trkpt lon="4.030616" lat="49.260498"><ele>88.0</ele></trkpt>
<trkpt lon="4.030648" lat="49.260510"><ele>88.0</ele></trkpt>
<trkpt lon="4.030678" lat="49.260492"><ele>88.0</ele></trkpt>
<trkpt lon="4.030691" lat="49.260492"><ele>88.0</ele></trkpt>
<trkpt lon="4.030747" lat="49.260491"><ele>88.0</ele></trkpt>
<trkpt lon="4.030713" lat="49.260077"><ele>88.5</ele></trkpt>
<trkpt lon="4.030715" lat="49.259833"><ele>88.0</ele></trkpt>
<trkpt lon="4.030673" lat="49.259828"><ele>88.0</ele></trkpt>
<trkpt lon="4.030686" lat="49.259810"><ele>88.0</ele></trkpt>
<trkpt lon="4.030889" lat="49.259588"><ele>88.0</ele></trkpt>
<trkpt lon="4.031237" lat="49.259221"><ele>87.5</ele></trkpt>
<trkpt lon="4.031260" lat="49.259202"><ele>87.5</ele></trkpt>
<trkpt lon="4.031293" lat="49.259183"><ele>87.25</ele></trkpt>
<trkpt lon="4.031551" lat="49.258907"><ele>87.0</ele></trkpt>
<trkpt lon="4.031620" lat="49.258838"><ele>86.75</ele></trkpt>
<trkpt lon="4.031653" lat="49.258805"><ele>86.75</ele></trkpt>
<trkpt lon="4.031684" lat="49.258778"><ele>87.0</ele></trkpt>
<trkpt lon="4.031711" lat="49.258756"><ele>87.0</ele></trkpt>
<trkpt lon="4.031725" lat="49.258739"><ele>87.0</ele></trkpt>
<trkpt lon="4.031756" lat="49.258695"><ele>87.0</ele></trkpt>
<trkpt lon="4.031979" lat="49.258386"><ele>86.75</ele></trkpt>
  </trkseg></trk></gpx>
