<?xml version="1.0" encoding="UTF-8"?>
<gpx version="1.1" creator="compostel-brouter" xmlns="http://www.topografix.com/GPX/1/1">
  <metadata><name>FR-19-Issoudun</name></metadata>
  <trk><name>FR-19-Issoudun</name><trkseg>
<trkpt lon="2.396447" lat="47.084290"><ele>144.5</ele></trkpt>
<trkpt lon="2.396505" lat="47.084227"><ele>145.0</ele></trkpt>
<trkpt lon="2.396583" lat="47.084215"><ele>144.75</ele></trkpt>
<trkpt lon="2.396673" lat="47.084242"><ele>144.25</ele></trkpt>
<trkpt lon="2.396948" lat="47.084385"><ele>143.25</ele></trkpt>
<trkpt lon="2.397310" lat="47.084030"><ele>145.25</ele></trkpt>
<trkpt lon="2.397279" lat="47.084010"><ele>145.5</ele></trkpt>
<trkpt lon="2.396816" lat="47.083696"><ele>147.0</ele></trkpt>
<trkpt lon="2.396569" lat="47.083562"><ele>147.0</ele></trkpt>
<trkpt lon="2.396119" lat="47.083381"><ele>147.0</ele></trkpt>
<trkpt lon="2.396081" lat="47.083365"><ele>146.75</ele></trkpt>
<trkpt lon="2.395998" lat="47.083460"><ele>146.5</ele></trkpt>
<trkpt lon="2.395980" lat="47.083481"><ele>146.5</ele></trkpt>
<trkpt lon="2.395654" lat="47.083377"><ele>145.25</ele></trkpt>
<trkpt lon="2.395351" lat="47.083259"><ele>144.5</ele></trkpt>
<trkpt lon="2.395039" lat="47.083086"><ele>142.5</ele></trkpt>
<trkpt lon="2.394969" lat="47.083049"><ele>141.75</ele></trkpt>
<trkpt lon="2.394939" lat="47.083026"><ele>141.75</ele></trkpt>
<trkpt lon="2.394905" lat="47.082994"><ele>141.75</ele></trkpt>
<trkpt lon="2.394891" lat="47.082967"><ele>141.75</ele></trkpt>
<trkpt lon="2.394934" lat="47.082741"><ele>141.5</ele></trkpt>
<trkpt lon="2.395037" lat="47.082372"><ele>140.0</ele></trkpt>
<trkpt lon="2.393896" lat="47.081961"><ele>133.0</ele></trkpt>
<trkpt lon="2.393720" lat="47.081892"><ele>132.25</ele></trkpt>
<trkpt lon="2.392990" lat="47.081607"><ele>130.0</ele></trkpt>
<trkpt lon="2.392864" lat="47.081539"><ele>130.0</ele></trkpt>
<trkpt lon="2.392679" lat="47.081418"><ele>129.5</ele></trkpt>
<trkpt lon="2.392487" lat="47.081273"><ele>128.75</ele></trkpt>
<trkpt lon="2.392275" lat="47.081109"><ele>128.75</ele></trkpt>
<trkpt lon="2.392207" lat="47.081055"><ele>128.75</ele></trkpt>
<trkpt lon="2.391515" lat="47.080503"><ele>127.75</ele></trkpt>
<trkpt lon="2.391343" lat="47.080360"><ele>127.25</ele></trkpt>
<trkpt lon="2.390739" lat="47.079929"><ele>126.5</ele></trkpt>
<trkpt lon="2.390717" lat="47.079912"><ele>126.5</ele></trkpt>
<trkpt lon="2.390331" lat="47.079621"><ele>127.25</ele></trkpt>
<trkpt lon="2.390246" lat="47.079564"><ele>127.25</ele></trkpt>
<trkpt lon="2.390194" lat="47.079529"><ele>127.0</ele></trkpt>
<trkpt lon="2.390130" lat="47.079485"><ele>126.25</ele></trkpt>
<trkpt lon="2.389809" lat="47.079258"><ele>126.5</ele></trkpt>
<trkpt lon="2.389768" lat="47.079227"><ele>127.0</ele></trkpt>
<trkpt lon="2.389761" lat="47.079222"><ele>127.0</ele></trkpt>
<trkpt lon="2.389631" lat="47.079127"><ele>127.75</ele></trkpt>
<trkpt lon="2.389401" lat="47.078973"><ele>127.75</ele></trkpt>
<trkpt lon="2.389275" lat="47.078863"><ele>128.0</ele></trkpt>
<trkpt lon="2.389214" lat="47.078809"><ele>128.0</ele></trkpt>
<trkpt lon="2.389169" lat="47.078773"><ele>128.0</ele></trkpt>
<trkpt lon="2.389110" lat="47.078730"><ele>128.0</ele></trkpt>
<trkpt lon="2.389034" lat="47.078674"><ele>128.0</ele></trkpt>
<trkpt lon="2.388340" lat="47.078198"><ele>128.25</ele></trkpt>
<trkpt lon="2.388200" lat="47.078124"><ele>128.75</ele></trkpt>
<trkpt lon="2.387979" lat="47.077979"><ele>129.0</ele></trkpt>
<trkpt lon="2.387841" lat="47.077890"><ele>129.0</ele></trkpt>
<trkpt lon="2.387699" lat="47.077797"><ele>129.0</ele></trkpt>
<trkpt lon="2.387559" lat="47.077706"><ele>129.0</ele></trkpt>
<trkpt lon="2.387537" lat="47.077692"><ele>129.0</ele></trkpt>
<trkpt lon="2.387404" lat="47.077603"><ele>129.0</ele></trkpt>
<trkpt lon="2.387247" lat="47.077501"><ele>129.0</ele></trkpt>
<trkpt lon="2.387051" lat="47.077374"><ele>129.0</ele></trkpt>
<trkpt lon="2.386365" lat="47.076915"><ele>129.0</ele></trkpt>
<trkpt lon="2.386299" lat="47.076871"><ele>129.25</ele></trkpt>
<trkpt lon="2.386187" lat="47.076793"><ele>129.5</ele></trkpt>
<trkpt lon="2.386099" lat="47.076732"><ele>130.0</ele></trkpt>
<trkpt lon="2.385876" lat="47.076577"><ele>129.75</ele></trkpt>
<trkpt lon="2.385631" lat="47.076406"><ele>130.5</ele></trkpt>
<trkpt lon="2.385562" lat="47.076362"><ele>130.75</ele></trkpt>
<trkpt lon="2.385522" lat="47.076336"><ele>131.0</ele></trkpt>
<trkpt lon="2.385196" lat="47.076107"><ele>131.25</ele></trkpt>
<trkpt lon="2.384852" lat="47.075829"><ele>132.0</ele></trkpt>
<trkpt lon="2.384884" lat="47.075807"><ele>132.0</ele></trkpt>
<trkpt lon="2.384744" lat="47.075716"><ele>132.25</ele></trkpt>
<trkpt lon="2.384737" lat="47.075699"><ele>132.25</ele></trkpt>
<trkpt lon="2.384753" lat="47.075675"><ele>132.5</ele></trkpt>
<trkpt lon="2.384698" lat="47.075636"><ele>132.5</ele></trkpt>
<trkpt lon="2.384586" lat="47.075568"><ele>132.75</ele></trkpt>
<trkpt lon="2.384537" lat="47.075559"><ele>132.75</ele></trkpt>
<trkpt lon="2.384486" lat="47.075529"><ele>133.0</ele></trkpt>
<trkpt lon="2.384333" lat="47.075426"><ele>133.25</ele></trkpt>
<trkpt lon="2.384311" lat="47.075423"><ele>133.25</ele></trkpt>
<trkpt lon="2.384282" lat="47.075405"><ele>133.5</ele></trkpt>
<trkpt lon="2.383708" lat="47.075017"><ele>135.0</ele></trkpt>
<trkpt lon="2.383609" lat="47.074949"><ele>135.0</ele></trkpt>
<trkpt lon="2.383251" lat="47.074705"><ele>136.0</ele></trkpt>
<trkpt lon="2.382848" lat="47.074430"><ele>137.25</ele></trkpt>
<trkpt lon="2.382437" lat="47.074153"><ele>139.0</ele></trkpt>
<trkpt lon="2.382026" lat="47.073880"><ele>140.0</ele></trkpt>
<trkpt lon="2.381712" lat="47.073670"><ele>140.75</ele></trkpt>
<trkpt lon="2.381262" lat="47.073372"><ele>141.75</ele></trkpt>
<trkpt lon="2.381117" lat="47.073274"><ele>142.0</ele></trkpt>
<trkpt lon="2.380776" lat="47.073042"><ele>143.0</ele></trkpt>
<trkpt lon="2.380312" lat="47.072704"><ele>144.0</ele></trkpt>
<trkpt lon="2.380211" lat="47.072632"><ele>144.0</ele></trkpt>
<trkpt lon="2.379753" lat="47.072309"><ele>144.75</ele></trkpt>
<trkpt lon="2.379647" lat="47.072234"><ele>145.0</ele></trkpt>
<trkpt lon="2.379263" lat="47.071960"><ele>144.5</ele></trkpt>
<trkpt lon="2.378530" lat="47.071439"><ele>146.0</ele></trkpt>
<trkpt lon="2.378496" lat="47.071414"><ele>146.0</ele></trkpt>
<trkpt lon="2.377833" lat="47.070940"><ele>146.5</ele></trkpt>
<trkpt lon="2.377296" lat="47.070558"><ele>147.75</ele></trkpt>
<trkpt lon="2.377135" lat="47.070429"><ele>148.5</ele></trkpt>
<trkpt lon="2.376999" lat="47.070328"><ele>149.25</ele></trkpt>
<trkpt lon="2.376463" lat="47.069949"><ele>151.0</ele></trkpt>
<trkpt lon="2.376037" lat="47.069646"><ele>152.25</ele></trkpt>
<trkpt lon="2.375958" lat="47.069694"><ele>152.5</ele></trkpt>
<trkpt lon="2.375893" lat="47.069735"><ele>152.5</ele></trkpt>
<trkpt lon="2.375485" lat="47.069440"><ele>154.0</ele></trkpt>
<trkpt lon="2.375126" lat="47.069172"><ele>154.75</ele></trkpt>
<trkpt lon="2.374998" lat="47.069076"><ele>155.25</ele></trkpt>
<trkpt lon="2.374916" lat="47.069128"><ele>155.0</ele></trkpt>
<trkpt lon="2.374895" lat="47.069141"><ele>155.0</ele></trkpt>
<trkpt lon="2.374243" lat="47.068818"><ele>156.0</ele></trkpt>
<trkpt lon="2.374103" lat="47.068753"><ele>156.0</ele></trkpt>
<trkpt lon="2.373225" lat="47.068366"><ele>156.0</ele></trkpt>
<trkpt lon="2.373189" lat="47.068313"><ele>156.0</ele></trkpt>
<trkpt lon="2.373030" lat="47.068238"><ele>156.0</ele></trkpt>
<trkpt lon="2.372898" lat="47.068175"><ele>156.0</ele></trkpt>
<trkpt lon="2.372694" lat="47.068078"><ele>156.0</ele></trkpt>
<trkpt lon="2.372076" lat="47.067785"><ele>155.5</ele></trkpt>
<trkpt lon="2.371934" lat="47.067717"><ele>155.75</ele></trkpt>
<trkpt lon="2.371604" lat="47.067559"><ele>155.0</ele></trkpt>
<trkpt lon="2.371352" lat="47.067437"><ele>155.0</ele></trkpt>
<trkpt lon="2.371232" lat="47.067380"><ele>155.0</ele></trkpt>
<trkpt lon="2.370814" lat="47.067176"><ele>154.75</ele></trkpt>
<trkpt lon="2.370668" lat="47.067105"><ele>154.0</ele></trkpt>
<trkpt lon="2.370399" lat="47.066991"><ele>154.0</ele></trkpt>
<trkpt lon="2.370196" lat="47.066894"><ele>153.75</ele></trkpt>
<trkpt lon="2.370149" lat="47.066846"><ele>153.75</ele></trkpt>
<trkpt lon="2.370129" lat="47.066811"><ele>153.5</ele></trkpt>
<trkpt lon="2.370050" lat="47.066812"><ele>153.5</ele></trkpt>
<trkpt lon="2.369962" lat="47.066784"><ele>153.25</ele></trkpt>
<trkpt lon="2.369532" lat="47.066576"><ele>152.5</ele></trkpt>
<trkpt lon="2.369478" lat="47.066553"><ele>152.5</ele></trkpt>
<trkpt lon="2.369189" lat="47.066410"><ele>152.0</ele></trkpt>
<trkpt lon="2.368545" lat="47.066111"><ele>150.75</ele></trkpt>
<trkpt lon="2.368400" lat="47.066049"><ele>150.75</ele></trkpt>
<trkpt lon="2.368266" lat="47.065991"><ele>150.5</ele></trkpt>
<trkpt lon="2.368163" lat="47.065947"><ele>150.75</ele></trkpt>
<trkpt lon="2.367621" lat="47.065724"><ele>150.5</ele></trkpt>
<trkpt lon="2.367208" lat="47.065561"><ele>150.0</ele></trkpt>
<trkpt lon="2.366261" lat="47.065162"><ele>149.5</ele></trkpt>
<trkpt lon="2.365478" lat="47.064852"><ele>149.5</ele></trkpt>
<trkpt lon="2.365355" lat="47.064798"><ele>149.5</ele></trkpt>
<trkpt lon="2.365191" lat="47.064722"><ele>149.5</ele></trkpt>
<trkpt lon="2.364688" lat="47.064500"><ele>149.75</ele></trkpt>
<trkpt lon="2.363812" lat="47.064107"><ele>150.0</ele></trkpt>
<trkpt lon="2.363656" lat="47.064037"><ele>150.0</ele></trkpt>
<trkpt lon="2.363535" lat="47.063983"><ele>149.75</ele></trkpt>
<trkpt lon="2.362587" lat="47.063584"><ele>151.0</ele></trkpt>
<trkpt lon="2.362200" lat="47.063412"><ele>151.5</ele></trkpt>
<trkpt lon="2.361242" lat="47.062973"><ele>153.0</ele></trkpt>
<trkpt lon="2.360795" lat="47.062768"><ele>154.0</ele></trkpt>
<trkpt lon="2.360629" lat="47.062692"><ele>154.0</ele></trkpt>
<trkpt lon="2.360563" lat="47.062662"><ele>154.0</ele></trkpt>
<trkpt lon="2.359819" lat="47.062320"><ele>155.0</ele></trkpt>
<trkpt lon="2.359560" lat="47.062201"><ele>155.5</ele></trkpt>
<trkpt lon="2.359178" lat="47.062027"><ele>156.0</ele></trkpt>
<trkpt lon="2.359129" lat="47.062002"><ele>155.75</ele></trkpt>
<trkpt lon="2.358934" lat="47.061904"><ele>156.0</ele></trkpt>
<trkpt lon="2.358690" lat="47.061793"><ele>156.75</ele></trkpt>
<trkpt lon="2.358132" lat="47.061541"><ele>157.75</ele></trkpt>
<trkpt lon="2.357817" lat="47.061422"><ele>158.0</ele></trkpt>
<trkpt lon="2.357595" lat="47.061349"><ele>158.75</ele></trkpt>
<trkpt lon="2.357268" lat="47.061237"><ele>159.0</ele></trkpt>
<trkpt lon="2.357056" lat="47.061161"><ele>159.25</ele></trkpt>
<trkpt lon="2.356742" lat="47.061006"><ele>160.0</ele></trkpt>
<trkpt lon="2.356637" lat="47.060938"><ele>160.0</ele></trkpt>
<trkpt lon="2.356589" lat="47.060905"><ele>160.0</ele></trkpt>
<trkpt lon="2.356317" lat="47.060721"><ele>161.0</ele></trkpt>
<trkpt lon="2.356124" lat="47.060604"><ele>161.0</ele></trkpt>
<trkpt lon="2.355890" lat="47.060476"><ele>161.0</ele></trkpt>
<trkpt lon="2.355516" lat="47.060329"><ele>160.75</ele></trkpt>
<trkpt lon="2.354902" lat="47.060093"><ele>160.25</ele></trkpt>
<trkpt lon="2.354624" lat="47.059977"><ele>160.0</ele></trkpt>
<trkpt lon="2.354331" lat="47.059887"><ele>159.5</ele></trkpt>
<trkpt lon="2.354266" lat="47.059858"><ele>159.25</ele></trkpt>
<trkpt lon="2.354047" lat="47.059763"><ele>159.0</ele></trkpt>
<trkpt lon="2.353627" lat="47.059626"><ele>158.25</ele></trkpt>
<trkpt lon="2.353137" lat="47.059472"><ele>158.0</ele></trkpt>
<trkpt lon="2.352653" lat="47.059323"><ele>157.25</ele></trkpt>
<trkpt lon="2.352482" lat="47.059267"><ele>157.0</ele></trkpt>
<trkpt lon="2.352489" lat="47.059181"><ele>157.0</ele></trkpt>
<trkpt lon="2.352499" lat="47.059135"><ele>156.75</ele></trkpt>
<trkpt lon="2.352537" lat="47.059074"><ele>156.5</ele></trkpt>
<trkpt lon="2.353272" lat="47.058431"><ele>156.25</ele></trkpt>
<trkpt lon="2.353338" lat="47.058371"><ele>156.0</ele></trkpt>
<trkpt lon="2.353363" lat="47.058330"><ele>155.75</ele></trkpt>
<trkpt lon="2.353377" lat="47.058283"><ele>155.75</ele></trkpt>
<trkpt lon="2.353373" lat="47.058221"><ele>155.5</ele></trkpt>
<trkpt lon="2.353327" lat="47.058144"><ele>155.25</ele></trkpt>
<trkpt lon="2.353135" lat="47.057882"><ele>153.5</ele></trkpt>
<trkpt lon="2.353113" lat="47.057822"><ele>153.25</ele></trkpt>
<trkpt lon="2.353115" lat="47.057762"><ele>153.0</ele></trkpt>
<trkpt lon="2.353180" lat="47.057602"><ele>153.0</ele></trkpt>
<trkpt lon="2.353391" lat="47.057397"><ele>152.5</ele></trkpt>
<trkpt lon="2.353509" lat="47.057296"><ele>152.25</ele></trkpt>
<trkpt lon="2.353697" lat="47.057136"><ele>151.75</ele></trkpt>
<trkpt lon="2.353751" lat="47.057090"><ele>152.0</ele></trkpt>
<trkpt lon="2.354044" lat="47.056842"><ele>151.5</ele></trkpt>
<trkpt lon="2.354277" lat="47.056642"><ele>150.75</ele></trkpt>
<trkpt lon="2.353744" lat="47.056341"><ele>148.75</ele></trkpt>
<trkpt lon="2.353129" lat="47.056009"><ele>147.25</ele></trkpt>
<trkpt lon="2.352558" lat="47.055699"><ele>146.0</ele></trkpt>
<trkpt lon="2.352597" lat="47.055669"><ele>146.25</ele></trkpt>
<trkpt lon="2.352629" lat="47.055629"><ele>146.25</ele></trkpt>
<trkpt lon="2.352641" lat="47.055587"><ele>146.25</ele></trkpt>
<trkpt lon="2.352637" lat="47.055468"><ele>146.5</ele></trkpt>
<trkpt lon="2.352661" lat="47.055458"><ele>146.5</ele></trkpt>
<trkpt lon="2.352849" lat="47.055282"><ele>147.0</ele></trkpt>
<trkpt lon="2.353296" lat="47.054939"><ele>144.5</ele></trkpt>
<trkpt lon="2.353362" lat="47.054910"><ele>144.0</ele></trkpt>
<trkpt lon="2.353724" lat="47.054876"><ele>143.75</ele></trkpt>
<trkpt lon="2.353754" lat="47.054863"><ele>144.0</ele></trkpt>
<trkpt lon="2.353798" lat="47.054843"><ele>144.0</ele></trkpt>
<trkpt lon="2.353874" lat="47.054787"><ele>144.0</ele></trkpt>
<trkpt lon="2.353913" lat="47.054729"><ele>143.75</ele></trkpt>
<trkpt lon="2.353841" lat="47.054478"><ele>141.5</ele></trkpt>
<trkpt lon="2.353807" lat="47.054419"><ele>141.25</ele></trkpt>
<trkpt lon="2.353779" lat="47.054390"><ele>141.5</ele></trkpt>
<trkpt lon="2.353678" lat="47.054348"><ele>142.0</ele></trkpt>
<trkpt lon="2.353329" lat="47.054269"><ele>144.0</ele></trkpt>
<trkpt lon="2.353252" lat="47.054241"><ele>144.0</ele></trkpt>
<trkpt lon="2.346502" lat="47.050625"><ele>154.0</ele></trkpt>
<trkpt lon="2.346475" lat="47.050596"><ele>154.0</ele></trkpt>
<trkpt lon="2.346465" lat="47.050562"><ele>154.0</ele></trkpt>
<trkpt lon="2.346442" lat="47.050370"><ele>154.0</ele></trkpt>
<trkpt lon="2.346446" lat="47.050330"><ele>154.0</ele></trkpt>
<trkpt lon="2.346460" lat="47.050296"><ele>153.75</ele></trkpt>
<trkpt lon="2.346490" lat="47.050262"><ele>154.0</ele></trkpt>
<trkpt lon="2.348226" lat="47.049124"><ele>155.25</ele></trkpt>
<trkpt lon="2.347842" lat="47.048869"><ele>156.0</ele></trkpt>
<trkpt lon="2.347570" lat="47.048675"><ele>155.25</ele></trkpt>
<trkpt lon="2.347327" lat="47.048504"><ele>155.25</ele></trkpt>
<trkpt lon="2.347129" lat="47.048387"><ele>155.75</ele></trkpt>
<trkpt lon="2.346160" lat="47.047854"><ele>156.0</ele></trkpt>
<trkpt lon="2.346204" lat="47.047818"><ele>156.0</ele></trkpt>
<trkpt lon="2.346118" lat="47.047770"><ele>156.0</ele></trkpt>
<trkpt lon="2.345960" lat="47.047685"><ele>156.0</ele></trkpt>
<trkpt lon="2.345470" lat="47.047413"><ele>155.75</ele></trkpt>
<trkpt lon="2.345194" lat="47.047260"><ele>155.75</ele></trkpt>
<trkpt lon="2.345066" lat="47.047187"><ele>156.0</ele></trkpt>
<trkpt lon="2.345109" lat="47.047150"><ele>156.0</ele></trkpt>
<trkpt lon="2.344988" lat="47.047087"><ele>156.0</ele></trkpt>
<trkpt lon="2.344882" lat="47.047014"><ele>156.0</ele></trkpt>
<trkpt lon="2.344868" lat="47.046990"><ele>156.0</ele></trkpt>
<trkpt lon="2.344897" lat="47.046556"><ele>156.75</ele></trkpt>
<trkpt lon="2.344874" lat="47.046517"><ele>156.75</ele></trkpt>
<trkpt lon="2.344770" lat="47.046483"><ele>156.5</ele></trkpt>
<trkpt lon="2.344688" lat="47.046458"><ele>156.75</ele></trkpt>
<trkpt lon="2.344409" lat="47.046262"><ele>157.0</ele></trkpt>
<trkpt lon="2.344377" lat="47.046203"><ele>157.0</ele></trkpt>
<trkpt lon="2.344333" lat="47.046170"><ele>157.0</ele></trkpt>
<trkpt lon="2.344270" lat="47.046170"><ele>157.0</ele></trkpt>
<trkpt lon="2.344023" lat="47.046211"><ele>156.75</ele></trkpt>
<trkpt lon="2.343981" lat="47.046107"><ele>157.0</ele></trkpt>
<trkpt lon="2.343969" lat="47.045984"><ele>157.0</ele></trkpt>
<trkpt lon="2.344035" lat="47.045833"><ele>157.0</ele></trkpt>
<trkpt lon="2.344107" lat="47.045674"><ele>157.25</ele></trkpt>
<trkpt lon="2.344156" lat="47.045616"><ele>157.75</ele></trkpt>
<trkpt lon="2.344221" lat="47.045537"><ele>158.0</ele></trkpt>
<trkpt lon="2.344881" lat="47.044884"><ele>158.75</ele></trkpt>
<trkpt lon="2.344599" lat="47.044734"><ele>158.75</ele></trkpt>
<trkpt lon="2.344328" lat="47.044590"><ele>158.75</ele></trkpt>
<trkpt lon="2.344211" lat="47.044527"><ele>158.75</ele></trkpt>
<trkpt lon="2.343500" lat="47.044149"><ele>158.5</ele></trkpt>
<trkpt lon="2.343438" lat="47.044030"><ele>158.5</ele></trkpt>
<trkpt lon="2.343406" lat="47.043948"><ele>158.75</ele></trkpt>
<trkpt lon="2.343387" lat="47.043858"><ele>159.0</ele></trkpt>
<trkpt lon="2.343392" lat="47.043756"><ele>159.0</ele></trkpt>
<trkpt lon="2.343446" lat="47.043613"><ele>159.0</ele></trkpt>
<trkpt lon="2.343730" lat="47.043142"><ele>159.25</ele></trkpt>
<trkpt lon="2.343822" lat="47.043034"><ele>159.75</ele></trkpt>
<trkpt lon="2.343933" lat="47.042920"><ele>160.0</ele></trkpt>
<trkpt lon="2.343615" lat="47.042716"><ele>160.0</ele></trkpt>
<trkpt lon="2.343367" lat="47.042499"><ele>160.75</ele></trkpt>
<trkpt lon="2.343209" lat="47.042286"><ele>158.75</ele></trkpt>
<trkpt lon="2.342954" lat="47.041827"><ele>159.0</ele></trkpt>
<trkpt lon="2.342537" lat="47.041085"><ele>159.75</ele></trkpt>
<trkpt lon="2.341440" lat="47.039527"><ele>159.0</ele></trkpt>
<trkpt lon="2.341039" lat="47.038937"><ele>159.0</ele></trkpt>
<trkpt lon="2.340631" lat="47.038355"><ele>159.5</ele></trkpt>
<trkpt lon="2.340551" lat="47.038248"><ele>160.0</ele></trkpt>
<trkpt lon="2.340467" lat="47.038170"><ele>160.0</ele></trkpt>
<trkpt lon="2.340184" lat="47.037932"><ele>160.0</ele></trkpt>
<trkpt lon="2.339918" lat="47.037801"><ele>160.25</ele></trkpt>
<trkpt lon="2.339154" lat="47.037420"><ele>160.0</ele></trkpt>
<trkpt lon="2.338661" lat="47.037211"><ele>160.0</ele></trkpt>
<trkpt lon="2.338427" lat="47.037135"><ele>160.5</ele></trkpt>
<trkpt lon="2.338125" lat="47.037144"><ele>161.0</ele></trkpt>
<trkpt lon="2.338076" lat="47.036930"><ele>161.0</ele></trkpt>
<trkpt lon="2.337998" lat="47.036722"><ele>161.0</ele></trkpt>
<trkpt lon="2.337807" lat="47.036518"><ele>161.0</ele></trkpt>
<trkpt lon="2.337461" lat="47.036281"><ele>161.0</ele></trkpt>
<trkpt lon="2.337042" lat="47.036024"><ele>161.25</ele></trkpt>
<trkpt lon="2.334779" lat="47.034446"><ele>162.0</ele></trkpt>
<trkpt lon="2.334358" lat="47.034159"><ele>161.75</ele></trkpt>
<trkpt lon="2.333981" lat="47.033855"><ele>161.5</ele></trkpt>
<trkpt lon="2.332319" lat="47.032440"><ele>161.0</ele></trkpt>
<trkpt lon="2.331715" lat="47.031980"><ele>160.0</ele></trkpt>
<trkpt lon="2.330690" lat="47.031214"><ele>159.25</ele></trkpt>
<trkpt lon="2.329989" lat="47.030553"><ele>157.75</ele></trkpt>
<trkpt lon="2.329592" lat="47.030205"><ele>158.25</ele></trkpt>
<trkpt lon="2.329409" lat="47.030039"><ele>158.5</ele></trkpt>
<trkpt lon="2.329024" lat="47.029752"><ele>158.75</ele></trkpt>
<trkpt lon="2.328379" lat="47.029356"><ele>159.0</ele></trkpt>
<trkpt lon="2.327518" lat="47.028765"><ele>159.25</ele></trkpt>
<trkpt lon="2.327088" lat="47.028315"><ele>159.5</ele></trkpt>
<trkpt lon="2.326676" lat="47.027771"><ele>159.0</ele></trkpt>
<trkpt lon="2.326593" lat="47.027642"><ele>159.0</ele></trkpt>
<trkpt lon="2.326435" lat="47.027702"><ele>158.25</ele></trkpt>
<trkpt lon="2.326344" lat="47.027775"><ele>158.0</ele></trkpt>
<trkpt lon="2.323620" lat="47.030423"><ele>158.5</ele></trkpt>
<trkpt lon="2.322462" lat="47.029875"><ele>155.5</ele></trkpt>
<trkpt lon="2.321243" lat="47.029354"><ele>154.25</ele></trkpt>
<trkpt lon="2.319029" lat="47.028362"><ele>156.25</ele></trkpt>
<trkpt lon="2.316411" lat="47.027209"><ele>155.0</ele></trkpt>
<trkpt lon="2.314566" lat="47.026419"><ele>153.75</ele></trkpt>
<trkpt lon="2.313356" lat="47.026046"><ele>154.0</ele></trkpt>
<trkpt lon="2.311666" lat="47.025473"><ele>155.0</ele></trkpt>
<trkpt lon="2.309894" lat="47.024903"><ele>156.75</ele></trkpt>
<trkpt lon="2.308492" lat="47.024441"><ele>157.75</ele></trkpt>
<trkpt lon="2.306626" lat="47.023833"><ele>158.5</ele></trkpt>
<trkpt lon="2.306453" lat="47.023765"><ele>158.0</ele></trkpt>
<trkpt lon="2.306025" lat="47.023509"><ele>158.0</ele></trkpt>
<trkpt lon="2.304843" lat="47.022885"><ele>157.0</ele></trkpt>
<trkpt lon="2.304468" lat="47.022670"><ele>157.0</ele></trkpt>
<trkpt lon="2.304157" lat="47.022541"><ele>156.75</ele></trkpt>
<trkpt lon="2.303610" lat="47.022276"><ele>156.0</ele></trkpt>
<trkpt lon="2.303226" lat="47.022122"><ele>156.0</ele></trkpt>
<trkpt lon="2.302935" lat="47.022040"><ele>156.0</ele></trkpt>
<trkpt lon="2.302694" lat="47.021990"><ele>156.0</ele></trkpt>
<trkpt lon="2.302433" lat="47.021968"><ele>156.0</ele></trkpt>
<trkpt lon="2.302224" lat="47.021959"><ele>156.0</ele></trkpt>
<trkpt lon="2.302239" lat="47.021453"><ele>156.75</ele></trkpt>
<trkpt lon="2.302191" lat="47.021273"><ele>157.25</ele></trkpt>
<trkpt lon="2.302107" lat="47.021090"><ele>157.5</ele></trkpt>
<trkpt lon="2.301995" lat="47.020926"><ele>157.25</ele></trkpt>
<trkpt lon="2.301884" lat="47.020793"><ele>157.25</ele></trkpt>
<trkpt lon="2.301805" lat="47.020720"><ele>157.5</ele></trkpt>
<trkpt lon="2.301617" lat="47.020547"><ele>157.75</ele></trkpt>
<trkpt lon="2.301201" lat="47.020345"><ele>157.0</ele></trkpt>
<trkpt lon="2.300906" lat="47.020249"><ele>157.0</ele></trkpt>
<trkpt lon="2.300590" lat="47.020196"><ele>157.25</ele></trkpt>
<trkpt lon="2.300332" lat="47.020172"><ele>157.25</ele></trkpt>
<trkpt lon="2.300116" lat="47.020170"><ele>157.25</ele></trkpt>
<trkpt lon="2.300118" lat="47.020122"><ele>157.5</ele></trkpt>
<trkpt lon="2.300030" lat="47.020084"><ele>157.5</ele></trkpt>
<trkpt lon="2.299878" lat="47.020053"><ele>157.75</ele></trkpt>
<trkpt lon="2.299797" lat="47.020014"><ele>157.75</ele></trkpt>
<trkpt lon="2.299752" lat="47.019956"><ele>157.75</ele></trkpt>
<trkpt lon="2.299722" lat="47.019869"><ele>158.0</ele></trkpt>
<trkpt lon="2.299658" lat="47.019796"><ele>158.0</ele></trkpt>
<trkpt lon="2.299499" lat="47.019686"><ele>157.75</ele></trkpt>
<trkpt lon="2.299408" lat="47.019578"><ele>157.25</ele></trkpt>
<trkpt lon="2.298618" lat="47.019559"><ele>157.0</ele></trkpt>
<trkpt lon="2.298577" lat="47.019558"><ele>157.0</ele></trkpt>
<trkpt lon="2.298414" lat="47.019553"><ele>157.0</ele></trkpt>
<trkpt lon="2.298263" lat="47.019535"><ele>157.0</ele></trkpt>
<trkpt lon="2.298500" lat="47.019267"><ele>157.0</ele></trkpt>
<trkpt lon="2.298543" lat="47.019207"><ele>157.0</ele></trkpt>
<trkpt lon="2.298575" lat="47.019134"><ele>157.0</ele></trkpt>
<trkpt lon="2.298589" lat="47.019061"><ele>157.0</ele></trkpt>
<trkpt lon="2.298583" lat="47.018893"><ele>157.0</ele></trkpt>
<trkpt lon="2.298594" lat="47.018823"><ele>157.0</ele></trkpt>
<trkpt lon="2.298066" lat="47.018770"><ele>157.0</ele></trkpt>
<trkpt lon="2.298055" lat="47.018316"><ele>156.0</ele></trkpt>
<trkpt lon="2.298157" lat="47.017256"><ele>154.0</ele></trkpt>
<trkpt lon="2.298268" lat="47.016912"><ele>151.0</ele></trkpt>
<trkpt lon="2.298334" lat="47.016784"><ele>150.75</ele></trkpt>
<trkpt lon="2.298337" lat="47.016726"><ele>150.75</ele></trkpt>
<trkpt lon="2.298309" lat="47.016562"><ele>150.0</ele></trkpt>
<trkpt lon="2.298505" lat="47.016229"><ele>149.75</ele></trkpt>
<trkpt lon="2.298565" lat="47.016189"><ele>150.25</ele></trkpt>
<trkpt lon="2.299129" lat="47.015167"><ele>155.75</ele></trkpt>
<trkpt lon="2.299199" lat="47.015012"><ele>156.0</ele></trkpt>
<trkpt lon="2.299397" lat="47.014702"><ele>157.0</ele></trkpt>
<trkpt lon="2.299328" lat="47.014553"><ele>157.25</ele></trkpt>
<trkpt lon="2.298834" lat="47.014090"><ele>157.75</ele></trkpt>
<trkpt lon="2.298762" lat="47.014075"><ele>157.75</ele></trkpt>
<trkpt lon="2.298252" lat="47.013728"><ele>156.75</ele></trkpt>
<trkpt lon="2.298167" lat="47.013659"><ele>156.5</ele></trkpt>
<trkpt lon="2.298187" lat="47.013626"><ele>156.5</ele></trkpt>
<trkpt lon="2.298203" lat="47.013600"><ele>156.5</ele></trkpt>
<trkpt lon="2.298552" lat="47.013045"><ele>157.0</ele></trkpt>
<trkpt lon="2.298913" lat="47.012594"><ele>157.5</ele></trkpt>
<trkpt lon="2.298836" lat="47.012553"><ele>157.5</ele></trkpt>
<trkpt lon="2.298598" lat="47.012429"><ele>157.25</ele></trkpt>
<trkpt lon="2.298167" lat="47.012166"><ele>158.0</ele></trkpt>
<trkpt lon="2.297958" lat="47.012064"><ele>158.0</ele></trkpt>
<trkpt lon="2.297587" lat="47.011895"><ele>158.0</ele></trkpt>
<trkpt lon="2.296997" lat="47.011672"><ele>158.0</ele></trkpt>
<trkpt lon="2.296815" lat="47.011593"><ele>158.0</ele></trkpt>
<trkpt lon="2.296297" lat="47.011366"><ele>159.0</ele></trkpt>
<trkpt lon="2.295603" lat="47.011063"><ele>159.75</ele></trkpt>
<trkpt lon="2.295532" lat="47.011036"><ele>159.75</ele></trkpt>
<trkpt lon="2.295485" lat="47.011025"><ele>159.75</ele></trkpt>
<trkpt lon="2.295114" lat="47.010868"><ele>159.0</ele></trkpt>
<trkpt lon="2.294675" lat="47.010645"><ele>159.0</ele></trkpt>
<trkpt lon="2.294576" lat="47.010529"><ele>159.0</ele></trkpt>
<trkpt lon="2.294498" lat="47.010339"><ele>159.0</ele></trkpt>
<trkpt lon="2.294464" lat="47.010232"><ele>158.75</ele></trkpt>
<trkpt lon="2.294463" lat="47.010175"><ele>158.5</ele></trkpt>
<trkpt lon="2.294439" lat="47.010101"><ele>158.25</ele></trkpt>
<trkpt lon="2.294347" lat="47.010011"><ele>158.0</ele></trkpt>
<trkpt lon="2.293781" lat="47.009746"><ele>156.5</ele></trkpt>
<trkpt lon="2.293750" lat="47.009732"><ele>156.5</ele></trkpt>
<trkpt lon="2.293764" lat="47.009693"><ele>156.5</ele></trkpt>
<trkpt lon="2.293785" lat="47.009633"><ele>156.5</ele></trkpt>
<trkpt lon="2.293796" lat="47.009602"><ele>156.5</ele></trkpt>
<trkpt lon="2.293869" lat="47.009382"><ele>156.5</ele></trkpt>
<trkpt lon="2.293972" lat="47.009074"><ele>156.0</ele></trkpt>
<trkpt lon="2.294043" lat="47.008979"><ele>156.0</ele></trkpt>
<trkpt lon="2.294034" lat="47.008927"><ele>156.0</ele></trkpt>
<trkpt lon="2.293837" lat="47.007844"><ele>155.0</ele></trkpt>
<trkpt lon="2.293805" lat="47.007381"><ele>155.0</ele></trkpt>
<trkpt lon="2.293797" lat="47.007275"><ele>155.25</ele></trkpt>
<trkpt lon="2.293799" lat="47.007056"><ele>155.25</ele></trkpt>
<trkpt lon="2.293800" lat="47.006916"><ele>155.0</ele></trkpt>
<trkpt lon="2.293801" lat="47.006756"><ele>155.25</ele></trkpt>
<trkpt lon="2.293802" lat="47.006592"><ele>155.5</ele></trkpt>
<trkpt lon="2.293804" lat="47.006388"><ele>155.5</ele></trkpt>
<trkpt lon="2.293808" lat="47.006033"><ele>156.5</ele></trkpt>
<trkpt lon="2.293812" lat="47.005592"><ele>156.0</ele></trkpt>
<trkpt lon="2.293781" lat="47.005434"><ele>156.0</ele></trkpt>
<trkpt lon="2.293745" lat="47.005142"><ele>155.75</ele></trkpt>
<trkpt lon="2.293745" lat="47.005000"><ele>155.5</ele></trkpt>
<trkpt lon="2.293764" lat="47.004905"><ele>155.25</ele></trkpt>
<trkpt lon="2.293823" lat="47.004715"><ele>154.75</ele></trkpt>
<trkpt lon="2.293991" lat="47.004483"><ele>154.0</ele></trkpt>
<trkpt lon="2.294072" lat="47.004336"><ele>153.5</ele></trkpt>
<trkpt lon="2.294123" lat="47.003875"><ele>151.75</ele></trkpt>
<trkpt lon="2.294284" lat="47.003221"><ele>150.0</ele></trkpt>
<trkpt lon="2.294310" lat="47.003171"><ele>150.0</ele></trkpt>
<trkpt lon="2.293219" lat="47.002525"><ele>150.75</ele></trkpt>
<trkpt lon="2.291159" lat="47.001368"><ele>153.75</ele></trkpt>
<trkpt lon="2.290172" lat="47.000791"><ele>154.75</ele></trkpt>
<trkpt lon="2.289904" lat="47.000620"><ele>155.0</ele></trkpt>
<trkpt lon="2.289256" lat="47.000205"><ele>155.0</ele></trkpt>
<trkpt lon="2.288619" lat="46.999810"><ele>155.0</ele></trkpt>
<trkpt lon="2.287706" lat="46.999292"><ele>154.5</ele></trkpt>
<trkpt lon="2.286883" lat="46.998667"><ele>154.75</ele></trkpt>
<trkpt lon="2.286290" lat="46.998163"><ele>155.5</ele></trkpt>
<trkpt lon="2.285215" lat="46.997428"><ele>157.0</ele></trkpt>
<trkpt lon="2.283814" lat="46.996716"><ele>158.0</ele></trkpt>
<trkpt lon="2.282825" lat="46.996272"><ele>159.0</ele></trkpt>
<trkpt lon="2.282353" lat="46.995932"><ele>160.0</ele></trkpt>
<trkpt lon="2.281744" lat="46.994995"><ele>161.0</ele></trkpt>
<trkpt lon="2.281342" lat="46.994479"><ele>161.0</ele></trkpt>
<trkpt lon="2.280914" lat="46.993913"><ele>161.0</ele></trkpt>
<trkpt lon="2.280760" lat="46.993649"><ele>161.0</ele></trkpt>
<trkpt lon="2.280688" lat="46.993468"><ele>160.25</ele></trkpt>
<trkpt lon="2.280582" lat="46.993299"><ele>160.0</ele></trkpt>
<trkpt lon="2.279951" lat="46.992736"><ele>161.0</ele></trkpt>
<trkpt lon="2.279244" lat="46.992087"><ele>161.0</ele></trkpt>
<trkpt lon="2.279023" lat="46.991946"><ele>161.5</ele></trkpt>
<trkpt lon="2.278772" lat="46.991873"><ele>161.75</ele></trkpt>
<trkpt lon="2.277744" lat="46.992243"><ele>161.75</ele></trkpt>
<trkpt lon="2.277573" lat="46.992287"><ele>161.75</ele></trkpt>
<trkpt lon="2.277472" lat="46.992313"><ele>161.5</ele></trkpt>
<trkpt lon="2.276968" lat="46.992363"><ele>161.25</ele></trkpt>
<trkpt lon="2.276415" lat="46.992394"><ele>161.25</ele></trkpt>
<trkpt lon="2.275633" lat="46.992423"><ele>161.0</ele></trkpt>
<trkpt lon="2.275425" lat="46.992424"><ele>161.0</ele></trkpt>
<trkpt lon="2.274875" lat="46.992428"><ele>161.0</ele></trkpt>
<trkpt lon="2.274110" lat="46.992459"><ele>161.0</ele></trkpt>
<trkpt lon="2.272266" lat="46.992278"><ele>160.75</ele></trkpt>
<trkpt lon="2.272018" lat="46.992263"><ele>160.0</ele></trkpt>
<trkpt lon="2.271666" lat="46.992254"><ele>160.0</ele></trkpt>
<trkpt lon="2.271431" lat="46.992254"><ele>160.0</ele></trkpt>
<trkpt lon="2.270908" lat="46.992279"><ele>160.0</ele></trkpt>
<trkpt lon="2.270235" lat="46.992298"><ele>160.0</ele></trkpt>
<trkpt lon="2.269415" lat="46.992269"><ele>160.0</ele></trkpt>
<trkpt lon="2.268541" lat="46.992238"><ele>161.0</ele></trkpt>
<trkpt lon="2.264114" lat="46.992104"><ele>163.0</ele></trkpt>
<trkpt lon="2.262990" lat="46.992074"><ele>162.25</ele></trkpt>
<trkpt lon="2.262107" lat="46.992037"><ele>162.0</ele></trkpt>
<trkpt lon="2.261454" lat="46.992019"><ele>161.5</ele></trkpt>
<trkpt lon="2.261284" lat="46.992011"><ele>161.25</ele></trkpt>
<trkpt lon="2.261053" lat="46.992004"><ele>160.75</ele></trkpt>
<trkpt lon="2.260341" lat="46.991987"><ele>160.0</ele></trkpt>
<trkpt lon="2.260156" lat="46.991982"><ele>160.0</ele></trkpt>
<trkpt lon="2.259697" lat="46.991966"><ele>159.75</ele></trkpt>
<trkpt lon="2.258818" lat="46.991936"><ele>158.75</ele></trkpt>
<trkpt lon="2.258614" lat="46.991929"><ele>158.0</ele></trkpt>
<trkpt lon="2.258454" lat="46.991927"><ele>158.0</ele></trkpt>
<trkpt lon="2.258222" lat="46.991925"><ele>158.0</ele></trkpt>
<trkpt lon="2.256715" lat="46.991864"><ele>156.25</ele></trkpt>
<trkpt lon="2.255673" lat="46.991847"><ele>154.5</ele></trkpt>
<trkpt lon="2.254733" lat="46.991872"><ele>153.0</ele></trkpt>
<trkpt lon="2.254040" lat="46.991901"><ele>151.5</ele></trkpt>
<trkpt lon="2.253683" lat="46.991911"><ele>151.0</ele></trkpt>
<trkpt lon="2.253458" lat="46.991456"><ele>150.75</ele></trkpt>
<trkpt lon="2.253402" lat="46.991353"><ele>151.0</ele></trkpt>
<trkpt lon="2.253256" lat="46.991076"><ele>150.75</ele></trkpt>
<trkpt lon="2.253242" lat="46.991047"><ele>150.75</ele></trkpt>
<trkpt lon="2.252828" lat="46.991162"><ele>149.0</ele></trkpt>
<trkpt lon="2.252415" lat="46.991311"><ele>147.5</ele></trkpt>
<trkpt lon="2.252366" lat="46.991335"><ele>147.5</ele></trkpt>
<trkpt lon="2.252310" lat="46.991362"><ele>147.25</ele></trkpt>
<trkpt lon="2.252262" lat="46.991386"><ele>147.0</ele></trkpt>
<trkpt lon="2.252178" lat="46.991428"><ele>147.0</ele></trkpt>
<trkpt lon="2.252126" lat="46.991454"><ele>147.0</ele></trkpt>
<trkpt lon="2.251998" lat="46.991523"><ele>147.0</ele></trkpt>
<trkpt lon="2.251975" lat="46.991492"><ele>147.0</ele></trkpt>
<trkpt lon="2.251337" lat="46.990893"><ele>146.5</ele></trkpt>
<trkpt lon="2.251003" lat="46.990605"><ele>146.25</ele></trkpt>
<trkpt lon="2.250705" lat="46.990323"><ele>146.75</ele></trkpt>
<trkpt lon="2.250608" lat="46.990210"><ele>147.0</ele></trkpt>
<trkpt lon="2.250502" lat="46.990098"><ele>147.25</ele></trkpt>
<trkpt lon="2.250087" lat="46.989472"><ele>149.75</ele></trkpt>
<trkpt lon="2.250091" lat="46.989419"><ele>150.0</ele></trkpt>
<trkpt lon="2.249958" lat="46.989206"><ele>149.75</ele></trkpt>
<trkpt lon="2.249894" lat="46.988974"><ele>149.5</ele></trkpt>
<trkpt lon="2.249810" lat="46.988852"><ele>149.25</ele></trkpt>
<trkpt lon="2.249801" lat="46.988813"><ele>149.25</ele></trkpt>
<trkpt lon="2.249792" lat="46.988774"><ele>149.25</ele></trkpt>
<trkpt lon="2.249812" lat="46.987841"><ele>146.25</ele></trkpt>
<trkpt lon="2.249767" lat="46.987611"><ele>144.75</ele></trkpt>
<trkpt lon="2.249701" lat="46.987464"><ele>143.75</ele></trkpt>
<trkpt lon="2.249594" lat="46.987351"><ele>143.0</ele></trkpt>
<trkpt lon="2.249421" lat="46.987227"><ele>142.75</ele></trkpt>
<trkpt lon="2.247081" lat="46.985777"><ele>142.5</ele></trkpt>
<trkpt lon="2.245460" lat="46.984797"><ele>142.25</ele></trkpt>
<trkpt lon="2.244176" lat="46.984009"><ele>142.25</ele></trkpt>
<trkpt lon="2.243526" lat="46.983638"><ele>142.25</ele></trkpt>
<trkpt lon="2.242906" lat="46.983360"><ele>143.0</ele></trkpt>
<trkpt lon="2.242465" lat="46.983203"><ele>143.25</ele></trkpt>
<trkpt lon="2.241913" lat="46.983026"><ele>144.75</ele></trkpt>
<trkpt lon="2.241700" lat="46.982969"><ele>144.25</ele></trkpt>
<trkpt lon="2.241372" lat="46.982915"><ele>144.25</ele></trkpt>
<trkpt lon="2.239854" lat="46.982761"><ele>147.0</ele></trkpt>
<trkpt lon="2.239357" lat="46.982748"><ele>147.0</ele></trkpt>
<trkpt lon="2.239037" lat="46.982747"><ele>147.0</ele></trkpt>
<trkpt lon="2.238696" lat="46.982778"><ele>147.0</ele></trkpt>
<trkpt lon="2.238356" lat="46.982782"><ele>147.75</ele></trkpt>
<trkpt lon="2.222818" lat="46.982890"><ele>150.75</ele></trkpt>
<trkpt lon="2.221997" lat="46.982855"><ele>150.25</ele></trkpt>
<trkpt lon="2.219407" lat="46.982930"><ele>151.25</ele></trkpt>
<trkpt lon="2.210245" lat="46.983003"><ele>155.0</ele></trkpt>
<trkpt lon="2.208867" lat="46.983022"><ele>155.75</ele></trkpt>
<trkpt lon="2.194902" lat="46.983105"><ele>150.5</ele></trkpt>
<trkpt lon="2.193726" lat="46.982992"><ele>151.0</ele></trkpt>
<trkpt lon="2.191892" lat="46.982685"><ele>148.75</ele></trkpt>
<trkpt lon="2.190729" lat="46.982381"><ele>146.0</ele></trkpt>
<trkpt lon="2.186253" lat="46.981001"><ele>143.25</ele></trkpt>
<trkpt lon="2.187048" lat="46.979822"><ele>145.75</ele></trkpt>
<trkpt lon="2.186985" lat="46.979808"><ele>145.5</ele></trkpt>
<trkpt lon="2.186812" lat="46.979809"><ele>145.0</ele></trkpt>
<trkpt lon="2.186668" lat="46.979798"><ele>144.5</ele></trkpt>
<trkpt lon="2.185042" lat="46.979574"><ele>142.5</ele></trkpt>
<trkpt lon="2.184548" lat="46.979537"><ele>142.25</ele></trkpt>
<trkpt lon="2.183269" lat="46.979481"><ele>143.0</ele></trkpt>
<trkpt lon="2.183083" lat="46.979461"><ele>143.75</ele></trkpt>
<trkpt lon="2.182888" lat="46.979419"><ele>143.75</ele></trkpt>
<trkpt lon="2.178177" lat="46.977932"><ele>145.5</ele></trkpt>
<trkpt lon="2.178133" lat="46.977931"><ele>145.5</ele></trkpt>
<trkpt lon="2.178067" lat="46.977929"><ele>145.25</ele></trkpt>
<trkpt lon="2.177950" lat="46.977953"><ele>145.0</ele></trkpt>
<trkpt lon="2.177804" lat="46.978022"><ele>145.0</ele></trkpt>
<trkpt lon="2.177790" lat="46.978054"><ele>145.0</ele></trkpt>
<trkpt lon="2.177685" lat="46.978254"><ele>144.25</ele></trkpt>
<trkpt lon="2.177145" lat="46.978131"><ele>144.25</ele></trkpt>
<trkpt lon="2.176574" lat="46.978027"><ele>144.0</ele></trkpt>
<trkpt lon="2.175414" lat="46.977945"><ele>142.0</ele></trkpt>
<trkpt lon="2.174419" lat="46.977991"><ele>141.5</ele></trkpt>
<trkpt lon="2.173592" lat="46.978088"><ele>140.25</ele></trkpt>
<trkpt lon="2.172796" lat="46.978263"><ele>139.5</ele></trkpt>
<trkpt lon="2.170267" lat="46.978964"><ele>140.0</ele></trkpt>
<trkpt lon="2.166243" lat="46.980053"><ele>144.0</ele></trkpt>
<trkpt lon="2.164194" lat="46.980618"><ele>145.0</ele></trkpt>
<trkpt lon="2.161174" lat="46.981413"><ele>144.75</ele></trkpt>
<trkpt lon="2.159333" lat="46.981916"><ele>142.5</ele></trkpt>
<trkpt lon="2.156888" lat="46.982575"><ele>143.0</ele></trkpt>
<trkpt lon="2.155630" lat="46.982902"><ele>142.0</ele></trkpt>
<trkpt lon="2.154686" lat="46.983078"><ele>139.0</ele></trkpt>
<trkpt lon="2.153864" lat="46.983160"><ele>139.25</ele></trkpt>
<trkpt lon="2.153264" lat="46.983161"><ele>139.25</ele></trkpt>
<trkpt lon="2.152284" lat="46.983070"><ele>138.0</ele></trkpt>
<trkpt lon="2.151657" lat="46.982968"><ele>137.25</ele></trkpt>
<trkpt lon="2.150225" lat="46.982562"><ele>135.25</ele></trkpt>
<trkpt lon="2.148255" lat="46.982053"><ele>135.5</ele></trkpt>
<trkpt lon="2.147933" lat="46.981998"><ele>136.0</ele></trkpt>
<trkpt lon="2.146621" lat="46.981881"><ele>137.0</ele></trkpt>
<trkpt lon="2.145981" lat="46.981901"><ele>136.75</ele></trkpt>
<trkpt lon="2.145285" lat="46.981939"><ele>135.0</ele></trkpt>
<trkpt lon="2.144832" lat="46.982012"><ele>134.25</ele></trkpt>
<trkpt lon="2.144759" lat="46.981973"><ele>134.0</ele></trkpt>
<trkpt lon="2.144785" lat="46.981873"><ele>134.25</ele></trkpt>
<trkpt lon="2.144929" lat="46.981755"><ele>135.25</ele></trkpt>
<trkpt lon="2.145226" lat="46.981667"><ele>136.75</ele></trkpt>
<trkpt lon="2.144841" lat="46.981545"><ele>135.75</ele></trkpt>
<trkpt lon="2.143943" lat="46.980983"><ele>132.25</ele></trkpt>
<trkpt lon="2.143070" lat="46.980117"><ele>129.0</ele></trkpt>
<trkpt lon="2.142166" lat="46.979306"><ele>134.5</ele></trkpt>
<trkpt lon="2.140345" lat="46.977874"><ele>142.25</ele></trkpt>
<trkpt lon="2.139786" lat="46.977383"><ele>143.75</ele></trkpt>
<trkpt lon="2.139008" lat="46.976768"><ele>144.75</ele></trkpt>
<trkpt lon="2.138102" lat="46.976300"><ele>145.0</ele></trkpt>
<trkpt lon="2.133890" lat="46.974469"><ele>149.0</ele></trkpt>
<trkpt lon="2.129417" lat="46.972844"><ele>151.0</ele></trkpt>
<trkpt lon="2.126187" lat="46.971894"><ele>150.5</ele></trkpt>
<trkpt lon="2.126241" lat="46.971550"><ele>149.25</ele></trkpt>
<trkpt lon="2.126555" lat="46.970880"><ele>146.25</ele></trkpt>
<trkpt lon="2.126528" lat="46.970751"><ele>145.25</ele></trkpt>
<trkpt lon="2.126364" lat="46.970639"><ele>144.5</ele></trkpt>
<trkpt lon="2.125833" lat="46.970441"><ele>142.75</ele></trkpt>
<trkpt lon="2.125340" lat="46.970289"><ele>141.0</ele></trkpt>
<trkpt lon="2.124878" lat="46.970222"><ele>139.75</ele></trkpt>
<trkpt lon="2.124200" lat="46.970198"><ele>135.25</ele></trkpt>
<trkpt lon="2.123735" lat="46.970107"><ele>131.75</ele></trkpt>
<trkpt lon="2.121533" lat="46.969542"><ele>124.5</ele></trkpt>
<trkpt lon="2.121115" lat="46.969446"><ele>126.75</ele></trkpt>
<trkpt lon="2.119162" lat="46.968985"><ele>125.0</ele></trkpt>
<trkpt lon="2.118796" lat="46.968920"><ele>125.75</ele></trkpt>
<trkpt lon="2.118732" lat="46.968938"><ele>125.75</ele></trkpt>
<trkpt lon="2.118698" lat="46.968893"><ele>125.75</ele></trkpt>
<trkpt lon="2.117402" lat="46.968606"><ele>130.5</ele></trkpt>
<trkpt lon="2.116013" lat="46.968193"><ele>139.25</ele></trkpt>
<trkpt lon="2.115829" lat="46.968118"><ele>140.5</ele></trkpt>
<trkpt lon="2.112233" lat="46.965742"><ele>154.25</ele></trkpt>
<trkpt lon="2.108190" lat="46.963102"><ele>151.5</ele></trkpt>
<trkpt lon="2.107941" lat="46.963021"><ele>152.0</ele></trkpt>
<trkpt lon="2.105812" lat="46.962500"><ele>154.0</ele></trkpt>
<trkpt lon="2.105448" lat="46.962387"><ele>154.25</ele></trkpt>
<trkpt lon="2.104368" lat="46.961982"><ele>154.75</ele></trkpt>
<trkpt lon="2.101635" lat="46.961024"><ele>157.5</ele></trkpt>
<trkpt lon="2.098917" lat="46.960221"><ele>159.75</ele></trkpt>
<trkpt lon="2.097261" lat="46.959536"><ele>160.5</ele></trkpt>
<trkpt lon="2.096591" lat="46.959222"><ele>160.75</ele></trkpt>
<trkpt lon="2.096572" lat="46.959161"><ele>161.0</ele></trkpt>
<trkpt lon="2.095564" lat="46.957714"><ele>160.0</ele></trkpt>
<trkpt lon="2.090092" lat="46.957326"><ele>161.0</ele></trkpt>
<trkpt lon="2.084696" lat="46.956813"><ele>155.0</ele></trkpt>
<trkpt lon="2.080914" lat="46.956447"><ele>151.75</ele></trkpt>
<trkpt lon="2.080689" lat="46.956388"><ele>152.5</ele></trkpt>
<trkpt lon="2.079539" lat="46.956031"><ele>152.75</ele></trkpt>
<trkpt lon="2.079252" lat="46.955957"><ele>153.25</ele></trkpt>
<trkpt lon="2.076059" lat="46.955341"><ele>155.0</ele></trkpt>
<trkpt lon="2.073512" lat="46.954859"><ele>156.0</ele></trkpt>
<trkpt lon="2.070337" lat="46.954361"><ele>157.75</ele></trkpt>
<trkpt lon="2.070186" lat="46.954352"><ele>158.0</ele></trkpt>
<trkpt lon="2.070004" lat="46.954341"><ele>158.0</ele></trkpt>
<trkpt lon="2.069034" lat="46.954333"><ele>158.0</ele></trkpt>
<trkpt lon="2.066762" lat="46.954275"><ele>159.5</ele></trkpt>
<trkpt lon="2.064181" lat="46.954203"><ele>160.0</ele></trkpt>
<trkpt lon="2.063312" lat="46.954162"><ele>159.75</ele></trkpt>
<trkpt lon="2.062581" lat="46.954115"><ele>159.0</ele></trkpt>
<trkpt lon="2.061924" lat="46.954060"><ele>159.0</ele></trkpt>
<trkpt lon="2.061227" lat="46.954058"><ele>159.25</ele></trkpt>
<trkpt lon="2.058611" lat="46.954015"><ele>160.5</ele></trkpt>
<trkpt lon="2.058056" lat="46.954017"><ele>160.0</ele></trkpt>
<trkpt lon="2.056832" lat="46.954047"><ele>160.0</ele></trkpt>
<trkpt lon="2.056430" lat="46.954063"><ele>160.0</ele></trkpt>
<trkpt lon="2.055848" lat="46.954102"><ele>160.0</ele></trkpt>
<trkpt lon="2.054075" lat="46.954301"><ele>160.0</ele></trkpt>
<trkpt lon="2.053362" lat="46.954390"><ele>160.0</ele></trkpt>
<trkpt lon="2.053193" lat="46.954422"><ele>159.75</ele></trkpt>
<trkpt lon="2.051249" lat="46.954843"><ele>159.5</ele></trkpt>
<trkpt lon="2.051053" lat="46.954877"><ele>159.25</ele></trkpt>
<trkpt lon="2.050103" lat="46.954997"><ele>159.0</ele></trkpt>
<trkpt lon="2.047833" lat="46.955269"><ele>159.0</ele></trkpt>
<trkpt lon="2.047635" lat="46.955283"><ele>158.75</ele></trkpt>
<trkpt lon="2.047545" lat="46.955285"><ele>159.0</ele></trkpt>
<trkpt lon="2.047298" lat="46.955259"><ele>159.0</ele></trkpt>
<trkpt lon="2.046927" lat="46.955175"><ele>159.0</ele></trkpt>
<trkpt lon="2.046704" lat="46.955141"><ele>159.0</ele></trkpt>
<trkpt lon="2.046536" lat="46.955122"><ele>158.5</ele></trkpt>
<trkpt lon="2.044003" lat="46.954955"><ele>157.25</ele></trkpt>
<trkpt lon="2.043220" lat="46.954896"><ele>156.75</ele></trkpt>
<trkpt lon="2.042843" lat="46.954850"><ele>156.25</ele></trkpt>
<trkpt lon="2.042163" lat="46.954728"><ele>156.0</ele></trkpt>
<trkpt lon="2.040682" lat="46.954402"><ele>154.75</ele></trkpt>
<trkpt lon="2.039960" lat="46.954281"><ele>154.25</ele></trkpt>
<trkpt lon="2.039533" lat="46.954226"><ele>153.5</ele></trkpt>
<trkpt lon="2.039243" lat="46.954195"><ele>153.0</ele></trkpt>
<trkpt lon="2.038852" lat="46.954167"><ele>153.0</ele></trkpt>
<trkpt lon="2.037848" lat="46.954133"><ele>151.75</ele></trkpt>
<trkpt lon="2.037624" lat="46.954122"><ele>151.75</ele></trkpt>
<trkpt lon="2.037397" lat="46.954098"><ele>151.75</ele></trkpt>
<trkpt lon="2.036301" lat="46.953920"><ele>151.0</ele></trkpt>
<trkpt lon="2.035844" lat="46.953822"><ele>150.75</ele></trkpt>
<trkpt lon="2.035341" lat="46.953691"><ele>150.5</ele></trkpt>
<trkpt lon="2.034308" lat="46.953370"><ele>150.0</ele></trkpt>
<trkpt lon="2.033565" lat="46.953078"><ele>149.25</ele></trkpt>
<trkpt lon="2.032798" lat="46.952753"><ele>148.75</ele></trkpt>
<trkpt lon="2.032119" lat="46.952480"><ele>148.75</ele></trkpt>
<trkpt lon="2.031394" lat="46.952227"><ele>148.0</ele></trkpt>
<trkpt lon="2.030318" lat="46.951958"><ele>147.75</ele></trkpt>
<trkpt lon="2.029604" lat="46.951852"><ele>147.25</ele></trkpt>
<trkpt lon="2.028703" lat="46.951659"><ele>146.75</ele></trkpt>
<trkpt lon="2.027879" lat="46.951460"><ele>146.25</ele></trkpt>
<trkpt lon="2.027221" lat="46.951376"><ele>145.75</ele></trkpt>
<trkpt lon="2.026365" lat="46.951304"><ele>145.5</ele></trkpt>
<trkpt lon="2.023876" lat="46.951073"><ele>143.75</ele></trkpt>
<trkpt lon="2.022246" lat="46.950906"><ele>142.25</ele></trkpt>
<trkpt lon="2.021399" lat="46.950780"><ele>142.75</ele></trkpt>
<trkpt lon="2.020100" lat="46.950616"><ele>142.5</ele></trkpt>
<trkpt lon="2.017502" lat="46.950473"><ele>141.5</ele></trkpt>
<trkpt lon="2.015799" lat="46.950404"><ele>139.75</ele></trkpt>
<trkpt lon="2.015708" lat="46.950384"><ele>140.0</ele></trkpt>
<trkpt lon="2.014150" lat="46.950047"><ele>139.75</ele></trkpt>
<trkpt lon="2.013992" lat="46.950011"><ele>139.75</ele></trkpt>
<trkpt lon="2.013921" lat="46.949994"><ele>140.0</ele></trkpt>
<trkpt lon="2.013682" lat="46.949965"><ele>140.25</ele></trkpt>
<trkpt lon="2.013420" lat="46.949956"><ele>140.25</ele></trkpt>
<trkpt lon="2.013089" lat="46.949960"><ele>141.0</ele></trkpt>
<trkpt lon="2.012077" lat="46.950007"><ele>142.75</ele></trkpt>
<trkpt lon="2.011651" lat="46.949998"><ele>143.0</ele></trkpt>
<trkpt lon="2.010338" lat="46.949932"><ele>145.0</ele></trkpt>
<trkpt lon="2.010030" lat="46.949917"><ele>145.25</ele></trkpt>
<trkpt lon="2.009958" lat="46.949911"><ele>145.25</ele></trkpt>
<trkpt lon="2.009527" lat="46.949871"><ele>146.25</ele></trkpt>
<trkpt lon="2.008376" lat="46.949734"><ele>146.75</ele></trkpt>
<trkpt lon="2.007902" lat="46.949687"><ele>146.0</ele></trkpt>
<trkpt lon="2.007911" lat="46.949731"><ele>145.75</ele></trkpt>
<trkpt lon="2.007850" lat="46.949745"><ele>145.75</ele></trkpt>
<trkpt lon="2.007801" lat="46.949783"><ele>145.75</ele></trkpt>
<trkpt lon="2.007772" lat="46.949872"><ele>145.25</ele></trkpt>
<trkpt lon="2.007728" lat="46.949876"><ele>145.25</ele></trkpt>
<trkpt lon="2.007625" lat="46.949889"><ele>145.0</ele></trkpt>
<trkpt lon="2.007566" lat="46.949895"><ele>144.75</ele></trkpt>
<trkpt lon="2.007374" lat="46.949741"><ele>145.75</ele></trkpt>
<trkpt lon="2.007340" lat="46.949727"><ele>145.75</ele></trkpt>
<trkpt lon="2.007375" lat="46.949664"><ele>146.0</ele></trkpt>
<trkpt lon="2.007240" lat="46.949651"><ele>146.0</ele></trkpt>
<trkpt lon="2.006996" lat="46.949645"><ele>145.25</ele></trkpt>
<trkpt lon="2.006723" lat="46.949630"><ele>145.25</ele></trkpt>
<trkpt lon="2.006575" lat="46.949604"><ele>145.25</ele></trkpt>
<trkpt lon="2.006410" lat="46.949559"><ele>145.5</ele></trkpt>
<trkpt lon="2.005787" lat="46.949383"><ele>145.0</ele></trkpt>
<trkpt lon="2.005720" lat="46.949363"><ele>145.25</ele></trkpt>
<trkpt lon="2.005673" lat="46.949357"><ele>145.25</ele></trkpt>
<trkpt lon="2.005285" lat="46.949334"><ele>145.25</ele></trkpt>
<trkpt lon="2.004736" lat="46.949303"><ele>145.0</ele></trkpt>
<trkpt lon="2.003492" lat="46.949230"><ele>144.75</ele></trkpt>
<trkpt lon="2.003433" lat="46.949226"><ele>144.75</ele></trkpt>
<trkpt lon="2.003149" lat="46.949210"><ele>144.5</ele></trkpt>
<trkpt lon="2.002826" lat="46.949191"><ele>144.75</ele></trkpt>
<trkpt lon="2.002598" lat="46.949177"><ele>144.75</ele></trkpt>
<trkpt lon="2.002574" lat="46.949170"><ele>144.75</ele></trkpt>
<trkpt lon="2.002412" lat="46.949082"><ele>144.75</ele></trkpt>
<trkpt lon="2.002387" lat="46.949069"><ele>144.5</ele></trkpt>
<trkpt lon="2.002329" lat="46.949094"><ele>144.5</ele></trkpt>
<trkpt lon="2.002260" lat="46.949096"><ele>144.25</ele></trkpt>
<trkpt lon="2.002221" lat="46.949084"><ele>144.25</ele></trkpt>
<trkpt lon="2.002189" lat="46.949065"><ele>144.25</ele></trkpt>
<trkpt lon="2.002168" lat="46.949040"><ele>144.25</ele></trkpt>
<trkpt lon="2.002160" lat="46.949012"><ele>144.5</ele></trkpt>
<trkpt lon="2.002165" lat="46.948983"><ele>144.5</ele></trkpt>
<trkpt lon="2.002129" lat="46.948982"><ele>144.5</ele></trkpt>
<trkpt lon="2.001444" lat="46.948952"><ele>143.75</ele></trkpt>
<trkpt lon="2.001166" lat="46.948940"><ele>143.75</ele></trkpt>
<trkpt lon="2.001081" lat="46.948937"><ele>143.75</ele></trkpt>
<trkpt lon="2.000362" lat="46.948905"><ele>143.0</ele></trkpt>
<trkpt lon="1.999539" lat="46.948870"><ele>142.0</ele></trkpt>
<trkpt lon="1.999265" lat="46.948863"><ele>141.75</ele></trkpt>
<trkpt lon="1.998931" lat="46.948854"><ele>141.0</ele></trkpt>
<trkpt lon="1.998862" lat="46.948980"><ele>141.0</ele></trkpt>
<trkpt lon="1.998838" lat="46.949030"><ele>141.0</ele></trkpt>
<trkpt lon="1.998819" lat="46.949074"><ele>141.0</ele></trkpt>
<trkpt lon="1.998458" lat="46.949031"><ele>140.5</ele></trkpt>
<trkpt lon="1.998076" lat="46.948990"><ele>140.5</ele></trkpt>
<trkpt lon="1.997910" lat="46.948975"><ele>140.75</ele></trkpt>
<trkpt lon="1.997914" lat="46.949017"><ele>140.75</ele></trkpt>
<trkpt lon="1.997915" lat="46.949028"><ele>140.75</ele></trkpt>
<trkpt lon="1.997228" lat="46.949036"><ele>141.5</ele></trkpt>
<trkpt lon="1.997226" lat="46.948987"><ele>141.25</ele></trkpt>
<trkpt lon="1.997226" lat="46.948922"><ele>141.0</ele></trkpt>
<trkpt lon="1.997223" lat="46.948867"><ele>141.0</ele></trkpt>
<trkpt lon="1.997092" lat="46.948859"><ele>141.5</ele></trkpt>
<trkpt lon="1.996965" lat="46.948852"><ele>141.75</ele></trkpt>
<trkpt lon="1.996850" lat="46.948882"><ele>142.0</ele></trkpt>
<trkpt lon="1.996584" lat="46.948911"><ele>142.25</ele></trkpt>
<trkpt lon="1.996524" lat="46.948927"><ele>142.5</ele></trkpt>
<trkpt lon="1.996492" lat="46.948775"><ele>142.5</ele></trkpt>
<trkpt lon="1.996121" lat="46.948766"><ele>143.25</ele></trkpt>
<trkpt lon="1.996089" lat="46.948598"><ele>144.0</ele></trkpt>
<trkpt lon="1.996037" lat="46.948443"><ele>144.5</ele></trkpt>
<trkpt lon="1.995977" lat="46.948326"><ele>144.75</ele></trkpt>
<trkpt lon="1.995953" lat="46.948306"><ele>144.75</ele></trkpt>
<trkpt lon="1.995865" lat="46.948317"><ele>144.75</ele></trkpt>
<trkpt lon="1.995638" lat="46.948167"><ele>144.25</ele></trkpt>
<trkpt lon="1.995603" lat="46.947962"><ele>144.0</ele></trkpt>
<trkpt lon="1.994992" lat="46.948052"><ele>143.75</ele></trkpt>
<trkpt lon="1.994222" lat="46.948178"><ele>143.0</ele></trkpt>
<trkpt lon="1.994179" lat="46.948185"><ele>143.0</ele></trkpt>
<trkpt lon="1.993848" lat="46.948221"><ele>142.0</ele></trkpt>
<trkpt lon="1.993569" lat="46.948255"><ele>141.75</ele></trkpt>
<trkpt lon="1.993493" lat="46.948121"><ele>141.5</ele></trkpt>
<trkpt lon="1.993326" lat="46.947928"><ele>140.5</ele></trkpt>
<trkpt lon="1.993211" lat="46.947934"><ele>140.0</ele></trkpt>
  </trkseg></trk></gpx>
