<?xml version="1.0" encoding="UTF-8"?>
<gpx version="1.1" creator="compostel-brouter" xmlns="http://www.topografix.com/GPX/1/1">
  <metadata><name>FR-12-Chablis</name></metadata>
  <trk><name>FR-12-Chablis</name><trkseg>
<trkpt lon="3.973830" lat="47.856732"><ele>139.0</ele></trkpt>
<trkpt lon="3.973441" lat="47.856364"><ele>142.5</ele></trkpt>
<trkpt lon="3.973655" lat="47.856069"><ele>143.5</ele></trkpt>
<trkpt lon="3.973012" lat="47.855913"><ele>151.75</ele></trkpt>
<trkpt lon="3.973001" lat="47.855721"><ele>151.5</ele></trkpt>
<trkpt lon="3.972956" lat="47.855763"><ele>152.0</ele></trkpt>
<trkpt lon="3.972615" lat="47.855897"><ele>154.5</ele></trkpt>
<trkpt lon="3.972553" lat="47.855843"><ele>155.5</ele></trkpt>
<trkpt lon="3.972314" lat="47.855666"><ele>157.75</ele></trkpt>
<trkpt lon="3.972065" lat="47.855509"><ele>159.75</ele></trkpt>
<trkpt lon="3.971911" lat="47.855411"><ele>160.25</ele></trkpt>
<trkpt lon="3.971716" lat="47.855312"><ele>163.75</ele></trkpt>
<trkpt lon="3.971598" lat="47.855279"><ele>166.0</ele></trkpt>
<trkpt lon="3.971243" lat="47.855210"><ele>171.0</ele></trkpt>
<trkpt lon="3.971116" lat="47.855199"><ele>173.25</ele></trkpt>
<trkpt lon="3.971066" lat="47.855182"><ele>173.5</ele></trkpt>
<trkpt lon="3.970865" lat="47.855182"><ele>175.0</ele></trkpt>
<trkpt lon="3.970709" lat="47.855182"><ele>176.5</ele></trkpt>
<trkpt lon="3.970546" lat="47.855190"><ele>178.5</ele></trkpt>
<trkpt lon="3.970378" lat="47.855233"><ele>180.75</ele></trkpt>
<trkpt lon="3.970171" lat="47.855299"><ele>184.5</ele></trkpt>
<trkpt lon="3.970129" lat="47.855313"><ele>185.25</ele></trkpt>
<trkpt lon="3.969938" lat="47.855479"><ele>188.75</ele></trkpt>
<trkpt lon="3.969844" lat="47.855598"><ele>190.25</ele></trkpt>
<trkpt lon="3.969608" lat="47.855870"><ele>191.75</ele></trkpt>
<trkpt lon="3.969328" lat="47.856152"><ele>194.0</ele></trkpt>
<trkpt lon="3.969295" lat="47.856186"><ele>194.25</ele></trkpt>
<trkpt lon="3.969198" lat="47.856261"><ele>195.5</ele></trkpt>
<trkpt lon="3.969002" lat="47.856481"><ele>197.5</ele></trkpt>
<trkpt lon="3.968878" lat="47.856774"><ele>197.75</ele></trkpt>
<trkpt lon="3.968835" lat="47.856820"><ele>198.0</ele></trkpt>
<trkpt lon="3.968696" lat="47.856849"><ele>200.0</ele></trkpt>
<trkpt lon="3.968356" lat="47.856847"><ele>204.75</ele></trkpt>
<trkpt lon="3.967850" lat="47.857094"><ele>207.0</ele></trkpt>
<trkpt lon="3.967435" lat="47.857274"><ele>206.5</ele></trkpt>
<trkpt lon="3.967201" lat="47.857394"><ele>206.0</ele></trkpt>
<trkpt lon="3.966720" lat="47.857677"><ele>203.75</ele></trkpt>
<trkpt lon="3.966565" lat="47.857738"><ele>202.5</ele></trkpt>
<trkpt lon="3.966336" lat="47.857834"><ele>200.25</ele></trkpt>
<trkpt lon="3.965995" lat="47.857947"><ele>199.75</ele></trkpt>
<trkpt lon="3.965548" lat="47.858195"><ele>199.0</ele></trkpt>
<trkpt lon="3.964840" lat="47.858687"><ele>199.75</ele></trkpt>
<trkpt lon="3.964612" lat="47.858864"><ele>201.25</ele></trkpt>
<trkpt lon="3.964397" lat="47.859035"><ele>202.75</ele></trkpt>
<trkpt lon="3.964252" lat="47.859126"><ele>203.5</ele></trkpt>
<trkpt lon="3.964225" lat="47.859142"><ele>203.5</ele></trkpt>
<trkpt lon="3.964100" lat="47.859158"><ele>204.25</ele></trkpt>
<trkpt lon="3.963943" lat="47.859159"><ele>204.75</ele></trkpt>
<trkpt lon="3.963704" lat="47.859292"><ele>206.75</ele></trkpt>
<trkpt lon="3.963359" lat="47.859431"><ele>209.75</ele></trkpt>
<trkpt lon="3.963178" lat="47.859460"><ele>211.75</ele></trkpt>
<trkpt lon="3.963039" lat="47.859496"><ele>213.0</ele></trkpt>
<trkpt lon="3.962799" lat="47.859632"><ele>214.5</ele></trkpt>
<trkpt lon="3.962749" lat="47.859647"><ele>215.0</ele></trkpt>
<trkpt lon="3.962103" lat="47.860100"><ele>222.25</ele></trkpt>
<trkpt lon="3.961966" lat="47.860218"><ele>224.5</ele></trkpt>
<trkpt lon="3.961910" lat="47.860292"><ele>225.5</ele></trkpt>
<trkpt lon="3.961855" lat="47.860474"><ele>228.25</ele></trkpt>
<trkpt lon="3.961819" lat="47.860720"><ele>231.75</ele></trkpt>
<trkpt lon="3.961814" lat="47.861057"><ele>236.0</ele></trkpt>
<trkpt lon="3.961774" lat="47.861271"><ele>238.5</ele></trkpt>
<trkpt lon="3.961517" lat="47.861687"><ele>246.0</ele></trkpt>
<trkpt lon="3.961350" lat="47.861926"><ele>248.5</ele></trkpt>
<trkpt lon="3.961235" lat="47.862027"><ele>250.5</ele></trkpt>
<trkpt lon="3.961001" lat="47.862147"><ele>253.5</ele></trkpt>
<trkpt lon="3.960849" lat="47.862190"><ele>255.0</ele></trkpt>
<trkpt lon="3.960468" lat="47.862356"><ele>256.5</ele></trkpt>
<trkpt lon="3.960177" lat="47.862453"><ele>258.0</ele></trkpt>
<trkpt lon="3.959002" lat="47.862756"><ele>261.75</ele></trkpt>
<trkpt lon="3.958247" lat="47.863000"><ele>263.25</ele></trkpt>
<trkpt lon="3.957782" lat="47.863199"><ele>265.75</ele></trkpt>
<trkpt lon="3.957095" lat="47.863467"><ele>266.25</ele></trkpt>
<trkpt lon="3.956865" lat="47.863140"><ele>269.5</ele></trkpt>
<trkpt lon="3.956839" lat="47.863218"><ele>269.0</ele></trkpt>
<trkpt lon="3.956743" lat="47.863342"><ele>268.5</ele></trkpt>
<trkpt lon="3.956557" lat="47.863498"><ele>268.0</ele></trkpt>
<trkpt lon="3.956318" lat="47.863640"><ele>267.75</ele></trkpt>
<trkpt lon="3.955994" lat="47.863765"><ele>267.75</ele></trkpt>
<trkpt lon="3.955375" lat="47.863925"><ele>267.75</ele></trkpt>
<trkpt lon="3.954857" lat="47.864050"><ele>267.0</ele></trkpt>
<trkpt lon="3.954082" lat="47.864308"><ele>265.25</ele></trkpt>
<trkpt lon="3.953447" lat="47.864509"><ele>263.75</ele></trkpt>
<trkpt lon="3.952344" lat="47.864798"><ele>262.5</ele></trkpt>
<trkpt lon="3.951493" lat="47.865068"><ele>263.0</ele></trkpt>
<trkpt lon="3.951046" lat="47.865165"><ele>263.5</ele></trkpt>
<trkpt lon="3.950468" lat="47.865208"><ele>264.5</ele></trkpt>
<trkpt lon="3.949911" lat="47.865313"><ele>265.25</ele></trkpt>
<trkpt lon="3.948901" lat="47.865595"><ele>267.0</ele></trkpt>
<trkpt lon="3.947671" lat="47.865894"><ele>270.0</ele></trkpt>
<trkpt lon="3.947509" lat="47.865932"><ele>270.25</ele></trkpt>
<trkpt lon="3.946603" lat="47.866104"><ele>271.75</ele></trkpt>
<trkpt lon="3.945277" lat="47.866397"><ele>275.0</ele></trkpt>
<trkpt lon="3.944403" lat="47.866617"><ele>277.0</ele></trkpt>
<trkpt lon="3.942439" lat="47.867083"><ele>283.5</ele></trkpt>
<trkpt lon="3.942002" lat="47.867170"><ele>284.75</ele></trkpt>
<trkpt lon="3.941857" lat="47.867019"><ele>285.25</ele></trkpt>
<trkpt lon="3.941738" lat="47.867011"><ele>285.5</ele></trkpt>
<trkpt lon="3.941654" lat="47.867020"><ele>286.0</ele></trkpt>
<trkpt lon="3.941544" lat="47.867019"><ele>286.25</ele></trkpt>
<trkpt lon="3.940372" lat="47.866759"><ele>289.0</ele></trkpt>
<trkpt lon="3.939568" lat="47.866597"><ele>289.5</ele></trkpt>
<trkpt lon="3.939062" lat="47.866598"><ele>291.0</ele></trkpt>
<trkpt lon="3.938656" lat="47.866672"><ele>290.75</ele></trkpt>
<trkpt lon="3.937616" lat="47.866896"><ele>287.75</ele></trkpt>
<trkpt lon="3.937504" lat="47.866903"><ele>287.75</ele></trkpt>
<trkpt lon="3.936417" lat="47.866910"><ele>282.75</ele></trkpt>
<trkpt lon="3.935997" lat="47.866803"><ele>280.0</ele></trkpt>
<trkpt lon="3.935375" lat="47.866442"><ele>275.5</ele></trkpt>
<trkpt lon="3.934560" lat="47.865918"><ele>269.0</ele></trkpt>
<trkpt lon="3.933981" lat="47.865733"><ele>265.75</ele></trkpt>
<trkpt lon="3.932886" lat="47.865541"><ele>258.75</ele></trkpt>
<trkpt lon="3.932549" lat="47.865555"><ele>257.0</ele></trkpt>
<trkpt lon="3.932514" lat="47.865545"><ele>257.0</ele></trkpt>
<trkpt lon="3.932074" lat="47.865429"><ele>253.75</ele></trkpt>
<trkpt lon="3.931219" lat="47.865170"><ele>248.5</ele></trkpt>
<trkpt lon="3.929501" lat="47.864636"><ele>241.0</ele></trkpt>
<trkpt lon="3.928485" lat="47.864482"><ele>237.0</ele></trkpt>
<trkpt lon="3.928014" lat="47.864476"><ele>235.25</ele></trkpt>
<trkpt lon="3.927424" lat="47.864469"><ele>234.25</ele></trkpt>
<trkpt lon="3.925974" lat="47.864619"><ele>229.5</ele></trkpt>
<trkpt lon="3.925054" lat="47.864953"><ele>226.5</ele></trkpt>
<trkpt lon="3.924916" lat="47.864729"><ele>225.5</ele></trkpt>
<trkpt lon="3.924497" lat="47.864548"><ele>227.75</ele></trkpt>
<trkpt lon="3.923338" lat="47.863886"><ele>220.75</ele></trkpt>
<trkpt lon="3.922287" lat="47.863641"><ele>221.0</ele></trkpt>
<trkpt lon="3.921321" lat="47.863728"><ele>218.5</ele></trkpt>
<trkpt lon="3.920813" lat="47.863860"><ele>217.0</ele></trkpt>
<trkpt lon="3.920399" lat="47.864059"><ele>216.25</ele></trkpt>
<trkpt lon="3.920241" lat="47.864374"><ele>217.75</ele></trkpt>
<trkpt lon="3.920149" lat="47.864687"><ele>220.25</ele></trkpt>
<trkpt lon="3.919841" lat="47.865124"><ele>219.25</ele></trkpt>
<trkpt lon="3.919710" lat="47.865220"><ele>218.75</ele></trkpt>
<trkpt lon="3.919535" lat="47.865271"><ele>218.75</ele></trkpt>
<trkpt lon="3.919209" lat="47.865350"><ele>219.75</ele></trkpt>
<trkpt lon="3.919168" lat="47.865136"><ele>219.25</ele></trkpt>
<trkpt lon="3.919123" lat="47.865050"><ele>219.75</ele></trkpt>
<trkpt lon="3.919093" lat="47.864916"><ele>220.0</ele></trkpt>
<trkpt lon="3.919088" lat="47.864729"><ele>220.0</ele></trkpt>
<trkpt lon="3.919162" lat="47.864360"><ele>220.25</ele></trkpt>
<trkpt lon="3.919156" lat="47.864279"><ele>220.75</ele></trkpt>
<trkpt lon="3.919110" lat="47.864142"><ele>222.0</ele></trkpt>
<trkpt lon="3.918806" lat="47.863452"><ele>224.75</ele></trkpt>
<trkpt lon="3.918685" lat="47.863256"><ele>224.5</ele></trkpt>
<trkpt lon="3.918488" lat="47.862907"><ele>222.75</ele></trkpt>
<trkpt lon="3.917748" lat="47.862150"><ele>218.25</ele></trkpt>
<trkpt lon="3.917688" lat="47.862075"><ele>218.25</ele></trkpt>
<trkpt lon="3.917661" lat="47.861953"><ele>217.5</ele></trkpt>
<trkpt lon="3.917816" lat="47.861425"><ele>217.0</ele></trkpt>
<trkpt lon="3.917826" lat="47.861160"><ele>217.0</ele></trkpt>
<trkpt lon="3.917812" lat="47.860703"><ele>214.75</ele></trkpt>
<trkpt lon="3.917730" lat="47.860242"><ele>213.75</ele></trkpt>
<trkpt lon="3.917591" lat="47.859834"><ele>215.0</ele></trkpt>
<trkpt lon="3.917152" lat="47.859026"><ele>216.5</ele></trkpt>
<trkpt lon="3.916977" lat="47.858762"><ele>217.0</ele></trkpt>
<trkpt lon="3.916925" lat="47.858701"><ele>217.25</ele></trkpt>
<trkpt lon="3.916556" lat="47.858404"><ele>219.25</ele></trkpt>
<trkpt lon="3.916136" lat="47.858202"><ele>222.25</ele></trkpt>
<trkpt lon="3.916054" lat="47.858133"><ele>222.5</ele></trkpt>
<trkpt lon="3.915984" lat="47.858075"><ele>222.5</ele></trkpt>
<trkpt lon="3.915797" lat="47.857869"><ele>221.5</ele></trkpt>
<trkpt lon="3.915631" lat="47.857576"><ele>220.0</ele></trkpt>
<trkpt lon="3.915309" lat="47.857099"><ele>216.75</ele></trkpt>
<trkpt lon="3.914956" lat="47.856653"><ele>213.0</ele></trkpt>
<trkpt lon="3.914514" lat="47.856341"><ele>212.0</ele></trkpt>
<trkpt lon="3.914298" lat="47.856226"><ele>211.75</ele></trkpt>
<trkpt lon="3.914039" lat="47.856131"><ele>211.5</ele></trkpt>
<trkpt lon="3.913304" lat="47.855918"><ele>211.25</ele></trkpt>
<trkpt lon="3.912562" lat="47.855746"><ele>210.75</ele></trkpt>
<trkpt lon="3.912426" lat="47.855705"><ele>210.75</ele></trkpt>
<trkpt lon="3.912355" lat="47.855675"><ele>210.5</ele></trkpt>
<trkpt lon="3.912273" lat="47.855621"><ele>209.75</ele></trkpt>
<trkpt lon="3.912221" lat="47.855553"><ele>208.75</ele></trkpt>
<trkpt lon="3.912203" lat="47.855438"><ele>207.5</ele></trkpt>
<trkpt lon="3.912223" lat="47.854434"><ele>197.75</ele></trkpt>
<trkpt lon="3.912273" lat="47.853730"><ele>191.75</ele></trkpt>
<trkpt lon="3.912249" lat="47.853628"><ele>191.0</ele></trkpt>
<trkpt lon="3.912219" lat="47.853579"><ele>191.25</ele></trkpt>
<trkpt lon="3.912164" lat="47.853514"><ele>191.5</ele></trkpt>
<trkpt lon="3.911692" lat="47.853100"><ele>187.75</ele></trkpt>
<trkpt lon="3.911669" lat="47.853079"><ele>187.5</ele></trkpt>
<trkpt lon="3.910642" lat="47.853308"><ele>186.5</ele></trkpt>
<trkpt lon="3.910360" lat="47.853362"><ele>186.25</ele></trkpt>
<trkpt lon="3.910060" lat="47.853412"><ele>186.0</ele></trkpt>
<trkpt lon="3.909846" lat="47.853441"><ele>185.5</ele></trkpt>
<trkpt lon="3.909411" lat="47.853490"><ele>185.5</ele></trkpt>
<trkpt lon="3.906797" lat="47.853726"><ele>185.0</ele></trkpt>
<trkpt lon="3.906387" lat="47.853757"><ele>185.0</ele></trkpt>
<trkpt lon="3.906197" lat="47.853764"><ele>185.0</ele></trkpt>
<trkpt lon="3.905047" lat="47.853795"><ele>184.5</ele></trkpt>
<trkpt lon="3.904662" lat="47.853815"><ele>184.5</ele></trkpt>
<trkpt lon="3.904232" lat="47.853853"><ele>184.75</ele></trkpt>
<trkpt lon="3.903641" lat="47.853900"><ele>184.0</ele></trkpt>
<trkpt lon="3.902857" lat="47.854041"><ele>184.0</ele></trkpt>
<trkpt lon="3.902829" lat="47.853994"><ele>184.0</ele></trkpt>
<trkpt lon="3.902792" lat="47.853930"><ele>184.0</ele></trkpt>
<trkpt lon="3.902439" lat="47.853409"><ele>183.75</ele></trkpt>
<trkpt lon="3.902293" lat="47.853197"><ele>184.0</ele></trkpt>
<trkpt lon="3.902150" lat="47.852987"><ele>184.0</ele></trkpt>
<trkpt lon="3.902108" lat="47.852910"><ele>184.5</ele></trkpt>
<trkpt lon="3.901942" lat="47.852604"><ele>185.5</ele></trkpt>
<trkpt lon="3.901909" lat="47.852543"><ele>185.75</ele></trkpt>
<trkpt lon="3.901871" lat="47.852424"><ele>186.25</ele></trkpt>
<trkpt lon="3.901865" lat="47.852199"><ele>187.75</ele></trkpt>
<trkpt lon="3.901785" lat="47.852193"><ele>187.5</ele></trkpt>
<trkpt lon="3.901669" lat="47.852121"><ele>187.5</ele></trkpt>
<trkpt lon="3.901487" lat="47.851970"><ele>188.75</ele></trkpt>
<trkpt lon="3.901370" lat="47.851981"><ele>188.5</ele></trkpt>
<trkpt lon="3.901034" lat="47.851854"><ele>188.75</ele></trkpt>
<trkpt lon="3.900875" lat="47.851758"><ele>189.5</ele></trkpt>
<trkpt lon="3.900716" lat="47.851621"><ele>191.0</ele></trkpt>
<trkpt lon="3.900535" lat="47.851403"><ele>193.0</ele></trkpt>
<trkpt lon="3.899994" lat="47.851600"><ele>196.25</ele></trkpt>
<trkpt lon="3.899549" lat="47.851736"><ele>198.5</ele></trkpt>
<trkpt lon="3.899315" lat="47.851789"><ele>200.0</ele></trkpt>
<trkpt lon="3.898853" lat="47.851883"><ele>201.5</ele></trkpt>
<trkpt lon="3.898760" lat="47.851902"><ele>201.75</ele></trkpt>
<trkpt lon="3.898137" lat="47.852016"><ele>201.5</ele></trkpt>
<trkpt lon="3.896963" lat="47.852193"><ele>200.25</ele></trkpt>
<trkpt lon="3.896790" lat="47.852207"><ele>200.0</ele></trkpt>
<trkpt lon="3.896158" lat="47.852177"><ele>200.5</ele></trkpt>
<trkpt lon="3.895706" lat="47.852129"><ele>201.25</ele></trkpt>
<trkpt lon="3.895230" lat="47.852066"><ele>201.5</ele></trkpt>
<trkpt lon="3.894851" lat="47.851981"><ele>202.0</ele></trkpt>
<trkpt lon="3.894441" lat="47.851817"><ele>202.75</ele></trkpt>
<trkpt lon="3.894201" lat="47.851695"><ele>203.5</ele></trkpt>
<trkpt lon="3.893867" lat="47.851514"><ele>204.0</ele></trkpt>
<trkpt lon="3.893697" lat="47.851392"><ele>204.5</ele></trkpt>
<trkpt lon="3.893085" lat="47.850861"><ele>206.0</ele></trkpt>
<trkpt lon="3.892507" lat="47.850534"><ele>204.0</ele></trkpt>
<trkpt lon="3.892269" lat="47.850337"><ele>203.25</ele></trkpt>
<trkpt lon="3.892045" lat="47.850099"><ele>203.75</ele></trkpt>
<trkpt lon="3.891795" lat="47.849724"><ele>206.5</ele></trkpt>
<trkpt lon="3.891703" lat="47.849624"><ele>207.75</ele></trkpt>
<trkpt lon="3.891592" lat="47.849522"><ele>209.5</ele></trkpt>
<trkpt lon="3.891397" lat="47.849355"><ele>212.5</ele></trkpt>
<trkpt lon="3.891184" lat="47.849121"><ele>217.5</ele></trkpt>
<trkpt lon="3.890790" lat="47.848609"><ele>226.25</ele></trkpt>
<trkpt lon="3.890547" lat="47.848252"><ele>233.25</ele></trkpt>
<trkpt lon="3.890427" lat="47.848106"><ele>236.25</ele></trkpt>
<trkpt lon="3.889824" lat="47.847634"><ele>244.0</ele></trkpt>
<trkpt lon="3.889541" lat="47.847395"><ele>247.25</ele></trkpt>
<trkpt lon="3.888654" lat="47.846711"><ele>253.5</ele></trkpt>
<trkpt lon="3.888397" lat="47.846524"><ele>254.25</ele></trkpt>
<trkpt lon="3.888221" lat="47.846430"><ele>254.75</ele></trkpt>
<trkpt lon="3.888138" lat="47.846399"><ele>254.75</ele></trkpt>
<trkpt lon="3.887709" lat="47.846193"><ele>255.0</ele></trkpt>
<trkpt lon="3.886818" lat="47.845827"><ele>254.0</ele></trkpt>
<trkpt lon="3.885932" lat="47.845382"><ele>252.25</ele></trkpt>
<trkpt lon="3.885746" lat="47.845298"><ele>252.0</ele></trkpt>
<trkpt lon="3.885105" lat="47.844905"><ele>249.75</ele></trkpt>
<trkpt lon="3.885007" lat="47.844850"><ele>249.25</ele></trkpt>
<trkpt lon="3.884732" lat="47.844696"><ele>247.0</ele></trkpt>
<trkpt lon="3.884275" lat="47.844470"><ele>244.0</ele></trkpt>
<trkpt lon="3.883815" lat="47.844253"><ele>241.75</ele></trkpt>
<trkpt lon="3.882385" lat="47.843570"><ele>230.5</ele></trkpt>
<trkpt lon="3.881233" lat="47.843088"><ele>222.25</ele></trkpt>
<trkpt lon="3.880370" lat="47.842773"><ele>215.5</ele></trkpt>
<trkpt lon="3.879901" lat="47.842719"><ele>212.75</ele></trkpt>
<trkpt lon="3.879513" lat="47.842732"><ele>210.75</ele></trkpt>
<trkpt lon="3.879061" lat="47.842791"><ele>208.25</ele></trkpt>
<trkpt lon="3.878917" lat="47.842822"><ele>207.75</ele></trkpt>
<trkpt lon="3.878734" lat="47.842843"><ele>207.0</ele></trkpt>
<trkpt lon="3.878567" lat="47.842845"><ele>206.25</ele></trkpt>
<trkpt lon="3.878357" lat="47.842824"><ele>205.25</ele></trkpt>
<trkpt lon="3.878185" lat="47.842789"><ele>205.5</ele></trkpt>
<trkpt lon="3.878024" lat="47.842768"><ele>206.0</ele></trkpt>
<trkpt lon="3.877862" lat="47.842774"><ele>206.0</ele></trkpt>
<trkpt lon="3.877688" lat="47.842795"><ele>206.0</ele></trkpt>
<trkpt lon="3.877429" lat="47.842909"><ele>206.5</ele></trkpt>
<trkpt lon="3.876767" lat="47.843238"><ele>209.0</ele></trkpt>
<trkpt lon="3.876571" lat="47.843325"><ele>209.75</ele></trkpt>
<trkpt lon="3.876509" lat="47.843352"><ele>209.75</ele></trkpt>
<trkpt lon="3.876219" lat="47.843401"><ele>210.0</ele></trkpt>
<trkpt lon="3.875913" lat="47.843387"><ele>210.5</ele></trkpt>
<trkpt lon="3.875147" lat="47.843320"><ele>209.5</ele></trkpt>
<trkpt lon="3.874322" lat="47.843184"><ele>209.5</ele></trkpt>
<trkpt lon="3.873795" lat="47.843166"><ele>209.5</ele></trkpt>
<trkpt lon="3.873642" lat="47.843225"><ele>209.75</ele></trkpt>
<trkpt lon="3.873422" lat="47.843347"><ele>211.25</ele></trkpt>
<trkpt lon="3.873310" lat="47.843423"><ele>212.5</ele></trkpt>
<trkpt lon="3.873218" lat="47.843441"><ele>213.0</ele></trkpt>
<trkpt lon="3.872883" lat="47.843414"><ele>214.25</ele></trkpt>
<trkpt lon="3.872758" lat="47.843412"><ele>215.0</ele></trkpt>
<trkpt lon="3.872345" lat="47.843182"><ele>217.25</ele></trkpt>
<trkpt lon="3.872341" lat="47.843084"><ele>217.75</ele></trkpt>
<trkpt lon="3.872032" lat="47.842800"><ele>221.0</ele></trkpt>
<trkpt lon="3.871930" lat="47.842745"><ele>222.0</ele></trkpt>
<trkpt lon="3.871734" lat="47.842594"><ele>224.0</ele></trkpt>
<trkpt lon="3.871457" lat="47.842316"><ele>228.25</ele></trkpt>
<trkpt lon="3.871302" lat="47.842241"><ele>230.0</ele></trkpt>
<trkpt lon="3.871110" lat="47.842232"><ele>230.75</ele></trkpt>
<trkpt lon="3.870854" lat="47.842202"><ele>232.25</ele></trkpt>
<trkpt lon="3.870617" lat="47.842121"><ele>234.5</ele></trkpt>
<trkpt lon="3.870245" lat="47.841751"><ele>240.0</ele></trkpt>
<trkpt lon="3.870092" lat="47.841515"><ele>242.75</ele></trkpt>
<trkpt lon="3.869709" lat="47.841241"><ele>245.5</ele></trkpt>
<trkpt lon="3.869057" lat="47.840933"><ele>249.0</ele></trkpt>
<trkpt lon="3.868181" lat="47.840610"><ele>252.5</ele></trkpt>
<trkpt lon="3.867046" lat="47.840131"><ele>256.5</ele></trkpt>
<trkpt lon="3.866373" lat="47.839835"><ele>259.0</ele></trkpt>
<trkpt lon="3.865629" lat="47.839478"><ele>260.75</ele></trkpt>
<trkpt lon="3.865556" lat="47.839424"><ele>261.0</ele></trkpt>
<trkpt lon="3.865428" lat="47.839401"><ele>261.5</ele></trkpt>
<trkpt lon="3.864642" lat="47.839132"><ele>264.25</ele></trkpt>
<trkpt lon="3.864017" lat="47.838935"><ele>265.75</ele></trkpt>
<trkpt lon="3.863164" lat="47.838702"><ele>268.25</ele></trkpt>
<trkpt lon="3.862913" lat="47.838659"><ele>268.75</ele></trkpt>
<trkpt lon="3.862419" lat="47.838511"><ele>270.0</ele></trkpt>
<trkpt lon="3.861023" lat="47.838062"><ele>271.0</ele></trkpt>
<trkpt lon="3.859943" lat="47.837781"><ele>269.0</ele></trkpt>
<trkpt lon="3.859344" lat="47.837649"><ele>268.0</ele></trkpt>
<trkpt lon="3.858202" lat="47.837448"><ele>267.5</ele></trkpt>
<trkpt lon="3.858042" lat="47.837401"><ele>267.25</ele></trkpt>
<trkpt lon="3.857421" lat="47.837241"><ele>267.75</ele></trkpt>
<trkpt lon="3.856978" lat="47.837050"><ele>268.25</ele></trkpt>
<trkpt lon="3.856258" lat="47.836759"><ele>268.0</ele></trkpt>
<trkpt lon="3.855647" lat="47.836644"><ele>269.25</ele></trkpt>
<trkpt lon="3.854494" lat="47.836504"><ele>269.75</ele></trkpt>
<trkpt lon="3.853113" lat="47.836516"><ele>268.25</ele></trkpt>
<trkpt lon="3.852614" lat="47.836503"><ele>269.0</ele></trkpt>
<trkpt lon="3.852117" lat="47.836432"><ele>269.75</ele></trkpt>
<trkpt lon="3.851196" lat="47.836194"><ele>271.0</ele></trkpt>
<trkpt lon="3.850843" lat="47.836071"><ele>271.25</ele></trkpt>
<trkpt lon="3.850125" lat="47.835510"><ele>270.0</ele></trkpt>
<trkpt lon="3.849159" lat="47.834814"><ele>268.25</ele></trkpt>
<trkpt lon="3.848156" lat="47.834108"><ele>268.0</ele></trkpt>
<trkpt lon="3.847583" lat="47.833642"><ele>267.5</ele></trkpt>
<trkpt lon="3.847055" lat="47.833185"><ele>268.75</ele></trkpt>
<trkpt lon="3.846119" lat="47.832312"><ele>272.75</ele></trkpt>
<trkpt lon="3.845826" lat="47.831957"><ele>275.0</ele></trkpt>
<trkpt lon="3.845487" lat="47.831562"><ele>276.75</ele></trkpt>
<trkpt lon="3.845257" lat="47.831344"><ele>276.75</ele></trkpt>
<trkpt lon="3.844777" lat="47.830905"><ele>277.25</ele></trkpt>
<trkpt lon="3.844563" lat="47.830697"><ele>276.0</ele></trkpt>
<trkpt lon="3.844237" lat="47.830453"><ele>275.25</ele></trkpt>
<trkpt lon="3.843726" lat="47.830173"><ele>274.25</ele></trkpt>
<trkpt lon="3.843493" lat="47.830063"><ele>274.0</ele></trkpt>
<trkpt lon="3.841549" lat="47.828910"><ele>271.5</ele></trkpt>
<trkpt lon="3.840194" lat="47.828211"><ele>271.5</ele></trkpt>
<trkpt lon="3.839839" lat="47.827991"><ele>271.5</ele></trkpt>
<trkpt lon="3.839522" lat="47.827727"><ele>271.5</ele></trkpt>
<trkpt lon="3.839177" lat="47.827373"><ele>271.75</ele></trkpt>
<trkpt lon="3.839023" lat="47.827230"><ele>272.0</ele></trkpt>
<trkpt lon="3.838996" lat="47.827205"><ele>272.0</ele></trkpt>
<trkpt lon="3.838818" lat="47.827085"><ele>272.25</ele></trkpt>
<trkpt lon="3.838468" lat="47.826949"><ele>272.25</ele></trkpt>
<trkpt lon="3.837887" lat="47.826724"><ele>271.75</ele></trkpt>
<trkpt lon="3.837039" lat="47.826301"><ele>270.75</ele></trkpt>
<trkpt lon="3.836582" lat="47.826099"><ele>270.75</ele></trkpt>
<trkpt lon="3.834592" lat="47.825342"><ele>270.75</ele></trkpt>
<trkpt lon="3.833060" lat="47.824608"><ele>268.5</ele></trkpt>
<trkpt lon="3.832156" lat="47.824153"><ele>267.75</ele></trkpt>
<trkpt lon="3.832037" lat="47.824073"><ele>267.5</ele></trkpt>
<trkpt lon="3.831469" lat="47.823683"><ele>266.25</ele></trkpt>
<trkpt lon="3.830897" lat="47.823229"><ele>264.5</ele></trkpt>
<trkpt lon="3.830254" lat="47.822805"><ele>263.25</ele></trkpt>
<trkpt lon="3.829552" lat="47.822304"><ele>261.75</ele></trkpt>
<trkpt lon="3.828950" lat="47.821778"><ele>260.25</ele></trkpt>
<trkpt lon="3.826965" lat="47.820301"><ele>253.25</ele></trkpt>
<trkpt lon="3.826107" lat="47.819676"><ele>247.5</ele></trkpt>
<trkpt lon="3.825751" lat="47.819343"><ele>245.0</ele></trkpt>
<trkpt lon="3.825273" lat="47.818946"><ele>242.25</ele></trkpt>
<trkpt lon="3.824943" lat="47.818676"><ele>239.0</ele></trkpt>
<trkpt lon="3.824462" lat="47.818163"><ele>233.0</ele></trkpt>
<trkpt lon="3.824327" lat="47.818067"><ele>231.5</ele></trkpt>
<trkpt lon="3.824161" lat="47.817992"><ele>230.5</ele></trkpt>
<trkpt lon="3.823625" lat="47.817794"><ele>226.0</ele></trkpt>
<trkpt lon="3.820431" lat="47.816539"><ele>198.0</ele></trkpt>
<trkpt lon="3.819986" lat="47.816477"><ele>194.75</ele></trkpt>
<trkpt lon="3.819586" lat="47.816396"><ele>191.0</ele></trkpt>
<trkpt lon="3.817685" lat="47.816188"><ele>176.75</ele></trkpt>
<trkpt lon="3.817331" lat="47.816137"><ele>174.25</ele></trkpt>
<trkpt lon="3.816644" lat="47.816022"><ele>170.0</ele></trkpt>
<trkpt lon="3.814960" lat="47.815604"><ele>158.5</ele></trkpt>
<trkpt lon="3.814796" lat="47.815590"><ele>157.25</ele></trkpt>
<trkpt lon="3.814479" lat="47.815563"><ele>156.0</ele></trkpt>
<trkpt lon="3.813978" lat="47.815544"><ele>152.5</ele></trkpt>
<trkpt lon="3.814033" lat="47.815433"><ele>153.75</ele></trkpt>
<trkpt lon="3.813842" lat="47.814975"><ele>153.75</ele></trkpt>
<trkpt lon="3.813864" lat="47.814326"><ele>152.75</ele></trkpt>
<trkpt lon="3.813810" lat="47.813816"><ele>151.5</ele></trkpt>
<trkpt lon="3.813644" lat="47.813392"><ele>150.25</ele></trkpt>
<trkpt lon="3.813421" lat="47.813036"><ele>149.0</ele></trkpt>
<trkpt lon="3.813343" lat="47.813023"><ele>148.75</ele></trkpt>
<trkpt lon="3.813146" lat="47.812957"><ele>147.75</ele></trkpt>
<trkpt lon="3.812427" lat="47.812748"><ele>145.5</ele></trkpt>
<trkpt lon="3.812131" lat="47.812658"><ele>144.25</ele></trkpt>
<trkpt lon="3.812091" lat="47.812615"><ele>144.0</ele></trkpt>
<trkpt lon="3.812017" lat="47.812604"><ele>144.0</ele></trkpt>
<trkpt lon="3.812405" lat="47.812043"><ele>145.5</ele></trkpt>
<trkpt lon="3.812600" lat="47.811797"><ele>146.5</ele></trkpt>
<trkpt lon="3.812375" lat="47.811912"><ele>145.75</ele></trkpt>
<trkpt lon="3.812280" lat="47.811970"><ele>145.75</ele></trkpt>
<trkpt lon="3.812210" lat="47.811915"><ele>145.75</ele></trkpt>
<trkpt lon="3.812173" lat="47.811886"><ele>145.25</ele></trkpt>
<trkpt lon="3.811725" lat="47.811608"><ele>142.5</ele></trkpt>
<trkpt lon="3.811073" lat="47.811492"><ele>138.25</ele></trkpt>
<trkpt lon="3.810807" lat="47.811473"><ele>136.5</ele></trkpt>
<trkpt lon="3.810568" lat="47.811533"><ele>135.5</ele></trkpt>
<trkpt lon="3.810458" lat="47.811623"><ele>135.0</ele></trkpt>
<trkpt lon="3.810222" lat="47.811913"><ele>134.0</ele></trkpt>
<trkpt lon="3.809972" lat="47.812108"><ele>134.0</ele></trkpt>
<trkpt lon="3.809690" lat="47.812273"><ele>134.0</ele></trkpt>
<trkpt lon="3.809271" lat="47.812467"><ele>133.75</ele></trkpt>
<trkpt lon="3.808498" lat="47.812804"><ele>134.0</ele></trkpt>
<trkpt lon="3.806791" lat="47.813549"><ele>133.0</ele></trkpt>
<trkpt lon="3.806571" lat="47.813621"><ele>133.0</ele></trkpt>
<trkpt lon="3.806452" lat="47.813647"><ele>133.0</ele></trkpt>
<trkpt lon="3.806358" lat="47.813479"><ele>132.0</ele></trkpt>
<trkpt lon="3.806245" lat="47.813273"><ele>131.75</ele></trkpt>
<trkpt lon="3.806201" lat="47.813204"><ele>132.25</ele></trkpt>
<trkpt lon="3.806118" lat="47.813115"><ele>132.75</ele></trkpt>
<trkpt lon="3.806092" lat="47.813085"><ele>132.75</ele></trkpt>
<trkpt lon="3.806079" lat="47.813056"><ele>132.75</ele></trkpt>
<trkpt lon="3.806085" lat="47.813028"><ele>132.75</ele></trkpt>
<trkpt lon="3.805981" lat="47.813007"><ele>132.5</ele></trkpt>
<trkpt lon="3.805792" lat="47.812984"><ele>132.25</ele></trkpt>
<trkpt lon="3.805734" lat="47.812980"><ele>132.5</ele></trkpt>
<trkpt lon="3.805058" lat="47.813200"><ele>132.25</ele></trkpt>
<trkpt lon="3.804994" lat="47.813229"><ele>132.25</ele></trkpt>
<trkpt lon="3.804850" lat="47.813334"><ele>132.5</ele></trkpt>
<trkpt lon="3.804812" lat="47.813354"><ele>132.5</ele></trkpt>
<trkpt lon="3.804781" lat="47.813359"><ele>132.5</ele></trkpt>
<trkpt lon="3.804741" lat="47.813349"><ele>132.75</ele></trkpt>
<trkpt lon="3.804084" lat="47.813120"><ele>133.75</ele></trkpt>
<trkpt lon="3.804043" lat="47.813095"><ele>133.75</ele></trkpt>
<trkpt lon="3.803887" lat="47.812992"><ele>134.0</ele></trkpt>
<trkpt lon="3.803835" lat="47.812965"><ele>134.0</ele></trkpt>
<trkpt lon="3.803810" lat="47.812990"><ele>134.0</ele></trkpt>
<trkpt lon="3.803724" lat="47.813049"><ele>134.0</ele></trkpt>
<trkpt lon="3.803562" lat="47.813148"><ele>133.5</ele></trkpt>
<trkpt lon="3.803232" lat="47.813317"><ele>133.25</ele></trkpt>
<trkpt lon="3.802797" lat="47.813619"><ele>133.75</ele></trkpt>
<trkpt lon="3.802207" lat="47.814138"><ele>134.0</ele></trkpt>
<trkpt lon="3.802125" lat="47.814121"><ele>134.0</ele></trkpt>
<trkpt lon="3.801210" lat="47.813869"><ele>137.5</ele></trkpt>
<trkpt lon="3.801133" lat="47.813848"><ele>138.0</ele></trkpt>
<trkpt lon="3.800540" lat="47.813638"><ele>139.75</ele></trkpt>
<trkpt lon="3.800413" lat="47.813583"><ele>140.0</ele></trkpt>
<trkpt lon="3.799176" lat="47.813334"><ele>141.75</ele></trkpt>
<trkpt lon="3.798797" lat="47.813477"><ele>141.25</ele></trkpt>
  </trkseg></trk></gpx>
