<?xml version="1.0" encoding="UTF-8"?>
<gpx version="1.1" creator="compostel-brouter" xmlns="http://www.topografix.com/GPX/1/1">
  <metadata><name>FR-10-Les-Riceys</name></metadata>
  <trk><name>FR-10-Les-Riceys</name><trkseg>
<trkpt lon="4.370881" lat="48.112754"><ele>192.5</ele></trkpt>
<trkpt lon="4.371161" lat="48.112979"><ele>193.75</ele></trkpt>
<trkpt lon="4.371511" lat="48.113195"><ele>193.5</ele></trkpt>
<trkpt lon="4.371867" lat="48.113287"><ele>193.0</ele></trkpt>
<trkpt lon="4.372339" lat="48.113244"><ele>192.5</ele></trkpt>
<trkpt lon="4.372407" lat="48.113241"><ele>192.0</ele></trkpt>
<trkpt lon="4.372441" lat="48.113140"><ele>191.75</ele></trkpt>
<trkpt lon="4.372446" lat="48.113051"><ele>191.75</ele></trkpt>
<trkpt lon="4.372392" lat="48.112865"><ele>194.25</ele></trkpt>
<trkpt lon="4.372416" lat="48.112554"><ele>198.5</ele></trkpt>
<trkpt lon="4.372509" lat="48.111989"><ele>197.75</ele></trkpt>
<trkpt lon="4.372600" lat="48.111843"><ele>193.5</ele></trkpt>
<trkpt lon="4.372648" lat="48.111652"><ele>191.5</ele></trkpt>
<trkpt lon="4.372638" lat="48.111547"><ele>191.25</ele></trkpt>
<trkpt lon="4.372591" lat="48.111356"><ele>192.0</ele></trkpt>
<trkpt lon="4.372656" lat="48.111340"><ele>190.75</ele></trkpt>
<trkpt lon="4.372709" lat="48.111294"><ele>190.0</ele></trkpt>
<trkpt lon="4.372751" lat="48.111187"><ele>190.5</ele></trkpt>
<trkpt lon="4.372777" lat="48.111074"><ele>191.5</ele></trkpt>
<trkpt lon="4.372838" lat="48.111054"><ele>189.5</ele></trkpt>
<trkpt lon="4.372884" lat="48.111093"><ele>187.0</ele></trkpt>
<trkpt lon="4.372898" lat="48.111187"><ele>185.25</ele></trkpt>
<trkpt lon="4.372907" lat="48.111403"><ele>182.25</ele></trkpt>
<trkpt lon="4.372953" lat="48.111449"><ele>180.25</ele></trkpt>
<trkpt lon="4.373011" lat="48.111453"><ele>178.0</ele></trkpt>
<trkpt lon="4.373193" lat="48.111257"><ele>173.25</ele></trkpt>
<trkpt lon="4.373227" lat="48.111285"><ele>171.75</ele></trkpt>
<trkpt lon="4.373241" lat="48.111379"><ele>171.0</ele></trkpt>
<trkpt lon="4.373237" lat="48.111653"><ele>167.75</ele></trkpt>
<trkpt lon="4.373283" lat="48.111665"><ele>166.0</ele></trkpt>
<trkpt lon="4.373435" lat="48.111594"><ele>161.75</ele></trkpt>
<trkpt lon="4.373593" lat="48.111614"><ele>156.75</ele></trkpt>
<trkpt lon="4.373672" lat="48.111667"><ele>155.75</ele></trkpt>
<trkpt lon="4.374010" lat="48.111699"><ele>155.0</ele></trkpt>
<trkpt lon="4.374075" lat="48.111413"><ele>155.25</ele></trkpt>
<trkpt lon="4.374125" lat="48.111198"><ele>155.5</ele></trkpt>
<trkpt lon="4.374211" lat="48.110820"><ele>155.0</ele></trkpt>
<trkpt lon="4.374230" lat="48.110736"><ele>155.0</ele></trkpt>
<trkpt lon="4.374365" lat="48.110422"><ele>155.0</ele></trkpt>
<trkpt lon="4.374583" lat="48.109986"><ele>155.25</ele></trkpt>
<trkpt lon="4.374873" lat="48.109406"><ele>155.0</ele></trkpt>
<trkpt lon="4.375157" lat="48.108980"><ele>155.0</ele></trkpt>
<trkpt lon="4.375285" lat="48.108677"><ele>155.0</ele></trkpt>
<trkpt lon="4.375924" lat="48.106991"><ele>155.0</ele></trkpt>
<trkpt lon="4.375945" lat="48.106938"><ele>155.0</ele></trkpt>
<trkpt lon="4.376134" lat="48.106454"><ele>155.0</ele></trkpt>
<trkpt lon="4.376167" lat="48.106371"><ele>155.0</ele></trkpt>
<trkpt lon="4.376172" lat="48.106149"><ele>155.0</ele></trkpt>
<trkpt lon="4.376261" lat="48.105911"><ele>155.0</ele></trkpt>
<trkpt lon="4.376300" lat="48.105850"><ele>155.0</ele></trkpt>
<trkpt lon="4.376327" lat="48.105836"><ele>155.0</ele></trkpt>
<trkpt lon="4.376263" lat="48.105782"><ele>155.0</ele></trkpt>
<trkpt lon="4.376254" lat="48.105757"><ele>155.0</ele></trkpt>
<trkpt lon="4.376270" lat="48.105695"><ele>155.0</ele></trkpt>
<trkpt lon="4.376314" lat="48.105586"><ele>155.0</ele></trkpt>
<trkpt lon="4.376344" lat="48.105546"><ele>155.0</ele></trkpt>
<trkpt lon="4.376124" lat="48.105438"><ele>155.0</ele></trkpt>
<trkpt lon="4.375929" lat="48.105395"><ele>155.0</ele></trkpt>
<trkpt lon="4.376133" lat="48.104853"><ele>155.5</ele></trkpt>
<trkpt lon="4.376278" lat="48.104490"><ele>156.0</ele></trkpt>
<trkpt lon="4.376271" lat="48.104465"><ele>155.75</ele></trkpt>
<trkpt lon="4.376241" lat="48.104440"><ele>155.75</ele></trkpt>
<trkpt lon="4.375984" lat="48.104394"><ele>155.75</ele></trkpt>
<trkpt lon="4.375626" lat="48.104331"><ele>156.0</ele></trkpt>
<trkpt lon="4.375647" lat="48.104176"><ele>156.25</ele></trkpt>
<trkpt lon="4.375633" lat="48.104068"><ele>156.25</ele></trkpt>
<trkpt lon="4.375636" lat="48.103994"><ele>156.25</ele></trkpt>
<trkpt lon="4.375752" lat="48.103218"><ele>156.25</ele></trkpt>
<trkpt lon="4.375842" lat="48.102907"><ele>155.75</ele></trkpt>
<trkpt lon="4.375934" lat="48.102352"><ele>156.25</ele></trkpt>
<trkpt lon="4.375953" lat="48.102039"><ele>156.5</ele></trkpt>
<trkpt lon="4.375942" lat="48.101741"><ele>156.5</ele></trkpt>
<trkpt lon="4.375970" lat="48.101345"><ele>156.5</ele></trkpt>
<trkpt lon="4.376017" lat="48.101174"><ele>156.25</ele></trkpt>
<trkpt lon="4.376070" lat="48.101020"><ele>156.0</ele></trkpt>
<trkpt lon="4.376265" lat="48.100551"><ele>155.75</ele></trkpt>
<trkpt lon="4.376313" lat="48.100376"><ele>155.5</ele></trkpt>
<trkpt lon="4.376328" lat="48.100273"><ele>155.25</ele></trkpt>
<trkpt lon="4.376333" lat="48.100034"><ele>155.25</ele></trkpt>
<trkpt lon="4.376288" lat="48.099771"><ele>155.5</ele></trkpt>
<trkpt lon="4.376276" lat="48.099343"><ele>155.5</ele></trkpt>
<trkpt lon="4.376255" lat="48.099234"><ele>155.5</ele></trkpt>
<trkpt lon="4.376165" lat="48.099013"><ele>155.75</ele></trkpt>
<trkpt lon="4.375714" lat="48.098127"><ele>156.25</ele></trkpt>
<trkpt lon="4.375682" lat="48.097989"><ele>156.25</ele></trkpt>
<trkpt lon="4.375602" lat="48.097786"><ele>156.0</ele></trkpt>
<trkpt lon="4.375407" lat="48.097343"><ele>156.0</ele></trkpt>
<trkpt lon="4.375215" lat="48.096839"><ele>156.0</ele></trkpt>
<trkpt lon="4.375148" lat="48.096704"><ele>156.0</ele></trkpt>
<trkpt lon="4.375022" lat="48.096504"><ele>156.0</ele></trkpt>
<trkpt lon="4.374962" lat="48.096434"><ele>156.0</ele></trkpt>
<trkpt lon="4.374849" lat="48.096397"><ele>156.5</ele></trkpt>
<trkpt lon="4.374114" lat="48.095924"><ele>156.75</ele></trkpt>
<trkpt lon="4.373868" lat="48.095520"><ele>156.0</ele></trkpt>
<trkpt lon="4.373798" lat="48.095280"><ele>157.5</ele></trkpt>
<trkpt lon="4.373868" lat="48.094660"><ele>156.25</ele></trkpt>
<trkpt lon="4.374012" lat="48.094316"><ele>156.5</ele></trkpt>
<trkpt lon="4.374173" lat="48.093746"><ele>155.75</ele></trkpt>
<trkpt lon="4.374281" lat="48.092858"><ele>156.25</ele></trkpt>
<trkpt lon="4.373583" lat="48.090790"><ele>156.25</ele></trkpt>
<trkpt lon="4.373251" lat="48.090041"><ele>157.0</ele></trkpt>
<trkpt lon="4.373154" lat="48.089636"><ele>156.5</ele></trkpt>
<trkpt lon="4.372754" lat="48.088876"><ele>157.5</ele></trkpt>
<trkpt lon="4.372421" lat="48.088329"><ele>159.75</ele></trkpt>
<trkpt lon="4.372013" lat="48.087430"><ele>161.0</ele></trkpt>
<trkpt lon="4.371377" lat="48.086398"><ele>159.25</ele></trkpt>
<trkpt lon="4.371318" lat="48.086262"><ele>159.75</ele></trkpt>
<trkpt lon="4.371271" lat="48.086096"><ele>160.75</ele></trkpt>
<trkpt lon="4.371244" lat="48.085784"><ele>161.75</ele></trkpt>
<trkpt lon="4.371301" lat="48.085403"><ele>158.25</ele></trkpt>
<trkpt lon="4.371329" lat="48.085145"><ele>157.75</ele></trkpt>
<trkpt lon="4.371369" lat="48.084962"><ele>158.25</ele></trkpt>
<trkpt lon="4.371416" lat="48.084750"><ele>157.5</ele></trkpt>
<trkpt lon="4.371465" lat="48.084528"><ele>157.0</ele></trkpt>
<trkpt lon="4.371644" lat="48.083842"><ele>158.25</ele></trkpt>
<trkpt lon="4.371675" lat="48.083691"><ele>158.5</ele></trkpt>
<trkpt lon="4.371719" lat="48.083544"><ele>158.5</ele></trkpt>
<trkpt lon="4.371754" lat="48.083328"><ele>158.5</ele></trkpt>
<trkpt lon="4.371765" lat="48.083120"><ele>159.0</ele></trkpt>
<trkpt lon="4.371797" lat="48.082959"><ele>159.0</ele></trkpt>
<trkpt lon="4.371875" lat="48.082682"><ele>158.75</ele></trkpt>
<trkpt lon="4.372024" lat="48.082357"><ele>158.5</ele></trkpt>
<trkpt lon="4.372134" lat="48.082040"><ele>158.75</ele></trkpt>
<trkpt lon="4.372161" lat="48.081880"><ele>159.25</ele></trkpt>
<trkpt lon="4.372201" lat="48.081474"><ele>159.0</ele></trkpt>
<trkpt lon="4.372252" lat="48.081163"><ele>159.5</ele></trkpt>
<trkpt lon="4.372274" lat="48.080934"><ele>160.25</ele></trkpt>
<trkpt lon="4.372264" lat="48.080830"><ele>160.5</ele></trkpt>
<trkpt lon="4.372215" lat="48.080580"><ele>160.0</ele></trkpt>
<trkpt lon="4.372002" lat="48.080074"><ele>160.0</ele></trkpt>
<trkpt lon="4.371847" lat="48.079772"><ele>162.25</ele></trkpt>
<trkpt lon="4.371782" lat="48.079685"><ele>161.75</ele></trkpt>
<trkpt lon="4.371706" lat="48.079606"><ele>161.0</ele></trkpt>
<trkpt lon="4.371663" lat="48.079580"><ele>161.0</ele></trkpt>
<trkpt lon="4.371576" lat="48.079502"><ele>160.75</ele></trkpt>
<trkpt lon="4.371491" lat="48.079340"><ele>160.75</ele></trkpt>
<trkpt lon="4.371467" lat="48.079213"><ele>160.75</ele></trkpt>
<trkpt lon="4.371464" lat="48.079139"><ele>161.0</ele></trkpt>
<trkpt lon="4.371393" lat="48.078805"><ele>162.25</ele></trkpt>
<trkpt lon="4.371271" lat="48.078549"><ele>164.0</ele></trkpt>
<trkpt lon="4.371203" lat="48.078387"><ele>165.0</ele></trkpt>
<trkpt lon="4.371018" lat="48.077782"><ele>168.75</ele></trkpt>
<trkpt lon="4.370854" lat="48.077240"><ele>171.5</ele></trkpt>
<trkpt lon="4.370711" lat="48.076816"><ele>172.75</ele></trkpt>
<trkpt lon="4.370548" lat="48.076368"><ele>172.75</ele></trkpt>
<trkpt lon="4.370456" lat="48.076161"><ele>173.0</ele></trkpt>
<trkpt lon="4.370473" lat="48.076082"><ele>172.5</ele></trkpt>
<trkpt lon="4.370477" lat="48.075988"><ele>171.75</ele></trkpt>
<trkpt lon="4.370442" lat="48.075790"><ele>170.75</ele></trkpt>
<trkpt lon="4.370406" lat="48.075649"><ele>170.0</ele></trkpt>
<trkpt lon="4.370327" lat="48.075456"><ele>169.25</ele></trkpt>
<trkpt lon="4.370325" lat="48.075300"><ele>168.75</ele></trkpt>
<trkpt lon="4.370345" lat="48.075183"><ele>168.75</ele></trkpt>
<trkpt lon="4.370409" lat="48.075046"><ele>168.75</ele></trkpt>
<trkpt lon="4.370671" lat="48.074700"><ele>168.75</ele></trkpt>
<trkpt lon="4.370804" lat="48.074489"><ele>169.0</ele></trkpt>
<trkpt lon="4.370829" lat="48.074419"><ele>169.0</ele></trkpt>
<trkpt lon="4.370836" lat="48.074383"><ele>168.75</ele></trkpt>
<trkpt lon="4.371020" lat="48.073748"><ele>169.25</ele></trkpt>
<trkpt lon="4.371057" lat="48.073559"><ele>168.75</ele></trkpt>
<trkpt lon="4.371084" lat="48.073236"><ele>168.75</ele></trkpt>
<trkpt lon="4.371126" lat="48.072758"><ele>168.75</ele></trkpt>
<trkpt lon="4.371156" lat="48.072562"><ele>168.75</ele></trkpt>
<trkpt lon="4.371176" lat="48.072430"><ele>169.0</ele></trkpt>
<trkpt lon="4.371335" lat="48.071842"><ele>169.0</ele></trkpt>
<trkpt lon="4.371381" lat="48.071767"><ele>168.25</ele></trkpt>
<trkpt lon="4.371443" lat="48.071713"><ele>167.75</ele></trkpt>
<trkpt lon="4.371528" lat="48.071666"><ele>167.25</ele></trkpt>
<trkpt lon="4.371489" lat="48.071627"><ele>167.25</ele></trkpt>
<trkpt lon="4.371426" lat="48.071531"><ele>167.25</ele></trkpt>
<trkpt lon="4.371058" lat="48.070753"><ele>166.25</ele></trkpt>
<trkpt lon="4.371020" lat="48.070682"><ele>166.5</ele></trkpt>
<trkpt lon="4.370980" lat="48.070558"><ele>166.75</ele></trkpt>
<trkpt lon="4.370369" lat="48.070410"><ele>167.5</ele></trkpt>
<trkpt lon="4.370111" lat="48.070336"><ele>167.75</ele></trkpt>
<trkpt lon="4.370243" lat="48.070047"><ele>170.25</ele></trkpt>
<trkpt lon="4.370555" lat="48.069429"><ele>176.0</ele></trkpt>
<trkpt lon="4.370614" lat="48.069277"><ele>177.0</ele></trkpt>
<trkpt lon="4.370688" lat="48.069122"><ele>178.25</ele></trkpt>
<trkpt lon="4.370825" lat="48.068956"><ele>179.5</ele></trkpt>
<trkpt lon="4.370901" lat="48.068854"><ele>179.75</ele></trkpt>
<trkpt lon="4.371172" lat="48.068418"><ele>181.75</ele></trkpt>
<trkpt lon="4.371227" lat="48.068306"><ele>181.75</ele></trkpt>
<trkpt lon="4.371295" lat="48.068121"><ele>183.0</ele></trkpt>
<trkpt lon="4.371311" lat="48.068056"><ele>183.5</ele></trkpt>
<trkpt lon="4.371312" lat="48.067988"><ele>184.0</ele></trkpt>
<trkpt lon="4.371279" lat="48.067846"><ele>185.25</ele></trkpt>
<trkpt lon="4.371220" lat="48.067736"><ele>186.5</ele></trkpt>
<trkpt lon="4.371195" lat="48.067661"><ele>187.0</ele></trkpt>
<trkpt lon="4.371191" lat="48.067551"><ele>188.0</ele></trkpt>
<trkpt lon="4.371228" lat="48.067447"><ele>188.25</ele></trkpt>
<trkpt lon="4.371265" lat="48.067365"><ele>188.25</ele></trkpt>
<trkpt lon="4.371518" lat="48.067011"><ele>188.5</ele></trkpt>
<trkpt lon="4.371584" lat="48.066898"><ele>188.25</ele></trkpt>
<trkpt lon="4.371706" lat="48.066620"><ele>187.0</ele></trkpt>
<trkpt lon="4.371784" lat="48.066299"><ele>187.25</ele></trkpt>
<trkpt lon="4.371949" lat="48.065908"><ele>187.25</ele></trkpt>
<trkpt lon="4.371980" lat="48.065779"><ele>187.5</ele></trkpt>
<trkpt lon="4.371949" lat="48.065627"><ele>187.75</ele></trkpt>
<trkpt lon="4.371973" lat="48.065503"><ele>187.5</ele></trkpt>
<trkpt lon="4.372038" lat="48.065461"><ele>186.75</ele></trkpt>
<trkpt lon="4.372293" lat="48.065431"><ele>184.25</ele></trkpt>
<trkpt lon="4.372531" lat="48.065443"><ele>182.5</ele></trkpt>
<trkpt lon="4.373841" lat="48.065622"><ele>172.0</ele></trkpt>
<trkpt lon="4.373871" lat="48.065218"><ele>172.0</ele></trkpt>
<trkpt lon="4.374002" lat="48.064236"><ele>169.5</ele></trkpt>
<trkpt lon="4.374004" lat="48.064148"><ele>169.5</ele></trkpt>
<trkpt lon="4.374043" lat="48.064023"><ele>169.25</ele></trkpt>
<trkpt lon="4.374140" lat="48.063861"><ele>169.0</ele></trkpt>
<trkpt lon="4.374501" lat="48.063425"><ele>171.75</ele></trkpt>
<trkpt lon="4.374916" lat="48.062527"><ele>177.0</ele></trkpt>
<trkpt lon="4.375042" lat="48.062530"><ele>176.5</ele></trkpt>
<trkpt lon="4.375193" lat="48.062052"><ele>179.0</ele></trkpt>
<trkpt lon="4.375253" lat="48.061867"><ele>179.25</ele></trkpt>
<trkpt lon="4.375280" lat="48.061742"><ele>179.5</ele></trkpt>
<trkpt lon="4.375348" lat="48.061254"><ele>179.25</ele></trkpt>
<trkpt lon="4.375431" lat="48.060870"><ele>178.75</ele></trkpt>
<trkpt lon="4.375454" lat="48.060693"><ele>178.0</ele></trkpt>
<trkpt lon="4.375422" lat="48.060331"><ele>177.5</ele></trkpt>
<trkpt lon="4.375400" lat="48.060228"><ele>177.25</ele></trkpt>
<trkpt lon="4.375271" lat="48.059849"><ele>176.5</ele></trkpt>
<trkpt lon="4.375103" lat="48.059455"><ele>175.5</ele></trkpt>
<trkpt lon="4.375058" lat="48.059333"><ele>175.0</ele></trkpt>
<trkpt lon="4.375027" lat="48.059208"><ele>174.25</ele></trkpt>
<trkpt lon="4.375008" lat="48.059083"><ele>173.75</ele></trkpt>
<trkpt lon="4.375011" lat="48.058954"><ele>173.75</ele></trkpt>
<trkpt lon="4.375023" lat="48.058843"><ele>173.75</ele></trkpt>
<trkpt lon="4.375039" lat="48.058777"><ele>173.75</ele></trkpt>
<trkpt lon="4.375049" lat="48.058733"><ele>173.75</ele></trkpt>
<trkpt lon="4.375134" lat="48.058408"><ele>175.0</ele></trkpt>
<trkpt lon="4.375153" lat="48.058144"><ele>175.75</ele></trkpt>
<trkpt lon="4.375144" lat="48.057866"><ele>176.5</ele></trkpt>
<trkpt lon="4.375045" lat="48.057014"><ele>178.5</ele></trkpt>
<trkpt lon="4.375021" lat="48.056495"><ele>177.75</ele></trkpt>
<trkpt lon="4.374986" lat="48.056192"><ele>177.25</ele></trkpt>
<trkpt lon="4.374966" lat="48.056014"><ele>176.75</ele></trkpt>
<trkpt lon="4.374926" lat="48.055958"><ele>176.75</ele></trkpt>
<trkpt lon="4.374568" lat="48.055451"><ele>176.5</ele></trkpt>
<trkpt lon="4.374524" lat="48.055356"><ele>176.5</ele></trkpt>
<trkpt lon="4.374477" lat="48.054943"><ele>176.75</ele></trkpt>
<trkpt lon="4.374435" lat="48.054720"><ele>177.0</ele></trkpt>
<trkpt lon="4.374324" lat="48.054394"><ele>178.75</ele></trkpt>
<trkpt lon="4.374104" lat="48.053819"><ele>179.25</ele></trkpt>
<trkpt lon="4.373944" lat="48.053213"><ele>180.5</ele></trkpt>
<trkpt lon="4.373821" lat="48.052623"><ele>181.0</ele></trkpt>
<trkpt lon="4.373761" lat="48.051844"><ele>179.75</ele></trkpt>
<trkpt lon="4.373737" lat="48.050940"><ele>179.25</ele></trkpt>
<trkpt lon="4.373808" lat="48.050631"><ele>178.5</ele></trkpt>
<trkpt lon="4.373875" lat="48.050447"><ele>178.0</ele></trkpt>
<trkpt lon="4.374448" lat="48.049541"><ele>178.5</ele></trkpt>
<trkpt lon="4.374539" lat="48.049366"><ele>179.0</ele></trkpt>
<trkpt lon="4.374618" lat="48.049138"><ele>179.25</ele></trkpt>
<trkpt lon="4.374634" lat="48.048981"><ele>179.25</ele></trkpt>
<trkpt lon="4.374560" lat="48.048900"><ele>179.5</ele></trkpt>
<trkpt lon="4.374512" lat="48.048636"><ele>178.5</ele></trkpt>
<trkpt lon="4.374504" lat="48.048535"><ele>178.0</ele></trkpt>
<trkpt lon="4.374427" lat="48.048494"><ele>178.0</ele></trkpt>
<trkpt lon="4.374185" lat="48.048441"><ele>178.5</ele></trkpt>
<trkpt lon="4.374054" lat="48.048451"><ele>179.25</ele></trkpt>
<trkpt lon="4.374061" lat="48.048398"><ele>178.75</ele></trkpt>
<trkpt lon="4.374028" lat="48.048363"><ele>178.75</ele></trkpt>
<trkpt lon="4.373751" lat="48.048274"><ele>179.25</ele></trkpt>
<trkpt lon="4.373642" lat="48.048213"><ele>179.5</ele></trkpt>
<trkpt lon="4.373603" lat="48.048151"><ele>179.0</ele></trkpt>
<trkpt lon="4.373139" lat="48.047991"><ele>179.5</ele></trkpt>
<trkpt lon="4.372744" lat="48.047867"><ele>179.25</ele></trkpt>
<trkpt lon="4.372315" lat="48.047795"><ele>179.0</ele></trkpt>
<trkpt lon="4.371858" lat="48.047745"><ele>178.5</ele></trkpt>
<trkpt lon="4.371575" lat="48.047727"><ele>178.25</ele></trkpt>
<trkpt lon="4.371170" lat="48.047729"><ele>179.0</ele></trkpt>
<trkpt lon="4.370811" lat="48.047742"><ele>179.25</ele></trkpt>
<trkpt lon="4.370550" lat="48.047742"><ele>179.5</ele></trkpt>
<trkpt lon="4.370523" lat="48.047643"><ele>178.5</ele></trkpt>
<trkpt lon="4.370413" lat="48.046799"><ele>177.0</ele></trkpt>
<trkpt lon="4.370362" lat="48.046617"><ele>177.0</ele></trkpt>
<trkpt lon="4.370359" lat="48.046490"><ele>177.25</ele></trkpt>
<trkpt lon="4.370424" lat="48.046331"><ele>177.75</ele></trkpt>
<trkpt lon="4.370446" lat="48.046244"><ele>178.25</ele></trkpt>
<trkpt lon="4.370434" lat="48.046165"><ele>179.0</ele></trkpt>
<trkpt lon="4.370479" lat="48.045893"><ele>180.75</ele></trkpt>
<trkpt lon="4.370489" lat="48.045590"><ele>182.75</ele></trkpt>
<trkpt lon="4.371209" lat="48.045175"><ele>183.25</ele></trkpt>
<trkpt lon="4.371433" lat="48.045079"><ele>183.0</ele></trkpt>
<trkpt lon="4.371605" lat="48.045064"><ele>181.75</ele></trkpt>
<trkpt lon="4.371952" lat="48.045112"><ele>180.0</ele></trkpt>
<trkpt lon="4.372474" lat="48.045159"><ele>177.75</ele></trkpt>
<trkpt lon="4.373983" lat="48.045180"><ele>176.5</ele></trkpt>
<trkpt lon="4.374251" lat="48.045183"><ele>177.0</ele></trkpt>
<trkpt lon="4.374895" lat="48.045158"><ele>176.25</ele></trkpt>
<trkpt lon="4.375093" lat="48.045163"><ele>176.0</ele></trkpt>
<trkpt lon="4.375415" lat="48.045224"><ele>175.5</ele></trkpt>
<trkpt lon="4.376434" lat="48.045464"><ele>173.75</ele></trkpt>
<trkpt lon="4.380160" lat="48.046490"><ele>164.75</ele></trkpt>
<trkpt lon="4.380710" lat="48.046633"><ele>163.0</ele></trkpt>
<trkpt lon="4.381085" lat="48.046766"><ele>163.0</ele></trkpt>
<trkpt lon="4.381372" lat="48.046852"><ele>163.0</ele></trkpt>
<trkpt lon="4.381767" lat="48.047007"><ele>163.0</ele></trkpt>
<trkpt lon="4.382032" lat="48.047161"><ele>163.0</ele></trkpt>
<trkpt lon="4.382220" lat="48.047301"><ele>162.5</ele></trkpt>
<trkpt lon="4.382310" lat="48.047344"><ele>162.5</ele></trkpt>
<trkpt lon="4.382339" lat="48.047346"><ele>162.5</ele></trkpt>
<trkpt lon="4.382554" lat="48.047414"><ele>162.75</ele></trkpt>
<trkpt lon="4.382711" lat="48.047471"><ele>162.75</ele></trkpt>
<trkpt lon="4.382882" lat="48.047582"><ele>163.0</ele></trkpt>
<trkpt lon="4.382928" lat="48.047631"><ele>163.0</ele></trkpt>
<trkpt lon="4.382987" lat="48.047741"><ele>163.0</ele></trkpt>
<trkpt lon="4.383022" lat="48.047833"><ele>163.0</ele></trkpt>
<trkpt lon="4.383231" lat="48.047665"><ele>164.0</ele></trkpt>
<trkpt lon="4.383784" lat="48.047096"><ele>166.0</ele></trkpt>
<trkpt lon="4.383888" lat="48.046924"><ele>164.75</ele></trkpt>
<trkpt lon="4.384068" lat="48.046704"><ele>165.5</ele></trkpt>
<trkpt lon="4.384130" lat="48.046606"><ele>165.0</ele></trkpt>
<trkpt lon="4.384195" lat="48.046451"><ele>165.0</ele></trkpt>
<trkpt lon="4.384217" lat="48.046368"><ele>164.75</ele></trkpt>
<trkpt lon="4.384332" lat="48.046088"><ele>164.5</ele></trkpt>
<trkpt lon="4.384386" lat="48.045807"><ele>163.75</ele></trkpt>
<trkpt lon="4.384488" lat="48.045576"><ele>164.5</ele></trkpt>
<trkpt lon="4.384575" lat="48.045420"><ele>164.75</ele></trkpt>
<trkpt lon="4.384610" lat="48.045324"><ele>164.75</ele></trkpt>
<trkpt lon="4.384803" lat="48.044889"><ele>166.25</ele></trkpt>
<trkpt lon="4.384818" lat="48.044752"><ele>166.25</ele></trkpt>
<trkpt lon="4.384859" lat="48.044374"><ele>167.25</ele></trkpt>
<trkpt lon="4.384886" lat="48.044279"><ele>167.5</ele></trkpt>
<trkpt lon="4.384878" lat="48.044032"><ele>167.5</ele></trkpt>
<trkpt lon="4.384859" lat="48.043876"><ele>167.75</ele></trkpt>
<trkpt lon="4.384798" lat="48.043610"><ele>167.0</ele></trkpt>
<trkpt lon="4.384752" lat="48.043506"><ele>166.75</ele></trkpt>
<trkpt lon="4.384610" lat="48.043229"><ele>166.5</ele></trkpt>
<trkpt lon="4.384111" lat="48.042560"><ele>165.5</ele></trkpt>
<trkpt lon="4.383879" lat="48.042231"><ele>165.75</ele></trkpt>
<trkpt lon="4.383511" lat="48.041744"><ele>165.5</ele></trkpt>
<trkpt lon="4.383377" lat="48.041550"><ele>166.0</ele></trkpt>
<trkpt lon="4.383038" lat="48.041122"><ele>165.75</ele></trkpt>
<trkpt lon="4.382834" lat="48.040874"><ele>166.0</ele></trkpt>
<trkpt lon="4.382495" lat="48.040515"><ele>166.0</ele></trkpt>
<trkpt lon="4.382232" lat="48.040278"><ele>166.0</ele></trkpt>
<trkpt lon="4.381647" lat="48.039788"><ele>166.5</ele></trkpt>
<trkpt lon="4.381462" lat="48.039655"><ele>166.25</ele></trkpt>
<trkpt lon="4.381297" lat="48.039547"><ele>166.25</ele></trkpt>
<trkpt lon="4.380616" lat="48.039130"><ele>166.0</ele></trkpt>
<trkpt lon="4.380104" lat="48.038829"><ele>165.5</ele></trkpt>
<trkpt lon="4.379397" lat="48.038385"><ele>165.75</ele></trkpt>
<trkpt lon="4.378747" lat="48.037964"><ele>166.0</ele></trkpt>
<trkpt lon="4.378555" lat="48.037831"><ele>165.75</ele></trkpt>
<trkpt lon="4.378309" lat="48.037608"><ele>165.75</ele></trkpt>
<trkpt lon="4.378143" lat="48.037439"><ele>165.25</ele></trkpt>
<trkpt lon="4.378116" lat="48.037352"><ele>165.0</ele></trkpt>
<trkpt lon="4.378108" lat="48.037221"><ele>165.0</ele></trkpt>
<trkpt lon="4.378038" lat="48.036898"><ele>164.75</ele></trkpt>
<trkpt lon="4.378014" lat="48.036763"><ele>164.75</ele></trkpt>
<trkpt lon="4.377990" lat="48.036292"><ele>164.75</ele></trkpt>
<trkpt lon="4.377821" lat="48.034877"><ele>166.5</ele></trkpt>
<trkpt lon="4.377804" lat="48.034631"><ele>166.0</ele></trkpt>
<trkpt lon="4.376903" lat="48.034235"><ele>165.75</ele></trkpt>
<trkpt lon="4.376761" lat="48.033239"><ele>164.0</ele></trkpt>
<trkpt lon="4.376906" lat="48.032727"><ele>164.75</ele></trkpt>
<trkpt lon="4.377027" lat="48.032235"><ele>165.25</ele></trkpt>
<trkpt lon="4.377149" lat="48.031668"><ele>165.5</ele></trkpt>
<trkpt lon="4.377546" lat="48.030054"><ele>166.0</ele></trkpt>
<trkpt lon="4.377929" lat="48.028566"><ele>166.5</ele></trkpt>
<trkpt lon="4.378834" lat="48.026957"><ele>167.75</ele></trkpt>
<trkpt lon="4.379494" lat="48.026154"><ele>167.0</ele></trkpt>
<trkpt lon="4.380262" lat="48.025729"><ele>168.5</ele></trkpt>
<trkpt lon="4.381928" lat="48.025314"><ele>171.5</ele></trkpt>
<trkpt lon="4.382639" lat="48.025008"><ele>170.0</ele></trkpt>
<trkpt lon="4.383965" lat="48.024012"><ele>173.25</ele></trkpt>
<trkpt lon="4.384450" lat="48.023555"><ele>173.5</ele></trkpt>
<trkpt lon="4.384769" lat="48.023060"><ele>173.5</ele></trkpt>
<trkpt lon="4.385084" lat="48.022401"><ele>172.5</ele></trkpt>
<trkpt lon="4.385336" lat="48.021791"><ele>171.75</ele></trkpt>
<trkpt lon="4.385448" lat="48.021317"><ele>171.25</ele></trkpt>
<trkpt lon="4.385488" lat="48.020952"><ele>172.0</ele></trkpt>
<trkpt lon="4.385335" lat="48.020482"><ele>171.5</ele></trkpt>
<trkpt lon="4.385174" lat="48.019987"><ele>172.5</ele></trkpt>
<trkpt lon="4.384651" lat="48.020278"><ele>169.5</ele></trkpt>
<trkpt lon="4.384571" lat="48.020317"><ele>169.25</ele></trkpt>
<trkpt lon="4.384518" lat="48.020334"><ele>169.0</ele></trkpt>
<trkpt lon="4.384448" lat="48.020332"><ele>168.75</ele></trkpt>
<trkpt lon="4.384368" lat="48.020310"><ele>168.5</ele></trkpt>
<trkpt lon="4.384340" lat="48.020283"><ele>168.5</ele></trkpt>
<trkpt lon="4.384249" lat="48.020095"><ele>168.75</ele></trkpt>
<trkpt lon="4.384017" lat="48.019668"><ele>169.0</ele></trkpt>
<trkpt lon="4.383580" lat="48.018955"><ele>168.75</ele></trkpt>
<trkpt lon="4.383455" lat="48.018771"><ele>168.75</ele></trkpt>
<trkpt lon="4.383332" lat="48.018505"><ele>168.75</ele></trkpt>
<trkpt lon="4.383305" lat="48.018270"><ele>168.75</ele></trkpt>
<trkpt lon="4.383311" lat="48.017944"><ele>169.0</ele></trkpt>
<trkpt lon="4.383297" lat="48.017820"><ele>169.0</ele></trkpt>
<trkpt lon="4.383247" lat="48.017586"><ele>169.0</ele></trkpt>
<trkpt lon="4.383191" lat="48.017385"><ele>169.25</ele></trkpt>
<trkpt lon="4.383033" lat="48.017014"><ele>169.75</ele></trkpt>
<trkpt lon="4.382966" lat="48.016913"><ele>170.0</ele></trkpt>
<trkpt lon="4.382886" lat="48.016685"><ele>170.5</ele></trkpt>
<trkpt lon="4.382831" lat="48.016565"><ele>170.5</ele></trkpt>
<trkpt lon="4.382706" lat="48.016324"><ele>170.75</ele></trkpt>
<trkpt lon="4.382189" lat="48.015555"><ele>170.75</ele></trkpt>
<trkpt lon="4.382140" lat="48.015457"><ele>171.0</ele></trkpt>
<trkpt lon="4.382050" lat="48.015315"><ele>171.0</ele></trkpt>
<trkpt lon="4.381917" lat="48.015093"><ele>170.75</ele></trkpt>
<trkpt lon="4.381633" lat="48.014819"><ele>170.0</ele></trkpt>
<trkpt lon="4.381524" lat="48.014727"><ele>170.0</ele></trkpt>
<trkpt lon="4.381072" lat="48.014441"><ele>171.0</ele></trkpt>
<trkpt lon="4.380973" lat="48.014388"><ele>171.25</ele></trkpt>
<trkpt lon="4.380825" lat="48.014356"><ele>171.25</ele></trkpt>
<trkpt lon="4.380510" lat="48.014257"><ele>170.5</ele></trkpt>
<trkpt lon="4.380320" lat="48.014164"><ele>171.0</ele></trkpt>
<trkpt lon="4.380177" lat="48.014083"><ele>170.75</ele></trkpt>
<trkpt lon="4.379495" lat="48.013551"><ele>171.25</ele></trkpt>
<trkpt lon="4.379101" lat="48.013260"><ele>171.0</ele></trkpt>
<trkpt lon="4.378190" lat="48.012615"><ele>171.75</ele></trkpt>
<trkpt lon="4.377426" lat="48.012042"><ele>172.0</ele></trkpt>
<trkpt lon="4.376707" lat="48.011519"><ele>171.75</ele></trkpt>
<trkpt lon="4.376571" lat="48.011388"><ele>171.5</ele></trkpt>
<trkpt lon="4.376394" lat="48.011089"><ele>172.0</ele></trkpt>
<trkpt lon="4.376131" lat="48.010491"><ele>172.25</ele></trkpt>
<trkpt lon="4.376013" lat="48.010190"><ele>172.25</ele></trkpt>
<trkpt lon="4.375957" lat="48.010021"><ele>172.25</ele></trkpt>
<trkpt lon="4.375911" lat="48.009847"><ele>172.5</ele></trkpt>
<trkpt lon="4.375755" lat="48.009407"><ele>173.25</ele></trkpt>
<trkpt lon="4.375702" lat="48.009294"><ele>173.25</ele></trkpt>
<trkpt lon="4.375608" lat="48.009145"><ele>173.25</ele></trkpt>
<trkpt lon="4.375531" lat="48.009059"><ele>173.25</ele></trkpt>
<trkpt lon="4.375104" lat="48.008523"><ele>173.0</ele></trkpt>
<trkpt lon="4.374833" lat="48.008128"><ele>173.75</ele></trkpt>
<trkpt lon="4.374753" lat="48.007990"><ele>174.0</ele></trkpt>
<trkpt lon="4.374661" lat="48.007805"><ele>173.75</ele></trkpt>
<trkpt lon="4.374557" lat="48.007554"><ele>174.5</ele></trkpt>
<trkpt lon="4.374523" lat="48.007324"><ele>174.5</ele></trkpt>
<trkpt lon="4.374510" lat="48.007048"><ele>175.0</ele></trkpt>
<trkpt lon="4.374455" lat="48.006828"><ele>174.5</ele></trkpt>
<trkpt lon="4.374417" lat="48.006780"><ele>174.25</ele></trkpt>
<trkpt lon="4.374384" lat="48.006546"><ele>174.0</ele></trkpt>
<trkpt lon="4.374381" lat="48.006238"><ele>174.0</ele></trkpt>
<trkpt lon="4.374292" lat="48.005909"><ele>174.0</ele></trkpt>
<trkpt lon="4.374311" lat="48.005858"><ele>174.0</ele></trkpt>
<trkpt lon="4.374167" lat="48.005271"><ele>173.75</ele></trkpt>
<trkpt lon="4.374004" lat="48.004878"><ele>173.75</ele></trkpt>
<trkpt lon="4.373878" lat="48.004691"><ele>173.75</ele></trkpt>
<trkpt lon="4.373838" lat="48.004596"><ele>173.25</ele></trkpt>
<trkpt lon="4.373703" lat="48.004374"><ele>173.0</ele></trkpt>
<trkpt lon="4.373285" lat="48.003710"><ele>173.75</ele></trkpt>
<trkpt lon="4.373088" lat="48.003426"><ele>173.0</ele></trkpt>
<trkpt lon="4.372940" lat="48.003163"><ele>173.25</ele></trkpt>
<trkpt lon="4.372354" lat="48.002244"><ele>174.25</ele></trkpt>
<trkpt lon="4.371959" lat="48.002355"><ele>174.5</ele></trkpt>
<trkpt lon="4.371902" lat="48.002307"><ele>174.5</ele></trkpt>
<trkpt lon="4.371631" lat="48.002246"><ele>174.75</ele></trkpt>
<trkpt lon="4.371423" lat="48.002234"><ele>174.0</ele></trkpt>
<trkpt lon="4.371196" lat="48.002210"><ele>174.0</ele></trkpt>
<trkpt lon="4.370994" lat="48.002142"><ele>174.0</ele></trkpt>
<trkpt lon="4.370813" lat="48.002057"><ele>174.0</ele></trkpt>
<trkpt lon="4.370248" lat="48.001685"><ele>174.0</ele></trkpt>
<trkpt lon="4.370112" lat="48.001567"><ele>174.0</ele></trkpt>
<trkpt lon="4.369984" lat="48.001440"><ele>174.0</ele></trkpt>
<trkpt lon="4.369880" lat="48.001297"><ele>174.0</ele></trkpt>
<trkpt lon="4.369730" lat="48.000994"><ele>174.0</ele></trkpt>
<trkpt lon="4.369686" lat="48.000862"><ele>174.0</ele></trkpt>
<trkpt lon="4.369656" lat="48.000719"><ele>174.0</ele></trkpt>
<trkpt lon="4.369643" lat="48.000559"><ele>174.0</ele></trkpt>
<trkpt lon="4.369287" lat="48.000504"><ele>174.0</ele></trkpt>
<trkpt lon="4.369163" lat="48.000421"><ele>174.0</ele></trkpt>
<trkpt lon="4.369190" lat="48.000238"><ele>174.0</ele></trkpt>
<trkpt lon="4.369458" lat="47.999667"><ele>175.0</ele></trkpt>
<trkpt lon="4.369555" lat="47.999477"><ele>175.0</ele></trkpt>
<trkpt lon="4.369689" lat="47.999355"><ele>175.0</ele></trkpt>
<trkpt lon="4.369792" lat="47.999330"><ele>175.0</ele></trkpt>
<trkpt lon="4.369812" lat="47.999091"><ele>175.0</ele></trkpt>
<trkpt lon="4.369809" lat="47.998605"><ele>175.0</ele></trkpt>
<trkpt lon="4.369768" lat="47.998475"><ele>175.0</ele></trkpt>
<trkpt lon="4.369687" lat="47.998351"><ele>175.0</ele></trkpt>
<trkpt lon="4.369470" lat="47.998138"><ele>175.0</ele></trkpt>
<trkpt lon="4.369300" lat="47.997959"><ele>175.5</ele></trkpt>
<trkpt lon="4.369160" lat="47.997792"><ele>175.75</ele></trkpt>
<trkpt lon="4.368966" lat="47.997548"><ele>175.75</ele></trkpt>
<trkpt lon="4.368722" lat="47.997213"><ele>176.0</ele></trkpt>
<trkpt lon="4.368633" lat="47.997100"><ele>176.0</ele></trkpt>
<trkpt lon="4.368487" lat="47.996944"><ele>175.5</ele></trkpt>
<trkpt lon="4.368140" lat="47.996686"><ele>175.75</ele></trkpt>
<trkpt lon="4.367917" lat="47.996561"><ele>176.0</ele></trkpt>
<trkpt lon="4.367579" lat="47.996360"><ele>176.0</ele></trkpt>
<trkpt lon="4.367513" lat="47.996344"><ele>176.0</ele></trkpt>
<trkpt lon="4.367446" lat="47.996313"><ele>176.0</ele></trkpt>
<trkpt lon="4.367338" lat="47.996219"><ele>176.0</ele></trkpt>
<trkpt lon="4.367292" lat="47.996150"><ele>176.0</ele></trkpt>
<trkpt lon="4.367285" lat="47.996112"><ele>176.0</ele></trkpt>
<trkpt lon="4.367302" lat="47.996035"><ele>176.0</ele></trkpt>
<trkpt lon="4.367364" lat="47.995925"><ele>176.0</ele></trkpt>
<trkpt lon="4.367491" lat="47.995662"><ele>175.75</ele></trkpt>
<trkpt lon="4.367532" lat="47.995386"><ele>176.0</ele></trkpt>
<trkpt lon="4.367559" lat="47.995328"><ele>176.0</ele></trkpt>
<trkpt lon="4.367548" lat="47.995141"><ele>176.0</ele></trkpt>
<trkpt lon="4.367574" lat="47.994947"><ele>176.25</ele></trkpt>
<trkpt lon="4.367662" lat="47.994507"><ele>176.5</ele></trkpt>
<trkpt lon="4.367696" lat="47.994297"><ele>177.0</ele></trkpt>
<trkpt lon="4.367721" lat="47.994195"><ele>177.5</ele></trkpt>
<trkpt lon="4.367734" lat="47.994089"><ele>177.5</ele></trkpt>
<trkpt lon="4.367744" lat="47.994015"><ele>177.25</ele></trkpt>
<trkpt lon="4.367741" lat="47.993861"><ele>177.0</ele></trkpt>
<trkpt lon="4.367674" lat="47.993579"><ele>177.5</ele></trkpt>
<trkpt lon="4.367674" lat="47.993532"><ele>177.75</ele></trkpt>
<trkpt lon="4.367673" lat="47.993456"><ele>177.75</ele></trkpt>
<trkpt lon="4.367641" lat="47.993345"><ele>177.75</ele></trkpt>
<trkpt lon="4.367598" lat="47.993082"><ele>177.25</ele></trkpt>
<trkpt lon="4.367599" lat="47.992913"><ele>177.0</ele></trkpt>
<trkpt lon="4.367584" lat="47.992700"><ele>177.25</ele></trkpt>
<trkpt lon="4.367564" lat="47.992593"><ele>177.5</ele></trkpt>
<trkpt lon="4.367532" lat="47.992519"><ele>177.75</ele></trkpt>
<trkpt lon="4.367487" lat="47.992446"><ele>178.0</ele></trkpt>
<trkpt lon="4.367302" lat="47.992231"><ele>178.0</ele></trkpt>
<trkpt lon="4.367027" lat="47.991921"><ele>178.0</ele></trkpt>
<trkpt lon="4.366929" lat="47.991840"><ele>178.25</ele></trkpt>
<trkpt lon="4.366787" lat="47.991838"><ele>178.25</ele></trkpt>
<trkpt lon="4.366725" lat="47.991850"><ele>178.25</ele></trkpt>
<trkpt lon="4.366592" lat="47.991897"><ele>178.0</ele></trkpt>
<trkpt lon="4.366547" lat="47.991909"><ele>178.0</ele></trkpt>
<trkpt lon="4.366624" lat="47.992044"><ele>177.5</ele></trkpt>
<trkpt lon="4.366774" lat="47.992215"><ele>177.0</ele></trkpt>
<trkpt lon="4.367098" lat="47.992490"><ele>177.5</ele></trkpt>
<trkpt lon="4.367211" lat="47.992604"><ele>177.5</ele></trkpt>
<trkpt lon="4.367243" lat="47.992795"><ele>177.0</ele></trkpt>
<trkpt lon="4.367234" lat="47.992809"><ele>177.0</ele></trkpt>
  </trkseg></trk></gpx>
