<?xml version="1.0" encoding="UTF-8"?>
<gpx version="1.1" creator="compostel-brouter" xmlns="http://www.topografix.com/GPX/1/1">
  <metadata><name>FR-17-La-Charite</name></metadata>
  <trk><name>FR-17-La-Charite</name><trkseg>
<trkpt lon="3.519553" lat="47.460014"><ele>156.0</ele></trkpt>
<trkpt lon="3.519593" lat="47.459821"><ele>157.25</ele></trkpt>
<trkpt lon="3.519523" lat="47.459813"><ele>157.5</ele></trkpt>
<trkpt lon="3.519235" lat="47.459775"><ele>157.75</ele></trkpt>
<trkpt lon="3.518960" lat="47.459825"><ele>157.5</ele></trkpt>
<trkpt lon="3.518847" lat="47.459873"><ele>157.25</ele></trkpt>
<trkpt lon="3.518580" lat="47.459823"><ele>155.5</ele></trkpt>
<trkpt lon="3.518580" lat="47.459873"><ele>155.5</ele></trkpt>
<trkpt lon="3.518153" lat="47.459895"><ele>149.0</ele></trkpt>
<trkpt lon="3.518110" lat="47.459907"><ele>149.0</ele></trkpt>
<trkpt lon="3.518038" lat="47.459939"><ele>149.0</ele></trkpt>
<trkpt lon="3.517943" lat="47.459924"><ele>149.0</ele></trkpt>
<trkpt lon="3.517748" lat="47.459912"><ele>149.0</ele></trkpt>
<trkpt lon="3.517564" lat="47.459934"><ele>149.0</ele></trkpt>
<trkpt lon="3.517503" lat="47.459947"><ele>149.0</ele></trkpt>
<trkpt lon="3.517169" lat="47.460023"><ele>148.25</ele></trkpt>
<trkpt lon="3.517126" lat="47.460033"><ele>148.25</ele></trkpt>
<trkpt lon="3.517138" lat="47.460063"><ele>148.25</ele></trkpt>
<trkpt lon="3.517146" lat="47.460081"><ele>148.25</ele></trkpt>
<trkpt lon="3.517244" lat="47.460321"><ele>148.75</ele></trkpt>
<trkpt lon="3.517245" lat="47.460391"><ele>148.5</ele></trkpt>
<trkpt lon="3.515865" lat="47.460650"><ele>148.0</ele></trkpt>
<trkpt lon="3.515805" lat="47.460661"><ele>148.0</ele></trkpt>
<trkpt lon="3.515660" lat="47.460402"><ele>148.25</ele></trkpt>
<trkpt lon="3.515651" lat="47.460381"><ele>148.25</ele></trkpt>
<trkpt lon="3.515638" lat="47.460347"><ele>148.5</ele></trkpt>
<trkpt lon="3.515602" lat="47.460350"><ele>148.5</ele></trkpt>
<trkpt lon="3.515475" lat="47.460357"><ele>148.75</ele></trkpt>
<trkpt lon="3.515226" lat="47.460368"><ele>149.0</ele></trkpt>
<trkpt lon="3.514981" lat="47.460360"><ele>150.0</ele></trkpt>
<trkpt lon="3.514798" lat="47.460332"><ele>150.5</ele></trkpt>
<trkpt lon="3.514770" lat="47.460328"><ele>150.75</ele></trkpt>
<trkpt lon="3.514284" lat="47.460263"><ele>154.0</ele></trkpt>
<trkpt lon="3.514107" lat="47.460235"><ele>155.25</ele></trkpt>
<trkpt lon="3.513680" lat="47.460178"><ele>158.75</ele></trkpt>
<trkpt lon="3.513054" lat="47.460114"><ele>164.0</ele></trkpt>
<trkpt lon="3.512822" lat="47.460103"><ele>165.75</ele></trkpt>
<trkpt lon="3.512656" lat="47.460101"><ele>166.25</ele></trkpt>
<trkpt lon="3.512481" lat="47.460096"><ele>166.5</ele></trkpt>
<trkpt lon="3.510932" lat="47.460100"><ele>182.5</ele></trkpt>
<trkpt lon="3.510723" lat="47.460017"><ele>183.0</ele></trkpt>
<trkpt lon="3.510357" lat="47.459925"><ele>186.75</ele></trkpt>
<trkpt lon="3.509484" lat="47.459748"><ele>191.0</ele></trkpt>
<trkpt lon="3.508649" lat="47.459541"><ele>196.0</ele></trkpt>
<trkpt lon="3.508313" lat="47.459473"><ele>196.25</ele></trkpt>
<trkpt lon="3.507177" lat="47.459289"><ele>201.0</ele></trkpt>
<trkpt lon="3.506672" lat="47.459220"><ele>201.25</ele></trkpt>
<trkpt lon="3.506318" lat="47.459216"><ele>202.5</ele></trkpt>
<trkpt lon="3.506019" lat="47.459196"><ele>203.25</ele></trkpt>
<trkpt lon="3.503613" lat="47.458696"><ele>206.5</ele></trkpt>
<trkpt lon="3.502377" lat="47.458140"><ele>208.25</ele></trkpt>
<trkpt lon="3.501466" lat="47.457806"><ele>208.75</ele></trkpt>
<trkpt lon="3.500195" lat="47.457322"><ele>207.25</ele></trkpt>
<trkpt lon="3.500007" lat="47.457223"><ele>207.0</ele></trkpt>
<trkpt lon="3.495865" lat="47.455945"><ele>200.5</ele></trkpt>
<trkpt lon="3.494663" lat="47.455557"><ele>195.5</ele></trkpt>
<trkpt lon="3.493478" lat="47.455090"><ele>191.5</ele></trkpt>
<trkpt lon="3.492845" lat="47.454792"><ele>189.25</ele></trkpt>
<trkpt lon="3.491788" lat="47.454313"><ele>186.5</ele></trkpt>
<trkpt lon="3.491595" lat="47.454273"><ele>186.25</ele></trkpt>
<trkpt lon="3.491010" lat="47.454223"><ele>185.5</ele></trkpt>
<trkpt lon="3.490704" lat="47.454150"><ele>186.25</ele></trkpt>
<trkpt lon="3.490447" lat="47.454027"><ele>186.25</ele></trkpt>
<trkpt lon="3.490087" lat="47.453903"><ele>187.5</ele></trkpt>
<trkpt lon="3.489932" lat="47.453867"><ele>188.0</ele></trkpt>
<trkpt lon="3.489830" lat="47.453784"><ele>188.5</ele></trkpt>
<trkpt lon="3.489460" lat="47.453116"><ele>188.0</ele></trkpt>
<trkpt lon="3.489116" lat="47.452275"><ele>186.75</ele></trkpt>
<trkpt lon="3.489009" lat="47.451800"><ele>184.75</ele></trkpt>
<trkpt lon="3.488738" lat="47.450029"><ele>179.25</ele></trkpt>
<trkpt lon="3.488725" lat="47.449653"><ele>177.25</ele></trkpt>
<trkpt lon="3.488749" lat="47.449486"><ele>176.5</ele></trkpt>
<trkpt lon="3.488787" lat="47.449363"><ele>176.0</ele></trkpt>
<trkpt lon="3.488828" lat="47.449287"><ele>176.0</ele></trkpt>
<trkpt lon="3.488876" lat="47.449241"><ele>176.25</ele></trkpt>
<trkpt lon="3.488916" lat="47.449218"><ele>176.25</ele></trkpt>
<trkpt lon="3.489115" lat="47.449149"><ele>174.5</ele></trkpt>
<trkpt lon="3.489162" lat="47.449126"><ele>173.5</ele></trkpt>
<trkpt lon="3.489224" lat="47.449072"><ele>171.5</ele></trkpt>
<trkpt lon="3.489245" lat="47.449039"><ele>170.25</ele></trkpt>
<trkpt lon="3.489253" lat="47.449017"><ele>169.25</ele></trkpt>
<trkpt lon="3.489251" lat="47.448962"><ele>167.25</ele></trkpt>
<trkpt lon="3.489213" lat="47.448857"><ele>165.25</ele></trkpt>
<trkpt lon="3.489202" lat="47.448827"><ele>165.75</ele></trkpt>
<trkpt lon="3.489206" lat="47.448773"><ele>166.5</ele></trkpt>
<trkpt lon="3.489481" lat="47.448266"><ele>166.5</ele></trkpt>
<trkpt lon="3.489522" lat="47.448232"><ele>165.75</ele></trkpt>
<trkpt lon="3.489600" lat="47.448206"><ele>165.0</ele></trkpt>
<trkpt lon="3.489774" lat="47.448173"><ele>164.25</ele></trkpt>
<trkpt lon="3.489864" lat="47.448145"><ele>163.75</ele></trkpt>
<trkpt lon="3.489930" lat="47.448097"><ele>163.25</ele></trkpt>
<trkpt lon="3.490067" lat="47.448100"><ele>163.25</ele></trkpt>
<trkpt lon="3.490343" lat="47.448120"><ele>163.25</ele></trkpt>
<trkpt lon="3.490383" lat="47.448084"><ele>163.0</ele></trkpt>
<trkpt lon="3.490751" lat="47.447882"><ele>161.5</ele></trkpt>
<trkpt lon="3.490867" lat="47.447782"><ele>160.0</ele></trkpt>
<trkpt lon="3.491047" lat="47.447693"><ele>158.75</ele></trkpt>
<trkpt lon="3.491322" lat="47.447629"><ele>156.5</ele></trkpt>
<trkpt lon="3.491371" lat="47.447617"><ele>156.25</ele></trkpt>
<trkpt lon="3.491489" lat="47.447606"><ele>156.0</ele></trkpt>
<trkpt lon="3.491549" lat="47.447560"><ele>155.5</ele></trkpt>
<trkpt lon="3.491749" lat="47.447477"><ele>154.75</ele></trkpt>
<trkpt lon="3.492060" lat="47.447271"><ele>153.75</ele></trkpt>
<trkpt lon="3.492291" lat="47.447063"><ele>153.25</ele></trkpt>
<trkpt lon="3.492300" lat="47.446971"><ele>153.5</ele></trkpt>
<trkpt lon="3.492233" lat="47.446872"><ele>153.5</ele></trkpt>
<trkpt lon="3.492194" lat="47.446834"><ele>153.5</ele></trkpt>
<trkpt lon="3.492105" lat="47.446747"><ele>153.25</ele></trkpt>
<trkpt lon="3.491938" lat="47.446585"><ele>153.5</ele></trkpt>
<trkpt lon="3.491708" lat="47.446413"><ele>153.75</ele></trkpt>
<trkpt lon="3.491407" lat="47.446257"><ele>154.0</ele></trkpt>
<trkpt lon="3.490898" lat="47.446106"><ele>153.75</ele></trkpt>
<trkpt lon="3.490641" lat="47.445971"><ele>154.0</ele></trkpt>
<trkpt lon="3.490522" lat="47.445829"><ele>154.0</ele></trkpt>
<trkpt lon="3.490428" lat="47.445612"><ele>154.75</ele></trkpt>
<trkpt lon="3.490328" lat="47.445419"><ele>155.25</ele></trkpt>
<trkpt lon="3.490297" lat="47.445321"><ele>155.5</ele></trkpt>
<trkpt lon="3.490178" lat="47.445181"><ele>157.5</ele></trkpt>
<trkpt lon="3.489930" lat="47.445017"><ele>159.5</ele></trkpt>
<trkpt lon="3.489606" lat="47.444929"><ele>161.75</ele></trkpt>
<trkpt lon="3.488587" lat="47.444711"><ele>168.0</ele></trkpt>
<trkpt lon="3.488455" lat="47.444662"><ele>168.5</ele></trkpt>
<trkpt lon="3.488363" lat="47.444530"><ele>171.5</ele></trkpt>
<trkpt lon="3.488398" lat="47.444349"><ele>175.5</ele></trkpt>
<trkpt lon="3.488524" lat="47.444128"><ele>180.0</ele></trkpt>
<trkpt lon="3.488921" lat="47.443064"><ele>189.0</ele></trkpt>
<trkpt lon="3.489076" lat="47.442749"><ele>190.5</ele></trkpt>
<trkpt lon="3.488946" lat="47.442724"><ele>188.5</ele></trkpt>
<trkpt lon="3.488330" lat="47.442625"><ele>190.5</ele></trkpt>
<trkpt lon="3.488183" lat="47.442588"><ele>191.0</ele></trkpt>
<trkpt lon="3.487813" lat="47.442493"><ele>192.0</ele></trkpt>
<trkpt lon="3.487374" lat="47.442219"><ele>195.0</ele></trkpt>
<trkpt lon="3.487043" lat="47.441927"><ele>197.0</ele></trkpt>
<trkpt lon="3.486805" lat="47.441808"><ele>197.75</ele></trkpt>
<trkpt lon="3.486052" lat="47.441430"><ele>200.5</ele></trkpt>
<trkpt lon="3.485567" lat="47.441102"><ele>202.0</ele></trkpt>
<trkpt lon="3.484593" lat="47.440319"><ele>203.75</ele></trkpt>
<trkpt lon="3.483918" lat="47.439830"><ele>203.75</ele></trkpt>
<trkpt lon="3.483464" lat="47.439592"><ele>204.0</ele></trkpt>
<trkpt lon="3.483567" lat="47.439521"><ele>204.0</ele></trkpt>
<trkpt lon="3.484814" lat="47.436445"><ele>194.25</ele></trkpt>
<trkpt lon="3.485201" lat="47.435568"><ele>190.75</ele></trkpt>
<trkpt lon="3.485182" lat="47.435472"><ele>190.75</ele></trkpt>
<trkpt lon="3.484126" lat="47.434637"><ele>189.0</ele></trkpt>
<trkpt lon="3.484052" lat="47.434573"><ele>189.25</ele></trkpt>
<trkpt lon="3.483183" lat="47.433924"><ele>189.25</ele></trkpt>
<trkpt lon="3.482651" lat="47.433540"><ele>189.25</ele></trkpt>
<trkpt lon="3.481463" lat="47.432953"><ele>189.75</ele></trkpt>
<trkpt lon="3.481268" lat="47.432926"><ele>190.5</ele></trkpt>
<trkpt lon="3.480984" lat="47.432941"><ele>191.0</ele></trkpt>
<trkpt lon="3.480679" lat="47.432868"><ele>190.5</ele></trkpt>
<trkpt lon="3.479242" lat="47.432315"><ele>186.75</ele></trkpt>
<trkpt lon="3.478417" lat="47.432061"><ele>183.75</ele></trkpt>
<trkpt lon="3.477957" lat="47.431955"><ele>183.25</ele></trkpt>
<trkpt lon="3.477746" lat="47.431881"><ele>183.75</ele></trkpt>
<trkpt lon="3.477556" lat="47.431781"><ele>183.25</ele></trkpt>
<trkpt lon="3.477401" lat="47.431751"><ele>183.75</ele></trkpt>
<trkpt lon="3.477177" lat="47.431752"><ele>184.75</ele></trkpt>
<trkpt lon="3.474606" lat="47.432148"><ele>190.0</ele></trkpt>
<trkpt lon="3.472204" lat="47.432974"><ele>196.5</ele></trkpt>
<trkpt lon="3.471533" lat="47.433274"><ele>197.5</ele></trkpt>
<trkpt lon="3.471339" lat="47.433326"><ele>198.0</ele></trkpt>
<trkpt lon="3.469908" lat="47.433481"><ele>200.25</ele></trkpt>
<trkpt lon="3.469729" lat="47.433546"><ele>200.0</ele></trkpt>
<trkpt lon="3.466509" lat="47.431899"><ele>206.0</ele></trkpt>
<trkpt lon="3.466140" lat="47.431032"><ele>209.0</ele></trkpt>
<trkpt lon="3.465433" lat="47.429406"><ele>213.0</ele></trkpt>
<trkpt lon="3.462405" lat="47.429110"><ele>216.25</ele></trkpt>
<trkpt lon="3.460116" lat="47.428769"><ele>219.25</ele></trkpt>
<trkpt lon="3.458647" lat="47.428474"><ele>222.25</ele></trkpt>
<trkpt lon="3.458137" lat="47.428351"><ele>224.5</ele></trkpt>
<trkpt lon="3.457944" lat="47.428216"><ele>225.75</ele></trkpt>
<trkpt lon="3.457068" lat="47.428095"><ele>229.25</ele></trkpt>
<trkpt lon="3.456591" lat="47.427963"><ele>231.0</ele></trkpt>
<trkpt lon="3.456470" lat="47.427879"><ele>231.25</ele></trkpt>
<trkpt lon="3.456241" lat="47.427840"><ele>231.25</ele></trkpt>
<trkpt lon="3.456147" lat="47.427818"><ele>231.0</ele></trkpt>
<trkpt lon="3.456037" lat="47.427703"><ele>230.5</ele></trkpt>
<trkpt lon="3.455587" lat="47.427298"><ele>227.0</ele></trkpt>
<trkpt lon="3.455293" lat="47.427134"><ele>224.25</ele></trkpt>
<trkpt lon="3.454924" lat="47.426896"><ele>222.25</ele></trkpt>
<trkpt lon="3.454784" lat="47.426732"><ele>220.75</ele></trkpt>
<trkpt lon="3.454628" lat="47.426349"><ele>218.5</ele></trkpt>
<trkpt lon="3.454544" lat="47.426226"><ele>217.0</ele></trkpt>
<trkpt lon="3.454464" lat="47.426149"><ele>216.0</ele></trkpt>
<trkpt lon="3.454206" lat="47.426029"><ele>214.25</ele></trkpt>
<trkpt lon="3.454035" lat="47.426039"><ele>213.0</ele></trkpt>
<trkpt lon="3.454039" lat="47.425943"><ele>213.25</ele></trkpt>
<trkpt lon="3.453992" lat="47.425647"><ele>213.5</ele></trkpt>
<trkpt lon="3.453949" lat="47.425153"><ele>213.25</ele></trkpt>
<trkpt lon="3.453956" lat="47.425011"><ele>213.25</ele></trkpt>
<trkpt lon="3.453970" lat="47.424747"><ele>213.5</ele></trkpt>
<trkpt lon="3.454056" lat="47.423760"><ele>214.0</ele></trkpt>
<trkpt lon="3.454206" lat="47.423179"><ele>213.25</ele></trkpt>
<trkpt lon="3.454378" lat="47.422671"><ele>212.5</ele></trkpt>
<trkpt lon="3.454421" lat="47.422279"><ele>211.0</ele></trkpt>
<trkpt lon="3.454442" lat="47.421843"><ele>210.25</ele></trkpt>
<trkpt lon="3.454442" lat="47.421684"><ele>209.0</ele></trkpt>
<trkpt lon="3.454067" lat="47.421668"><ele>207.5</ele></trkpt>
<trkpt lon="3.453841" lat="47.421404"><ele>205.75</ele></trkpt>
<trkpt lon="3.453595" lat="47.420686"><ele>206.25</ele></trkpt>
<trkpt lon="3.453322" lat="47.420384"><ele>206.5</ele></trkpt>
<trkpt lon="3.452852" lat="47.420159"><ele>206.25</ele></trkpt>
<trkpt lon="3.452626" lat="47.419982"><ele>204.75</ele></trkpt>
<trkpt lon="3.452403" lat="47.419692"><ele>204.25</ele></trkpt>
<trkpt lon="3.451979" lat="47.418813"><ele>209.5</ele></trkpt>
<trkpt lon="3.451187" lat="47.417516"><ele>215.0</ele></trkpt>
<trkpt lon="3.450485" lat="47.417344"><ele>213.25</ele></trkpt>
<trkpt lon="3.449528" lat="47.416888"><ele>211.25</ele></trkpt>
<trkpt lon="3.448432" lat="47.416820"><ele>210.0</ele></trkpt>
<trkpt lon="3.447266" lat="47.416951"><ele>207.0</ele></trkpt>
<trkpt lon="3.446349" lat="47.417070"><ele>204.25</ele></trkpt>
<trkpt lon="3.446170" lat="47.417016"><ele>203.75</ele></trkpt>
<trkpt lon="3.445588" lat="47.416631"><ele>202.0</ele></trkpt>
<trkpt lon="3.445275" lat="47.416523"><ele>200.75</ele></trkpt>
<trkpt lon="3.443724" lat="47.416475"><ele>196.25</ele></trkpt>
<trkpt lon="3.439653" lat="47.415384"><ele>186.75</ele></trkpt>
<trkpt lon="3.439322" lat="47.415246"><ele>185.5</ele></trkpt>
<trkpt lon="3.438301" lat="47.414579"><ele>184.0</ele></trkpt>
<trkpt lon="3.437769" lat="47.414142"><ele>183.0</ele></trkpt>
<trkpt lon="3.437667" lat="47.414067"><ele>183.0</ele></trkpt>
<trkpt lon="3.437620" lat="47.414033"><ele>183.0</ele></trkpt>
<trkpt lon="3.437257" lat="47.413934"><ele>182.75</ele></trkpt>
<trkpt lon="3.436841" lat="47.413904"><ele>182.75</ele></trkpt>
<trkpt lon="3.435837" lat="47.413565"><ele>182.75</ele></trkpt>
<trkpt lon="3.435704" lat="47.413465"><ele>182.75</ele></trkpt>
<trkpt lon="3.435128" lat="47.412807"><ele>182.75</ele></trkpt>
<trkpt lon="3.433920" lat="47.412570"><ele>184.0</ele></trkpt>
<trkpt lon="3.433464" lat="47.412394"><ele>184.0</ele></trkpt>
<trkpt lon="3.432745" lat="47.412059"><ele>185.0</ele></trkpt>
<trkpt lon="3.432110" lat="47.411877"><ele>185.0</ele></trkpt>
<trkpt lon="3.431340" lat="47.411219"><ele>186.0</ele></trkpt>
<trkpt lon="3.430914" lat="47.410913"><ele>186.0</ele></trkpt>
<trkpt lon="3.429786" lat="47.410322"><ele>189.5</ele></trkpt>
<trkpt lon="3.428820" lat="47.409758"><ele>193.0</ele></trkpt>
<trkpt lon="3.428509" lat="47.409683"><ele>194.5</ele></trkpt>
<trkpt lon="3.427330" lat="47.409729"><ele>201.0</ele></trkpt>
<trkpt lon="3.426032" lat="47.409756"><ele>213.5</ele></trkpt>
<trkpt lon="3.425483" lat="47.409820"><ele>218.5</ele></trkpt>
<trkpt lon="3.425186" lat="47.409784"><ele>221.75</ele></trkpt>
<trkpt lon="3.424571" lat="47.409142"><ele>235.25</ele></trkpt>
<trkpt lon="3.424501" lat="47.409038"><ele>237.5</ele></trkpt>
<trkpt lon="3.424718" lat="47.408972"><ele>237.5</ele></trkpt>
<trkpt lon="3.424906" lat="47.408782"><ele>238.25</ele></trkpt>
<trkpt lon="3.424943" lat="47.408706"><ele>239.0</ele></trkpt>
<trkpt lon="3.424973" lat="47.408323"><ele>244.25</ele></trkpt>
<trkpt lon="3.425150" lat="47.407651"><ele>248.75</ele></trkpt>
<trkpt lon="3.425249" lat="47.407366"><ele>250.0</ele></trkpt>
<trkpt lon="3.425331" lat="47.407312"><ele>249.75</ele></trkpt>
<trkpt lon="3.425328" lat="47.407159"><ele>251.0</ele></trkpt>
<trkpt lon="3.425453" lat="47.406906"><ele>251.0</ele></trkpt>
<trkpt lon="3.425464" lat="47.406580"><ele>251.75</ele></trkpt>
<trkpt lon="3.425026" lat="47.406284"><ele>256.0</ele></trkpt>
<trkpt lon="3.424728" lat="47.406032"><ele>258.25</ele></trkpt>
<trkpt lon="3.424539" lat="47.405952"><ele>259.0</ele></trkpt>
<trkpt lon="3.424380" lat="47.405962"><ele>259.5</ele></trkpt>
<trkpt lon="3.424434" lat="47.405681"><ele>260.5</ele></trkpt>
<trkpt lon="3.424113" lat="47.405146"><ele>261.0</ele></trkpt>
<trkpt lon="3.423921" lat="47.404768"><ele>261.0</ele></trkpt>
<trkpt lon="3.423781" lat="47.404317"><ele>260.75</ele></trkpt>
<trkpt lon="3.423697" lat="47.403805"><ele>261.25</ele></trkpt>
<trkpt lon="3.423745" lat="47.403145"><ele>261.25</ele></trkpt>
<trkpt lon="3.423740" lat="47.402791"><ele>261.75</ele></trkpt>
<trkpt lon="3.423690" lat="47.402649"><ele>262.0</ele></trkpt>
<trkpt lon="3.423554" lat="47.402468"><ele>262.0</ele></trkpt>
<trkpt lon="3.423222" lat="47.402226"><ele>262.5</ele></trkpt>
<trkpt lon="3.422406" lat="47.401777"><ele>264.25</ele></trkpt>
<trkpt lon="3.422153" lat="47.401554"><ele>265.75</ele></trkpt>
<trkpt lon="3.421867" lat="47.401169"><ele>267.75</ele></trkpt>
<trkpt lon="3.421664" lat="47.400812"><ele>268.75</ele></trkpt>
<trkpt lon="3.421547" lat="47.400641"><ele>268.25</ele></trkpt>
<trkpt lon="3.421325" lat="47.400452"><ele>267.75</ele></trkpt>
<trkpt lon="3.420617" lat="47.399911"><ele>265.0</ele></trkpt>
<trkpt lon="3.420349" lat="47.399692"><ele>264.0</ele></trkpt>
<trkpt lon="3.420218" lat="47.399498"><ele>263.75</ele></trkpt>
<trkpt lon="3.420099" lat="47.399213"><ele>263.0</ele></trkpt>
<trkpt lon="3.420056" lat="47.399025"><ele>262.75</ele></trkpt>
<trkpt lon="3.420046" lat="47.398462"><ele>261.5</ele></trkpt>
<trkpt lon="3.420056" lat="47.398246"><ele>261.25</ele></trkpt>
<trkpt lon="3.419979" lat="47.397288"><ele>250.5</ele></trkpt>
<trkpt lon="3.419984" lat="47.397141"><ele>248.75</ele></trkpt>
<trkpt lon="3.420018" lat="47.397060"><ele>247.5</ele></trkpt>
<trkpt lon="3.420130" lat="47.396938"><ele>246.75</ele></trkpt>
<trkpt lon="3.420158" lat="47.396896"><ele>246.25</ele></trkpt>
<trkpt lon="3.420156" lat="47.396852"><ele>245.75</ele></trkpt>
<trkpt lon="3.419843" lat="47.396521"><ele>241.75</ele></trkpt>
<trkpt lon="3.419800" lat="47.396455"><ele>240.75</ele></trkpt>
<trkpt lon="3.419805" lat="47.396367"><ele>240.0</ele></trkpt>
<trkpt lon="3.419583" lat="47.396066"><ele>237.0</ele></trkpt>
<trkpt lon="3.419565" lat="47.395994"><ele>236.5</ele></trkpt>
<trkpt lon="3.419576" lat="47.395956"><ele>236.25</ele></trkpt>
<trkpt lon="3.419669" lat="47.395868"><ele>236.0</ele></trkpt>
<trkpt lon="3.419727" lat="47.395763"><ele>235.0</ele></trkpt>
<trkpt lon="3.419756" lat="47.395629"><ele>233.75</ele></trkpt>
<trkpt lon="3.419461" lat="47.395020"><ele>232.75</ele></trkpt>
<trkpt lon="3.419195" lat="47.394810"><ele>232.5</ele></trkpt>
<trkpt lon="3.418756" lat="47.394595"><ele>234.25</ele></trkpt>
<trkpt lon="3.418596" lat="47.394463"><ele>234.75</ele></trkpt>
<trkpt lon="3.418282" lat="47.393917"><ele>238.0</ele></trkpt>
<trkpt lon="3.417754" lat="47.392025"><ele>251.0</ele></trkpt>
<trkpt lon="3.417738" lat="47.391497"><ele>255.75</ele></trkpt>
<trkpt lon="3.417660" lat="47.390994"><ele>259.75</ele></trkpt>
<trkpt lon="3.417539" lat="47.390378"><ele>263.25</ele></trkpt>
<trkpt lon="3.417475" lat="47.389981"><ele>265.0</ele></trkpt>
<trkpt lon="3.417428" lat="47.389665"><ele>264.75</ele></trkpt>
<trkpt lon="3.417475" lat="47.389565"><ele>264.25</ele></trkpt>
<trkpt lon="3.417553" lat="47.389543"><ele>264.25</ele></trkpt>
<trkpt lon="3.418557" lat="47.389374"><ele>265.75</ele></trkpt>
<trkpt lon="3.418606" lat="47.389353"><ele>265.75</ele></trkpt>
<trkpt lon="3.418617" lat="47.389302"><ele>266.0</ele></trkpt>
<trkpt lon="3.417971" lat="47.387268"><ele>263.0</ele></trkpt>
<trkpt lon="3.417726" lat="47.386755"><ele>260.5</ele></trkpt>
<trkpt lon="3.417658" lat="47.386533"><ele>259.25</ele></trkpt>
<trkpt lon="3.417663" lat="47.386409"><ele>258.75</ele></trkpt>
<trkpt lon="3.417657" lat="47.386176"><ele>257.0</ele></trkpt>
<trkpt lon="3.417569" lat="47.385863"><ele>254.5</ele></trkpt>
<trkpt lon="3.417478" lat="47.385691"><ele>254.25</ele></trkpt>
<trkpt lon="3.417230" lat="47.385391"><ele>255.75</ele></trkpt>
<trkpt lon="3.416696" lat="47.384774"><ele>258.75</ele></trkpt>
<trkpt lon="3.415898" lat="47.383965"><ele>262.25</ele></trkpt>
<trkpt lon="3.415728" lat="47.383806"><ele>263.25</ele></trkpt>
<trkpt lon="3.415701" lat="47.383789"><ele>263.25</ele></trkpt>
<trkpt lon="3.415579" lat="47.383712"><ele>263.5</ele></trkpt>
<trkpt lon="3.414549" lat="47.382915"><ele>270.25</ele></trkpt>
<trkpt lon="3.414034" lat="47.382439"><ele>275.25</ele></trkpt>
<trkpt lon="3.412387" lat="47.381215"><ele>285.75</ele></trkpt>
<trkpt lon="3.411260" lat="47.380001"><ele>278.5</ele></trkpt>
<trkpt lon="3.410912" lat="47.379820"><ele>276.5</ele></trkpt>
<trkpt lon="3.410252" lat="47.379606"><ele>273.5</ele></trkpt>
<trkpt lon="3.409442" lat="47.379235"><ele>268.5</ele></trkpt>
<trkpt lon="3.408444" lat="47.378657"><ele>262.5</ele></trkpt>
<trkpt lon="3.407575" lat="47.377876"><ele>255.5</ele></trkpt>
<trkpt lon="3.407346" lat="47.377600"><ele>253.75</ele></trkpt>
<trkpt lon="3.406658" lat="47.376816"><ele>250.75</ele></trkpt>
<trkpt lon="3.406073" lat="47.376256"><ele>249.0</ele></trkpt>
<trkpt lon="3.405354" lat="47.375791"><ele>247.0</ele></trkpt>
<trkpt lon="3.405113" lat="47.375522"><ele>246.0</ele></trkpt>
<trkpt lon="3.405000" lat="47.375235"><ele>245.0</ele></trkpt>
<trkpt lon="3.404995" lat="47.374530"><ele>242.5</ele></trkpt>
<trkpt lon="3.405224" lat="47.374429"><ele>243.5</ele></trkpt>
<trkpt lon="3.405097" lat="47.374379"><ele>242.5</ele></trkpt>
<trkpt lon="3.405027" lat="47.373747"><ele>242.5</ele></trkpt>
<trkpt lon="3.404987" lat="47.373660"><ele>242.75</ele></trkpt>
<trkpt lon="3.404772" lat="47.373335"><ele>243.75</ele></trkpt>
<trkpt lon="3.404673" lat="47.373104"><ele>244.75</ele></trkpt>
<trkpt lon="3.404478" lat="47.372456"><ele>248.0</ele></trkpt>
<trkpt lon="3.404433" lat="47.372204"><ele>249.0</ele></trkpt>
<trkpt lon="3.404294" lat="47.371924"><ele>250.0</ele></trkpt>
<trkpt lon="3.403737" lat="47.370603"><ele>255.25</ele></trkpt>
<trkpt lon="3.402915" lat="47.368575"><ele>270.25</ele></trkpt>
<trkpt lon="3.402801" lat="47.368213"><ele>274.25</ele></trkpt>
<trkpt lon="3.402716" lat="47.367504"><ele>279.75</ele></trkpt>
<trkpt lon="3.402426" lat="47.365665"><ele>284.5</ele></trkpt>
<trkpt lon="3.401884" lat="47.365922"><ele>280.5</ele></trkpt>
<trkpt lon="3.401661" lat="47.366008"><ele>279.5</ele></trkpt>
<trkpt lon="3.400677" lat="47.366272"><ele>271.0</ele></trkpt>
<trkpt lon="3.400425" lat="47.366308"><ele>269.5</ele></trkpt>
<trkpt lon="3.400034" lat="47.366325"><ele>267.75</ele></trkpt>
<trkpt lon="3.398497" lat="47.366251"><ele>261.0</ele></trkpt>
<trkpt lon="3.397827" lat="47.366194"><ele>259.0</ele></trkpt>
<trkpt lon="3.397415" lat="47.366171"><ele>258.25</ele></trkpt>
<trkpt lon="3.396960" lat="47.366205"><ele>256.5</ele></trkpt>
<trkpt lon="3.395623" lat="47.366467"><ele>252.5</ele></trkpt>
<trkpt lon="3.394860" lat="47.366580"><ele>250.25</ele></trkpt>
<trkpt lon="3.392999" lat="47.366973"><ele>245.0</ele></trkpt>
<trkpt lon="3.392111" lat="47.367108"><ele>242.0</ele></trkpt>
<trkpt lon="3.390498" lat="47.367280"><ele>236.75</ele></trkpt>
<trkpt lon="3.389822" lat="47.367356"><ele>236.0</ele></trkpt>
<trkpt lon="3.389358" lat="47.367366"><ele>235.25</ele></trkpt>
<trkpt lon="3.389266" lat="47.367347"><ele>235.25</ele></trkpt>
<trkpt lon="3.389111" lat="47.367434"><ele>233.75</ele></trkpt>
<trkpt lon="3.388355" lat="47.367557"><ele>231.5</ele></trkpt>
<trkpt lon="3.387799" lat="47.367615"><ele>230.75</ele></trkpt>
<trkpt lon="3.387093" lat="47.367484"><ele>227.5</ele></trkpt>
<trkpt lon="3.386312" lat="47.367309"><ele>224.25</ele></trkpt>
<trkpt lon="3.386036" lat="47.367186"><ele>223.5</ele></trkpt>
<trkpt lon="3.385807" lat="47.367043"><ele>222.5</ele></trkpt>
<trkpt lon="3.385771" lat="47.367013"><ele>222.5</ele></trkpt>
<trkpt lon="3.385758" lat="47.366923"><ele>222.75</ele></trkpt>
<trkpt lon="3.385797" lat="47.366090"><ele>224.75</ele></trkpt>
<trkpt lon="3.385817" lat="47.365888"><ele>225.5</ele></trkpt>
<trkpt lon="3.385474" lat="47.365789"><ele>223.25</ele></trkpt>
<trkpt lon="3.385347" lat="47.365765"><ele>222.25</ele></trkpt>
<trkpt lon="3.384994" lat="47.365736"><ele>220.25</ele></trkpt>
<trkpt lon="3.384941" lat="47.365732"><ele>220.0</ele></trkpt>
<trkpt lon="3.383462" lat="47.365623"><ele>214.75</ele></trkpt>
<trkpt lon="3.383238" lat="47.365631"><ele>215.0</ele></trkpt>
<trkpt lon="3.382378" lat="47.365713"><ele>214.25</ele></trkpt>
<trkpt lon="3.381839" lat="47.365726"><ele>215.25</ele></trkpt>
<trkpt lon="3.381374" lat="47.365751"><ele>217.75</ele></trkpt>
<trkpt lon="3.381194" lat="47.365796"><ele>218.75</ele></trkpt>
<trkpt lon="3.381105" lat="47.365836"><ele>219.0</ele></trkpt>
<trkpt lon="3.381082" lat="47.365967"><ele>220.0</ele></trkpt>
<trkpt lon="3.381126" lat="47.366193"><ele>221.0</ele></trkpt>
<trkpt lon="3.381128" lat="47.366369"><ele>221.75</ele></trkpt>
<trkpt lon="3.380876" lat="47.366373"><ele>222.75</ele></trkpt>
<trkpt lon="3.380621" lat="47.366353"><ele>223.25</ele></trkpt>
<trkpt lon="3.380557" lat="47.366361"><ele>223.25</ele></trkpt>
<trkpt lon="3.380342" lat="47.366451"><ele>223.75</ele></trkpt>
<trkpt lon="3.379623" lat="47.366752"><ele>222.25</ele></trkpt>
<trkpt lon="3.379336" lat="47.366727"><ele>222.5</ele></trkpt>
<trkpt lon="3.378596" lat="47.366501"><ele>222.25</ele></trkpt>
<trkpt lon="3.377620" lat="47.365978"><ele>223.0</ele></trkpt>
<trkpt lon="3.375529" lat="47.364486"><ele>229.5</ele></trkpt>
<trkpt lon="3.374723" lat="47.363609"><ele>235.0</ele></trkpt>
<trkpt lon="3.374358" lat="47.361647"><ele>245.75</ele></trkpt>
<trkpt lon="3.373232" lat="47.359976"><ele>255.5</ele></trkpt>
<trkpt lon="3.373006" lat="47.359758"><ele>256.5</ele></trkpt>
<trkpt lon="3.372599" lat="47.359183"><ele>260.0</ele></trkpt>
<trkpt lon="3.372238" lat="47.359180"><ele>260.75</ele></trkpt>
<trkpt lon="3.372175" lat="47.359128"><ele>261.5</ele></trkpt>
<trkpt lon="3.372107" lat="47.358682"><ele>263.75</ele></trkpt>
<trkpt lon="3.372019" lat="47.358453"><ele>264.75</ele></trkpt>
<trkpt lon="3.371344" lat="47.357429"><ele>271.75</ele></trkpt>
<trkpt lon="3.370883" lat="47.356971"><ele>273.75</ele></trkpt>
<trkpt lon="3.370626" lat="47.356557"><ele>277.75</ele></trkpt>
<trkpt lon="3.369810" lat="47.355794"><ele>284.25</ele></trkpt>
<trkpt lon="3.369370" lat="47.355285"><ele>287.75</ele></trkpt>
<trkpt lon="3.369334" lat="47.355204"><ele>288.5</ele></trkpt>
<trkpt lon="3.366937" lat="47.355134"><ele>291.5</ele></trkpt>
<trkpt lon="3.366780" lat="47.355236"><ele>291.5</ele></trkpt>
<trkpt lon="3.366746" lat="47.355272"><ele>291.5</ele></trkpt>
<trkpt lon="3.366639" lat="47.355284"><ele>292.0</ele></trkpt>
<trkpt lon="3.366463" lat="47.355281"><ele>292.5</ele></trkpt>
<trkpt lon="3.366317" lat="47.355512"><ele>293.25</ele></trkpt>
<trkpt lon="3.366066" lat="47.355870"><ele>295.25</ele></trkpt>
<trkpt lon="3.365867" lat="47.356001"><ele>296.25</ele></trkpt>
<trkpt lon="3.365556" lat="47.356099"><ele>297.75</ele></trkpt>
<trkpt lon="3.365192" lat="47.356248"><ele>299.25</ele></trkpt>
<trkpt lon="3.364408" lat="47.356502"><ele>304.25</ele></trkpt>
<trkpt lon="3.363962" lat="47.356553"><ele>308.0</ele></trkpt>
<trkpt lon="3.363588" lat="47.356477"><ele>313.0</ele></trkpt>
<trkpt lon="3.363314" lat="47.356473"><ele>316.75</ele></trkpt>
<trkpt lon="3.362820" lat="47.356757"><ele>323.25</ele></trkpt>
<trkpt lon="3.361469" lat="47.358072"><ele>332.25</ele></trkpt>
<trkpt lon="3.360256" lat="47.358279"><ele>339.0</ele></trkpt>
<trkpt lon="3.358915" lat="47.359075"><ele>337.25</ele></trkpt>
<trkpt lon="3.358594" lat="47.359236"><ele>335.75</ele></trkpt>
<trkpt lon="3.357343" lat="47.357185"><ele>335.5</ele></trkpt>
<trkpt lon="3.357139" lat="47.356970"><ele>335.5</ele></trkpt>
<trkpt lon="3.356935" lat="47.356840"><ele>334.75</ele></trkpt>
<trkpt lon="3.351458" lat="47.355600"><ele>323.75</ele></trkpt>
<trkpt lon="3.348757" lat="47.354980"><ele>325.0</ele></trkpt>
<trkpt lon="3.348561" lat="47.354935"><ele>324.75</ele></trkpt>
<trkpt lon="3.348116" lat="47.354917"><ele>324.0</ele></trkpt>
<trkpt lon="3.347805" lat="47.355070"><ele>323.75</ele></trkpt>
<trkpt lon="3.332932" lat="47.363397"><ele>246.0</ele></trkpt>
<trkpt lon="3.332821" lat="47.363418"><ele>244.0</ele></trkpt>
<trkpt lon="3.332683" lat="47.363651"><ele>244.5</ele></trkpt>
<trkpt lon="3.332470" lat="47.363858"><ele>243.75</ele></trkpt>
<trkpt lon="3.332076" lat="47.364154"><ele>241.75</ele></trkpt>
<trkpt lon="3.331864" lat="47.364424"><ele>241.25</ele></trkpt>
<trkpt lon="3.331579" lat="47.364927"><ele>241.5</ele></trkpt>
<trkpt lon="3.331441" lat="47.365097"><ele>240.75</ele></trkpt>
<trkpt lon="3.331264" lat="47.365231"><ele>240.5</ele></trkpt>
<trkpt lon="3.331005" lat="47.365374"><ele>240.5</ele></trkpt>
<trkpt lon="3.330346" lat="47.365684"><ele>239.75</ele></trkpt>
<trkpt lon="3.330088" lat="47.365857"><ele>239.5</ele></trkpt>
<trkpt lon="3.329945" lat="47.365976"><ele>239.25</ele></trkpt>
<trkpt lon="3.329820" lat="47.366115"><ele>239.25</ele></trkpt>
<trkpt lon="3.329752" lat="47.366205"><ele>239.0</ele></trkpt>
<trkpt lon="3.329703" lat="47.366293"><ele>239.0</ele></trkpt>
<trkpt lon="3.329660" lat="47.366413"><ele>239.0</ele></trkpt>
<trkpt lon="3.329638" lat="47.366553"><ele>238.5</ele></trkpt>
<trkpt lon="3.329643" lat="47.366663"><ele>238.5</ele></trkpt>
<trkpt lon="3.329665" lat="47.366759"><ele>238.75</ele></trkpt>
<trkpt lon="3.329733" lat="47.366924"><ele>239.0</ele></trkpt>
<trkpt lon="3.329660" lat="47.366894"><ele>238.5</ele></trkpt>
<trkpt lon="3.329645" lat="47.366880"><ele>238.25</ele></trkpt>
<trkpt lon="3.329533" lat="47.366691"><ele>236.5</ele></trkpt>
<trkpt lon="3.329491" lat="47.366580"><ele>236.0</ele></trkpt>
<trkpt lon="3.329481" lat="47.366543"><ele>236.0</ele></trkpt>
<trkpt lon="3.329472" lat="47.366490"><ele>236.0</ele></trkpt>
<trkpt lon="3.329464" lat="47.366435"><ele>236.0</ele></trkpt>
<trkpt lon="3.329469" lat="47.366194"><ele>236.0</ele></trkpt>
<trkpt lon="3.329433" lat="47.366141"><ele>236.0</ele></trkpt>
<trkpt lon="3.329346" lat="47.366081"><ele>236.0</ele></trkpt>
<trkpt lon="3.329157" lat="47.366003"><ele>235.75</ele></trkpt>
<trkpt lon="3.327875" lat="47.365583"><ele>236.0</ele></trkpt>
<trkpt lon="3.327594" lat="47.365496"><ele>235.5</ele></trkpt>
<trkpt lon="3.326867" lat="47.365488"><ele>236.75</ele></trkpt>
<trkpt lon="3.326690" lat="47.364990"><ele>238.5</ele></trkpt>
<trkpt lon="3.326588" lat="47.364449"><ele>238.75</ele></trkpt>
<trkpt lon="3.326567" lat="47.363820"><ele>239.5</ele></trkpt>
<trkpt lon="3.326460" lat="47.363221"><ele>240.5</ele></trkpt>
<trkpt lon="3.326186" lat="47.362243"><ele>244.5</ele></trkpt>
<trkpt lon="3.325097" lat="47.360176"><ele>248.0</ele></trkpt>
<trkpt lon="3.324410" lat="47.358980"><ele>250.75</ele></trkpt>
<trkpt lon="3.324003" lat="47.358511"><ele>252.25</ele></trkpt>
<trkpt lon="3.323311" lat="47.358086"><ele>252.25</ele></trkpt>
<trkpt lon="3.322597" lat="47.357719"><ele>252.75</ele></trkpt>
<trkpt lon="3.322147" lat="47.357545"><ele>253.0</ele></trkpt>
<trkpt lon="3.321487" lat="47.357403"><ele>254.5</ele></trkpt>
<trkpt lon="3.320940" lat="47.357178"><ele>254.5</ele></trkpt>
<trkpt lon="3.319899" lat="47.356665"><ele>255.5</ele></trkpt>
<trkpt lon="3.319244" lat="47.356327"><ele>256.5</ele></trkpt>
<trkpt lon="3.318579" lat="47.355837"><ele>256.0</ele></trkpt>
<trkpt lon="3.318268" lat="47.355579"><ele>257.75</ele></trkpt>
<trkpt lon="3.318129" lat="47.355313"><ele>258.25</ele></trkpt>
<trkpt lon="3.317855" lat="47.354699"><ele>258.5</ele></trkpt>
<trkpt lon="3.317716" lat="47.354543"><ele>258.5</ele></trkpt>
<trkpt lon="3.316377" lat="47.353543"><ele>265.5</ele></trkpt>
<trkpt lon="3.316076" lat="47.353711"><ele>262.75</ele></trkpt>
<trkpt lon="3.301115" lat="47.340224"><ele>277.75</ele></trkpt>
<trkpt lon="3.299034" lat="47.338348"><ele>274.75</ele></trkpt>
<trkpt lon="3.298774" lat="47.338256"><ele>274.5</ele></trkpt>
<trkpt lon="3.297167" lat="47.337872"><ele>275.0</ele></trkpt>
<trkpt lon="3.296368" lat="47.337624"><ele>275.5</ele></trkpt>
<trkpt lon="3.296216" lat="47.337577"><ele>275.75</ele></trkpt>
<trkpt lon="3.294866" lat="47.337145"><ele>278.25</ele></trkpt>
<trkpt lon="3.294559" lat="47.337022"><ele>279.0</ele></trkpt>
<trkpt lon="3.294387" lat="47.336892"><ele>279.25</ele></trkpt>
<trkpt lon="3.294107" lat="47.336780"><ele>279.75</ele></trkpt>
<trkpt lon="3.293783" lat="47.336707"><ele>279.0</ele></trkpt>
<trkpt lon="3.292791" lat="47.336506"><ele>278.25</ele></trkpt>
<trkpt lon="3.292449" lat="47.336492"><ele>278.0</ele></trkpt>
<trkpt lon="3.290180" lat="47.336747"><ele>276.0</ele></trkpt>
<trkpt lon="3.289832" lat="47.336772"><ele>276.0</ele></trkpt>
<trkpt lon="3.289489" lat="47.336659"><ele>276.75</ele></trkpt>
<trkpt lon="3.288419" lat="47.336454"><ele>278.75</ele></trkpt>
<trkpt lon="3.287975" lat="47.336340"><ele>278.75</ele></trkpt>
<trkpt lon="3.287722" lat="47.336261"><ele>278.5</ele></trkpt>
<trkpt lon="3.287225" lat="47.335977"><ele>277.0</ele></trkpt>
<trkpt lon="3.286138" lat="47.335443"><ele>274.5</ele></trkpt>
<trkpt lon="3.285732" lat="47.335313"><ele>274.75</ele></trkpt>
<trkpt lon="3.285101" lat="47.335178"><ele>275.0</ele></trkpt>
<trkpt lon="3.284768" lat="47.335130"><ele>275.0</ele></trkpt>
<trkpt lon="3.284025" lat="47.334905"><ele>275.5</ele></trkpt>
<trkpt lon="3.283324" lat="47.334701"><ele>276.0</ele></trkpt>
<trkpt lon="3.282723" lat="47.334590"><ele>276.0</ele></trkpt>
<trkpt lon="3.282324" lat="47.334509"><ele>276.5</ele></trkpt>
<trkpt lon="3.282056" lat="47.334426"><ele>277.0</ele></trkpt>
<trkpt lon="3.281530" lat="47.334289"><ele>278.0</ele></trkpt>
<trkpt lon="3.281103" lat="47.334180"><ele>278.0</ele></trkpt>
<trkpt lon="3.280505" lat="47.334077"><ele>279.0</ele></trkpt>
<trkpt lon="3.278814" lat="47.333798"><ele>282.5</ele></trkpt>
<trkpt lon="3.277981" lat="47.333671"><ele>284.0</ele></trkpt>
<trkpt lon="3.277651" lat="47.333659"><ele>284.25</ele></trkpt>
<trkpt lon="3.278030" lat="47.332824"><ele>282.0</ele></trkpt>
<trkpt lon="3.278378" lat="47.332228"><ele>281.75</ele></trkpt>
<trkpt lon="3.278657" lat="47.331655"><ele>282.0</ele></trkpt>
<trkpt lon="3.278722" lat="47.331581"><ele>282.0</ele></trkpt>
<trkpt lon="3.279821" lat="47.330683"><ele>283.0</ele></trkpt>
<trkpt lon="3.281146" lat="47.330339"><ele>281.75</ele></trkpt>
<trkpt lon="3.281683" lat="47.330192"><ele>280.5</ele></trkpt>
<trkpt lon="3.282812" lat="47.329787"><ele>279.75</ele></trkpt>
<trkpt lon="3.285060" lat="47.328968"><ele>279.25</ele></trkpt>
<trkpt lon="3.289389" lat="47.327314"><ele>275.0</ele></trkpt>
<trkpt lon="3.288335" lat="47.324847"><ele>277.25</ele></trkpt>
<trkpt lon="3.287737" lat="47.323523"><ele>272.75</ele></trkpt>
<trkpt lon="3.287699" lat="47.323485"><ele>272.75</ele></trkpt>
<trkpt lon="3.287506" lat="47.323358"><ele>273.0</ele></trkpt>
<trkpt lon="3.287202" lat="47.323236"><ele>272.5</ele></trkpt>
<trkpt lon="3.286841" lat="47.323071"><ele>272.25</ele></trkpt>
<trkpt lon="3.286483" lat="47.322207"><ele>272.0</ele></trkpt>
<trkpt lon="3.285674" lat="47.321120"><ele>274.75</ele></trkpt>
<trkpt lon="3.285178" lat="47.320561"><ele>276.25</ele></trkpt>
<trkpt lon="3.284618" lat="47.319879"><ele>278.0</ele></trkpt>
<trkpt lon="3.284011" lat="47.319026"><ele>277.25</ele></trkpt>
<trkpt lon="3.283868" lat="47.318825"><ele>277.0</ele></trkpt>
<trkpt lon="3.283240" lat="47.318113"><ele>276.0</ele></trkpt>
<trkpt lon="3.282929" lat="47.316870"><ele>275.0</ele></trkpt>
<trkpt lon="3.282290" lat="47.314668"><ele>277.0</ele></trkpt>
<trkpt lon="3.281979" lat="47.312523"><ele>278.0</ele></trkpt>
<trkpt lon="3.281729" lat="47.310682"><ele>276.0</ele></trkpt>
<trkpt lon="3.280295" lat="47.310711"><ele>276.5</ele></trkpt>
<trkpt lon="3.279319" lat="47.309737"><ele>275.0</ele></trkpt>
<trkpt lon="3.278525" lat="47.309016"><ele>273.75</ele></trkpt>
<trkpt lon="3.277883" lat="47.308264"><ele>270.75</ele></trkpt>
<trkpt lon="3.276964" lat="47.308490"><ele>270.0</ele></trkpt>
<trkpt lon="3.276626" lat="47.308165"><ele>268.25</ele></trkpt>
<trkpt lon="3.276497" lat="47.308027"><ele>268.0</ele></trkpt>
<trkpt lon="3.275928" lat="47.307511"><ele>269.5</ele></trkpt>
<trkpt lon="3.275445" lat="47.307292"><ele>270.75</ele></trkpt>
<trkpt lon="3.274533" lat="47.306892"><ele>273.0</ele></trkpt>
<trkpt lon="3.273782" lat="47.306601"><ele>274.0</ele></trkpt>
<trkpt lon="3.271926" lat="47.306237"><ele>276.25</ele></trkpt>
<trkpt lon="3.271508" lat="47.305968"><ele>276.0</ele></trkpt>
<trkpt lon="3.270725" lat="47.305335"><ele>275.0</ele></trkpt>
<trkpt lon="3.269398" lat="47.304652"><ele>276.0</ele></trkpt>
<trkpt lon="3.268976" lat="47.304455"><ele>276.0</ele></trkpt>
<trkpt lon="3.267624" lat="47.304040"><ele>276.0</ele></trkpt>
<trkpt lon="3.266841" lat="47.303888"><ele>276.25</ele></trkpt>
<trkpt lon="3.265768" lat="47.303808"><ele>278.0</ele></trkpt>
<trkpt lon="3.263793" lat="47.303704"><ele>279.25</ele></trkpt>
<trkpt lon="3.262680" lat="47.303633"><ele>280.0</ele></trkpt>
<trkpt lon="3.261929" lat="47.303476"><ele>279.75</ele></trkpt>
<trkpt lon="3.260717" lat="47.303102"><ele>279.75</ele></trkpt>
<trkpt lon="3.259998" lat="47.302923"><ele>279.25</ele></trkpt>
<trkpt lon="3.259547" lat="47.302894"><ele>279.5</ele></trkpt>
<trkpt lon="3.259156" lat="47.302822"><ele>279.75</ele></trkpt>
<trkpt lon="3.258795" lat="47.302712"><ele>280.0</ele></trkpt>
<trkpt lon="3.257706" lat="47.302312"><ele>280.75</ele></trkpt>
<trkpt lon="3.257007" lat="47.301963"><ele>281.75</ele></trkpt>
<trkpt lon="3.256804" lat="47.301850"><ele>282.5</ele></trkpt>
<trkpt lon="3.256638" lat="47.301704"><ele>283.0</ele></trkpt>
<trkpt lon="3.253033" lat="47.300449"><ele>295.5</ele></trkpt>
<trkpt lon="3.252639" lat="47.300369"><ele>296.5</ele></trkpt>
<trkpt lon="3.254909" lat="47.297841"><ele>281.75</ele></trkpt>
<trkpt lon="3.254940" lat="47.297787"><ele>281.75</ele></trkpt>
<trkpt lon="3.254959" lat="47.297682"><ele>282.5</ele></trkpt>
<trkpt lon="3.254963" lat="47.297596"><ele>283.0</ele></trkpt>
<trkpt lon="3.254917" lat="47.297410"><ele>284.0</ele></trkpt>
<trkpt lon="3.254871" lat="47.297162"><ele>284.75</ele></trkpt>
<trkpt lon="3.254872" lat="47.297074"><ele>285.0</ele></trkpt>
<trkpt lon="3.254956" lat="47.296847"><ele>286.0</ele></trkpt>
<trkpt lon="3.255664" lat="47.295745"><ele>286.25</ele></trkpt>
<trkpt lon="3.256023" lat="47.294006"><ele>285.25</ele></trkpt>
<trkpt lon="3.256140" lat="47.291765"><ele>285.75</ele></trkpt>
<trkpt lon="3.253012" lat="47.292018"><ele>290.5</ele></trkpt>
<trkpt lon="3.252731" lat="47.292063"><ele>291.75</ele></trkpt>
<trkpt lon="3.251752" lat="47.292389"><ele>296.75</ele></trkpt>
<trkpt lon="3.250966" lat="47.292607"><ele>300.5</ele></trkpt>
<trkpt lon="3.250775" lat="47.292646"><ele>301.0</ele></trkpt>
<trkpt lon="3.250239" lat="47.292571"><ele>302.0</ele></trkpt>
<trkpt lon="3.249684" lat="47.292376"><ele>302.25</ele></trkpt>
<trkpt lon="3.248363" lat="47.291677"><ele>304.75</ele></trkpt>
<trkpt lon="3.248249" lat="47.291655"><ele>305.0</ele></trkpt>
<trkpt lon="3.248048" lat="47.291349"><ele>307.0</ele></trkpt>
<trkpt lon="3.248043" lat="47.291283"><ele>307.25</ele></trkpt>
<trkpt lon="3.248056" lat="47.291205"><ele>307.5</ele></trkpt>
<trkpt lon="3.248238" lat="47.290797"><ele>308.75</ele></trkpt>
<trkpt lon="3.248238" lat="47.290706"><ele>308.75</ele></trkpt>
<trkpt lon="3.248072" lat="47.290490"><ele>309.75</ele></trkpt>
<trkpt lon="3.247857" lat="47.290357"><ele>311.0</ele></trkpt>
<trkpt lon="3.246800" lat="47.289895"><ele>313.25</ele></trkpt>
<trkpt lon="3.246716" lat="47.289677"><ele>313.0</ele></trkpt>
<trkpt lon="3.245730" lat="47.289360"><ele>309.25</ele></trkpt>
<trkpt lon="3.245489" lat="47.289305"><ele>309.0</ele></trkpt>
<trkpt lon="3.244668" lat="47.289153"><ele>307.75</ele></trkpt>
<trkpt lon="3.244368" lat="47.289073"><ele>307.25</ele></trkpt>
<trkpt lon="3.242997" lat="47.288560"><ele>305.0</ele></trkpt>
<trkpt lon="3.242756" lat="47.288490"><ele>304.75</ele></trkpt>
<trkpt lon="3.242493" lat="47.288438"><ele>304.5</ele></trkpt>
<trkpt lon="3.240956" lat="47.288238"><ele>305.75</ele></trkpt>
<trkpt lon="3.240669" lat="47.288183"><ele>307.0</ele></trkpt>
<trkpt lon="3.240449" lat="47.288101"><ele>308.0</ele></trkpt>
<trkpt lon="3.240366" lat="47.288052"><ele>308.5</ele></trkpt>
<trkpt lon="3.240280" lat="47.287972"><ele>309.25</ele></trkpt>
<trkpt lon="3.240232" lat="47.287859"><ele>309.75</ele></trkpt>
<trkpt lon="3.240215" lat="47.286187"><ele>317.75</ele></trkpt>
<trkpt lon="3.238504" lat="47.286592"><ele>324.0</ele></trkpt>
<trkpt lon="3.237587" lat="47.286722"><ele>328.0</ele></trkpt>
<trkpt lon="3.236194" lat="47.286748"><ele>332.75</ele></trkpt>
<trkpt lon="3.235301" lat="47.286702"><ele>335.75</ele></trkpt>
<trkpt lon="3.235160" lat="47.286320"><ele>335.75</ele></trkpt>
<trkpt lon="3.234883" lat="47.286092"><ele>331.5</ele></trkpt>
<trkpt lon="3.233168" lat="47.284950"><ele>303.75</ele></trkpt>
<trkpt lon="3.232670" lat="47.284533"><ele>300.0</ele></trkpt>
<trkpt lon="3.231950" lat="47.284117"><ele>295.0</ele></trkpt>
<trkpt lon="3.231063" lat="47.283848"><ele>289.75</ele></trkpt>
<trkpt lon="3.230291" lat="47.283499"><ele>286.0</ele></trkpt>
<trkpt lon="3.230126" lat="47.283382"><ele>285.0</ele></trkpt>
<trkpt lon="3.229945" lat="47.283494"><ele>284.25</ele></trkpt>
<trkpt lon="3.229591" lat="47.283661"><ele>282.25</ele></trkpt>
<trkpt lon="3.229162" lat="47.283778"><ele>280.5</ele></trkpt>
<trkpt lon="3.228373" lat="47.283913"><ele>277.0</ele></trkpt>
<trkpt lon="3.227955" lat="47.284051"><ele>276.5</ele></trkpt>
<trkpt lon="3.226988" lat="47.284504"><ele>274.0</ele></trkpt>
<trkpt lon="3.226795" lat="47.284590"><ele>273.5</ele></trkpt>
<trkpt lon="3.226740" lat="47.284613"><ele>273.5</ele></trkpt>
<trkpt lon="3.226735" lat="47.284543"><ele>273.5</ele></trkpt>
<trkpt lon="3.226709" lat="47.284463"><ele>273.0</ele></trkpt>
<trkpt lon="3.226405" lat="47.283874"><ele>274.0</ele></trkpt>
<trkpt lon="3.226364" lat="47.283766"><ele>274.25</ele></trkpt>
<trkpt lon="3.226282" lat="47.283430"><ele>275.0</ele></trkpt>
<trkpt lon="3.226203" lat="47.282998"><ele>275.25</ele></trkpt>
<trkpt lon="3.226194" lat="47.282911"><ele>275.25</ele></trkpt>
<trkpt lon="3.226107" lat="47.282560"><ele>275.75</ele></trkpt>
<trkpt lon="3.226060" lat="47.282440"><ele>276.0</ele></trkpt>
<trkpt lon="3.226036" lat="47.282394"><ele>276.25</ele></trkpt>
<trkpt lon="3.225936" lat="47.282383"><ele>276.0</ele></trkpt>
<trkpt lon="3.226031" lat="47.282242"><ele>276.5</ele></trkpt>
<trkpt lon="3.226041" lat="47.282140"><ele>277.0</ele></trkpt>
<trkpt lon="3.225055" lat="47.281595"><ele>277.5</ele></trkpt>
<trkpt lon="3.223987" lat="47.281005"><ele>280.5</ele></trkpt>
<trkpt lon="3.223789" lat="47.280994"><ele>280.0</ele></trkpt>
<trkpt lon="3.223437" lat="47.281029"><ele>279.0</ele></trkpt>
<trkpt lon="3.223348" lat="47.280978"><ele>279.0</ele></trkpt>
<trkpt lon="3.222821" lat="47.281016"><ele>276.0</ele></trkpt>
<trkpt lon="3.222564" lat="47.281067"><ele>275.0</ele></trkpt>
<trkpt lon="3.221709" lat="47.281359"><ele>273.0</ele></trkpt>
<trkpt lon="3.221352" lat="47.281459"><ele>272.5</ele></trkpt>
<trkpt lon="3.220239" lat="47.281623"><ele>273.0</ele></trkpt>
<trkpt lon="3.220207" lat="47.281607"><ele>273.0</ele></trkpt>
<trkpt lon="3.219872" lat="47.281216"><ele>272.75</ele></trkpt>
<trkpt lon="3.219806" lat="47.281176"><ele>272.75</ele></trkpt>
<trkpt lon="3.219681" lat="47.281080"><ele>272.75</ele></trkpt>
<trkpt lon="3.219495" lat="47.280970"><ele>272.25</ele></trkpt>
<trkpt lon="3.219086" lat="47.280837"><ele>272.5</ele></trkpt>
<trkpt lon="3.218998" lat="47.280720"><ele>271.5</ele></trkpt>
<trkpt lon="3.218923" lat="47.280530"><ele>269.0</ele></trkpt>
<trkpt lon="3.218814" lat="47.280072"><ele>267.25</ele></trkpt>
<trkpt lon="3.218776" lat="47.279822"><ele>266.25</ele></trkpt>
<trkpt lon="3.218732" lat="47.279678"><ele>266.0</ele></trkpt>
<trkpt lon="3.218387" lat="47.279104"><ele>264.0</ele></trkpt>
<trkpt lon="3.218329" lat="47.279042"><ele>263.75</ele></trkpt>
<trkpt lon="3.218164" lat="47.278883"><ele>263.25</ele></trkpt>
<trkpt lon="3.217440" lat="47.278334"><ele>259.75</ele></trkpt>
<trkpt lon="3.217590" lat="47.278206"><ele>259.75</ele></trkpt>
<trkpt lon="3.217872" lat="47.277876"><ele>260.25</ele></trkpt>
<trkpt lon="3.218251" lat="47.277418"><ele>261.75</ele></trkpt>
<trkpt lon="3.218439" lat="47.277205"><ele>263.25</ele></trkpt>
<trkpt lon="3.218793" lat="47.276914"><ele>264.0</ele></trkpt>
<trkpt lon="3.219050" lat="47.276662"><ele>265.0</ele></trkpt>
<trkpt lon="3.219335" lat="47.276320"><ele>266.5</ele></trkpt>
<trkpt lon="3.219302" lat="47.276207"><ele>266.0</ele></trkpt>
<trkpt lon="3.218525" lat="47.275127"><ele>260.75</ele></trkpt>
<trkpt lon="3.218181" lat="47.274624"><ele>261.25</ele></trkpt>
<trkpt lon="3.217881" lat="47.274155"><ele>264.25</ele></trkpt>
<trkpt lon="3.217784" lat="47.274031"><ele>265.25</ele></trkpt>
<trkpt lon="3.217677" lat="47.273925"><ele>266.25</ele></trkpt>
<trkpt lon="3.216867" lat="47.273259"><ele>266.75</ele></trkpt>
<trkpt lon="3.216363" lat="47.272906"><ele>265.25</ele></trkpt>
<trkpt lon="3.216239" lat="47.272779"><ele>265.0</ele></trkpt>
<trkpt lon="3.216052" lat="47.272506"><ele>263.75</ele></trkpt>
<trkpt lon="3.215767" lat="47.272022"><ele>260.25</ele></trkpt>
<trkpt lon="3.215628" lat="47.271840"><ele>259.0</ele></trkpt>
<trkpt lon="3.215601" lat="47.271785"><ele>258.75</ele></trkpt>
<trkpt lon="3.215309" lat="47.271327"><ele>256.25</ele></trkpt>
<trkpt lon="3.215169" lat="47.271148"><ele>256.25</ele></trkpt>
<trkpt lon="3.214944" lat="47.270961"><ele>256.25</ele></trkpt>
<trkpt lon="3.214480" lat="47.270670"><ele>258.5</ele></trkpt>
<trkpt lon="3.214115" lat="47.270457"><ele>261.75</ele></trkpt>
<trkpt lon="3.213667" lat="47.270167"><ele>266.25</ele></trkpt>
<trkpt lon="3.213418" lat="47.270051"><ele>268.75</ele></trkpt>
<trkpt lon="3.213318" lat="47.269993"><ele>270.0</ele></trkpt>
<trkpt lon="3.213085" lat="47.269710"><ele>275.75</ele></trkpt>
<trkpt lon="3.212957" lat="47.269478"><ele>280.0</ele></trkpt>
<trkpt lon="3.212901" lat="47.269108"><ele>286.5</ele></trkpt>
<trkpt lon="3.213298" lat="47.268125"><ele>298.0</ele></trkpt>
<trkpt lon="3.213641" lat="47.267324"><ele>313.25</ele></trkpt>
<trkpt lon="3.213974" lat="47.266778"><ele>321.0</ele></trkpt>
<trkpt lon="3.214940" lat="47.266035"><ele>329.0</ele></trkpt>
<trkpt lon="3.215401" lat="47.265438"><ele>338.0</ele></trkpt>
<trkpt lon="3.215615" lat="47.264892"><ele>344.5</ele></trkpt>
<trkpt lon="3.215744" lat="47.264135"><ele>353.75</ele></trkpt>
<trkpt lon="3.216796" lat="47.262293"><ele>359.25</ele></trkpt>
<trkpt lon="3.216130" lat="47.262009"><ele>359.75</ele></trkpt>
<trkpt lon="3.215776" lat="47.261980"><ele>360.0</ele></trkpt>
<trkpt lon="3.214596" lat="47.261448"><ele>359.0</ele></trkpt>
<trkpt lon="3.213910" lat="47.261361"><ele>358.0</ele></trkpt>
<trkpt lon="3.213298" lat="47.261186"><ele>356.75</ele></trkpt>
<trkpt lon="3.212740" lat="47.260880"><ele>355.0</ele></trkpt>
<trkpt lon="3.212021" lat="47.260130"><ele>354.0</ele></trkpt>
<trkpt lon="3.211624" lat="47.259184"><ele>352.75</ele></trkpt>
<trkpt lon="3.211528" lat="47.258536"><ele>352.5</ele></trkpt>
<trkpt lon="3.211528" lat="47.258281"><ele>352.5</ele></trkpt>
<trkpt lon="3.211560" lat="47.257779"><ele>353.0</ele></trkpt>
<trkpt lon="3.211335" lat="47.257334"><ele>353.25</ele></trkpt>
<trkpt lon="3.210648" lat="47.256468"><ele>352.0</ele></trkpt>
<trkpt lon="3.210326" lat="47.255754"><ele>351.5</ele></trkpt>
<trkpt lon="3.210264" lat="47.254895"><ele>349.5</ele></trkpt>
<trkpt lon="3.210197" lat="47.253242"><ele>347.25</ele></trkpt>
<trkpt lon="3.204575" lat="47.253270"><ele>308.25</ele></trkpt>
<trkpt lon="3.204232" lat="47.253278"><ele>303.0</ele></trkpt>
<trkpt lon="3.204157" lat="47.253227"><ele>301.25</ele></trkpt>
<trkpt lon="3.202816" lat="47.252725"><ele>287.5</ele></trkpt>
<trkpt lon="3.201325" lat="47.252441"><ele>275.0</ele></trkpt>
<trkpt lon="3.200187" lat="47.252106"><ele>266.0</ele></trkpt>
<trkpt lon="3.199211" lat="47.251873"><ele>262.5</ele></trkpt>
<trkpt lon="3.198288" lat="47.251778"><ele>258.25</ele></trkpt>
<trkpt lon="3.196067" lat="47.251625"><ele>251.75</ele></trkpt>
<trkpt lon="3.194726" lat="47.251793"><ele>247.5</ele></trkpt>
<trkpt lon="3.194533" lat="47.251778"><ele>247.5</ele></trkpt>
<trkpt lon="3.194372" lat="47.251720"><ele>247.5</ele></trkpt>
<trkpt lon="3.194190" lat="47.251479"><ele>247.0</ele></trkpt>
<trkpt lon="3.193900" lat="47.250955"><ele>244.5</ele></trkpt>
<trkpt lon="3.193857" lat="47.250474"><ele>243.25</ele></trkpt>
<trkpt lon="3.193782" lat="47.250271"><ele>242.0</ele></trkpt>
<trkpt lon="3.193733" lat="47.250254"><ele>241.5</ele></trkpt>
<trkpt lon="3.193417" lat="47.250084"><ele>238.0</ele></trkpt>
<trkpt lon="3.193269" lat="47.249979"><ele>236.0</ele></trkpt>
<trkpt lon="3.193199" lat="47.249879"><ele>234.25</ele></trkpt>
<trkpt lon="3.193178" lat="47.249762"><ele>233.0</ele></trkpt>
<trkpt lon="3.193240" lat="47.249290"><ele>229.5</ele></trkpt>
<trkpt lon="3.193337" lat="47.248818"><ele>227.75</ele></trkpt>
<trkpt lon="3.193379" lat="47.248400"><ele>227.75</ele></trkpt>
<trkpt lon="3.193366" lat="47.248096"><ele>230.5</ele></trkpt>
<trkpt lon="3.193320" lat="47.247967"><ele>231.75</ele></trkpt>
<trkpt lon="3.193258" lat="47.247887"><ele>232.25</ele></trkpt>
<trkpt lon="3.193057" lat="47.247757"><ele>233.0</ele></trkpt>
<trkpt lon="3.192499" lat="47.247484"><ele>232.0</ele></trkpt>
<trkpt lon="3.191695" lat="47.247167"><ele>229.5</ele></trkpt>
<trkpt lon="3.191016" lat="47.246865"><ele>226.75</ele></trkpt>
<trkpt lon="3.190724" lat="47.246745"><ele>226.75</ele></trkpt>
<trkpt lon="3.190496" lat="47.246674"><ele>226.5</ele></trkpt>
<trkpt lon="3.190109" lat="47.246599"><ele>226.0</ele></trkpt>
<trkpt lon="3.189367" lat="47.246414"><ele>225.25</ele></trkpt>
<trkpt lon="3.188202" lat="47.246110"><ele>229.0</ele></trkpt>
<trkpt lon="3.187714" lat="47.245942"><ele>230.5</ele></trkpt>
<trkpt lon="3.186765" lat="47.245520"><ele>229.75</ele></trkpt>
<trkpt lon="3.186164" lat="47.245108"><ele>227.25</ele></trkpt>
<trkpt lon="3.185928" lat="47.244991"><ele>226.25</ele></trkpt>
<trkpt lon="3.184463" lat="47.245278"><ele>217.0</ele></trkpt>
<trkpt lon="3.184408" lat="47.245288"><ele>216.75</ele></trkpt>
<trkpt lon="3.184331" lat="47.245392"><ele>216.0</ele></trkpt>
<trkpt lon="3.184007" lat="47.245738"><ele>214.5</ele></trkpt>
<trkpt lon="3.183958" lat="47.245811"><ele>214.25</ele></trkpt>
<trkpt lon="3.183441" lat="47.246950"><ele>210.75</ele></trkpt>
<trkpt lon="3.182956" lat="47.247262"><ele>210.0</ele></trkpt>
<trkpt lon="3.182895" lat="47.247299"><ele>210.25</ele></trkpt>
<trkpt lon="3.182362" lat="47.247613"><ele>210.5</ele></trkpt>
<trkpt lon="3.182030" lat="47.247740"><ele>210.75</ele></trkpt>
<trkpt lon="3.181204" lat="47.247846"><ele>215.0</ele></trkpt>
<trkpt lon="3.179793" lat="47.248119"><ele>218.5</ele></trkpt>
<trkpt lon="3.179283" lat="47.248243"><ele>220.25</ele></trkpt>
<trkpt lon="3.178972" lat="47.248385"><ele>221.25</ele></trkpt>
<trkpt lon="3.177305" lat="47.249455"><ele>223.0</ele></trkpt>
<trkpt lon="3.177154" lat="47.249379"><ele>222.5</ele></trkpt>
<trkpt lon="3.176771" lat="47.249221"><ele>221.75</ele></trkpt>
<trkpt lon="3.176277" lat="47.248968"><ele>221.0</ele></trkpt>
<trkpt lon="3.176068" lat="47.248843"><ele>220.75</ele></trkpt>
<trkpt lon="3.175867" lat="47.248708"><ele>220.75</ele></trkpt>
<trkpt lon="3.175596" lat="47.248389"><ele>220.0</ele></trkpt>
<trkpt lon="3.175419" lat="47.248063"><ele>220.25</ele></trkpt>
<trkpt lon="3.175167" lat="47.247213"><ele>220.5</ele></trkpt>
<trkpt lon="3.175001" lat="47.246958"><ele>220.0</ele></trkpt>
<trkpt lon="3.174362" lat="47.246312"><ele>221.0</ele></trkpt>
<trkpt lon="3.174161" lat="47.246155"><ele>221.25</ele></trkpt>
<trkpt lon="3.173816" lat="47.245690"><ele>219.75</ele></trkpt>
<trkpt lon="3.173124" lat="47.245081"><ele>214.75</ele></trkpt>
<trkpt lon="3.171772" lat="47.244302"><ele>211.5</ele></trkpt>
<trkpt lon="3.171375" lat="47.243996"><ele>210.5</ele></trkpt>
<trkpt lon="3.170055" lat="47.241858"><ele>209.25</ele></trkpt>
<trkpt lon="3.169707" lat="47.241618"><ele>209.75</ele></trkpt>
<trkpt lon="3.168221" lat="47.240769"><ele>213.25</ele></trkpt>
<trkpt lon="3.166048" lat="47.239892"><ele>218.5</ele></trkpt>
<trkpt lon="3.164348" lat="47.239134"><ele>212.75</ele></trkpt>
<trkpt lon="3.164015" lat="47.238978"><ele>211.25</ele></trkpt>
<trkpt lon="3.163731" lat="47.238573"><ele>205.0</ele></trkpt>
<trkpt lon="3.163339" lat="47.238358"><ele>204.25</ele></trkpt>
<trkpt lon="3.162459" lat="47.238118"><ele>202.75</ele></trkpt>
<trkpt lon="3.161998" lat="47.238025"><ele>202.25</ele></trkpt>
<trkpt lon="3.161990" lat="47.237622"><ele>199.25</ele></trkpt>
<trkpt lon="3.160320" lat="47.236810"><ele>197.0</ele></trkpt>
<trkpt lon="3.160214" lat="47.236740"><ele>197.0</ele></trkpt>
<trkpt lon="3.160145" lat="47.236654"><ele>197.0</ele></trkpt>
<trkpt lon="3.159843" lat="47.236202"><ele>198.75</ele></trkpt>
<trkpt lon="3.159772" lat="47.236142"><ele>199.5</ele></trkpt>
<trkpt lon="3.159693" lat="47.236099"><ele>200.25</ele></trkpt>
<trkpt lon="3.159552" lat="47.236055"><ele>202.25</ele></trkpt>
<trkpt lon="3.159368" lat="47.236020"><ele>204.25</ele></trkpt>
<trkpt lon="3.158559" lat="47.236025"><ele>208.5</ele></trkpt>
<trkpt lon="3.158675" lat="47.235976"><ele>209.0</ele></trkpt>
<trkpt lon="3.158728" lat="47.235936"><ele>209.5</ele></trkpt>
<trkpt lon="3.159251" lat="47.235537"><ele>217.75</ele></trkpt>
<trkpt lon="3.159404" lat="47.235442"><ele>219.75</ele></trkpt>
<trkpt lon="3.159471" lat="47.235051"><ele>228.0</ele></trkpt>
<trkpt lon="3.159390" lat="47.234701"><ele>232.0</ele></trkpt>
<trkpt lon="3.159165" lat="47.234333"><ele>233.0</ele></trkpt>
<trkpt lon="3.158655" lat="47.233856"><ele>234.75</ele></trkpt>
<trkpt lon="3.158580" lat="47.233419"><ele>235.75</ele></trkpt>
<trkpt lon="3.158065" lat="47.232687"><ele>235.0</ele></trkpt>
<trkpt lon="3.157636" lat="47.232592"><ele>233.75</ele></trkpt>
<trkpt lon="3.156943" lat="47.232362"><ele>230.75</ele></trkpt>
<trkpt lon="3.157099" lat="47.231946"><ele>231.5</ele></trkpt>
<trkpt lon="3.157785" lat="47.229644"><ele>241.0</ele></trkpt>
<trkpt lon="3.157885" lat="47.229345"><ele>241.25</ele></trkpt>
<trkpt lon="3.158515" lat="47.227458"><ele>248.75</ele></trkpt>
<trkpt lon="3.158644" lat="47.226059"><ele>257.0</ele></trkpt>
<trkpt lon="3.158602" lat="47.224887"><ele>259.5</ele></trkpt>
<trkpt lon="3.158248" lat="47.224173"><ele>260.0</ele></trkpt>
<trkpt lon="3.157986" lat="47.223580"><ele>261.0</ele></trkpt>
<trkpt lon="3.157741" lat="47.223025"><ele>262.0</ele></trkpt>
<trkpt lon="3.157647" lat="47.222578"><ele>264.0</ele></trkpt>
<trkpt lon="3.157142" lat="47.222017"><ele>266.75</ele></trkpt>
<trkpt lon="3.156681" lat="47.221040"><ele>268.0</ele></trkpt>
<trkpt lon="3.156037" lat="47.220435"><ele>267.5</ele></trkpt>
<trkpt lon="3.155351" lat="47.219634"><ele>266.5</ele></trkpt>
<trkpt lon="3.153676" lat="47.218430"><ele>267.0</ele></trkpt>
<trkpt lon="3.153194" lat="47.217295"><ele>267.0</ele></trkpt>
<trkpt lon="3.152926" lat="47.216938"><ele>267.25</ele></trkpt>
<trkpt lon="3.152336" lat="47.216559"><ele>267.0</ele></trkpt>
<trkpt lon="3.152164" lat="47.215881"><ele>266.0</ele></trkpt>
<trkpt lon="3.151735" lat="47.215546"><ele>265.75</ele></trkpt>
<trkpt lon="3.151091" lat="47.215240"><ele>264.75</ele></trkpt>
<trkpt lon="3.150383" lat="47.214227"><ele>263.0</ele></trkpt>
<trkpt lon="3.150415" lat="47.213797"><ele>262.75</ele></trkpt>
<trkpt lon="3.150051" lat="47.212623"><ele>261.75</ele></trkpt>
<trkpt lon="3.149804" lat="47.212193"><ele>261.75</ele></trkpt>
<trkpt lon="3.148945" lat="47.211727"><ele>263.0</ele></trkpt>
<trkpt lon="3.146856" lat="47.212442"><ele>257.75</ele></trkpt>
<trkpt lon="3.146828" lat="47.212396"><ele>257.75</ele></trkpt>
<trkpt lon="3.143748" lat="47.207445"><ele>264.5</ele></trkpt>
<trkpt lon="3.141780" lat="47.204264"><ele>273.25</ele></trkpt>
<trkpt lon="3.125987" lat="47.202830"><ele>210.5</ele></trkpt>
<trkpt lon="3.118476" lat="47.202102"><ele>197.25</ele></trkpt>
<trkpt lon="3.112228" lat="47.201474"><ele>195.0</ele></trkpt>
<trkpt lon="3.109092" lat="47.197012"><ele>199.0</ele></trkpt>
<trkpt lon="3.107338" lat="47.194516"><ele>203.0</ele></trkpt>
<trkpt lon="3.101375" lat="47.194137"><ele>214.0</ele></trkpt>
<trkpt lon="3.096192" lat="47.193817"><ele>201.25</ele></trkpt>
<trkpt lon="3.094573" lat="47.193704"><ele>198.0</ele></trkpt>
<trkpt lon="3.090883" lat="47.192273"><ele>201.5</ele></trkpt>
<trkpt lon="3.090466" lat="47.192140"><ele>202.25</ele></trkpt>
<trkpt lon="3.085149" lat="47.190700"><ele>190.25</ele></trkpt>
<trkpt lon="3.083793" lat="47.190334"><ele>189.75</ele></trkpt>
<trkpt lon="3.083499" lat="47.190272"><ele>190.0</ele></trkpt>
<trkpt lon="3.083227" lat="47.190241"><ele>190.0</ele></trkpt>
<trkpt lon="3.082364" lat="47.190190"><ele>190.0</ele></trkpt>
<trkpt lon="3.082152" lat="47.190165"><ele>190.0</ele></trkpt>
<trkpt lon="3.081847" lat="47.190113"><ele>189.75</ele></trkpt>
<trkpt lon="3.081655" lat="47.190074"><ele>189.5</ele></trkpt>
<trkpt lon="3.081474" lat="47.190029"><ele>189.75</ele></trkpt>
<trkpt lon="3.081232" lat="47.189941"><ele>189.5</ele></trkpt>
<trkpt lon="3.079955" lat="47.189399"><ele>190.0</ele></trkpt>
<trkpt lon="3.078968" lat="47.188987"><ele>191.5</ele></trkpt>
<trkpt lon="3.078815" lat="47.188895"><ele>191.75</ele></trkpt>
<trkpt lon="3.078664" lat="47.188789"><ele>192.0</ele></trkpt>
<trkpt lon="3.078557" lat="47.188708"><ele>192.0</ele></trkpt>
<trkpt lon="3.078473" lat="47.188613"><ele>192.0</ele></trkpt>
<trkpt lon="3.077879" lat="47.187474"><ele>194.5</ele></trkpt>
<trkpt lon="3.077784" lat="47.187291"><ele>194.75</ele></trkpt>
<trkpt lon="3.077710" lat="47.187175"><ele>195.0</ele></trkpt>
<trkpt lon="3.077633" lat="47.187096"><ele>195.25</ele></trkpt>
<trkpt lon="3.077531" lat="47.187011"><ele>195.75</ele></trkpt>
<trkpt lon="3.076990" lat="47.186667"><ele>195.0</ele></trkpt>
<trkpt lon="3.076744" lat="47.186546"><ele>193.75</ele></trkpt>
<trkpt lon="3.076625" lat="47.186512"><ele>193.25</ele></trkpt>
<trkpt lon="3.076691" lat="47.186154"><ele>193.0</ele></trkpt>
<trkpt lon="3.076713" lat="47.185920"><ele>192.25</ele></trkpt>
<trkpt lon="3.076683" lat="47.185832"><ele>192.0</ele></trkpt>
<trkpt lon="3.076588" lat="47.185847"><ele>191.25</ele></trkpt>
<trkpt lon="3.076497" lat="47.185852"><ele>190.75</ele></trkpt>
<trkpt lon="3.076396" lat="47.185844"><ele>190.0</ele></trkpt>
<trkpt lon="3.076044" lat="47.185791"><ele>189.75</ele></trkpt>
<trkpt lon="3.074450" lat="47.185606"><ele>190.75</ele></trkpt>
<trkpt lon="3.073972" lat="47.185509"><ele>191.75</ele></trkpt>
<trkpt lon="3.072654" lat="47.185006"><ele>194.25</ele></trkpt>
<trkpt lon="3.072682" lat="47.184975"><ele>194.25</ele></trkpt>
<trkpt lon="3.072671" lat="47.184925"><ele>194.25</ele></trkpt>
<trkpt lon="3.072534" lat="47.184701"><ele>194.75</ele></trkpt>
<trkpt lon="3.072533" lat="47.184577"><ele>194.25</ele></trkpt>
<trkpt lon="3.072107" lat="47.184430"><ele>195.25</ele></trkpt>
<trkpt lon="3.070632" lat="47.183975"><ele>197.25</ele></trkpt>
<trkpt lon="3.069034" lat="47.183671"><ele>193.5</ele></trkpt>
<trkpt lon="3.068904" lat="47.183672"><ele>193.0</ele></trkpt>
<trkpt lon="3.068575" lat="47.183674"><ele>192.75</ele></trkpt>
<trkpt lon="3.066660" lat="47.183648"><ele>189.75</ele></trkpt>
<trkpt lon="3.065315" lat="47.183553"><ele>188.0</ele></trkpt>
<trkpt lon="3.064297" lat="47.183320"><ele>188.0</ele></trkpt>
<trkpt lon="3.063495" lat="47.183078"><ele>188.75</ele></trkpt>
<trkpt lon="3.061575" lat="47.182862"><ele>192.25</ele></trkpt>
<trkpt lon="3.060478" lat="47.182623"><ele>193.25</ele></trkpt>
<trkpt lon="3.057407" lat="47.182509"><ele>188.0</ele></trkpt>
<trkpt lon="3.056644" lat="47.182337"><ele>187.25</ele></trkpt>
<trkpt lon="3.056068" lat="47.182056"><ele>186.0</ele></trkpt>
<trkpt lon="3.054299" lat="47.181651"><ele>187.5</ele></trkpt>
<trkpt lon="3.053660" lat="47.181536"><ele>186.5</ele></trkpt>
<trkpt lon="3.052153" lat="47.181532"><ele>185.0</ele></trkpt>
<trkpt lon="3.051300" lat="47.181517"><ele>185.5</ele></trkpt>
<trkpt lon="3.049501" lat="47.181387"><ele>186.0</ele></trkpt>
<trkpt lon="3.047761" lat="47.181171"><ele>186.0</ele></trkpt>
<trkpt lon="3.045455" lat="47.180550"><ele>187.0</ele></trkpt>
<trkpt lon="3.044228" lat="47.180169"><ele>187.25</ele></trkpt>
<trkpt lon="3.042527" lat="47.179648"><ele>189.0</ele></trkpt>
<trkpt lon="3.041959" lat="47.179505"><ele>189.0</ele></trkpt>
<trkpt lon="3.043475" lat="47.177561"><ele>194.25</ele></trkpt>
<trkpt lon="3.044080" lat="47.176885"><ele>193.0</ele></trkpt>
<trkpt lon="3.044451" lat="47.176590"><ele>192.0</ele></trkpt>
<trkpt lon="3.044860" lat="47.176471"><ele>191.25</ele></trkpt>
<trkpt lon="3.044967" lat="47.176445"><ele>191.5</ele></trkpt>
<trkpt lon="3.045132" lat="47.176304"><ele>191.5</ele></trkpt>
<trkpt lon="3.044886" lat="47.176266"><ele>192.0</ele></trkpt>
<trkpt lon="3.044397" lat="47.176208"><ele>195.5</ele></trkpt>
<trkpt lon="3.044082" lat="47.176163"><ele>194.75</ele></trkpt>
<trkpt lon="3.043921" lat="47.176142"><ele>193.5</ele></trkpt>
<trkpt lon="3.043545" lat="47.176120"><ele>194.0</ele></trkpt>
<trkpt lon="3.043202" lat="47.176113"><ele>194.75</ele></trkpt>
<trkpt lon="3.042730" lat="47.176128"><ele>196.0</ele></trkpt>
<trkpt lon="3.041335" lat="47.176201"><ele>199.5</ele></trkpt>
<trkpt lon="3.040809" lat="47.176193"><ele>200.5</ele></trkpt>
<trkpt lon="3.040380" lat="47.176208"><ele>200.5</ele></trkpt>
<trkpt lon="3.039522" lat="47.176266"><ele>201.25</ele></trkpt>
<trkpt lon="3.039190" lat="47.176255"><ele>201.75</ele></trkpt>
<trkpt lon="3.037891" lat="47.176077"><ele>203.5</ele></trkpt>
<trkpt lon="3.037526" lat="47.176048"><ele>204.0</ele></trkpt>
<trkpt lon="3.036561" lat="47.176004"><ele>203.25</ele></trkpt>
<trkpt lon="3.035552" lat="47.175982"><ele>201.75</ele></trkpt>
<trkpt lon="3.035385" lat="47.175995"><ele>201.5</ele></trkpt>
<trkpt lon="3.035005" lat="47.176033"><ele>201.25</ele></trkpt>
<trkpt lon="3.034364" lat="47.176172"><ele>200.75</ele></trkpt>
<trkpt lon="3.034063" lat="47.176244"><ele>200.5</ele></trkpt>
<trkpt lon="3.033387" lat="47.176463"><ele>200.5</ele></trkpt>
<trkpt lon="3.033052" lat="47.176558"><ele>201.0</ele></trkpt>
<trkpt lon="3.032816" lat="47.176602"><ele>201.0</ele></trkpt>
<trkpt lon="3.032613" lat="47.176624"><ele>201.5</ele></trkpt>
<trkpt lon="3.032344" lat="47.176638"><ele>202.5</ele></trkpt>
<trkpt lon="3.032158" lat="47.176635"><ele>203.0</ele></trkpt>
<trkpt lon="3.031790" lat="47.176596"><ele>203.25</ele></trkpt>
<trkpt lon="3.031316" lat="47.176530"><ele>203.5</ele></trkpt>
<trkpt lon="3.030960" lat="47.176485"><ele>204.25</ele></trkpt>
<trkpt lon="3.030868" lat="47.176471"><ele>204.5</ele></trkpt>
<trkpt lon="3.030509" lat="47.176438"><ele>204.75</ele></trkpt>
<trkpt lon="3.030192" lat="47.176431"><ele>204.75</ele></trkpt>
<trkpt lon="3.029880" lat="47.176460"><ele>204.5</ele></trkpt>
<trkpt lon="3.028361" lat="47.176752"><ele>205.5</ele></trkpt>
<trkpt lon="3.028284" lat="47.176767"><ele>205.5</ele></trkpt>
<trkpt lon="3.027793" lat="47.176855"><ele>206.25</ele></trkpt>
<trkpt lon="3.027710" lat="47.176867"><ele>206.25</ele></trkpt>
<trkpt lon="3.026769" lat="47.176994"><ele>206.5</ele></trkpt>
<trkpt lon="3.026188" lat="47.177039"><ele>206.5</ele></trkpt>
<trkpt lon="3.025255" lat="47.177098"><ele>205.0</ele></trkpt>
<trkpt lon="3.025105" lat="47.177127"><ele>205.0</ele></trkpt>
<trkpt lon="3.024999" lat="47.177176"><ele>204.75</ele></trkpt>
<trkpt lon="3.024944" lat="47.177256"><ele>204.5</ele></trkpt>
<trkpt lon="3.024922" lat="47.177324"><ele>204.25</ele></trkpt>
<trkpt lon="3.024911" lat="47.177513"><ele>204.0</ele></trkpt>
<trkpt lon="3.024911" lat="47.178031"><ele>203.5</ele></trkpt>
<trkpt lon="3.024890" lat="47.178250"><ele>202.75</ele></trkpt>
<trkpt lon="3.024848" lat="47.178374"><ele>202.0</ele></trkpt>
<trkpt lon="3.024812" lat="47.178439"><ele>201.75</ele></trkpt>
<trkpt lon="3.024693" lat="47.178584"><ele>201.0</ele></trkpt>
<trkpt lon="3.024651" lat="47.178686"><ele>200.5</ele></trkpt>
<trkpt lon="3.024673" lat="47.178739"><ele>200.25</ele></trkpt>
<trkpt lon="3.024315" lat="47.178560"><ele>200.0</ele></trkpt>
<trkpt lon="3.024177" lat="47.178491"><ele>200.0</ele></trkpt>
<trkpt lon="3.024015" lat="47.178410"><ele>200.0</ele></trkpt>
<trkpt lon="3.023824" lat="47.178314"><ele>200.0</ele></trkpt>
<trkpt lon="3.023688" lat="47.178245"><ele>200.25</ele></trkpt>
<trkpt lon="3.023456" lat="47.178233"><ele>199.5</ele></trkpt>
<trkpt lon="3.023443" lat="47.178190"><ele>199.5</ele></trkpt>
<trkpt lon="3.023397" lat="47.178128"><ele>199.25</ele></trkpt>
<trkpt lon="3.023328" lat="47.178077"><ele>198.75</ele></trkpt>
<trkpt lon="3.023121" lat="47.177978"><ele>198.0</ele></trkpt>
<trkpt lon="3.022952" lat="47.177895"><ele>197.75</ele></trkpt>
<trkpt lon="3.022412" lat="47.177633"><ele>195.5</ele></trkpt>
<trkpt lon="3.022384" lat="47.177619"><ele>195.5</ele></trkpt>
<trkpt lon="3.022210" lat="47.177531"><ele>194.75</ele></trkpt>
<trkpt lon="3.022009" lat="47.177444"><ele>194.25</ele></trkpt>
<trkpt lon="3.021880" lat="47.177399"><ele>193.5</ele></trkpt>
<trkpt lon="3.021781" lat="47.177376"><ele>192.75</ele></trkpt>
<trkpt lon="3.021514" lat="47.177333"><ele>191.0</ele></trkpt>
<trkpt lon="3.021264" lat="47.177321"><ele>190.0</ele></trkpt>
<trkpt lon="3.021142" lat="47.177320"><ele>189.75</ele></trkpt>
<trkpt lon="3.021088" lat="47.177325"><ele>189.5</ele></trkpt>
<trkpt lon="3.021023" lat="47.177341"><ele>189.25</ele></trkpt>
<trkpt lon="3.020860" lat="47.177376"><ele>188.5</ele></trkpt>
<trkpt lon="3.020755" lat="47.177399"><ele>187.75</ele></trkpt>
<trkpt lon="3.020492" lat="47.177383"><ele>185.75</ele></trkpt>
<trkpt lon="3.019544" lat="47.177239"><ele>181.25</ele></trkpt>
<trkpt lon="3.019187" lat="47.177197"><ele>179.25</ele></trkpt>
<trkpt lon="3.018915" lat="47.177156"><ele>178.0</ele></trkpt>
<trkpt lon="3.018532" lat="47.177188"><ele>175.5</ele></trkpt>
<trkpt lon="3.018412" lat="47.177203"><ele>175.25</ele></trkpt>
<trkpt lon="3.018300" lat="47.177217"><ele>174.75</ele></trkpt>
<trkpt lon="3.018326" lat="47.177401"><ele>174.75</ele></trkpt>
<trkpt lon="3.018304" lat="47.177489"><ele>174.5</ele></trkpt>
<trkpt lon="3.018273" lat="47.177529"><ele>174.25</ele></trkpt>
<trkpt lon="3.018310" lat="47.177602"><ele>174.5</ele></trkpt>
<trkpt lon="3.018360" lat="47.177666"><ele>175.0</ele></trkpt>
<trkpt lon="3.018445" lat="47.177747"><ele>175.25</ele></trkpt>
<trkpt lon="3.018570" lat="47.177757"><ele>175.75</ele></trkpt>
<trkpt lon="3.018500" lat="47.178067"><ele>176.5</ele></trkpt>
<trkpt lon="3.018324" lat="47.178052"><ele>175.75</ele></trkpt>
<trkpt lon="3.018285" lat="47.178198"><ele>176.25</ele></trkpt>
<trkpt lon="3.018212" lat="47.178723"><ele>182.25</ele></trkpt>
<trkpt lon="3.018191" lat="47.178824"><ele>183.75</ele></trkpt>
<trkpt lon="3.018136" lat="47.178831"><ele>183.25</ele></trkpt>
<trkpt lon="3.017391" lat="47.178805"><ele>177.75</ele></trkpt>
<trkpt lon="3.016822" lat="47.178782"><ele>175.75</ele></trkpt>
<trkpt lon="3.016380" lat="47.178757"><ele>175.0</ele></trkpt>
  </trkseg></trk></gpx>
