<?xml version="1.0" encoding="UTF-8"?>
<gpx version="1.1" creator="compostel-brouter" xmlns="http://www.topografix.com/GPX/1/1">
  <metadata><name>FR-13-Auxerre</name></metadata>
  <trk><name>FR-13-Auxerre</name><trkseg>
<trkpt lon="3.798797" lat="47.813477"><ele>141.5</ele></trkpt>
<trkpt lon="3.799176" lat="47.813334"><ele>141.75</ele></trkpt>
<trkpt lon="3.798735" lat="47.813169"><ele>142.0</ele></trkpt>
<trkpt lon="3.798290" lat="47.812933"><ele>142.5</ele></trkpt>
<trkpt lon="3.797421" lat="47.812453"><ele>144.0</ele></trkpt>
<trkpt lon="3.797233" lat="47.812417"><ele>144.25</ele></trkpt>
<trkpt lon="3.797177" lat="47.812557"><ele>144.0</ele></trkpt>
<trkpt lon="3.797118" lat="47.812700"><ele>144.0</ele></trkpt>
<trkpt lon="3.796969" lat="47.812872"><ele>143.75</ele></trkpt>
<trkpt lon="3.796828" lat="47.813032"><ele>144.0</ele></trkpt>
<trkpt lon="3.796709" lat="47.813148"><ele>143.5</ele></trkpt>
<trkpt lon="3.796636" lat="47.813157"><ele>143.5</ele></trkpt>
<trkpt lon="3.796580" lat="47.813072"><ele>143.75</ele></trkpt>
<trkpt lon="3.796529" lat="47.812995"><ele>144.0</ele></trkpt>
<trkpt lon="3.796431" lat="47.812825"><ele>144.5</ele></trkpt>
<trkpt lon="3.796379" lat="47.812835"><ele>144.75</ele></trkpt>
<trkpt lon="3.796210" lat="47.812865"><ele>144.5</ele></trkpt>
<trkpt lon="3.795935" lat="47.812914"><ele>144.0</ele></trkpt>
<trkpt lon="3.795752" lat="47.812955"><ele>144.0</ele></trkpt>
<trkpt lon="3.794297" lat="47.813389"><ele>142.75</ele></trkpt>
<trkpt lon="3.794085" lat="47.813452"><ele>142.75</ele></trkpt>
<trkpt lon="3.792965" lat="47.813710"><ele>141.5</ele></trkpt>
<trkpt lon="3.792745" lat="47.813762"><ele>141.5</ele></trkpt>
<trkpt lon="3.792482" lat="47.813827"><ele>142.0</ele></trkpt>
<trkpt lon="3.791744" lat="47.814010"><ele>141.0</ele></trkpt>
<trkpt lon="3.790913" lat="47.814141"><ele>140.25</ele></trkpt>
<trkpt lon="3.790536" lat="47.814192"><ele>139.75</ele></trkpt>
<trkpt lon="3.790191" lat="47.814187"><ele>139.5</ele></trkpt>
<trkpt lon="3.789889" lat="47.814101"><ele>139.0</ele></trkpt>
<trkpt lon="3.789570" lat="47.814011"><ele>139.0</ele></trkpt>
<trkpt lon="3.789134" lat="47.813902"><ele>138.75</ele></trkpt>
<trkpt lon="3.788458" lat="47.813781"><ele>138.5</ele></trkpt>
<trkpt lon="3.787152" lat="47.813607"><ele>139.75</ele></trkpt>
<trkpt lon="3.786854" lat="47.813590"><ele>139.0</ele></trkpt>
<trkpt lon="3.786361" lat="47.813587"><ele>139.0</ele></trkpt>
<trkpt lon="3.785422" lat="47.813614"><ele>139.75</ele></trkpt>
<trkpt lon="3.783870" lat="47.813501"><ele>141.25</ele></trkpt>
<trkpt lon="3.782482" lat="47.813349"><ele>141.75</ele></trkpt>
<trkpt lon="3.781789" lat="47.813308"><ele>142.0</ele></trkpt>
<trkpt lon="3.781334" lat="47.813300"><ele>143.0</ele></trkpt>
<trkpt lon="3.780410" lat="47.813297"><ele>144.5</ele></trkpt>
<trkpt lon="3.779911" lat="47.813261"><ele>145.5</ele></trkpt>
<trkpt lon="3.779737" lat="47.813255"><ele>146.0</ele></trkpt>
<trkpt lon="3.779562" lat="47.813268"><ele>146.75</ele></trkpt>
<trkpt lon="3.779306" lat="47.813306"><ele>147.0</ele></trkpt>
<trkpt lon="3.778679" lat="47.813244"><ele>148.5</ele></trkpt>
<trkpt lon="3.777932" lat="47.813118"><ele>150.75</ele></trkpt>
<trkpt lon="3.777726" lat="47.813101"><ele>151.75</ele></trkpt>
<trkpt lon="3.777637" lat="47.813129"><ele>151.75</ele></trkpt>
<trkpt lon="3.776934" lat="47.813696"><ele>153.0</ele></trkpt>
<trkpt lon="3.776552" lat="47.813941"><ele>154.5</ele></trkpt>
<trkpt lon="3.775420" lat="47.814506"><ele>157.25</ele></trkpt>
<trkpt lon="3.775292" lat="47.814549"><ele>157.5</ele></trkpt>
<trkpt lon="3.775248" lat="47.814599"><ele>157.25</ele></trkpt>
<trkpt lon="3.774293" lat="47.815118"><ele>155.75</ele></trkpt>
<trkpt lon="3.773831" lat="47.815343"><ele>155.75</ele></trkpt>
<trkpt lon="3.772993" lat="47.815675"><ele>154.25</ele></trkpt>
<trkpt lon="3.772554" lat="47.815312"><ele>155.75</ele></trkpt>
<trkpt lon="3.772456" lat="47.815231"><ele>156.0</ele></trkpt>
<trkpt lon="3.772280" lat="47.815338"><ele>155.5</ele></trkpt>
<trkpt lon="3.772020" lat="47.815494"><ele>153.5</ele></trkpt>
<trkpt lon="3.771451" lat="47.815803"><ele>151.0</ele></trkpt>
<trkpt lon="3.771325" lat="47.815690"><ele>151.25</ele></trkpt>
<trkpt lon="3.770254" lat="47.815305"><ele>150.75</ele></trkpt>
<trkpt lon="3.769333" lat="47.815000"><ele>153.0</ele></trkpt>
<trkpt lon="3.769062" lat="47.815067"><ele>152.25</ele></trkpt>
<trkpt lon="3.768907" lat="47.815152"><ele>152.25</ele></trkpt>
<trkpt lon="3.768402" lat="47.815434"><ele>151.75</ele></trkpt>
<trkpt lon="3.767627" lat="47.815937"><ele>166.0</ele></trkpt>
<trkpt lon="3.767498" lat="47.815886"><ele>166.75</ele></trkpt>
<trkpt lon="3.766725" lat="47.816457"><ele>186.5</ele></trkpt>
<trkpt lon="3.766425" lat="47.816695"><ele>194.0</ele></trkpt>
<trkpt lon="3.766326" lat="47.816833"><ele>197.5</ele></trkpt>
<trkpt lon="3.765506" lat="47.817358"><ele>218.25</ele></trkpt>
<trkpt lon="3.765524" lat="47.817594"><ele>220.75</ele></trkpt>
<trkpt lon="3.765775" lat="47.817862"><ele>220.75</ele></trkpt>
<trkpt lon="3.765610" lat="47.817884"><ele>222.0</ele></trkpt>
<trkpt lon="3.765390" lat="47.817847"><ele>223.25</ele></trkpt>
<trkpt lon="3.764985" lat="47.817710"><ele>224.75</ele></trkpt>
<trkpt lon="3.764706" lat="47.817674"><ele>226.5</ele></trkpt>
<trkpt lon="3.764333" lat="47.817681"><ele>228.5</ele></trkpt>
<trkpt lon="3.764360" lat="47.817888"><ele>228.75</ele></trkpt>
<trkpt lon="3.764293" lat="47.818106"><ele>229.5</ele></trkpt>
<trkpt lon="3.764293" lat="47.818162"><ele>229.5</ele></trkpt>
<trkpt lon="3.764022" lat="47.818099"><ele>230.5</ele></trkpt>
<trkpt lon="3.763759" lat="47.817980"><ele>231.25</ele></trkpt>
<trkpt lon="3.763587" lat="47.817893"><ele>232.0</ele></trkpt>
<trkpt lon="3.763458" lat="47.817868"><ele>232.0</ele></trkpt>
<trkpt lon="3.763132" lat="47.817949"><ele>232.5</ele></trkpt>
<trkpt lon="3.763016" lat="47.817978"><ele>233.0</ele></trkpt>
<trkpt lon="3.761891" lat="47.818182"><ele>234.5</ele></trkpt>
<trkpt lon="3.761836" lat="47.818192"><ele>234.5</ele></trkpt>
<trkpt lon="3.761836" lat="47.818254"><ele>234.25</ele></trkpt>
<trkpt lon="3.761943" lat="47.818508"><ele>232.5</ele></trkpt>
<trkpt lon="3.762418" lat="47.819063"><ele>228.5</ele></trkpt>
<trkpt lon="3.762638" lat="47.819231"><ele>227.5</ele></trkpt>
<trkpt lon="3.761442" lat="47.818903"><ele>229.0</ele></trkpt>
<trkpt lon="3.759312" lat="47.818300"><ele>233.25</ele></trkpt>
<trkpt lon="3.759065" lat="47.818507"><ele>231.0</ele></trkpt>
<trkpt lon="3.758969" lat="47.818588"><ele>230.0</ele></trkpt>
<trkpt lon="3.757088" lat="47.819412"><ele>223.75</ele></trkpt>
<trkpt lon="3.755696" lat="47.820021"><ele>215.75</ele></trkpt>
<trkpt lon="3.754967" lat="47.819582"><ele>217.5</ele></trkpt>
<trkpt lon="3.754419" lat="47.819063"><ele>218.5</ele></trkpt>
<trkpt lon="3.754486" lat="47.819588"><ele>208.25</ele></trkpt>
<trkpt lon="3.754556" lat="47.819827"><ele>204.0</ele></trkpt>
<trkpt lon="3.754578" lat="47.819901"><ele>202.5</ele></trkpt>
<trkpt lon="3.753357" lat="47.820194"><ele>188.0</ele></trkpt>
<trkpt lon="3.752641" lat="47.820471"><ele>179.5</ele></trkpt>
<trkpt lon="3.752614" lat="47.820482"><ele>179.25</ele></trkpt>
<trkpt lon="3.751760" lat="47.820992"><ele>168.5</ele></trkpt>
<trkpt lon="3.750430" lat="47.821766"><ele>153.75</ele></trkpt>
<trkpt lon="3.750272" lat="47.821874"><ele>152.75</ele></trkpt>
<trkpt lon="3.750085" lat="47.821894"><ele>152.25</ele></trkpt>
<trkpt lon="3.748554" lat="47.821551"><ele>153.5</ele></trkpt>
<trkpt lon="3.748385" lat="47.821469"><ele>154.25</ele></trkpt>
<trkpt lon="3.748156" lat="47.821490"><ele>154.75</ele></trkpt>
<trkpt lon="3.748126" lat="47.821582"><ele>154.25</ele></trkpt>
<trkpt lon="3.748109" lat="47.821633"><ele>154.0</ele></trkpt>
<trkpt lon="3.748097" lat="47.821687"><ele>153.5</ele></trkpt>
<trkpt lon="3.748098" lat="47.821745"><ele>153.0</ele></trkpt>
<trkpt lon="3.748060" lat="47.821755"><ele>153.0</ele></trkpt>
<trkpt lon="3.747446" lat="47.821669"><ele>154.0</ele></trkpt>
<trkpt lon="3.747050" lat="47.821606"><ele>157.25</ele></trkpt>
<trkpt lon="3.746955" lat="47.821602"><ele>158.0</ele></trkpt>
<trkpt lon="3.747241" lat="47.822040"><ele>156.5</ele></trkpt>
<trkpt lon="3.747462" lat="47.822530"><ele>156.75</ele></trkpt>
<trkpt lon="3.747501" lat="47.822959"><ele>156.75</ele></trkpt>
<trkpt lon="3.747215" lat="47.823518"><ele>155.5</ele></trkpt>
<trkpt lon="3.746459" lat="47.824122"><ele>157.25</ele></trkpt>
<trkpt lon="3.746348" lat="47.824185"><ele>158.0</ele></trkpt>
<trkpt lon="3.746296" lat="47.824213"><ele>158.0</ele></trkpt>
<trkpt lon="3.746257" lat="47.824236"><ele>158.25</ele></trkpt>
<trkpt lon="3.746213" lat="47.824306"><ele>158.75</ele></trkpt>
<trkpt lon="3.746158" lat="47.824284"><ele>158.75</ele></trkpt>
<trkpt lon="3.745608" lat="47.824110"><ele>160.0</ele></trkpt>
<trkpt lon="3.745039" lat="47.823958"><ele>160.5</ele></trkpt>
<trkpt lon="3.744696" lat="47.823886"><ele>161.0</ele></trkpt>
<trkpt lon="3.744213" lat="47.823814"><ele>161.75</ele></trkpt>
<trkpt lon="3.743752" lat="47.823764"><ele>162.0</ele></trkpt>
<trkpt lon="3.743015" lat="47.823709"><ele>162.5</ele></trkpt>
<trkpt lon="3.742293" lat="47.823656"><ele>163.25</ele></trkpt>
<trkpt lon="3.741606" lat="47.823620"><ele>164.25</ele></trkpt>
<trkpt lon="3.740426" lat="47.823447"><ele>165.5</ele></trkpt>
<trkpt lon="3.739682" lat="47.823278"><ele>165.25</ele></trkpt>
<trkpt lon="3.738845" lat="47.823073"><ele>163.5</ele></trkpt>
<trkpt lon="3.738014" lat="47.822831"><ele>162.75</ele></trkpt>
<trkpt lon="3.737713" lat="47.822727"><ele>162.5</ele></trkpt>
<trkpt lon="3.737448" lat="47.822623"><ele>162.5</ele></trkpt>
<trkpt lon="3.737186" lat="47.822496"><ele>162.0</ele></trkpt>
<trkpt lon="3.736944" lat="47.822372"><ele>162.5</ele></trkpt>
<trkpt lon="3.736768" lat="47.822258"><ele>162.5</ele></trkpt>
<trkpt lon="3.736413" lat="47.821992"><ele>163.25</ele></trkpt>
<trkpt lon="3.735776" lat="47.821484"><ele>163.5</ele></trkpt>
<trkpt lon="3.735161" lat="47.821049"><ele>166.0</ele></trkpt>
<trkpt lon="3.734401" lat="47.820543"><ele>168.25</ele></trkpt>
<trkpt lon="3.733962" lat="47.820295"><ele>168.75</ele></trkpt>
<trkpt lon="3.733446" lat="47.820039"><ele>169.75</ele></trkpt>
<trkpt lon="3.732392" lat="47.819530"><ele>171.0</ele></trkpt>
<trkpt lon="3.731842" lat="47.819343"><ele>172.0</ele></trkpt>
<trkpt lon="3.731298" lat="47.819238"><ele>172.25</ele></trkpt>
<trkpt lon="3.730681" lat="47.819143"><ele>172.75</ele></trkpt>
<trkpt lon="3.730343" lat="47.819109"><ele>173.25</ele></trkpt>
<trkpt lon="3.729994" lat="47.819103"><ele>173.0</ele></trkpt>
<trkpt lon="3.729673" lat="47.819129"><ele>172.5</ele></trkpt>
<trkpt lon="3.729373" lat="47.819171"><ele>173.0</ele></trkpt>
<trkpt lon="3.729092" lat="47.819223"><ele>173.25</ele></trkpt>
<trkpt lon="3.728286" lat="47.819405"><ele>172.75</ele></trkpt>
<trkpt lon="3.727919" lat="47.819480"><ele>173.75</ele></trkpt>
<trkpt lon="3.727754" lat="47.819508"><ele>174.5</ele></trkpt>
<trkpt lon="3.727593" lat="47.819525"><ele>174.5</ele></trkpt>
<trkpt lon="3.727434" lat="47.819533"><ele>174.5</ele></trkpt>
<trkpt lon="3.727205" lat="47.819520"><ele>174.75</ele></trkpt>
<trkpt lon="3.727028" lat="47.819499"><ele>176.0</ele></trkpt>
<trkpt lon="3.726515" lat="47.819414"><ele>178.5</ele></trkpt>
<trkpt lon="3.726390" lat="47.819420"><ele>179.5</ele></trkpt>
<trkpt lon="3.726235" lat="47.819332"><ele>178.75</ele></trkpt>
<trkpt lon="3.726080" lat="47.819278"><ele>178.5</ele></trkpt>
<trkpt lon="3.725751" lat="47.819171"><ele>178.25</ele></trkpt>
<trkpt lon="3.725546" lat="47.819063"><ele>177.75</ele></trkpt>
<trkpt lon="3.725220" lat="47.819020"><ele>178.75</ele></trkpt>
<trkpt lon="3.724633" lat="47.818949"><ele>178.25</ele></trkpt>
<trkpt lon="3.724434" lat="47.818931"><ele>179.0</ele></trkpt>
<trkpt lon="3.724277" lat="47.818770"><ele>177.5</ele></trkpt>
<trkpt lon="3.724089" lat="47.818684"><ele>176.75</ele></trkpt>
<trkpt lon="3.723768" lat="47.818622"><ele>176.5</ele></trkpt>
<trkpt lon="3.723446" lat="47.818583"><ele>176.75</ele></trkpt>
<trkpt lon="3.723290" lat="47.818565"><ele>177.0</ele></trkpt>
<trkpt lon="3.723003" lat="47.818504"><ele>177.5</ele></trkpt>
<trkpt lon="3.722893" lat="47.818558"><ele>177.75</ele></trkpt>
<trkpt lon="3.722823" lat="47.818622"><ele>178.0</ele></trkpt>
<trkpt lon="3.722727" lat="47.818728"><ele>178.75</ele></trkpt>
<trkpt lon="3.722675" lat="47.818756"><ele>179.0</ele></trkpt>
<trkpt lon="3.722610" lat="47.818792"><ele>179.25</ele></trkpt>
<trkpt lon="3.722184" lat="47.818872"><ele>179.75</ele></trkpt>
<trkpt lon="3.722013" lat="47.818900"><ele>180.0</ele></trkpt>
<trkpt lon="3.721745" lat="47.818968"><ele>180.75</ele></trkpt>
<trkpt lon="3.721517" lat="47.819089"><ele>181.5</ele></trkpt>
<trkpt lon="3.721438" lat="47.819144"><ele>181.75</ele></trkpt>
<trkpt lon="3.721411" lat="47.819190"><ele>182.0</ele></trkpt>
<trkpt lon="3.721355" lat="47.819243"><ele>182.25</ele></trkpt>
<trkpt lon="3.721202" lat="47.819277"><ele>182.25</ele></trkpt>
<trkpt lon="3.720956" lat="47.819280"><ele>182.75</ele></trkpt>
<trkpt lon="3.720862" lat="47.819319"><ele>183.25</ele></trkpt>
<trkpt lon="3.720751" lat="47.819387"><ele>183.75</ele></trkpt>
<trkpt lon="3.720464" lat="47.819536"><ele>184.0</ele></trkpt>
<trkpt lon="3.720274" lat="47.819663"><ele>184.0</ele></trkpt>
<trkpt lon="3.719903" lat="47.819890"><ele>184.75</ele></trkpt>
<trkpt lon="3.719768" lat="47.819925"><ele>185.5</ele></trkpt>
<trkpt lon="3.719626" lat="47.820034"><ele>186.0</ele></trkpt>
<trkpt lon="3.719468" lat="47.820143"><ele>186.25</ele></trkpt>
<trkpt lon="3.719451" lat="47.820129"><ele>186.25</ele></trkpt>
<trkpt lon="3.719037" lat="47.819933"><ele>187.75</ele></trkpt>
<trkpt lon="3.718859" lat="47.820065"><ele>187.75</ele></trkpt>
<trkpt lon="3.718729" lat="47.820146"><ele>188.0</ele></trkpt>
<trkpt lon="3.718642" lat="47.820223"><ele>188.0</ele></trkpt>
<trkpt lon="3.718466" lat="47.820336"><ele>188.5</ele></trkpt>
<trkpt lon="3.718355" lat="47.820434"><ele>188.75</ele></trkpt>
<trkpt lon="3.718242" lat="47.820642"><ele>189.25</ele></trkpt>
<trkpt lon="3.718099" lat="47.820671"><ele>189.75</ele></trkpt>
<trkpt lon="3.717691" lat="47.820779"><ele>191.5</ele></trkpt>
<trkpt lon="3.717412" lat="47.820808"><ele>192.25</ele></trkpt>
<trkpt lon="3.717174" lat="47.820859"><ele>193.0</ele></trkpt>
<trkpt lon="3.716434" lat="47.821001"><ele>195.0</ele></trkpt>
<trkpt lon="3.716174" lat="47.821070"><ele>195.75</ele></trkpt>
<trkpt lon="3.715851" lat="47.821206"><ele>197.0</ele></trkpt>
<trkpt lon="3.715081" lat="47.821634"><ele>199.75</ele></trkpt>
<trkpt lon="3.714734" lat="47.821830"><ele>200.75</ele></trkpt>
<trkpt lon="3.714068" lat="47.822247"><ele>203.5</ele></trkpt>
<trkpt lon="3.713156" lat="47.822495"><ele>205.25</ele></trkpt>
<trkpt lon="3.712341" lat="47.822716"><ele>207.0</ele></trkpt>
<trkpt lon="3.711365" lat="47.822961"><ele>209.25</ele></trkpt>
<trkpt lon="3.710571" lat="47.822629"><ele>216.75</ele></trkpt>
<trkpt lon="3.709809" lat="47.822644"><ele>223.75</ele></trkpt>
<trkpt lon="3.709755" lat="47.822595"><ele>223.5</ele></trkpt>
<trkpt lon="3.709208" lat="47.822111"><ele>227.25</ele></trkpt>
<trkpt lon="3.709220" lat="47.822069"><ele>227.0</ele></trkpt>
<trkpt lon="3.709305" lat="47.821758"><ele>228.5</ele></trkpt>
<trkpt lon="3.709039" lat="47.821445"><ele>232.0</ele></trkpt>
<trkpt lon="3.708661" lat="47.821158"><ele>235.75</ele></trkpt>
<trkpt lon="3.707706" lat="47.820771"><ele>247.25</ele></trkpt>
<trkpt lon="3.707261" lat="47.820418"><ele>253.5</ele></trkpt>
<trkpt lon="3.707065" lat="47.820415"><ele>255.0</ele></trkpt>
<trkpt lon="3.706968" lat="47.820429"><ele>255.75</ele></trkpt>
<trkpt lon="3.706880" lat="47.820512"><ele>256.0</ele></trkpt>
<trkpt lon="3.706655" lat="47.820910"><ele>257.0</ele></trkpt>
<trkpt lon="3.706539" lat="47.821040"><ele>257.25</ele></trkpt>
<trkpt lon="3.706373" lat="47.821177"><ele>258.0</ele></trkpt>
<trkpt lon="3.706220" lat="47.821234"><ele>258.5</ele></trkpt>
<trkpt lon="3.706121" lat="47.821243"><ele>258.75</ele></trkpt>
<trkpt lon="3.706041" lat="47.821234"><ele>259.25</ele></trkpt>
<trkpt lon="3.706158" lat="47.821189"><ele>258.75</ele></trkpt>
<trkpt lon="3.706362" lat="47.821087"><ele>258.0</ele></trkpt>
<trkpt lon="3.706491" lat="47.820979"><ele>257.5</ele></trkpt>
<trkpt lon="3.706587" lat="47.820849"><ele>257.25</ele></trkpt>
<trkpt lon="3.706663" lat="47.820719"><ele>257.0</ele></trkpt>
<trkpt lon="3.706823" lat="47.820383"><ele>256.25</ele></trkpt>
<trkpt lon="3.706931" lat="47.820265"><ele>256.0</ele></trkpt>
<trkpt lon="3.707027" lat="47.820231"><ele>256.0</ele></trkpt>
<trkpt lon="3.707212" lat="47.820193"><ele>255.75</ele></trkpt>
<trkpt lon="3.705879" lat="47.819682"><ele>259.75</ele></trkpt>
<trkpt lon="3.705698" lat="47.819627"><ele>259.5</ele></trkpt>
<trkpt lon="3.705547" lat="47.819625"><ele>259.5</ele></trkpt>
<trkpt lon="3.705309" lat="47.819623"><ele>259.25</ele></trkpt>
<trkpt lon="3.705141" lat="47.819621"><ele>259.25</ele></trkpt>
<trkpt lon="3.704705" lat="47.819616"><ele>260.25</ele></trkpt>
<trkpt lon="3.703197" lat="47.819527"><ele>262.5</ele></trkpt>
<trkpt lon="3.702999" lat="47.819515"><ele>263.0</ele></trkpt>
<trkpt lon="3.700643" lat="47.819832"><ele>262.75</ele></trkpt>
<trkpt lon="3.700606" lat="47.819459"><ele>258.0</ele></trkpt>
<trkpt lon="3.700520" lat="47.818940"><ele>250.5</ele></trkpt>
<trkpt lon="3.700440" lat="47.818780"><ele>249.0</ele></trkpt>
<trkpt lon="3.700039" lat="47.818646"><ele>246.5</ele></trkpt>
<trkpt lon="3.699889" lat="47.818529"><ele>245.0</ele></trkpt>
<trkpt lon="3.699803" lat="47.818359"><ele>242.75</ele></trkpt>
<trkpt lon="3.699572" lat="47.818198"><ele>241.5</ele></trkpt>
<trkpt lon="3.699233" lat="47.818009"><ele>238.5</ele></trkpt>
<trkpt lon="3.699167" lat="47.817973"><ele>238.0</ele></trkpt>
<trkpt lon="3.698816" lat="47.817833"><ele>236.0</ele></trkpt>
<trkpt lon="3.698702" lat="47.817763"><ele>235.25</ele></trkpt>
<trkpt lon="3.697995" lat="47.817332"><ele>230.0</ele></trkpt>
<trkpt lon="3.697435" lat="47.816823"><ele>224.25</ele></trkpt>
<trkpt lon="3.697296" lat="47.816759"><ele>223.75</ele></trkpt>
<trkpt lon="3.697106" lat="47.816742"><ele>224.5</ele></trkpt>
<trkpt lon="3.697048" lat="47.816745"><ele>224.75</ele></trkpt>
<trkpt lon="3.696962" lat="47.816750"><ele>225.25</ele></trkpt>
<trkpt lon="3.696740" lat="47.816741"><ele>226.75</ele></trkpt>
<trkpt lon="3.696629" lat="47.816674"><ele>227.0</ele></trkpt>
<trkpt lon="3.696397" lat="47.816414"><ele>235.0</ele></trkpt>
<trkpt lon="3.696392" lat="47.816362"><ele>236.25</ele></trkpt>
<trkpt lon="3.695265" lat="47.816211"><ele>243.5</ele></trkpt>
<trkpt lon="3.694402" lat="47.816163"><ele>248.75</ele></trkpt>
<trkpt lon="3.694261" lat="47.816239"><ele>247.25</ele></trkpt>
<trkpt lon="3.693533" lat="47.816211"><ele>250.5</ele></trkpt>
<trkpt lon="3.693492" lat="47.816175"><ele>251.25</ele></trkpt>
<trkpt lon="3.693441" lat="47.816130"><ele>252.5</ele></trkpt>
<trkpt lon="3.693419" lat="47.816016"><ele>254.25</ele></trkpt>
<trkpt lon="3.693985" lat="47.815100"><ele>259.25</ele></trkpt>
<trkpt lon="3.693943" lat="47.815038"><ele>259.5</ele></trkpt>
<trkpt lon="3.693002" lat="47.814744"><ele>263.0</ele></trkpt>
<trkpt lon="3.692069" lat="47.814407"><ele>266.0</ele></trkpt>
<trkpt lon="3.689990" lat="47.813720"><ele>267.75</ele></trkpt>
<trkpt lon="3.690306" lat="47.812193"><ele>269.75</ele></trkpt>
<trkpt lon="3.690486" lat="47.811320"><ele>269.0</ele></trkpt>
<trkpt lon="3.690507" lat="47.811111"><ele>268.75</ele></trkpt>
<trkpt lon="3.690339" lat="47.811094"><ele>268.75</ele></trkpt>
<trkpt lon="3.687184" lat="47.811682"><ele>257.75</ele></trkpt>
<trkpt lon="3.686278" lat="47.811868"><ele>253.75</ele></trkpt>
<trkpt lon="3.685538" lat="47.812045"><ele>250.5</ele></trkpt>
<trkpt lon="3.684567" lat="47.812056"><ele>249.0</ele></trkpt>
<trkpt lon="3.682808" lat="47.812145"><ele>244.75</ele></trkpt>
<trkpt lon="3.681314" lat="47.811846"><ele>246.25</ele></trkpt>
<trkpt lon="3.679637" lat="47.811524"><ele>245.5</ele></trkpt>
<trkpt lon="3.677931" lat="47.810826"><ele>246.75</ele></trkpt>
<trkpt lon="3.676812" lat="47.810409"><ele>247.0</ele></trkpt>
<trkpt lon="3.674447" lat="47.809662"><ele>247.5</ele></trkpt>
<trkpt lon="3.673516" lat="47.809321"><ele>246.75</ele></trkpt>
<trkpt lon="3.672379" lat="47.809006"><ele>244.75</ele></trkpt>
<trkpt lon="3.671317" lat="47.808712"><ele>242.25</ele></trkpt>
<trkpt lon="3.670850" lat="47.808560"><ele>240.75</ele></trkpt>
<trkpt lon="3.669684" lat="47.808088"><ele>238.0</ele></trkpt>
<trkpt lon="3.668591" lat="47.807603"><ele>233.0</ele></trkpt>
<trkpt lon="3.667792" lat="47.807321"><ele>229.25</ele></trkpt>
<trkpt lon="3.666338" lat="47.807088"><ele>220.75</ele></trkpt>
<trkpt lon="3.665992" lat="47.806980"><ele>218.25</ele></trkpt>
<trkpt lon="3.665550" lat="47.806785"><ele>214.75</ele></trkpt>
<trkpt lon="3.665094" lat="47.806667"><ele>212.5</ele></trkpt>
<trkpt lon="3.664867" lat="47.806632"><ele>210.25</ele></trkpt>
<trkpt lon="3.664659" lat="47.806641"><ele>208.25</ele></trkpt>
<trkpt lon="3.664123" lat="47.806836"><ele>202.5</ele></trkpt>
<trkpt lon="3.663846" lat="47.806750"><ele>200.5</ele></trkpt>
<trkpt lon="3.663526" lat="47.806717"><ele>198.5</ele></trkpt>
<trkpt lon="3.663145" lat="47.806667"><ele>197.25</ele></trkpt>
<trkpt lon="3.662817" lat="47.806686"><ele>196.0</ele></trkpt>
<trkpt lon="3.662290" lat="47.806663"><ele>194.0</ele></trkpt>
<trkpt lon="3.661577" lat="47.806601"><ele>193.75</ele></trkpt>
<trkpt lon="3.660981" lat="47.806538"><ele>193.75</ele></trkpt>
<trkpt lon="3.660829" lat="47.806513"><ele>193.75</ele></trkpt>
<trkpt lon="3.659830" lat="47.806185"><ele>193.5</ele></trkpt>
<trkpt lon="3.659428" lat="47.806084"><ele>192.5</ele></trkpt>
<trkpt lon="3.658584" lat="47.806007"><ele>190.5</ele></trkpt>
<trkpt lon="3.658380" lat="47.805970"><ele>190.0</ele></trkpt>
<trkpt lon="3.657561" lat="47.805982"><ele>189.0</ele></trkpt>
<trkpt lon="3.657224" lat="47.805995"><ele>188.5</ele></trkpt>
<trkpt lon="3.655941" lat="47.806134"><ele>188.0</ele></trkpt>
<trkpt lon="3.654930" lat="47.806251"><ele>188.75</ele></trkpt>
<trkpt lon="3.654736" lat="47.806302"><ele>188.25</ele></trkpt>
<trkpt lon="3.654553" lat="47.806174"><ele>188.0</ele></trkpt>
<trkpt lon="3.654554" lat="47.805595"><ele>182.0</ele></trkpt>
<trkpt lon="3.654663" lat="47.804982"><ele>175.5</ele></trkpt>
<trkpt lon="3.654757" lat="47.804376"><ele>173.0</ele></trkpt>
<trkpt lon="3.654419" lat="47.804314"><ele>172.0</ele></trkpt>
<trkpt lon="3.652957" lat="47.804648"><ele>171.5</ele></trkpt>
<trkpt lon="3.652812" lat="47.804669"><ele>171.75</ele></trkpt>
<trkpt lon="3.651806" lat="47.804770"><ele>171.0</ele></trkpt>
<trkpt lon="3.651194" lat="47.804798"><ele>170.75</ele></trkpt>
<trkpt lon="3.650582" lat="47.804937"><ele>170.75</ele></trkpt>
<trkpt lon="3.649916" lat="47.805134"><ele>170.5</ele></trkpt>
<trkpt lon="3.649784" lat="47.805225"><ele>170.0</ele></trkpt>
<trkpt lon="3.648330" lat="47.805777"><ele>168.0</ele></trkpt>
<trkpt lon="3.647508" lat="47.806116"><ele>167.75</ele></trkpt>
<trkpt lon="3.647117" lat="47.806285"><ele>168.0</ele></trkpt>
<trkpt lon="3.644573" lat="47.805273"><ele>184.5</ele></trkpt>
<trkpt lon="3.644431" lat="47.805208"><ele>185.25</ele></trkpt>
<trkpt lon="3.644067" lat="47.804958"><ele>187.25</ele></trkpt>
<trkpt lon="3.643912" lat="47.804886"><ele>188.0</ele></trkpt>
<trkpt lon="3.643748" lat="47.804841"><ele>188.5</ele></trkpt>
<trkpt lon="3.643616" lat="47.804809"><ele>188.75</ele></trkpt>
<trkpt lon="3.643470" lat="47.804782"><ele>188.5</ele></trkpt>
<trkpt lon="3.643303" lat="47.804758"><ele>188.5</ele></trkpt>
<trkpt lon="3.643105" lat="47.804738"><ele>188.75</ele></trkpt>
<trkpt lon="3.641640" lat="47.804629"><ele>197.75</ele></trkpt>
<trkpt lon="3.640729" lat="47.804594"><ele>205.0</ele></trkpt>
<trkpt lon="3.640403" lat="47.804578"><ele>207.5</ele></trkpt>
<trkpt lon="3.640204" lat="47.804561"><ele>209.25</ele></trkpt>
<trkpt lon="3.640075" lat="47.804543"><ele>210.5</ele></trkpt>
<trkpt lon="3.639942" lat="47.804516"><ele>211.75</ele></trkpt>
<trkpt lon="3.639809" lat="47.804475"><ele>212.5</ele></trkpt>
<trkpt lon="3.638938" lat="47.804168"><ele>218.75</ele></trkpt>
<trkpt lon="3.638907" lat="47.804146"><ele>219.0</ele></trkpt>
<trkpt lon="3.638858" lat="47.804093"><ele>219.5</ele></trkpt>
<trkpt lon="3.638691" lat="47.804124"><ele>220.0</ele></trkpt>
<trkpt lon="3.638528" lat="47.804142"><ele>220.25</ele></trkpt>
<trkpt lon="3.636860" lat="47.804268"><ele>224.5</ele></trkpt>
<trkpt lon="3.636735" lat="47.804285"><ele>224.5</ele></trkpt>
<trkpt lon="3.636622" lat="47.804318"><ele>224.5</ele></trkpt>
<trkpt lon="3.636522" lat="47.804371"><ele>225.0</ele></trkpt>
<trkpt lon="3.636403" lat="47.804454"><ele>225.75</ele></trkpt>
<trkpt lon="3.636233" lat="47.804551"><ele>225.5</ele></trkpt>
<trkpt lon="3.635451" lat="47.804176"><ele>226.75</ele></trkpt>
<trkpt lon="3.634903" lat="47.803911"><ele>226.75</ele></trkpt>
<trkpt lon="3.634668" lat="47.803800"><ele>227.0</ele></trkpt>
<trkpt lon="3.634490" lat="47.803735"><ele>226.0</ele></trkpt>
<trkpt lon="3.634352" lat="47.803697"><ele>225.5</ele></trkpt>
<trkpt lon="3.634188" lat="47.803671"><ele>225.5</ele></trkpt>
<trkpt lon="3.634035" lat="47.803663"><ele>224.5</ele></trkpt>
<trkpt lon="3.633894" lat="47.803679"><ele>224.0</ele></trkpt>
<trkpt lon="3.633764" lat="47.803712"><ele>223.75</ele></trkpt>
<trkpt lon="3.633666" lat="47.803750"><ele>223.75</ele></trkpt>
<trkpt lon="3.633591" lat="47.803790"><ele>223.75</ele></trkpt>
<trkpt lon="3.633519" lat="47.803841"><ele>223.5</ele></trkpt>
<trkpt lon="3.633392" lat="47.803987"><ele>222.75</ele></trkpt>
<trkpt lon="3.633255" lat="47.804215"><ele>223.0</ele></trkpt>
<trkpt lon="3.633148" lat="47.804422"><ele>223.0</ele></trkpt>
<trkpt lon="3.633081" lat="47.804533"><ele>223.25</ele></trkpt>
<trkpt lon="3.633015" lat="47.804615"><ele>223.25</ele></trkpt>
<trkpt lon="3.632760" lat="47.804600"><ele>222.5</ele></trkpt>
<trkpt lon="3.632636" lat="47.804586"><ele>222.5</ele></trkpt>
<trkpt lon="3.631689" lat="47.804425"><ele>220.75</ele></trkpt>
<trkpt lon="3.631391" lat="47.804383"><ele>220.75</ele></trkpt>
<trkpt lon="3.631207" lat="47.804376"><ele>220.75</ele></trkpt>
<trkpt lon="3.631029" lat="47.804377"><ele>220.5</ele></trkpt>
<trkpt lon="3.630578" lat="47.804390"><ele>219.75</ele></trkpt>
<trkpt lon="3.628206" lat="47.804429"><ele>216.0</ele></trkpt>
<trkpt lon="3.628059" lat="47.804445"><ele>216.0</ele></trkpt>
<trkpt lon="3.627897" lat="47.804473"><ele>215.5</ele></trkpt>
<trkpt lon="3.627746" lat="47.804507"><ele>215.0</ele></trkpt>
<trkpt lon="3.627607" lat="47.804549"><ele>214.5</ele></trkpt>
<trkpt lon="3.627450" lat="47.804606"><ele>213.75</ele></trkpt>
<trkpt lon="3.627277" lat="47.804688"><ele>213.25</ele></trkpt>
<trkpt lon="3.627024" lat="47.804846"><ele>212.75</ele></trkpt>
<trkpt lon="3.626701" lat="47.805062"><ele>211.25</ele></trkpt>
<trkpt lon="3.626198" lat="47.805437"><ele>210.0</ele></trkpt>
<trkpt lon="3.626020" lat="47.805584"><ele>209.75</ele></trkpt>
<trkpt lon="3.625785" lat="47.805812"><ele>209.75</ele></trkpt>
<trkpt lon="3.625285" lat="47.806274"><ele>209.5</ele></trkpt>
<trkpt lon="3.625073" lat="47.806474"><ele>211.25</ele></trkpt>
<trkpt lon="3.624978" lat="47.806590"><ele>211.75</ele></trkpt>
<trkpt lon="3.624909" lat="47.806708"><ele>212.5</ele></trkpt>
<trkpt lon="3.624870" lat="47.806807"><ele>213.5</ele></trkpt>
<trkpt lon="3.624842" lat="47.806926"><ele>214.25</ele></trkpt>
<trkpt lon="3.624756" lat="47.807286"><ele>216.0</ele></trkpt>
<trkpt lon="3.624646" lat="47.807608"><ele>217.75</ele></trkpt>
<trkpt lon="3.624402" lat="47.808220"><ele>221.25</ele></trkpt>
<trkpt lon="3.624071" lat="47.808989"><ele>225.25</ele></trkpt>
<trkpt lon="3.624045" lat="47.809129"><ele>225.75</ele></trkpt>
<trkpt lon="3.623898" lat="47.809202"><ele>226.25</ele></trkpt>
<trkpt lon="3.623617" lat="47.809317"><ele>227.5</ele></trkpt>
<trkpt lon="3.623385" lat="47.809380"><ele>227.75</ele></trkpt>
<trkpt lon="3.623322" lat="47.809381"><ele>227.75</ele></trkpt>
<trkpt lon="3.623209" lat="47.809395"><ele>227.75</ele></trkpt>
<trkpt lon="3.622993" lat="47.809438"><ele>228.0</ele></trkpt>
<trkpt lon="3.622845" lat="47.809476"><ele>228.75</ele></trkpt>
<trkpt lon="3.622784" lat="47.809497"><ele>228.75</ele></trkpt>
<trkpt lon="3.622740" lat="47.809520"><ele>229.0</ele></trkpt>
<trkpt lon="3.622685" lat="47.809512"><ele>229.0</ele></trkpt>
<trkpt lon="3.622645" lat="47.809518"><ele>229.0</ele></trkpt>
<trkpt lon="3.622608" lat="47.809537"><ele>229.0</ele></trkpt>
<trkpt lon="3.622550" lat="47.809530"><ele>229.0</ele></trkpt>
<trkpt lon="3.622297" lat="47.809562"><ele>229.0</ele></trkpt>
<trkpt lon="3.621635" lat="47.809586"><ele>228.75</ele></trkpt>
<trkpt lon="3.621141" lat="47.809565"><ele>228.25</ele></trkpt>
<trkpt lon="3.620682" lat="47.809514"><ele>228.0</ele></trkpt>
<trkpt lon="3.620550" lat="47.809500"><ele>227.75</ele></trkpt>
<trkpt lon="3.620264" lat="47.809482"><ele>227.0</ele></trkpt>
<trkpt lon="3.618948" lat="47.809402"><ele>225.25</ele></trkpt>
<trkpt lon="3.617797" lat="47.809319"><ele>223.0</ele></trkpt>
<trkpt lon="3.617375" lat="47.809289"><ele>221.5</ele></trkpt>
<trkpt lon="3.616640" lat="47.809261"><ele>219.25</ele></trkpt>
<trkpt lon="3.616381" lat="47.809251"><ele>218.75</ele></trkpt>
<trkpt lon="3.615864" lat="47.809169"><ele>217.0</ele></trkpt>
<trkpt lon="3.615272" lat="47.809041"><ele>216.5</ele></trkpt>
<trkpt lon="3.614939" lat="47.809003"><ele>216.25</ele></trkpt>
<trkpt lon="3.614629" lat="47.809043"><ele>215.5</ele></trkpt>
<trkpt lon="3.614226" lat="47.809181"><ele>214.0</ele></trkpt>
<trkpt lon="3.614058" lat="47.809262"><ele>213.5</ele></trkpt>
<trkpt lon="3.613199" lat="47.808536"><ele>209.75</ele></trkpt>
<trkpt lon="3.611918" lat="47.807536"><ele>203.0</ele></trkpt>
<trkpt lon="3.607573" lat="47.808987"><ele>199.5</ele></trkpt>
<trkpt lon="3.607075" lat="47.808588"><ele>199.25</ele></trkpt>
<trkpt lon="3.606694" lat="47.808595"><ele>199.0</ele></trkpt>
<trkpt lon="3.604096" lat="47.808711"><ele>193.0</ele></trkpt>
<trkpt lon="3.601495" lat="47.808852"><ele>181.5</ele></trkpt>
<trkpt lon="3.600074" lat="47.808958"><ele>172.5</ele></trkpt>
<trkpt lon="3.597930" lat="47.809108"><ele>158.5</ele></trkpt>
<trkpt lon="3.597386" lat="47.809139"><ele>152.5</ele></trkpt>
<trkpt lon="3.596954" lat="47.809221"><ele>147.0</ele></trkpt>
<trkpt lon="3.596337" lat="47.809224"><ele>148.25</ele></trkpt>
<trkpt lon="3.595240" lat="47.809104"><ele>133.25</ele></trkpt>
<trkpt lon="3.595098" lat="47.809045"><ele>133.0</ele></trkpt>
<trkpt lon="3.594636" lat="47.808627"><ele>128.5</ele></trkpt>
<trkpt lon="3.593141" lat="47.807623"><ele>122.5</ele></trkpt>
<trkpt lon="3.592191" lat="47.806755"><ele>118.75</ele></trkpt>
<trkpt lon="3.591445" lat="47.806001"><ele>114.75</ele></trkpt>
<trkpt lon="3.590589" lat="47.804993"><ele>110.25</ele></trkpt>
<trkpt lon="3.590552" lat="47.804950"><ele>110.25</ele></trkpt>
<trkpt lon="3.590127" lat="47.805344"><ele>108.75</ele></trkpt>
<trkpt lon="3.589681" lat="47.805609"><ele>106.25</ele></trkpt>
<trkpt lon="3.589237" lat="47.805792"><ele>103.5</ele></trkpt>
<trkpt lon="3.589077" lat="47.805845"><ele>102.5</ele></trkpt>
<trkpt lon="3.588765" lat="47.805929"><ele>102.0</ele></trkpt>
<trkpt lon="3.588422" lat="47.805995"><ele>100.5</ele></trkpt>
<trkpt lon="3.587837" lat="47.806061"><ele>98.25</ele></trkpt>
<trkpt lon="3.587383" lat="47.806108"><ele>97.0</ele></trkpt>
<trkpt lon="3.587127" lat="47.806133"><ele>97.25</ele></trkpt>
<trkpt lon="3.586520" lat="47.806201"><ele>100.25</ele></trkpt>
<trkpt lon="3.583577" lat="47.806495"><ele>98.0</ele></trkpt>
<trkpt lon="3.583378" lat="47.806527"><ele>98.0</ele></trkpt>
<trkpt lon="3.583249" lat="47.806547"><ele>98.0</ele></trkpt>
<trkpt lon="3.582932" lat="47.806581"><ele>98.0</ele></trkpt>
<trkpt lon="3.582260" lat="47.806705"><ele>97.75</ele></trkpt>
<trkpt lon="3.582126" lat="47.806730"><ele>97.5</ele></trkpt>
<trkpt lon="3.581912" lat="47.806621"><ele>97.0</ele></trkpt>
<trkpt lon="3.580460" lat="47.806912"><ele>97.0</ele></trkpt>
<trkpt lon="3.580404" lat="47.806937"><ele>97.0</ele></trkpt>
<trkpt lon="3.580204" lat="47.806384"><ele>97.5</ele></trkpt>
<trkpt lon="3.580159" lat="47.806261"><ele>97.75</ele></trkpt>
<trkpt lon="3.580080" lat="47.806047"><ele>98.0</ele></trkpt>
<trkpt lon="3.580020" lat="47.805894"><ele>98.0</ele></trkpt>
<trkpt lon="3.579952" lat="47.805749"><ele>98.0</ele></trkpt>
<trkpt lon="3.579893" lat="47.805636"><ele>98.0</ele></trkpt>
<trkpt lon="3.579531" lat="47.804967"><ele>98.0</ele></trkpt>
<trkpt lon="3.579461" lat="47.804790"><ele>98.0</ele></trkpt>
<trkpt lon="3.579189" lat="47.804085"><ele>98.0</ele></trkpt>
<trkpt lon="3.579156" lat="47.804002"><ele>97.75</ele></trkpt>
<trkpt lon="3.578904" lat="47.803325"><ele>98.0</ele></trkpt>
<trkpt lon="3.578805" lat="47.803061"><ele>98.0</ele></trkpt>
<trkpt lon="3.578742" lat="47.802935"><ele>97.75</ele></trkpt>
<trkpt lon="3.578516" lat="47.802312"><ele>98.0</ele></trkpt>
<trkpt lon="3.578491" lat="47.802246"><ele>98.0</ele></trkpt>
<trkpt lon="3.578464" lat="47.802173"><ele>98.0</ele></trkpt>
<trkpt lon="3.578406" lat="47.802183"><ele>98.0</ele></trkpt>
<trkpt lon="3.578271" lat="47.801833"><ele>98.0</ele></trkpt>
<trkpt lon="3.578206" lat="47.801798"><ele>98.0</ele></trkpt>
<trkpt lon="3.577548" lat="47.801689"><ele>98.0</ele></trkpt>
<trkpt lon="3.577365" lat="47.801661"><ele>98.25</ele></trkpt>
<trkpt lon="3.577022" lat="47.801633"><ele>99.5</ele></trkpt>
<trkpt lon="3.576612" lat="47.801684"><ele>100.0</ele></trkpt>
<trkpt lon="3.576612" lat="47.801677"><ele>100.0</ele></trkpt>
<trkpt lon="3.576413" lat="47.801638"><ele>100.75</ele></trkpt>
<trkpt lon="3.575619" lat="47.801716"><ele>100.0</ele></trkpt>
<trkpt lon="3.575597" lat="47.801718"><ele>99.75</ele></trkpt>
<trkpt lon="3.574523" lat="47.801838"><ele>100.0</ele></trkpt>
<trkpt lon="3.574514" lat="47.801839"><ele>100.25</ele></trkpt>
<trkpt lon="3.574435" lat="47.801848"><ele>101.25</ele></trkpt>
<trkpt lon="3.574426" lat="47.801810"><ele>101.5</ele></trkpt>
<trkpt lon="3.574417" lat="47.801769"><ele>101.5</ele></trkpt>
<trkpt lon="3.574405" lat="47.801737"><ele>101.75</ele></trkpt>
<trkpt lon="3.574425" lat="47.801698"><ele>101.75</ele></trkpt>
<trkpt lon="3.574428" lat="47.801652"><ele>102.0</ele></trkpt>
<trkpt lon="3.574400" lat="47.801550"><ele>101.5</ele></trkpt>
<trkpt lon="3.574415" lat="47.801535"><ele>101.5</ele></trkpt>
<trkpt lon="3.574410" lat="47.801512"><ele>101.5</ele></trkpt>
<trkpt lon="3.574399" lat="47.801471"><ele>101.25</ele></trkpt>
<trkpt lon="3.574361" lat="47.801311"><ele>100.75</ele></trkpt>
<trkpt lon="3.574287" lat="47.801297"><ele>100.75</ele></trkpt>
<trkpt lon="3.574217" lat="47.801284"><ele>100.75</ele></trkpt>
<trkpt lon="3.574326" lat="47.800749"><ele>99.0</ele></trkpt>
<trkpt lon="3.574120" lat="47.800737"><ele>99.5</ele></trkpt>
<trkpt lon="3.574056" lat="47.800733"><ele>99.75</ele></trkpt>
<trkpt lon="3.574057" lat="47.800697"><ele>100.0</ele></trkpt>
<trkpt lon="3.574056" lat="47.800652"><ele>100.25</ele></trkpt>
<trkpt lon="3.574053" lat="47.800527"><ele>100.5</ele></trkpt>
<trkpt lon="3.573983" lat="47.800532"><ele>101.0</ele></trkpt>
<trkpt lon="3.573864" lat="47.800284"><ele>101.0</ele></trkpt>
<trkpt lon="3.573788" lat="47.800262"><ele>101.5</ele></trkpt>
<trkpt lon="3.573778" lat="47.800231"><ele>101.5</ele></trkpt>
<trkpt lon="3.573760" lat="47.800185"><ele>101.5</ele></trkpt>
<trkpt lon="3.573739" lat="47.800131"><ele>101.75</ele></trkpt>
<trkpt lon="3.573649" lat="47.799894"><ele>102.75</ele></trkpt>
<trkpt lon="3.573640" lat="47.799870"><ele>103.0</ele></trkpt>
<trkpt lon="3.573560" lat="47.799714"><ele>104.25</ele></trkpt>
<trkpt lon="3.573405" lat="47.799580"><ele>104.5</ele></trkpt>
<trkpt lon="3.573214" lat="47.799537"><ele>106.75</ele></trkpt>
<trkpt lon="3.573143" lat="47.799534"><ele>107.5</ele></trkpt>
<trkpt lon="3.573276" lat="47.799124"><ele>107.5</ele></trkpt>
<trkpt lon="3.573333" lat="47.798948"><ele>109.25</ele></trkpt>
<trkpt lon="3.573354" lat="47.798863"><ele>110.25</ele></trkpt>
<trkpt lon="3.573357" lat="47.798815"><ele>110.5</ele></trkpt>
<trkpt lon="3.573287" lat="47.798506"><ele>114.0</ele></trkpt>
<trkpt lon="3.573251" lat="47.798449"><ele>114.5</ele></trkpt>
<trkpt lon="3.573204" lat="47.798422"><ele>115.0</ele></trkpt>
<trkpt lon="3.572971" lat="47.798373"><ele>116.0</ele></trkpt>
<trkpt lon="3.572838" lat="47.798314"><ele>116.75</ele></trkpt>
<trkpt lon="3.572893" lat="47.798176"><ele>117.25</ele></trkpt>
<trkpt lon="3.572998" lat="47.798201"><ele>117.0</ele></trkpt>
  </trkseg></trk></gpx>
