<?xml version="1.0" encoding="UTF-8"?>
<gpx version="1.1" creator="compostel-brouter" xmlns="http://www.topografix.com/GPX/1/1">
  <metadata><name>FR-15-Vezelay</name></metadata>
  <trk><name>FR-15-Vezelay</name><trkseg>
<trkpt lon="3.741813" lat="47.664640"><ele>137.0</ele></trkpt>
<trkpt lon="3.741285" lat="47.664342"><ele>137.25</ele></trkpt>
<trkpt lon="3.740931" lat="47.664105"><ele>138.25</ele></trkpt>
<trkpt lon="3.740330" lat="47.663739"><ele>137.5</ele></trkpt>
<trkpt lon="3.740067" lat="47.663545"><ele>137.5</ele></trkpt>
<trkpt lon="3.739783" lat="47.663419"><ele>137.25</ele></trkpt>
<trkpt lon="3.739434" lat="47.663161"><ele>136.75</ele></trkpt>
<trkpt lon="3.739359" lat="47.663132"><ele>136.75</ele></trkpt>
<trkpt lon="3.739272" lat="47.663144"><ele>136.25</ele></trkpt>
<trkpt lon="3.738742" lat="47.663704"><ele>127.75</ele></trkpt>
<trkpt lon="3.738629" lat="47.663870"><ele>126.0</ele></trkpt>
<trkpt lon="3.738646" lat="47.663943"><ele>125.75</ele></trkpt>
<trkpt lon="3.738633" lat="47.664051"><ele>125.25</ele></trkpt>
<trkpt lon="3.738438" lat="47.664488"><ele>124.25</ele></trkpt>
<trkpt lon="3.738395" lat="47.664582"><ele>124.25</ele></trkpt>
<trkpt lon="3.737826" lat="47.664494"><ele>123.5</ele></trkpt>
<trkpt lon="3.737690" lat="47.664477"><ele>123.5</ele></trkpt>
<trkpt lon="3.737598" lat="47.664465"><ele>123.75</ele></trkpt>
<trkpt lon="3.737530" lat="47.664474"><ele>124.0</ele></trkpt>
<trkpt lon="3.737485" lat="47.664490"><ele>124.25</ele></trkpt>
<trkpt lon="3.737457" lat="47.664512"><ele>124.25</ele></trkpt>
<trkpt lon="3.737309" lat="47.664432"><ele>123.75</ele></trkpt>
<trkpt lon="3.736998" lat="47.664264"><ele>123.25</ele></trkpt>
<trkpt lon="3.736752" lat="47.664104"><ele>122.75</ele></trkpt>
<trkpt lon="3.736608" lat="47.664011"><ele>122.25</ele></trkpt>
<trkpt lon="3.736305" lat="47.663866"><ele>122.0</ele></trkpt>
<trkpt lon="3.736273" lat="47.663857"><ele>122.0</ele></trkpt>
<trkpt lon="3.736062" lat="47.664135"><ele>122.75</ele></trkpt>
<trkpt lon="3.735995" lat="47.664151"><ele>122.75</ele></trkpt>
<trkpt lon="3.735886" lat="47.664136"><ele>122.75</ele></trkpt>
<trkpt lon="3.735793" lat="47.664153"><ele>123.0</ele></trkpt>
<trkpt lon="3.735807" lat="47.664272"><ele>124.0</ele></trkpt>
<trkpt lon="3.735810" lat="47.664304"><ele>124.5</ele></trkpt>
<trkpt lon="3.735745" lat="47.664379"><ele>125.5</ele></trkpt>
<trkpt lon="3.735652" lat="47.664445"><ele>126.5</ele></trkpt>
<trkpt lon="3.735581" lat="47.664465"><ele>127.0</ele></trkpt>
<trkpt lon="3.735482" lat="47.664465"><ele>127.25</ele></trkpt>
<trkpt lon="3.735383" lat="47.664448"><ele>127.5</ele></trkpt>
<trkpt lon="3.735283" lat="47.664637"><ele>129.25</ele></trkpt>
<trkpt lon="3.735281" lat="47.664659"><ele>129.5</ele></trkpt>
<trkpt lon="3.735182" lat="47.664854"><ele>130.0</ele></trkpt>
<trkpt lon="3.734995" lat="47.664811"><ele>129.75</ele></trkpt>
<trkpt lon="3.734878" lat="47.664785"><ele>129.75</ele></trkpt>
<trkpt lon="3.734743" lat="47.665047"><ele>129.0</ele></trkpt>
<trkpt lon="3.734763" lat="47.665053"><ele>129.25</ele></trkpt>
<trkpt lon="3.734596" lat="47.665472"><ele>128.75</ele></trkpt>
<trkpt lon="3.734485" lat="47.665520"><ele>128.25</ele></trkpt>
<trkpt lon="3.734406" lat="47.665703"><ele>127.75</ele></trkpt>
<trkpt lon="3.734241" lat="47.665676"><ele>127.25</ele></trkpt>
<trkpt lon="3.734188" lat="47.665696"><ele>127.0</ele></trkpt>
<trkpt lon="3.733982" lat="47.665669"><ele>125.5</ele></trkpt>
<trkpt lon="3.733926" lat="47.665666"><ele>125.25</ele></trkpt>
<trkpt lon="3.733884" lat="47.665674"><ele>124.75</ele></trkpt>
<trkpt lon="3.733783" lat="47.665802"><ele>124.5</ele></trkpt>
<trkpt lon="3.733540" lat="47.665709"><ele>123.5</ele></trkpt>
<trkpt lon="3.733498" lat="47.665685"><ele>123.5</ele></trkpt>
<trkpt lon="3.733438" lat="47.665639"><ele>123.25</ele></trkpt>
<trkpt lon="3.733287" lat="47.665620"><ele>122.75</ele></trkpt>
<trkpt lon="3.733186" lat="47.665628"><ele>122.75</ele></trkpt>
<trkpt lon="3.733124" lat="47.665636"><ele>122.75</ele></trkpt>
<trkpt lon="3.732981" lat="47.665686"><ele>122.75</ele></trkpt>
<trkpt lon="3.732737" lat="47.665773"><ele>123.5</ele></trkpt>
<trkpt lon="3.732632" lat="47.665750"><ele>124.25</ele></trkpt>
<trkpt lon="3.732469" lat="47.665706"><ele>124.25</ele></trkpt>
<trkpt lon="3.732243" lat="47.665560"><ele>120.25</ele></trkpt>
<trkpt lon="3.732053" lat="47.665437"><ele>118.75</ele></trkpt>
<trkpt lon="3.731973" lat="47.665629"><ele>119.5</ele></trkpt>
<trkpt lon="3.731921" lat="47.665705"><ele>119.75</ele></trkpt>
<trkpt lon="3.731823" lat="47.665848"><ele>119.75</ele></trkpt>
<trkpt lon="3.731664" lat="47.665911"><ele>119.25</ele></trkpt>
<trkpt lon="3.731498" lat="47.666010"><ele>119.25</ele></trkpt>
<trkpt lon="3.731345" lat="47.666138"><ele>119.0</ele></trkpt>
<trkpt lon="3.731166" lat="47.666303"><ele>119.0</ele></trkpt>
<trkpt lon="3.730808" lat="47.666530"><ele>119.75</ele></trkpt>
<trkpt lon="3.730492" lat="47.666700"><ele>119.0</ele></trkpt>
<trkpt lon="3.730163" lat="47.666911"><ele>121.0</ele></trkpt>
<trkpt lon="3.729836" lat="47.667089"><ele>120.5</ele></trkpt>
<trkpt lon="3.729706" lat="47.667175"><ele>121.5</ele></trkpt>
<trkpt lon="3.729698" lat="47.667219"><ele>122.5</ele></trkpt>
<trkpt lon="3.729179" lat="47.667389"><ele>119.5</ele></trkpt>
<trkpt lon="3.729110" lat="47.667329"><ele>117.25</ele></trkpt>
<trkpt lon="3.728829" lat="47.667398"><ele>117.75</ele></trkpt>
<trkpt lon="3.727783" lat="47.667759"><ele>117.5</ele></trkpt>
<trkpt lon="3.727729" lat="47.667770"><ele>117.0</ele></trkpt>
<trkpt lon="3.727670" lat="47.667757"><ele>115.75</ele></trkpt>
<trkpt lon="3.727250" lat="47.667551"><ele>115.0</ele></trkpt>
<trkpt lon="3.727288" lat="47.667496"><ele>115.25</ele></trkpt>
<trkpt lon="3.727375" lat="47.667291"><ele>114.0</ele></trkpt>
<trkpt lon="3.727359" lat="47.667153"><ele>113.75</ele></trkpt>
<trkpt lon="3.727303" lat="47.667019"><ele>114.0</ele></trkpt>
<trkpt lon="3.727209" lat="47.666864"><ele>114.25</ele></trkpt>
<trkpt lon="3.726997" lat="47.666600"><ele>114.25</ele></trkpt>
<trkpt lon="3.726909" lat="47.666454"><ele>114.25</ele></trkpt>
<trkpt lon="3.726866" lat="47.666297"><ele>114.25</ele></trkpt>
<trkpt lon="3.726802" lat="47.666222"><ele>115.0</ele></trkpt>
<trkpt lon="3.726700" lat="47.666179"><ele>116.25</ele></trkpt>
<trkpt lon="3.726600" lat="47.666164"><ele>116.5</ele></trkpt>
<trkpt lon="3.726623" lat="47.665702"><ele>117.25</ele></trkpt>
<trkpt lon="3.726614" lat="47.664900"><ele>115.5</ele></trkpt>
<trkpt lon="3.726598" lat="47.664707"><ele>116.0</ele></trkpt>
<trkpt lon="3.726540" lat="47.664499"><ele>115.5</ele></trkpt>
<trkpt lon="3.726443" lat="47.664354"><ele>116.25</ele></trkpt>
<trkpt lon="3.725839" lat="47.663828"><ele>119.0</ele></trkpt>
<trkpt lon="3.725796" lat="47.663760"><ele>118.0</ele></trkpt>
<trkpt lon="3.725722" lat="47.663634"><ele>116.75</ele></trkpt>
<trkpt lon="3.725586" lat="47.663458"><ele>117.75</ele></trkpt>
<trkpt lon="3.725298" lat="47.663206"><ele>118.0</ele></trkpt>
<trkpt lon="3.725166" lat="47.663106"><ele>118.0</ele></trkpt>
<trkpt lon="3.725086" lat="47.663045"><ele>118.0</ele></trkpt>
<trkpt lon="3.724784" lat="47.662780"><ele>118.0</ele></trkpt>
<trkpt lon="3.724580" lat="47.662623"><ele>118.5</ele></trkpt>
<trkpt lon="3.724632" lat="47.662578"><ele>118.5</ele></trkpt>
<trkpt lon="3.724641" lat="47.662536"><ele>118.75</ele></trkpt>
<trkpt lon="3.724632" lat="47.662427"><ele>119.0</ele></trkpt>
<trkpt lon="3.724582" lat="47.662144"><ele>119.75</ele></trkpt>
<trkpt lon="3.724577" lat="47.662107"><ele>119.75</ele></trkpt>
<trkpt lon="3.724572" lat="47.662067"><ele>120.0</ele></trkpt>
<trkpt lon="3.724549" lat="47.661621"><ele>122.25</ele></trkpt>
<trkpt lon="3.724521" lat="47.661025"><ele>125.25</ele></trkpt>
<trkpt lon="3.724491" lat="47.660730"><ele>127.0</ele></trkpt>
<trkpt lon="3.724410" lat="47.660341"><ele>127.75</ele></trkpt>
<trkpt lon="3.724323" lat="47.659544"><ele>129.5</ele></trkpt>
<trkpt lon="3.724295" lat="47.659216"><ele>130.0</ele></trkpt>
<trkpt lon="3.724226" lat="47.658743"><ele>130.75</ele></trkpt>
<trkpt lon="3.724171" lat="47.658432"><ele>131.0</ele></trkpt>
<trkpt lon="3.724127" lat="47.658233"><ele>131.0</ele></trkpt>
<trkpt lon="3.724029" lat="47.657902"><ele>131.25</ele></trkpt>
<trkpt lon="3.723912" lat="47.657657"><ele>131.75</ele></trkpt>
<trkpt lon="3.723743" lat="47.657189"><ele>133.5</ele></trkpt>
<trkpt lon="3.723680" lat="47.656962"><ele>134.5</ele></trkpt>
<trkpt lon="3.723688" lat="47.656758"><ele>135.5</ele></trkpt>
<trkpt lon="3.723702" lat="47.656652"><ele>136.0</ele></trkpt>
<trkpt lon="3.723836" lat="47.656256"><ele>138.0</ele></trkpt>
<trkpt lon="3.723870" lat="47.656146"><ele>138.75</ele></trkpt>
<trkpt lon="3.723868" lat="47.656098"><ele>139.0</ele></trkpt>
<trkpt lon="3.723787" lat="47.656031"><ele>139.75</ele></trkpt>
<trkpt lon="3.723888" lat="47.655991"><ele>139.75</ele></trkpt>
<trkpt lon="3.723995" lat="47.655934"><ele>139.75</ele></trkpt>
<trkpt lon="3.724650" lat="47.655580"><ele>138.25</ele></trkpt>
<trkpt lon="3.725288" lat="47.655103"><ele>133.75</ele></trkpt>
<trkpt lon="3.725468" lat="47.654814"><ele>132.0</ele></trkpt>
<trkpt lon="3.726033" lat="47.653905"><ele>121.25</ele></trkpt>
<trkpt lon="3.726150" lat="47.653554"><ele>118.75</ele></trkpt>
<trkpt lon="3.726370" lat="47.653055"><ele>117.0</ele></trkpt>
<trkpt lon="3.726381" lat="47.652581"><ele>117.75</ele></trkpt>
<trkpt lon="3.726252" lat="47.651364"><ele>119.75</ele></trkpt>
<trkpt lon="3.726134" lat="47.650767"><ele>120.75</ele></trkpt>
<trkpt lon="3.725960" lat="47.650172"><ele>122.5</ele></trkpt>
<trkpt lon="3.725861" lat="47.649831"><ele>124.0</ele></trkpt>
<trkpt lon="3.725822" lat="47.649752"><ele>125.0</ele></trkpt>
<trkpt lon="3.725445" lat="47.649045"><ele>131.75</ele></trkpt>
<trkpt lon="3.725112" lat="47.648308"><ele>138.0</ele></trkpt>
<trkpt lon="3.724946" lat="47.647838"><ele>144.75</ele></trkpt>
<trkpt lon="3.724822" lat="47.647321"><ele>149.75</ele></trkpt>
<trkpt lon="3.724837" lat="47.646958"><ele>150.25</ele></trkpt>
<trkpt lon="3.724938" lat="47.646562"><ele>149.75</ele></trkpt>
<trkpt lon="3.725254" lat="47.645899"><ele>147.75</ele></trkpt>
<trkpt lon="3.725817" lat="47.644871"><ele>148.75</ele></trkpt>
<trkpt lon="3.726033" lat="47.644593"><ele>147.5</ele></trkpt>
<trkpt lon="3.726420" lat="47.644187"><ele>144.75</ele></trkpt>
<trkpt lon="3.726764" lat="47.643865"><ele>142.25</ele></trkpt>
<trkpt lon="3.727328" lat="47.643446"><ele>137.5</ele></trkpt>
<trkpt lon="3.727790" lat="47.643201"><ele>135.75</ele></trkpt>
<trkpt lon="3.728292" lat="47.642910"><ele>132.5</ele></trkpt>
<trkpt lon="3.728520" lat="47.642667"><ele>131.0</ele></trkpt>
<trkpt lon="3.728591" lat="47.642533"><ele>131.0</ele></trkpt>
<trkpt lon="3.728581" lat="47.642442"><ele>131.0</ele></trkpt>
<trkpt lon="3.728584" lat="47.642344"><ele>129.75</ele></trkpt>
<trkpt lon="3.728493" lat="47.642224"><ele>129.25</ele></trkpt>
<trkpt lon="3.728316" lat="47.642080"><ele>128.0</ele></trkpt>
<trkpt lon="3.728333" lat="47.642002"><ele>126.0</ele></trkpt>
<trkpt lon="3.728406" lat="47.641915"><ele>124.75</ele></trkpt>
<trkpt lon="3.729254" lat="47.641932"><ele>122.75</ele></trkpt>
<trkpt lon="3.729413" lat="47.641885"><ele>122.0</ele></trkpt>
<trkpt lon="3.729791" lat="47.641683"><ele>124.0</ele></trkpt>
<trkpt lon="3.730356" lat="47.641427"><ele>122.0</ele></trkpt>
<trkpt lon="3.730930" lat="47.641118"><ele>120.5</ele></trkpt>
<trkpt lon="3.732008" lat="47.640391"><ele>122.0</ele></trkpt>
<trkpt lon="3.732684" lat="47.639922"><ele>120.5</ele></trkpt>
<trkpt lon="3.733258" lat="47.639437"><ele>121.0</ele></trkpt>
<trkpt lon="3.733725" lat="47.638902"><ele>121.0</ele></trkpt>
<trkpt lon="3.734267" lat="47.638244"><ele>121.5</ele></trkpt>
<trkpt lon="3.734798" lat="47.637727"><ele>123.25</ele></trkpt>
<trkpt lon="3.735232" lat="47.637474"><ele>123.0</ele></trkpt>
<trkpt lon="3.736423" lat="47.636961"><ele>120.5</ele></trkpt>
<trkpt lon="3.737115" lat="47.636582"><ele>121.5</ele></trkpt>
<trkpt lon="3.737544" lat="47.636245"><ele>119.25</ele></trkpt>
<trkpt lon="3.737758" lat="47.636003"><ele>119.0</ele></trkpt>
<trkpt lon="3.737904" lat="47.635837"><ele>118.75</ele></trkpt>
<trkpt lon="3.738097" lat="47.635569"><ele>118.5</ele></trkpt>
<trkpt lon="3.738134" lat="47.635356"><ele>117.5</ele></trkpt>
<trkpt lon="3.738059" lat="47.634984"><ele>118.75</ele></trkpt>
<trkpt lon="3.738065" lat="47.634731"><ele>118.75</ele></trkpt>
<trkpt lon="3.738167" lat="47.634467"><ele>118.75</ele></trkpt>
<trkpt lon="3.738268" lat="47.634102"><ele>119.75</ele></trkpt>
<trkpt lon="3.738655" lat="47.633289"><ele>119.0</ele></trkpt>
<trkpt lon="3.739132" lat="47.632323"><ele>118.25</ele></trkpt>
<trkpt lon="3.739148" lat="47.632146"><ele>118.25</ele></trkpt>
<trkpt lon="3.739048" lat="47.631743"><ele>119.75</ele></trkpt>
<trkpt lon="3.738978" lat="47.631215"><ele>119.25</ele></trkpt>
<trkpt lon="3.738610" lat="47.630296"><ele>119.0</ele></trkpt>
<trkpt lon="3.737653" lat="47.628443"><ele>120.0</ele></trkpt>
<trkpt lon="3.737564" lat="47.628021"><ele>119.75</ele></trkpt>
<trkpt lon="3.737528" lat="47.627411"><ele>119.75</ele></trkpt>
<trkpt lon="3.737473" lat="47.626132"><ele>120.0</ele></trkpt>
<trkpt lon="3.737339" lat="47.625763"><ele>121.0</ele></trkpt>
<trkpt lon="3.737380" lat="47.625422"><ele>121.0</ele></trkpt>
<trkpt lon="3.737564" lat="47.624957"><ele>120.75</ele></trkpt>
<trkpt lon="3.737775" lat="47.624561"><ele>121.0</ele></trkpt>
<trkpt lon="3.738070" lat="47.624166"><ele>121.75</ele></trkpt>
<trkpt lon="3.738339" lat="47.623474"><ele>122.25</ele></trkpt>
<trkpt lon="3.738038" lat="47.623417"><ele>125.0</ele></trkpt>
<trkpt lon="3.737614" lat="47.623335"><ele>126.0</ele></trkpt>
<trkpt lon="3.737458" lat="47.623313"><ele>126.5</ele></trkpt>
<trkpt lon="3.737464" lat="47.623263"><ele>126.75</ele></trkpt>
<trkpt lon="3.737627" lat="47.623206"><ele>127.0</ele></trkpt>
<trkpt lon="3.737817" lat="47.622957"><ele>128.5</ele></trkpt>
<trkpt lon="3.737804" lat="47.622913"><ele>128.75</ele></trkpt>
<trkpt lon="3.737891" lat="47.622893"><ele>128.5</ele></trkpt>
<trkpt lon="3.738057" lat="47.622683"><ele>128.25</ele></trkpt>
<trkpt lon="3.738091" lat="47.622645"><ele>128.0</ele></trkpt>
<trkpt lon="3.738197" lat="47.622481"><ele>127.5</ele></trkpt>
<trkpt lon="3.738339" lat="47.622192"><ele>126.0</ele></trkpt>
<trkpt lon="3.738439" lat="47.622005"><ele>126.0</ele></trkpt>
<trkpt lon="3.738511" lat="47.621892"><ele>125.75</ele></trkpt>
<trkpt lon="3.738978" lat="47.621331"><ele>124.5</ele></trkpt>
<trkpt lon="3.739117" lat="47.621180"><ele>124.0</ele></trkpt>
<trkpt lon="3.739372" lat="47.620850"><ele>124.25</ele></trkpt>
<trkpt lon="3.739573" lat="47.620564"><ele>124.5</ele></trkpt>
<trkpt lon="3.739713" lat="47.620336"><ele>124.75</ele></trkpt>
<trkpt lon="3.739830" lat="47.620104"><ele>124.75</ele></trkpt>
<trkpt lon="3.740172" lat="47.619492"><ele>126.25</ele></trkpt>
<trkpt lon="3.740308" lat="47.619291"><ele>126.75</ele></trkpt>
<trkpt lon="3.740349" lat="47.619206"><ele>126.75</ele></trkpt>
<trkpt lon="3.740426" lat="47.618995"><ele>127.75</ele></trkpt>
<trkpt lon="3.740507" lat="47.618882"><ele>128.25</ele></trkpt>
<trkpt lon="3.740560" lat="47.618819"><ele>128.25</ele></trkpt>
<trkpt lon="3.740911" lat="47.618665"><ele>126.0</ele></trkpt>
<trkpt lon="3.740990" lat="47.618569"><ele>126.25</ele></trkpt>
<trkpt lon="3.741064" lat="47.618603"><ele>125.25</ele></trkpt>
<trkpt lon="3.741175" lat="47.618641"><ele>124.25</ele></trkpt>
<trkpt lon="3.741320" lat="47.618652"><ele>123.25</ele></trkpt>
<trkpt lon="3.741396" lat="47.618625"><ele>122.75</ele></trkpt>
<trkpt lon="3.741388" lat="47.618505"><ele>123.75</ele></trkpt>
<trkpt lon="3.741348" lat="47.618428"><ele>124.5</ele></trkpt>
<trkpt lon="3.741273" lat="47.618272"><ele>126.5</ele></trkpt>
<trkpt lon="3.741262" lat="47.618177"><ele>127.0</ele></trkpt>
<trkpt lon="3.741288" lat="47.618056"><ele>127.25</ele></trkpt>
<trkpt lon="3.741343" lat="47.617935"><ele>127.5</ele></trkpt>
<trkpt lon="3.741420" lat="47.617815"><ele>127.5</ele></trkpt>
<trkpt lon="3.741828" lat="47.617327"><ele>128.75</ele></trkpt>
<trkpt lon="3.741918" lat="47.617158"><ele>128.5</ele></trkpt>
<trkpt lon="3.741952" lat="47.616983"><ele>128.75</ele></trkpt>
<trkpt lon="3.742034" lat="47.616848"><ele>127.75</ele></trkpt>
<trkpt lon="3.742138" lat="47.616699"><ele>127.25</ele></trkpt>
<trkpt lon="3.742257" lat="47.616664"><ele>126.75</ele></trkpt>
<trkpt lon="3.742382" lat="47.616639"><ele>125.75</ele></trkpt>
<trkpt lon="3.742327" lat="47.616522"><ele>126.75</ele></trkpt>
<trkpt lon="3.742285" lat="47.616391"><ele>127.5</ele></trkpt>
<trkpt lon="3.742208" lat="47.616077"><ele>133.5</ele></trkpt>
<trkpt lon="3.742168" lat="47.615978"><ele>135.5</ele></trkpt>
<trkpt lon="3.742078" lat="47.615877"><ele>137.25</ele></trkpt>
<trkpt lon="3.741700" lat="47.615342"><ele>147.0</ele></trkpt>
<trkpt lon="3.741775" lat="47.614919"><ele>155.75</ele></trkpt>
<trkpt lon="3.742001" lat="47.614312"><ele>167.0</ele></trkpt>
<trkpt lon="3.742505" lat="47.613212"><ele>178.25</ele></trkpt>
<trkpt lon="3.742831" lat="47.612160"><ele>183.25</ele></trkpt>
<trkpt lon="3.747169" lat="47.610213"><ele>172.5</ele></trkpt>
<trkpt lon="3.747780" lat="47.609928"><ele>150.5</ele></trkpt>
<trkpt lon="3.749335" lat="47.609202"><ele>178.0</ele></trkpt>
<trkpt lon="3.750294" lat="47.608618"><ele>175.5</ele></trkpt>
<trkpt lon="3.750480" lat="47.608440"><ele>171.25</ele></trkpt>
<trkpt lon="3.750681" lat="47.608169"><ele>164.0</ele></trkpt>
<trkpt lon="3.750892" lat="47.607824"><ele>155.5</ele></trkpt>
<trkpt lon="3.751217" lat="47.607724"><ele>150.0</ele></trkpt>
<trkpt lon="3.751753" lat="47.607590"><ele>142.0</ele></trkpt>
<trkpt lon="3.752100" lat="47.607576"><ele>137.5</ele></trkpt>
<trkpt lon="3.752237" lat="47.607539"><ele>136.0</ele></trkpt>
<trkpt lon="3.752389" lat="47.607077"><ele>132.25</ele></trkpt>
<trkpt lon="3.752507" lat="47.607010"><ele>131.75</ele></trkpt>
<trkpt lon="3.752649" lat="47.607006"><ele>131.25</ele></trkpt>
<trkpt lon="3.753404" lat="47.607185"><ele>123.25</ele></trkpt>
<trkpt lon="3.753617" lat="47.606950"><ele>122.75</ele></trkpt>
<trkpt lon="3.754179" lat="47.606236"><ele>124.0</ele></trkpt>
<trkpt lon="3.754616" lat="47.605657"><ele>124.5</ele></trkpt>
<trkpt lon="3.754707" lat="47.605519"><ele>124.25</ele></trkpt>
<trkpt lon="3.754776" lat="47.605394"><ele>124.0</ele></trkpt>
<trkpt lon="3.754923" lat="47.605045"><ele>124.0</ele></trkpt>
<trkpt lon="3.754832" lat="47.604931"><ele>125.75</ele></trkpt>
<trkpt lon="3.754790" lat="47.604552"><ele>127.5</ele></trkpt>
<trkpt lon="3.754329" lat="47.604452"><ele>130.75</ele></trkpt>
<trkpt lon="3.753278" lat="47.604310"><ele>136.0</ele></trkpt>
<trkpt lon="3.753102" lat="47.604248"><ele>136.25</ele></trkpt>
<trkpt lon="3.753003" lat="47.604179"><ele>136.25</ele></trkpt>
<trkpt lon="3.752932" lat="47.604083"><ele>136.75</ele></trkpt>
<trkpt lon="3.752913" lat="47.604022"><ele>136.75</ele></trkpt>
<trkpt lon="3.752909" lat="47.603958"><ele>136.5</ele></trkpt>
<trkpt lon="3.753178" lat="47.603514"><ele>137.0</ele></trkpt>
<trkpt lon="3.753791" lat="47.602507"><ele>138.5</ele></trkpt>
<trkpt lon="3.753935" lat="47.602308"><ele>139.25</ele></trkpt>
<trkpt lon="3.754129" lat="47.602125"><ele>139.25</ele></trkpt>
<trkpt lon="3.754326" lat="47.601969"><ele>140.25</ele></trkpt>
<trkpt lon="3.754410" lat="47.601884"><ele>140.5</ele></trkpt>
<trkpt lon="3.754454" lat="47.601818"><ele>140.25</ele></trkpt>
<trkpt lon="3.754464" lat="47.601751"><ele>140.0</ele></trkpt>
<trkpt lon="3.754461" lat="47.601667"><ele>139.75</ele></trkpt>
<trkpt lon="3.754406" lat="47.601472"><ele>139.25</ele></trkpt>
<trkpt lon="3.754404" lat="47.601413"><ele>139.0</ele></trkpt>
<trkpt lon="3.754420" lat="47.601360"><ele>138.75</ele></trkpt>
<trkpt lon="3.754488" lat="47.601270"><ele>137.75</ele></trkpt>
<trkpt lon="3.755043" lat="47.600728"><ele>135.0</ele></trkpt>
<trkpt lon="3.755162" lat="47.600642"><ele>135.0</ele></trkpt>
<trkpt lon="3.755236" lat="47.600615"><ele>135.0</ele></trkpt>
<trkpt lon="3.755329" lat="47.600619"><ele>135.25</ele></trkpt>
<trkpt lon="3.755647" lat="47.600755"><ele>136.5</ele></trkpt>
<trkpt lon="3.755777" lat="47.600826"><ele>136.75</ele></trkpt>
<trkpt lon="3.755859" lat="47.600890"><ele>136.25</ele></trkpt>
<trkpt lon="3.756219" lat="47.601167"><ele>134.25</ele></trkpt>
<trkpt lon="3.756253" lat="47.601151"><ele>134.5</ele></trkpt>
<trkpt lon="3.756327" lat="47.601049"><ele>135.5</ele></trkpt>
<trkpt lon="3.756415" lat="47.600983"><ele>136.25</ele></trkpt>
<trkpt lon="3.756512" lat="47.600924"><ele>137.0</ele></trkpt>
<trkpt lon="3.756576" lat="47.600880"><ele>137.25</ele></trkpt>
<trkpt lon="3.756978" lat="47.600452"><ele>139.25</ele></trkpt>
<trkpt lon="3.757243" lat="47.600110"><ele>141.0</ele></trkpt>
<trkpt lon="3.757489" lat="47.599964"><ele>136.25</ele></trkpt>
<trkpt lon="3.757609" lat="47.599746"><ele>137.5</ele></trkpt>
<trkpt lon="3.757851" lat="47.599475"><ele>135.5</ele></trkpt>
<trkpt lon="3.758059" lat="47.599126"><ele>129.0</ele></trkpt>
<trkpt lon="3.758133" lat="47.598944"><ele>129.75</ele></trkpt>
<trkpt lon="3.758126" lat="47.598833"><ele>131.25</ele></trkpt>
<trkpt lon="3.758070" lat="47.598681"><ele>133.25</ele></trkpt>
<trkpt lon="3.757888" lat="47.598332"><ele>135.75</ele></trkpt>
<trkpt lon="3.757864" lat="47.598236"><ele>136.5</ele></trkpt>
<trkpt lon="3.757815" lat="47.598184"><ele>136.75</ele></trkpt>
<trkpt lon="3.757692" lat="47.597983"><ele>138.0</ele></trkpt>
<trkpt lon="3.757453" lat="47.597718"><ele>139.75</ele></trkpt>
<trkpt lon="3.756600" lat="47.596985"><ele>144.25</ele></trkpt>
<trkpt lon="3.756281" lat="47.596773"><ele>146.0</ele></trkpt>
<trkpt lon="3.755878" lat="47.596426"><ele>147.75</ele></trkpt>
<trkpt lon="3.755556" lat="47.596069"><ele>149.5</ele></trkpt>
<trkpt lon="3.755261" lat="47.595825"><ele>152.0</ele></trkpt>
<trkpt lon="3.754902" lat="47.595442"><ele>154.75</ele></trkpt>
<trkpt lon="3.754779" lat="47.595143"><ele>157.25</ele></trkpt>
<trkpt lon="3.754709" lat="47.594599"><ele>161.75</ele></trkpt>
<trkpt lon="3.754505" lat="47.593998"><ele>165.5</ele></trkpt>
<trkpt lon="3.754363" lat="47.593743"><ele>167.5</ele></trkpt>
<trkpt lon="3.754025" lat="47.593061"><ele>172.75</ele></trkpt>
<trkpt lon="3.753577" lat="47.592068"><ele>180.0</ele></trkpt>
<trkpt lon="3.753357" lat="47.591393"><ele>187.75</ele></trkpt>
<trkpt lon="3.753250" lat="47.591155"><ele>190.5</ele></trkpt>
<trkpt lon="3.753129" lat="47.591070"><ele>191.25</ele></trkpt>
<trkpt lon="3.753164" lat="47.590952"><ele>192.25</ele></trkpt>
<trkpt lon="3.753226" lat="47.590876"><ele>193.0</ele></trkpt>
<trkpt lon="3.753283" lat="47.590775"><ele>193.25</ele></trkpt>
<trkpt lon="3.753310" lat="47.590586"><ele>193.75</ele></trkpt>
<trkpt lon="3.753331" lat="47.590344"><ele>194.75</ele></trkpt>
<trkpt lon="3.753401" lat="47.590112"><ele>194.75</ele></trkpt>
<trkpt lon="3.753567" lat="47.589781"><ele>193.25</ele></trkpt>
<trkpt lon="3.753688" lat="47.589443"><ele>192.25</ele></trkpt>
<trkpt lon="3.753734" lat="47.589152"><ele>191.5</ele></trkpt>
<trkpt lon="3.753723" lat="47.588844"><ele>191.0</ele></trkpt>
<trkpt lon="3.753693" lat="47.588510"><ele>190.75</ele></trkpt>
<trkpt lon="3.753738" lat="47.588279"><ele>190.0</ele></trkpt>
<trkpt lon="3.753811" lat="47.587785"><ele>197.25</ele></trkpt>
<trkpt lon="3.754263" lat="47.587429"><ele>208.0</ele></trkpt>
<trkpt lon="3.754469" lat="47.587147"><ele>215.5</ele></trkpt>
<trkpt lon="3.754537" lat="47.587000"><ele>218.25</ele></trkpt>
<trkpt lon="3.754595" lat="47.586461"><ele>225.5</ele></trkpt>
<trkpt lon="3.754325" lat="47.585188"><ele>233.25</ele></trkpt>
<trkpt lon="3.754319" lat="47.585094"><ele>233.0</ele></trkpt>
<trkpt lon="3.754266" lat="47.584337"><ele>234.25</ele></trkpt>
<trkpt lon="3.754390" lat="47.583748"><ele>234.5</ele></trkpt>
<trkpt lon="3.754808" lat="47.583376"><ele>233.75</ele></trkpt>
<trkpt lon="3.754733" lat="47.583334"><ele>235.75</ele></trkpt>
<trkpt lon="3.752729" lat="47.582703"><ele>251.25</ele></trkpt>
<trkpt lon="3.753400" lat="47.582399"><ele>249.75</ele></trkpt>
<trkpt lon="3.755108" lat="47.581441"><ele>248.0</ele></trkpt>
<trkpt lon="3.755830" lat="47.581036"><ele>246.25</ele></trkpt>
<trkpt lon="3.756200" lat="47.580770"><ele>247.0</ele></trkpt>
<trkpt lon="3.755332" lat="47.580150"><ele>252.75</ele></trkpt>
<trkpt lon="3.754655" lat="47.579547"><ele>257.75</ele></trkpt>
<trkpt lon="3.754056" lat="47.578429"><ele>261.0</ele></trkpt>
<trkpt lon="3.754262" lat="47.578256"><ele>261.0</ele></trkpt>
<trkpt lon="3.754066" lat="47.578045"><ele>261.0</ele></trkpt>
<trkpt lon="3.755361" lat="47.577323"><ele>261.0</ele></trkpt>
<trkpt lon="3.755479" lat="47.577138"><ele>261.0</ele></trkpt>
<trkpt lon="3.757726" lat="47.575516"><ele>259.0</ele></trkpt>
<trkpt lon="3.758315" lat="47.575304"><ele>260.0</ele></trkpt>
<trkpt lon="3.759444" lat="47.574417"><ele>258.75</ele></trkpt>
<trkpt lon="3.760747" lat="47.573563"><ele>250.75</ele></trkpt>
<trkpt lon="3.761809" lat="47.572873"><ele>238.5</ele></trkpt>
<trkpt lon="3.759738" lat="47.571471"><ele>232.0</ele></trkpt>
<trkpt lon="3.759483" lat="47.571226"><ele>230.0</ele></trkpt>
<trkpt lon="3.760013" lat="47.570928"><ele>224.25</ele></trkpt>
<trkpt lon="3.760233" lat="47.570641"><ele>221.0</ele></trkpt>
<trkpt lon="3.759614" lat="47.570120"><ele>217.75</ele></trkpt>
<trkpt lon="3.759383" lat="47.569699"><ele>214.75</ele></trkpt>
<trkpt lon="3.759348" lat="47.569636"><ele>214.5</ele></trkpt>
<trkpt lon="3.758826" lat="47.569098"><ele>213.75</ele></trkpt>
<trkpt lon="3.758201" lat="47.568564"><ele>213.25</ele></trkpt>
<trkpt lon="3.757871" lat="47.567899"><ele>210.25</ele></trkpt>
<trkpt lon="3.757656" lat="47.567476"><ele>208.75</ele></trkpt>
<trkpt lon="3.757509" lat="47.567268"><ele>207.25</ele></trkpt>
<trkpt lon="3.757259" lat="47.566991"><ele>206.0</ele></trkpt>
<trkpt lon="3.757071" lat="47.566826"><ele>205.0</ele></trkpt>
<trkpt lon="3.756860" lat="47.566692"><ele>204.0</ele></trkpt>
<trkpt lon="3.756508" lat="47.566553"><ele>203.0</ele></trkpt>
<trkpt lon="3.755969" lat="47.566412"><ele>200.75</ele></trkpt>
<trkpt lon="3.755433" lat="47.566351"><ele>199.25</ele></trkpt>
<trkpt lon="3.755280" lat="47.566283"><ele>198.25</ele></trkpt>
<trkpt lon="3.755140" lat="47.566124"><ele>197.0</ele></trkpt>
<trkpt lon="3.754816" lat="47.565165"><ele>202.0</ele></trkpt>
<trkpt lon="3.754357" lat="47.564341"><ele>205.5</ele></trkpt>
<trkpt lon="3.754008" lat="47.563715"><ele>208.0</ele></trkpt>
<trkpt lon="3.753542" lat="47.563017"><ele>209.75</ele></trkpt>
<trkpt lon="3.753357" lat="47.562780"><ele>209.75</ele></trkpt>
<trkpt lon="3.752139" lat="47.561617"><ele>207.5</ele></trkpt>
<trkpt lon="3.751889" lat="47.561389"><ele>206.75</ele></trkpt>
<trkpt lon="3.751621" lat="47.561077"><ele>206.75</ele></trkpt>
<trkpt lon="3.750597" lat="47.560472"><ele>207.5</ele></trkpt>
<trkpt lon="3.748966" lat="47.559525"><ele>201.75</ele></trkpt>
<trkpt lon="3.748234" lat="47.559138"><ele>199.0</ele></trkpt>
<trkpt lon="3.747377" lat="47.558778"><ele>199.75</ele></trkpt>
<trkpt lon="3.746289" lat="47.558284"><ele>200.25</ele></trkpt>
<trkpt lon="3.745652" lat="47.558086"><ele>201.5</ele></trkpt>
<trkpt lon="3.745365" lat="47.557898"><ele>201.5</ele></trkpt>
<trkpt lon="3.745264" lat="47.557784"><ele>200.75</ele></trkpt>
<trkpt lon="3.744993" lat="47.557585"><ele>201.25</ele></trkpt>
<trkpt lon="3.743899" lat="47.556941"><ele>208.75</ele></trkpt>
<trkpt lon="3.743314" lat="47.556546"><ele>211.5</ele></trkpt>
<trkpt lon="3.743122" lat="47.556417"><ele>212.5</ele></trkpt>
<trkpt lon="3.742697" lat="47.556111"><ele>214.25</ele></trkpt>
<trkpt lon="3.742411" lat="47.555846"><ele>214.25</ele></trkpt>
<trkpt lon="3.742218" lat="47.555653"><ele>215.0</ele></trkpt>
<trkpt lon="3.742124" lat="47.555523"><ele>214.75</ele></trkpt>
<trkpt lon="3.741937" lat="47.555177"><ele>214.0</ele></trkpt>
<trkpt lon="3.741512" lat="47.554409"><ele>212.25</ele></trkpt>
<trkpt lon="3.741483" lat="47.554286"><ele>212.0</ele></trkpt>
<trkpt lon="3.741474" lat="47.554155"><ele>211.5</ele></trkpt>
<trkpt lon="3.741504" lat="47.553795"><ele>213.25</ele></trkpt>
<trkpt lon="3.741529" lat="47.553556"><ele>214.0</ele></trkpt>
<trkpt lon="3.741499" lat="47.553126"><ele>214.5</ele></trkpt>
<trkpt lon="3.741251" lat="47.551860"><ele>214.0</ele></trkpt>
<trkpt lon="3.741294" lat="47.551621"><ele>214.0</ele></trkpt>
<trkpt lon="3.741438" lat="47.551201"><ele>216.25</ele></trkpt>
<trkpt lon="3.741516" lat="47.551083"><ele>217.0</ele></trkpt>
<trkpt lon="3.741656" lat="47.550964"><ele>218.0</ele></trkpt>
<trkpt lon="3.742273" lat="47.550547"><ele>220.25</ele></trkpt>
<trkpt lon="3.742672" lat="47.550230"><ele>222.0</ele></trkpt>
<trkpt lon="3.742914" lat="47.549995"><ele>223.0</ele></trkpt>
<trkpt lon="3.744121" lat="47.549113"><ele>220.5</ele></trkpt>
<trkpt lon="3.744746" lat="47.548687"><ele>218.0</ele></trkpt>
<trkpt lon="3.744955" lat="47.548716"><ele>217.75</ele></trkpt>
<trkpt lon="3.745223" lat="47.548734"><ele>217.5</ele></trkpt>
<trkpt lon="3.745325" lat="47.548734"><ele>217.25</ele></trkpt>
<trkpt lon="3.745524" lat="47.548617"><ele>217.0</ele></trkpt>
<trkpt lon="3.745776" lat="47.548284"><ele>214.75</ele></trkpt>
<trkpt lon="3.746157" lat="47.547852"><ele>212.25</ele></trkpt>
<trkpt lon="3.747455" lat="47.546444"><ele>208.5</ele></trkpt>
<trkpt lon="3.747820" lat="47.546017"><ele>210.0</ele></trkpt>
<trkpt lon="3.748217" lat="47.545437"><ele>211.75</ele></trkpt>
<trkpt lon="3.748689" lat="47.544680"><ele>212.25</ele></trkpt>
<trkpt lon="3.748914" lat="47.544257"><ele>213.0</ele></trkpt>
<trkpt lon="3.749134" lat="47.543504"><ele>215.0</ele></trkpt>
<trkpt lon="3.749300" lat="47.542638"><ele>218.0</ele></trkpt>
<trkpt lon="3.749413" lat="47.542236"><ele>220.0</ele></trkpt>
<trkpt lon="3.749506" lat="47.542120"><ele>220.5</ele></trkpt>
<trkpt lon="3.749631" lat="47.541913"><ele>221.5</ele></trkpt>
<trkpt lon="3.750231" lat="47.540422"><ele>228.5</ele></trkpt>
<trkpt lon="3.752024" lat="47.538179"><ele>241.0</ele></trkpt>
<trkpt lon="3.752549" lat="47.537100"><ele>246.0</ele></trkpt>
<trkpt lon="3.752732" lat="47.536388"><ele>247.25</ele></trkpt>
<trkpt lon="3.752670" lat="47.535656"><ele>248.75</ele></trkpt>
<trkpt lon="3.753495" lat="47.535553"><ele>242.75</ele></trkpt>
<trkpt lon="3.754622" lat="47.535470"><ele>238.0</ele></trkpt>
<trkpt lon="3.756263" lat="47.535372"><ele>232.25</ele></trkpt>
<trkpt lon="3.756414" lat="47.535278"><ele>231.75</ele></trkpt>
<trkpt lon="3.757486" lat="47.534554"><ele>226.25</ele></trkpt>
<trkpt lon="3.758503" lat="47.533855"><ele>224.75</ele></trkpt>
<trkpt lon="3.758663" lat="47.533764"><ele>226.5</ele></trkpt>
<trkpt lon="3.758770" lat="47.533671"><ele>227.75</ele></trkpt>
<trkpt lon="3.758652" lat="47.533379"><ele>230.75</ele></trkpt>
<trkpt lon="3.758123" lat="47.532562"><ele>238.5</ele></trkpt>
<trkpt lon="3.759486" lat="47.531252"><ele>254.0</ele></trkpt>
<trkpt lon="3.761112" lat="47.529691"><ele>254.75</ele></trkpt>
<trkpt lon="3.761273" lat="47.529375"><ele>254.0</ele></trkpt>
<trkpt lon="3.761055" lat="47.529248"><ele>254.25</ele></trkpt>
<trkpt lon="3.760554" lat="47.528843"><ele>255.0</ele></trkpt>
<trkpt lon="3.760420" lat="47.528735"><ele>255.5</ele></trkpt>
<trkpt lon="3.759354" lat="47.528181"><ele>256.75</ele></trkpt>
<trkpt lon="3.758703" lat="47.527989"><ele>255.75</ele></trkpt>
<trkpt lon="3.758204" lat="47.527712"><ele>255.0</ele></trkpt>
<trkpt lon="3.757691" lat="47.527373"><ele>254.75</ele></trkpt>
<trkpt lon="3.757324" lat="47.527120"><ele>255.25</ele></trkpt>
<trkpt lon="3.757085" lat="47.526910"><ele>256.75</ele></trkpt>
<trkpt lon="3.756701" lat="47.526489"><ele>258.0</ele></trkpt>
<trkpt lon="3.756385" lat="47.526247"><ele>258.0</ele></trkpt>
<trkpt lon="3.756023" lat="47.525995"><ele>258.5</ele></trkpt>
<trkpt lon="3.755819" lat="47.525867"><ele>259.5</ele></trkpt>
<trkpt lon="3.755538" lat="47.525719"><ele>259.75</ele></trkpt>
<trkpt lon="3.755417" lat="47.525639"><ele>260.25</ele></trkpt>
<trkpt lon="3.755316" lat="47.525542"><ele>261.0</ele></trkpt>
<trkpt lon="3.755237" lat="47.525447"><ele>261.75</ele></trkpt>
<trkpt lon="3.755192" lat="47.525380"><ele>262.0</ele></trkpt>
<trkpt lon="3.754921" lat="47.524624"><ele>263.5</ele></trkpt>
<trkpt lon="3.754841" lat="47.524493"><ele>262.75</ele></trkpt>
<trkpt lon="3.754797" lat="47.524460"><ele>262.5</ele></trkpt>
<trkpt lon="3.754824" lat="47.524349"><ele>262.25</ele></trkpt>
<trkpt lon="3.754797" lat="47.524142"><ele>261.25</ele></trkpt>
<trkpt lon="3.754774" lat="47.524086"><ele>261.0</ele></trkpt>
<trkpt lon="3.754722" lat="47.523957"><ele>260.0</ele></trkpt>
<trkpt lon="3.754717" lat="47.523733"><ele>258.75</ele></trkpt>
<trkpt lon="3.754604" lat="47.523447"><ele>254.75</ele></trkpt>
<trkpt lon="3.754604" lat="47.523345"><ele>253.25</ele></trkpt>
<trkpt lon="3.754658" lat="47.523247"><ele>251.0</ele></trkpt>
<trkpt lon="3.754786" lat="47.523052"><ele>247.5</ele></trkpt>
<trkpt lon="3.754797" lat="47.522950"><ele>245.75</ele></trkpt>
<trkpt lon="3.754760" lat="47.522805"><ele>242.25</ele></trkpt>
<trkpt lon="3.754695" lat="47.522697"><ele>240.5</ele></trkpt>
<trkpt lon="3.754507" lat="47.522519"><ele>236.5</ele></trkpt>
<trkpt lon="3.754405" lat="47.522371"><ele>234.0</ele></trkpt>
<trkpt lon="3.754073" lat="47.521824"><ele>222.75</ele></trkpt>
<trkpt lon="3.753987" lat="47.521490"><ele>215.5</ele></trkpt>
<trkpt lon="3.753950" lat="47.521302"><ele>211.75</ele></trkpt>
<trkpt lon="3.753998" lat="47.520904"><ele>203.75</ele></trkpt>
<trkpt lon="3.753944" lat="47.520730"><ele>199.5</ele></trkpt>
<trkpt lon="3.753917" lat="47.520578"><ele>196.25</ele></trkpt>
<trkpt lon="3.753971" lat="47.520389"><ele>193.75</ele></trkpt>
<trkpt lon="3.754014" lat="47.520175"><ele>191.5</ele></trkpt>
<trkpt lon="3.754025" lat="47.519770"><ele>189.0</ele></trkpt>
<trkpt lon="3.753971" lat="47.519393"><ele>187.75</ele></trkpt>
<trkpt lon="3.753907" lat="47.519219"><ele>187.0</ele></trkpt>
<trkpt lon="3.753805" lat="47.519085"><ele>186.75</ele></trkpt>
<trkpt lon="3.753563" lat="47.518853"><ele>185.0</ele></trkpt>
<trkpt lon="3.752968" lat="47.518335"><ele>181.5</ele></trkpt>
<trkpt lon="3.752399" lat="47.517502"><ele>178.5</ele></trkpt>
<trkpt lon="3.752190" lat="47.517241"><ele>177.0</ele></trkpt>
<trkpt lon="3.750640" lat="47.515509"><ele>172.25</ele></trkpt>
<trkpt lon="3.750345" lat="47.515154"><ele>170.75</ele></trkpt>
<trkpt lon="3.750189" lat="47.514908"><ele>170.75</ele></trkpt>
<trkpt lon="3.750034" lat="47.514552"><ele>169.25</ele></trkpt>
<trkpt lon="3.750007" lat="47.514415"><ele>169.0</ele></trkpt>
<trkpt lon="3.749996" lat="47.514280"><ele>168.75</ele></trkpt>
<trkpt lon="3.750033" lat="47.514136"><ele>169.0</ele></trkpt>
<trkpt lon="3.750125" lat="47.514002"><ele>168.75</ele></trkpt>
<trkpt lon="3.750640" lat="47.513607"><ele>167.0</ele></trkpt>
<trkpt lon="3.750796" lat="47.513436"><ele>167.5</ele></trkpt>
<trkpt lon="3.750940" lat="47.513150"><ele>166.25</ele></trkpt>
<trkpt lon="3.751139" lat="47.512669"><ele>165.5</ele></trkpt>
<trkpt lon="3.751251" lat="47.512248"><ele>165.0</ele></trkpt>
<trkpt lon="3.751316" lat="47.512045"><ele>164.25</ele></trkpt>
<trkpt lon="3.751488" lat="47.511712"><ele>163.75</ele></trkpt>
<trkpt lon="3.751798" lat="47.511172"><ele>162.75</ele></trkpt>
<trkpt lon="3.751954" lat="47.510719"><ele>161.25</ele></trkpt>
<trkpt lon="3.752147" lat="47.510219"><ele>160.0</ele></trkpt>
<trkpt lon="3.752158" lat="47.510128"><ele>159.0</ele></trkpt>
<trkpt lon="3.752131" lat="47.510085"><ele>158.25</ele></trkpt>
<trkpt lon="3.752030" lat="47.509856"><ele>155.25</ele></trkpt>
<trkpt lon="3.752178" lat="47.509790"><ele>155.5</ele></trkpt>
<trkpt lon="3.752521" lat="47.509549"><ele>154.0</ele></trkpt>
<trkpt lon="3.752700" lat="47.509462"><ele>153.25</ele></trkpt>
<trkpt lon="3.752836" lat="47.509423"><ele>152.75</ele></trkpt>
<trkpt lon="3.752989" lat="47.509411"><ele>152.75</ele></trkpt>
<trkpt lon="3.753455" lat="47.509449"><ele>153.5</ele></trkpt>
<trkpt lon="3.753541" lat="47.509450"><ele>153.75</ele></trkpt>
<trkpt lon="3.753604" lat="47.509209"><ele>152.25</ele></trkpt>
<trkpt lon="3.753065" lat="47.508775"><ele>151.75</ele></trkpt>
<trkpt lon="3.752709" lat="47.508293"><ele>153.75</ele></trkpt>
<trkpt lon="3.753102" lat="47.508017"><ele>153.25</ele></trkpt>
<trkpt lon="3.753021" lat="47.507760"><ele>157.5</ele></trkpt>
<trkpt lon="3.753120" lat="47.507463"><ele>161.75</ele></trkpt>
<trkpt lon="3.752972" lat="47.506763"><ele>167.75</ele></trkpt>
<trkpt lon="3.752372" lat="47.505870"><ele>166.0</ele></trkpt>
<trkpt lon="3.752215" lat="47.505229"><ele>166.0</ele></trkpt>
<trkpt lon="3.752206" lat="47.504523"><ele>169.25</ele></trkpt>
<trkpt lon="3.751910" lat="47.503929"><ele>176.0</ele></trkpt>
<trkpt lon="3.751136" lat="47.502577"><ele>195.25</ele></trkpt>
<trkpt lon="3.751057" lat="47.502418"><ele>198.5</ele></trkpt>
<trkpt lon="3.751571" lat="47.501924"><ele>205.75</ele></trkpt>
<trkpt lon="3.751849" lat="47.501436"><ele>207.75</ele></trkpt>
<trkpt lon="3.752450" lat="47.500196"><ele>208.5</ele></trkpt>
<trkpt lon="3.752511" lat="47.499337"><ele>209.0</ele></trkpt>
<trkpt lon="3.752485" lat="47.498520"><ele>211.5</ele></trkpt>
<trkpt lon="3.752276" lat="47.497655"><ele>216.25</ele></trkpt>
<trkpt lon="3.752328" lat="47.496332"><ele>217.25</ele></trkpt>
<trkpt lon="3.752224" lat="47.495944"><ele>216.25</ele></trkpt>
<trkpt lon="3.752076" lat="47.495203"><ele>214.25</ele></trkpt>
<trkpt lon="3.751470" lat="47.494133"><ele>209.5</ele></trkpt>
<trkpt lon="3.751273" lat="47.493353"><ele>199.75</ele></trkpt>
<trkpt lon="3.751282" lat="47.492960"><ele>194.75</ele></trkpt>
<trkpt lon="3.750875" lat="47.491763"><ele>181.75</ele></trkpt>
<trkpt lon="3.750761" lat="47.491163"><ele>177.5</ele></trkpt>
<trkpt lon="3.750492" lat="47.490028"><ele>171.5</ele></trkpt>
<trkpt lon="3.749876" lat="47.488279"><ele>165.25</ele></trkpt>
<trkpt lon="3.749734" lat="47.487707"><ele>162.75</ele></trkpt>
<trkpt lon="3.749682" lat="47.487185"><ele>159.25</ele></trkpt>
<trkpt lon="3.749656" lat="47.487039"><ele>157.5</ele></trkpt>
<trkpt lon="3.748990" lat="47.487303"><ele>157.0</ele></trkpt>
<trkpt lon="3.748756" lat="47.487258"><ele>156.25</ele></trkpt>
<trkpt lon="3.748706" lat="47.487152"><ele>155.5</ele></trkpt>
<trkpt lon="3.749126" lat="47.486130"><ele>154.0</ele></trkpt>
<trkpt lon="3.749222" lat="47.485981"><ele>155.75</ele></trkpt>
<trkpt lon="3.749759" lat="47.485659"><ele>156.25</ele></trkpt>
<trkpt lon="3.749857" lat="47.485606"><ele>156.25</ele></trkpt>
<trkpt lon="3.750023" lat="47.485440"><ele>156.5</ele></trkpt>
<trkpt lon="3.750138" lat="47.485209"><ele>157.75</ele></trkpt>
<trkpt lon="3.750214" lat="47.484949"><ele>158.5</ele></trkpt>
<trkpt lon="3.750227" lat="47.484736"><ele>159.25</ele></trkpt>
<trkpt lon="3.750289" lat="47.484503"><ele>158.75</ele></trkpt>
<trkpt lon="3.750447" lat="47.484200"><ele>159.5</ele></trkpt>
<trkpt lon="3.750589" lat="47.483992"><ele>160.75</ele></trkpt>
<trkpt lon="3.750680" lat="47.483772"><ele>163.0</ele></trkpt>
<trkpt lon="3.750759" lat="47.483477"><ele>165.25</ele></trkpt>
<trkpt lon="3.750833" lat="47.483238"><ele>166.25</ele></trkpt>
<trkpt lon="3.750806" lat="47.483066"><ele>167.0</ele></trkpt>
<trkpt lon="3.750691" lat="47.482377"><ele>163.0</ele></trkpt>
<trkpt lon="3.750701" lat="47.482018"><ele>160.25</ele></trkpt>
<trkpt lon="3.750594" lat="47.481481"><ele>159.75</ele></trkpt>
<trkpt lon="3.750608" lat="47.480895"><ele>161.25</ele></trkpt>
<trkpt lon="3.750629" lat="47.480620"><ele>162.5</ele></trkpt>
<trkpt lon="3.750565" lat="47.480290"><ele>163.75</ele></trkpt>
<trkpt lon="3.750277" lat="47.479879"><ele>165.0</ele></trkpt>
<trkpt lon="3.750226" lat="47.479861"><ele>165.0</ele></trkpt>
<trkpt lon="3.750333" lat="47.479614"><ele>164.25</ele></trkpt>
<trkpt lon="3.750530" lat="47.479394"><ele>162.75</ele></trkpt>
<trkpt lon="3.750561" lat="47.479359"><ele>162.25</ele></trkpt>
<trkpt lon="3.750550" lat="47.479246"><ele>161.5</ele></trkpt>
<trkpt lon="3.750581" lat="47.479049"><ele>159.75</ele></trkpt>
<trkpt lon="3.750530" lat="47.478786"><ele>157.75</ele></trkpt>
<trkpt lon="3.750410" lat="47.478530"><ele>155.75</ele></trkpt>
<trkpt lon="3.750373" lat="47.478135"><ele>154.0</ele></trkpt>
<trkpt lon="3.750379" lat="47.478063"><ele>154.0</ele></trkpt>
<trkpt lon="3.750420" lat="47.478000"><ele>154.0</ele></trkpt>
<trkpt lon="3.750985" lat="47.477640"><ele>158.0</ele></trkpt>
<trkpt lon="3.751181" lat="47.477462"><ele>160.0</ele></trkpt>
<trkpt lon="3.751407" lat="47.477155"><ele>162.0</ele></trkpt>
<trkpt lon="3.751348" lat="47.477111"><ele>162.75</ele></trkpt>
<trkpt lon="3.751155" lat="47.476634"><ele>168.0</ele></trkpt>
<trkpt lon="3.750777" lat="47.475886"><ele>171.75</ele></trkpt>
<trkpt lon="3.750565" lat="47.475496"><ele>174.0</ele></trkpt>
<trkpt lon="3.750347" lat="47.475122"><ele>175.5</ele></trkpt>
<trkpt lon="3.750277" lat="47.474960"><ele>176.25</ele></trkpt>
<trkpt lon="3.750081" lat="47.474379"><ele>178.75</ele></trkpt>
<trkpt lon="3.749882" lat="47.473887"><ele>180.5</ele></trkpt>
<trkpt lon="3.749847" lat="47.473794"><ele>180.75</ele></trkpt>
<trkpt lon="3.749806" lat="47.473528"><ele>182.25</ele></trkpt>
<trkpt lon="3.749820" lat="47.473245"><ele>183.25</ele></trkpt>
<trkpt lon="3.749922" lat="47.472444"><ele>187.25</ele></trkpt>
<trkpt lon="3.750002" lat="47.472187"><ele>190.5</ele></trkpt>
<trkpt lon="3.750106" lat="47.471276"><ele>201.75</ele></trkpt>
<trkpt lon="3.750248" lat="47.471096"><ele>204.0</ele></trkpt>
<trkpt lon="3.750394" lat="47.470947"><ele>206.5</ele></trkpt>
<trkpt lon="3.750450" lat="47.470861"><ele>207.5</ele></trkpt>
<trkpt lon="3.750484" lat="47.470743"><ele>208.75</ele></trkpt>
<trkpt lon="3.750524" lat="47.470514"><ele>211.0</ele></trkpt>
<trkpt lon="3.750522" lat="47.470273"><ele>213.75</ele></trkpt>
<trkpt lon="3.750614" lat="47.469617"><ele>223.0</ele></trkpt>
<trkpt lon="3.750605" lat="47.469576"><ele>223.75</ele></trkpt>
<trkpt lon="3.750589" lat="47.469277"><ele>229.75</ele></trkpt>
<trkpt lon="3.750533" lat="47.469169"><ele>231.75</ele></trkpt>
<trkpt lon="3.750365" lat="47.469012"><ele>237.75</ele></trkpt>
<trkpt lon="3.750131" lat="47.468903"><ele>241.75</ele></trkpt>
<trkpt lon="3.749850" lat="47.468797"><ele>246.0</ele></trkpt>
<trkpt lon="3.749504" lat="47.468636"><ele>252.0</ele></trkpt>
<trkpt lon="3.749165" lat="47.468469"><ele>256.0</ele></trkpt>
<trkpt lon="3.748978" lat="47.468357"><ele>259.5</ele></trkpt>
<trkpt lon="3.748787" lat="47.468209"><ele>264.75</ele></trkpt>
<trkpt lon="3.748666" lat="47.468083"><ele>268.0</ele></trkpt>
<trkpt lon="3.748358" lat="47.467758"><ele>274.25</ele></trkpt>
<trkpt lon="3.747577" lat="47.467175"><ele>287.5</ele></trkpt>
<trkpt lon="3.747546" lat="47.467134"><ele>288.5</ele></trkpt>
<trkpt lon="3.747537" lat="47.467046"><ele>290.25</ele></trkpt>
<trkpt lon="3.747507" lat="47.466904"><ele>292.75</ele></trkpt>
<trkpt lon="3.747628" lat="47.466727"><ele>296.75</ele></trkpt>
<trkpt lon="3.747385" lat="47.466643"><ele>297.25</ele></trkpt>
<trkpt lon="3.747356" lat="47.466593"><ele>297.25</ele></trkpt>
<trkpt lon="3.747380" lat="47.466565"><ele>297.5</ele></trkpt>
<trkpt lon="3.747559" lat="47.466360"><ele>299.0</ele></trkpt>
<trkpt lon="3.747613" lat="47.466291"><ele>299.25</ele></trkpt>
<trkpt lon="3.747724" lat="47.466215"><ele>299.75</ele></trkpt>
<trkpt lon="3.747763" lat="47.466222"><ele>299.75</ele></trkpt>
<trkpt lon="3.748156" lat="47.466259"><ele>300.0</ele></trkpt>
<trkpt lon="3.748436" lat="47.466289"><ele>300.0</ele></trkpt>
<trkpt lon="3.748824" lat="47.466330"><ele>300.75</ele></trkpt>
<trkpt lon="3.748858" lat="47.466333"><ele>300.75</ele></trkpt>
<trkpt lon="3.748910" lat="47.466337"><ele>300.0</ele></trkpt>
  </trkseg></trk></gpx>
