<?xml version="1.0" encoding="UTF-8"?>
<gpx version="1.1" creator="compostel-brouter" xmlns="http://www.topografix.com/GPX/1/1">
  <metadata><name>FR-14-Arcy</name></metadata>
  <trk><name>FR-14-Arcy</name><trkseg>
<trkpt lon="3.572998" lat="47.798201"><ele>117.0</ele></trkpt>
<trkpt lon="3.572893" lat="47.798176"><ele>117.25</ele></trkpt>
<trkpt lon="3.572609" lat="47.798130"><ele>117.5</ele></trkpt>
<trkpt lon="3.572505" lat="47.798084"><ele>117.75</ele></trkpt>
<trkpt lon="3.572302" lat="47.798066"><ele>118.5</ele></trkpt>
<trkpt lon="3.572163" lat="47.797945"><ele>119.25</ele></trkpt>
<trkpt lon="3.572026" lat="47.797781"><ele>119.75</ele></trkpt>
<trkpt lon="3.572013" lat="47.797701"><ele>120.0</ele></trkpt>
<trkpt lon="3.572136" lat="47.797623"><ele>120.0</ele></trkpt>
<trkpt lon="3.572227" lat="47.797566"><ele>120.0</ele></trkpt>
<trkpt lon="3.572438" lat="47.797275"><ele>119.5</ele></trkpt>
<trkpt lon="3.572542" lat="47.797164"><ele>119.0</ele></trkpt>
<trkpt lon="3.572455" lat="47.797080"><ele>119.5</ele></trkpt>
<trkpt lon="3.572307" lat="47.796973"><ele>120.5</ele></trkpt>
<trkpt lon="3.572222" lat="47.796910"><ele>121.0</ele></trkpt>
<trkpt lon="3.571842" lat="47.796708"><ele>122.75</ele></trkpt>
<trkpt lon="3.571825" lat="47.796694"><ele>122.75</ele></trkpt>
<trkpt lon="3.571877" lat="47.796576"><ele>122.5</ele></trkpt>
<trkpt lon="3.572061" lat="47.796339"><ele>120.0</ele></trkpt>
<trkpt lon="3.572112" lat="47.796271"><ele>119.5</ele></trkpt>
<trkpt lon="3.572263" lat="47.796086"><ele>117.25</ele></trkpt>
<trkpt lon="3.572432" lat="47.795986"><ele>115.25</ele></trkpt>
<trkpt lon="3.572493" lat="47.795952"><ele>114.75</ele></trkpt>
<trkpt lon="3.572632" lat="47.795879"><ele>113.5</ele></trkpt>
<trkpt lon="3.572917" lat="47.795649"><ele>111.75</ele></trkpt>
<trkpt lon="3.573114" lat="47.795491"><ele>110.5</ele></trkpt>
<trkpt lon="3.573135" lat="47.795474"><ele>110.25</ele></trkpt>
<trkpt lon="3.573173" lat="47.795446"><ele>110.0</ele></trkpt>
<trkpt lon="3.573432" lat="47.795239"><ele>109.0</ele></trkpt>
<trkpt lon="3.573454" lat="47.795220"><ele>109.0</ele></trkpt>
<trkpt lon="3.573618" lat="47.795077"><ele>108.25</ele></trkpt>
<trkpt lon="3.573669" lat="47.795007"><ele>108.0</ele></trkpt>
<trkpt lon="3.573885" lat="47.794712"><ele>107.0</ele></trkpt>
<trkpt lon="3.573889" lat="47.794687"><ele>106.75</ele></trkpt>
<trkpt lon="3.573895" lat="47.794644"><ele>106.75</ele></trkpt>
<trkpt lon="3.573891" lat="47.794612"><ele>106.75</ele></trkpt>
<trkpt lon="3.574192" lat="47.794522"><ele>106.0</ele></trkpt>
<trkpt lon="3.574369" lat="47.794495"><ele>105.25</ele></trkpt>
<trkpt lon="3.574401" lat="47.794491"><ele>105.25</ele></trkpt>
<trkpt lon="3.574397" lat="47.794443"><ele>105.0</ele></trkpt>
<trkpt lon="3.574385" lat="47.794276"><ele>105.5</ele></trkpt>
<trkpt lon="3.574373" lat="47.794089"><ele>106.0</ele></trkpt>
<trkpt lon="3.574326" lat="47.793699"><ele>106.75</ele></trkpt>
<trkpt lon="3.574328" lat="47.793650"><ele>106.75</ele></trkpt>
<trkpt lon="3.574338" lat="47.793274"><ele>106.5</ele></trkpt>
<trkpt lon="3.574331" lat="47.793017"><ele>106.75</ele></trkpt>
<trkpt lon="3.574330" lat="47.793005"><ele>106.75</ele></trkpt>
<trkpt lon="3.574353" lat="47.792777"><ele>106.25</ele></trkpt>
<trkpt lon="3.574382" lat="47.792697"><ele>106.0</ele></trkpt>
<trkpt lon="3.574409" lat="47.792616"><ele>106.0</ele></trkpt>
<trkpt lon="3.574458" lat="47.792560"><ele>105.75</ele></trkpt>
<trkpt lon="3.574640" lat="47.792139"><ele>105.0</ele></trkpt>
<trkpt lon="3.574091" lat="47.792019"><ele>105.25</ele></trkpt>
<trkpt lon="3.574283" lat="47.791595"><ele>103.75</ele></trkpt>
<trkpt lon="3.574283" lat="47.791548"><ele>104.0</ele></trkpt>
<trkpt lon="3.574240" lat="47.791498"><ele>104.5</ele></trkpt>
<trkpt lon="3.574074" lat="47.791381"><ele>105.0</ele></trkpt>
<trkpt lon="3.573980" lat="47.791316"><ele>105.0</ele></trkpt>
<trkpt lon="3.573801" lat="47.791245"><ele>105.0</ele></trkpt>
<trkpt lon="3.573427" lat="47.791098"><ele>105.0</ele></trkpt>
<trkpt lon="3.573035" lat="47.790944"><ele>106.75</ele></trkpt>
<trkpt lon="3.573070" lat="47.790878"><ele>106.75</ele></trkpt>
<trkpt lon="3.573110" lat="47.790806"><ele>106.5</ele></trkpt>
<trkpt lon="3.573053" lat="47.790791"><ele>106.75</ele></trkpt>
<trkpt lon="3.573014" lat="47.790780"><ele>106.5</ele></trkpt>
<trkpt lon="3.572457" lat="47.790633"><ele>106.25</ele></trkpt>
<trkpt lon="3.572454" lat="47.790268"><ele>106.0</ele></trkpt>
<trkpt lon="3.572436" lat="47.789959"><ele>106.0</ele></trkpt>
<trkpt lon="3.572405" lat="47.789793"><ele>105.75</ele></trkpt>
<trkpt lon="3.572357" lat="47.789715"><ele>106.0</ele></trkpt>
<trkpt lon="3.572284" lat="47.789662"><ele>106.0</ele></trkpt>
<trkpt lon="3.572184" lat="47.789617"><ele>106.0</ele></trkpt>
<trkpt lon="3.572061" lat="47.789536"><ele>106.25</ele></trkpt>
<trkpt lon="3.571913" lat="47.789398"><ele>106.75</ele></trkpt>
<trkpt lon="3.571888" lat="47.789348"><ele>106.75</ele></trkpt>
<trkpt lon="3.571885" lat="47.789293"><ele>106.75</ele></trkpt>
<trkpt lon="3.571925" lat="47.789210"><ele>106.75</ele></trkpt>
<trkpt lon="3.572057" lat="47.789072"><ele>106.5</ele></trkpt>
<trkpt lon="3.572093" lat="47.789016"><ele>106.25</ele></trkpt>
<trkpt lon="3.572106" lat="47.788952"><ele>106.25</ele></trkpt>
<trkpt lon="3.572102" lat="47.788882"><ele>106.25</ele></trkpt>
<trkpt lon="3.572077" lat="47.788822"><ele>106.5</ele></trkpt>
<trkpt lon="3.571988" lat="47.788678"><ele>106.75</ele></trkpt>
<trkpt lon="3.571948" lat="47.788598"><ele>106.75</ele></trkpt>
<trkpt lon="3.571954" lat="47.788452"><ele>106.25</ele></trkpt>
<trkpt lon="3.571912" lat="47.788306"><ele>106.0</ele></trkpt>
<trkpt lon="3.571831" lat="47.788152"><ele>106.0</ele></trkpt>
<trkpt lon="3.571768" lat="47.788060"><ele>106.0</ele></trkpt>
<trkpt lon="3.571636" lat="47.787713"><ele>107.0</ele></trkpt>
<trkpt lon="3.571594" lat="47.787614"><ele>107.0</ele></trkpt>
<trkpt lon="3.571487" lat="47.787431"><ele>107.0</ele></trkpt>
<trkpt lon="3.571451" lat="47.787346"><ele>107.0</ele></trkpt>
<trkpt lon="3.571389" lat="47.787050"><ele>107.5</ele></trkpt>
<trkpt lon="3.571314" lat="47.786924"><ele>108.0</ele></trkpt>
<trkpt lon="3.571248" lat="47.786847"><ele>108.0</ele></trkpt>
<trkpt lon="3.571265" lat="47.786778"><ele>108.0</ele></trkpt>
<trkpt lon="3.571307" lat="47.786730"><ele>108.0</ele></trkpt>
<trkpt lon="3.571184" lat="47.786626"><ele>108.0</ele></trkpt>
<trkpt lon="3.571063" lat="47.786554"><ele>108.0</ele></trkpt>
<trkpt lon="3.570802" lat="47.785827"><ele>109.0</ele></trkpt>
<trkpt lon="3.570787" lat="47.785781"><ele>109.0</ele></trkpt>
<trkpt lon="3.570775" lat="47.785741"><ele>109.0</ele></trkpt>
<trkpt lon="3.570767" lat="47.785683"><ele>109.25</ele></trkpt>
<trkpt lon="3.570769" lat="47.785538"><ele>109.5</ele></trkpt>
<trkpt lon="3.570814" lat="47.785007"><ele>111.75</ele></trkpt>
<trkpt lon="3.570798" lat="47.784874"><ele>113.75</ele></trkpt>
<trkpt lon="3.570742" lat="47.784665"><ele>116.5</ele></trkpt>
<trkpt lon="3.570711" lat="47.784606"><ele>117.0</ele></trkpt>
<trkpt lon="3.570775" lat="47.784577"><ele>117.0</ele></trkpt>
<trkpt lon="3.570962" lat="47.784488"><ele>117.0</ele></trkpt>
<trkpt lon="3.571054" lat="47.784432"><ele>116.5</ele></trkpt>
<trkpt lon="3.571121" lat="47.784374"><ele>116.75</ele></trkpt>
<trkpt lon="3.571168" lat="47.784299"><ele>117.75</ele></trkpt>
<trkpt lon="3.571302" lat="47.784021"><ele>120.0</ele></trkpt>
<trkpt lon="3.571377" lat="47.783874"><ele>120.25</ele></trkpt>
<trkpt lon="3.571748" lat="47.783190"><ele>126.25</ele></trkpt>
<trkpt lon="3.571792" lat="47.783086"><ele>127.25</ele></trkpt>
<trkpt lon="3.571949" lat="47.782716"><ele>127.75</ele></trkpt>
<trkpt lon="3.572093" lat="47.782238"><ele>132.75</ele></trkpt>
<trkpt lon="3.572144" lat="47.782123"><ele>132.75</ele></trkpt>
<trkpt lon="3.572275" lat="47.781828"><ele>134.75</ele></trkpt>
<trkpt lon="3.572688" lat="47.781277"><ele>138.75</ele></trkpt>
<trkpt lon="3.573203" lat="47.780622"><ele>143.0</ele></trkpt>
<trkpt lon="3.573589" lat="47.780091"><ele>145.0</ele></trkpt>
<trkpt lon="3.573814" lat="47.779540"><ele>148.5</ele></trkpt>
<trkpt lon="3.574061" lat="47.779087"><ele>151.5</ele></trkpt>
<trkpt lon="3.574417" lat="47.778596"><ele>154.0</ele></trkpt>
<trkpt lon="3.574486" lat="47.778539"><ele>154.75</ele></trkpt>
<trkpt lon="3.574540" lat="47.778524"><ele>155.25</ele></trkpt>
<trkpt lon="3.574595" lat="47.778766"><ele>154.25</ele></trkpt>
<trkpt lon="3.574637" lat="47.778764"><ele>154.5</ele></trkpt>
<trkpt lon="3.574829" lat="47.778757"><ele>155.25</ele></trkpt>
<trkpt lon="3.576458" lat="47.778697"><ele>157.75</ele></trkpt>
<trkpt lon="3.576540" lat="47.778514"><ele>158.5</ele></trkpt>
<trkpt lon="3.576725" lat="47.778161"><ele>160.25</ele></trkpt>
<trkpt lon="3.577056" lat="47.777492"><ele>164.25</ele></trkpt>
<trkpt lon="3.578135" lat="47.775614"><ele>174.75</ele></trkpt>
<trkpt lon="3.578517" lat="47.775067"><ele>176.75</ele></trkpt>
<trkpt lon="3.579172" lat="47.774186"><ele>178.0</ele></trkpt>
<trkpt lon="3.579741" lat="47.773281"><ele>179.25</ele></trkpt>
<trkpt lon="3.580091" lat="47.772609"><ele>181.25</ele></trkpt>
<trkpt lon="3.580315" lat="47.771769"><ele>182.75</ele></trkpt>
<trkpt lon="3.580651" lat="47.770928"><ele>184.25</ele></trkpt>
<trkpt lon="3.580710" lat="47.770775"><ele>184.25</ele></trkpt>
<trkpt lon="3.580738" lat="47.770703"><ele>184.25</ele></trkpt>
<trkpt lon="3.581110" lat="47.769972"><ele>184.0</ele></trkpt>
<trkpt lon="3.581594" lat="47.769256"><ele>180.0</ele></trkpt>
<trkpt lon="3.581970" lat="47.768717"><ele>178.25</ele></trkpt>
<trkpt lon="3.582307" lat="47.768248"><ele>174.75</ele></trkpt>
<trkpt lon="3.582498" lat="47.767925"><ele>174.25</ele></trkpt>
<trkpt lon="3.582632" lat="47.767644"><ele>175.25</ele></trkpt>
<trkpt lon="3.583159" lat="47.766663"><ele>185.0</ele></trkpt>
<trkpt lon="3.583195" lat="47.766611"><ele>185.5</ele></trkpt>
<trkpt lon="3.583935" lat="47.765535"><ele>191.0</ele></trkpt>
<trkpt lon="3.584989" lat="47.763195"><ele>196.5</ele></trkpt>
<trkpt lon="3.585149" lat="47.762828"><ele>195.5</ele></trkpt>
<trkpt lon="3.585467" lat="47.761989"><ele>190.25</ele></trkpt>
<trkpt lon="3.585981" lat="47.760995"><ele>190.75</ele></trkpt>
<trkpt lon="3.586492" lat="47.760378"><ele>189.25</ele></trkpt>
<trkpt lon="3.587282" lat="47.759424"><ele>183.75</ele></trkpt>
<trkpt lon="3.587510" lat="47.759017"><ele>178.25</ele></trkpt>
<trkpt lon="3.587586" lat="47.758531"><ele>166.75</ele></trkpt>
<trkpt lon="3.587485" lat="47.758036"><ele>152.25</ele></trkpt>
<trkpt lon="3.587883" lat="47.756844"><ele>122.25</ele></trkpt>
<trkpt lon="3.588218" lat="47.756524"><ele>114.25</ele></trkpt>
<trkpt lon="3.588322" lat="47.756318"><ele>111.0</ele></trkpt>
<trkpt lon="3.588326" lat="47.756137"><ele>109.25</ele></trkpt>
<trkpt lon="3.588364" lat="47.756128"><ele>109.0</ele></trkpt>
<trkpt lon="3.588734" lat="47.756046"><ele>108.0</ele></trkpt>
<trkpt lon="3.589096" lat="47.755960"><ele>107.25</ele></trkpt>
<trkpt lon="3.589147" lat="47.755947"><ele>107.0</ele></trkpt>
<trkpt lon="3.588964" lat="47.755758"><ele>108.0</ele></trkpt>
<trkpt lon="3.588692" lat="47.755539"><ele>111.25</ele></trkpt>
<trkpt lon="3.588669" lat="47.755408"><ele>114.25</ele></trkpt>
<trkpt lon="3.588601" lat="47.755175"><ele>119.5</ele></trkpt>
<trkpt lon="3.588285" lat="47.754733"><ele>128.0</ele></trkpt>
<trkpt lon="3.588128" lat="47.754466"><ele>133.0</ele></trkpt>
<trkpt lon="3.587958" lat="47.754124"><ele>134.75</ele></trkpt>
<trkpt lon="3.587783" lat="47.753980"><ele>140.0</ele></trkpt>
<trkpt lon="3.587439" lat="47.753168"><ele>146.75</ele></trkpt>
<trkpt lon="3.587406" lat="47.753089"><ele>147.25</ele></trkpt>
<trkpt lon="3.587139" lat="47.752298"><ele>148.25</ele></trkpt>
<trkpt lon="3.586977" lat="47.751816"><ele>148.0</ele></trkpt>
<trkpt lon="3.586886" lat="47.751717"><ele>149.5</ele></trkpt>
<trkpt lon="3.586755" lat="47.751293"><ele>149.25</ele></trkpt>
<trkpt lon="3.586717" lat="47.751026"><ele>149.0</ele></trkpt>
<trkpt lon="3.586558" lat="47.750525"><ele>147.5</ele></trkpt>
<trkpt lon="3.586574" lat="47.750437"><ele>147.0</ele></trkpt>
<trkpt lon="3.586327" lat="47.749844"><ele>149.0</ele></trkpt>
<trkpt lon="3.586297" lat="47.749587"><ele>146.5</ele></trkpt>
<trkpt lon="3.586190" lat="47.749174"><ele>146.5</ele></trkpt>
<trkpt lon="3.586053" lat="47.748838"><ele>147.75</ele></trkpt>
<trkpt lon="3.586053" lat="47.748742"><ele>146.25</ele></trkpt>
<trkpt lon="3.586000" lat="47.748544"><ele>145.25</ele></trkpt>
<trkpt lon="3.585932" lat="47.748428"><ele>146.0</ele></trkpt>
<trkpt lon="3.585829" lat="47.747450"><ele>138.75</ele></trkpt>
<trkpt lon="3.585641" lat="47.747102"><ele>136.5</ele></trkpt>
<trkpt lon="3.585467" lat="47.746927"><ele>135.75</ele></trkpt>
<trkpt lon="3.585322" lat="47.746819"><ele>135.75</ele></trkpt>
<trkpt lon="3.585259" lat="47.746707"><ele>133.0</ele></trkpt>
<trkpt lon="3.585175" lat="47.746663"><ele>133.75</ele></trkpt>
<trkpt lon="3.585108" lat="47.746604"><ele>133.5</ele></trkpt>
<trkpt lon="3.585124" lat="47.746508"><ele>129.75</ele></trkpt>
<trkpt lon="3.585100" lat="47.746435"><ele>127.75</ele></trkpt>
<trkpt lon="3.584710" lat="47.745609"><ele>137.0</ele></trkpt>
<trkpt lon="3.585038" lat="47.744988"><ele>148.5</ele></trkpt>
<trkpt lon="3.585041" lat="47.744919"><ele>149.0</ele></trkpt>
<trkpt lon="3.584958" lat="47.744831"><ele>151.25</ele></trkpt>
<trkpt lon="3.584821" lat="47.744762"><ele>154.0</ele></trkpt>
<trkpt lon="3.584826" lat="47.744659"><ele>154.75</ele></trkpt>
<trkpt lon="3.585027" lat="47.744337"><ele>154.0</ele></trkpt>
<trkpt lon="3.585255" lat="47.744066"><ele>152.25</ele></trkpt>
<trkpt lon="3.585399" lat="47.743741"><ele>150.0</ele></trkpt>
<trkpt lon="3.585311" lat="47.743605"><ele>151.25</ele></trkpt>
<trkpt lon="3.585208" lat="47.743444"><ele>151.5</ele></trkpt>
<trkpt lon="3.585194" lat="47.743330"><ele>150.75</ele></trkpt>
<trkpt lon="3.585277" lat="47.743091"><ele>146.25</ele></trkpt>
<trkpt lon="3.585231" lat="47.742937"><ele>145.5</ele></trkpt>
<trkpt lon="3.585336" lat="47.742903"><ele>144.0</ele></trkpt>
<trkpt lon="3.585413" lat="47.742682"><ele>141.25</ele></trkpt>
<trkpt lon="3.585440" lat="47.742568"><ele>140.25</ele></trkpt>
<trkpt lon="3.585513" lat="47.742329"><ele>136.5</ele></trkpt>
<trkpt lon="3.586009" lat="47.741575"><ele>119.0</ele></trkpt>
<trkpt lon="3.587599" lat="47.741497"><ele>113.5</ele></trkpt>
<trkpt lon="3.588139" lat="47.741728"><ele>107.0</ele></trkpt>
<trkpt lon="3.588305" lat="47.741952"><ele>103.25</ele></trkpt>
<trkpt lon="3.588677" lat="47.741554"><ele>104.5</ele></trkpt>
<trkpt lon="3.589570" lat="47.740560"><ele>105.75</ele></trkpt>
<trkpt lon="3.590770" lat="47.739110"><ele>105.0</ele></trkpt>
<trkpt lon="3.591050" lat="47.738851"><ele>104.75</ele></trkpt>
<trkpt lon="3.591780" lat="47.738381"><ele>103.75</ele></trkpt>
<trkpt lon="3.592142" lat="47.738193"><ele>103.75</ele></trkpt>
<trkpt lon="3.592514" lat="47.738041"><ele>103.0</ele></trkpt>
<trkpt lon="3.593752" lat="47.737579"><ele>103.0</ele></trkpt>
<trkpt lon="3.595000" lat="47.737102"><ele>103.0</ele></trkpt>
<trkpt lon="3.595633" lat="47.736747"><ele>102.75</ele></trkpt>
<trkpt lon="3.596050" lat="47.736445"><ele>103.0</ele></trkpt>
<trkpt lon="3.596266" lat="47.736243"><ele>103.0</ele></trkpt>
<trkpt lon="3.596441" lat="47.736020"><ele>103.25</ele></trkpt>
<trkpt lon="3.596446" lat="47.735953"><ele>103.25</ele></trkpt>
<trkpt lon="3.596543" lat="47.735807"><ele>103.25</ele></trkpt>
<trkpt lon="3.596603" lat="47.735743"><ele>103.25</ele></trkpt>
<trkpt lon="3.596665" lat="47.735676"><ele>103.5</ele></trkpt>
<trkpt lon="3.596972" lat="47.735419"><ele>103.25</ele></trkpt>
<trkpt lon="3.597377" lat="47.735158"><ele>103.25</ele></trkpt>
<trkpt lon="3.597782" lat="47.734897"><ele>103.25</ele></trkpt>
<trkpt lon="3.598177" lat="47.734641"><ele>103.5</ele></trkpt>
<trkpt lon="3.598270" lat="47.734588"><ele>103.5</ele></trkpt>
<trkpt lon="3.598644" lat="47.734375"><ele>103.0</ele></trkpt>
<trkpt lon="3.598817" lat="47.734283"><ele>103.5</ele></trkpt>
<trkpt lon="3.599030" lat="47.734169"><ele>103.25</ele></trkpt>
<trkpt lon="3.599423" lat="47.733916"><ele>102.75</ele></trkpt>
<trkpt lon="3.599517" lat="47.733807"><ele>103.0</ele></trkpt>
<trkpt lon="3.599582" lat="47.733711"><ele>103.0</ele></trkpt>
<trkpt lon="3.599697" lat="47.733482"><ele>103.5</ele></trkpt>
<trkpt lon="3.600039" lat="47.732822"><ele>103.5</ele></trkpt>
<trkpt lon="3.600290" lat="47.732288"><ele>106.0</ele></trkpt>
<trkpt lon="3.600295" lat="47.732277"><ele>106.0</ele></trkpt>
<trkpt lon="3.600311" lat="47.732244"><ele>106.25</ele></trkpt>
<trkpt lon="3.600341" lat="47.732213"><ele>106.0</ele></trkpt>
<trkpt lon="3.600598" lat="47.731950"><ele>104.0</ele></trkpt>
<trkpt lon="3.600935" lat="47.731479"><ele>103.5</ele></trkpt>
<trkpt lon="3.601125" lat="47.731260"><ele>104.0</ele></trkpt>
<trkpt lon="3.601302" lat="47.731129"><ele>104.0</ele></trkpt>
<trkpt lon="3.601510" lat="47.731008"><ele>104.0</ele></trkpt>
<trkpt lon="3.601829" lat="47.730891"><ele>104.0</ele></trkpt>
<trkpt lon="3.602590" lat="47.730732"><ele>104.0</ele></trkpt>
<trkpt lon="3.602751" lat="47.730675"><ele>104.0</ele></trkpt>
<trkpt lon="3.602892" lat="47.730590"><ele>104.0</ele></trkpt>
<trkpt lon="3.604243" lat="47.729689"><ele>104.0</ele></trkpt>
<trkpt lon="3.605083" lat="47.729137"><ele>104.0</ele></trkpt>
<trkpt lon="3.606032" lat="47.728545"><ele>104.0</ele></trkpt>
<trkpt lon="3.607125" lat="47.727803"><ele>104.0</ele></trkpt>
<trkpt lon="3.607257" lat="47.727705"><ele>104.0</ele></trkpt>
<trkpt lon="3.607328" lat="47.727632"><ele>104.0</ele></trkpt>
<trkpt lon="3.607439" lat="47.727436"><ele>104.0</ele></trkpt>
<trkpt lon="3.607524" lat="47.727229"><ele>104.0</ele></trkpt>
<trkpt lon="3.607677" lat="47.726956"><ele>104.0</ele></trkpt>
<trkpt lon="3.607923" lat="47.726655"><ele>104.0</ele></trkpt>
<trkpt lon="3.608391" lat="47.726188"><ele>104.0</ele></trkpt>
<trkpt lon="3.608704" lat="47.725961"><ele>104.5</ele></trkpt>
<trkpt lon="3.609067" lat="47.725737"><ele>104.5</ele></trkpt>
<trkpt lon="3.609515" lat="47.725525"><ele>104.0</ele></trkpt>
<trkpt lon="3.609743" lat="47.725440"><ele>104.25</ele></trkpt>
<trkpt lon="3.610773" lat="47.725092"><ele>104.5</ele></trkpt>
<trkpt lon="3.611174" lat="47.724963"><ele>104.0</ele></trkpt>
<trkpt lon="3.611695" lat="47.724817"><ele>104.5</ele></trkpt>
<trkpt lon="3.612106" lat="47.724723"><ele>104.25</ele></trkpt>
<trkpt lon="3.612947" lat="47.724519"><ele>104.5</ele></trkpt>
<trkpt lon="3.613391" lat="47.724395"><ele>104.0</ele></trkpt>
<trkpt lon="3.613801" lat="47.724328"><ele>104.25</ele></trkpt>
<trkpt lon="3.614426" lat="47.724237"><ele>106.0</ele></trkpt>
<trkpt lon="3.615336" lat="47.724149"><ele>104.0</ele></trkpt>
<trkpt lon="3.615720" lat="47.724072"><ele>104.0</ele></trkpt>
<trkpt lon="3.615910" lat="47.724135"><ele>104.25</ele></trkpt>
<trkpt lon="3.615978" lat="47.724141"><ele>104.5</ele></trkpt>
<trkpt lon="3.620208" lat="47.723475"><ele>105.25</ele></trkpt>
<trkpt lon="3.621445" lat="47.723293"><ele>105.0</ele></trkpt>
<trkpt lon="3.621489" lat="47.723272"><ele>105.0</ele></trkpt>
<trkpt lon="3.621512" lat="47.723177"><ele>105.0</ele></trkpt>
<trkpt lon="3.621603" lat="47.723149"><ele>105.0</ele></trkpt>
<trkpt lon="3.622057" lat="47.723128"><ele>105.5</ele></trkpt>
<trkpt lon="3.622457" lat="47.723101"><ele>105.75</ele></trkpt>
<trkpt lon="3.622859" lat="47.723048"><ele>105.0</ele></trkpt>
<trkpt lon="3.623163" lat="47.722976"><ele>105.0</ele></trkpt>
<trkpt lon="3.623576" lat="47.722857"><ele>105.0</ele></trkpt>
<trkpt lon="3.624551" lat="47.722551"><ele>105.0</ele></trkpt>
<trkpt lon="3.624958" lat="47.722388"><ele>105.0</ele></trkpt>
<trkpt lon="3.625314" lat="47.722217"><ele>105.0</ele></trkpt>
<trkpt lon="3.626743" lat="47.721545"><ele>105.25</ele></trkpt>
<trkpt lon="3.628782" lat="47.720610"><ele>105.75</ele></trkpt>
<trkpt lon="3.629264" lat="47.720390"><ele>105.5</ele></trkpt>
<trkpt lon="3.629631" lat="47.720164"><ele>105.25</ele></trkpt>
<trkpt lon="3.630364" lat="47.719523"><ele>105.0</ele></trkpt>
<trkpt lon="3.631975" lat="47.718057"><ele>105.75</ele></trkpt>
<trkpt lon="3.633852" lat="47.715911"><ele>105.75</ele></trkpt>
<trkpt lon="3.635285" lat="47.714334"><ele>105.75</ele></trkpt>
<trkpt lon="3.635683" lat="47.713858"><ele>105.5</ele></trkpt>
<trkpt lon="3.636115" lat="47.713227"><ele>105.75</ele></trkpt>
<trkpt lon="3.636287" lat="47.712790"><ele>105.25</ele></trkpt>
<trkpt lon="3.636412" lat="47.712371"><ele>106.25</ele></trkpt>
<trkpt lon="3.636400" lat="47.711799"><ele>107.0</ele></trkpt>
<trkpt lon="3.636306" lat="47.710122"><ele>106.75</ele></trkpt>
<trkpt lon="3.636239" lat="47.708463"><ele>107.0</ele></trkpt>
<trkpt lon="3.636150" lat="47.706639"><ele>107.75</ele></trkpt>
<trkpt lon="3.636110" lat="47.706292"><ele>108.25</ele></trkpt>
<trkpt lon="3.636102" lat="47.706219"><ele>108.5</ele></trkpt>
<trkpt lon="3.636110" lat="47.706166"><ele>108.75</ele></trkpt>
<trkpt lon="3.636104" lat="47.706069"><ele>108.5</ele></trkpt>
<trkpt lon="3.636142" lat="47.705278"><ele>107.0</ele></trkpt>
<trkpt lon="3.636164" lat="47.704529"><ele>107.75</ele></trkpt>
<trkpt lon="3.636238" lat="47.703630"><ele>107.0</ele></trkpt>
<trkpt lon="3.636297" lat="47.702650"><ele>107.0</ele></trkpt>
<trkpt lon="3.636249" lat="47.702614"><ele>107.0</ele></trkpt>
<trkpt lon="3.636271" lat="47.702517"><ele>107.0</ele></trkpt>
<trkpt lon="3.636318" lat="47.702470"><ele>107.0</ele></trkpt>
<trkpt lon="3.636321" lat="47.702349"><ele>107.0</ele></trkpt>
<trkpt lon="3.636372" lat="47.701830"><ele>107.0</ele></trkpt>
<trkpt lon="3.636401" lat="47.701569"><ele>107.25</ele></trkpt>
<trkpt lon="3.636351" lat="47.701482"><ele>107.5</ele></trkpt>
<trkpt lon="3.636387" lat="47.701406"><ele>107.75</ele></trkpt>
<trkpt lon="3.636412" lat="47.701392"><ele>107.75</ele></trkpt>
<trkpt lon="3.636539" lat="47.701329"><ele>107.5</ele></trkpt>
<trkpt lon="3.636843" lat="47.701118"><ele>107.25</ele></trkpt>
<trkpt lon="3.638764" lat="47.699825"><ele>107.0</ele></trkpt>
<trkpt lon="3.640460" lat="47.698718"><ele>107.5</ele></trkpt>
<trkpt lon="3.640970" lat="47.698323"><ele>107.5</ele></trkpt>
<trkpt lon="3.641189" lat="47.698193"><ele>107.5</ele></trkpt>
<trkpt lon="3.641358" lat="47.698058"><ele>107.75</ele></trkpt>
<trkpt lon="3.641529" lat="47.697887"><ele>108.0</ele></trkpt>
<trkpt lon="3.641621" lat="47.697835"><ele>108.25</ele></trkpt>
<trkpt lon="3.641848" lat="47.697728"><ele>108.75</ele></trkpt>
<trkpt lon="3.642080" lat="47.697597"><ele>109.0</ele></trkpt>
<trkpt lon="3.642216" lat="47.697454"><ele>108.75</ele></trkpt>
<trkpt lon="3.642315" lat="47.697363"><ele>108.5</ele></trkpt>
<trkpt lon="3.642575" lat="47.697190"><ele>108.75</ele></trkpt>
<trkpt lon="3.642850" lat="47.697029"><ele>108.25</ele></trkpt>
<trkpt lon="3.643315" lat="47.696808"><ele>108.5</ele></trkpt>
<trkpt lon="3.643828" lat="47.696617"><ele>108.75</ele></trkpt>
<trkpt lon="3.644487" lat="47.696444"><ele>108.25</ele></trkpt>
<trkpt lon="3.645132" lat="47.696336"><ele>109.0</ele></trkpt>
<trkpt lon="3.645794" lat="47.696285"><ele>109.25</ele></trkpt>
<trkpt lon="3.646615" lat="47.696277"><ele>109.25</ele></trkpt>
<trkpt lon="3.648618" lat="47.696187"><ele>108.75</ele></trkpt>
<trkpt lon="3.653464" lat="47.695939"><ele>109.0</ele></trkpt>
<trkpt lon="3.654050" lat="47.695883"><ele>109.0</ele></trkpt>
<trkpt lon="3.654619" lat="47.695800"><ele>109.0</ele></trkpt>
<trkpt lon="3.655195" lat="47.695698"><ele>109.0</ele></trkpt>
<trkpt lon="3.655759" lat="47.695569"><ele>109.0</ele></trkpt>
<trkpt lon="3.656277" lat="47.695397"><ele>109.25</ele></trkpt>
<trkpt lon="3.656790" lat="47.695195"><ele>109.25</ele></trkpt>
<trkpt lon="3.657285" lat="47.694964"><ele>109.75</ele></trkpt>
<trkpt lon="3.657723" lat="47.694728"><ele>111.5</ele></trkpt>
<trkpt lon="3.657965" lat="47.694672"><ele>111.0</ele></trkpt>
<trkpt lon="3.659866" lat="47.693854"><ele>110.75</ele></trkpt>
<trkpt lon="3.661966" lat="47.692903"><ele>110.25</ele></trkpt>
<trkpt lon="3.664020" lat="47.692009"><ele>111.0</ele></trkpt>
<trkpt lon="3.666946" lat="47.690716"><ele>111.0</ele></trkpt>
<trkpt lon="3.667951" lat="47.690282"><ele>111.25</ele></trkpt>
<trkpt lon="3.669903" lat="47.689416"><ele>111.25</ele></trkpt>
<trkpt lon="3.670970" lat="47.688987"><ele>111.0</ele></trkpt>
<trkpt lon="3.672070" lat="47.688600"><ele>110.75</ele></trkpt>
<trkpt lon="3.674262" lat="47.687909"><ele>111.0</ele></trkpt>
<trkpt lon="3.675398" lat="47.687572"><ele>111.0</ele></trkpt>
<trkpt lon="3.675933" lat="47.687419"><ele>111.25</ele></trkpt>
<trkpt lon="3.676181" lat="47.687394"><ele>112.5</ele></trkpt>
<trkpt lon="3.676270" lat="47.687361"><ele>113.0</ele></trkpt>
<trkpt lon="3.676348" lat="47.687316"><ele>113.25</ele></trkpt>
<trkpt lon="3.676906" lat="47.687107"><ele>111.0</ele></trkpt>
<trkpt lon="3.679213" lat="47.686400"><ele>111.0</ele></trkpt>
<trkpt lon="3.679442" lat="47.686323"><ele>110.75</ele></trkpt>
<trkpt lon="3.679701" lat="47.686224"><ele>110.25</ele></trkpt>
<trkpt lon="3.679801" lat="47.686150"><ele>110.25</ele></trkpt>
<trkpt lon="3.679935" lat="47.685995"><ele>110.25</ele></trkpt>
<trkpt lon="3.680882" lat="47.684830"><ele>110.25</ele></trkpt>
<trkpt lon="3.681427" lat="47.684179"><ele>110.75</ele></trkpt>
<trkpt lon="3.681972" lat="47.683507"><ele>111.0</ele></trkpt>
<trkpt lon="3.682407" lat="47.682729"><ele>111.0</ele></trkpt>
<trkpt lon="3.682579" lat="47.682383"><ele>112.0</ele></trkpt>
<trkpt lon="3.682680" lat="47.682334"><ele>112.0</ele></trkpt>
<trkpt lon="3.682716" lat="47.682298"><ele>112.0</ele></trkpt>
<trkpt lon="3.682736" lat="47.682258"><ele>112.0</ele></trkpt>
<trkpt lon="3.682730" lat="47.682219"><ele>112.25</ele></trkpt>
<trkpt lon="3.682708" lat="47.682189"><ele>112.25</ele></trkpt>
<trkpt lon="3.682700" lat="47.682158"><ele>112.25</ele></trkpt>
<trkpt lon="3.682711" lat="47.682131"><ele>112.25</ele></trkpt>
<trkpt lon="3.683174" lat="47.681260"><ele>111.25</ele></trkpt>
<trkpt lon="3.683941" lat="47.679773"><ele>111.0</ele></trkpt>
<trkpt lon="3.684127" lat="47.679214"><ele>111.0</ele></trkpt>
<trkpt lon="3.684341" lat="47.678203"><ele>111.0</ele></trkpt>
<trkpt lon="3.684764" lat="47.675929"><ele>111.0</ele></trkpt>
<trkpt lon="3.684756" lat="47.675728"><ele>111.0</ele></trkpt>
<trkpt lon="3.684654" lat="47.675503"><ele>111.0</ele></trkpt>
<trkpt lon="3.684297" lat="47.675117"><ele>111.0</ele></trkpt>
<trkpt lon="3.682962" lat="47.673749"><ele>111.0</ele></trkpt>
<trkpt lon="3.681663" lat="47.672433"><ele>111.75</ele></trkpt>
<trkpt lon="3.680080" lat="47.671320"><ele>112.5</ele></trkpt>
<trkpt lon="3.679713" lat="47.671043"><ele>111.75</ele></trkpt>
<trkpt lon="3.679606" lat="47.670884"><ele>112.0</ele></trkpt>
<trkpt lon="3.679571" lat="47.670781"><ele>112.0</ele></trkpt>
<trkpt lon="3.679541" lat="47.670736"><ele>112.25</ele></trkpt>
<trkpt lon="3.679074" lat="47.670001"><ele>112.25</ele></trkpt>
<trkpt lon="3.678960" lat="47.669860"><ele>112.25</ele></trkpt>
<trkpt lon="3.677841" lat="47.668696"><ele>112.75</ele></trkpt>
<trkpt lon="3.677255" lat="47.668180"><ele>112.25</ele></trkpt>
<trkpt lon="3.677103" lat="47.668063"><ele>112.25</ele></trkpt>
<trkpt lon="3.676842" lat="47.667892"><ele>113.25</ele></trkpt>
<trkpt lon="3.676736" lat="47.667813"><ele>114.75</ele></trkpt>
<trkpt lon="3.676681" lat="47.667750"><ele>115.25</ele></trkpt>
<trkpt lon="3.676678" lat="47.667697"><ele>114.5</ele></trkpt>
<trkpt lon="3.676694" lat="47.667654"><ele>113.75</ele></trkpt>
<trkpt lon="3.676970" lat="47.667094"><ele>114.0</ele></trkpt>
<trkpt lon="3.677042" lat="47.667044"><ele>114.25</ele></trkpt>
<trkpt lon="3.677079" lat="47.667037"><ele>114.0</ele></trkpt>
<trkpt lon="3.677113" lat="47.667039"><ele>113.75</ele></trkpt>
<trkpt lon="3.677162" lat="47.667051"><ele>113.25</ele></trkpt>
<trkpt lon="3.677209" lat="47.667069"><ele>113.0</ele></trkpt>
<trkpt lon="3.677280" lat="47.667111"><ele>113.0</ele></trkpt>
<trkpt lon="3.677422" lat="47.667240"><ele>112.75</ele></trkpt>
<trkpt lon="3.677472" lat="47.667315"><ele>112.5</ele></trkpt>
<trkpt lon="3.677553" lat="47.667346"><ele>112.5</ele></trkpt>
<trkpt lon="3.677632" lat="47.667364"><ele>112.25</ele></trkpt>
<trkpt lon="3.677717" lat="47.667367"><ele>112.25</ele></trkpt>
<trkpt lon="3.677803" lat="47.667360"><ele>112.5</ele></trkpt>
<trkpt lon="3.677960" lat="47.667312"><ele>112.75</ele></trkpt>
<trkpt lon="3.679832" lat="47.666510"><ele>112.25</ele></trkpt>
<trkpt lon="3.681371" lat="47.665876"><ele>112.75</ele></trkpt>
<trkpt lon="3.682206" lat="47.665604"><ele>112.75</ele></trkpt>
<trkpt lon="3.682677" lat="47.665465"><ele>112.0</ele></trkpt>
<trkpt lon="3.683726" lat="47.665214"><ele>112.75</ele></trkpt>
<trkpt lon="3.685192" lat="47.664873"><ele>112.25</ele></trkpt>
<trkpt lon="3.686152" lat="47.664669"><ele>114.0</ele></trkpt>
<trkpt lon="3.687698" lat="47.664325"><ele>113.0</ele></trkpt>
<trkpt lon="3.688556" lat="47.664126"><ele>112.75</ele></trkpt>
<trkpt lon="3.690649" lat="47.663626"><ele>113.0</ele></trkpt>
<trkpt lon="3.692761" lat="47.663167"><ele>113.0</ele></trkpt>
<trkpt lon="3.693629" lat="47.663026"><ele>113.0</ele></trkpt>
<trkpt lon="3.694635" lat="47.662931"><ele>113.0</ele></trkpt>
<trkpt lon="3.695290" lat="47.662890"><ele>113.0</ele></trkpt>
<trkpt lon="3.695809" lat="47.662873"><ele>113.25</ele></trkpt>
<trkpt lon="3.696951" lat="47.662867"><ele>113.0</ele></trkpt>
<trkpt lon="3.704672" lat="47.662884"><ele>113.5</ele></trkpt>
<trkpt lon="3.704735" lat="47.662902"><ele>113.5</ele></trkpt>
<trkpt lon="3.704823" lat="47.662944"><ele>113.25</ele></trkpt>
<trkpt lon="3.704828" lat="47.663064"><ele>113.0</ele></trkpt>
<trkpt lon="3.704811" lat="47.663197"><ele>113.5</ele></trkpt>
<trkpt lon="3.704939" lat="47.663233"><ele>114.0</ele></trkpt>
<trkpt lon="3.705229" lat="47.663255"><ele>115.0</ele></trkpt>
<trkpt lon="3.705587" lat="47.663249"><ele>114.25</ele></trkpt>
<trkpt lon="3.705935" lat="47.663156"><ele>113.5</ele></trkpt>
<trkpt lon="3.706419" lat="47.663068"><ele>112.75</ele></trkpt>
<trkpt lon="3.706570" lat="47.663051"><ele>113.0</ele></trkpt>
<trkpt lon="3.706789" lat="47.663011"><ele>112.75</ele></trkpt>
<trkpt lon="3.707369" lat="47.662922"><ele>112.75</ele></trkpt>
<trkpt lon="3.709571" lat="47.662489"><ele>113.0</ele></trkpt>
<trkpt lon="3.710126" lat="47.662420"><ele>113.75</ele></trkpt>
<trkpt lon="3.711223" lat="47.662334"><ele>113.25</ele></trkpt>
<trkpt lon="3.712423" lat="47.662389"><ele>113.75</ele></trkpt>
<trkpt lon="3.713512" lat="47.662608"><ele>113.25</ele></trkpt>
<trkpt lon="3.714109" lat="47.662807"><ele>113.25</ele></trkpt>
<trkpt lon="3.714198" lat="47.662895"><ele>113.25</ele></trkpt>
<trkpt lon="3.715264" lat="47.663300"><ele>115.75</ele></trkpt>
<trkpt lon="3.715249" lat="47.663339"><ele>115.75</ele></trkpt>
<trkpt lon="3.715294" lat="47.663402"><ele>115.5</ele></trkpt>
<trkpt lon="3.715383" lat="47.663454"><ele>115.0</ele></trkpt>
<trkpt lon="3.715620" lat="47.663535"><ele>114.75</ele></trkpt>
<trkpt lon="3.715724" lat="47.663556"><ele>115.25</ele></trkpt>
<trkpt lon="3.716163" lat="47.663708"><ele>114.5</ele></trkpt>
<trkpt lon="3.717585" lat="47.664261"><ele>116.0</ele></trkpt>
<trkpt lon="3.718550" lat="47.664571"><ele>115.0</ele></trkpt>
<trkpt lon="3.719682" lat="47.664755"><ele>116.0</ele></trkpt>
<trkpt lon="3.720691" lat="47.664860"><ele>115.25</ele></trkpt>
<trkpt lon="3.721769" lat="47.665214"><ele>116.75</ele></trkpt>
<trkpt lon="3.723470" lat="47.665666"><ele>116.5</ele></trkpt>
<trkpt lon="3.724827" lat="47.665940"><ele>115.0</ele></trkpt>
<trkpt lon="3.726184" lat="47.666103"><ele>115.75</ele></trkpt>
<trkpt lon="3.726600" lat="47.666164"><ele>116.5</ele></trkpt>
<trkpt lon="3.726700" lat="47.666179"><ele>116.25</ele></trkpt>
<trkpt lon="3.726802" lat="47.666222"><ele>115.0</ele></trkpt>
<trkpt lon="3.726866" lat="47.666297"><ele>114.25</ele></trkpt>
<trkpt lon="3.726909" lat="47.666454"><ele>114.25</ele></trkpt>
<trkpt lon="3.726997" lat="47.666600"><ele>114.25</ele></trkpt>
<trkpt lon="3.727209" lat="47.666864"><ele>114.25</ele></trkpt>
<trkpt lon="3.727303" lat="47.667019"><ele>114.0</ele></trkpt>
<trkpt lon="3.727359" lat="47.667153"><ele>113.75</ele></trkpt>
<trkpt lon="3.727375" lat="47.667291"><ele>114.0</ele></trkpt>
<trkpt lon="3.727288" lat="47.667496"><ele>115.25</ele></trkpt>
<trkpt lon="3.727250" lat="47.667551"><ele>115.0</ele></trkpt>
<trkpt lon="3.727670" lat="47.667757"><ele>115.75</ele></trkpt>
<trkpt lon="3.727729" lat="47.667770"><ele>117.0</ele></trkpt>
<trkpt lon="3.727783" lat="47.667759"><ele>117.5</ele></trkpt>
<trkpt lon="3.728829" lat="47.667398"><ele>117.75</ele></trkpt>
<trkpt lon="3.729110" lat="47.667329"><ele>117.25</ele></trkpt>
<trkpt lon="3.729179" lat="47.667389"><ele>119.5</ele></trkpt>
<trkpt lon="3.729698" lat="47.667219"><ele>122.5</ele></trkpt>
<trkpt lon="3.729706" lat="47.667175"><ele>121.5</ele></trkpt>
<trkpt lon="3.729836" lat="47.667089"><ele>120.5</ele></trkpt>
<trkpt lon="3.730163" lat="47.666911"><ele>121.0</ele></trkpt>
<trkpt lon="3.730492" lat="47.666700"><ele>119.0</ele></trkpt>
<trkpt lon="3.730808" lat="47.666530"><ele>119.75</ele></trkpt>
<trkpt lon="3.731166" lat="47.666303"><ele>119.0</ele></trkpt>
<trkpt lon="3.731345" lat="47.666138"><ele>119.0</ele></trkpt>
<trkpt lon="3.731498" lat="47.666010"><ele>119.25</ele></trkpt>
<trkpt lon="3.731664" lat="47.665911"><ele>119.25</ele></trkpt>
<trkpt lon="3.731823" lat="47.665848"><ele>119.75</ele></trkpt>
<trkpt lon="3.731921" lat="47.665705"><ele>119.75</ele></trkpt>
<trkpt lon="3.731973" lat="47.665629"><ele>119.5</ele></trkpt>
<trkpt lon="3.732053" lat="47.665437"><ele>118.75</ele></trkpt>
<trkpt lon="3.732066" lat="47.665405"><ele>118.5</ele></trkpt>
<trkpt lon="3.732105" lat="47.665365"><ele>118.25</ele></trkpt>
<trkpt lon="3.732095" lat="47.665231"><ele>118.0</ele></trkpt>
<trkpt lon="3.732082" lat="47.665076"><ele>118.0</ele></trkpt>
<trkpt lon="3.732109" lat="47.664989"><ele>117.75</ele></trkpt>
<trkpt lon="3.732245" lat="47.665010"><ele>118.0</ele></trkpt>
<trkpt lon="3.732422" lat="47.665004"><ele>118.5</ele></trkpt>
<trkpt lon="3.732754" lat="47.664960"><ele>121.25</ele></trkpt>
<trkpt lon="3.732869" lat="47.664921"><ele>121.5</ele></trkpt>
<trkpt lon="3.732938" lat="47.664868"><ele>121.25</ele></trkpt>
<trkpt lon="3.733003" lat="47.664882"><ele>121.75</ele></trkpt>
<trkpt lon="3.733036" lat="47.664829"><ele>121.5</ele></trkpt>
<trkpt lon="3.733061" lat="47.664835"><ele>121.75</ele></trkpt>
<trkpt lon="3.733093" lat="47.664785"><ele>121.5</ele></trkpt>
<trkpt lon="3.733283" lat="47.664478"><ele>121.75</ele></trkpt>
<trkpt lon="3.733332" lat="47.664491"><ele>122.0</ele></trkpt>
<trkpt lon="3.733384" lat="47.664502"><ele>122.75</ele></trkpt>
<trkpt lon="3.733871" lat="47.664611"><ele>127.75</ele></trkpt>
<trkpt lon="3.733920" lat="47.664484"><ele>128.0</ele></trkpt>
<trkpt lon="3.733957" lat="47.664447"><ele>128.0</ele></trkpt>
<trkpt lon="3.734046" lat="47.664422"><ele>128.0</ele></trkpt>
<trkpt lon="3.734303" lat="47.664427"><ele>128.25</ele></trkpt>
<trkpt lon="3.734576" lat="47.664465"><ele>128.0</ele></trkpt>
<trkpt lon="3.734629" lat="47.664252"><ele>126.25</ele></trkpt>
<trkpt lon="3.735076" lat="47.664367"><ele>127.0</ele></trkpt>
<trkpt lon="3.735383" lat="47.664448"><ele>127.5</ele></trkpt>
<trkpt lon="3.735482" lat="47.664465"><ele>127.25</ele></trkpt>
<trkpt lon="3.735581" lat="47.664465"><ele>127.0</ele></trkpt>
<trkpt lon="3.735652" lat="47.664445"><ele>126.5</ele></trkpt>
<trkpt lon="3.735745" lat="47.664379"><ele>125.5</ele></trkpt>
<trkpt lon="3.735810" lat="47.664304"><ele>124.5</ele></trkpt>
<trkpt lon="3.735807" lat="47.664272"><ele>124.0</ele></trkpt>
<trkpt lon="3.735793" lat="47.664153"><ele>123.0</ele></trkpt>
<trkpt lon="3.735886" lat="47.664136"><ele>122.75</ele></trkpt>
<trkpt lon="3.735995" lat="47.664151"><ele>122.75</ele></trkpt>
<trkpt lon="3.736062" lat="47.664135"><ele>122.75</ele></trkpt>
<trkpt lon="3.736273" lat="47.663857"><ele>122.0</ele></trkpt>
<trkpt lon="3.736305" lat="47.663866"><ele>122.0</ele></trkpt>
<trkpt lon="3.736608" lat="47.664011"><ele>122.25</ele></trkpt>
<trkpt lon="3.736752" lat="47.664104"><ele>122.75</ele></trkpt>
<trkpt lon="3.736998" lat="47.664264"><ele>123.25</ele></trkpt>
<trkpt lon="3.737309" lat="47.664432"><ele>123.75</ele></trkpt>
<trkpt lon="3.737457" lat="47.664512"><ele>124.25</ele></trkpt>
<trkpt lon="3.737485" lat="47.664490"><ele>124.25</ele></trkpt>
<trkpt lon="3.737530" lat="47.664474"><ele>124.0</ele></trkpt>
<trkpt lon="3.737598" lat="47.664465"><ele>123.75</ele></trkpt>
<trkpt lon="3.737690" lat="47.664477"><ele>123.5</ele></trkpt>
<trkpt lon="3.737826" lat="47.664494"><ele>123.5</ele></trkpt>
<trkpt lon="3.738395" lat="47.664582"><ele>124.25</ele></trkpt>
<trkpt lon="3.738438" lat="47.664488"><ele>124.25</ele></trkpt>
<trkpt lon="3.738633" lat="47.664051"><ele>125.25</ele></trkpt>
<trkpt lon="3.738646" lat="47.663943"><ele>125.75</ele></trkpt>
<trkpt lon="3.738629" lat="47.663870"><ele>126.0</ele></trkpt>
<trkpt lon="3.738742" lat="47.663704"><ele>127.75</ele></trkpt>
<trkpt lon="3.739272" lat="47.663144"><ele>136.25</ele></trkpt>
<trkpt lon="3.739359" lat="47.663132"><ele>136.75</ele></trkpt>
<trkpt lon="3.739434" lat="47.663161"><ele>136.75</ele></trkpt>
<trkpt lon="3.739783" lat="47.663419"><ele>137.25</ele></trkpt>
<trkpt lon="3.740067" lat="47.663545"><ele>137.5</ele></trkpt>
<trkpt lon="3.740330" lat="47.663739"><ele>137.5</ele></trkpt>
<trkpt lon="3.740931" lat="47.664105"><ele>138.25</ele></trkpt>
<trkpt lon="3.741285" lat="47.664342"><ele>137.25</ele></trkpt>
<trkpt lon="3.741813" lat="47.664640"><ele>136.75</ele></trkpt>
  </trkseg></trk></gpx>
