<?xml version="1.0" encoding="UTF-8"?>
<gpx version="1.1" creator="compostel-brouter" xmlns="http://www.topografix.com/GPX/1/1">
  <metadata><name>FR-11-Tonnerre</name></metadata>
  <trk><name>FR-11-Tonnerre</name><trkseg>
<trkpt lon="4.367234" lat="47.992809"><ele>177.0</ele></trkpt>
<trkpt lon="4.367243" lat="47.992795"><ele>177.0</ele></trkpt>
<trkpt lon="4.367211" lat="47.992604"><ele>177.5</ele></trkpt>
<trkpt lon="4.367098" lat="47.992490"><ele>177.5</ele></trkpt>
<trkpt lon="4.366774" lat="47.992215"><ele>177.0</ele></trkpt>
<trkpt lon="4.366624" lat="47.992044"><ele>177.5</ele></trkpt>
<trkpt lon="4.366547" lat="47.991909"><ele>178.0</ele></trkpt>
<trkpt lon="4.366435" lat="47.991768"><ele>178.0</ele></trkpt>
<trkpt lon="4.366397" lat="47.991702"><ele>178.0</ele></trkpt>
<trkpt lon="4.366369" lat="47.991673"><ele>178.0</ele></trkpt>
<trkpt lon="4.366331" lat="47.991655"><ele>178.0</ele></trkpt>
<trkpt lon="4.366271" lat="47.991645"><ele>178.0</ele></trkpt>
<trkpt lon="4.366180" lat="47.991655"><ele>178.0</ele></trkpt>
<trkpt lon="4.366032" lat="47.991707"><ele>178.0</ele></trkpt>
<trkpt lon="4.365913" lat="47.991765"><ele>178.0</ele></trkpt>
<trkpt lon="4.365781" lat="47.991851"><ele>177.75</ele></trkpt>
<trkpt lon="4.365398" lat="47.991991"><ele>177.0</ele></trkpt>
<trkpt lon="4.365440" lat="47.992074"><ele>177.0</ele></trkpt>
<trkpt lon="4.365295" lat="47.992114"><ele>177.5</ele></trkpt>
<trkpt lon="4.365111" lat="47.992165"><ele>177.75</ele></trkpt>
<trkpt lon="4.365022" lat="47.992162"><ele>177.75</ele></trkpt>
<trkpt lon="4.364212" lat="47.992139"><ele>177.75</ele></trkpt>
<trkpt lon="4.363980" lat="47.992136"><ele>178.0</ele></trkpt>
<trkpt lon="4.363079" lat="47.992121"><ele>178.0</ele></trkpt>
<trkpt lon="4.362831" lat="47.992113"><ele>177.5</ele></trkpt>
<trkpt lon="4.362607" lat="47.992087"><ele>177.0</ele></trkpt>
<trkpt lon="4.362051" lat="47.991968"><ele>177.75</ele></trkpt>
<trkpt lon="4.362071" lat="47.991928"><ele>178.0</ele></trkpt>
<trkpt lon="4.362070" lat="47.991886"><ele>178.0</ele></trkpt>
<trkpt lon="4.362050" lat="47.991846"><ele>178.0</ele></trkpt>
<trkpt lon="4.362012" lat="47.991812"><ele>178.0</ele></trkpt>
<trkpt lon="4.362160" lat="47.991609"><ele>177.75</ele></trkpt>
<trkpt lon="4.362231" lat="47.991458"><ele>177.25</ele></trkpt>
<trkpt lon="4.362247" lat="47.991332"><ele>177.0</ele></trkpt>
<trkpt lon="4.362218" lat="47.991167"><ele>177.0</ele></trkpt>
<trkpt lon="4.362173" lat="47.990993"><ele>177.0</ele></trkpt>
<trkpt lon="4.361997" lat="47.991005"><ele>177.5</ele></trkpt>
<trkpt lon="4.361492" lat="47.990843"><ele>178.5</ele></trkpt>
<trkpt lon="4.360941" lat="47.990651"><ele>180.0</ele></trkpt>
<trkpt lon="4.360808" lat="47.990656"><ele>180.5</ele></trkpt>
<trkpt lon="4.360418" lat="47.990407"><ele>181.0</ele></trkpt>
<trkpt lon="4.360110" lat="47.990216"><ele>180.75</ele></trkpt>
<trkpt lon="4.359816" lat="47.990073"><ele>180.75</ele></trkpt>
<trkpt lon="4.359434" lat="47.989916"><ele>180.5</ele></trkpt>
<trkpt lon="4.358820" lat="47.989663"><ele>182.25</ele></trkpt>
<trkpt lon="4.358669" lat="47.989557"><ele>183.0</ele></trkpt>
<trkpt lon="4.358617" lat="47.989500"><ele>183.5</ele></trkpt>
<trkpt lon="4.358589" lat="47.989458"><ele>183.75</ele></trkpt>
<trkpt lon="4.357896" lat="47.989495"><ele>185.25</ele></trkpt>
<trkpt lon="4.357866" lat="47.989465"><ele>185.5</ele></trkpt>
<trkpt lon="4.357482" lat="47.989333"><ele>186.75</ele></trkpt>
<trkpt lon="4.357186" lat="47.989222"><ele>188.5</ele></trkpt>
<trkpt lon="4.356946" lat="47.989145"><ele>189.75</ele></trkpt>
<trkpt lon="4.356476" lat="47.989047"><ele>193.25</ele></trkpt>
<trkpt lon="4.356372" lat="47.989046"><ele>193.75</ele></trkpt>
<trkpt lon="4.356089" lat="47.989023"><ele>194.75</ele></trkpt>
<trkpt lon="4.355607" lat="47.988963"><ele>195.75</ele></trkpt>
<trkpt lon="4.354635" lat="47.988795"><ele>197.75</ele></trkpt>
<trkpt lon="4.354747" lat="47.988491"><ele>201.25</ele></trkpt>
<trkpt lon="4.355100" lat="47.987738"><ele>207.0</ele></trkpt>
<trkpt lon="4.354758" lat="47.987430"><ele>212.75</ele></trkpt>
<trkpt lon="4.354415" lat="47.986855"><ele>223.0</ele></trkpt>
<trkpt lon="4.353953" lat="47.986568"><ele>229.0</ele></trkpt>
<trkpt lon="4.353642" lat="47.986187"><ele>234.75</ele></trkpt>
<trkpt lon="4.353208" lat="47.985869"><ele>239.5</ele></trkpt>
<trkpt lon="4.352870" lat="47.985620"><ele>242.75</ele></trkpt>
<trkpt lon="4.352580" lat="47.985369"><ele>245.25</ele></trkpt>
<trkpt lon="4.351797" lat="47.984945"><ele>248.25</ele></trkpt>
<trkpt lon="4.351625" lat="47.984794"><ele>248.5</ele></trkpt>
<trkpt lon="4.351328" lat="47.984652"><ele>249.0</ele></trkpt>
<trkpt lon="4.351164" lat="47.984493"><ele>249.5</ele></trkpt>
<trkpt lon="4.351098" lat="47.984442"><ele>250.0</ele></trkpt>
<trkpt lon="4.350763" lat="47.984270"><ele>250.5</ele></trkpt>
<trkpt lon="4.349992" lat="47.983905"><ele>250.75</ele></trkpt>
<trkpt lon="4.349352" lat="47.983584"><ele>251.75</ele></trkpt>
<trkpt lon="4.349175" lat="47.983499"><ele>251.75</ele></trkpt>
<trkpt lon="4.348794" lat="47.983339"><ele>252.75</ele></trkpt>
<trkpt lon="4.348263" lat="47.983160"><ele>253.0</ele></trkpt>
<trkpt lon="4.348105" lat="47.983109"><ele>252.75</ele></trkpt>
<trkpt lon="4.347291" lat="47.982855"><ele>253.5</ele></trkpt>
<trkpt lon="4.345952" lat="47.982579"><ele>256.25</ele></trkpt>
<trkpt lon="4.345726" lat="47.982523"><ele>256.75</ele></trkpt>
<trkpt lon="4.344990" lat="47.982394"><ele>257.25</ele></trkpt>
<trkpt lon="4.344743" lat="47.982355"><ele>257.5</ele></trkpt>
<trkpt lon="4.344358" lat="47.982284"><ele>257.5</ele></trkpt>
<trkpt lon="4.343922" lat="47.982244"><ele>257.75</ele></trkpt>
<trkpt lon="4.343659" lat="47.982203"><ele>257.25</ele></trkpt>
<trkpt lon="4.343129" lat="47.982103"><ele>257.25</ele></trkpt>
<trkpt lon="4.342588" lat="47.981960"><ele>258.0</ele></trkpt>
<trkpt lon="4.342480" lat="47.981893"><ele>258.25</ele></trkpt>
<trkpt lon="4.342454" lat="47.981832"><ele>258.5</ele></trkpt>
<trkpt lon="4.342454" lat="47.981799"><ele>258.75</ele></trkpt>
<trkpt lon="4.342443" lat="47.981785"><ele>258.75</ele></trkpt>
<trkpt lon="4.342360" lat="47.981777"><ele>258.5</ele></trkpt>
<trkpt lon="4.342157" lat="47.981743"><ele>258.25</ele></trkpt>
<trkpt lon="4.342002" lat="47.981725"><ele>258.5</ele></trkpt>
<trkpt lon="4.341621" lat="47.981659"><ele>258.0</ele></trkpt>
<trkpt lon="4.341369" lat="47.981638"><ele>259.0</ele></trkpt>
<trkpt lon="4.341193" lat="47.981643"><ele>259.5</ele></trkpt>
<trkpt lon="4.341053" lat="47.981656"><ele>260.0</ele></trkpt>
<trkpt lon="4.340616" lat="47.981740"><ele>260.75</ele></trkpt>
<trkpt lon="4.340231" lat="47.981804"><ele>261.5</ele></trkpt>
<trkpt lon="4.339703" lat="47.981825"><ele>260.75</ele></trkpt>
<trkpt lon="4.339314" lat="47.981827"><ele>262.0</ele></trkpt>
<trkpt lon="4.339227" lat="47.981815"><ele>262.25</ele></trkpt>
<trkpt lon="4.339058" lat="47.981815"><ele>262.25</ele></trkpt>
<trkpt lon="4.338905" lat="47.981822"><ele>262.25</ele></trkpt>
<trkpt lon="4.338724" lat="47.981864"><ele>262.5</ele></trkpt>
<trkpt lon="4.338601" lat="47.981900"><ele>263.0</ele></trkpt>
<trkpt lon="4.338506" lat="47.981940"><ele>263.0</ele></trkpt>
<trkpt lon="4.338185" lat="47.982052"><ele>263.5</ele></trkpt>
<trkpt lon="4.337929" lat="47.982130"><ele>264.25</ele></trkpt>
<trkpt lon="4.337686" lat="47.982191"><ele>265.25</ele></trkpt>
<trkpt lon="4.337502" lat="47.982186"><ele>265.75</ele></trkpt>
<trkpt lon="4.337267" lat="47.982142"><ele>267.25</ele></trkpt>
<trkpt lon="4.337031" lat="47.982068"><ele>268.25</ele></trkpt>
<trkpt lon="4.336779" lat="47.981939"><ele>269.0</ele></trkpt>
<trkpt lon="4.336625" lat="47.981917"><ele>270.0</ele></trkpt>
<trkpt lon="4.336304" lat="47.981896"><ele>272.25</ele></trkpt>
<trkpt lon="4.336200" lat="47.981887"><ele>272.75</ele></trkpt>
<trkpt lon="4.336024" lat="47.981895"><ele>274.25</ele></trkpt>
<trkpt lon="4.335715" lat="47.981933"><ele>276.75</ele></trkpt>
<trkpt lon="4.335483" lat="47.982003"><ele>278.75</ele></trkpt>
<trkpt lon="4.335179" lat="47.982139"><ele>280.75</ele></trkpt>
<trkpt lon="4.334738" lat="47.982342"><ele>282.75</ele></trkpt>
<trkpt lon="4.333486" lat="47.982843"><ele>286.75</ele></trkpt>
<trkpt lon="4.332978" lat="47.983043"><ele>290.25</ele></trkpt>
<trkpt lon="4.332778" lat="47.983090"><ele>292.0</ele></trkpt>
<trkpt lon="4.332610" lat="47.983106"><ele>292.75</ele></trkpt>
<trkpt lon="4.332432" lat="47.983102"><ele>293.5</ele></trkpt>
<trkpt lon="4.332162" lat="47.983053"><ele>294.25</ele></trkpt>
<trkpt lon="4.331709" lat="47.982965"><ele>295.75</ele></trkpt>
<trkpt lon="4.331446" lat="47.982944"><ele>295.75</ele></trkpt>
<trkpt lon="4.331365" lat="47.982944"><ele>296.0</ele></trkpt>
<trkpt lon="4.331279" lat="47.982944"><ele>296.25</ele></trkpt>
<trkpt lon="4.331076" lat="47.982958"><ele>297.0</ele></trkpt>
<trkpt lon="4.330510" lat="47.983111"><ele>299.0</ele></trkpt>
<trkpt lon="4.330145" lat="47.983253"><ele>299.5</ele></trkpt>
<trkpt lon="4.330116" lat="47.983270"><ele>299.5</ele></trkpt>
<trkpt lon="4.329855" lat="47.983412"><ele>300.5</ele></trkpt>
<trkpt lon="4.329590" lat="47.983547"><ele>300.75</ele></trkpt>
<trkpt lon="4.329391" lat="47.983622"><ele>300.75</ele></trkpt>
<trkpt lon="4.329246" lat="47.983653"><ele>300.5</ele></trkpt>
<trkpt lon="4.329000" lat="47.983682"><ele>300.5</ele></trkpt>
<trkpt lon="4.328686" lat="47.983696"><ele>301.0</ele></trkpt>
<trkpt lon="4.328400" lat="47.983676"><ele>301.5</ele></trkpt>
<trkpt lon="4.328069" lat="47.983651"><ele>302.5</ele></trkpt>
<trkpt lon="4.327618" lat="47.983604"><ele>304.5</ele></trkpt>
<trkpt lon="4.327181" lat="47.983489"><ele>306.25</ele></trkpt>
<trkpt lon="4.326848" lat="47.983344"><ele>306.75</ele></trkpt>
<trkpt lon="4.326596" lat="47.983220"><ele>306.75</ele></trkpt>
<trkpt lon="4.326333" lat="47.983086"><ele>308.0</ele></trkpt>
<trkpt lon="4.326198" lat="47.983005"><ele>308.25</ele></trkpt>
<trkpt lon="4.325934" lat="47.982870"><ele>309.25</ele></trkpt>
<trkpt lon="4.325869" lat="47.982855"><ele>309.5</ele></trkpt>
<trkpt lon="4.325512" lat="47.982700"><ele>310.75</ele></trkpt>
<trkpt lon="4.325380" lat="47.982622"><ele>311.25</ele></trkpt>
<trkpt lon="4.325288" lat="47.982552"><ele>311.25</ele></trkpt>
<trkpt lon="4.324725" lat="47.981989"><ele>311.0</ele></trkpt>
<trkpt lon="4.324538" lat="47.981861"><ele>311.75</ele></trkpt>
<trkpt lon="4.324011" lat="47.981600"><ele>312.5</ele></trkpt>
<trkpt lon="4.323282" lat="47.981265"><ele>311.0</ele></trkpt>
<trkpt lon="4.323149" lat="47.981211"><ele>310.5</ele></trkpt>
<trkpt lon="4.323061" lat="47.981176"><ele>310.25</ele></trkpt>
<trkpt lon="4.322868" lat="47.981102"><ele>309.75</ele></trkpt>
<trkpt lon="4.322360" lat="47.980938"><ele>306.5</ele></trkpt>
<trkpt lon="4.322112" lat="47.980850"><ele>304.75</ele></trkpt>
<trkpt lon="4.321946" lat="47.980775"><ele>303.5</ele></trkpt>
<trkpt lon="4.321785" lat="47.980724"><ele>302.5</ele></trkpt>
<trkpt lon="4.321486" lat="47.980639"><ele>301.0</ele></trkpt>
<trkpt lon="4.321356" lat="47.980624"><ele>300.5</ele></trkpt>
<trkpt lon="4.321164" lat="47.980641"><ele>300.0</ele></trkpt>
<trkpt lon="4.321079" lat="47.980654"><ele>299.75</ele></trkpt>
<trkpt lon="4.320857" lat="47.980710"><ele>299.0</ele></trkpt>
<trkpt lon="4.320445" lat="47.980870"><ele>298.5</ele></trkpt>
<trkpt lon="4.320178" lat="47.980965"><ele>297.75</ele></trkpt>
<trkpt lon="4.320103" lat="47.980978"><ele>297.5</ele></trkpt>
<trkpt lon="4.319766" lat="47.981001"><ele>295.5</ele></trkpt>
<trkpt lon="4.319486" lat="47.981022"><ele>294.0</ele></trkpt>
<trkpt lon="4.319351" lat="47.981041"><ele>293.25</ele></trkpt>
<trkpt lon="4.318035" lat="47.981304"><ele>291.25</ele></trkpt>
<trkpt lon="4.317838" lat="47.981350"><ele>290.75</ele></trkpt>
<trkpt lon="4.317075" lat="47.981517"><ele>290.75</ele></trkpt>
<trkpt lon="4.316627" lat="47.981634"><ele>291.0</ele></trkpt>
<trkpt lon="4.315991" lat="47.981829"><ele>290.25</ele></trkpt>
<trkpt lon="4.315094" lat="47.980633"><ele>270.5</ele></trkpt>
<trkpt lon="4.315080" lat="47.980605"><ele>270.0</ele></trkpt>
<trkpt lon="4.314857" lat="47.980147"><ele>260.75</ele></trkpt>
<trkpt lon="4.314831" lat="47.980071"><ele>259.5</ele></trkpt>
<trkpt lon="4.314186" lat="47.980029"><ele>256.25</ele></trkpt>
<trkpt lon="4.313864" lat="47.979991"><ele>253.75</ele></trkpt>
<trkpt lon="4.313250" lat="47.979931"><ele>252.0</ele></trkpt>
<trkpt lon="4.312599" lat="47.979871"><ele>249.25</ele></trkpt>
<trkpt lon="4.312280" lat="47.979848"><ele>247.75</ele></trkpt>
<trkpt lon="4.311896" lat="47.979851"><ele>245.5</ele></trkpt>
<trkpt lon="4.311444" lat="47.979879"><ele>243.25</ele></trkpt>
<trkpt lon="4.311090" lat="47.979890"><ele>241.75</ele></trkpt>
<trkpt lon="4.310712" lat="47.979913"><ele>239.0</ele></trkpt>
<trkpt lon="4.310187" lat="47.979954"><ele>237.0</ele></trkpt>
<trkpt lon="4.309959" lat="47.979941"><ele>236.0</ele></trkpt>
<trkpt lon="4.309762" lat="47.979934"><ele>234.75</ele></trkpt>
<trkpt lon="4.309652" lat="47.979913"><ele>234.25</ele></trkpt>
<trkpt lon="4.309625" lat="47.979901"><ele>234.25</ele></trkpt>
<trkpt lon="4.309576" lat="47.979860"><ele>234.25</ele></trkpt>
<trkpt lon="4.309547" lat="47.979796"><ele>234.5</ele></trkpt>
<trkpt lon="4.309366" lat="47.979204"><ele>233.75</ele></trkpt>
<trkpt lon="4.309320" lat="47.979020"><ele>232.0</ele></trkpt>
<trkpt lon="4.309272" lat="47.978740"><ele>229.25</ele></trkpt>
<trkpt lon="4.309241" lat="47.978624"><ele>228.25</ele></trkpt>
<trkpt lon="4.308147" lat="47.978825"><ele>224.25</ele></trkpt>
<trkpt lon="4.307505" lat="47.978929"><ele>223.75</ele></trkpt>
<trkpt lon="4.306599" lat="47.979093"><ele>223.75</ele></trkpt>
<trkpt lon="4.306119" lat="47.979169"><ele>223.75</ele></trkpt>
<trkpt lon="4.305820" lat="47.979202"><ele>222.5</ele></trkpt>
<trkpt lon="4.305632" lat="47.979213"><ele>222.5</ele></trkpt>
<trkpt lon="4.305378" lat="47.979219"><ele>222.0</ele></trkpt>
<trkpt lon="4.305067" lat="47.979204"><ele>221.0</ele></trkpt>
<trkpt lon="4.302527" lat="47.979025"><ele>216.0</ele></trkpt>
<trkpt lon="4.302297" lat="47.979019"><ele>216.0</ele></trkpt>
<trkpt lon="4.298164" lat="47.979119"><ele>225.75</ele></trkpt>
<trkpt lon="4.298039" lat="47.979385"><ele>225.0</ele></trkpt>
<trkpt lon="4.297790" lat="47.979778"><ele>223.5</ele></trkpt>
<trkpt lon="4.297511" lat="47.980188"><ele>223.5</ele></trkpt>
<trkpt lon="4.297147" lat="47.980713"><ele>227.25</ele></trkpt>
<trkpt lon="4.289450" lat="47.979774"><ele>250.0</ele></trkpt>
<trkpt lon="4.288883" lat="47.979496"><ele>252.25</ele></trkpt>
<trkpt lon="4.286454" lat="47.980751"><ele>286.5</ele></trkpt>
<trkpt lon="4.285975" lat="47.980402"><ele>286.25</ele></trkpt>
<trkpt lon="4.284686" lat="47.980080"><ele>293.5</ele></trkpt>
<trkpt lon="4.284265" lat="47.979746"><ele>293.5</ele></trkpt>
<trkpt lon="4.283909" lat="47.979236"><ele>296.25</ele></trkpt>
<trkpt lon="4.283424" lat="47.978204"><ele>301.5</ele></trkpt>
<trkpt lon="4.282869" lat="47.977739"><ele>302.5</ele></trkpt>
<trkpt lon="4.282668" lat="47.977621"><ele>303.0</ele></trkpt>
<trkpt lon="4.282098" lat="47.977399"><ele>304.0</ele></trkpt>
<trkpt lon="4.280633" lat="47.976811"><ele>303.0</ele></trkpt>
<trkpt lon="4.280262" lat="47.976681"><ele>302.0</ele></trkpt>
<trkpt lon="4.278839" lat="47.976558"><ele>300.5</ele></trkpt>
<trkpt lon="4.278267" lat="47.976558"><ele>299.75</ele></trkpt>
<trkpt lon="4.276202" lat="47.976817"><ele>296.5</ele></trkpt>
<trkpt lon="4.275740" lat="47.976652"><ele>294.25</ele></trkpt>
<trkpt lon="4.275375" lat="47.976361"><ele>288.0</ele></trkpt>
<trkpt lon="4.275162" lat="47.976021"><ele>280.75</ele></trkpt>
<trkpt lon="4.274735" lat="47.975090"><ele>264.25</ele></trkpt>
<trkpt lon="4.274151" lat="47.974457"><ele>255.25</ele></trkpt>
<trkpt lon="4.273919" lat="47.973906"><ele>255.5</ele></trkpt>
<trkpt lon="4.273743" lat="47.973578"><ele>254.5</ele></trkpt>
<trkpt lon="4.273947" lat="47.972973"><ele>247.5</ele></trkpt>
<trkpt lon="4.273926" lat="47.972868"><ele>246.5</ele></trkpt>
<trkpt lon="4.273443" lat="47.972614"><ele>251.0</ele></trkpt>
<trkpt lon="4.272791" lat="47.972404"><ele>252.25</ele></trkpt>
<trkpt lon="4.271907" lat="47.972240"><ele>247.75</ele></trkpt>
<trkpt lon="4.271247" lat="47.971958"><ele>243.5</ele></trkpt>
<trkpt lon="4.270282" lat="47.971512"><ele>239.75</ele></trkpt>
<trkpt lon="4.269917" lat="47.971312"><ele>238.5</ele></trkpt>
<trkpt lon="4.269692" lat="47.971189"><ele>238.25</ele></trkpt>
<trkpt lon="4.269107" lat="47.970851"><ele>237.0</ele></trkpt>
<trkpt lon="4.268549" lat="47.970506"><ele>236.75</ele></trkpt>
<trkpt lon="4.268147" lat="47.970215"><ele>237.0</ele></trkpt>
<trkpt lon="4.267985" lat="47.970029"><ele>237.75</ele></trkpt>
<trkpt lon="4.267776" lat="47.969773"><ele>240.25</ele></trkpt>
<trkpt lon="4.267600" lat="47.969282"><ele>243.75</ele></trkpt>
<trkpt lon="4.267300" lat="47.968690"><ele>247.25</ele></trkpt>
<trkpt lon="4.266786" lat="47.968711"><ele>248.5</ele></trkpt>
<trkpt lon="4.266686" lat="47.968701"><ele>248.75</ele></trkpt>
<trkpt lon="4.266566" lat="47.968674"><ele>249.25</ele></trkpt>
<trkpt lon="4.266481" lat="47.968633"><ele>249.5</ele></trkpt>
<trkpt lon="4.266221" lat="47.968432"><ele>250.25</ele></trkpt>
<trkpt lon="4.265772" lat="47.968060"><ele>251.75</ele></trkpt>
<trkpt lon="4.265488" lat="47.967849"><ele>252.75</ele></trkpt>
<trkpt lon="4.264644" lat="47.967258"><ele>256.25</ele></trkpt>
<trkpt lon="4.264431" lat="47.967090"><ele>256.25</ele></trkpt>
<trkpt lon="4.264456" lat="47.966961"><ele>256.75</ele></trkpt>
<trkpt lon="4.264478" lat="47.966913"><ele>257.25</ele></trkpt>
<trkpt lon="4.264312" lat="47.966806"><ele>257.75</ele></trkpt>
<trkpt lon="4.264121" lat="47.966666"><ele>258.0</ele></trkpt>
<trkpt lon="4.263686" lat="47.966178"><ele>260.5</ele></trkpt>
<trkpt lon="4.263244" lat="47.965638"><ele>263.0</ele></trkpt>
<trkpt lon="4.262718" lat="47.964693"><ele>266.5</ele></trkpt>
<trkpt lon="4.261540" lat="47.964490"><ele>261.0</ele></trkpt>
<trkpt lon="4.260971" lat="47.964274"><ele>258.0</ele></trkpt>
<trkpt lon="4.260392" lat="47.964073"><ele>257.25</ele></trkpt>
<trkpt lon="4.259126" lat="47.963980"><ele>263.75</ele></trkpt>
<trkpt lon="4.258942" lat="47.963972"><ele>264.5</ele></trkpt>
<trkpt lon="4.258145" lat="47.963964"><ele>264.5</ele></trkpt>
<trkpt lon="4.256879" lat="47.964223"><ele>261.25</ele></trkpt>
<trkpt lon="4.255176" lat="47.964146"><ele>256.5</ele></trkpt>
<trkpt lon="4.254969" lat="47.964137"><ele>256.0</ele></trkpt>
<trkpt lon="4.252545" lat="47.963978"><ele>251.0</ele></trkpt>
<trkpt lon="4.251450" lat="47.963950"><ele>251.5</ele></trkpt>
<trkpt lon="4.250475" lat="47.963690"><ele>253.0</ele></trkpt>
<trkpt lon="4.250055" lat="47.963650"><ele>252.75</ele></trkpt>
<trkpt lon="4.249412" lat="47.963892"><ele>253.0</ele></trkpt>
<trkpt lon="4.248832" lat="47.963806"><ele>254.5</ele></trkpt>
<trkpt lon="4.248038" lat="47.963533"><ele>256.25</ele></trkpt>
<trkpt lon="4.244906" lat="47.962283"><ele>259.75</ele></trkpt>
<trkpt lon="4.243829" lat="47.962036"><ele>260.25</ele></trkpt>
<trkpt lon="4.242133" lat="47.962122"><ele>261.5</ele></trkpt>
<trkpt lon="4.239322" lat="47.963502"><ele>273.0</ele></trkpt>
<trkpt lon="4.236147" lat="47.964766"><ele>281.25</ele></trkpt>
<trkpt lon="4.234816" lat="47.964953"><ele>284.0</ele></trkpt>
<trkpt lon="4.233572" lat="47.964795"><ele>287.25</ele></trkpt>
<trkpt lon="4.232004" lat="47.964224"><ele>293.0</ele></trkpt>
<trkpt lon="4.229940" lat="47.966415"><ele>307.25</ele></trkpt>
<trkpt lon="4.229275" lat="47.965912"><ele>309.5</ele></trkpt>
<trkpt lon="4.228566" lat="47.965309"><ele>312.25</ele></trkpt>
<trkpt lon="4.228416" lat="47.965158"><ele>312.75</ele></trkpt>
<trkpt lon="4.228180" lat="47.964849"><ele>314.25</ele></trkpt>
<trkpt lon="4.227783" lat="47.964066"><ele>315.5</ele></trkpt>
<trkpt lon="4.227538" lat="47.963707"><ele>316.5</ele></trkpt>
<trkpt lon="4.227204" lat="47.963190"><ele>319.0</ele></trkpt>
<trkpt lon="4.226954" lat="47.962924"><ele>319.75</ele></trkpt>
<trkpt lon="4.226709" lat="47.962804"><ele>320.0</ele></trkpt>
<trkpt lon="4.226486" lat="47.962705"><ele>320.0</ele></trkpt>
<trkpt lon="4.226313" lat="47.962653"><ele>320.0</ele></trkpt>
<trkpt lon="4.225635" lat="47.964771"><ele>320.75</ele></trkpt>
<trkpt lon="4.224843" lat="47.964668"><ele>319.25</ele></trkpt>
<trkpt lon="4.224562" lat="47.964653"><ele>318.5</ele></trkpt>
<trkpt lon="4.223666" lat="47.964645"><ele>316.0</ele></trkpt>
<trkpt lon="4.222841" lat="47.964585"><ele>313.25</ele></trkpt>
<trkpt lon="4.221029" lat="47.964387"><ele>305.5</ele></trkpt>
<trkpt lon="4.220685" lat="47.964317"><ele>304.25</ele></trkpt>
<trkpt lon="4.219803" lat="47.964053"><ele>299.75</ele></trkpt>
<trkpt lon="4.219486" lat="47.963977"><ele>298.0</ele></trkpt>
<trkpt lon="4.219109" lat="47.963907"><ele>295.0</ele></trkpt>
<trkpt lon="4.218283" lat="47.963807"><ele>288.75</ele></trkpt>
<trkpt lon="4.217936" lat="47.963762"><ele>286.75</ele></trkpt>
<trkpt lon="4.217106" lat="47.963596"><ele>281.25</ele></trkpt>
<trkpt lon="4.216766" lat="47.963513"><ele>279.5</ele></trkpt>
<trkpt lon="4.215282" lat="47.963039"><ele>268.75</ele></trkpt>
<trkpt lon="4.214716" lat="47.963053"><ele>265.75</ele></trkpt>
<trkpt lon="4.214390" lat="47.963074"><ele>264.5</ele></trkpt>
<trkpt lon="4.212379" lat="47.963163"><ele>260.0</ele></trkpt>
<trkpt lon="4.212130" lat="47.963161"><ele>260.75</ele></trkpt>
<trkpt lon="4.211797" lat="47.963147"><ele>262.0</ele></trkpt>
<trkpt lon="4.211529" lat="47.963103"><ele>263.25</ele></trkpt>
<trkpt lon="4.210553" lat="47.962874"><ele>266.0</ele></trkpt>
<trkpt lon="4.209158" lat="47.962500"><ele>267.0</ele></trkpt>
<trkpt lon="4.208901" lat="47.962414"><ele>267.5</ele></trkpt>
<trkpt lon="4.208632" lat="47.962313"><ele>268.0</ele></trkpt>
<trkpt lon="4.207998" lat="47.961990"><ele>268.75</ele></trkpt>
<trkpt lon="4.205665" lat="47.964275"><ele>291.5</ele></trkpt>
<trkpt lon="4.205072" lat="47.965692"><ele>294.0</ele></trkpt>
<trkpt lon="4.204608" lat="47.966854"><ele>301.0</ele></trkpt>
<trkpt lon="4.203143" lat="47.966399"><ele>305.5</ele></trkpt>
<trkpt lon="4.202233" lat="47.965827"><ele>306.75</ele></trkpt>
<trkpt lon="4.201783" lat="47.965526"><ele>305.75</ele></trkpt>
<trkpt lon="4.201727" lat="47.965478"><ele>305.5</ele></trkpt>
<trkpt lon="4.201476" lat="47.965269"><ele>304.75</ele></trkpt>
<trkpt lon="4.200709" lat="47.964512"><ele>300.25</ele></trkpt>
<trkpt lon="4.199816" lat="47.963550"><ele>293.5</ele></trkpt>
<trkpt lon="4.199558" lat="47.963202"><ele>295.75</ele></trkpt>
<trkpt lon="4.199497" lat="47.963135"><ele>296.75</ele></trkpt>
<trkpt lon="4.198654" lat="47.962239"><ele>301.0</ele></trkpt>
<trkpt lon="4.198182" lat="47.961850"><ele>301.0</ele></trkpt>
<trkpt lon="4.197826" lat="47.961589"><ele>300.25</ele></trkpt>
<trkpt lon="4.197722" lat="47.961512"><ele>299.75</ele></trkpt>
<trkpt lon="4.196702" lat="47.960822"><ele>299.5</ele></trkpt>
<trkpt lon="4.196219" lat="47.960315"><ele>300.25</ele></trkpt>
<trkpt lon="4.195796" lat="47.959716"><ele>301.0</ele></trkpt>
<trkpt lon="4.195818" lat="47.959824"><ele>301.25</ele></trkpt>
<trkpt lon="4.195775" lat="47.959876"><ele>301.75</ele></trkpt>
<trkpt lon="4.195606" lat="47.959894"><ele>302.25</ele></trkpt>
<trkpt lon="4.190274" lat="47.960211"><ele>315.75</ele></trkpt>
<trkpt lon="4.190286" lat="47.960237"><ele>315.75</ele></trkpt>
<trkpt lon="4.189805" lat="47.960069"><ele>315.25</ele></trkpt>
<trkpt lon="4.189007" lat="47.959815"><ele>314.5</ele></trkpt>
<trkpt lon="4.188915" lat="47.959786"><ele>314.25</ele></trkpt>
<trkpt lon="4.188236" lat="47.959639"><ele>314.5</ele></trkpt>
<trkpt lon="4.185294" lat="47.959293"><ele>319.25</ele></trkpt>
<trkpt lon="4.185046" lat="47.959193"><ele>319.0</ele></trkpt>
<trkpt lon="4.183962" lat="47.958802"><ele>319.0</ele></trkpt>
<trkpt lon="4.184266" lat="47.958606"><ele>319.75</ele></trkpt>
<trkpt lon="4.183536" lat="47.958285"><ele>319.75</ele></trkpt>
<trkpt lon="4.182562" lat="47.957755"><ele>319.25</ele></trkpt>
<trkpt lon="4.182338" lat="47.958430"><ele>316.0</ele></trkpt>
<trkpt lon="4.181785" lat="47.960631"><ele>311.25</ele></trkpt>
<trkpt lon="4.179449" lat="47.960468"><ele>304.0</ele></trkpt>
<trkpt lon="4.177429" lat="47.960286"><ele>297.75</ele></trkpt>
<trkpt lon="4.176270" lat="47.960984"><ele>294.25</ele></trkpt>
<trkpt lon="4.175351" lat="47.961755"><ele>290.0</ele></trkpt>
<trkpt lon="4.174905" lat="47.962324"><ele>288.0</ele></trkpt>
<trkpt lon="4.174246" lat="47.963188"><ele>283.75</ele></trkpt>
<trkpt lon="4.174126" lat="47.963066"><ele>284.0</ele></trkpt>
<trkpt lon="4.172707" lat="47.960657"><ele>302.25</ele></trkpt>
<trkpt lon="4.172245" lat="47.959837"><ele>307.0</ele></trkpt>
<trkpt lon="4.172149" lat="47.959681"><ele>308.25</ele></trkpt>
<trkpt lon="4.172097" lat="47.959502"><ele>309.5</ele></trkpt>
<trkpt lon="4.167799" lat="47.960101"><ele>301.0</ele></trkpt>
<trkpt lon="4.167497" lat="47.960128"><ele>300.25</ele></trkpt>
<trkpt lon="4.167224" lat="47.960138"><ele>299.75</ele></trkpt>
<trkpt lon="4.166937" lat="47.960127"><ele>299.75</ele></trkpt>
<trkpt lon="4.166092" lat="47.960019"><ele>300.0</ele></trkpt>
<trkpt lon="4.165547" lat="47.959987"><ele>299.75</ele></trkpt>
<trkpt lon="4.162318" lat="47.960317"><ele>305.0</ele></trkpt>
<trkpt lon="4.161272" lat="47.960366"><ele>304.0</ele></trkpt>
<trkpt lon="4.159884" lat="47.960400"><ele>300.5</ele></trkpt>
<trkpt lon="4.159543" lat="47.960403"><ele>299.25</ele></trkpt>
<trkpt lon="4.159205" lat="47.960461"><ele>298.0</ele></trkpt>
<trkpt lon="4.158402" lat="47.960614"><ele>295.75</ele></trkpt>
<trkpt lon="4.158212" lat="47.960640"><ele>295.75</ele></trkpt>
<trkpt lon="4.157900" lat="47.960628"><ele>296.0</ele></trkpt>
<trkpt lon="4.157779" lat="47.960614"><ele>296.25</ele></trkpt>
<trkpt lon="4.156675" lat="47.960541"><ele>298.75</ele></trkpt>
<trkpt lon="4.155463" lat="47.960394"><ele>302.0</ele></trkpt>
<trkpt lon="4.155377" lat="47.960394"><ele>302.0</ele></trkpt>
<trkpt lon="4.154945" lat="47.960389"><ele>302.75</ele></trkpt>
<trkpt lon="4.154158" lat="47.960437"><ele>303.5</ele></trkpt>
<trkpt lon="4.152078" lat="47.960627"><ele>298.25</ele></trkpt>
<trkpt lon="4.150715" lat="47.960579"><ele>292.0</ele></trkpt>
<trkpt lon="4.149923" lat="47.960514"><ele>290.25</ele></trkpt>
<trkpt lon="4.147720" lat="47.959529"><ele>283.0</ele></trkpt>
<trkpt lon="4.146164" lat="47.958803"><ele>278.75</ele></trkpt>
<trkpt lon="4.145531" lat="47.958487"><ele>278.25</ele></trkpt>
<trkpt lon="4.144458" lat="47.958300"><ele>280.5</ele></trkpt>
<trkpt lon="4.142463" lat="47.957567"><ele>274.25</ele></trkpt>
<trkpt lon="4.141459" lat="47.957337"><ele>267.0</ele></trkpt>
<trkpt lon="4.140660" lat="47.957064"><ele>260.5</ele></trkpt>
<trkpt lon="4.139859" lat="47.956722"><ele>253.0</ele></trkpt>
<trkpt lon="4.138994" lat="47.956591"><ele>246.5</ele></trkpt>
<trkpt lon="4.138529" lat="47.956642"><ele>242.75</ele></trkpt>
<trkpt lon="4.137545" lat="47.956693"><ele>231.75</ele></trkpt>
<trkpt lon="4.136593" lat="47.956229"><ele>219.75</ele></trkpt>
<trkpt lon="4.136356" lat="47.956135"><ele>217.0</ele></trkpt>
<trkpt lon="4.135845" lat="47.956118"><ele>215.0</ele></trkpt>
<trkpt lon="4.135431" lat="47.956210"><ele>213.75</ele></trkpt>
<trkpt lon="4.134725" lat="47.956405"><ele>213.25</ele></trkpt>
<trkpt lon="4.133998" lat="47.956639"><ele>214.75</ele></trkpt>
<trkpt lon="4.133270" lat="47.956897"><ele>214.75</ele></trkpt>
<trkpt lon="4.132706" lat="47.957071"><ele>214.0</ele></trkpt>
<trkpt lon="4.132258" lat="47.957219"><ele>213.0</ele></trkpt>
<trkpt lon="4.131826" lat="47.957407"><ele>211.75</ele></trkpt>
<trkpt lon="4.131419" lat="47.957550"><ele>209.5</ele></trkpt>
<trkpt lon="4.131199" lat="47.957008"><ele>206.0</ele></trkpt>
<trkpt lon="4.131080" lat="47.957040"><ele>206.0</ele></trkpt>
<trkpt lon="4.130948" lat="47.957085"><ele>206.0</ele></trkpt>
<trkpt lon="4.130894" lat="47.956958"><ele>205.75</ele></trkpt>
<trkpt lon="4.130811" lat="47.956841"><ele>206.0</ele></trkpt>
<trkpt lon="4.130759" lat="47.956776"><ele>206.0</ele></trkpt>
<trkpt lon="4.130737" lat="47.956752"><ele>206.0</ele></trkpt>
<trkpt lon="4.130373" lat="47.956819"><ele>205.5</ele></trkpt>
<trkpt lon="4.130016" lat="47.956866"><ele>205.0</ele></trkpt>
<trkpt lon="4.129924" lat="47.956869"><ele>205.0</ele></trkpt>
<trkpt lon="4.129331" lat="47.956850"><ele>205.0</ele></trkpt>
<trkpt lon="4.129124" lat="47.956827"><ele>205.0</ele></trkpt>
<trkpt lon="4.128476" lat="47.956949"><ele>205.0</ele></trkpt>
<trkpt lon="4.127713" lat="47.957034"><ele>204.5</ele></trkpt>
<trkpt lon="4.127494" lat="47.957101"><ele>204.25</ele></trkpt>
<trkpt lon="4.127356" lat="47.957171"><ele>204.5</ele></trkpt>
<trkpt lon="4.127254" lat="47.957188"><ele>204.75</ele></trkpt>
<trkpt lon="4.127256" lat="47.957367"><ele>204.25</ele></trkpt>
<trkpt lon="4.127229" lat="47.957488"><ele>204.0</ele></trkpt>
<trkpt lon="4.127163" lat="47.957641"><ele>204.0</ele></trkpt>
<trkpt lon="4.126964" lat="47.957596"><ele>204.75</ele></trkpt>
<trkpt lon="4.126689" lat="47.957483"><ele>204.75</ele></trkpt>
<trkpt lon="4.126374" lat="47.957410"><ele>205.25</ele></trkpt>
<trkpt lon="4.125628" lat="47.957357"><ele>208.0</ele></trkpt>
<trkpt lon="4.125511" lat="47.957341"><ele>208.75</ele></trkpt>
<trkpt lon="4.124529" lat="47.957273"><ele>216.5</ele></trkpt>
<trkpt lon="4.123838" lat="47.957305"><ele>223.5</ele></trkpt>
<trkpt lon="4.123547" lat="47.957290"><ele>227.0</ele></trkpt>
<trkpt lon="4.122325" lat="47.957255"><ele>240.5</ele></trkpt>
<trkpt lon="4.121705" lat="47.957251"><ele>245.5</ele></trkpt>
<trkpt lon="4.121048" lat="47.957155"><ele>251.0</ele></trkpt>
<trkpt lon="4.120796" lat="47.957109"><ele>252.0</ele></trkpt>
<trkpt lon="4.120729" lat="47.957036"><ele>252.5</ele></trkpt>
<trkpt lon="4.120737" lat="47.956716"><ele>252.25</ele></trkpt>
<trkpt lon="4.120635" lat="47.956650"><ele>252.5</ele></trkpt>
<trkpt lon="4.119246" lat="47.956530"><ele>253.75</ele></trkpt>
<trkpt lon="4.117912" lat="47.956271"><ele>256.0</ele></trkpt>
<trkpt lon="4.116402" lat="47.955631"><ele>256.5</ele></trkpt>
<trkpt lon="4.116124" lat="47.955469"><ele>255.75</ele></trkpt>
<trkpt lon="4.115351" lat="47.955021"><ele>256.5</ele></trkpt>
<trkpt lon="4.114321" lat="47.954518"><ele>257.0</ele></trkpt>
<trkpt lon="4.113023" lat="47.953972"><ele>259.75</ele></trkpt>
<trkpt lon="4.112036" lat="47.953231"><ele>259.0</ele></trkpt>
<trkpt lon="4.111167" lat="47.952644"><ele>261.0</ele></trkpt>
<trkpt lon="4.108343" lat="47.951097"><ele>282.75</ele></trkpt>
<trkpt lon="4.109628" lat="47.950107"><ele>284.0</ele></trkpt>
<trkpt lon="4.109820" lat="47.949949"><ele>285.0</ele></trkpt>
<trkpt lon="4.109952" lat="47.949867"><ele>285.0</ele></trkpt>
<trkpt lon="4.110078" lat="47.949799"><ele>285.0</ele></trkpt>
<trkpt lon="4.110214" lat="47.949739"><ele>285.5</ele></trkpt>
<trkpt lon="4.110512" lat="47.949649"><ele>286.25</ele></trkpt>
<trkpt lon="4.110672" lat="47.949616"><ele>286.25</ele></trkpt>
<trkpt lon="4.110838" lat="47.949593"><ele>286.25</ele></trkpt>
<trkpt lon="4.111032" lat="47.949581"><ele>286.75</ele></trkpt>
<trkpt lon="4.110448" lat="47.949481"><ele>286.75</ele></trkpt>
<trkpt lon="4.110192" lat="47.949413"><ele>286.5</ele></trkpt>
<trkpt lon="4.106488" lat="47.948070"><ele>273.25</ele></trkpt>
<trkpt lon="4.104953" lat="47.947499"><ele>263.75</ele></trkpt>
<trkpt lon="4.104432" lat="47.947321"><ele>261.25</ele></trkpt>
<trkpt lon="4.103490" lat="47.947056"><ele>255.75</ele></trkpt>
<trkpt lon="4.103284" lat="47.946985"><ele>253.5</ele></trkpt>
<trkpt lon="4.103168" lat="47.946929"><ele>252.25</ele></trkpt>
<trkpt lon="4.103076" lat="47.946874"><ele>251.5</ele></trkpt>
<trkpt lon="4.102967" lat="47.946794"><ele>251.0</ele></trkpt>
<trkpt lon="4.102714" lat="47.946571"><ele>247.25</ele></trkpt>
<trkpt lon="4.102573" lat="47.946485"><ele>246.5</ele></trkpt>
<trkpt lon="4.101719" lat="47.945915"><ele>248.75</ele></trkpt>
<trkpt lon="4.100974" lat="47.945337"><ele>253.25</ele></trkpt>
<trkpt lon="4.100785" lat="47.945220"><ele>254.5</ele></trkpt>
<trkpt lon="4.100301" lat="47.944974"><ele>257.0</ele></trkpt>
<trkpt lon="4.100116" lat="47.944842"><ele>257.25</ele></trkpt>
<trkpt lon="4.099958" lat="47.944654"><ele>258.5</ele></trkpt>
<trkpt lon="4.099757" lat="47.944339"><ele>260.25</ele></trkpt>
<trkpt lon="4.099566" lat="47.944105"><ele>261.0</ele></trkpt>
<trkpt lon="4.099067" lat="47.943578"><ele>262.75</ele></trkpt>
<trkpt lon="4.098887" lat="47.943405"><ele>263.25</ele></trkpt>
<trkpt lon="4.098457" lat="47.943122"><ele>263.25</ele></trkpt>
<trkpt lon="4.097772" lat="47.942715"><ele>266.25</ele></trkpt>
<trkpt lon="4.097575" lat="47.942560"><ele>267.5</ele></trkpt>
<trkpt lon="4.097450" lat="47.942418"><ele>268.25</ele></trkpt>
<trkpt lon="4.097344" lat="47.942278"><ele>269.25</ele></trkpt>
<trkpt lon="4.097204" lat="47.941984"><ele>270.75</ele></trkpt>
<trkpt lon="4.097133" lat="47.941872"><ele>271.0</ele></trkpt>
<trkpt lon="4.096148" lat="47.940739"><ele>276.5</ele></trkpt>
<trkpt lon="4.095362" lat="47.939865"><ele>283.25</ele></trkpt>
<trkpt lon="4.094569" lat="47.938951"><ele>291.5</ele></trkpt>
<trkpt lon="4.094486" lat="47.939004"><ele>291.5</ele></trkpt>
<trkpt lon="4.094360" lat="47.939066"><ele>291.25</ele></trkpt>
<trkpt lon="4.092875" lat="47.939575"><ele>290.25</ele></trkpt>
<trkpt lon="4.092744" lat="47.939640"><ele>290.25</ele></trkpt>
<trkpt lon="4.092685" lat="47.939693"><ele>290.25</ele></trkpt>
<trkpt lon="4.092651" lat="47.939757"><ele>290.25</ele></trkpt>
<trkpt lon="4.092646" lat="47.939834"><ele>290.0</ele></trkpt>
<trkpt lon="4.092690" lat="47.940421"><ele>288.5</ele></trkpt>
<trkpt lon="4.092733" lat="47.941571"><ele>287.0</ele></trkpt>
<trkpt lon="4.088116" lat="47.942510"><ele>283.0</ele></trkpt>
<trkpt lon="4.087806" lat="47.940629"><ele>279.25</ele></trkpt>
<trkpt lon="4.087764" lat="47.940068"><ele>276.0</ele></trkpt>
<trkpt lon="4.087635" lat="47.939737"><ele>275.75</ele></trkpt>
<trkpt lon="4.086540" lat="47.937366"><ele>282.5</ele></trkpt>
<trkpt lon="4.083140" lat="47.929886"><ele>288.5</ele></trkpt>
<trkpt lon="4.081298" lat="47.925856"><ele>296.25</ele></trkpt>
<trkpt lon="4.081031" lat="47.925281"><ele>295.0</ele></trkpt>
<trkpt lon="4.080823" lat="47.924892"><ele>293.0</ele></trkpt>
<trkpt lon="4.080520" lat="47.924339"><ele>290.5</ele></trkpt>
<trkpt lon="4.080379" lat="47.924159"><ele>290.5</ele></trkpt>
<trkpt lon="4.079714" lat="47.923517"><ele>288.5</ele></trkpt>
<trkpt lon="4.079595" lat="47.923336"><ele>288.0</ele></trkpt>
<trkpt lon="4.079478" lat="47.922768"><ele>283.75</ele></trkpt>
<trkpt lon="4.079420" lat="47.922548"><ele>282.25</ele></trkpt>
<trkpt lon="4.079390" lat="47.922357"><ele>280.75</ele></trkpt>
<trkpt lon="4.079413" lat="47.922215"><ele>279.75</ele></trkpt>
<trkpt lon="4.079606" lat="47.921822"><ele>277.75</ele></trkpt>
<trkpt lon="4.079650" lat="47.921594"><ele>275.75</ele></trkpt>
<trkpt lon="4.079606" lat="47.921244"><ele>272.25</ele></trkpt>
<trkpt lon="4.079554" lat="47.921054"><ele>270.25</ele></trkpt>
<trkpt lon="4.079430" lat="47.920771"><ele>267.5</ele></trkpt>
<trkpt lon="4.079158" lat="47.920290"><ele>263.0</ele></trkpt>
<trkpt lon="4.078704" lat="47.919548"><ele>258.5</ele></trkpt>
<trkpt lon="4.078653" lat="47.919414"><ele>257.25</ele></trkpt>
<trkpt lon="4.078547" lat="47.919076"><ele>252.0</ele></trkpt>
<trkpt lon="4.078356" lat="47.918357"><ele>242.5</ele></trkpt>
<trkpt lon="4.078297" lat="47.918130"><ele>240.25</ele></trkpt>
<trkpt lon="4.078288" lat="47.918097"><ele>239.75</ele></trkpt>
<trkpt lon="4.078248" lat="47.917951"><ele>238.5</ele></trkpt>
<trkpt lon="4.078153" lat="47.917738"><ele>235.5</ele></trkpt>
<trkpt lon="4.078082" lat="47.917612"><ele>233.75</ele></trkpt>
<trkpt lon="4.077891" lat="47.917272"><ele>230.75</ele></trkpt>
<trkpt lon="4.077592" lat="47.916727"><ele>228.25</ele></trkpt>
<trkpt lon="4.077515" lat="47.916667"><ele>228.0</ele></trkpt>
<trkpt lon="4.077433" lat="47.916684"><ele>228.0</ele></trkpt>
<trkpt lon="4.077326" lat="47.916705"><ele>228.0</ele></trkpt>
<trkpt lon="4.076700" lat="47.916606"><ele>226.25</ele></trkpt>
<trkpt lon="4.075806" lat="47.916449"><ele>229.25</ele></trkpt>
<trkpt lon="4.074868" lat="47.916279"><ele>230.25</ele></trkpt>
<trkpt lon="4.074614" lat="47.916254"><ele>229.75</ele></trkpt>
<trkpt lon="4.074491" lat="47.916241"><ele>229.25</ele></trkpt>
<trkpt lon="4.074418" lat="47.916234"><ele>229.0</ele></trkpt>
<trkpt lon="4.074116" lat="47.916236"><ele>228.0</ele></trkpt>
<trkpt lon="4.073737" lat="47.916275"><ele>227.75</ele></trkpt>
<trkpt lon="4.072966" lat="47.916445"><ele>227.25</ele></trkpt>
<trkpt lon="4.071985" lat="47.916644"><ele>224.75</ele></trkpt>
<trkpt lon="4.071434" lat="47.916732"><ele>224.25</ele></trkpt>
<trkpt lon="4.070401" lat="47.916769"><ele>224.25</ele></trkpt>
<trkpt lon="4.069615" lat="47.916812"><ele>224.75</ele></trkpt>
<trkpt lon="4.068362" lat="47.916949"><ele>225.0</ele></trkpt>
<trkpt lon="4.067927" lat="47.917004"><ele>225.75</ele></trkpt>
<trkpt lon="4.066617" lat="47.917068"><ele>227.75</ele></trkpt>
<trkpt lon="4.066520" lat="47.917031"><ele>227.25</ele></trkpt>
<trkpt lon="4.066227" lat="47.916851"><ele>227.0</ele></trkpt>
<trkpt lon="4.066064" lat="47.916772"><ele>226.75</ele></trkpt>
<trkpt lon="4.066122" lat="47.916648"><ele>227.0</ele></trkpt>
<trkpt lon="4.066093" lat="47.916341"><ele>228.25</ele></trkpt>
<trkpt lon="4.065996" lat="47.916323"><ele>228.25</ele></trkpt>
<trkpt lon="4.065822" lat="47.916318"><ele>228.25</ele></trkpt>
<trkpt lon="4.065579" lat="47.916261"><ele>229.25</ele></trkpt>
<trkpt lon="4.065407" lat="47.916190"><ele>230.0</ele></trkpt>
<trkpt lon="4.065326" lat="47.916132"><ele>230.75</ele></trkpt>
<trkpt lon="4.065317" lat="47.916083"><ele>231.5</ele></trkpt>
<trkpt lon="4.065355" lat="47.916039"><ele>232.25</ele></trkpt>
<trkpt lon="4.065113" lat="47.916068"><ele>232.75</ele></trkpt>
<trkpt lon="4.064340" lat="47.916383"><ele>233.0</ele></trkpt>
<trkpt lon="4.064125" lat="47.916456"><ele>233.75</ele></trkpt>
<trkpt lon="4.063883" lat="47.916505"><ele>232.75</ele></trkpt>
<trkpt lon="4.063844" lat="47.916529"><ele>232.25</ele></trkpt>
<trkpt lon="4.063795" lat="47.916522"><ele>232.5</ele></trkpt>
<trkpt lon="4.063726" lat="47.916528"><ele>232.25</ele></trkpt>
<trkpt lon="4.063511" lat="47.916559"><ele>232.0</ele></trkpt>
<trkpt lon="4.063328" lat="47.916574"><ele>232.0</ele></trkpt>
<trkpt lon="4.063164" lat="47.916575"><ele>232.0</ele></trkpt>
<trkpt lon="4.062989" lat="47.916553"><ele>232.25</ele></trkpt>
<trkpt lon="4.062571" lat="47.916480"><ele>232.5</ele></trkpt>
<trkpt lon="4.061983" lat="47.916393"><ele>232.0</ele></trkpt>
<trkpt lon="4.060740" lat="47.916274"><ele>232.75</ele></trkpt>
<trkpt lon="4.060075" lat="47.916255"><ele>232.75</ele></trkpt>
<trkpt lon="4.059593" lat="47.916300"><ele>232.75</ele></trkpt>
<trkpt lon="4.059143" lat="47.916360"><ele>233.0</ele></trkpt>
<trkpt lon="4.058532" lat="47.916392"><ele>233.25</ele></trkpt>
<trkpt lon="4.058114" lat="47.916207"><ele>234.0</ele></trkpt>
<trkpt lon="4.057181" lat="47.915751"><ele>234.75</ele></trkpt>
<trkpt lon="4.056516" lat="47.915178"><ele>237.0</ele></trkpt>
<trkpt lon="4.056073" lat="47.914659"><ele>237.25</ele></trkpt>
<trkpt lon="4.055836" lat="47.913811"><ele>238.5</ele></trkpt>
<trkpt lon="4.055504" lat="47.913281"><ele>239.75</ele></trkpt>
<trkpt lon="4.055109" lat="47.912348"><ele>242.25</ele></trkpt>
<trkpt lon="4.054854" lat="47.911723"><ele>243.75</ele></trkpt>
<trkpt lon="4.054374" lat="47.911164"><ele>246.0</ele></trkpt>
<trkpt lon="4.053645" lat="47.910751"><ele>248.25</ele></trkpt>
<trkpt lon="4.052040" lat="47.910134"><ele>253.5</ele></trkpt>
<trkpt lon="4.051829" lat="47.909979"><ele>253.0</ele></trkpt>
<trkpt lon="4.051740" lat="47.909852"><ele>253.25</ele></trkpt>
<trkpt lon="4.051622" lat="47.909581"><ele>253.25</ele></trkpt>
<trkpt lon="4.051474" lat="47.909368"><ele>256.0</ele></trkpt>
<trkpt lon="4.051042" lat="47.908956"><ele>266.25</ele></trkpt>
<trkpt lon="4.050907" lat="47.908428"><ele>273.5</ele></trkpt>
<trkpt lon="4.050331" lat="47.907945"><ele>279.5</ele></trkpt>
<trkpt lon="4.049385" lat="47.907629"><ele>284.0</ele></trkpt>
<trkpt lon="4.045590" lat="47.906535"><ele>299.25</ele></trkpt>
<trkpt lon="4.044955" lat="47.906379"><ele>301.0</ele></trkpt>
<trkpt lon="4.043503" lat="47.905961"><ele>304.0</ele></trkpt>
<trkpt lon="4.042151" lat="47.905593"><ele>307.25</ele></trkpt>
<trkpt lon="4.040633" lat="47.905047"><ele>309.75</ele></trkpt>
<trkpt lon="4.039493" lat="47.904651"><ele>311.5</ele></trkpt>
<trkpt lon="4.039047" lat="47.904434"><ele>311.75</ele></trkpt>
<trkpt lon="4.038824" lat="47.904226"><ele>312.0</ele></trkpt>
<trkpt lon="4.037725" lat="47.903205"><ele>312.0</ele></trkpt>
<trkpt lon="4.036263" lat="47.901867"><ele>314.25</ele></trkpt>
<trkpt lon="4.036066" lat="47.901675"><ele>314.75</ele></trkpt>
<trkpt lon="4.035799" lat="47.901650"><ele>315.0</ele></trkpt>
<trkpt lon="4.031841" lat="47.901357"><ele>310.0</ele></trkpt>
<trkpt lon="4.030096" lat="47.901198"><ele>308.0</ele></trkpt>
<trkpt lon="4.028982" lat="47.901096"><ele>307.75</ele></trkpt>
<trkpt lon="4.028865" lat="47.901027"><ele>307.5</ele></trkpt>
<trkpt lon="4.028761" lat="47.900954"><ele>307.25</ele></trkpt>
<trkpt lon="4.026267" lat="47.900281"><ele>306.0</ele></trkpt>
<trkpt lon="4.024592" lat="47.899870"><ele>303.25</ele></trkpt>
<trkpt lon="4.023472" lat="47.899587"><ele>302.25</ele></trkpt>
<trkpt lon="4.022831" lat="47.899321"><ele>302.25</ele></trkpt>
<trkpt lon="4.020761" lat="47.898351"><ele>302.5</ele></trkpt>
<trkpt lon="4.020460" lat="47.898238"><ele>303.5</ele></trkpt>
<trkpt lon="4.020339" lat="47.898203"><ele>303.75</ele></trkpt>
<trkpt lon="4.020239" lat="47.898173"><ele>303.75</ele></trkpt>
<trkpt lon="4.020157" lat="47.898076"><ele>303.0</ele></trkpt>
<trkpt lon="4.019958" lat="47.897920"><ele>302.0</ele></trkpt>
<trkpt lon="4.019599" lat="47.897735"><ele>301.25</ele></trkpt>
<trkpt lon="4.017131" lat="47.896642"><ele>302.75</ele></trkpt>
<trkpt lon="4.016230" lat="47.896268"><ele>303.25</ele></trkpt>
<trkpt lon="4.015694" lat="47.895707"><ele>303.0</ele></trkpt>
<trkpt lon="4.015157" lat="47.894297"><ele>301.75</ele></trkpt>
<trkpt lon="4.014320" lat="47.893103"><ele>302.5</ele></trkpt>
<trkpt lon="4.013741" lat="47.892455"><ele>303.25</ele></trkpt>
<trkpt lon="4.012503" lat="47.891605"><ele>302.75</ele></trkpt>
<trkpt lon="4.011939" lat="47.891218"><ele>301.75</ele></trkpt>
<trkpt lon="4.009578" lat="47.889880"><ele>299.25</ele></trkpt>
<trkpt lon="4.008019" lat="47.889109"><ele>296.5</ele></trkpt>
<trkpt lon="4.007454" lat="47.888829"><ele>294.5</ele></trkpt>
<trkpt lon="4.006918" lat="47.888628"><ele>293.75</ele></trkpt>
<trkpt lon="4.006701" lat="47.888572"><ele>292.75</ele></trkpt>
<trkpt lon="4.006164" lat="47.887976"><ele>290.0</ele></trkpt>
<trkpt lon="4.006091" lat="47.887987"><ele>290.5</ele></trkpt>
<trkpt lon="4.005960" lat="47.887980"><ele>290.25</ele></trkpt>
<trkpt lon="4.005803" lat="47.887946"><ele>290.25</ele></trkpt>
<trkpt lon="4.005316" lat="47.887505"><ele>289.0</ele></trkpt>
<trkpt lon="4.004726" lat="47.887050"><ele>287.75</ele></trkpt>
<trkpt lon="4.004144" lat="47.886635"><ele>286.75</ele></trkpt>
<trkpt lon="4.003517" lat="47.886220"><ele>285.75</ele></trkpt>
<trkpt lon="4.002513" lat="47.885433"><ele>283.5</ele></trkpt>
<trkpt lon="4.002206" lat="47.885157"><ele>282.0</ele></trkpt>
<trkpt lon="4.002044" lat="47.885010"><ele>281.5</ele></trkpt>
<trkpt lon="4.001524" lat="47.884593"><ele>279.75</ele></trkpt>
<trkpt lon="4.001458" lat="47.884547"><ele>279.75</ele></trkpt>
<trkpt lon="4.000961" lat="47.884196"><ele>279.75</ele></trkpt>
<trkpt lon="4.000434" lat="47.883707"><ele>277.75</ele></trkpt>
<trkpt lon="3.999464" lat="47.882463"><ele>270.25</ele></trkpt>
<trkpt lon="3.998551" lat="47.881653"><ele>266.0</ele></trkpt>
<trkpt lon="3.998060" lat="47.881278"><ele>263.75</ele></trkpt>
<trkpt lon="3.997152" lat="47.880705"><ele>260.0</ele></trkpt>
<trkpt lon="3.996008" lat="47.880022"><ele>251.75</ele></trkpt>
<trkpt lon="3.995843" lat="47.880084"><ele>253.75</ele></trkpt>
<trkpt lon="3.995678" lat="47.880120"><ele>255.25</ele></trkpt>
<trkpt lon="3.995416" lat="47.880164"><ele>257.0</ele></trkpt>
<trkpt lon="3.995058" lat="47.880190"><ele>257.75</ele></trkpt>
<trkpt lon="3.994713" lat="47.880173"><ele>257.75</ele></trkpt>
<trkpt lon="3.994254" lat="47.880180"><ele>257.5</ele></trkpt>
<trkpt lon="3.993497" lat="47.880204"><ele>257.0</ele></trkpt>
<trkpt lon="3.992785" lat="47.880214"><ele>256.0</ele></trkpt>
<trkpt lon="3.992442" lat="47.880251"><ele>255.5</ele></trkpt>
<trkpt lon="3.992142" lat="47.880291"><ele>255.0</ele></trkpt>
<trkpt lon="3.991342" lat="47.880429"><ele>254.25</ele></trkpt>
<trkpt lon="3.990649" lat="47.880556"><ele>252.25</ele></trkpt>
<trkpt lon="3.990436" lat="47.880643"><ele>251.75</ele></trkpt>
<trkpt lon="3.990379" lat="47.880688"><ele>251.75</ele></trkpt>
<trkpt lon="3.989991" lat="47.880980"><ele>251.25</ele></trkpt>
<trkpt lon="3.989574" lat="47.881186"><ele>248.75</ele></trkpt>
<trkpt lon="3.989306" lat="47.881299"><ele>247.0</ele></trkpt>
<trkpt lon="3.989181" lat="47.881162"><ele>246.0</ele></trkpt>
<trkpt lon="3.988912" lat="47.880928"><ele>241.5</ele></trkpt>
<trkpt lon="3.987970" lat="47.880156"><ele>230.25</ele></trkpt>
<trkpt lon="3.987735" lat="47.879949"><ele>226.25</ele></trkpt>
<trkpt lon="3.987478" lat="47.879807"><ele>223.75</ele></trkpt>
<trkpt lon="3.986203" lat="47.879282"><ele>214.5</ele></trkpt>
<trkpt lon="3.985738" lat="47.879134"><ele>212.5</ele></trkpt>
<trkpt lon="3.984699" lat="47.878794"><ele>209.5</ele></trkpt>
<trkpt lon="3.984598" lat="47.878760"><ele>209.0</ele></trkpt>
<trkpt lon="3.984100" lat="47.878535"><ele>207.25</ele></trkpt>
<trkpt lon="3.983591" lat="47.878277"><ele>204.5</ele></trkpt>
<trkpt lon="3.982942" lat="47.877915"><ele>201.75</ele></trkpt>
<trkpt lon="3.982495" lat="47.877607"><ele>198.25</ele></trkpt>
<trkpt lon="3.982017" lat="47.877333"><ele>195.0</ele></trkpt>
<trkpt lon="3.981170" lat="47.876948"><ele>191.0</ele></trkpt>
<trkpt lon="3.980747" lat="47.876733"><ele>188.75</ele></trkpt>
<trkpt lon="3.980312" lat="47.876582"><ele>187.0</ele></trkpt>
<trkpt lon="3.979907" lat="47.876456"><ele>185.5</ele></trkpt>
<trkpt lon="3.979636" lat="47.876482"><ele>184.75</ele></trkpt>
<trkpt lon="3.979401" lat="47.876415"><ele>183.75</ele></trkpt>
<trkpt lon="3.979455" lat="47.876210"><ele>182.5</ele></trkpt>
<trkpt lon="3.979563" lat="47.876060"><ele>181.5</ele></trkpt>
<trkpt lon="3.979671" lat="47.875951"><ele>180.0</ele></trkpt>
<trkpt lon="3.980108" lat="47.875756"><ele>176.25</ele></trkpt>
<trkpt lon="3.980389" lat="47.875656"><ele>173.5</ele></trkpt>
<trkpt lon="3.981101" lat="47.875597"><ele>172.75</ele></trkpt>
<trkpt lon="3.981193" lat="47.875561"><ele>172.25</ele></trkpt>
<trkpt lon="3.981253" lat="47.875490"><ele>172.0</ele></trkpt>
<trkpt lon="3.981327" lat="47.875339"><ele>171.0</ele></trkpt>
<trkpt lon="3.981371" lat="47.875081"><ele>171.5</ele></trkpt>
<trkpt lon="3.981417" lat="47.874878"><ele>172.5</ele></trkpt>
<trkpt lon="3.981430" lat="47.874823"><ele>172.75</ele></trkpt>
<trkpt lon="3.981491" lat="47.874571"><ele>173.75</ele></trkpt>
<trkpt lon="3.981539" lat="47.874180"><ele>176.0</ele></trkpt>
<trkpt lon="3.981547" lat="47.874116"><ele>176.25</ele></trkpt>
<trkpt lon="3.981500" lat="47.874116"><ele>175.75</ele></trkpt>
<trkpt lon="3.981534" lat="47.873801"><ele>177.25</ele></trkpt>
<trkpt lon="3.981508" lat="47.873688"><ele>177.5</ele></trkpt>
<trkpt lon="3.981508" lat="47.873535"><ele>178.0</ele></trkpt>
<trkpt lon="3.981546" lat="47.873358"><ele>178.5</ele></trkpt>
<trkpt lon="3.981615" lat="47.873142"><ele>179.0</ele></trkpt>
<trkpt lon="3.981752" lat="47.872862"><ele>180.5</ele></trkpt>
<trkpt lon="3.981181" lat="47.872762"><ele>176.5</ele></trkpt>
<trkpt lon="3.980832" lat="47.872619"><ele>174.0</ele></trkpt>
<trkpt lon="3.980805" lat="47.872608"><ele>174.0</ele></trkpt>
<trkpt lon="3.980768" lat="47.872595"><ele>174.0</ele></trkpt>
<trkpt lon="3.979779" lat="47.872237"><ele>170.0</ele></trkpt>
<trkpt lon="3.979698" lat="47.872186"><ele>169.5</ele></trkpt>
<trkpt lon="3.979671" lat="47.872114"><ele>169.25</ele></trkpt>
<trkpt lon="3.979639" lat="47.871763"><ele>169.25</ele></trkpt>
<trkpt lon="3.979558" lat="47.871690"><ele>169.25</ele></trkpt>
<trkpt lon="3.979188" lat="47.871489"><ele>168.5</ele></trkpt>
<trkpt lon="3.979150" lat="47.871468"><ele>168.5</ele></trkpt>
<trkpt lon="3.978983" lat="47.871316"><ele>168.25</ele></trkpt>
<trkpt lon="3.978576" lat="47.870834"><ele>166.0</ele></trkpt>
<trkpt lon="3.978354" lat="47.870583"><ele>164.25</ele></trkpt>
<trkpt lon="3.977618" lat="47.869793"><ele>160.25</ele></trkpt>
<trkpt lon="3.977453" lat="47.869594"><ele>159.75</ele></trkpt>
<trkpt lon="3.977312" lat="47.869477"><ele>159.25</ele></trkpt>
<trkpt lon="3.977184" lat="47.869350"><ele>158.5</ele></trkpt>
<trkpt lon="3.976944" lat="47.869090"><ele>156.25</ele></trkpt>
<trkpt lon="3.976921" lat="47.869074"><ele>156.0</ele></trkpt>
<trkpt lon="3.976892" lat="47.869073"><ele>156.0</ele></trkpt>
<trkpt lon="3.976872" lat="47.869087"><ele>156.0</ele></trkpt>
<trkpt lon="3.976853" lat="47.869116"><ele>156.0</ele></trkpt>
<trkpt lon="3.976821" lat="47.869124"><ele>155.75</ele></trkpt>
<trkpt lon="3.976765" lat="47.869084"><ele>155.25</ele></trkpt>
<trkpt lon="3.976869" lat="47.868758"><ele>153.75</ele></trkpt>
<trkpt lon="3.976941" lat="47.868548"><ele>151.5</ele></trkpt>
<trkpt lon="3.977015" lat="47.868154"><ele>149.0</ele></trkpt>
<trkpt lon="3.976965" lat="47.868044"><ele>148.0</ele></trkpt>
<trkpt lon="3.977053" lat="47.868006"><ele>148.75</ele></trkpt>
<trkpt lon="3.977850" lat="47.867736"><ele>152.25</ele></trkpt>
<trkpt lon="3.976972" lat="47.866987"><ele>146.5</ele></trkpt>
<trkpt lon="3.977516" lat="47.866679"><ele>143.25</ele></trkpt>
<trkpt lon="3.977365" lat="47.866546"><ele>140.75</ele></trkpt>
<trkpt lon="3.977192" lat="47.866412"><ele>138.0</ele></trkpt>
<trkpt lon="3.977123" lat="47.866454"><ele>138.25</ele></trkpt>
<trkpt lon="3.976692" lat="47.866125"><ele>137.0</ele></trkpt>
<trkpt lon="3.976640" lat="47.866091"><ele>137.0</ele></trkpt>
<trkpt lon="3.976597" lat="47.866127"><ele>137.0</ele></trkpt>
<trkpt lon="3.976527" lat="47.866114"><ele>137.0</ele></trkpt>
<trkpt lon="3.976504" lat="47.866110"><ele>137.0</ele></trkpt>
<trkpt lon="3.976383" lat="47.866087"><ele>136.75</ele></trkpt>
<trkpt lon="3.976339" lat="47.866079"><ele>136.75</ele></trkpt>
<trkpt lon="3.976296" lat="47.866062"><ele>136.5</ele></trkpt>
<trkpt lon="3.976216" lat="47.865990"><ele>136.25</ele></trkpt>
<trkpt lon="3.975995" lat="47.865795"><ele>136.0</ele></trkpt>
<trkpt lon="3.975928" lat="47.865758"><ele>136.0</ele></trkpt>
<trkpt lon="3.975847" lat="47.865751"><ele>136.0</ele></trkpt>
<trkpt lon="3.975708" lat="47.865816"><ele>136.25</ele></trkpt>
<trkpt lon="3.975523" lat="47.865902"><ele>136.5</ele></trkpt>
<trkpt lon="3.975481" lat="47.865922"><ele>136.25</ele></trkpt>
<trkpt lon="3.975381" lat="47.865776"><ele>136.25</ele></trkpt>
<trkpt lon="3.975322" lat="47.865695"><ele>136.0</ele></trkpt>
<trkpt lon="3.975284" lat="47.865645"><ele>136.0</ele></trkpt>
<trkpt lon="3.975193" lat="47.865533"><ele>135.5</ele></trkpt>
<trkpt lon="3.975153" lat="47.865487"><ele>135.5</ele></trkpt>
<trkpt lon="3.975062" lat="47.865351"><ele>135.75</ele></trkpt>
<trkpt lon="3.974620" lat="47.864782"><ele>135.75</ele></trkpt>
<trkpt lon="3.974575" lat="47.864716"><ele>136.0</ele></trkpt>
<trkpt lon="3.974377" lat="47.864428"><ele>135.75</ele></trkpt>
<trkpt lon="3.974299" lat="47.864318"><ele>135.25</ele></trkpt>
<trkpt lon="3.974249" lat="47.864258"><ele>134.75</ele></trkpt>
<trkpt lon="3.973951" lat="47.863869"><ele>135.5</ele></trkpt>
<trkpt lon="3.973762" lat="47.863619"><ele>135.25</ele></trkpt>
<trkpt lon="3.973632" lat="47.863445"><ele>135.75</ele></trkpt>
<trkpt lon="3.973570" lat="47.863363"><ele>136.0</ele></trkpt>
<trkpt lon="3.973428" lat="47.863171"><ele>136.0</ele></trkpt>
<trkpt lon="3.973399" lat="47.863131"><ele>136.0</ele></trkpt>
<trkpt lon="3.973368" lat="47.863089"><ele>136.0</ele></trkpt>
<trkpt lon="3.973178" lat="47.862830"><ele>135.75</ele></trkpt>
<trkpt lon="3.973144" lat="47.862841"><ele>135.75</ele></trkpt>
<trkpt lon="3.972382" lat="47.863088"><ele>135.0</ele></trkpt>
<trkpt lon="3.972044" lat="47.862628"><ele>135.0</ele></trkpt>
<trkpt lon="3.971751" lat="47.862246"><ele>135.75</ele></trkpt>
<trkpt lon="3.971218" lat="47.861549"><ele>135.0</ele></trkpt>
<trkpt lon="3.971186" lat="47.861499"><ele>135.0</ele></trkpt>
<trkpt lon="3.971931" lat="47.861231"><ele>135.75</ele></trkpt>
<trkpt lon="3.971981" lat="47.861212"><ele>135.75</ele></trkpt>
<trkpt lon="3.971942" lat="47.861159"><ele>135.75</ele></trkpt>
<trkpt lon="3.971586" lat="47.860779"><ele>135.75</ele></trkpt>
<trkpt lon="3.971551" lat="47.860741"><ele>135.75</ele></trkpt>
<trkpt lon="3.971466" lat="47.860711"><ele>135.75</ele></trkpt>
<trkpt lon="3.971394" lat="47.860702"><ele>135.75</ele></trkpt>
<trkpt lon="3.971344" lat="47.860705"><ele>136.0</ele></trkpt>
<trkpt lon="3.971184" lat="47.860698"><ele>136.25</ele></trkpt>
<trkpt lon="3.971118" lat="47.860685"><ele>136.5</ele></trkpt>
<trkpt lon="3.970897" lat="47.860606"><ele>136.0</ele></trkpt>
<trkpt lon="3.970644" lat="47.860480"><ele>136.75</ele></trkpt>
<trkpt lon="3.970696" lat="47.860462"><ele>136.5</ele></trkpt>
<trkpt lon="3.970723" lat="47.860446"><ele>136.5</ele></trkpt>
<trkpt lon="3.970742" lat="47.860428"><ele>136.5</ele></trkpt>
<trkpt lon="3.970775" lat="47.860372"><ele>136.5</ele></trkpt>
<trkpt lon="3.970812" lat="47.860370"><ele>136.5</ele></trkpt>
<trkpt lon="3.970845" lat="47.860359"><ele>136.5</ele></trkpt>
<trkpt lon="3.971347" lat="47.860127"><ele>136.25</ele></trkpt>
<trkpt lon="3.971413" lat="47.860089"><ele>136.25</ele></trkpt>
<trkpt lon="3.971485" lat="47.860024"><ele>136.0</ele></trkpt>
<trkpt lon="3.971612" lat="47.860056"><ele>136.25</ele></trkpt>
<trkpt lon="3.971694" lat="47.860017"><ele>136.0</ele></trkpt>
<trkpt lon="3.972713" lat="47.859523"><ele>136.25</ele></trkpt>
<trkpt lon="3.972970" lat="47.859423"><ele>136.0</ele></trkpt>
<trkpt lon="3.972929" lat="47.859368"><ele>136.0</ele></trkpt>
<trkpt lon="3.973182" lat="47.859244"><ele>136.0</ele></trkpt>
<trkpt lon="3.973625" lat="47.858925"><ele>136.0</ele></trkpt>
<trkpt lon="3.973561" lat="47.858751"><ele>136.0</ele></trkpt>
<trkpt lon="3.973451" lat="47.858561"><ele>136.0</ele></trkpt>
<trkpt lon="3.973578" lat="47.858464"><ele>136.0</ele></trkpt>
<trkpt lon="3.973535" lat="47.858373"><ele>136.0</ele></trkpt>
<trkpt lon="3.973502" lat="47.858342"><ele>136.0</ele></trkpt>
<trkpt lon="3.973443" lat="47.858276"><ele>136.0</ele></trkpt>
<trkpt lon="3.973314" lat="47.858323"><ele>136.0</ele></trkpt>
<trkpt lon="3.972945" lat="47.857868"><ele>137.25</ele></trkpt>
<trkpt lon="3.972861" lat="47.857767"><ele>137.25</ele></trkpt>
<trkpt lon="3.973007" lat="47.857728"><ele>138.0</ele></trkpt>
<trkpt lon="3.972982" lat="47.857686"><ele>138.0</ele></trkpt>
<trkpt lon="3.972931" lat="47.857598"><ele>138.0</ele></trkpt>
<trkpt lon="3.972766" lat="47.857339"><ele>138.5</ele></trkpt>
<trkpt lon="3.972713" lat="47.857283"><ele>138.75</ele></trkpt>
<trkpt lon="3.972747" lat="47.857273"><ele>138.75</ele></trkpt>
<trkpt lon="3.972773" lat="47.857263"><ele>138.75</ele></trkpt>
<trkpt lon="3.972793" lat="47.857255"><ele>138.75</ele></trkpt>
<trkpt lon="3.973426" lat="47.856982"><ele>139.0</ele></trkpt>
<trkpt lon="3.973476" lat="47.856960"><ele>139.0</ele></trkpt>
<trkpt lon="3.973696" lat="47.856864"><ele>139.0</ele></trkpt>
<trkpt lon="3.973869" lat="47.856795"><ele>139.0</ele></trkpt>
<trkpt lon="3.973889" lat="47.856787"><ele>138.75</ele></trkpt>
<trkpt lon="3.973830" lat="47.856732"><ele>142.5</ele></trkpt>
  </trkseg></trk></gpx>
