<?xml version="1.0" encoding="UTF-8"?>
<gpx version="1.1" creator="compostel-brouter" xmlns="http://www.topografix.com/GPX/1/1">
  <metadata><name>FR-16-Clamecy</name></metadata>
  <trk><name>FR-16-Clamecy</name><trkseg>
<trkpt lon="3.748910" lat="47.466337"><ele>300.5</ele></trkpt>
<trkpt lon="3.748858" lat="47.466333"><ele>300.75</ele></trkpt>
<trkpt lon="3.748824" lat="47.466330"><ele>300.75</ele></trkpt>
<trkpt lon="3.748436" lat="47.466289"><ele>300.0</ele></trkpt>
<trkpt lon="3.748156" lat="47.466259"><ele>300.0</ele></trkpt>
<trkpt lon="3.747763" lat="47.466222"><ele>299.75</ele></trkpt>
<trkpt lon="3.747724" lat="47.466215"><ele>299.75</ele></trkpt>
<trkpt lon="3.747472" lat="47.466187"><ele>298.75</ele></trkpt>
<trkpt lon="3.747129" lat="47.466028"><ele>297.25</ele></trkpt>
<trkpt lon="3.746671" lat="47.465909"><ele>295.25</ele></trkpt>
<trkpt lon="3.746559" lat="47.465880"><ele>295.0</ele></trkpt>
<trkpt lon="3.746469" lat="47.465858"><ele>295.0</ele></trkpt>
<trkpt lon="3.746398" lat="47.465841"><ele>295.0</ele></trkpt>
<trkpt lon="3.746087" lat="47.465743"><ele>291.75</ele></trkpt>
<trkpt lon="3.745993" lat="47.465693"><ele>290.25</ele></trkpt>
<trkpt lon="3.745960" lat="47.465677"><ele>289.75</ele></trkpt>
<trkpt lon="3.745858" lat="47.465621"><ele>288.5</ele></trkpt>
<trkpt lon="3.745532" lat="47.465445"><ele>283.75</ele></trkpt>
<trkpt lon="3.745080" lat="47.465171"><ele>279.25</ele></trkpt>
<trkpt lon="3.745069" lat="47.465164"><ele>279.25</ele></trkpt>
<trkpt lon="3.744816" lat="47.465011"><ele>278.25</ele></trkpt>
<trkpt lon="3.744717" lat="47.464962"><ele>277.5</ele></trkpt>
<trkpt lon="3.744697" lat="47.464951"><ele>277.0</ele></trkpt>
<trkpt lon="3.744524" lat="47.464853"><ele>274.5</ele></trkpt>
<trkpt lon="3.744204" lat="47.464488"><ele>270.0</ele></trkpt>
<trkpt lon="3.744025" lat="47.464355"><ele>267.75</ele></trkpt>
<trkpt lon="3.743475" lat="47.464018"><ele>264.0</ele></trkpt>
<trkpt lon="3.743004" lat="47.463703"><ele>261.75</ele></trkpt>
<trkpt lon="3.742817" lat="47.463631"><ele>261.0</ele></trkpt>
<trkpt lon="3.742372" lat="47.463537"><ele>258.0</ele></trkpt>
<trkpt lon="3.742224" lat="47.463511"><ele>257.0</ele></trkpt>
<trkpt lon="3.742199" lat="47.463585"><ele>256.75</ele></trkpt>
<trkpt lon="3.742108" lat="47.463654"><ele>255.75</ele></trkpt>
<trkpt lon="3.742081" lat="47.463674"><ele>255.5</ele></trkpt>
<trkpt lon="3.742054" lat="47.463688"><ele>255.25</ele></trkpt>
<trkpt lon="3.741987" lat="47.463747"><ele>254.5</ele></trkpt>
<trkpt lon="3.741635" lat="47.463995"><ele>249.75</ele></trkpt>
<trkpt lon="3.741479" lat="47.464106"><ele>247.0</ele></trkpt>
<trkpt lon="3.741172" lat="47.464307"><ele>241.0</ele></trkpt>
<trkpt lon="3.741014" lat="47.464534"><ele>236.0</ele></trkpt>
<trkpt lon="3.740844" lat="47.464550"><ele>235.25</ele></trkpt>
<trkpt lon="3.740841" lat="47.464618"><ele>234.75</ele></trkpt>
<trkpt lon="3.740810" lat="47.464676"><ele>234.25</ele></trkpt>
<trkpt lon="3.740238" lat="47.465045"><ele>228.75</ele></trkpt>
<trkpt lon="3.740098" lat="47.465108"><ele>228.25</ele></trkpt>
<trkpt lon="3.739956" lat="47.465135"><ele>227.75</ele></trkpt>
<trkpt lon="3.739881" lat="47.465506"><ele>224.5</ele></trkpt>
<trkpt lon="3.739868" lat="47.465691"><ele>222.5</ele></trkpt>
<trkpt lon="3.739921" lat="47.466009"><ele>218.75</ele></trkpt>
<trkpt lon="3.739949" lat="47.466302"><ele>215.0</ele></trkpt>
<trkpt lon="3.739940" lat="47.466526"><ele>212.25</ele></trkpt>
<trkpt lon="3.739909" lat="47.466623"><ele>211.0</ele></trkpt>
<trkpt lon="3.739859" lat="47.466678"><ele>210.25</ele></trkpt>
<trkpt lon="3.739418" lat="47.467053"><ele>207.0</ele></trkpt>
<trkpt lon="3.738736" lat="47.467680"><ele>203.0</ele></trkpt>
<trkpt lon="3.737645" lat="47.468635"><ele>191.25</ele></trkpt>
<trkpt lon="3.737447" lat="47.468696"><ele>189.0</ele></trkpt>
<trkpt lon="3.737187" lat="47.468802"><ele>185.75</ele></trkpt>
<trkpt lon="3.736808" lat="47.469001"><ele>181.75</ele></trkpt>
<trkpt lon="3.736029" lat="47.469224"><ele>180.75</ele></trkpt>
<trkpt lon="3.735566" lat="47.469398"><ele>185.25</ele></trkpt>
<trkpt lon="3.735387" lat="47.469465"><ele>187.25</ele></trkpt>
<trkpt lon="3.734953" lat="47.469561"><ele>190.75</ele></trkpt>
<trkpt lon="3.734296" lat="47.469522"><ele>197.0</ele></trkpt>
<trkpt lon="3.734217" lat="47.469358"><ele>197.25</ele></trkpt>
<trkpt lon="3.733883" lat="47.468907"><ele>197.25</ele></trkpt>
<trkpt lon="3.733582" lat="47.468582"><ele>197.0</ele></trkpt>
<trkpt lon="3.733023" lat="47.468143"><ele>198.75</ele></trkpt>
<trkpt lon="3.731634" lat="47.467195"><ele>202.0</ele></trkpt>
<trkpt lon="3.730861" lat="47.466740"><ele>204.5</ele></trkpt>
<trkpt lon="3.730110" lat="47.466324"><ele>206.5</ele></trkpt>
<trkpt lon="3.729616" lat="47.466113"><ele>208.5</ele></trkpt>
<trkpt lon="3.727253" lat="47.465235"><ele>219.0</ele></trkpt>
<trkpt lon="3.726366" lat="47.464870"><ele>223.0</ele></trkpt>
<trkpt lon="3.725546" lat="47.464609"><ele>226.0</ele></trkpt>
<trkpt lon="3.724846" lat="47.464451"><ele>229.75</ele></trkpt>
<trkpt lon="3.724333" lat="47.464376"><ele>230.5</ele></trkpt>
<trkpt lon="3.723988" lat="47.464346"><ele>230.0</ele></trkpt>
<trkpt lon="3.723635" lat="47.464356"><ele>229.25</ele></trkpt>
<trkpt lon="3.722591" lat="47.464468"><ele>222.75</ele></trkpt>
<trkpt lon="3.722450" lat="47.464469"><ele>222.5</ele></trkpt>
<trkpt lon="3.722385" lat="47.464439"><ele>221.75</ele></trkpt>
<trkpt lon="3.722209" lat="47.464464"><ele>222.25</ele></trkpt>
<trkpt lon="3.721478" lat="47.464612"><ele>228.5</ele></trkpt>
<trkpt lon="3.721232" lat="47.464647"><ele>230.5</ele></trkpt>
<trkpt lon="3.720508" lat="47.464720"><ele>236.5</ele></trkpt>
<trkpt lon="3.720031" lat="47.464792"><ele>243.75</ele></trkpt>
<trkpt lon="3.719909" lat="47.464763"><ele>245.75</ele></trkpt>
<trkpt lon="3.719850" lat="47.464717"><ele>246.75</ele></trkpt>
<trkpt lon="3.719827" lat="47.464637"><ele>248.25</ele></trkpt>
<trkpt lon="3.719067" lat="47.464341"><ele>256.25</ele></trkpt>
<trkpt lon="3.718720" lat="47.464215"><ele>258.25</ele></trkpt>
<trkpt lon="3.718457" lat="47.464129"><ele>259.75</ele></trkpt>
<trkpt lon="3.717898" lat="47.463969"><ele>263.25</ele></trkpt>
<trkpt lon="3.717587" lat="47.463916"><ele>264.75</ele></trkpt>
<trkpt lon="3.717469" lat="47.463920"><ele>265.0</ele></trkpt>
<trkpt lon="3.717285" lat="47.463944"><ele>265.75</ele></trkpt>
<trkpt lon="3.717002" lat="47.463997"><ele>266.5</ele></trkpt>
<trkpt lon="3.716988" lat="47.463952"><ele>266.25</ele></trkpt>
<trkpt lon="3.716642" lat="47.463251"><ele>261.0</ele></trkpt>
<trkpt lon="3.716558" lat="47.463132"><ele>259.5</ele></trkpt>
<trkpt lon="3.716314" lat="47.462920"><ele>257.0</ele></trkpt>
<trkpt lon="3.716221" lat="47.462812"><ele>256.75</ele></trkpt>
<trkpt lon="3.714669" lat="47.463369"><ele>265.5</ele></trkpt>
<trkpt lon="3.714465" lat="47.463461"><ele>266.75</ele></trkpt>
<trkpt lon="3.714329" lat="47.463533"><ele>267.5</ele></trkpt>
<trkpt lon="3.714198" lat="47.463625"><ele>267.75</ele></trkpt>
<trkpt lon="3.714072" lat="47.463740"><ele>269.0</ele></trkpt>
<trkpt lon="3.713272" lat="47.464608"><ele>275.75</ele></trkpt>
<trkpt lon="3.713113" lat="47.464570"><ele>277.0</ele></trkpt>
<trkpt lon="3.712908" lat="47.464587"><ele>278.5</ele></trkpt>
<trkpt lon="3.712544" lat="47.464668"><ele>280.75</ele></trkpt>
<trkpt lon="3.712293" lat="47.464683"><ele>281.75</ele></trkpt>
<trkpt lon="3.711955" lat="47.464649"><ele>284.25</ele></trkpt>
<trkpt lon="3.711672" lat="47.464597"><ele>285.75</ele></trkpt>
<trkpt lon="3.709981" lat="47.464101"><ele>285.75</ele></trkpt>
<trkpt lon="3.708925" lat="47.463746"><ele>282.0</ele></trkpt>
<trkpt lon="3.708157" lat="47.463496"><ele>281.5</ele></trkpt>
<trkpt lon="3.707499" lat="47.463317"><ele>281.0</ele></trkpt>
<trkpt lon="3.707021" lat="47.463253"><ele>282.0</ele></trkpt>
<trkpt lon="3.706828" lat="47.463254"><ele>282.25</ele></trkpt>
<trkpt lon="3.705921" lat="47.463417"><ele>283.75</ele></trkpt>
<trkpt lon="3.705051" lat="47.463492"><ele>284.25</ele></trkpt>
<trkpt lon="3.704122" lat="47.463663"><ele>280.25</ele></trkpt>
<trkpt lon="3.703770" lat="47.463674"><ele>279.25</ele></trkpt>
<trkpt lon="3.703403" lat="47.463620"><ele>278.0</ele></trkpt>
<trkpt lon="3.702881" lat="47.463515"><ele>277.5</ele></trkpt>
<trkpt lon="3.702329" lat="47.463456"><ele>278.0</ele></trkpt>
<trkpt lon="3.702249" lat="47.463511"><ele>277.5</ele></trkpt>
<trkpt lon="3.701590" lat="47.463655"><ele>277.75</ele></trkpt>
<trkpt lon="3.698392" lat="47.464323"><ele>271.5</ele></trkpt>
<trkpt lon="3.697746" lat="47.464559"><ele>270.5</ele></trkpt>
<trkpt lon="3.697240" lat="47.464752"><ele>270.75</ele></trkpt>
<trkpt lon="3.697066" lat="47.464813"><ele>270.75</ele></trkpt>
<trkpt lon="3.695941" lat="47.465124"><ele>274.25</ele></trkpt>
<trkpt lon="3.695304" lat="47.465255"><ele>275.75</ele></trkpt>
<trkpt lon="3.694112" lat="47.465418"><ele>274.75</ele></trkpt>
<trkpt lon="3.692829" lat="47.465434"><ele>272.0</ele></trkpt>
<trkpt lon="3.692086" lat="47.465386"><ele>270.0</ele></trkpt>
<trkpt lon="3.690412" lat="47.465120"><ele>267.25</ele></trkpt>
<trkpt lon="3.690267" lat="47.465096"><ele>267.25</ele></trkpt>
<trkpt lon="3.689996" lat="47.465029"><ele>266.75</ele></trkpt>
<trkpt lon="3.689498" lat="47.464940"><ele>266.25</ele></trkpt>
<trkpt lon="3.689140" lat="47.464807"><ele>265.5</ele></trkpt>
<trkpt lon="3.688695" lat="47.464607"><ele>265.25</ele></trkpt>
<trkpt lon="3.688264" lat="47.464496"><ele>265.25</ele></trkpt>
<trkpt lon="3.687724" lat="47.464434"><ele>263.75</ele></trkpt>
<trkpt lon="3.687013" lat="47.464338"><ele>262.0</ele></trkpt>
<trkpt lon="3.686521" lat="47.464299"><ele>259.75</ele></trkpt>
<trkpt lon="3.685960" lat="47.464287"><ele>258.25</ele></trkpt>
<trkpt lon="3.685585" lat="47.464347"><ele>257.5</ele></trkpt>
<trkpt lon="3.685382" lat="47.464400"><ele>257.0</ele></trkpt>
<trkpt lon="3.685000" lat="47.464546"><ele>256.5</ele></trkpt>
<trkpt lon="3.684595" lat="47.464714"><ele>257.0</ele></trkpt>
<trkpt lon="3.684162" lat="47.464919"><ele>256.25</ele></trkpt>
<trkpt lon="3.683677" lat="47.465177"><ele>256.0</ele></trkpt>
<trkpt lon="3.683324" lat="47.465273"><ele>255.75</ele></trkpt>
<trkpt lon="3.682959" lat="47.465321"><ele>255.0</ele></trkpt>
<trkpt lon="3.682571" lat="47.465332"><ele>254.25</ele></trkpt>
<trkpt lon="3.680458" lat="47.465337"><ele>250.75</ele></trkpt>
<trkpt lon="3.679011" lat="47.465284"><ele>249.0</ele></trkpt>
<trkpt lon="3.677874" lat="47.465260"><ele>247.25</ele></trkpt>
<trkpt lon="3.677597" lat="47.465282"><ele>246.75</ele></trkpt>
<trkpt lon="3.677640" lat="47.464714"><ele>247.5</ele></trkpt>
<trkpt lon="3.677794" lat="47.464410"><ele>248.0</ele></trkpt>
<trkpt lon="3.677889" lat="47.463976"><ele>248.75</ele></trkpt>
<trkpt lon="3.677867" lat="47.463768"><ele>249.0</ele></trkpt>
<trkpt lon="3.677737" lat="47.463667"><ele>248.75</ele></trkpt>
<trkpt lon="3.677081" lat="47.463105"><ele>250.75</ele></trkpt>
<trkpt lon="3.676664" lat="47.462730"><ele>251.25</ele></trkpt>
<trkpt lon="3.676397" lat="47.462458"><ele>252.0</ele></trkpt>
<trkpt lon="3.676143" lat="47.462076"><ele>253.0</ele></trkpt>
<trkpt lon="3.675876" lat="47.461719"><ele>252.25</ele></trkpt>
<trkpt lon="3.675449" lat="47.461421"><ele>250.75</ele></trkpt>
<trkpt lon="3.674964" lat="47.461024"><ele>247.75</ele></trkpt>
<trkpt lon="3.674806" lat="47.461023"><ele>247.5</ele></trkpt>
<trkpt lon="3.674533" lat="47.460982"><ele>247.0</ele></trkpt>
<trkpt lon="3.674182" lat="47.460867"><ele>246.0</ele></trkpt>
<trkpt lon="3.673221" lat="47.460444"><ele>242.5</ele></trkpt>
<trkpt lon="3.671637" lat="47.459701"><ele>245.75</ele></trkpt>
<trkpt lon="3.671114" lat="47.459504"><ele>245.5</ele></trkpt>
<trkpt lon="3.670569" lat="47.459328"><ele>245.25</ele></trkpt>
<trkpt lon="3.669686" lat="47.459104"><ele>245.0</ele></trkpt>
<trkpt lon="3.668940" lat="47.458944"><ele>245.5</ele></trkpt>
<trkpt lon="3.668755" lat="47.458923"><ele>246.0</ele></trkpt>
<trkpt lon="3.668343" lat="47.458750"><ele>243.25</ele></trkpt>
<trkpt lon="3.667769" lat="47.458530"><ele>241.25</ele></trkpt>
<trkpt lon="3.667382" lat="47.458312"><ele>239.25</ele></trkpt>
<trkpt lon="3.667131" lat="47.458045"><ele>234.25</ele></trkpt>
<trkpt lon="3.666854" lat="47.457723"><ele>227.5</ele></trkpt>
<trkpt lon="3.666645" lat="47.457612"><ele>226.5</ele></trkpt>
<trkpt lon="3.666449" lat="47.457544"><ele>225.25</ele></trkpt>
<trkpt lon="3.665976" lat="47.457523"><ele>225.25</ele></trkpt>
<trkpt lon="3.665377" lat="47.457518"><ele>222.0</ele></trkpt>
<trkpt lon="3.665161" lat="47.457495"><ele>220.75</ele></trkpt>
<trkpt lon="3.664834" lat="47.457441"><ele>219.5</ele></trkpt>
<trkpt lon="3.664499" lat="47.457399"><ele>218.75</ele></trkpt>
<trkpt lon="3.663801" lat="47.457334"><ele>217.25</ele></trkpt>
<trkpt lon="3.663425" lat="47.457329"><ele>216.5</ele></trkpt>
<trkpt lon="3.662867" lat="47.457344"><ele>216.0</ele></trkpt>
<trkpt lon="3.662575" lat="47.457380"><ele>216.5</ele></trkpt>
<trkpt lon="3.662190" lat="47.457427"><ele>217.5</ele></trkpt>
<trkpt lon="3.661957" lat="47.457424"><ele>218.0</ele></trkpt>
<trkpt lon="3.661839" lat="47.457391"><ele>218.25</ele></trkpt>
<trkpt lon="3.661761" lat="47.457312"><ele>216.25</ele></trkpt>
<trkpt lon="3.661744" lat="47.457197"><ele>212.75</ele></trkpt>
<trkpt lon="3.661282" lat="47.457187"><ele>219.75</ele></trkpt>
<trkpt lon="3.660880" lat="47.457109"><ele>223.5</ele></trkpt>
<trkpt lon="3.660354" lat="47.457020"><ele>226.75</ele></trkpt>
<trkpt lon="3.660100" lat="47.457025"><ele>230.5</ele></trkpt>
<trkpt lon="3.659855" lat="47.457172"><ele>238.5</ele></trkpt>
<trkpt lon="3.659534" lat="47.457401"><ele>245.25</ele></trkpt>
<trkpt lon="3.659601" lat="47.457453"><ele>245.75</ele></trkpt>
<trkpt lon="3.658874" lat="47.457928"><ele>250.5</ele></trkpt>
<trkpt lon="3.658375" lat="47.458218"><ele>251.0</ele></trkpt>
<trkpt lon="3.658270" lat="47.458320"><ele>251.0</ele></trkpt>
<trkpt lon="3.658158" lat="47.458503"><ele>251.25</ele></trkpt>
<trkpt lon="3.657935" lat="47.458672"><ele>251.75</ele></trkpt>
<trkpt lon="3.657560" lat="47.458772"><ele>251.25</ele></trkpt>
<trkpt lon="3.656760" lat="47.458868"><ele>250.75</ele></trkpt>
<trkpt lon="3.656253" lat="47.459136"><ele>250.0</ele></trkpt>
<trkpt lon="3.655966" lat="47.459424"><ele>248.5</ele></trkpt>
<trkpt lon="3.655929" lat="47.459765"><ele>245.5</ele></trkpt>
<trkpt lon="3.655966" lat="47.460326"><ele>241.5</ele></trkpt>
<trkpt lon="3.655811" lat="47.460748"><ele>239.0</ele></trkpt>
<trkpt lon="3.655253" lat="47.461278"><ele>235.75</ele></trkpt>
<trkpt lon="3.655022" lat="47.461436"><ele>234.0</ele></trkpt>
<trkpt lon="3.654655" lat="47.461776"><ele>231.25</ele></trkpt>
<trkpt lon="3.654464" lat="47.462039"><ele>228.75</ele></trkpt>
<trkpt lon="3.654370" lat="47.462319"><ele>226.0</ele></trkpt>
<trkpt lon="3.654287" lat="47.462502"><ele>223.5</ele></trkpt>
<trkpt lon="3.654185" lat="47.462514"><ele>222.0</ele></trkpt>
<trkpt lon="3.654138" lat="47.462508"><ele>221.25</ele></trkpt>
<trkpt lon="3.653968" lat="47.462613"><ele>216.5</ele></trkpt>
<trkpt lon="3.653828" lat="47.462768"><ele>210.75</ele></trkpt>
<trkpt lon="3.653748" lat="47.462880"><ele>206.75</ele></trkpt>
<trkpt lon="3.653898" lat="47.463300"><ele>200.75</ele></trkpt>
<trkpt lon="3.654043" lat="47.463474"><ele>200.5</ele></trkpt>
<trkpt lon="3.654071" lat="47.463609"><ele>199.5</ele></trkpt>
<trkpt lon="3.654036" lat="47.463691"><ele>199.5</ele></trkpt>
<trkpt lon="3.653937" lat="47.463580"><ele>199.25</ele></trkpt>
<trkpt lon="3.653657" lat="47.463325"><ele>197.5</ele></trkpt>
<trkpt lon="3.653480" lat="47.463048"><ele>199.0</ele></trkpt>
<trkpt lon="3.653238" lat="47.462801"><ele>199.25</ele></trkpt>
<trkpt lon="3.652807" lat="47.462373"><ele>200.0</ele></trkpt>
<trkpt lon="3.652276" lat="47.462469"><ele>197.0</ele></trkpt>
<trkpt lon="3.652109" lat="47.462495"><ele>197.25</ele></trkpt>
<trkpt lon="3.651803" lat="47.462570"><ele>199.75</ele></trkpt>
<trkpt lon="3.651612" lat="47.462660"><ele>202.75</ele></trkpt>
<trkpt lon="3.651393" lat="47.462903"><ele>207.25</ele></trkpt>
<trkpt lon="3.651235" lat="47.463001"><ele>209.25</ele></trkpt>
<trkpt lon="3.651100" lat="47.462998"><ele>210.75</ele></trkpt>
<trkpt lon="3.650533" lat="47.462721"><ele>214.75</ele></trkpt>
<trkpt lon="3.649968" lat="47.462500"><ele>217.0</ele></trkpt>
<trkpt lon="3.649791" lat="47.462431"><ele>218.0</ele></trkpt>
<trkpt lon="3.648972" lat="47.462261"><ele>220.75</ele></trkpt>
<trkpt lon="3.648255" lat="47.462087"><ele>221.75</ele></trkpt>
<trkpt lon="3.647670" lat="47.461878"><ele>224.0</ele></trkpt>
<trkpt lon="3.647496" lat="47.461767"><ele>224.75</ele></trkpt>
<trkpt lon="3.647226" lat="47.461575"><ele>226.5</ele></trkpt>
<trkpt lon="3.646893" lat="47.461352"><ele>228.5</ele></trkpt>
<trkpt lon="3.646420" lat="47.461001"><ele>232.5</ele></trkpt>
<trkpt lon="3.646258" lat="47.460918"><ele>234.25</ele></trkpt>
<trkpt lon="3.646021" lat="47.460827"><ele>236.5</ele></trkpt>
<trkpt lon="3.645671" lat="47.460748"><ele>239.75</ele></trkpt>
<trkpt lon="3.645341" lat="47.460703"><ele>242.5</ele></trkpt>
<trkpt lon="3.645018" lat="47.460675"><ele>244.75</ele></trkpt>
<trkpt lon="3.644769" lat="47.460638"><ele>246.0</ele></trkpt>
<trkpt lon="3.644383" lat="47.460552"><ele>248.25</ele></trkpt>
<trkpt lon="3.644167" lat="47.460513"><ele>249.75</ele></trkpt>
<trkpt lon="3.643950" lat="47.460497"><ele>250.5</ele></trkpt>
<trkpt lon="3.643562" lat="47.460496"><ele>251.75</ele></trkpt>
<trkpt lon="3.643452" lat="47.460518"><ele>252.25</ele></trkpt>
<trkpt lon="3.642225" lat="47.460652"><ele>258.5</ele></trkpt>
<trkpt lon="3.641139" lat="47.460781"><ele>262.0</ele></trkpt>
<trkpt lon="3.640860" lat="47.460919"><ele>261.75</ele></trkpt>
<trkpt lon="3.639962" lat="47.460935"><ele>260.5</ele></trkpt>
<trkpt lon="3.638921" lat="47.461022"><ele>259.25</ele></trkpt>
<trkpt lon="3.638191" lat="47.461145"><ele>257.75</ele></trkpt>
<trkpt lon="3.636936" lat="47.461254"><ele>255.25</ele></trkpt>
<trkpt lon="3.636367" lat="47.461334"><ele>254.0</ele></trkpt>
<trkpt lon="3.635488" lat="47.461631"><ele>250.75</ele></trkpt>
<trkpt lon="3.634844" lat="47.461827"><ele>248.0</ele></trkpt>
<trkpt lon="3.634329" lat="47.461834"><ele>247.0</ele></trkpt>
<trkpt lon="3.633835" lat="47.461784"><ele>245.75</ele></trkpt>
<trkpt lon="3.633213" lat="47.461791"><ele>245.0</ele></trkpt>
<trkpt lon="3.632484" lat="47.461682"><ele>243.75</ele></trkpt>
<trkpt lon="3.632054" lat="47.461668"><ele>242.25</ele></trkpt>
<trkpt lon="3.631550" lat="47.461704"><ele>240.5</ele></trkpt>
<trkpt lon="3.629952" lat="47.461664"><ele>237.75</ele></trkpt>
<trkpt lon="3.629549" lat="47.461544"><ele>237.0</ele></trkpt>
<trkpt lon="3.629227" lat="47.461570"><ele>236.25</ele></trkpt>
<trkpt lon="3.628777" lat="47.461628"><ele>234.5</ele></trkpt>
<trkpt lon="3.628627" lat="47.461726"><ele>233.75</ele></trkpt>
<trkpt lon="3.628482" lat="47.461834"><ele>233.25</ele></trkpt>
<trkpt lon="3.628235" lat="47.461903"><ele>233.0</ele></trkpt>
<trkpt lon="3.627902" lat="47.461979"><ele>233.5</ele></trkpt>
<trkpt lon="3.627505" lat="47.462001"><ele>234.75</ele></trkpt>
<trkpt lon="3.626921" lat="47.461994"><ele>238.25</ele></trkpt>
<trkpt lon="3.626577" lat="47.462041"><ele>239.5</ele></trkpt>
<trkpt lon="3.625209" lat="47.462516"><ele>236.5</ele></trkpt>
<trkpt lon="3.624523" lat="47.462592"><ele>233.5</ele></trkpt>
<trkpt lon="3.623954" lat="47.462752"><ele>230.25</ele></trkpt>
<trkpt lon="3.623107" lat="47.463126"><ele>225.0</ele></trkpt>
<trkpt lon="3.622640" lat="47.463314"><ele>225.0</ele></trkpt>
<trkpt lon="3.622125" lat="47.463463"><ele>227.0</ele></trkpt>
<trkpt lon="3.621578" lat="47.463670"><ele>227.75</ele></trkpt>
<trkpt lon="3.620569" lat="47.464101"><ele>224.25</ele></trkpt>
<trkpt lon="3.619528" lat="47.464377"><ele>223.5</ele></trkpt>
<trkpt lon="3.618311" lat="47.464714"><ele>229.0</ele></trkpt>
<trkpt lon="3.617351" lat="47.465062"><ele>234.75</ele></trkpt>
<trkpt lon="3.616803" lat="47.465367"><ele>238.5</ele></trkpt>
<trkpt lon="3.616025" lat="47.465468"><ele>241.75</ele></trkpt>
<trkpt lon="3.615848" lat="47.465516"><ele>242.75</ele></trkpt>
<trkpt lon="3.615848" lat="47.465632"><ele>242.75</ele></trkpt>
<trkpt lon="3.616004" lat="47.465907"><ele>242.25</ele></trkpt>
<trkpt lon="3.615993" lat="47.466176"><ele>242.25</ele></trkpt>
<trkpt lon="3.615865" lat="47.466426"><ele>242.75</ele></trkpt>
<trkpt lon="3.615592" lat="47.466758"><ele>243.5</ele></trkpt>
<trkpt lon="3.615544" lat="47.466734"><ele>243.75</ele></trkpt>
<trkpt lon="3.615526" lat="47.466719"><ele>243.75</ele></trkpt>
<trkpt lon="3.615339" lat="47.466599"><ele>244.0</ele></trkpt>
<trkpt lon="3.615086" lat="47.466498"><ele>244.0</ele></trkpt>
<trkpt lon="3.614785" lat="47.466416"><ele>244.0</ele></trkpt>
<trkpt lon="3.614378" lat="47.466254"><ele>243.75</ele></trkpt>
<trkpt lon="3.614230" lat="47.466204"><ele>243.5</ele></trkpt>
<trkpt lon="3.614171" lat="47.466193"><ele>243.5</ele></trkpt>
<trkpt lon="3.614049" lat="47.466182"><ele>243.25</ele></trkpt>
<trkpt lon="3.613691" lat="47.466190"><ele>243.0</ele></trkpt>
<trkpt lon="3.613606" lat="47.466180"><ele>242.75</ele></trkpt>
<trkpt lon="3.613502" lat="47.466156"><ele>242.5</ele></trkpt>
<trkpt lon="3.613269" lat="47.466051"><ele>241.75</ele></trkpt>
<trkpt lon="3.613136" lat="47.466019"><ele>241.25</ele></trkpt>
<trkpt lon="3.612973" lat="47.465994"><ele>240.5</ele></trkpt>
<trkpt lon="3.612449" lat="47.465989"><ele>239.75</ele></trkpt>
<trkpt lon="3.612055" lat="47.465963"><ele>238.25</ele></trkpt>
<trkpt lon="3.612025" lat="47.465962"><ele>238.25</ele></trkpt>
<trkpt lon="3.611740" lat="47.465889"><ele>236.5</ele></trkpt>
<trkpt lon="3.611645" lat="47.465915"><ele>235.75</ele></trkpt>
<trkpt lon="3.611454" lat="47.465927"><ele>235.0</ele></trkpt>
<trkpt lon="3.610834" lat="47.466076"><ele>231.75</ele></trkpt>
<trkpt lon="3.610339" lat="47.466241"><ele>229.25</ele></trkpt>
<trkpt lon="3.609415" lat="47.466353"><ele>224.75</ele></trkpt>
<trkpt lon="3.609129" lat="47.466420"><ele>223.75</ele></trkpt>
<trkpt lon="3.608792" lat="47.466451"><ele>222.25</ele></trkpt>
<trkpt lon="3.608332" lat="47.466434"><ele>221.0</ele></trkpt>
<trkpt lon="3.607720" lat="47.466466"><ele>220.75</ele></trkpt>
<trkpt lon="3.607511" lat="47.466415"><ele>220.0</ele></trkpt>
<trkpt lon="3.607030" lat="47.466243"><ele>220.0</ele></trkpt>
<trkpt lon="3.606793" lat="47.466176"><ele>220.0</ele></trkpt>
<trkpt lon="3.606513" lat="47.466159"><ele>220.0</ele></trkpt>
<trkpt lon="3.606283" lat="47.466129"><ele>219.5</ele></trkpt>
<trkpt lon="3.605862" lat="47.466009"><ele>218.0</ele></trkpt>
<trkpt lon="3.605469" lat="47.465924"><ele>217.5</ele></trkpt>
<trkpt lon="3.604945" lat="47.465852"><ele>217.75</ele></trkpt>
<trkpt lon="3.604772" lat="47.465883"><ele>217.75</ele></trkpt>
<trkpt lon="3.604507" lat="47.465898"><ele>219.25</ele></trkpt>
<trkpt lon="3.603322" lat="47.465805"><ele>226.0</ele></trkpt>
<trkpt lon="3.602695" lat="47.465768"><ele>227.25</ele></trkpt>
<trkpt lon="3.602137" lat="47.465704"><ele>228.25</ele></trkpt>
<trkpt lon="3.601700" lat="47.465524"><ele>229.0</ele></trkpt>
<trkpt lon="3.600925" lat="47.465446"><ele>231.25</ele></trkpt>
<trkpt lon="3.600459" lat="47.465070"><ele>233.75</ele></trkpt>
<trkpt lon="3.600412" lat="47.465056"><ele>233.75</ele></trkpt>
<trkpt lon="3.600130" lat="47.464993"><ele>234.5</ele></trkpt>
<trkpt lon="3.597542" lat="47.464532"><ele>244.75</ele></trkpt>
<trkpt lon="3.595912" lat="47.464234"><ele>249.0</ele></trkpt>
<trkpt lon="3.595745" lat="47.464190"><ele>248.75</ele></trkpt>
<trkpt lon="3.595585" lat="47.464138"><ele>249.0</ele></trkpt>
<trkpt lon="3.595075" lat="47.463885"><ele>250.0</ele></trkpt>
<trkpt lon="3.594387" lat="47.463574"><ele>250.0</ele></trkpt>
<trkpt lon="3.593979" lat="47.463404"><ele>250.5</ele></trkpt>
<trkpt lon="3.593892" lat="47.463512"><ele>249.5</ele></trkpt>
<trkpt lon="3.593763" lat="47.463929"><ele>246.25</ele></trkpt>
<trkpt lon="3.593319" lat="47.465235"><ele>240.0</ele></trkpt>
<trkpt lon="3.593196" lat="47.465552"><ele>239.0</ele></trkpt>
<trkpt lon="3.593076" lat="47.465637"><ele>239.0</ele></trkpt>
<trkpt lon="3.592691" lat="47.465814"><ele>237.5</ele></trkpt>
<trkpt lon="3.592429" lat="47.465902"><ele>236.5</ele></trkpt>
<trkpt lon="3.592287" lat="47.466022"><ele>236.0</ele></trkpt>
<trkpt lon="3.592115" lat="47.466191"><ele>235.5</ele></trkpt>
<trkpt lon="3.592016" lat="47.466252"><ele>234.75</ele></trkpt>
<trkpt lon="3.591816" lat="47.466454"><ele>233.5</ele></trkpt>
<trkpt lon="3.591763" lat="47.466643"><ele>233.25</ele></trkpt>
<trkpt lon="3.591746" lat="47.466978"><ele>233.25</ele></trkpt>
<trkpt lon="3.592060" lat="47.467273"><ele>234.25</ele></trkpt>
<trkpt lon="3.592339" lat="47.467457"><ele>235.25</ele></trkpt>
<trkpt lon="3.591301" lat="47.468935"><ele>228.5</ele></trkpt>
<trkpt lon="3.589879" lat="47.470930"><ele>220.0</ele></trkpt>
<trkpt lon="3.588747" lat="47.472492"><ele>219.5</ele></trkpt>
<trkpt lon="3.585613" lat="47.477007"><ele>212.75</ele></trkpt>
<trkpt lon="3.585148" lat="47.477650"><ele>209.25</ele></trkpt>
<trkpt lon="3.584499" lat="47.478511"><ele>204.25</ele></trkpt>
<trkpt lon="3.583628" lat="47.479673"><ele>195.0</ele></trkpt>
<trkpt lon="3.581294" lat="47.477996"><ele>198.0</ele></trkpt>
<trkpt lon="3.580159" lat="47.477410"><ele>200.0</ele></trkpt>
<trkpt lon="3.578868" lat="47.476831"><ele>202.25</ele></trkpt>
<trkpt lon="3.578548" lat="47.476775"><ele>203.0</ele></trkpt>
<trkpt lon="3.573997" lat="47.477138"><ele>210.75</ele></trkpt>
<trkpt lon="3.572603" lat="47.477263"><ele>213.5</ele></trkpt>
<trkpt lon="3.571725" lat="47.477282"><ele>216.0</ele></trkpt>
<trkpt lon="3.571218" lat="47.477202"><ele>216.75</ele></trkpt>
<trkpt lon="3.570276" lat="47.476891"><ele>220.0</ele></trkpt>
<trkpt lon="3.568523" lat="47.476222"><ele>222.0</ele></trkpt>
<trkpt lon="3.567825" lat="47.476016"><ele>222.0</ele></trkpt>
<trkpt lon="3.566998" lat="47.475870"><ele>221.75</ele></trkpt>
<trkpt lon="3.564414" lat="47.475483"><ele>215.75</ele></trkpt>
<trkpt lon="3.563933" lat="47.475373"><ele>215.25</ele></trkpt>
<trkpt lon="3.563314" lat="47.475212"><ele>215.75</ele></trkpt>
<trkpt lon="3.561838" lat="47.474532"><ele>217.0</ele></trkpt>
<trkpt lon="3.560769" lat="47.474016"><ele>215.0</ele></trkpt>
<trkpt lon="3.559224" lat="47.473166"><ele>210.25</ele></trkpt>
<trkpt lon="3.559083" lat="47.473025"><ele>209.75</ele></trkpt>
<trkpt lon="3.557381" lat="47.471245"><ele>208.0</ele></trkpt>
<trkpt lon="3.557161" lat="47.470961"><ele>208.0</ele></trkpt>
<trkpt lon="3.557000" lat="47.470633"><ele>207.25</ele></trkpt>
<trkpt lon="3.556742" lat="47.469701"><ele>205.25</ele></trkpt>
<trkpt lon="3.556577" lat="47.469446"><ele>205.0</ele></trkpt>
<trkpt lon="3.556303" lat="47.469188"><ele>204.5</ele></trkpt>
<trkpt lon="3.554435" lat="47.467678"><ele>201.25</ele></trkpt>
<trkpt lon="3.554126" lat="47.467357"><ele>201.0</ele></trkpt>
<trkpt lon="3.553646" lat="47.466757"><ele>200.0</ele></trkpt>
<trkpt lon="3.553155" lat="47.465966"><ele>199.0</ele></trkpt>
<trkpt lon="3.552951" lat="47.465942"><ele>199.75</ele></trkpt>
<trkpt lon="3.552724" lat="47.465880"><ele>200.5</ele></trkpt>
<trkpt lon="3.552356" lat="47.465775"><ele>200.25</ele></trkpt>
<trkpt lon="3.551481" lat="47.465612"><ele>205.75</ele></trkpt>
<trkpt lon="3.550388" lat="47.465374"><ele>211.25</ele></trkpt>
<trkpt lon="3.549667" lat="47.465323"><ele>213.25</ele></trkpt>
<trkpt lon="3.549260" lat="47.465320"><ele>214.0</ele></trkpt>
<trkpt lon="3.548927" lat="47.465367"><ele>213.5</ele></trkpt>
<trkpt lon="3.548417" lat="47.465370"><ele>212.25</ele></trkpt>
<trkpt lon="3.547978" lat="47.465318"><ele>210.5</ele></trkpt>
<trkpt lon="3.547650" lat="47.465178"><ele>209.25</ele></trkpt>
<trkpt lon="3.546843" lat="47.464753"><ele>205.0</ele></trkpt>
<trkpt lon="3.546489" lat="47.464553"><ele>203.0</ele></trkpt>
<trkpt lon="3.546294" lat="47.464425"><ele>201.75</ele></trkpt>
<trkpt lon="3.545532" lat="47.463815"><ele>195.5</ele></trkpt>
<trkpt lon="3.545296" lat="47.463703"><ele>194.0</ele></trkpt>
<trkpt lon="3.545036" lat="47.463661"><ele>193.75</ele></trkpt>
<trkpt lon="3.544432" lat="47.463601"><ele>198.75</ele></trkpt>
<trkpt lon="3.543475" lat="47.463529"><ele>201.5</ele></trkpt>
<trkpt lon="3.543177" lat="47.463552"><ele>203.0</ele></trkpt>
<trkpt lon="3.542735" lat="47.463678"><ele>204.5</ele></trkpt>
<trkpt lon="3.542437" lat="47.463852"><ele>206.0</ele></trkpt>
<trkpt lon="3.542207" lat="47.463919"><ele>205.0</ele></trkpt>
<trkpt lon="3.541981" lat="47.463940"><ele>205.5</ele></trkpt>
<trkpt lon="3.541676" lat="47.463900"><ele>206.0</ele></trkpt>
<trkpt lon="3.541145" lat="47.463734"><ele>208.0</ele></trkpt>
<trkpt lon="3.540616" lat="47.463669"><ele>211.0</ele></trkpt>
<trkpt lon="3.540391" lat="47.463654"><ele>212.0</ele></trkpt>
<trkpt lon="3.540145" lat="47.463674"><ele>213.0</ele></trkpt>
<trkpt lon="3.539703" lat="47.463735"><ele>215.25</ele></trkpt>
<trkpt lon="3.539703" lat="47.463788"><ele>215.75</ele></trkpt>
<trkpt lon="3.539717" lat="47.463818"><ele>216.0</ele></trkpt>
<trkpt lon="3.539186" lat="47.463882"><ele>217.75</ele></trkpt>
<trkpt lon="3.537845" lat="47.463900"><ele>218.25</ele></trkpt>
<trkpt lon="3.537485" lat="47.463933"><ele>218.25</ele></trkpt>
<trkpt lon="3.536322" lat="47.464236"><ele>219.25</ele></trkpt>
<trkpt lon="3.535683" lat="47.464274"><ele>218.0</ele></trkpt>
<trkpt lon="3.535067" lat="47.464302"><ele>217.5</ele></trkpt>
<trkpt lon="3.534714" lat="47.464244"><ele>216.5</ele></trkpt>
<trkpt lon="3.533739" lat="47.463713"><ele>213.25</ele></trkpt>
<trkpt lon="3.533522" lat="47.463645"><ele>213.0</ele></trkpt>
<trkpt lon="3.532749" lat="47.463663"><ele>211.75</ele></trkpt>
<trkpt lon="3.531591" lat="47.463627"><ele>209.5</ele></trkpt>
<trkpt lon="3.530617" lat="47.463568"><ele>207.0</ele></trkpt>
<trkpt lon="3.529798" lat="47.463626"><ele>203.25</ele></trkpt>
<trkpt lon="3.529197" lat="47.463626"><ele>201.0</ele></trkpt>
<trkpt lon="3.528554" lat="47.463510"><ele>197.5</ele></trkpt>
<trkpt lon="3.528242" lat="47.463372"><ele>195.0</ele></trkpt>
<trkpt lon="3.527739" lat="47.463039"><ele>189.25</ele></trkpt>
<trkpt lon="3.527336" lat="47.462727"><ele>186.0</ele></trkpt>
<trkpt lon="3.527106" lat="47.462437"><ele>180.5</ele></trkpt>
<trkpt lon="3.527047" lat="47.462159"><ele>180.25</ele></trkpt>
<trkpt lon="3.527024" lat="47.462049"><ele>177.75</ele></trkpt>
<trkpt lon="3.526897" lat="47.461849"><ele>174.25</ele></trkpt>
<trkpt lon="3.526591" lat="47.461704"><ele>169.5</ele></trkpt>
<trkpt lon="3.526135" lat="47.461570"><ele>164.75</ele></trkpt>
<trkpt lon="3.525749" lat="47.461403"><ele>158.75</ele></trkpt>
<trkpt lon="3.525717" lat="47.461374"><ele>158.25</ele></trkpt>
<trkpt lon="3.525357" lat="47.461211"><ele>154.75</ele></trkpt>
<trkpt lon="3.525009" lat="47.461111"><ele>152.0</ele></trkpt>
<trkpt lon="3.524933" lat="47.461119"><ele>151.25</ele></trkpt>
<trkpt lon="3.524641" lat="47.460885"><ele>150.0</ele></trkpt>
<trkpt lon="3.524608" lat="47.460858"><ele>150.0</ele></trkpt>
<trkpt lon="3.524480" lat="47.460741"><ele>149.25</ele></trkpt>
<trkpt lon="3.524203" lat="47.460849"><ele>147.0</ele></trkpt>
<trkpt lon="3.524283" lat="47.460964"><ele>147.25</ele></trkpt>
<trkpt lon="3.523983" lat="47.461147"><ele>147.0</ele></trkpt>
<trkpt lon="3.523730" lat="47.461250"><ele>145.75</ele></trkpt>
<trkpt lon="3.523651" lat="47.460216"><ele>146.25</ele></trkpt>
<trkpt lon="3.523584" lat="47.459465"><ele>146.5</ele></trkpt>
<trkpt lon="3.523667" lat="47.459526"><ele>147.0</ele></trkpt>
<trkpt lon="3.523702" lat="47.459786"><ele>147.0</ele></trkpt>
<trkpt lon="3.523759" lat="47.459837"><ele>147.75</ele></trkpt>
<trkpt lon="3.523744" lat="47.459857"><ele>147.5</ele></trkpt>
<trkpt lon="3.523740" lat="47.459880"><ele>147.5</ele></trkpt>
<trkpt lon="3.523687" lat="47.459883"><ele>146.75</ele></trkpt>
<trkpt lon="3.523662" lat="47.459884"><ele>146.75</ele></trkpt>
<trkpt lon="3.523617" lat="47.459886"><ele>146.75</ele></trkpt>
<trkpt lon="3.523077" lat="47.459910"><ele>147.5</ele></trkpt>
<trkpt lon="3.523011" lat="47.459913"><ele>147.75</ele></trkpt>
<trkpt lon="3.522857" lat="47.459923"><ele>147.75</ele></trkpt>
<trkpt lon="3.523014" lat="47.459432"><ele>146.0</ele></trkpt>
<trkpt lon="3.523021" lat="47.459386"><ele>146.0</ele></trkpt>
<trkpt lon="3.523016" lat="47.459254"><ele>146.0</ele></trkpt>
<trkpt lon="3.522974" lat="47.459249"><ele>146.25</ele></trkpt>
<trkpt lon="3.522599" lat="47.459153"><ele>147.0</ele></trkpt>
<trkpt lon="3.522003" lat="47.459016"><ele>147.25</ele></trkpt>
<trkpt lon="3.521815" lat="47.458960"><ele>147.5</ele></trkpt>
<trkpt lon="3.521469" lat="47.458831"><ele>148.0</ele></trkpt>
<trkpt lon="3.521341" lat="47.458984"><ele>148.0</ele></trkpt>
<trkpt lon="3.521197" lat="47.459026"><ele>148.0</ele></trkpt>
<trkpt lon="3.521090" lat="47.459236"><ele>148.0</ele></trkpt>
<trkpt lon="3.521077" lat="47.459262"><ele>148.0</ele></trkpt>
<trkpt lon="3.521064" lat="47.459288"><ele>148.0</ele></trkpt>
<trkpt lon="3.521012" lat="47.459273"><ele>148.0</ele></trkpt>
<trkpt lon="3.520955" lat="47.459271"><ele>148.0</ele></trkpt>
<trkpt lon="3.520901" lat="47.459281"><ele>148.0</ele></trkpt>
<trkpt lon="3.520863" lat="47.459297"><ele>148.0</ele></trkpt>
<trkpt lon="3.520717" lat="47.459234"><ele>148.5</ele></trkpt>
<trkpt lon="3.520528" lat="47.459223"><ele>150.25</ele></trkpt>
<trkpt lon="3.520423" lat="47.459217"><ele>152.5</ele></trkpt>
<trkpt lon="3.520282" lat="47.459455"><ele>152.75</ele></trkpt>
<trkpt lon="3.520178" lat="47.459596"><ele>153.5</ele></trkpt>
<trkpt lon="3.520161" lat="47.459593"><ele>154.0</ele></trkpt>
<trkpt lon="3.520097" lat="47.459586"><ele>155.0</ele></trkpt>
<trkpt lon="3.519976" lat="47.459570"><ele>157.0</ele></trkpt>
<trkpt lon="3.519941" lat="47.459565"><ele>157.25</ele></trkpt>
<trkpt lon="3.519903" lat="47.459543"><ele>157.5</ele></trkpt>
<trkpt lon="3.519825" lat="47.459661"><ele>157.75</ele></trkpt>
<trkpt lon="3.519783" lat="47.459802"><ele>157.0</ele></trkpt>
<trkpt lon="3.519771" lat="47.459840"><ele>156.75</ele></trkpt>
<trkpt lon="3.519593" lat="47.459821"><ele>157.25</ele></trkpt>
<trkpt lon="3.519553" lat="47.460014"><ele>155.25</ele></trkpt>
  </trkseg></trk></gpx>
