<?xml version="1.0" encoding="UTF-8"?>
<gpx version="1.1" creator="compostel-brouter" xmlns="http://www.topografix.com/GPX/1/1">
  <metadata><name>FR-18-Bourges</name></metadata>
  <trk><name>FR-18-Bourges</name><trkseg>
<trkpt lon="3.016380" lat="47.178757"><ele>175.0</ele></trkpt>
<trkpt lon="3.016270" lat="47.178751"><ele>175.0</ele></trkpt>
<trkpt lon="3.016130" lat="47.178745"><ele>175.75</ele></trkpt>
<trkpt lon="3.016052" lat="47.178745"><ele>175.25</ele></trkpt>
<trkpt lon="3.015812" lat="47.178719"><ele>172.0</ele></trkpt>
<trkpt lon="3.015737" lat="47.178695"><ele>170.5</ele></trkpt>
<trkpt lon="3.015727" lat="47.178659"><ele>169.25</ele></trkpt>
<trkpt lon="3.015737" lat="47.178606"><ele>168.0</ele></trkpt>
<trkpt lon="3.015798" lat="47.178456"><ele>166.75</ele></trkpt>
<trkpt lon="3.015606" lat="47.178419"><ele>164.0</ele></trkpt>
<trkpt lon="3.015584" lat="47.178420"><ele>163.75</ele></trkpt>
<trkpt lon="3.015529" lat="47.178451"><ele>163.75</ele></trkpt>
<trkpt lon="3.015463" lat="47.178455"><ele>163.25</ele></trkpt>
<trkpt lon="3.015426" lat="47.178451"><ele>163.0</ele></trkpt>
<trkpt lon="3.015327" lat="47.178423"><ele>161.75</ele></trkpt>
<trkpt lon="3.015256" lat="47.178391"><ele>161.25</ele></trkpt>
<trkpt lon="3.015238" lat="47.178376"><ele>161.0</ele></trkpt>
<trkpt lon="3.015229" lat="47.178367"><ele>161.0</ele></trkpt>
<trkpt lon="3.015005" lat="47.178260"><ele>160.25</ele></trkpt>
<trkpt lon="3.015100" lat="47.178144"><ele>160.5</ele></trkpt>
<trkpt lon="3.015145" lat="47.178060"><ele>160.25</ele></trkpt>
<trkpt lon="3.015165" lat="47.177987"><ele>160.0</ele></trkpt>
<trkpt lon="3.015114" lat="47.177969"><ele>160.25</ele></trkpt>
<trkpt lon="3.015128" lat="47.177918"><ele>160.0</ele></trkpt>
<trkpt lon="3.015186" lat="47.177793"><ele>159.25</ele></trkpt>
<trkpt lon="3.015136" lat="47.177782"><ele>159.5</ele></trkpt>
<trkpt lon="3.015018" lat="47.177775"><ele>159.75</ele></trkpt>
<trkpt lon="3.014848" lat="47.177740"><ele>157.25</ele></trkpt>
<trkpt lon="3.014982" lat="47.177411"><ele>159.5</ele></trkpt>
<trkpt lon="3.015002" lat="47.177414"><ele>160.0</ele></trkpt>
<trkpt lon="3.015042" lat="47.177313"><ele>160.0</ele></trkpt>
<trkpt lon="3.013707" lat="47.176833"><ele>160.0</ele></trkpt>
<trkpt lon="3.012614" lat="47.176383"><ele>160.0</ele></trkpt>
<trkpt lon="3.012583" lat="47.176368"><ele>160.0</ele></trkpt>
<trkpt lon="3.012595" lat="47.176353"><ele>159.75</ele></trkpt>
<trkpt lon="3.012502" lat="47.176313"><ele>161.5</ele></trkpt>
<trkpt lon="3.012361" lat="47.176261"><ele>161.25</ele></trkpt>
<trkpt lon="3.012180" lat="47.176190"><ele>160.75</ele></trkpt>
<trkpt lon="3.011529" lat="47.175939"><ele>159.75</ele></trkpt>
<trkpt lon="3.010995" lat="47.175740"><ele>160.25</ele></trkpt>
<trkpt lon="3.010805" lat="47.175664"><ele>161.25</ele></trkpt>
<trkpt lon="3.010624" lat="47.175588"><ele>161.75</ele></trkpt>
<trkpt lon="3.010549" lat="47.175559"><ele>161.75</ele></trkpt>
<trkpt lon="3.010513" lat="47.175544"><ele>160.25</ele></trkpt>
<trkpt lon="3.008409" lat="47.174720"><ele>160.25</ele></trkpt>
<trkpt lon="3.008287" lat="47.174669"><ele>161.5</ele></trkpt>
<trkpt lon="3.008385" lat="47.174529"><ele>160.5</ele></trkpt>
<trkpt lon="3.009432" lat="47.168291"><ele>161.75</ele></trkpt>
<trkpt lon="3.009598" lat="47.167364"><ele>159.25</ele></trkpt>
<trkpt lon="3.009916" lat="47.165288"><ele>159.5</ele></trkpt>
<trkpt lon="3.010313" lat="47.163802"><ele>159.75</ele></trkpt>
<trkpt lon="3.010534" lat="47.161525"><ele>161.5</ele></trkpt>
<trkpt lon="3.010964" lat="47.159272"><ele>161.25</ele></trkpt>
<trkpt lon="3.010896" lat="47.159294"><ele>161.75</ele></trkpt>
<trkpt lon="3.010823" lat="47.159294"><ele>162.25</ele></trkpt>
<trkpt lon="3.010648" lat="47.159265"><ele>159.75</ele></trkpt>
<trkpt lon="3.010392" lat="47.159194"><ele>158.75</ele></trkpt>
<trkpt lon="3.009880" lat="47.159252"><ele>160.25</ele></trkpt>
<trkpt lon="3.009442" lat="47.159291"><ele>159.5</ele></trkpt>
<trkpt lon="3.008740" lat="47.159378"><ele>159.25</ele></trkpt>
<trkpt lon="3.008466" lat="47.159358"><ele>159.25</ele></trkpt>
<trkpt lon="3.008388" lat="47.159347"><ele>159.25</ele></trkpt>
<trkpt lon="3.006545" lat="47.158808"><ele>159.0</ele></trkpt>
<trkpt lon="3.001943" lat="47.157486"><ele>158.0</ele></trkpt>
<trkpt lon="3.000611" lat="47.157093"><ele>158.0</ele></trkpt>
<trkpt lon="2.998964" lat="47.156625"><ele>158.0</ele></trkpt>
<trkpt lon="2.998900" lat="47.156613"><ele>158.0</ele></trkpt>
<trkpt lon="2.998316" lat="47.156539"><ele>158.0</ele></trkpt>
<trkpt lon="2.998049" lat="47.156522"><ele>160.0</ele></trkpt>
<trkpt lon="2.997975" lat="47.156517"><ele>160.0</ele></trkpt>
<trkpt lon="2.997753" lat="47.156517"><ele>160.0</ele></trkpt>
<trkpt lon="2.997421" lat="47.156500"><ele>160.0</ele></trkpt>
<trkpt lon="2.997139" lat="47.156467"><ele>160.0</ele></trkpt>
<trkpt lon="2.996612" lat="47.156375"><ele>160.75</ele></trkpt>
<trkpt lon="2.996433" lat="47.156306"><ele>160.5</ele></trkpt>
<trkpt lon="2.996269" lat="47.156209"><ele>160.75</ele></trkpt>
<trkpt lon="2.996124" lat="47.156093"><ele>161.75</ele></trkpt>
<trkpt lon="2.995738" lat="47.155359"><ele>163.75</ele></trkpt>
<trkpt lon="2.995601" lat="47.155229"><ele>164.75</ele></trkpt>
<trkpt lon="2.995492" lat="47.155178"><ele>165.5</ele></trkpt>
<trkpt lon="2.995464" lat="47.155174"><ele>165.5</ele></trkpt>
<trkpt lon="2.995312" lat="47.155154"><ele>165.75</ele></trkpt>
<trkpt lon="2.994844" lat="47.155159"><ele>166.75</ele></trkpt>
<trkpt lon="2.994082" lat="47.155151"><ele>170.0</ele></trkpt>
<trkpt lon="2.992220" lat="47.155019"><ele>178.75</ele></trkpt>
<trkpt lon="2.991818" lat="47.154870"><ele>180.5</ele></trkpt>
<trkpt lon="2.991836" lat="47.155076"><ele>180.25</ele></trkpt>
<trkpt lon="2.991948" lat="47.155310"><ele>180.0</ele></trkpt>
<trkpt lon="2.991680" lat="47.155370"><ele>180.75</ele></trkpt>
<trkpt lon="2.991559" lat="47.155375"><ele>181.25</ele></trkpt>
<trkpt lon="2.991445" lat="47.155367"><ele>181.5</ele></trkpt>
<trkpt lon="2.991157" lat="47.155308"><ele>181.75</ele></trkpt>
<trkpt lon="2.990879" lat="47.155231"><ele>182.0</ele></trkpt>
<trkpt lon="2.990744" lat="47.155181"><ele>182.0</ele></trkpt>
<trkpt lon="2.990690" lat="47.155124"><ele>182.25</ele></trkpt>
<trkpt lon="2.990677" lat="47.155063"><ele>182.25</ele></trkpt>
<trkpt lon="2.990699" lat="47.154977"><ele>182.5</ele></trkpt>
<trkpt lon="2.990831" lat="47.154701"><ele>183.0</ele></trkpt>
<trkpt lon="2.990851" lat="47.154586"><ele>182.75</ele></trkpt>
<trkpt lon="2.990825" lat="47.154507"><ele>183.0</ele></trkpt>
<trkpt lon="2.990781" lat="47.154438"><ele>183.0</ele></trkpt>
<trkpt lon="2.990691" lat="47.154334"><ele>183.0</ele></trkpt>
<trkpt lon="2.990383" lat="47.154047"><ele>184.0</ele></trkpt>
<trkpt lon="2.989725" lat="47.153664"><ele>183.0</ele></trkpt>
<trkpt lon="2.989330" lat="47.153578"><ele>183.0</ele></trkpt>
<trkpt lon="2.986729" lat="47.153409"><ele>182.0</ele></trkpt>
<trkpt lon="2.986040" lat="47.153176"><ele>180.5</ele></trkpt>
<trkpt lon="2.983759" lat="47.151892"><ele>178.0</ele></trkpt>
<trkpt lon="2.983685" lat="47.151866"><ele>178.25</ele></trkpt>
<trkpt lon="2.983618" lat="47.151852"><ele>178.25</ele></trkpt>
<trkpt lon="2.983537" lat="47.151857"><ele>178.25</ele></trkpt>
<trkpt lon="2.981313" lat="47.152272"><ele>184.0</ele></trkpt>
<trkpt lon="2.981226" lat="47.152277"><ele>184.0</ele></trkpt>
<trkpt lon="2.981160" lat="47.152268"><ele>184.0</ele></trkpt>
<trkpt lon="2.980764" lat="47.152107"><ele>185.0</ele></trkpt>
<trkpt lon="2.980631" lat="47.152118"><ele>185.5</ele></trkpt>
<trkpt lon="2.980168" lat="47.152286"><ele>186.25</ele></trkpt>
<trkpt lon="2.978357" lat="47.153168"><ele>186.0</ele></trkpt>
<trkpt lon="2.977756" lat="47.153719"><ele>185.75</ele></trkpt>
<trkpt lon="2.977440" lat="47.153814"><ele>185.0</ele></trkpt>
<trkpt lon="2.976941" lat="47.154099"><ele>184.75</ele></trkpt>
<trkpt lon="2.976259" lat="47.154358"><ele>182.5</ele></trkpt>
<trkpt lon="2.974731" lat="47.155164"><ele>179.25</ele></trkpt>
<trkpt lon="2.974296" lat="47.155554"><ele>178.25</ele></trkpt>
<trkpt lon="2.973963" lat="47.156193"><ele>176.75</ele></trkpt>
<trkpt lon="2.973658" lat="47.156535"><ele>176.0</ele></trkpt>
<trkpt lon="2.973089" lat="47.156948"><ele>175.0</ele></trkpt>
<trkpt lon="2.972778" lat="47.157433"><ele>175.0</ele></trkpt>
<trkpt lon="2.972724" lat="47.157706"><ele>175.0</ele></trkpt>
<trkpt lon="2.973019" lat="47.158244"><ele>175.0</ele></trkpt>
<trkpt lon="2.973085" lat="47.158475"><ele>175.0</ele></trkpt>
<trkpt lon="2.972794" lat="47.158560"><ele>175.75</ele></trkpt>
<trkpt lon="2.970686" lat="47.158987"><ele>181.25</ele></trkpt>
<trkpt lon="2.970080" lat="47.159016"><ele>181.25</ele></trkpt>
<trkpt lon="2.968969" lat="47.159384"><ele>181.75</ele></trkpt>
<trkpt lon="2.968631" lat="47.160530"><ele>183.75</ele></trkpt>
<trkpt lon="2.968941" lat="47.160812"><ele>183.75</ele></trkpt>
<trkpt lon="2.968974" lat="47.160843"><ele>183.5</ele></trkpt>
<trkpt lon="2.969704" lat="47.161044"><ele>183.0</ele></trkpt>
<trkpt lon="2.969890" lat="47.161201"><ele>183.0</ele></trkpt>
<trkpt lon="2.970187" lat="47.162017"><ele>183.25</ele></trkpt>
<trkpt lon="2.970431" lat="47.162493"><ele>183.25</ele></trkpt>
<trkpt lon="2.970818" lat="47.162938"><ele>182.25</ele></trkpt>
<trkpt lon="2.971437" lat="47.163480"><ele>182.25</ele></trkpt>
<trkpt lon="2.972199" lat="47.164235"><ele>183.75</ele></trkpt>
<trkpt lon="2.972359" lat="47.164454"><ele>184.5</ele></trkpt>
<trkpt lon="2.972681" lat="47.164644"><ele>185.0</ele></trkpt>
<trkpt lon="2.973016" lat="47.164738"><ele>184.75</ele></trkpt>
<trkpt lon="2.973076" lat="47.164811"><ele>184.5</ele></trkpt>
<trkpt lon="2.973876" lat="47.165567"><ele>184.0</ele></trkpt>
<trkpt lon="2.973232" lat="47.165480"><ele>184.0</ele></trkpt>
<trkpt lon="2.973221" lat="47.165593"><ele>184.25</ele></trkpt>
<trkpt lon="2.967875" lat="47.166562"><ele>185.5</ele></trkpt>
<trkpt lon="2.964313" lat="47.166460"><ele>186.0</ele></trkpt>
<trkpt lon="2.962693" lat="47.166219"><ele>186.0</ele></trkpt>
<trkpt lon="2.961470" lat="47.166234"><ele>185.0</ele></trkpt>
<trkpt lon="2.960290" lat="47.166431"><ele>183.0</ele></trkpt>
<trkpt lon="2.959281" lat="47.166493"><ele>183.0</ele></trkpt>
<trkpt lon="2.957135" lat="47.166504"><ele>184.0</ele></trkpt>
<trkpt lon="2.955118" lat="47.166617"><ele>184.0</ele></trkpt>
<trkpt lon="2.952007" lat="47.166427"><ele>184.75</ele></trkpt>
<trkpt lon="2.949454" lat="47.166238"><ele>184.0</ele></trkpt>
<trkpt lon="2.947196" lat="47.166217"><ele>181.5</ele></trkpt>
<trkpt lon="2.946621" lat="47.166217"><ele>181.25</ele></trkpt>
<trkpt lon="2.945017" lat="47.166218"><ele>180.0</ele></trkpt>
<trkpt lon="2.944800" lat="47.166225"><ele>180.0</ele></trkpt>
<trkpt lon="2.944765" lat="47.166256"><ele>180.0</ele></trkpt>
<trkpt lon="2.943647" lat="47.166613"><ele>179.0</ele></trkpt>
<trkpt lon="2.942495" lat="47.166996"><ele>180.0</ele></trkpt>
<trkpt lon="2.942272" lat="47.167054"><ele>180.75</ele></trkpt>
<trkpt lon="2.941757" lat="47.167165"><ele>181.0</ele></trkpt>
<trkpt lon="2.941501" lat="47.167199"><ele>181.5</ele></trkpt>
<trkpt lon="2.940901" lat="47.167234"><ele>181.75</ele></trkpt>
<trkpt lon="2.940202" lat="47.167338"><ele>182.5</ele></trkpt>
<trkpt lon="2.940045" lat="47.167349"><ele>182.5</ele></trkpt>
<trkpt lon="2.939886" lat="47.167338"><ele>182.0</ele></trkpt>
<trkpt lon="2.939744" lat="47.167301"><ele>181.75</ele></trkpt>
<trkpt lon="2.939608" lat="47.167252"><ele>181.75</ele></trkpt>
<trkpt lon="2.939105" lat="47.167048"><ele>181.5</ele></trkpt>
<trkpt lon="2.938750" lat="47.166931"><ele>181.5</ele></trkpt>
<trkpt lon="2.938518" lat="47.166885"><ele>181.0</ele></trkpt>
<trkpt lon="2.938274" lat="47.166865"><ele>181.25</ele></trkpt>
<trkpt lon="2.937985" lat="47.166871"><ele>182.0</ele></trkpt>
<trkpt lon="2.937551" lat="47.166899"><ele>181.75</ele></trkpt>
<trkpt lon="2.937210" lat="47.166930"><ele>181.75</ele></trkpt>
<trkpt lon="2.935996" lat="47.167090"><ele>182.0</ele></trkpt>
<trkpt lon="2.933827" lat="47.167325"><ele>182.75</ele></trkpt>
<trkpt lon="2.933419" lat="47.166479"><ele>183.0</ele></trkpt>
<trkpt lon="2.933306" lat="47.166285"><ele>183.0</ele></trkpt>
<trkpt lon="2.932833" lat="47.165611"><ele>183.75</ele></trkpt>
<trkpt lon="2.932569" lat="47.165576"><ele>183.75</ele></trkpt>
<trkpt lon="2.932413" lat="47.165570"><ele>184.0</ele></trkpt>
<trkpt lon="2.931668" lat="47.165896"><ele>183.0</ele></trkpt>
<trkpt lon="2.931364" lat="47.166044"><ele>183.5</ele></trkpt>
<trkpt lon="2.930570" lat="47.166524"><ele>183.0</ele></trkpt>
<trkpt lon="2.930338" lat="47.166678"><ele>183.0</ele></trkpt>
<trkpt lon="2.929699" lat="47.167288"><ele>183.75</ele></trkpt>
<trkpt lon="2.929572" lat="47.167387"><ele>183.25</ele></trkpt>
<trkpt lon="2.928866" lat="47.167738"><ele>183.0</ele></trkpt>
<trkpt lon="2.928694" lat="47.167814"><ele>183.5</ele></trkpt>
<trkpt lon="2.928471" lat="47.167896"><ele>184.0</ele></trkpt>
<trkpt lon="2.928281" lat="47.167935"><ele>184.0</ele></trkpt>
<trkpt lon="2.927914" lat="47.167938"><ele>184.0</ele></trkpt>
<trkpt lon="2.927748" lat="47.167957"><ele>184.0</ele></trkpt>
<trkpt lon="2.927600" lat="47.168018"><ele>184.0</ele></trkpt>
<trkpt lon="2.927468" lat="47.168123"><ele>184.0</ele></trkpt>
<trkpt lon="2.927374" lat="47.168185"><ele>184.0</ele></trkpt>
<trkpt lon="2.927241" lat="47.168224"><ele>184.0</ele></trkpt>
<trkpt lon="2.926289" lat="47.168038"><ele>183.0</ele></trkpt>
<trkpt lon="2.925964" lat="47.167968"><ele>183.25</ele></trkpt>
<trkpt lon="2.924919" lat="47.167655"><ele>183.5</ele></trkpt>
<trkpt lon="2.924687" lat="47.167566"><ele>183.25</ele></trkpt>
<trkpt lon="2.924458" lat="47.167462"><ele>183.75</ele></trkpt>
<trkpt lon="2.923070" lat="47.166733"><ele>183.0</ele></trkpt>
<trkpt lon="2.922935" lat="47.166680"><ele>182.5</ele></trkpt>
<trkpt lon="2.922817" lat="47.166661"><ele>182.0</ele></trkpt>
<trkpt lon="2.922774" lat="47.166656"><ele>181.75</ele></trkpt>
<trkpt lon="2.922767" lat="47.166599"><ele>181.75</ele></trkpt>
<trkpt lon="2.922275" lat="47.166566"><ele>180.75</ele></trkpt>
<trkpt lon="2.921940" lat="47.166560"><ele>180.0</ele></trkpt>
<trkpt lon="2.921355" lat="47.166589"><ele>178.5</ele></trkpt>
<trkpt lon="2.920175" lat="47.166684"><ele>178.0</ele></trkpt>
<trkpt lon="2.919925" lat="47.166697"><ele>178.0</ele></trkpt>
<trkpt lon="2.919558" lat="47.166697"><ele>177.25</ele></trkpt>
<trkpt lon="2.919322" lat="47.166690"><ele>177.0</ele></trkpt>
<trkpt lon="2.919062" lat="47.166668"><ele>176.0</ele></trkpt>
<trkpt lon="2.918968" lat="47.166682"><ele>175.5</ele></trkpt>
<trkpt lon="2.918887" lat="47.166715"><ele>175.0</ele></trkpt>
<trkpt lon="2.918801" lat="47.166799"><ele>174.75</ele></trkpt>
<trkpt lon="2.918622" lat="47.167204"><ele>174.0</ele></trkpt>
<trkpt lon="2.918525" lat="47.167468"><ele>173.5</ele></trkpt>
<trkpt lon="2.918461" lat="47.167844"><ele>171.5</ele></trkpt>
<trkpt lon="2.918461" lat="47.167952"><ele>171.0</ele></trkpt>
<trkpt lon="2.918512" lat="47.168539"><ele>169.75</ele></trkpt>
<trkpt lon="2.918498" lat="47.168692"><ele>169.25</ele></trkpt>
<trkpt lon="2.918455" lat="47.168862"><ele>168.75</ele></trkpt>
<trkpt lon="2.918388" lat="47.169048"><ele>168.0</ele></trkpt>
<trkpt lon="2.918286" lat="47.169254"><ele>167.5</ele></trkpt>
<trkpt lon="2.918162" lat="47.169449"><ele>167.0</ele></trkpt>
<trkpt lon="2.918101" lat="47.169545"><ele>167.5</ele></trkpt>
<trkpt lon="2.917873" lat="47.169788"><ele>167.0</ele></trkpt>
<trkpt lon="2.917522" lat="47.170131"><ele>167.0</ele></trkpt>
<trkpt lon="2.917417" lat="47.170204"><ele>167.0</ele></trkpt>
<trkpt lon="2.917291" lat="47.170273"><ele>166.5</ele></trkpt>
<trkpt lon="2.916371" lat="47.170714"><ele>167.0</ele></trkpt>
<trkpt lon="2.915475" lat="47.171123"><ele>168.5</ele></trkpt>
<trkpt lon="2.915234" lat="47.171272"><ele>169.0</ele></trkpt>
<trkpt lon="2.915049" lat="47.171413"><ele>170.25</ele></trkpt>
<trkpt lon="2.914955" lat="47.171513"><ele>170.75</ele></trkpt>
<trkpt lon="2.914569" lat="47.172063"><ele>172.25</ele></trkpt>
<trkpt lon="2.914338" lat="47.172439"><ele>173.5</ele></trkpt>
<trkpt lon="2.913871" lat="47.173424"><ele>178.25</ele></trkpt>
<trkpt lon="2.913531" lat="47.174058"><ele>180.0</ele></trkpt>
<trkpt lon="2.912444" lat="47.175930"><ele>176.25</ele></trkpt>
<trkpt lon="2.912317" lat="47.176401"><ele>174.25</ele></trkpt>
<trkpt lon="2.912274" lat="47.176968"><ele>174.0</ele></trkpt>
<trkpt lon="2.912145" lat="47.177271"><ele>173.75</ele></trkpt>
<trkpt lon="2.911547" lat="47.177798"><ele>174.5</ele></trkpt>
<trkpt lon="2.911337" lat="47.177923"><ele>173.75</ele></trkpt>
<trkpt lon="2.910362" lat="47.178073"><ele>170.25</ele></trkpt>
<trkpt lon="2.909926" lat="47.178170"><ele>168.25</ele></trkpt>
<trkpt lon="2.909864" lat="47.178151"><ele>168.0</ele></trkpt>
<trkpt lon="2.908970" lat="47.177402"><ele>167.25</ele></trkpt>
<trkpt lon="2.908830" lat="47.177326"><ele>166.75</ele></trkpt>
<trkpt lon="2.908506" lat="47.177281"><ele>166.25</ele></trkpt>
<trkpt lon="2.908318" lat="47.177289"><ele>165.75</ele></trkpt>
<trkpt lon="2.908244" lat="47.177317"><ele>165.5</ele></trkpt>
<trkpt lon="2.907557" lat="47.177678"><ele>164.0</ele></trkpt>
<trkpt lon="2.907410" lat="47.177759"><ele>163.5</ele></trkpt>
<trkpt lon="2.906506" lat="47.178258"><ele>162.5</ele></trkpt>
<trkpt lon="2.906274" lat="47.178385"><ele>162.25</ele></trkpt>
<trkpt lon="2.905841" lat="47.178623"><ele>163.75</ele></trkpt>
<trkpt lon="2.905390" lat="47.178856"><ele>163.5</ele></trkpt>
<trkpt lon="2.905004" lat="47.178943"><ele>164.0</ele></trkpt>
<trkpt lon="2.904725" lat="47.178958"><ele>165.0</ele></trkpt>
<trkpt lon="2.904403" lat="47.178870"><ele>165.0</ele></trkpt>
<trkpt lon="2.904060" lat="47.178637"><ele>165.75</ele></trkpt>
<trkpt lon="2.903781" lat="47.178535"><ele>166.75</ele></trkpt>
<trkpt lon="2.902193" lat="47.178185"><ele>170.5</ele></trkpt>
<trkpt lon="2.901292" lat="47.178024"><ele>172.0</ele></trkpt>
<trkpt lon="2.900991" lat="47.177383"><ele>170.0</ele></trkpt>
<trkpt lon="2.900476" lat="47.176537"><ele>171.0</ele></trkpt>
<trkpt lon="2.899790" lat="47.175268"><ele>169.5</ele></trkpt>
<trkpt lon="2.899768" lat="47.174743"><ele>170.5</ele></trkpt>
<trkpt lon="2.899618" lat="47.173794"><ele>171.5</ele></trkpt>
<trkpt lon="2.899506" lat="47.173327"><ele>171.5</ele></trkpt>
<trkpt lon="2.899460" lat="47.173199"><ele>171.25</ele></trkpt>
<trkpt lon="2.899448" lat="47.173166"><ele>171.25</ele></trkpt>
<trkpt lon="2.899200" lat="47.172890"><ele>171.25</ele></trkpt>
<trkpt lon="2.899068" lat="47.172668"><ele>170.75</ele></trkpt>
<trkpt lon="2.898605" lat="47.172638"><ele>172.0</ele></trkpt>
<trkpt lon="2.897708" lat="47.172623"><ele>174.0</ele></trkpt>
<trkpt lon="2.895267" lat="47.172563"><ele>178.25</ele></trkpt>
<trkpt lon="2.894974" lat="47.172576"><ele>179.25</ele></trkpt>
<trkpt lon="2.894443" lat="47.172618"><ele>181.0</ele></trkpt>
<trkpt lon="2.893278" lat="47.172649"><ele>183.5</ele></trkpt>
<trkpt lon="2.893006" lat="47.172643"><ele>184.0</ele></trkpt>
<trkpt lon="2.892830" lat="47.172620"><ele>184.25</ele></trkpt>
<trkpt lon="2.892745" lat="47.172574"><ele>184.25</ele></trkpt>
<trkpt lon="2.892596" lat="47.172356"><ele>184.5</ele></trkpt>
<trkpt lon="2.892499" lat="47.172286"><ele>185.0</ele></trkpt>
<trkpt lon="2.892414" lat="47.172250"><ele>185.0</ele></trkpt>
<trkpt lon="2.892314" lat="47.172260"><ele>185.0</ele></trkpt>
<trkpt lon="2.891381" lat="47.172407"><ele>188.0</ele></trkpt>
<trkpt lon="2.891138" lat="47.172431"><ele>188.0</ele></trkpt>
<trkpt lon="2.890607" lat="47.172446"><ele>189.0</ele></trkpt>
<trkpt lon="2.890264" lat="47.172432"><ele>190.0</ele></trkpt>
<trkpt lon="2.890009" lat="47.172414"><ele>190.0</ele></trkpt>
<trkpt lon="2.889730" lat="47.172409"><ele>190.25</ele></trkpt>
<trkpt lon="2.889539" lat="47.172433"><ele>190.0</ele></trkpt>
<trkpt lon="2.889008" lat="47.172537"><ele>190.25</ele></trkpt>
<trkpt lon="2.888688" lat="47.172594"><ele>190.0</ele></trkpt>
<trkpt lon="2.888433" lat="47.172632"><ele>189.5</ele></trkpt>
<trkpt lon="2.887491" lat="47.172671"><ele>187.5</ele></trkpt>
<trkpt lon="2.887063" lat="47.172679"><ele>186.0</ele></trkpt>
<trkpt lon="2.886386" lat="47.172650"><ele>184.5</ele></trkpt>
<trkpt lon="2.886084" lat="47.172646"><ele>183.25</ele></trkpt>
<trkpt lon="2.885691" lat="47.172661"><ele>182.25</ele></trkpt>
<trkpt lon="2.885300" lat="47.172689"><ele>182.0</ele></trkpt>
<trkpt lon="2.884887" lat="47.172731"><ele>181.0</ele></trkpt>
<trkpt lon="2.883763" lat="47.172888"><ele>180.5</ele></trkpt>
<trkpt lon="2.883162" lat="47.172949"><ele>180.0</ele></trkpt>
<trkpt lon="2.882399" lat="47.173076"><ele>180.25</ele></trkpt>
<trkpt lon="2.882170" lat="47.173102"><ele>181.0</ele></trkpt>
<trkpt lon="2.881912" lat="47.173148"><ele>181.0</ele></trkpt>
<trkpt lon="2.881659" lat="47.173217"><ele>182.0</ele></trkpt>
<trkpt lon="2.880611" lat="47.173552"><ele>183.0</ele></trkpt>
<trkpt lon="2.880365" lat="47.173608"><ele>183.5</ele></trkpt>
<trkpt lon="2.880156" lat="47.173628"><ele>183.75</ele></trkpt>
<trkpt lon="2.879193" lat="47.173627"><ele>183.75</ele></trkpt>
<trkpt lon="2.878975" lat="47.173648"><ele>183.75</ele></trkpt>
<trkpt lon="2.878823" lat="47.173691"><ele>183.5</ele></trkpt>
<trkpt lon="2.878673" lat="47.173773"><ele>182.75</ele></trkpt>
<trkpt lon="2.878552" lat="47.173893"><ele>181.75</ele></trkpt>
<trkpt lon="2.878458" lat="47.174021"><ele>181.25</ele></trkpt>
<trkpt lon="2.878413" lat="47.174047"><ele>181.0</ele></trkpt>
<trkpt lon="2.878459" lat="47.174197"><ele>180.25</ele></trkpt>
<trkpt lon="2.878458" lat="47.174417"><ele>179.5</ele></trkpt>
<trkpt lon="2.876717" lat="47.174643"><ele>175.5</ele></trkpt>
<trkpt lon="2.876669" lat="47.174846"><ele>175.75</ele></trkpt>
<trkpt lon="2.876146" lat="47.174968"><ele>176.75</ele></trkpt>
<trkpt lon="2.875041" lat="47.175318"><ele>177.75</ele></trkpt>
<trkpt lon="2.872230" lat="47.175663"><ele>176.0</ele></trkpt>
<trkpt lon="2.870919" lat="47.175816"><ele>178.5</ele></trkpt>
<trkpt lon="2.869451" lat="47.175947"><ele>180.5</ele></trkpt>
<trkpt lon="2.868247" lat="47.176084"><ele>182.25</ele></trkpt>
<trkpt lon="2.866691" lat="47.176208"><ele>184.25</ele></trkpt>
<trkpt lon="2.865897" lat="47.176109"><ele>185.75</ele></trkpt>
<trkpt lon="2.864811" lat="47.176095"><ele>187.5</ele></trkpt>
<trkpt lon="2.863226" lat="47.176255"><ele>189.0</ele></trkpt>
<trkpt lon="2.862386" lat="47.176421"><ele>188.5</ele></trkpt>
<trkpt lon="2.862105" lat="47.176504"><ele>187.5</ele></trkpt>
<trkpt lon="2.861182" lat="47.177178"><ele>185.75</ele></trkpt>
<trkpt lon="2.860348" lat="47.177644"><ele>183.25</ele></trkpt>
<trkpt lon="2.859652" lat="47.178016"><ele>183.0</ele></trkpt>
<trkpt lon="2.858947" lat="47.178302"><ele>182.0</ele></trkpt>
<trkpt lon="2.858158" lat="47.178506"><ele>180.75</ele></trkpt>
<trkpt lon="2.858077" lat="47.178526"><ele>180.5</ele></trkpt>
<trkpt lon="2.857989" lat="47.178521"><ele>180.5</ele></trkpt>
<trkpt lon="2.857195" lat="47.178278"><ele>179.0</ele></trkpt>
<trkpt lon="2.856468" lat="47.178030"><ele>178.0</ele></trkpt>
<trkpt lon="2.856342" lat="47.178001"><ele>178.0</ele></trkpt>
<trkpt lon="2.856232" lat="47.178003"><ele>177.5</ele></trkpt>
<trkpt lon="2.856012" lat="47.178063"><ele>176.75</ele></trkpt>
<trkpt lon="2.855880" lat="47.178080"><ele>176.75</ele></trkpt>
<trkpt lon="2.855719" lat="47.178092"><ele>176.75</ele></trkpt>
<trkpt lon="2.854606" lat="47.178300"><ele>179.0</ele></trkpt>
<trkpt lon="2.854566" lat="47.178328"><ele>179.0</ele></trkpt>
<trkpt lon="2.854566" lat="47.178393"><ele>178.75</ele></trkpt>
<trkpt lon="2.855526" lat="47.179812"><ele>175.0</ele></trkpt>
<trkpt lon="2.855524" lat="47.179866"><ele>175.0</ele></trkpt>
<trkpt lon="2.855494" lat="47.179916"><ele>175.0</ele></trkpt>
<trkpt lon="2.853456" lat="47.181307"><ele>179.5</ele></trkpt>
<trkpt lon="2.851058" lat="47.183144"><ele>185.0</ele></trkpt>
<trkpt lon="2.850945" lat="47.183221"><ele>185.25</ele></trkpt>
<trkpt lon="2.845822" lat="47.185787"><ele>192.0</ele></trkpt>
<trkpt lon="2.845624" lat="47.185926"><ele>191.0</ele></trkpt>
<trkpt lon="2.845414" lat="47.186039"><ele>190.25</ele></trkpt>
<trkpt lon="2.845235" lat="47.186116"><ele>189.75</ele></trkpt>
<trkpt lon="2.844776" lat="47.186189"><ele>187.75</ele></trkpt>
<trkpt lon="2.843495" lat="47.186892"><ele>180.75</ele></trkpt>
<trkpt lon="2.840242" lat="47.188658"><ele>187.0</ele></trkpt>
<trkpt lon="2.839671" lat="47.188997"><ele>187.5</ele></trkpt>
<trkpt lon="2.839617" lat="47.189067"><ele>187.25</ele></trkpt>
<trkpt lon="2.839600" lat="47.189154"><ele>187.0</ele></trkpt>
<trkpt lon="2.839613" lat="47.189252"><ele>186.5</ele></trkpt>
<trkpt lon="2.839670" lat="47.189482"><ele>185.5</ele></trkpt>
<trkpt lon="2.839659" lat="47.189813"><ele>183.5</ele></trkpt>
<trkpt lon="2.839520" lat="47.190545"><ele>179.0</ele></trkpt>
<trkpt lon="2.837627" lat="47.190343"><ele>178.5</ele></trkpt>
<trkpt lon="2.828584" lat="47.189092"><ele>173.0</ele></trkpt>
<trkpt lon="2.828359" lat="47.189057"><ele>172.25</ele></trkpt>
<trkpt lon="2.828202" lat="47.189023"><ele>172.5</ele></trkpt>
<trkpt lon="2.828061" lat="47.188985"><ele>172.5</ele></trkpt>
<trkpt lon="2.826215" lat="47.188361"><ele>178.0</ele></trkpt>
<trkpt lon="2.825645" lat="47.188173"><ele>179.0</ele></trkpt>
<trkpt lon="2.825502" lat="47.188130"><ele>179.0</ele></trkpt>
<trkpt lon="2.825399" lat="47.188106"><ele>179.25</ele></trkpt>
<trkpt lon="2.824871" lat="47.188059"><ele>178.75</ele></trkpt>
<trkpt lon="2.824725" lat="47.188024"><ele>179.0</ele></trkpt>
<trkpt lon="2.824703" lat="47.188019"><ele>179.0</ele></trkpt>
<trkpt lon="2.824586" lat="47.187964"><ele>179.25</ele></trkpt>
<trkpt lon="2.824340" lat="47.187784"><ele>179.75</ele></trkpt>
<trkpt lon="2.823590" lat="47.187281"><ele>180.75</ele></trkpt>
<trkpt lon="2.823433" lat="47.187155"><ele>181.0</ele></trkpt>
<trkpt lon="2.823014" lat="47.186780"><ele>181.5</ele></trkpt>
<trkpt lon="2.822821" lat="47.186643"><ele>182.0</ele></trkpt>
<trkpt lon="2.822595" lat="47.186522"><ele>181.5</ele></trkpt>
<trkpt lon="2.822483" lat="47.186478"><ele>181.5</ele></trkpt>
<trkpt lon="2.822356" lat="47.186428"><ele>181.75</ele></trkpt>
<trkpt lon="2.822316" lat="47.186448"><ele>181.75</ele></trkpt>
<trkpt lon="2.821949" lat="47.186570"><ele>181.0</ele></trkpt>
<trkpt lon="2.821909" lat="47.186573"><ele>180.75</ele></trkpt>
<trkpt lon="2.821848" lat="47.186568"><ele>180.75</ele></trkpt>
<trkpt lon="2.821821" lat="47.186577"><ele>180.5</ele></trkpt>
<trkpt lon="2.821366" lat="47.186691"><ele>179.75</ele></trkpt>
<trkpt lon="2.820835" lat="47.186833"><ele>178.0</ele></trkpt>
<trkpt lon="2.820740" lat="47.186861"><ele>177.75</ele></trkpt>
<trkpt lon="2.820680" lat="47.186892"><ele>177.5</ele></trkpt>
<trkpt lon="2.820638" lat="47.186930"><ele>177.25</ele></trkpt>
<trkpt lon="2.820508" lat="47.187035"><ele>176.5</ele></trkpt>
<trkpt lon="2.819586" lat="47.187621"><ele>172.5</ele></trkpt>
<trkpt lon="2.819481" lat="47.187692"><ele>172.5</ele></trkpt>
<trkpt lon="2.818448" lat="47.188349"><ele>172.0</ele></trkpt>
<trkpt lon="2.817105" lat="47.188125"><ele>172.25</ele></trkpt>
<trkpt lon="2.816875" lat="47.188061"><ele>172.0</ele></trkpt>
<trkpt lon="2.814416" lat="47.187158"><ele>172.75</ele></trkpt>
<trkpt lon="2.814116" lat="47.187092"><ele>172.5</ele></trkpt>
<trkpt lon="2.813837" lat="47.187076"><ele>173.5</ele></trkpt>
<trkpt lon="2.813559" lat="47.187069"><ele>174.5</ele></trkpt>
<trkpt lon="2.813284" lat="47.187076"><ele>175.75</ele></trkpt>
<trkpt lon="2.813021" lat="47.187093"><ele>177.5</ele></trkpt>
<trkpt lon="2.810821" lat="47.187421"><ele>185.5</ele></trkpt>
<trkpt lon="2.810446" lat="47.187472"><ele>185.75</ele></trkpt>
<trkpt lon="2.810129" lat="47.187505"><ele>186.0</ele></trkpt>
<trkpt lon="2.808185" lat="47.187613"><ele>186.0</ele></trkpt>
<trkpt lon="2.807871" lat="47.187649"><ele>185.25</ele></trkpt>
<trkpt lon="2.807458" lat="47.187716"><ele>184.75</ele></trkpt>
<trkpt lon="2.805171" lat="47.188184"><ele>184.0</ele></trkpt>
<trkpt lon="2.804940" lat="47.188225"><ele>184.5</ele></trkpt>
<trkpt lon="2.804729" lat="47.188248"><ele>184.75</ele></trkpt>
<trkpt lon="2.804485" lat="47.188257"><ele>185.75</ele></trkpt>
<trkpt lon="2.804261" lat="47.188245"><ele>186.0</ele></trkpt>
<trkpt lon="2.801756" lat="47.187964"><ele>189.0</ele></trkpt>
<trkpt lon="2.801593" lat="47.187959"><ele>189.0</ele></trkpt>
<trkpt lon="2.801473" lat="47.187974"><ele>189.25</ele></trkpt>
<trkpt lon="2.798501" lat="47.188354"><ele>186.5</ele></trkpt>
<trkpt lon="2.798393" lat="47.188357"><ele>186.25</ele></trkpt>
<trkpt lon="2.798259" lat="47.188350"><ele>185.75</ele></trkpt>
<trkpt lon="2.798224" lat="47.188349"><ele>185.5</ele></trkpt>
<trkpt lon="2.798176" lat="47.188417"><ele>185.5</ele></trkpt>
<trkpt lon="2.798136" lat="47.188406"><ele>185.5</ele></trkpt>
<trkpt lon="2.797651" lat="47.188277"><ele>183.25</ele></trkpt>
<trkpt lon="2.797408" lat="47.188192"><ele>183.5</ele></trkpt>
<trkpt lon="2.796411" lat="47.187801"><ele>185.75</ele></trkpt>
<trkpt lon="2.796229" lat="47.187749"><ele>186.0</ele></trkpt>
<trkpt lon="2.793832" lat="47.187526"><ele>189.0</ele></trkpt>
<trkpt lon="2.786521" lat="47.186380"><ele>194.75</ele></trkpt>
<trkpt lon="2.786016" lat="47.186475"><ele>194.75</ele></trkpt>
<trkpt lon="2.785056" lat="47.186628"><ele>194.0</ele></trkpt>
<trkpt lon="2.784026" lat="47.186767"><ele>192.5</ele></trkpt>
<trkpt lon="2.783484" lat="47.186862"><ele>192.0</ele></trkpt>
<trkpt lon="2.782175" lat="47.187361"><ele>190.0</ele></trkpt>
<trkpt lon="2.775464" lat="47.189749"><ele>196.0</ele></trkpt>
<trkpt lon="2.770400" lat="47.191550"><ele>189.0</ele></trkpt>
<trkpt lon="2.769843" lat="47.191761"><ele>189.25</ele></trkpt>
<trkpt lon="2.769285" lat="47.191987"><ele>190.0</ele></trkpt>
<trkpt lon="2.769215" lat="47.192046"><ele>190.0</ele></trkpt>
<trkpt lon="2.765353" lat="47.192228"><ele>193.0</ele></trkpt>
<trkpt lon="2.761190" lat="47.192367"><ele>193.75</ele></trkpt>
<trkpt lon="2.758690" lat="47.191966"><ele>202.75</ele></trkpt>
<trkpt lon="2.757874" lat="47.191813"><ele>203.0</ele></trkpt>
<trkpt lon="2.757958" lat="47.192511"><ele>202.5</ele></trkpt>
<trkpt lon="2.758123" lat="47.194234"><ele>197.25</ele></trkpt>
<trkpt lon="2.758443" lat="47.197092"><ele>200.25</ele></trkpt>
<trkpt lon="2.758448" lat="47.197213"><ele>200.0</ele></trkpt>
<trkpt lon="2.758418" lat="47.197416"><ele>199.75</ele></trkpt>
<trkpt lon="2.757797" lat="47.198683"><ele>195.75</ele></trkpt>
<trkpt lon="2.757773" lat="47.198793"><ele>196.0</ele></trkpt>
<trkpt lon="2.757767" lat="47.198896"><ele>196.0</ele></trkpt>
<trkpt lon="2.757780" lat="47.198982"><ele>196.25</ele></trkpt>
<trkpt lon="2.757821" lat="47.199098"><ele>196.75</ele></trkpt>
<trkpt lon="2.758140" lat="47.199577"><ele>199.25</ele></trkpt>
<trkpt lon="2.751842" lat="47.202010"><ele>203.0</ele></trkpt>
<trkpt lon="2.749054" lat="47.203106"><ele>203.0</ele></trkpt>
<trkpt lon="2.745534" lat="47.195914"><ele>205.25</ele></trkpt>
<trkpt lon="2.745494" lat="47.195856"><ele>205.0</ele></trkpt>
<trkpt lon="2.745419" lat="47.195773"><ele>205.0</ele></trkpt>
<trkpt lon="2.742686" lat="47.193396"><ele>206.0</ele></trkpt>
<trkpt lon="2.733433" lat="47.187002"><ele>203.25</ele></trkpt>
<trkpt lon="2.725932" lat="47.190142"><ele>201.5</ele></trkpt>
<trkpt lon="2.723631" lat="47.186457"><ele>200.75</ele></trkpt>
<trkpt lon="2.720259" lat="47.188411"><ele>203.0</ele></trkpt>
<trkpt lon="2.719342" lat="47.186063"><ele>199.0</ele></trkpt>
<trkpt lon="2.715934" lat="47.185268"><ele>202.75</ele></trkpt>
<trkpt lon="2.715732" lat="47.185211"><ele>202.75</ele></trkpt>
<trkpt lon="2.715167" lat="47.185119"><ele>202.25</ele></trkpt>
<trkpt lon="2.714078" lat="47.185016"><ele>202.0</ele></trkpt>
<trkpt lon="2.713519" lat="47.185013"><ele>202.0</ele></trkpt>
<trkpt lon="2.713141" lat="47.184989"><ele>202.5</ele></trkpt>
<trkpt lon="2.713190" lat="47.184836"><ele>202.0</ele></trkpt>
<trkpt lon="2.713261" lat="47.184729"><ele>202.0</ele></trkpt>
<trkpt lon="2.713133" lat="47.184576"><ele>201.25</ele></trkpt>
<trkpt lon="2.711822" lat="47.182903"><ele>203.5</ele></trkpt>
<trkpt lon="2.712410" lat="47.182759"><ele>203.0</ele></trkpt>
<trkpt lon="2.710435" lat="47.180804"><ele>206.25</ele></trkpt>
<trkpt lon="2.710321" lat="47.180922"><ele>206.5</ele></trkpt>
<trkpt lon="2.709737" lat="47.181426"><ele>205.75</ele></trkpt>
<trkpt lon="2.709484" lat="47.181614"><ele>206.0</ele></trkpt>
<trkpt lon="2.708504" lat="47.182179"><ele>206.0</ele></trkpt>
<trkpt lon="2.707945" lat="47.181579"><ele>207.0</ele></trkpt>
<trkpt lon="2.707323" lat="47.181032"><ele>207.0</ele></trkpt>
<trkpt lon="2.707234" lat="47.181012"><ele>207.0</ele></trkpt>
<trkpt lon="2.707138" lat="47.181012"><ele>206.5</ele></trkpt>
<trkpt lon="2.706813" lat="47.181042"><ele>206.0</ele></trkpt>
<trkpt lon="2.706650" lat="47.180824"><ele>206.0</ele></trkpt>
<trkpt lon="2.706461" lat="47.180492"><ele>206.0</ele></trkpt>
<trkpt lon="2.706154" lat="47.179667"><ele>205.0</ele></trkpt>
<trkpt lon="2.706017" lat="47.178633"><ele>203.5</ele></trkpt>
<trkpt lon="2.705944" lat="47.177991"><ele>203.0</ele></trkpt>
<trkpt lon="2.705987" lat="47.177694"><ele>203.0</ele></trkpt>
<trkpt lon="2.705705" lat="47.176022"><ele>203.5</ele></trkpt>
<trkpt lon="2.705635" lat="47.175781"><ele>204.0</ele></trkpt>
<trkpt lon="2.703492" lat="47.170185"><ele>203.25</ele></trkpt>
<trkpt lon="2.700526" lat="47.170021"><ele>204.0</ele></trkpt>
<trkpt lon="2.700290" lat="47.170120"><ele>204.0</ele></trkpt>
<trkpt lon="2.699941" lat="47.170287"><ele>205.0</ele></trkpt>
<trkpt lon="2.699737" lat="47.170373"><ele>205.0</ele></trkpt>
<trkpt lon="2.699204" lat="47.170517"><ele>205.5</ele></trkpt>
<trkpt lon="2.698847" lat="47.170587"><ele>205.75</ele></trkpt>
<trkpt lon="2.698689" lat="47.170603"><ele>205.25</ele></trkpt>
<trkpt lon="2.698533" lat="47.170570"><ele>205.0</ele></trkpt>
<trkpt lon="2.698415" lat="47.170503"><ele>205.0</ele></trkpt>
<trkpt lon="2.697723" lat="47.169673"><ele>201.75</ele></trkpt>
<trkpt lon="2.697586" lat="47.169553"><ele>201.25</ele></trkpt>
<trkpt lon="2.697423" lat="47.169454"><ele>200.75</ele></trkpt>
<trkpt lon="2.696039" lat="47.168927"><ele>197.5</ele></trkpt>
<trkpt lon="2.695886" lat="47.168856"><ele>197.0</ele></trkpt>
<trkpt lon="2.695819" lat="47.168790"><ele>197.0</ele></trkpt>
<trkpt lon="2.695776" lat="47.168703"><ele>197.0</ele></trkpt>
<trkpt lon="2.695832" lat="47.168581"><ele>197.0</ele></trkpt>
<trkpt lon="2.695853" lat="47.168491"><ele>197.25</ele></trkpt>
<trkpt lon="2.695835" lat="47.168424"><ele>197.5</ele></trkpt>
<trkpt lon="2.694692" lat="47.166946"><ele>195.0</ele></trkpt>
<trkpt lon="2.691622" lat="47.167889"><ele>191.75</ele></trkpt>
<trkpt lon="2.691498" lat="47.167932"><ele>191.5</ele></trkpt>
<trkpt lon="2.688948" lat="47.169079"><ele>189.5</ele></trkpt>
<trkpt lon="2.688247" lat="47.169356"><ele>188.75</ele></trkpt>
<trkpt lon="2.688027" lat="47.169430"><ele>188.75</ele></trkpt>
<trkpt lon="2.687501" lat="47.169569"><ele>188.0</ele></trkpt>
<trkpt lon="2.686789" lat="47.169774"><ele>187.75</ele></trkpt>
<trkpt lon="2.686319" lat="47.169936"><ele>187.25</ele></trkpt>
<trkpt lon="2.685417" lat="47.170295"><ele>186.75</ele></trkpt>
<trkpt lon="2.683767" lat="47.170992"><ele>186.5</ele></trkpt>
<trkpt lon="2.683714" lat="47.171021"><ele>186.5</ele></trkpt>
<trkpt lon="2.683682" lat="47.171053"><ele>186.75</ele></trkpt>
<trkpt lon="2.683670" lat="47.171100"><ele>186.75</ele></trkpt>
<trkpt lon="2.683566" lat="47.171057"><ele>186.75</ele></trkpt>
<trkpt lon="2.683478" lat="47.171006"><ele>186.75</ele></trkpt>
<trkpt lon="2.683340" lat="47.170882"><ele>186.25</ele></trkpt>
<trkpt lon="2.682957" lat="47.170537"><ele>186.0</ele></trkpt>
<trkpt lon="2.682861" lat="47.170415"><ele>186.0</ele></trkpt>
<trkpt lon="2.682652" lat="47.170173"><ele>186.0</ele></trkpt>
<trkpt lon="2.682552" lat="47.170070"><ele>186.0</ele></trkpt>
<trkpt lon="2.682432" lat="47.169976"><ele>186.0</ele></trkpt>
<trkpt lon="2.681117" lat="47.169190"><ele>186.75</ele></trkpt>
<trkpt lon="2.680219" lat="47.168679"><ele>185.25</ele></trkpt>
<trkpt lon="2.680050" lat="47.168564"><ele>184.25</ele></trkpt>
<trkpt lon="2.679055" lat="47.167808"><ele>184.0</ele></trkpt>
<trkpt lon="2.678078" lat="47.167109"><ele>184.75</ele></trkpt>
<trkpt lon="2.678018" lat="47.167066"><ele>185.0</ele></trkpt>
<trkpt lon="2.677982" lat="47.167003"><ele>185.5</ele></trkpt>
<trkpt lon="2.677072" lat="47.166351"><ele>188.25</ele></trkpt>
<trkpt lon="2.676863" lat="47.166290"><ele>188.5</ele></trkpt>
<trkpt lon="2.676675" lat="47.166216"><ele>188.5</ele></trkpt>
<trkpt lon="2.673488" lat="47.164626"><ele>189.0</ele></trkpt>
<trkpt lon="2.668372" lat="47.161915"><ele>187.75</ele></trkpt>
<trkpt lon="2.665579" lat="47.160238"><ele>186.75</ele></trkpt>
<trkpt lon="2.662779" lat="47.158348"><ele>180.0</ele></trkpt>
<trkpt lon="2.662066" lat="47.157684"><ele>178.25</ele></trkpt>
<trkpt lon="2.660435" lat="47.156076"><ele>178.5</ele></trkpt>
<trkpt lon="2.660269" lat="47.155937"><ele>178.5</ele></trkpt>
<trkpt lon="2.658434" lat="47.154717"><ele>176.25</ele></trkpt>
<trkpt lon="2.658262" lat="47.154622"><ele>175.75</ele></trkpt>
<trkpt lon="2.658002" lat="47.154514"><ele>175.5</ele></trkpt>
<trkpt lon="2.657857" lat="47.154447"><ele>175.25</ele></trkpt>
<trkpt lon="2.656747" lat="47.153743"><ele>177.0</ele></trkpt>
<trkpt lon="2.656434" lat="47.153520"><ele>177.25</ele></trkpt>
<trkpt lon="2.652454" lat="47.150968"><ele>176.25</ele></trkpt>
<trkpt lon="2.651123" lat="47.151923"><ele>172.0</ele></trkpt>
<trkpt lon="2.650936" lat="47.152075"><ele>172.0</ele></trkpt>
<trkpt lon="2.650628" lat="47.151864"><ele>172.0</ele></trkpt>
<trkpt lon="2.648182" lat="47.150521"><ele>170.5</ele></trkpt>
<trkpt lon="2.647304" lat="47.149973"><ele>170.25</ele></trkpt>
<trkpt lon="2.647280" lat="47.149982"><ele>170.0</ele></trkpt>
<trkpt lon="2.647198" lat="47.149965"><ele>170.0</ele></trkpt>
<trkpt lon="2.647071" lat="47.149952"><ele>170.0</ele></trkpt>
<trkpt lon="2.642002" lat="47.149378"><ele>173.75</ele></trkpt>
<trkpt lon="2.640387" lat="47.149184"><ele>176.5</ele></trkpt>
<trkpt lon="2.633502" lat="47.148409"><ele>179.25</ele></trkpt>
<trkpt lon="2.632124" lat="47.148174"><ele>178.0</ele></trkpt>
<trkpt lon="2.631216" lat="47.148061"><ele>176.25</ele></trkpt>
<trkpt lon="2.630258" lat="47.147967"><ele>174.5</ele></trkpt>
<trkpt lon="2.629765" lat="47.147929"><ele>173.5</ele></trkpt>
<trkpt lon="2.629347" lat="47.147922"><ele>173.0</ele></trkpt>
<trkpt lon="2.628682" lat="47.147937"><ele>173.25</ele></trkpt>
<trkpt lon="2.625361" lat="47.148046"><ele>176.75</ele></trkpt>
<trkpt lon="2.625020" lat="47.148049"><ele>176.75</ele></trkpt>
<trkpt lon="2.623987" lat="47.147987"><ele>177.25</ele></trkpt>
<trkpt lon="2.622319" lat="47.147860"><ele>178.0</ele></trkpt>
<trkpt lon="2.621626" lat="47.147800"><ele>179.0</ele></trkpt>
<trkpt lon="2.620283" lat="47.147649"><ele>180.0</ele></trkpt>
<trkpt lon="2.619825" lat="47.147595"><ele>180.25</ele></trkpt>
<trkpt lon="2.619452" lat="47.147528"><ele>180.75</ele></trkpt>
<trkpt lon="2.618864" lat="47.147396"><ele>181.0</ele></trkpt>
<trkpt lon="2.618399" lat="47.147323"><ele>180.5</ele></trkpt>
<trkpt lon="2.617787" lat="47.147260"><ele>180.0</ele></trkpt>
<trkpt lon="2.614408" lat="47.146975"><ele>174.0</ele></trkpt>
<trkpt lon="2.610953" lat="47.146669"><ele>174.75</ele></trkpt>
<trkpt lon="2.610116" lat="47.146654"><ele>176.0</ele></trkpt>
<trkpt lon="2.609601" lat="47.146581"><ele>175.5</ele></trkpt>
<trkpt lon="2.608787" lat="47.146383"><ele>176.0</ele></trkpt>
<trkpt lon="2.607792" lat="47.146044"><ele>177.0</ele></trkpt>
<trkpt lon="2.607268" lat="47.145893"><ele>176.75</ele></trkpt>
<trkpt lon="2.606753" lat="47.145787"><ele>175.75</ele></trkpt>
<trkpt lon="2.604899" lat="47.145519"><ele>172.75</ele></trkpt>
<trkpt lon="2.601354" lat="47.145035"><ele>171.0</ele></trkpt>
<trkpt lon="2.596097" lat="47.144300"><ele>174.0</ele></trkpt>
<trkpt lon="2.593664" lat="47.143943"><ele>176.75</ele></trkpt>
<trkpt lon="2.593098" lat="47.143902"><ele>177.0</ele></trkpt>
<trkpt lon="2.592720" lat="47.143884"><ele>177.0</ele></trkpt>
<trkpt lon="2.592299" lat="47.143943"><ele>176.75</ele></trkpt>
<trkpt lon="2.590179" lat="47.144363"><ele>174.0</ele></trkpt>
<trkpt lon="2.589089" lat="47.144573"><ele>172.5</ele></trkpt>
<trkpt lon="2.588600" lat="47.144655"><ele>171.75</ele></trkpt>
<trkpt lon="2.588222" lat="47.144678"><ele>170.5</ele></trkpt>
<trkpt lon="2.586677" lat="47.144684"><ele>168.75</ele></trkpt>
<trkpt lon="2.583682" lat="47.144710"><ele>170.0</ele></trkpt>
<trkpt lon="2.582023" lat="47.144701"><ele>173.0</ele></trkpt>
<trkpt lon="2.581548" lat="47.144681"><ele>172.25</ele></trkpt>
<trkpt lon="2.581164" lat="47.144615"><ele>172.0</ele></trkpt>
<trkpt lon="2.580822" lat="47.144507"><ele>171.5</ele></trkpt>
<trkpt lon="2.579310" lat="47.143916"><ele>169.25</ele></trkpt>
<trkpt lon="2.578880" lat="47.143773"><ele>168.25</ele></trkpt>
<trkpt lon="2.578022" lat="47.143607"><ele>165.75</ele></trkpt>
<trkpt lon="2.575657" lat="47.143222"><ele>158.25</ele></trkpt>
<trkpt lon="2.574368" lat="47.143008"><ele>157.0</ele></trkpt>
<trkpt lon="2.573901" lat="47.142956"><ele>157.0</ele></trkpt>
<trkpt lon="2.573491" lat="47.142926"><ele>156.75</ele></trkpt>
<trkpt lon="2.570625" lat="47.142752"><ele>157.0</ele></trkpt>
<trkpt lon="2.570558" lat="47.142749"><ele>157.0</ele></trkpt>
<trkpt lon="2.569968" lat="47.142680"><ele>156.75</ele></trkpt>
<trkpt lon="2.569604" lat="47.142611"><ele>156.5</ele></trkpt>
<trkpt lon="2.567564" lat="47.142062"><ele>157.5</ele></trkpt>
<trkpt lon="2.565974" lat="47.141641"><ele>157.0</ele></trkpt>
<trkpt lon="2.565067" lat="47.141351"><ele>156.0</ele></trkpt>
<trkpt lon="2.563860" lat="47.140949"><ele>155.0</ele></trkpt>
<trkpt lon="2.562563" lat="47.140367"><ele>155.0</ele></trkpt>
<trkpt lon="2.561895" lat="47.140008"><ele>155.0</ele></trkpt>
<trkpt lon="2.561035" lat="47.139665"><ele>155.0</ele></trkpt>
<trkpt lon="2.560210" lat="47.139278"><ele>155.0</ele></trkpt>
<trkpt lon="2.559302" lat="47.138804"><ele>155.0</ele></trkpt>
<trkpt lon="2.558401" lat="47.138277"><ele>154.0</ele></trkpt>
<trkpt lon="2.558209" lat="47.138198"><ele>153.5</ele></trkpt>
<trkpt lon="2.557833" lat="47.138160"><ele>153.25</ele></trkpt>
<trkpt lon="2.556729" lat="47.138067"><ele>154.0</ele></trkpt>
<trkpt lon="2.555742" lat="47.137976"><ele>154.5</ele></trkpt>
<trkpt lon="2.554881" lat="47.137888"><ele>154.0</ele></trkpt>
<trkpt lon="2.553935" lat="47.137779"><ele>154.0</ele></trkpt>
<trkpt lon="2.553562" lat="47.137722"><ele>153.75</ele></trkpt>
<trkpt lon="2.553199" lat="47.137642"><ele>153.75</ele></trkpt>
<trkpt lon="2.552944" lat="47.137553"><ele>153.75</ele></trkpt>
<trkpt lon="2.552273" lat="47.137214"><ele>153.75</ele></trkpt>
<trkpt lon="2.551967" lat="47.137154"><ele>153.75</ele></trkpt>
<trkpt lon="2.551861" lat="47.137133"><ele>153.75</ele></trkpt>
<trkpt lon="2.551710" lat="47.137118"><ele>153.75</ele></trkpt>
<trkpt lon="2.551597" lat="47.137118"><ele>154.0</ele></trkpt>
<trkpt lon="2.551471" lat="47.137137"><ele>154.0</ele></trkpt>
<trkpt lon="2.551422" lat="47.137149"><ele>154.0</ele></trkpt>
<trkpt lon="2.551373" lat="47.137162"><ele>154.0</ele></trkpt>
<trkpt lon="2.550504" lat="47.137501"><ele>156.0</ele></trkpt>
<trkpt lon="2.550011" lat="47.136843"><ele>155.5</ele></trkpt>
<trkpt lon="2.549951" lat="47.136743"><ele>155.25</ele></trkpt>
<trkpt lon="2.549951" lat="47.136656"><ele>155.0</ele></trkpt>
<trkpt lon="2.550007" lat="47.136588"><ele>155.0</ele></trkpt>
<trkpt lon="2.550121" lat="47.136515"><ele>155.0</ele></trkpt>
<trkpt lon="2.550218" lat="47.136477"><ele>155.0</ele></trkpt>
<trkpt lon="2.550096" lat="47.136428"><ele>155.0</ele></trkpt>
<trkpt lon="2.549676" lat="47.136290"><ele>154.5</ele></trkpt>
<trkpt lon="2.549558" lat="47.136232"><ele>154.0</ele></trkpt>
<trkpt lon="2.549039" lat="47.135891"><ele>153.25</ele></trkpt>
<trkpt lon="2.549260" lat="47.135554"><ele>153.0</ele></trkpt>
<trkpt lon="2.549397" lat="47.135396"><ele>153.0</ele></trkpt>
<trkpt lon="2.549436" lat="47.135346"><ele>153.0</ele></trkpt>
<trkpt lon="2.549454" lat="47.135323"><ele>153.0</ele></trkpt>
<trkpt lon="2.548564" lat="47.135035"><ele>152.0</ele></trkpt>
<trkpt lon="2.548469" lat="47.134964"><ele>152.0</ele></trkpt>
<trkpt lon="2.548384" lat="47.135003"><ele>152.0</ele></trkpt>
<trkpt lon="2.548269" lat="47.134927"><ele>152.0</ele></trkpt>
<trkpt lon="2.547361" lat="47.134404"><ele>152.0</ele></trkpt>
<trkpt lon="2.547308" lat="47.134410"><ele>152.0</ele></trkpt>
<trkpt lon="2.547252" lat="47.134402"><ele>152.0</ele></trkpt>
<trkpt lon="2.547091" lat="47.134332"><ele>152.0</ele></trkpt>
<trkpt lon="2.547028" lat="47.134390"><ele>152.0</ele></trkpt>
<trkpt lon="2.546870" lat="47.134589"><ele>152.0</ele></trkpt>
<trkpt lon="2.546801" lat="47.134567"><ele>152.0</ele></trkpt>
<trkpt lon="2.545652" lat="47.134173"><ele>151.75</ele></trkpt>
<trkpt lon="2.545597" lat="47.134207"><ele>152.0</ele></trkpt>
<trkpt lon="2.545306" lat="47.134348"><ele>152.25</ele></trkpt>
<trkpt lon="2.545101" lat="47.134470"><ele>152.5</ele></trkpt>
<trkpt lon="2.545019" lat="47.134533"><ele>152.75</ele></trkpt>
<trkpt lon="2.544198" lat="47.134247"><ele>153.75</ele></trkpt>
<trkpt lon="2.543940" lat="47.134154"><ele>154.0</ele></trkpt>
<trkpt lon="2.543895" lat="47.134052"><ele>154.0</ele></trkpt>
<trkpt lon="2.543539" lat="47.133932"><ele>155.0</ele></trkpt>
<trkpt lon="2.543522" lat="47.133953"><ele>154.75</ele></trkpt>
<trkpt lon="2.543495" lat="47.133969"><ele>155.0</ele></trkpt>
<trkpt lon="2.543461" lat="47.133978"><ele>155.0</ele></trkpt>
<trkpt lon="2.543426" lat="47.133978"><ele>155.0</ele></trkpt>
<trkpt lon="2.543392" lat="47.133970"><ele>155.0</ele></trkpt>
<trkpt lon="2.543364" lat="47.133955"><ele>155.0</ele></trkpt>
<trkpt lon="2.543346" lat="47.133934"><ele>155.0</ele></trkpt>
<trkpt lon="2.543339" lat="47.133910"><ele>155.0</ele></trkpt>
<trkpt lon="2.543345" lat="47.133886"><ele>155.0</ele></trkpt>
<trkpt lon="2.542960" lat="47.133780"><ele>156.25</ele></trkpt>
<trkpt lon="2.542841" lat="47.133730"><ele>156.75</ele></trkpt>
<trkpt lon="2.542615" lat="47.133932"><ele>157.0</ele></trkpt>
<trkpt lon="2.542358" lat="47.134158"><ele>157.75</ele></trkpt>
<trkpt lon="2.541659" lat="47.133828"><ele>159.0</ele></trkpt>
<trkpt lon="2.541529" lat="47.133743"><ele>159.0</ele></trkpt>
<trkpt lon="2.541097" lat="47.133121"><ele>158.25</ele></trkpt>
<trkpt lon="2.540207" lat="47.133412"><ele>160.25</ele></trkpt>
<trkpt lon="2.539819" lat="47.132879"><ele>161.0</ele></trkpt>
<trkpt lon="2.539772" lat="47.132855"><ele>161.0</ele></trkpt>
<trkpt lon="2.539579" lat="47.132802"><ele>161.5</ele></trkpt>
<trkpt lon="2.539234" lat="47.132719"><ele>162.75</ele></trkpt>
<trkpt lon="2.539072" lat="47.132711"><ele>163.0</ele></trkpt>
<trkpt lon="2.538923" lat="47.132594"><ele>163.0</ele></trkpt>
<trkpt lon="2.538622" lat="47.132269"><ele>163.0</ele></trkpt>
<trkpt lon="2.538714" lat="47.132080"><ele>162.25</ele></trkpt>
<trkpt lon="2.537659" lat="47.131804"><ele>162.25</ele></trkpt>
<trkpt lon="2.537121" lat="47.131678"><ele>163.0</ele></trkpt>
<trkpt lon="2.536547" lat="47.131522"><ele>163.25</ele></trkpt>
<trkpt lon="2.536088" lat="47.131378"><ele>164.0</ele></trkpt>
<trkpt lon="2.535659" lat="47.131224"><ele>164.25</ele></trkpt>
<trkpt lon="2.535259" lat="47.131094"><ele>165.0</ele></trkpt>
<trkpt lon="2.534850" lat="47.130980"><ele>166.0</ele></trkpt>
<trkpt lon="2.533611" lat="47.130664"><ele>168.25</ele></trkpt>
<trkpt lon="2.532500" lat="47.130360"><ele>170.25</ele></trkpt>
<trkpt lon="2.531822" lat="47.130155"><ele>171.0</ele></trkpt>
<trkpt lon="2.530739" lat="47.129818"><ele>171.0</ele></trkpt>
<trkpt lon="2.529803" lat="47.129485"><ele>169.25</ele></trkpt>
<trkpt lon="2.529334" lat="47.129327"><ele>168.25</ele></trkpt>
<trkpt lon="2.528945" lat="47.129219"><ele>167.0</ele></trkpt>
<trkpt lon="2.526398" lat="47.128683"><ele>160.5</ele></trkpt>
<trkpt lon="2.525852" lat="47.128562"><ele>158.25</ele></trkpt>
<trkpt lon="2.525513" lat="47.128480"><ele>158.0</ele></trkpt>
<trkpt lon="2.525238" lat="47.128397"><ele>156.5</ele></trkpt>
<trkpt lon="2.525194" lat="47.128417"><ele>156.25</ele></trkpt>
<trkpt lon="2.525140" lat="47.128414"><ele>156.0</ele></trkpt>
<trkpt lon="2.524818" lat="47.128337"><ele>155.25</ele></trkpt>
<trkpt lon="2.524763" lat="47.128364"><ele>155.0</ele></trkpt>
<trkpt lon="2.524623" lat="47.128371"><ele>154.5</ele></trkpt>
<trkpt lon="2.524371" lat="47.128362"><ele>153.5</ele></trkpt>
<trkpt lon="2.524081" lat="47.128329"><ele>152.5</ele></trkpt>
<trkpt lon="2.523816" lat="47.128286"><ele>151.5</ele></trkpt>
<trkpt lon="2.523271" lat="47.128129"><ele>149.5</ele></trkpt>
<trkpt lon="2.521959" lat="47.127713"><ele>146.0</ele></trkpt>
<trkpt lon="2.520905" lat="47.127494"><ele>145.0</ele></trkpt>
<trkpt lon="2.519106" lat="47.127045"><ele>145.25</ele></trkpt>
<trkpt lon="2.518809" lat="47.127000"><ele>145.25</ele></trkpt>
<trkpt lon="2.517995" lat="47.126848"><ele>147.0</ele></trkpt>
<trkpt lon="2.517166" lat="47.126778"><ele>150.0</ele></trkpt>
<trkpt lon="2.516877" lat="47.126762"><ele>151.0</ele></trkpt>
<trkpt lon="2.516241" lat="47.126685"><ele>153.5</ele></trkpt>
<trkpt lon="2.513505" lat="47.126516"><ele>158.0</ele></trkpt>
<trkpt lon="2.513342" lat="47.126671"><ele>159.0</ele></trkpt>
<trkpt lon="2.512980" lat="47.127122"><ele>160.5</ele></trkpt>
<trkpt lon="2.512582" lat="47.127641"><ele>162.0</ele></trkpt>
<trkpt lon="2.512344" lat="47.127938"><ele>162.0</ele></trkpt>
<trkpt lon="2.512148" lat="47.128123"><ele>162.0</ele></trkpt>
<trkpt lon="2.511681" lat="47.128514"><ele>162.0</ele></trkpt>
<trkpt lon="2.510952" lat="47.129090"><ele>163.0</ele></trkpt>
<trkpt lon="2.510230" lat="47.129571"><ele>164.0</ele></trkpt>
<trkpt lon="2.509859" lat="47.129277"><ele>164.0</ele></trkpt>
<trkpt lon="2.509437" lat="47.129048"><ele>164.5</ele></trkpt>
<trkpt lon="2.508999" lat="47.128841"><ele>165.25</ele></trkpt>
<trkpt lon="2.508130" lat="47.128520"><ele>164.5</ele></trkpt>
<trkpt lon="2.506043" lat="47.127771"><ele>164.0</ele></trkpt>
<trkpt lon="2.505345" lat="47.127515"><ele>164.75</ele></trkpt>
<trkpt lon="2.505128" lat="47.127413"><ele>164.0</ele></trkpt>
<trkpt lon="2.504239" lat="47.127111"><ele>162.75</ele></trkpt>
<trkpt lon="2.503399" lat="47.126868"><ele>162.25</ele></trkpt>
<trkpt lon="2.502670" lat="47.126664"><ele>162.75</ele></trkpt>
<trkpt lon="2.501928" lat="47.126466"><ele>162.25</ele></trkpt>
<trkpt lon="2.500246" lat="47.126087"><ele>163.75</ele></trkpt>
<trkpt lon="2.497754" lat="47.125565"><ele>163.0</ele></trkpt>
<trkpt lon="2.496868" lat="47.125405"><ele>162.25</ele></trkpt>
<trkpt lon="2.496131" lat="47.125238"><ele>162.75</ele></trkpt>
<trkpt lon="2.495591" lat="47.125077"><ele>162.0</ele></trkpt>
<trkpt lon="2.494276" lat="47.124639"><ele>160.5</ele></trkpt>
<trkpt lon="2.493015" lat="47.124154"><ele>159.75</ele></trkpt>
<trkpt lon="2.492766" lat="47.123999"><ele>159.25</ele></trkpt>
<trkpt lon="2.492323" lat="47.123709"><ele>159.75</ele></trkpt>
<trkpt lon="2.491166" lat="47.123059"><ele>159.0</ele></trkpt>
<trkpt lon="2.490497" lat="47.122674"><ele>158.5</ele></trkpt>
<trkpt lon="2.490190" lat="47.122515"><ele>159.25</ele></trkpt>
<trkpt lon="2.489436" lat="47.122163"><ele>159.75</ele></trkpt>
<trkpt lon="2.488756" lat="47.121867"><ele>159.5</ele></trkpt>
<trkpt lon="2.487876" lat="47.121524"><ele>159.75</ele></trkpt>
<trkpt lon="2.487272" lat="47.121325"><ele>160.5</ele></trkpt>
<trkpt lon="2.486368" lat="47.121009"><ele>160.5</ele></trkpt>
<trkpt lon="2.483432" lat="47.119631"><ele>157.5</ele></trkpt>
<trkpt lon="2.482106" lat="47.119020"><ele>156.5</ele></trkpt>
<trkpt lon="2.481080" lat="47.118575"><ele>155.75</ele></trkpt>
<trkpt lon="2.480556" lat="47.118309"><ele>155.0</ele></trkpt>
<trkpt lon="2.480067" lat="47.118035"><ele>154.0</ele></trkpt>
<trkpt lon="2.479539" lat="47.117757"><ele>154.0</ele></trkpt>
<trkpt lon="2.478978" lat="47.117504"><ele>153.5</ele></trkpt>
<trkpt lon="2.478110" lat="47.117101"><ele>151.0</ele></trkpt>
<trkpt lon="2.477514" lat="47.116839"><ele>150.0</ele></trkpt>
<trkpt lon="2.476590" lat="47.116450"><ele>148.0</ele></trkpt>
<trkpt lon="2.476168" lat="47.116290"><ele>147.0</ele></trkpt>
<trkpt lon="2.475333" lat="47.115989"><ele>146.25</ele></trkpt>
<trkpt lon="2.474750" lat="47.115891"><ele>145.75</ele></trkpt>
<trkpt lon="2.474599" lat="47.115833"><ele>146.0</ele></trkpt>
<trkpt lon="2.474206" lat="47.115643"><ele>146.5</ele></trkpt>
<trkpt lon="2.473897" lat="47.115547"><ele>147.0</ele></trkpt>
<trkpt lon="2.473342" lat="47.115338"><ele>146.5</ele></trkpt>
<trkpt lon="2.472122" lat="47.114871"><ele>146.75</ele></trkpt>
<trkpt lon="2.471423" lat="47.114588"><ele>146.0</ele></trkpt>
<trkpt lon="2.471131" lat="47.114485"><ele>144.75</ele></trkpt>
<trkpt lon="2.470997" lat="47.114444"><ele>144.0</ele></trkpt>
<trkpt lon="2.470879" lat="47.114446"><ele>143.25</ele></trkpt>
<trkpt lon="2.470789" lat="47.114480"><ele>142.5</ele></trkpt>
<trkpt lon="2.470720" lat="47.114472"><ele>142.25</ele></trkpt>
<trkpt lon="2.470588" lat="47.114468"><ele>141.75</ele></trkpt>
<trkpt lon="2.470508" lat="47.114372"><ele>142.0</ele></trkpt>
<trkpt lon="2.470410" lat="47.114224"><ele>142.25</ele></trkpt>
<trkpt lon="2.470363" lat="47.114109"><ele>142.5</ele></trkpt>
<trkpt lon="2.470240" lat="47.114089"><ele>142.0</ele></trkpt>
<trkpt lon="2.470162" lat="47.114059"><ele>141.5</ele></trkpt>
<trkpt lon="2.470012" lat="47.113969"><ele>141.25</ele></trkpt>
<trkpt lon="2.469937" lat="47.113886"><ele>141.5</ele></trkpt>
<trkpt lon="2.469775" lat="47.113759"><ele>141.0</ele></trkpt>
<trkpt lon="2.469545" lat="47.113599"><ele>141.25</ele></trkpt>
<trkpt lon="2.469204" lat="47.113346"><ele>140.0</ele></trkpt>
<trkpt lon="2.469098" lat="47.113231"><ele>139.75</ele></trkpt>
<trkpt lon="2.468958" lat="47.113055"><ele>139.0</ele></trkpt>
<trkpt lon="2.468883" lat="47.113001"><ele>139.0</ele></trkpt>
<trkpt lon="2.468791" lat="47.112974"><ele>139.0</ele></trkpt>
<trkpt lon="2.468676" lat="47.112968"><ele>139.0</ele></trkpt>
<trkpt lon="2.468362" lat="47.112993"><ele>139.0</ele></trkpt>
<trkpt lon="2.468199" lat="47.112980"><ele>139.0</ele></trkpt>
<trkpt lon="2.467993" lat="47.112911"><ele>139.0</ele></trkpt>
<trkpt lon="2.467830" lat="47.112813"><ele>139.0</ele></trkpt>
<trkpt lon="2.467740" lat="47.112731"><ele>139.0</ele></trkpt>
<trkpt lon="2.467478" lat="47.112696"><ele>139.0</ele></trkpt>
<trkpt lon="2.467274" lat="47.112644"><ele>139.0</ele></trkpt>
<trkpt lon="2.467011" lat="47.112581"><ele>139.0</ele></trkpt>
<trkpt lon="2.466825" lat="47.112605"><ele>139.0</ele></trkpt>
<trkpt lon="2.466629" lat="47.112612"><ele>139.0</ele></trkpt>
<trkpt lon="2.466402" lat="47.112599"><ele>139.25</ele></trkpt>
<trkpt lon="2.466113" lat="47.112561"><ele>139.0</ele></trkpt>
<trkpt lon="2.465746" lat="47.112492"><ele>140.25</ele></trkpt>
<trkpt lon="2.465369" lat="47.112398"><ele>140.75</ele></trkpt>
<trkpt lon="2.464527" lat="47.112138"><ele>142.5</ele></trkpt>
<trkpt lon="2.463588" lat="47.111820"><ele>145.0</ele></trkpt>
<trkpt lon="2.462469" lat="47.111423"><ele>147.0</ele></trkpt>
<trkpt lon="2.461689" lat="47.111156"><ele>148.75</ele></trkpt>
<trkpt lon="2.461491" lat="47.111101"><ele>148.75</ele></trkpt>
<trkpt lon="2.461013" lat="47.111015"><ele>149.0</ele></trkpt>
<trkpt lon="2.460644" lat="47.110956"><ele>149.25</ele></trkpt>
<trkpt lon="2.457953" lat="47.110550"><ele>149.75</ele></trkpt>
<trkpt lon="2.457114" lat="47.110446"><ele>149.0</ele></trkpt>
<trkpt lon="2.455312" lat="47.110206"><ele>146.0</ele></trkpt>
<trkpt lon="2.454022" lat="47.110023"><ele>146.5</ele></trkpt>
<trkpt lon="2.452202" lat="47.109754"><ele>147.75</ele></trkpt>
<trkpt lon="2.450297" lat="47.109445"><ele>149.0</ele></trkpt>
<trkpt lon="2.448711" lat="47.109125"><ele>148.75</ele></trkpt>
<trkpt lon="2.448653" lat="47.109130"><ele>148.75</ele></trkpt>
<trkpt lon="2.448597" lat="47.109150"><ele>148.75</ele></trkpt>
<trkpt lon="2.448567" lat="47.109212"><ele>149.0</ele></trkpt>
<trkpt lon="2.448418" lat="47.109676"><ele>149.75</ele></trkpt>
<trkpt lon="2.448088" lat="47.110271"><ele>150.75</ele></trkpt>
<trkpt lon="2.447783" lat="47.110741"><ele>152.25</ele></trkpt>
<trkpt lon="2.447259" lat="47.111503"><ele>153.75</ele></trkpt>
<trkpt lon="2.446642" lat="47.112335"><ele>155.75</ele></trkpt>
<trkpt lon="2.446106" lat="47.112968"><ele>157.0</ele></trkpt>
<trkpt lon="2.446024" lat="47.113113"><ele>157.25</ele></trkpt>
<trkpt lon="2.445681" lat="47.113652"><ele>158.0</ele></trkpt>
<trkpt lon="2.445343" lat="47.114129"><ele>160.25</ele></trkpt>
<trkpt lon="2.444828" lat="47.114826"><ele>160.25</ele></trkpt>
<trkpt lon="2.444288" lat="47.115490"><ele>161.5</ele></trkpt>
<trkpt lon="2.444274" lat="47.115550"><ele>162.25</ele></trkpt>
<trkpt lon="2.444286" lat="47.115610"><ele>162.5</ele></trkpt>
<trkpt lon="2.444364" lat="47.115698"><ele>163.0</ele></trkpt>
<trkpt lon="2.444386" lat="47.115752"><ele>163.0</ele></trkpt>
<trkpt lon="2.444372" lat="47.115804"><ele>163.0</ele></trkpt>
<trkpt lon="2.444293" lat="47.115875"><ele>163.75</ele></trkpt>
<trkpt lon="2.444082" lat="47.115775"><ele>162.75</ele></trkpt>
<trkpt lon="2.443478" lat="47.115394"><ele>161.75</ele></trkpt>
<trkpt lon="2.443161" lat="47.115197"><ele>162.75</ele></trkpt>
<trkpt lon="2.443180" lat="47.115170"><ele>162.75</ele></trkpt>
<trkpt lon="2.443274" lat="47.115117"><ele>162.75</ele></trkpt>
<trkpt lon="2.443373" lat="47.115074"><ele>163.0</ele></trkpt>
<trkpt lon="2.443546" lat="47.115052"><ele>163.0</ele></trkpt>
<trkpt lon="2.443685" lat="47.115014"><ele>162.75</ele></trkpt>
<trkpt lon="2.443772" lat="47.114955"><ele>162.75</ele></trkpt>
<trkpt lon="2.444701" lat="47.113768"><ele>160.5</ele></trkpt>
<trkpt lon="2.445528" lat="47.112735"><ele>158.5</ele></trkpt>
<trkpt lon="2.446550" lat="47.111410"><ele>155.5</ele></trkpt>
<trkpt lon="2.447217" lat="47.110511"><ele>152.5</ele></trkpt>
<trkpt lon="2.447311" lat="47.110359"><ele>151.75</ele></trkpt>
<trkpt lon="2.447476" lat="47.110019"><ele>151.0</ele></trkpt>
<trkpt lon="2.447557" lat="47.109796"><ele>150.25</ele></trkpt>
<trkpt lon="2.447625" lat="47.109507"><ele>150.0</ele></trkpt>
<trkpt lon="2.447648" lat="47.109232"><ele>149.5</ele></trkpt>
<trkpt lon="2.447657" lat="47.108969"><ele>149.0</ele></trkpt>
<trkpt lon="2.447606" lat="47.108903"><ele>149.0</ele></trkpt>
<trkpt lon="2.445902" lat="47.108522"><ele>146.5</ele></trkpt>
<trkpt lon="2.444175" lat="47.108063"><ele>147.75</ele></trkpt>
<trkpt lon="2.442798" lat="47.107623"><ele>147.75</ele></trkpt>
<trkpt lon="2.439071" lat="47.106228"><ele>146.0</ele></trkpt>
<trkpt lon="2.437757" lat="47.105746"><ele>144.25</ele></trkpt>
<trkpt lon="2.436855" lat="47.105456"><ele>142.25</ele></trkpt>
<trkpt lon="2.435772" lat="47.105039"><ele>141.25</ele></trkpt>
<trkpt lon="2.435671" lat="47.105029"><ele>141.5</ele></trkpt>
<trkpt lon="2.435358" lat="47.104898"><ele>141.5</ele></trkpt>
<trkpt lon="2.435110" lat="47.104788"><ele>141.0</ele></trkpt>
<trkpt lon="2.434260" lat="47.104478"><ele>140.75</ele></trkpt>
<trkpt lon="2.433047" lat="47.104064"><ele>139.5</ele></trkpt>
<trkpt lon="2.432954" lat="47.104039"><ele>139.5</ele></trkpt>
<trkpt lon="2.432329" lat="47.103861"><ele>138.75</ele></trkpt>
<trkpt lon="2.432253" lat="47.103839"><ele>138.75</ele></trkpt>
<trkpt lon="2.431509" lat="47.103645"><ele>138.0</ele></trkpt>
<trkpt lon="2.429792" lat="47.103221"><ele>135.25</ele></trkpt>
<trkpt lon="2.429739" lat="47.103206"><ele>135.0</ele></trkpt>
<trkpt lon="2.429685" lat="47.103192"><ele>135.0</ele></trkpt>
<trkpt lon="2.429269" lat="47.103085"><ele>135.0</ele></trkpt>
<trkpt lon="2.428908" lat="47.102986"><ele>134.25</ele></trkpt>
<trkpt lon="2.428480" lat="47.102869"><ele>133.75</ele></trkpt>
<trkpt lon="2.428355" lat="47.102832"><ele>134.0</ele></trkpt>
<trkpt lon="2.427869" lat="47.102682"><ele>133.25</ele></trkpt>
<trkpt lon="2.427433" lat="47.102551"><ele>133.25</ele></trkpt>
<trkpt lon="2.427315" lat="47.102515"><ele>133.5</ele></trkpt>
<trkpt lon="2.427199" lat="47.102477"><ele>133.75</ele></trkpt>
<trkpt lon="2.426703" lat="47.102308"><ele>133.75</ele></trkpt>
<trkpt lon="2.425710" lat="47.101958"><ele>133.25</ele></trkpt>
<trkpt lon="2.425591" lat="47.101912"><ele>133.5</ele></trkpt>
<trkpt lon="2.425074" lat="47.101726"><ele>133.75</ele></trkpt>
<trkpt lon="2.424992" lat="47.101696"><ele>134.0</ele></trkpt>
<trkpt lon="2.424862" lat="47.101642"><ele>133.75</ele></trkpt>
<trkpt lon="2.424727" lat="47.101594"><ele>133.75</ele></trkpt>
<trkpt lon="2.424654" lat="47.101567"><ele>134.0</ele></trkpt>
<trkpt lon="2.424208" lat="47.101408"><ele>134.75</ele></trkpt>
<trkpt lon="2.423651" lat="47.101209"><ele>135.0</ele></trkpt>
<trkpt lon="2.423334" lat="47.101095"><ele>135.75</ele></trkpt>
<trkpt lon="2.422810" lat="47.100901"><ele>136.0</ele></trkpt>
<trkpt lon="2.422581" lat="47.100820"><ele>136.5</ele></trkpt>
<trkpt lon="2.422532" lat="47.100803"><ele>136.75</ele></trkpt>
<trkpt lon="2.422431" lat="47.100767"><ele>137.0</ele></trkpt>
<trkpt lon="2.422329" lat="47.100737"><ele>137.25</ele></trkpt>
<trkpt lon="2.422176" lat="47.100688"><ele>137.5</ele></trkpt>
<trkpt lon="2.422093" lat="47.100662"><ele>137.5</ele></trkpt>
<trkpt lon="2.422060" lat="47.100652"><ele>137.5</ele></trkpt>
<trkpt lon="2.421080" lat="47.100351"><ele>139.5</ele></trkpt>
<trkpt lon="2.420629" lat="47.100214"><ele>140.0</ele></trkpt>
<trkpt lon="2.420573" lat="47.100197"><ele>140.25</ele></trkpt>
<trkpt lon="2.420419" lat="47.100150"><ele>140.5</ele></trkpt>
<trkpt lon="2.420244" lat="47.100097"><ele>141.0</ele></trkpt>
<trkpt lon="2.420034" lat="47.100034"><ele>141.75</ele></trkpt>
<trkpt lon="2.419881" lat="47.099988"><ele>142.0</ele></trkpt>
<trkpt lon="2.419791" lat="47.099956"><ele>142.0</ele></trkpt>
<trkpt lon="2.419362" lat="47.099808"><ele>142.25</ele></trkpt>
<trkpt lon="2.418880" lat="47.099616"><ele>143.0</ele></trkpt>
<trkpt lon="2.418856" lat="47.099607"><ele>143.0</ele></trkpt>
<trkpt lon="2.418121" lat="47.099300"><ele>143.75</ele></trkpt>
<trkpt lon="2.418058" lat="47.099273"><ele>143.75</ele></trkpt>
<trkpt lon="2.417694" lat="47.099121"><ele>144.75</ele></trkpt>
<trkpt lon="2.417644" lat="47.099100"><ele>144.75</ele></trkpt>
<trkpt lon="2.417503" lat="47.099045"><ele>144.75</ele></trkpt>
<trkpt lon="2.417197" lat="47.098912"><ele>145.0</ele></trkpt>
<trkpt lon="2.416804" lat="47.098748"><ele>145.25</ele></trkpt>
<trkpt lon="2.416699" lat="47.098702"><ele>145.25</ele></trkpt>
<trkpt lon="2.416574" lat="47.098644"><ele>145.0</ele></trkpt>
<trkpt lon="2.416550" lat="47.098633"><ele>145.0</ele></trkpt>
<trkpt lon="2.415637" lat="47.098252"><ele>144.75</ele></trkpt>
<trkpt lon="2.415589" lat="47.098230"><ele>144.75</ele></trkpt>
<trkpt lon="2.415262" lat="47.098089"><ele>144.75</ele></trkpt>
<trkpt lon="2.413632" lat="47.097573"><ele>143.0</ele></trkpt>
<trkpt lon="2.413542" lat="47.097545"><ele>143.0</ele></trkpt>
<trkpt lon="2.413478" lat="47.097526"><ele>143.0</ele></trkpt>
<trkpt lon="2.413393" lat="47.097501"><ele>143.0</ele></trkpt>
<trkpt lon="2.412896" lat="47.097340"><ele>143.0</ele></trkpt>
<trkpt lon="2.412823" lat="47.097316"><ele>143.0</ele></trkpt>
<trkpt lon="2.412518" lat="47.097217"><ele>142.75</ele></trkpt>
<trkpt lon="2.412445" lat="47.097193"><ele>143.0</ele></trkpt>
<trkpt lon="2.412300" lat="47.097146"><ele>143.5</ele></trkpt>
<trkpt lon="2.411725" lat="47.096882"><ele>144.0</ele></trkpt>
<trkpt lon="2.411611" lat="47.096831"><ele>143.75</ele></trkpt>
<trkpt lon="2.411565" lat="47.096812"><ele>143.75</ele></trkpt>
<trkpt lon="2.411224" lat="47.096666"><ele>144.5</ele></trkpt>
<trkpt lon="2.410972" lat="47.096573"><ele>144.75</ele></trkpt>
<trkpt lon="2.410858" lat="47.096535"><ele>144.75</ele></trkpt>
<trkpt lon="2.409255" lat="47.096045"><ele>145.5</ele></trkpt>
<trkpt lon="2.408761" lat="47.095929"><ele>146.25</ele></trkpt>
<trkpt lon="2.407902" lat="47.095728"><ele>145.25</ele></trkpt>
<trkpt lon="2.407804" lat="47.095717"><ele>145.5</ele></trkpt>
<trkpt lon="2.407729" lat="47.095705"><ele>145.5</ele></trkpt>
<trkpt lon="2.407679" lat="47.095691"><ele>145.5</ele></trkpt>
<trkpt lon="2.407671" lat="47.095695"><ele>145.5</ele></trkpt>
<trkpt lon="2.407639" lat="47.095703"><ele>145.75</ele></trkpt>
<trkpt lon="2.407570" lat="47.095701"><ele>145.75</ele></trkpt>
<trkpt lon="2.407520" lat="47.095680"><ele>145.75</ele></trkpt>
<trkpt lon="2.407490" lat="47.095645"><ele>145.25</ele></trkpt>
<trkpt lon="2.407441" lat="47.095606"><ele>144.75</ele></trkpt>
<trkpt lon="2.407378" lat="47.095574"><ele>144.5</ele></trkpt>
<trkpt lon="2.407297" lat="47.095524"><ele>144.5</ele></trkpt>
<trkpt lon="2.407178" lat="47.095472"><ele>144.25</ele></trkpt>
<trkpt lon="2.406999" lat="47.095657"><ele>146.5</ele></trkpt>
<trkpt lon="2.406267" lat="47.096465"><ele>149.75</ele></trkpt>
<trkpt lon="2.406082" lat="47.096268"><ele>148.5</ele></trkpt>
<trkpt lon="2.405904" lat="47.096080"><ele>147.0</ele></trkpt>
<trkpt lon="2.405607" lat="47.095759"><ele>143.75</ele></trkpt>
<trkpt lon="2.405533" lat="47.095632"><ele>142.5</ele></trkpt>
<trkpt lon="2.405388" lat="47.095149"><ele>139.75</ele></trkpt>
<trkpt lon="2.404805" lat="47.094802"><ele>136.5</ele></trkpt>
<trkpt lon="2.404347" lat="47.094527"><ele>134.75</ele></trkpt>
<trkpt lon="2.403761" lat="47.093936"><ele>131.0</ele></trkpt>
<trkpt lon="2.403679" lat="47.093879"><ele>130.75</ele></trkpt>
<trkpt lon="2.403551" lat="47.093885"><ele>131.0</ele></trkpt>
<trkpt lon="2.403528" lat="47.093902"><ele>131.25</ele></trkpt>
<trkpt lon="2.403525" lat="47.094009"><ele>131.75</ele></trkpt>
<trkpt lon="2.403494" lat="47.094074"><ele>131.75</ele></trkpt>
<trkpt lon="2.403404" lat="47.094087"><ele>131.5</ele></trkpt>
<trkpt lon="2.403357" lat="47.093968"><ele>131.5</ele></trkpt>
<trkpt lon="2.403290" lat="47.093873"><ele>130.75</ele></trkpt>
<trkpt lon="2.403283" lat="47.093858"><ele>130.75</ele></trkpt>
<trkpt lon="2.403085" lat="47.093424"><ele>128.0</ele></trkpt>
<trkpt lon="2.403094" lat="47.093409"><ele>128.0</ele></trkpt>
<trkpt lon="2.403103" lat="47.093384"><ele>128.0</ele></trkpt>
<trkpt lon="2.403098" lat="47.093318"><ele>127.75</ele></trkpt>
<trkpt lon="2.403069" lat="47.093248"><ele>128.25</ele></trkpt>
<trkpt lon="2.403039" lat="47.093183"><ele>128.5</ele></trkpt>
<trkpt lon="2.402991" lat="47.093182"><ele>128.75</ele></trkpt>
<trkpt lon="2.402938" lat="47.093039"><ele>129.0</ele></trkpt>
<trkpt lon="2.402861" lat="47.092896"><ele>129.0</ele></trkpt>
<trkpt lon="2.402781" lat="47.092747"><ele>128.75</ele></trkpt>
<trkpt lon="2.402606" lat="47.092420"><ele>128.0</ele></trkpt>
<trkpt lon="2.402584" lat="47.092378"><ele>128.0</ele></trkpt>
<trkpt lon="2.402334" lat="47.091913"><ele>128.0</ele></trkpt>
<trkpt lon="2.402249" lat="47.091753"><ele>128.0</ele></trkpt>
<trkpt lon="2.401811" lat="47.090939"><ele>127.0</ele></trkpt>
<trkpt lon="2.401729" lat="47.090786"><ele>127.0</ele></trkpt>
<trkpt lon="2.401635" lat="47.090610"><ele>127.5</ele></trkpt>
<trkpt lon="2.401536" lat="47.090442"><ele>126.25</ele></trkpt>
<trkpt lon="2.401381" lat="47.090206"><ele>125.5</ele></trkpt>
<trkpt lon="2.401363" lat="47.090178"><ele>125.5</ele></trkpt>
<trkpt lon="2.401434" lat="47.090146"><ele>126.0</ele></trkpt>
<trkpt lon="2.401677" lat="47.090022"><ele>127.5</ele></trkpt>
<trkpt lon="2.401690" lat="47.089972"><ele>127.5</ele></trkpt>
<trkpt lon="2.401575" lat="47.089631"><ele>126.75</ele></trkpt>
<trkpt lon="2.401486" lat="47.089377"><ele>127.0</ele></trkpt>
<trkpt lon="2.401558" lat="47.089082"><ele>126.5</ele></trkpt>
<trkpt lon="2.401741" lat="47.088449"><ele>127.25</ele></trkpt>
<trkpt lon="2.401768" lat="47.088360"><ele>126.75</ele></trkpt>
<trkpt lon="2.401830" lat="47.088155"><ele>126.75</ele></trkpt>
<trkpt lon="2.402042" lat="47.087456"><ele>127.75</ele></trkpt>
<trkpt lon="2.401677" lat="47.087378"><ele>128.0</ele></trkpt>
<trkpt lon="2.401277" lat="47.087278"><ele>127.5</ele></trkpt>
<trkpt lon="2.400797" lat="47.087145"><ele>128.0</ele></trkpt>
<trkpt lon="2.400579" lat="47.087173"><ele>128.0</ele></trkpt>
<trkpt lon="2.400287" lat="47.087210"><ele>128.0</ele></trkpt>
<trkpt lon="2.400153" lat="47.087000"><ele>128.75</ele></trkpt>
<trkpt lon="2.399673" lat="47.087128"><ele>129.0</ele></trkpt>
<trkpt lon="2.399345" lat="47.087239"><ele>128.75</ele></trkpt>
<trkpt lon="2.399186" lat="47.087045"><ele>129.0</ele></trkpt>
<trkpt lon="2.399103" lat="47.086935"><ele>128.75</ele></trkpt>
<trkpt lon="2.398952" lat="47.087013"><ele>128.25</ele></trkpt>
<trkpt lon="2.398898" lat="47.086981"><ele>128.0</ele></trkpt>
<trkpt lon="2.399001" lat="47.086898"><ele>128.5</ele></trkpt>
<trkpt lon="2.399007" lat="47.086876"><ele>128.5</ele></trkpt>
<trkpt lon="2.398853" lat="47.086669"><ele>128.75</ele></trkpt>
<trkpt lon="2.398833" lat="47.086655"><ele>129.0</ele></trkpt>
<trkpt lon="2.398868" lat="47.086611"><ele>129.0</ele></trkpt>
<trkpt lon="2.398808" lat="47.086461"><ele>129.0</ele></trkpt>
<trkpt lon="2.398772" lat="47.086350"><ele>128.75</ele></trkpt>
<trkpt lon="2.398767" lat="47.086317"><ele>128.75</ele></trkpt>
<trkpt lon="2.398675" lat="47.086151"><ele>128.75</ele></trkpt>
<trkpt lon="2.398625" lat="47.086082"><ele>129.0</ele></trkpt>
<trkpt lon="2.398390" lat="47.085826"><ele>130.0</ele></trkpt>
<trkpt lon="2.398355" lat="47.085771"><ele>130.0</ele></trkpt>
<trkpt lon="2.398342" lat="47.085714"><ele>130.25</ele></trkpt>
<trkpt lon="2.398337" lat="47.085615"><ele>130.75</ele></trkpt>
<trkpt lon="2.398344" lat="47.085559"><ele>130.75</ele></trkpt>
<trkpt lon="2.398364" lat="47.085512"><ele>131.25</ele></trkpt>
<trkpt lon="2.398403" lat="47.085441"><ele>131.75</ele></trkpt>
<trkpt lon="2.398285" lat="47.085399"><ele>132.5</ele></trkpt>
<trkpt lon="2.397838" lat="47.085275"><ele>134.0</ele></trkpt>
<trkpt lon="2.397801" lat="47.085264"><ele>134.0</ele></trkpt>
<trkpt lon="2.397234" lat="47.085065"><ele>137.75</ele></trkpt>
<trkpt lon="2.396663" lat="47.084852"><ele>141.5</ele></trkpt>
<trkpt lon="2.396571" lat="47.084816"><ele>141.5</ele></trkpt>
<trkpt lon="2.396948" lat="47.084385"><ele>143.25</ele></trkpt>
<trkpt lon="2.396673" lat="47.084242"><ele>144.25</ele></trkpt>
<trkpt lon="2.396583" lat="47.084215"><ele>144.75</ele></trkpt>
<trkpt lon="2.396505" lat="47.084227"><ele>145.0</ele></trkpt>
<trkpt lon="2.396447" lat="47.084290"><ele>144.5</ele></trkpt>
  </trkseg></trk></gpx>
