<?xml version="1.0" encoding="UTF-8"?>
<gpx version="1.1" creator="compostel-brouter" xmlns="http://www.topografix.com/GPX/1/1">
  <metadata><name>FR-20-Chateauroux</name></metadata>
  <trk><name>FR-20-Chateauroux</name><trkseg>
<trkpt lon="1.993211" lat="46.947934"><ele>140.0</ele></trkpt>
<trkpt lon="1.993326" lat="46.947928"><ele>140.5</ele></trkpt>
<trkpt lon="1.993493" lat="46.948121"><ele>141.5</ele></trkpt>
<trkpt lon="1.993569" lat="46.948255"><ele>141.75</ele></trkpt>
<trkpt lon="1.992994" lat="46.948334"><ele>141.0</ele></trkpt>
<trkpt lon="1.992834" lat="46.948333"><ele>140.75</ele></trkpt>
<trkpt lon="1.991987" lat="46.948369"><ele>140.0</ele></trkpt>
<trkpt lon="1.991936" lat="46.948374"><ele>139.75</ele></trkpt>
<trkpt lon="1.991409" lat="46.948440"><ele>139.0</ele></trkpt>
<trkpt lon="1.991328" lat="46.948465"><ele>138.75</ele></trkpt>
<trkpt lon="1.991195" lat="46.948456"><ele>138.5</ele></trkpt>
<trkpt lon="1.991167" lat="46.948454"><ele>138.5</ele></trkpt>
<trkpt lon="1.991112" lat="46.948447"><ele>138.25</ele></trkpt>
<trkpt lon="1.990701" lat="46.948491"><ele>138.75</ele></trkpt>
<trkpt lon="1.990648" lat="46.948508"><ele>138.75</ele></trkpt>
<trkpt lon="1.990611" lat="46.948513"><ele>138.75</ele></trkpt>
<trkpt lon="1.990423" lat="46.948549"><ele>139.25</ele></trkpt>
<trkpt lon="1.990168" lat="46.948547"><ele>139.5</ele></trkpt>
<trkpt lon="1.990153" lat="46.948547"><ele>139.5</ele></trkpt>
<trkpt lon="1.990114" lat="46.948546"><ele>139.75</ele></trkpt>
<trkpt lon="1.989948" lat="46.948536"><ele>140.0</ele></trkpt>
<trkpt lon="1.989531" lat="46.948434"><ele>140.0</ele></trkpt>
<trkpt lon="1.989372" lat="46.948371"><ele>140.25</ele></trkpt>
<trkpt lon="1.989159" lat="46.948255"><ele>140.5</ele></trkpt>
<trkpt lon="1.989075" lat="46.948220"><ele>140.25</ele></trkpt>
<trkpt lon="1.988972" lat="46.948197"><ele>140.0</ele></trkpt>
<trkpt lon="1.988875" lat="46.948172"><ele>140.0</ele></trkpt>
<trkpt lon="1.988617" lat="46.948106"><ele>140.0</ele></trkpt>
<trkpt lon="1.988441" lat="46.948061"><ele>138.75</ele></trkpt>
<trkpt lon="1.988208" lat="46.948034"><ele>137.5</ele></trkpt>
<trkpt lon="1.987890" lat="46.948004"><ele>136.5</ele></trkpt>
<trkpt lon="1.987834" lat="46.948001"><ele>136.25</ele></trkpt>
<trkpt lon="1.987720" lat="46.947992"><ele>135.75</ele></trkpt>
<trkpt lon="1.987245" lat="46.947984"><ele>134.25</ele></trkpt>
<trkpt lon="1.987121" lat="46.947998"><ele>133.5</ele></trkpt>
<trkpt lon="1.987085" lat="46.947968"><ele>133.5</ele></trkpt>
<trkpt lon="1.987029" lat="46.947930"><ele>133.0</ele></trkpt>
<trkpt lon="1.986813" lat="46.947731"><ele>132.0</ele></trkpt>
<trkpt lon="1.986806" lat="46.947720"><ele>132.0</ele></trkpt>
<trkpt lon="1.986675" lat="46.947524"><ele>131.0</ele></trkpt>
<trkpt lon="1.986588" lat="46.947439"><ele>130.5</ele></trkpt>
<trkpt lon="1.986475" lat="46.947359"><ele>130.25</ele></trkpt>
<trkpt lon="1.986425" lat="46.947333"><ele>130.25</ele></trkpt>
<trkpt lon="1.986339" lat="46.947288"><ele>130.0</ele></trkpt>
<trkpt lon="1.986288" lat="46.947281"><ele>130.0</ele></trkpt>
<trkpt lon="1.986148" lat="46.947219"><ele>129.75</ele></trkpt>
<trkpt lon="1.986130" lat="46.947193"><ele>129.75</ele></trkpt>
<trkpt lon="1.986103" lat="46.947171"><ele>129.75</ele></trkpt>
<trkpt lon="1.986071" lat="46.947119"><ele>129.5</ele></trkpt>
<trkpt lon="1.985981" lat="46.946963"><ele>128.0</ele></trkpt>
<trkpt lon="1.985917" lat="46.946903"><ele>127.75</ele></trkpt>
<trkpt lon="1.985544" lat="46.946507"><ele>127.5</ele></trkpt>
<trkpt lon="1.985267" lat="46.946212"><ele>127.75</ele></trkpt>
<trkpt lon="1.984996" lat="46.945922"><ele>127.75</ele></trkpt>
<trkpt lon="1.984831" lat="46.945748"><ele>128.0</ele></trkpt>
<trkpt lon="1.984811" lat="46.945727"><ele>128.0</ele></trkpt>
<trkpt lon="1.984455" lat="46.945350"><ele>128.5</ele></trkpt>
<trkpt lon="1.984402" lat="46.945264"><ele>128.75</ele></trkpt>
<trkpt lon="1.984357" lat="46.945151"><ele>128.75</ele></trkpt>
<trkpt lon="1.984341" lat="46.945097"><ele>128.75</ele></trkpt>
<trkpt lon="1.984236" lat="46.944666"><ele>130.0</ele></trkpt>
<trkpt lon="1.984207" lat="46.944544"><ele>130.0</ele></trkpt>
<trkpt lon="1.984172" lat="46.944412"><ele>130.0</ele></trkpt>
<trkpt lon="1.984051" lat="46.943915"><ele>131.75</ele></trkpt>
<trkpt lon="1.983995" lat="46.943776"><ele>132.25</ele></trkpt>
<trkpt lon="1.983909" lat="46.943663"><ele>132.75</ele></trkpt>
<trkpt lon="1.983874" lat="46.943621"><ele>133.0</ele></trkpt>
<trkpt lon="1.983791" lat="46.943564"><ele>133.25</ele></trkpt>
<trkpt lon="1.983664" lat="46.943463"><ele>133.75</ele></trkpt>
<trkpt lon="1.983605" lat="46.943429"><ele>134.0</ele></trkpt>
<trkpt lon="1.983554" lat="46.943415"><ele>134.0</ele></trkpt>
<trkpt lon="1.983511" lat="46.943391"><ele>134.25</ele></trkpt>
<trkpt lon="1.983421" lat="46.943356"><ele>134.5</ele></trkpt>
<trkpt lon="1.983337" lat="46.943332"><ele>134.75</ele></trkpt>
<trkpt lon="1.983177" lat="46.943284"><ele>135.0</ele></trkpt>
<trkpt lon="1.983182" lat="46.943233"><ele>135.0</ele></trkpt>
<trkpt lon="1.983174" lat="46.943189"><ele>135.0</ele></trkpt>
<trkpt lon="1.983030" lat="46.942986"><ele>135.25</ele></trkpt>
<trkpt lon="1.982406" lat="46.942244"><ele>137.75</ele></trkpt>
<trkpt lon="1.982342" lat="46.942170"><ele>138.0</ele></trkpt>
<trkpt lon="1.982254" lat="46.942093"><ele>138.0</ele></trkpt>
<trkpt lon="1.982114" lat="46.941989"><ele>138.25</ele></trkpt>
<trkpt lon="1.981626" lat="46.941644"><ele>139.75</ele></trkpt>
<trkpt lon="1.981548" lat="46.941564"><ele>139.5</ele></trkpt>
<trkpt lon="1.981509" lat="46.941504"><ele>139.5</ele></trkpt>
<trkpt lon="1.981324" lat="46.941130"><ele>139.25</ele></trkpt>
<trkpt lon="1.981255" lat="46.941029"><ele>139.25</ele></trkpt>
<trkpt lon="1.981119" lat="46.940893"><ele>139.0</ele></trkpt>
<trkpt lon="1.980409" lat="46.940288"><ele>139.5</ele></trkpt>
<trkpt lon="1.980341" lat="46.940238"><ele>139.5</ele></trkpt>
<trkpt lon="1.980307" lat="46.940214"><ele>139.5</ele></trkpt>
<trkpt lon="1.980009" lat="46.940005"><ele>139.0</ele></trkpt>
<trkpt lon="1.978882" lat="46.939168"><ele>139.0</ele></trkpt>
<trkpt lon="1.978634" lat="46.939021"><ele>139.25</ele></trkpt>
<trkpt lon="1.978375" lat="46.938884"><ele>138.0</ele></trkpt>
<trkpt lon="1.978166" lat="46.938791"><ele>138.75</ele></trkpt>
<trkpt lon="1.977687" lat="46.938561"><ele>137.75</ele></trkpt>
<trkpt lon="1.977437" lat="46.938458"><ele>137.25</ele></trkpt>
<trkpt lon="1.977068" lat="46.938345"><ele>136.25</ele></trkpt>
<trkpt lon="1.976970" lat="46.938339"><ele>136.0</ele></trkpt>
<trkpt lon="1.976848" lat="46.938345"><ele>135.5</ele></trkpt>
<trkpt lon="1.976456" lat="46.938388"><ele>134.5</ele></trkpt>
<trkpt lon="1.976376" lat="46.938390"><ele>134.25</ele></trkpt>
<trkpt lon="1.976293" lat="46.938382"><ele>134.25</ele></trkpt>
<trkpt lon="1.976205" lat="46.938364"><ele>134.0</ele></trkpt>
<trkpt lon="1.976090" lat="46.938329"><ele>133.75</ele></trkpt>
<trkpt lon="1.975523" lat="46.938079"><ele>132.5</ele></trkpt>
<trkpt lon="1.975454" lat="46.938040"><ele>132.5</ele></trkpt>
<trkpt lon="1.975388" lat="46.937971"><ele>132.25</ele></trkpt>
<trkpt lon="1.975338" lat="46.937890"><ele>132.0</ele></trkpt>
<trkpt lon="1.975290" lat="46.937790"><ele>132.0</ele></trkpt>
<trkpt lon="1.975253" lat="46.937673"><ele>131.75</ele></trkpt>
<trkpt lon="1.975224" lat="46.937489"><ele>131.75</ele></trkpt>
<trkpt lon="1.975193" lat="46.937322"><ele>131.0</ele></trkpt>
<trkpt lon="1.975162" lat="46.937226"><ele>131.0</ele></trkpt>
<trkpt lon="1.975120" lat="46.937137"><ele>131.0</ele></trkpt>
<trkpt lon="1.975045" lat="46.937023"><ele>131.0</ele></trkpt>
<trkpt lon="1.974952" lat="46.936923"><ele>130.75</ele></trkpt>
<trkpt lon="1.974830" lat="46.936821"><ele>130.5</ele></trkpt>
<trkpt lon="1.974680" lat="46.936710"><ele>130.75</ele></trkpt>
<trkpt lon="1.974503" lat="46.936594"><ele>131.75</ele></trkpt>
<trkpt lon="1.974308" lat="46.936490"><ele>131.75</ele></trkpt>
<trkpt lon="1.974173" lat="46.936426"><ele>131.75</ele></trkpt>
<trkpt lon="1.974008" lat="46.936360"><ele>131.5</ele></trkpt>
<trkpt lon="1.973653" lat="46.936235"><ele>132.5</ele></trkpt>
<trkpt lon="1.972931" lat="46.936025"><ele>134.0</ele></trkpt>
<trkpt lon="1.972650" lat="46.935917"><ele>134.5</ele></trkpt>
<trkpt lon="1.971130" lat="46.934872"><ele>133.0</ele></trkpt>
<trkpt lon="1.971056" lat="46.934811"><ele>133.25</ele></trkpt>
<trkpt lon="1.971030" lat="46.934779"><ele>133.25</ele></trkpt>
<trkpt lon="1.971009" lat="46.934739"><ele>133.5</ele></trkpt>
<trkpt lon="1.970997" lat="46.934692"><ele>133.75</ele></trkpt>
<trkpt lon="1.970920" lat="46.934695"><ele>133.25</ele></trkpt>
<trkpt lon="1.970810" lat="46.934719"><ele>132.75</ele></trkpt>
<trkpt lon="1.970395" lat="46.934966"><ele>132.25</ele></trkpt>
<trkpt lon="1.970338" lat="46.934999"><ele>132.0</ele></trkpt>
<trkpt lon="1.970296" lat="46.935017"><ele>132.0</ele></trkpt>
<trkpt lon="1.970275" lat="46.935018"><ele>131.75</ele></trkpt>
<trkpt lon="1.970237" lat="46.935003"><ele>131.75</ele></trkpt>
<trkpt lon="1.969779" lat="46.934629"><ele>132.0</ele></trkpt>
<trkpt lon="1.969695" lat="46.934575"><ele>132.0</ele></trkpt>
<trkpt lon="1.969518" lat="46.934499"><ele>131.75</ele></trkpt>
<trkpt lon="1.969342" lat="46.934450"><ele>132.0</ele></trkpt>
<trkpt lon="1.968758" lat="46.934336"><ele>132.0</ele></trkpt>
<trkpt lon="1.968308" lat="46.934221"><ele>131.75</ele></trkpt>
<trkpt lon="1.967437" lat="46.934038"><ele>131.5</ele></trkpt>
<trkpt lon="1.966935" lat="46.933924"><ele>132.0</ele></trkpt>
<trkpt lon="1.966683" lat="46.933904"><ele>132.0</ele></trkpt>
<trkpt lon="1.966507" lat="46.933907"><ele>132.5</ele></trkpt>
<trkpt lon="1.966409" lat="46.933891"><ele>132.75</ele></trkpt>
<trkpt lon="1.966306" lat="46.933848"><ele>133.25</ele></trkpt>
<trkpt lon="1.966020" lat="46.933671"><ele>133.0</ele></trkpt>
<trkpt lon="1.965331" lat="46.933272"><ele>134.0</ele></trkpt>
<trkpt lon="1.965182" lat="46.933176"><ele>133.5</ele></trkpt>
<trkpt lon="1.964429" lat="46.932619"><ele>133.75</ele></trkpt>
<trkpt lon="1.963878" lat="46.932169"><ele>132.75</ele></trkpt>
<trkpt lon="1.963187" lat="46.931669"><ele>134.0</ele></trkpt>
<trkpt lon="1.962861" lat="46.931461"><ele>134.0</ele></trkpt>
<trkpt lon="1.962239" lat="46.931029"><ele>134.75</ele></trkpt>
<trkpt lon="1.961298" lat="46.930347"><ele>135.5</ele></trkpt>
<trkpt lon="1.959672" lat="46.929150"><ele>137.0</ele></trkpt>
<trkpt lon="1.958206" lat="46.928097"><ele>137.5</ele></trkpt>
<trkpt lon="1.958103" lat="46.928158"><ele>138.0</ele></trkpt>
<trkpt lon="1.958070" lat="46.928181"><ele>138.25</ele></trkpt>
<trkpt lon="1.957937" lat="46.928268"><ele>139.0</ele></trkpt>
<trkpt lon="1.957774" lat="46.928363"><ele>140.0</ele></trkpt>
<trkpt lon="1.954217" lat="46.930739"><ele>152.0</ele></trkpt>
<trkpt lon="1.952471" lat="46.931918"><ele>152.0</ele></trkpt>
<trkpt lon="1.949352" lat="46.930596"><ele>151.0</ele></trkpt>
<trkpt lon="1.948893" lat="46.930404"><ele>151.75</ele></trkpt>
<trkpt lon="1.948662" lat="46.930299"><ele>152.75</ele></trkpt>
<trkpt lon="1.948015" lat="46.930038"><ele>153.0</ele></trkpt>
<trkpt lon="1.946039" lat="46.929214"><ele>155.0</ele></trkpt>
<trkpt lon="1.944726" lat="46.928640"><ele>155.0</ele></trkpt>
<trkpt lon="1.944234" lat="46.928446"><ele>155.25</ele></trkpt>
<trkpt lon="1.944171" lat="46.928411"><ele>155.25</ele></trkpt>
<trkpt lon="1.941722" lat="46.927390"><ele>155.5</ele></trkpt>
<trkpt lon="1.941375" lat="46.927238"><ele>155.0</ele></trkpt>
<trkpt lon="1.941249" lat="46.927165"><ele>155.25</ele></trkpt>
<trkpt lon="1.938569" lat="46.926046"><ele>156.0</ele></trkpt>
<trkpt lon="1.936464" lat="46.925154"><ele>156.5</ele></trkpt>
<trkpt lon="1.935774" lat="46.924868"><ele>156.0</ele></trkpt>
<trkpt lon="1.933234" lat="46.923795"><ele>156.5</ele></trkpt>
<trkpt lon="1.932639" lat="46.923531"><ele>156.0</ele></trkpt>
<trkpt lon="1.929439" lat="46.922197"><ele>156.0</ele></trkpt>
<trkpt lon="1.920631" lat="46.918482"><ele>148.25</ele></trkpt>
<trkpt lon="1.920329" lat="46.918310"><ele>148.0</ele></trkpt>
<trkpt lon="1.920301" lat="46.918190"><ele>148.0</ele></trkpt>
<trkpt lon="1.920151" lat="46.918206"><ele>147.75</ele></trkpt>
<trkpt lon="1.919978" lat="46.918175"><ele>147.25</ele></trkpt>
<trkpt lon="1.917157" lat="46.916970"><ele>144.75</ele></trkpt>
<trkpt lon="1.916310" lat="46.916613"><ele>145.25</ele></trkpt>
<trkpt lon="1.916197" lat="46.916556"><ele>145.5</ele></trkpt>
<trkpt lon="1.916131" lat="46.916500"><ele>145.25</ele></trkpt>
<trkpt lon="1.915941" lat="46.916258"><ele>145.75</ele></trkpt>
<trkpt lon="1.915876" lat="46.916218"><ele>146.0</ele></trkpt>
<trkpt lon="1.915797" lat="46.916197"><ele>146.0</ele></trkpt>
<trkpt lon="1.915728" lat="46.916201"><ele>146.0</ele></trkpt>
<trkpt lon="1.915650" lat="46.916224"><ele>146.0</ele></trkpt>
<trkpt lon="1.915596" lat="46.916316"><ele>146.0</ele></trkpt>
<trkpt lon="1.915556" lat="46.916408"><ele>145.75</ele></trkpt>
<trkpt lon="1.915547" lat="46.916428"><ele>145.75</ele></trkpt>
<trkpt lon="1.915512" lat="46.916501"><ele>145.5</ele></trkpt>
<trkpt lon="1.915448" lat="46.916474"><ele>145.5</ele></trkpt>
<trkpt lon="1.915429" lat="46.916490"><ele>145.5</ele></trkpt>
<trkpt lon="1.915141" lat="46.916750"><ele>144.5</ele></trkpt>
<trkpt lon="1.912790" lat="46.919166"><ele>150.75</ele></trkpt>
<trkpt lon="1.912327" lat="46.919041"><ele>151.25</ele></trkpt>
<trkpt lon="1.911033" lat="46.918643"><ele>150.25</ele></trkpt>
<trkpt lon="1.910959" lat="46.918623"><ele>150.5</ele></trkpt>
<trkpt lon="1.910801" lat="46.918617"><ele>150.75</ele></trkpt>
<trkpt lon="1.910772" lat="46.918616"><ele>150.75</ele></trkpt>
<trkpt lon="1.910672" lat="46.918502"><ele>149.25</ele></trkpt>
<trkpt lon="1.910457" lat="46.918319"><ele>147.5</ele></trkpt>
<trkpt lon="1.910345" lat="46.918244"><ele>146.5</ele></trkpt>
<trkpt lon="1.910180" lat="46.918167"><ele>145.5</ele></trkpt>
<trkpt lon="1.909032" lat="46.917817"><ele>143.0</ele></trkpt>
<trkpt lon="1.908698" lat="46.917750"><ele>143.5</ele></trkpt>
<trkpt lon="1.908318" lat="46.917716"><ele>143.75</ele></trkpt>
<trkpt lon="1.907907" lat="46.917659"><ele>143.75</ele></trkpt>
<trkpt lon="1.907592" lat="46.917591"><ele>144.0</ele></trkpt>
<trkpt lon="1.907093" lat="46.917309"><ele>145.25</ele></trkpt>
<trkpt lon="1.907012" lat="46.917257"><ele>145.5</ele></trkpt>
<trkpt lon="1.907193" lat="46.917180"><ele>145.0</ele></trkpt>
<trkpt lon="1.907318" lat="46.917082"><ele>145.0</ele></trkpt>
<trkpt lon="1.907401" lat="46.917018"><ele>145.0</ele></trkpt>
<trkpt lon="1.907436" lat="46.916976"><ele>145.0</ele></trkpt>
<trkpt lon="1.907462" lat="46.916921"><ele>145.0</ele></trkpt>
<trkpt lon="1.907479" lat="46.916820"><ele>145.5</ele></trkpt>
<trkpt lon="1.907474" lat="46.916785"><ele>145.5</ele></trkpt>
<trkpt lon="1.907460" lat="46.916759"><ele>145.75</ele></trkpt>
<trkpt lon="1.907297" lat="46.916562"><ele>146.5</ele></trkpt>
<trkpt lon="1.907280" lat="46.916553"><ele>146.75</ele></trkpt>
<trkpt lon="1.906663" lat="46.916403"><ele>148.0</ele></trkpt>
<trkpt lon="1.906909" lat="46.915868"><ele>149.75</ele></trkpt>
<trkpt lon="1.907805" lat="46.913912"><ele>154.75</ele></trkpt>
<trkpt lon="1.907937" lat="46.913598"><ele>155.25</ele></trkpt>
<trkpt lon="1.907950" lat="46.913558"><ele>155.25</ele></trkpt>
<trkpt lon="1.907946" lat="46.913493"><ele>155.0</ele></trkpt>
<trkpt lon="1.907923" lat="46.913452"><ele>155.0</ele></trkpt>
<trkpt lon="1.907856" lat="46.913380"><ele>155.0</ele></trkpt>
<trkpt lon="1.907759" lat="46.913324"><ele>155.0</ele></trkpt>
<trkpt lon="1.905148" lat="46.912222"><ele>153.5</ele></trkpt>
<trkpt lon="1.902785" lat="46.911220"><ele>148.75</ele></trkpt>
<trkpt lon="1.899898" lat="46.909980"><ele>144.5</ele></trkpt>
<trkpt lon="1.894698" lat="46.907795"><ele>151.75</ele></trkpt>
<trkpt lon="1.892009" lat="46.906652"><ele>151.25</ele></trkpt>
<trkpt lon="1.888704" lat="46.905263"><ele>155.0</ele></trkpt>
<trkpt lon="1.888387" lat="46.905193"><ele>155.25</ele></trkpt>
<trkpt lon="1.887984" lat="46.905174"><ele>155.25</ele></trkpt>
<trkpt lon="1.887790" lat="46.905152"><ele>155.25</ele></trkpt>
<trkpt lon="1.887664" lat="46.905101"><ele>155.5</ele></trkpt>
<trkpt lon="1.887581" lat="46.905028"><ele>155.75</ele></trkpt>
<trkpt lon="1.887547" lat="46.904969"><ele>156.0</ele></trkpt>
<trkpt lon="1.887542" lat="46.904909"><ele>156.25</ele></trkpt>
<trkpt lon="1.887583" lat="46.904728"><ele>156.75</ele></trkpt>
<trkpt lon="1.887639" lat="46.904671"><ele>157.0</ele></trkpt>
<trkpt lon="1.887741" lat="46.904594"><ele>157.0</ele></trkpt>
<trkpt lon="1.887959" lat="46.904469"><ele>156.75</ele></trkpt>
<trkpt lon="1.887799" lat="46.904406"><ele>157.0</ele></trkpt>
<trkpt lon="1.887460" lat="46.904341"><ele>158.0</ele></trkpt>
<trkpt lon="1.887247" lat="46.904292"><ele>158.0</ele></trkpt>
<trkpt lon="1.886753" lat="46.904130"><ele>158.0</ele></trkpt>
<trkpt lon="1.886111" lat="46.903882"><ele>158.0</ele></trkpt>
<trkpt lon="1.886034" lat="46.903836"><ele>158.25</ele></trkpt>
<trkpt lon="1.885859" lat="46.903749"><ele>158.75</ele></trkpt>
<trkpt lon="1.884771" lat="46.903290"><ele>158.0</ele></trkpt>
<trkpt lon="1.883423" lat="46.902737"><ele>157.0</ele></trkpt>
<trkpt lon="1.883395" lat="46.902672"><ele>157.0</ele></trkpt>
<trkpt lon="1.883449" lat="46.902600"><ele>157.0</ele></trkpt>
<trkpt lon="1.885122" lat="46.900981"><ele>158.0</ele></trkpt>
<trkpt lon="1.885114" lat="46.900915"><ele>158.0</ele></trkpt>
<trkpt lon="1.885078" lat="46.900877"><ele>158.0</ele></trkpt>
<trkpt lon="1.878175" lat="46.896605"><ele>156.0</ele></trkpt>
<trkpt lon="1.876952" lat="46.895860"><ele>158.75</ele></trkpt>
<trkpt lon="1.875059" lat="46.894671"><ele>160.75</ele></trkpt>
<trkpt lon="1.874671" lat="46.894412"><ele>160.75</ele></trkpt>
<trkpt lon="1.874464" lat="46.894257"><ele>160.25</ele></trkpt>
<trkpt lon="1.873340" lat="46.893378"><ele>160.0</ele></trkpt>
<trkpt lon="1.872169" lat="46.892428"><ele>159.75</ele></trkpt>
<trkpt lon="1.871010" lat="46.891190"><ele>153.5</ele></trkpt>
<trkpt lon="1.870550" lat="46.890596"><ele>152.0</ele></trkpt>
<trkpt lon="1.869126" lat="46.888594"><ele>156.0</ele></trkpt>
<trkpt lon="1.868849" lat="46.888038"><ele>158.0</ele></trkpt>
<trkpt lon="1.868636" lat="46.887569"><ele>158.75</ele></trkpt>
<trkpt lon="1.868581" lat="46.887467"><ele>158.75</ele></trkpt>
<trkpt lon="1.868113" lat="46.887257"><ele>158.75</ele></trkpt>
<trkpt lon="1.867577" lat="46.886935"><ele>157.75</ele></trkpt>
<trkpt lon="1.867510" lat="46.886894"><ele>157.75</ele></trkpt>
<trkpt lon="1.867293" lat="46.886708"><ele>157.0</ele></trkpt>
<trkpt lon="1.867134" lat="46.886528"><ele>155.5</ele></trkpt>
<trkpt lon="1.867062" lat="46.886437"><ele>154.5</ele></trkpt>
<trkpt lon="1.867014" lat="46.886375"><ele>153.75</ele></trkpt>
<trkpt lon="1.866924" lat="46.886224"><ele>152.0</ele></trkpt>
<trkpt lon="1.866771" lat="46.885892"><ele>149.25</ele></trkpt>
<trkpt lon="1.866672" lat="46.885672"><ele>148.75</ele></trkpt>
<trkpt lon="1.866656" lat="46.885636"><ele>148.5</ele></trkpt>
<trkpt lon="1.866817" lat="46.885620"><ele>148.0</ele></trkpt>
<trkpt lon="1.866958" lat="46.885620"><ele>147.75</ele></trkpt>
<trkpt lon="1.867150" lat="46.885641"><ele>147.5</ele></trkpt>
<trkpt lon="1.867405" lat="46.885690"><ele>149.5</ele></trkpt>
<trkpt lon="1.867470" lat="46.885695"><ele>150.0</ele></trkpt>
<trkpt lon="1.867526" lat="46.885689"><ele>150.25</ele></trkpt>
<trkpt lon="1.867583" lat="46.885669"><ele>150.25</ele></trkpt>
<trkpt lon="1.867778" lat="46.885521"><ele>147.75</ele></trkpt>
<trkpt lon="1.867796" lat="46.885489"><ele>147.5</ele></trkpt>
<trkpt lon="1.867785" lat="46.885456"><ele>147.25</ele></trkpt>
<trkpt lon="1.867755" lat="46.885421"><ele>147.25</ele></trkpt>
<trkpt lon="1.865844" lat="46.884272"><ele>150.0</ele></trkpt>
<trkpt lon="1.865778" lat="46.884226"><ele>150.0</ele></trkpt>
<trkpt lon="1.865576" lat="46.884076"><ele>151.5</ele></trkpt>
<trkpt lon="1.865003" lat="46.883585"><ele>153.0</ele></trkpt>
<trkpt lon="1.864830" lat="46.883457"><ele>154.0</ele></trkpt>
<trkpt lon="1.864653" lat="46.883339"><ele>154.0</ele></trkpt>
<trkpt lon="1.864445" lat="46.883206"><ele>154.25</ele></trkpt>
<trkpt lon="1.864096" lat="46.883029"><ele>155.0</ele></trkpt>
<trkpt lon="1.863739" lat="46.882872"><ele>155.25</ele></trkpt>
<trkpt lon="1.863620" lat="46.882843"><ele>155.5</ele></trkpt>
<trkpt lon="1.863555" lat="46.882839"><ele>155.25</ele></trkpt>
<trkpt lon="1.863497" lat="46.882841"><ele>155.0</ele></trkpt>
<trkpt lon="1.863488" lat="46.882896"><ele>154.75</ele></trkpt>
<trkpt lon="1.863462" lat="46.882940"><ele>154.5</ele></trkpt>
<trkpt lon="1.863435" lat="46.882960"><ele>154.25</ele></trkpt>
<trkpt lon="1.863345" lat="46.883024"><ele>154.0</ele></trkpt>
<trkpt lon="1.863311" lat="46.883050"><ele>153.75</ele></trkpt>
<trkpt lon="1.863229" lat="46.883104"><ele>153.0</ele></trkpt>
<trkpt lon="1.863176" lat="46.883150"><ele>152.5</ele></trkpt>
<trkpt lon="1.863140" lat="46.883131"><ele>152.5</ele></trkpt>
<trkpt lon="1.863006" lat="46.883059"><ele>152.25</ele></trkpt>
<trkpt lon="1.862684" lat="46.882924"><ele>150.5</ele></trkpt>
<trkpt lon="1.862589" lat="46.882865"><ele>150.75</ele></trkpt>
<trkpt lon="1.862204" lat="46.882546"><ele>152.0</ele></trkpt>
<trkpt lon="1.861957" lat="46.882375"><ele>152.25</ele></trkpt>
<trkpt lon="1.859731" lat="46.881072"><ele>155.0</ele></trkpt>
<trkpt lon="1.859315" lat="46.880831"><ele>155.25</ele></trkpt>
<trkpt lon="1.856944" lat="46.879438"><ele>155.75</ele></trkpt>
<trkpt lon="1.856826" lat="46.879390"><ele>155.5</ele></trkpt>
<trkpt lon="1.856744" lat="46.879364"><ele>155.25</ele></trkpt>
<trkpt lon="1.856673" lat="46.879352"><ele>155.25</ele></trkpt>
<trkpt lon="1.856593" lat="46.879348"><ele>155.25</ele></trkpt>
<trkpt lon="1.856609" lat="46.879239"><ele>155.5</ele></trkpt>
<trkpt lon="1.856676" lat="46.879142"><ele>156.0</ele></trkpt>
<trkpt lon="1.856706" lat="46.879111"><ele>156.0</ele></trkpt>
<trkpt lon="1.856814" lat="46.878988"><ele>156.5</ele></trkpt>
<trkpt lon="1.856691" lat="46.878936"><ele>156.75</ele></trkpt>
<trkpt lon="1.855764" lat="46.878399"><ele>156.5</ele></trkpt>
<trkpt lon="1.853775" lat="46.877227"><ele>156.25</ele></trkpt>
<trkpt lon="1.853123" lat="46.876862"><ele>157.0</ele></trkpt>
<trkpt lon="1.852539" lat="46.876523"><ele>157.5</ele></trkpt>
<trkpt lon="1.851554" lat="46.875967"><ele>158.0</ele></trkpt>
<trkpt lon="1.850968" lat="46.875625"><ele>158.25</ele></trkpt>
<trkpt lon="1.849711" lat="46.874874"><ele>158.25</ele></trkpt>
<trkpt lon="1.848215" lat="46.873992"><ele>159.25</ele></trkpt>
<trkpt lon="1.847998" lat="46.873831"><ele>159.0</ele></trkpt>
<trkpt lon="1.847344" lat="46.873457"><ele>159.5</ele></trkpt>
<trkpt lon="1.846885" lat="46.873186"><ele>159.5</ele></trkpt>
<trkpt lon="1.846356" lat="46.872889"><ele>159.5</ele></trkpt>
<trkpt lon="1.845269" lat="46.872253"><ele>157.0</ele></trkpt>
<trkpt lon="1.843391" lat="46.871239"><ele>157.25</ele></trkpt>
<trkpt lon="1.843018" lat="46.871060"><ele>157.0</ele></trkpt>
<trkpt lon="1.842564" lat="46.870857"><ele>157.0</ele></trkpt>
<trkpt lon="1.842344" lat="46.870738"><ele>157.5</ele></trkpt>
<trkpt lon="1.842230" lat="46.870630"><ele>157.5</ele></trkpt>
<trkpt lon="1.842093" lat="46.870418"><ele>157.0</ele></trkpt>
<trkpt lon="1.841729" lat="46.869697"><ele>158.0</ele></trkpt>
<trkpt lon="1.841475" lat="46.869350"><ele>157.25</ele></trkpt>
<trkpt lon="1.841012" lat="46.868886"><ele>156.25</ele></trkpt>
<trkpt lon="1.840474" lat="46.868445"><ele>158.0</ele></trkpt>
<trkpt lon="1.840057" lat="46.868114"><ele>158.75</ele></trkpt>
<trkpt lon="1.839345" lat="46.867513"><ele>159.25</ele></trkpt>
<trkpt lon="1.838695" lat="46.866991"><ele>159.5</ele></trkpt>
<trkpt lon="1.838391" lat="46.866759"><ele>159.75</ele></trkpt>
<trkpt lon="1.838119" lat="46.866587"><ele>159.25</ele></trkpt>
<trkpt lon="1.837595" lat="46.866278"><ele>159.75</ele></trkpt>
<trkpt lon="1.837066" lat="46.865997"><ele>159.75</ele></trkpt>
<trkpt lon="1.836319" lat="46.865580"><ele>160.0</ele></trkpt>
<trkpt lon="1.835654" lat="46.865222"><ele>160.0</ele></trkpt>
<trkpt lon="1.835114" lat="46.864892"><ele>160.5</ele></trkpt>
<trkpt lon="1.834905" lat="46.864676"><ele>160.25</ele></trkpt>
<trkpt lon="1.834799" lat="46.864636"><ele>160.25</ele></trkpt>
<trkpt lon="1.834526" lat="46.864396"><ele>160.5</ele></trkpt>
<trkpt lon="1.834044" lat="46.864003"><ele>161.0</ele></trkpt>
<trkpt lon="1.831842" lat="46.862476"><ele>161.0</ele></trkpt>
<trkpt lon="1.830855" lat="46.861753"><ele>161.0</ele></trkpt>
<trkpt lon="1.830761" lat="46.861714"><ele>160.75</ele></trkpt>
<trkpt lon="1.830658" lat="46.861699"><ele>160.75</ele></trkpt>
<trkpt lon="1.830579" lat="46.861696"><ele>160.75</ele></trkpt>
<trkpt lon="1.829451" lat="46.862220"><ele>161.0</ele></trkpt>
<trkpt lon="1.826926" lat="46.863410"><ele>161.25</ele></trkpt>
<trkpt lon="1.826717" lat="46.863481"><ele>161.5</ele></trkpt>
<trkpt lon="1.826421" lat="46.863546"><ele>161.75</ele></trkpt>
<trkpt lon="1.826229" lat="46.863575"><ele>161.75</ele></trkpt>
<trkpt lon="1.825721" lat="46.863635"><ele>161.25</ele></trkpt>
<trkpt lon="1.825649" lat="46.863655"><ele>161.5</ele></trkpt>
<trkpt lon="1.825545" lat="46.863708"><ele>162.0</ele></trkpt>
<trkpt lon="1.825507" lat="46.863729"><ele>162.0</ele></trkpt>
<trkpt lon="1.825395" lat="46.863799"><ele>161.75</ele></trkpt>
<trkpt lon="1.825267" lat="46.863861"><ele>161.0</ele></trkpt>
<trkpt lon="1.823669" lat="46.864574"><ele>161.0</ele></trkpt>
<trkpt lon="1.823521" lat="46.864641"><ele>161.0</ele></trkpt>
<trkpt lon="1.822719" lat="46.864953"><ele>160.75</ele></trkpt>
<trkpt lon="1.822404" lat="46.865126"><ele>161.0</ele></trkpt>
<trkpt lon="1.821520" lat="46.865501"><ele>161.0</ele></trkpt>
<trkpt lon="1.821310" lat="46.865618"><ele>161.0</ele></trkpt>
<trkpt lon="1.820420" lat="46.866057"><ele>162.0</ele></trkpt>
<trkpt lon="1.820069" lat="46.866209"><ele>162.0</ele></trkpt>
<trkpt lon="1.819786" lat="46.866301"><ele>162.5</ele></trkpt>
<trkpt lon="1.819486" lat="46.866427"><ele>163.0</ele></trkpt>
<trkpt lon="1.819155" lat="46.866592"><ele>163.0</ele></trkpt>
<trkpt lon="1.818774" lat="46.866835"><ele>163.0</ele></trkpt>
<trkpt lon="1.818465" lat="46.867034"><ele>163.0</ele></trkpt>
<trkpt lon="1.818143" lat="46.867224"><ele>163.0</ele></trkpt>
<trkpt lon="1.817096" lat="46.867747"><ele>163.0</ele></trkpt>
<trkpt lon="1.816360" lat="46.868145"><ele>163.0</ele></trkpt>
<trkpt lon="1.815990" lat="46.868316"><ele>162.75</ele></trkpt>
<trkpt lon="1.815367" lat="46.868561"><ele>162.0</ele></trkpt>
<trkpt lon="1.815169" lat="46.868660"><ele>161.75</ele></trkpt>
<trkpt lon="1.814729" lat="46.868903"><ele>161.0</ele></trkpt>
<trkpt lon="1.813782" lat="46.869346"><ele>159.25</ele></trkpt>
<trkpt lon="1.813101" lat="46.869707"><ele>159.0</ele></trkpt>
<trkpt lon="1.812452" lat="46.870054"><ele>158.75</ele></trkpt>
<trkpt lon="1.809821" lat="46.871511"><ele>160.0</ele></trkpt>
<trkpt lon="1.809680" lat="46.871613"><ele>160.0</ele></trkpt>
<trkpt lon="1.809236" lat="46.871877"><ele>159.75</ele></trkpt>
<trkpt lon="1.808974" lat="46.871997"><ele>159.5</ele></trkpt>
<trkpt lon="1.808760" lat="46.872071"><ele>160.25</ele></trkpt>
<trkpt lon="1.804192" lat="46.874265"><ele>156.0</ele></trkpt>
<trkpt lon="1.804164" lat="46.874280"><ele>156.0</ele></trkpt>
<trkpt lon="1.803310" lat="46.873496"><ele>156.0</ele></trkpt>
<trkpt lon="1.802607" lat="46.872819"><ele>156.75</ele></trkpt>
<trkpt lon="1.801474" lat="46.871761"><ele>157.25</ele></trkpt>
<trkpt lon="1.801044" lat="46.871270"><ele>158.0</ele></trkpt>
<trkpt lon="1.800619" lat="46.870840"><ele>158.75</ele></trkpt>
<trkpt lon="1.800332" lat="46.870579"><ele>159.0</ele></trkpt>
<trkpt lon="1.799972" lat="46.870286"><ele>159.75</ele></trkpt>
<trkpt lon="1.798709" lat="46.869293"><ele>160.75</ele></trkpt>
<trkpt lon="1.797870" lat="46.868452"><ele>161.0</ele></trkpt>
<trkpt lon="1.797118" lat="46.867646"><ele>161.5</ele></trkpt>
<trkpt lon="1.796997" lat="46.867484"><ele>161.75</ele></trkpt>
<trkpt lon="1.796920" lat="46.867335"><ele>161.25</ele></trkpt>
<trkpt lon="1.796868" lat="46.867027"><ele>161.5</ele></trkpt>
<trkpt lon="1.796841" lat="46.866874"><ele>162.0</ele></trkpt>
<trkpt lon="1.796762" lat="46.866371"><ele>161.25</ele></trkpt>
<trkpt lon="1.796942" lat="46.866294"><ele>161.75</ele></trkpt>
<trkpt lon="1.797001" lat="46.866252"><ele>162.0</ele></trkpt>
<trkpt lon="1.793782" lat="46.864880"><ele>162.0</ele></trkpt>
<trkpt lon="1.793726" lat="46.864856"><ele>162.0</ele></trkpt>
<trkpt lon="1.793665" lat="46.864834"><ele>162.0</ele></trkpt>
<trkpt lon="1.793100" lat="46.864593"><ele>161.5</ele></trkpt>
<trkpt lon="1.792992" lat="46.864586"><ele>161.25</ele></trkpt>
<trkpt lon="1.792286" lat="46.864289"><ele>162.0</ele></trkpt>
<trkpt lon="1.792226" lat="46.864225"><ele>162.0</ele></trkpt>
<trkpt lon="1.792208" lat="46.864214"><ele>162.0</ele></trkpt>
<trkpt lon="1.791066" lat="46.863774"><ele>162.0</ele></trkpt>
<trkpt lon="1.791016" lat="46.863703"><ele>162.0</ele></trkpt>
<trkpt lon="1.790673" lat="46.863560"><ele>162.25</ele></trkpt>
<trkpt lon="1.788636" lat="46.862703"><ele>161.0</ele></trkpt>
<trkpt lon="1.787684" lat="46.862296"><ele>160.75</ele></trkpt>
<trkpt lon="1.787581" lat="46.862290"><ele>160.75</ele></trkpt>
<trkpt lon="1.787142" lat="46.862097"><ele>160.75</ele></trkpt>
<trkpt lon="1.787122" lat="46.862083"><ele>160.75</ele></trkpt>
<trkpt lon="1.787091" lat="46.862038"><ele>160.75</ele></trkpt>
<trkpt lon="1.787047" lat="46.862018"><ele>160.75</ele></trkpt>
<trkpt lon="1.785949" lat="46.861557"><ele>160.5</ele></trkpt>
<trkpt lon="1.784549" lat="46.860966"><ele>161.0</ele></trkpt>
<trkpt lon="1.782846" lat="46.860247"><ele>160.0</ele></trkpt>
<trkpt lon="1.782774" lat="46.860222"><ele>160.0</ele></trkpt>
<trkpt lon="1.782703" lat="46.860208"><ele>160.0</ele></trkpt>
<trkpt lon="1.782638" lat="46.860210"><ele>160.0</ele></trkpt>
<trkpt lon="1.782591" lat="46.860215"><ele>160.0</ele></trkpt>
<trkpt lon="1.782533" lat="46.860230"><ele>160.0</ele></trkpt>
<trkpt lon="1.782264" lat="46.860361"><ele>159.5</ele></trkpt>
<trkpt lon="1.782225" lat="46.860391"><ele>159.5</ele></trkpt>
<trkpt lon="1.781548" lat="46.860916"><ele>158.5</ele></trkpt>
<trkpt lon="1.781395" lat="46.861015"><ele>158.25</ele></trkpt>
<trkpt lon="1.781199" lat="46.861113"><ele>158.5</ele></trkpt>
<trkpt lon="1.781024" lat="46.861189"><ele>158.25</ele></trkpt>
<trkpt lon="1.780489" lat="46.861392"><ele>156.75</ele></trkpt>
<trkpt lon="1.779732" lat="46.861663"><ele>156.0</ele></trkpt>
<trkpt lon="1.779274" lat="46.861834"><ele>156.0</ele></trkpt>
<trkpt lon="1.778889" lat="46.861977"><ele>156.0</ele></trkpt>
<trkpt lon="1.778806" lat="46.861967"><ele>156.0</ele></trkpt>
<trkpt lon="1.778694" lat="46.862012"><ele>155.75</ele></trkpt>
<trkpt lon="1.778660" lat="46.861987"><ele>156.0</ele></trkpt>
<trkpt lon="1.778576" lat="46.861926"><ele>156.0</ele></trkpt>
<trkpt lon="1.777969" lat="46.861497"><ele>156.0</ele></trkpt>
<trkpt lon="1.777244" lat="46.860984"><ele>156.0</ele></trkpt>
<trkpt lon="1.776841" lat="46.860698"><ele>156.0</ele></trkpt>
<trkpt lon="1.776232" lat="46.860255"><ele>155.75</ele></trkpt>
<trkpt lon="1.775813" lat="46.859950"><ele>155.75</ele></trkpt>
<trkpt lon="1.775716" lat="46.859903"><ele>155.5</ele></trkpt>
<trkpt lon="1.775562" lat="46.859877"><ele>155.5</ele></trkpt>
<trkpt lon="1.775248" lat="46.859947"><ele>156.0</ele></trkpt>
<trkpt lon="1.774737" lat="46.860097"><ele>157.0</ele></trkpt>
<trkpt lon="1.774585" lat="46.860206"><ele>157.25</ele></trkpt>
<trkpt lon="1.773566" lat="46.859811"><ele>157.25</ele></trkpt>
<trkpt lon="1.773551" lat="46.859728"><ele>157.0</ele></trkpt>
<trkpt lon="1.773282" lat="46.859615"><ele>157.5</ele></trkpt>
<trkpt lon="1.773185" lat="46.859574"><ele>157.25</ele></trkpt>
<trkpt lon="1.773141" lat="46.859341"><ele>156.5</ele></trkpt>
<trkpt lon="1.773087" lat="46.859287"><ele>156.25</ele></trkpt>
<trkpt lon="1.773026" lat="46.859260"><ele>156.25</ele></trkpt>
<trkpt lon="1.772706" lat="46.859112"><ele>156.75</ele></trkpt>
<trkpt lon="1.772370" lat="46.858957"><ele>156.0</ele></trkpt>
<trkpt lon="1.772227" lat="46.858904"><ele>156.0</ele></trkpt>
<trkpt lon="1.772207" lat="46.858885"><ele>156.0</ele></trkpt>
<trkpt lon="1.772204" lat="46.858872"><ele>156.0</ele></trkpt>
<trkpt lon="1.772335" lat="46.858692"><ele>155.5</ele></trkpt>
<trkpt lon="1.771689" lat="46.858480"><ele>155.5</ele></trkpt>
<trkpt lon="1.771240" lat="46.858342"><ele>155.0</ele></trkpt>
<trkpt lon="1.771163" lat="46.858331"><ele>155.0</ele></trkpt>
<trkpt lon="1.771111" lat="46.858328"><ele>154.75</ele></trkpt>
<trkpt lon="1.771218" lat="46.857806"><ele>154.25</ele></trkpt>
<trkpt lon="1.771344" lat="46.857168"><ele>155.0</ele></trkpt>
<trkpt lon="1.771592" lat="46.855866"><ele>157.0</ele></trkpt>
<trkpt lon="1.771786" lat="46.855615"><ele>158.0</ele></trkpt>
<trkpt lon="1.771875" lat="46.855520"><ele>158.5</ele></trkpt>
<trkpt lon="1.771920" lat="46.855463"><ele>158.5</ele></trkpt>
<trkpt lon="1.772033" lat="46.855257"><ele>158.0</ele></trkpt>
<trkpt lon="1.772157" lat="46.855102"><ele>158.25</ele></trkpt>
<trkpt lon="1.775159" lat="46.852921"><ele>160.0</ele></trkpt>
<trkpt lon="1.775276" lat="46.852768"><ele>159.75</ele></trkpt>
<trkpt lon="1.775327" lat="46.852668"><ele>160.0</ele></trkpt>
<trkpt lon="1.775382" lat="46.852527"><ele>160.0</ele></trkpt>
<trkpt lon="1.775334" lat="46.852516"><ele>160.0</ele></trkpt>
<trkpt lon="1.775056" lat="46.852467"><ele>160.0</ele></trkpt>
<trkpt lon="1.774688" lat="46.852373"><ele>159.75</ele></trkpt>
<trkpt lon="1.774306" lat="46.852230"><ele>159.75</ele></trkpt>
<trkpt lon="1.774032" lat="46.852057"><ele>159.75</ele></trkpt>
<trkpt lon="1.773510" lat="46.851707"><ele>159.75</ele></trkpt>
<trkpt lon="1.773257" lat="46.851437"><ele>160.0</ele></trkpt>
<trkpt lon="1.772740" lat="46.850717"><ele>160.0</ele></trkpt>
<trkpt lon="1.772357" lat="46.850243"><ele>160.0</ele></trkpt>
<trkpt lon="1.772187" lat="46.850062"><ele>159.75</ele></trkpt>
<trkpt lon="1.772174" lat="46.849975"><ele>160.0</ele></trkpt>
<trkpt lon="1.772105" lat="46.849872"><ele>160.0</ele></trkpt>
<trkpt lon="1.771999" lat="46.849728"><ele>160.0</ele></trkpt>
<trkpt lon="1.771881" lat="46.849599"><ele>160.0</ele></trkpt>
<trkpt lon="1.771352" lat="46.849075"><ele>159.75</ele></trkpt>
<trkpt lon="1.771067" lat="46.848873"><ele>160.0</ele></trkpt>
<trkpt lon="1.770725" lat="46.848722"><ele>159.5</ele></trkpt>
<trkpt lon="1.769932" lat="46.848353"><ele>158.75</ele></trkpt>
<trkpt lon="1.769130" lat="46.847919"><ele>159.0</ele></trkpt>
<trkpt lon="1.768788" lat="46.847732"><ele>159.5</ele></trkpt>
<trkpt lon="1.766910" lat="46.846666"><ele>159.75</ele></trkpt>
<trkpt lon="1.766563" lat="46.846404"><ele>159.5</ele></trkpt>
<trkpt lon="1.766127" lat="46.845871"><ele>159.0</ele></trkpt>
<trkpt lon="1.765916" lat="46.845482"><ele>159.25</ele></trkpt>
<trkpt lon="1.765771" lat="46.845129"><ele>159.75</ele></trkpt>
<trkpt lon="1.766464" lat="46.844471"><ele>160.0</ele></trkpt>
<trkpt lon="1.767030" lat="46.843421"><ele>159.25</ele></trkpt>
<trkpt lon="1.769289" lat="46.839991"><ele>155.0</ele></trkpt>
<trkpt lon="1.769307" lat="46.839937"><ele>155.25</ele></trkpt>
<trkpt lon="1.769296" lat="46.839883"><ele>155.5</ele></trkpt>
<trkpt lon="1.769267" lat="46.839846"><ele>155.75</ele></trkpt>
<trkpt lon="1.769224" lat="46.839813"><ele>155.75</ele></trkpt>
<trkpt lon="1.767991" lat="46.839247"><ele>156.0</ele></trkpt>
<trkpt lon="1.767878" lat="46.839208"><ele>155.5</ele></trkpt>
<trkpt lon="1.767667" lat="46.839156"><ele>155.25</ele></trkpt>
<trkpt lon="1.767563" lat="46.839107"><ele>156.0</ele></trkpt>
<trkpt lon="1.767467" lat="46.839060"><ele>156.25</ele></trkpt>
<trkpt lon="1.767235" lat="46.838863"><ele>155.0</ele></trkpt>
<trkpt lon="1.766827" lat="46.838661"><ele>156.25</ele></trkpt>
<trkpt lon="1.763067" lat="46.836921"><ele>157.75</ele></trkpt>
<trkpt lon="1.759643" lat="46.835319"><ele>156.75</ele></trkpt>
<trkpt lon="1.758679" lat="46.834947"><ele>156.75</ele></trkpt>
<trkpt lon="1.758643" lat="46.834918"><ele>156.5</ele></trkpt>
<trkpt lon="1.758600" lat="46.834856"><ele>156.5</ele></trkpt>
<trkpt lon="1.758538" lat="46.834802"><ele>156.25</ele></trkpt>
<trkpt lon="1.758439" lat="46.834750"><ele>156.5</ele></trkpt>
<trkpt lon="1.758117" lat="46.834624"><ele>156.5</ele></trkpt>
<trkpt lon="1.752113" lat="46.831815"><ele>155.0</ele></trkpt>
<trkpt lon="1.751846" lat="46.831720"><ele>154.75</ele></trkpt>
<trkpt lon="1.751033" lat="46.831520"><ele>154.5</ele></trkpt>
<trkpt lon="1.750927" lat="46.831482"><ele>154.5</ele></trkpt>
<trkpt lon="1.750878" lat="46.831452"><ele>154.75</ele></trkpt>
<trkpt lon="1.750866" lat="46.831426"><ele>154.75</ele></trkpt>
<trkpt lon="1.750870" lat="46.831386"><ele>154.75</ele></trkpt>
<trkpt lon="1.750949" lat="46.831288"><ele>154.75</ele></trkpt>
<trkpt lon="1.749235" lat="46.830497"><ele>153.25</ele></trkpt>
<trkpt lon="1.746872" lat="46.831977"><ele>149.0</ele></trkpt>
<trkpt lon="1.743300" lat="46.830176"><ele>151.25</ele></trkpt>
<trkpt lon="1.742941" lat="46.829985"><ele>151.5</ele></trkpt>
<trkpt lon="1.742689" lat="46.829843"><ele>151.0</ele></trkpt>
<trkpt lon="1.742162" lat="46.829449"><ele>150.75</ele></trkpt>
<trkpt lon="1.741436" lat="46.830006"><ele>148.75</ele></trkpt>
<trkpt lon="1.741028" lat="46.830308"><ele>147.5</ele></trkpt>
<trkpt lon="1.740844" lat="46.830481"><ele>147.0</ele></trkpt>
<trkpt lon="1.740814" lat="46.830574"><ele>146.75</ele></trkpt>
<trkpt lon="1.740817" lat="46.830657"><ele>146.5</ele></trkpt>
<trkpt lon="1.740921" lat="46.831125"><ele>146.0</ele></trkpt>
<trkpt lon="1.740906" lat="46.831176"><ele>146.0</ele></trkpt>
<trkpt lon="1.740849" lat="46.831211"><ele>146.0</ele></trkpt>
<trkpt lon="1.740408" lat="46.831314"><ele>145.75</ele></trkpt>
<trkpt lon="1.739799" lat="46.831387"><ele>145.75</ele></trkpt>
<trkpt lon="1.739437" lat="46.831402"><ele>146.0</ele></trkpt>
<trkpt lon="1.737366" lat="46.831266"><ele>148.75</ele></trkpt>
<trkpt lon="1.737106" lat="46.831250"><ele>149.0</ele></trkpt>
<trkpt lon="1.736875" lat="46.831251"><ele>149.0</ele></trkpt>
<trkpt lon="1.735705" lat="46.831415"><ele>150.0</ele></trkpt>
<trkpt lon="1.735267" lat="46.831470"><ele>150.0</ele></trkpt>
<trkpt lon="1.734787" lat="46.831551"><ele>150.0</ele></trkpt>
<trkpt lon="1.734146" lat="46.831685"><ele>151.0</ele></trkpt>
<trkpt lon="1.733745" lat="46.831777"><ele>150.5</ele></trkpt>
<trkpt lon="1.733222" lat="46.831854"><ele>151.25</ele></trkpt>
<trkpt lon="1.732592" lat="46.831900"><ele>152.25</ele></trkpt>
<trkpt lon="1.731617" lat="46.832002"><ele>153.0</ele></trkpt>
<trkpt lon="1.731029" lat="46.832059"><ele>153.25</ele></trkpt>
<trkpt lon="1.730690" lat="46.832085"><ele>153.5</ele></trkpt>
<trkpt lon="1.729893" lat="46.832100"><ele>153.5</ele></trkpt>
<trkpt lon="1.729534" lat="46.832113"><ele>153.5</ele></trkpt>
<trkpt lon="1.729140" lat="46.832175"><ele>153.75</ele></trkpt>
<trkpt lon="1.728781" lat="46.832253"><ele>153.75</ele></trkpt>
<trkpt lon="1.728198" lat="46.832360"><ele>153.75</ele></trkpt>
<trkpt lon="1.727886" lat="46.832410"><ele>153.25</ele></trkpt>
<trkpt lon="1.727754" lat="46.832412"><ele>152.75</ele></trkpt>
<trkpt lon="1.727466" lat="46.832400"><ele>151.75</ele></trkpt>
<trkpt lon="1.727059" lat="46.832346"><ele>150.75</ele></trkpt>
<trkpt lon="1.726866" lat="46.832306"><ele>150.25</ele></trkpt>
<trkpt lon="1.726546" lat="46.832210"><ele>149.0</ele></trkpt>
<trkpt lon="1.726453" lat="46.832160"><ele>148.5</ele></trkpt>
<trkpt lon="1.726278" lat="46.832024"><ele>148.25</ele></trkpt>
<trkpt lon="1.726039" lat="46.831802"><ele>148.0</ele></trkpt>
<trkpt lon="1.725944" lat="46.831735"><ele>148.0</ele></trkpt>
<trkpt lon="1.725692" lat="46.831636"><ele>148.0</ele></trkpt>
<trkpt lon="1.725583" lat="46.831688"><ele>148.0</ele></trkpt>
<trkpt lon="1.725396" lat="46.831778"><ele>148.0</ele></trkpt>
<trkpt lon="1.724983" lat="46.831926"><ele>148.0</ele></trkpt>
<trkpt lon="1.724701" lat="46.832009"><ele>149.0</ele></trkpt>
<trkpt lon="1.724264" lat="46.832084"><ele>149.0</ele></trkpt>
<trkpt lon="1.723515" lat="46.832168"><ele>149.25</ele></trkpt>
<trkpt lon="1.723153" lat="46.832229"><ele>149.75</ele></trkpt>
<trkpt lon="1.722501" lat="46.832352"><ele>150.5</ele></trkpt>
<trkpt lon="1.722264" lat="46.832406"><ele>150.25</ele></trkpt>
<trkpt lon="1.721734" lat="46.832480"><ele>150.75</ele></trkpt>
<trkpt lon="1.721500" lat="46.832529"><ele>151.0</ele></trkpt>
<trkpt lon="1.721270" lat="46.832617"><ele>151.0</ele></trkpt>
<trkpt lon="1.721011" lat="46.832752"><ele>151.25</ele></trkpt>
<trkpt lon="1.720870" lat="46.832912"><ele>151.25</ele></trkpt>
<trkpt lon="1.720723" lat="46.833197"><ele>152.25</ele></trkpt>
<trkpt lon="1.720770" lat="46.833256"><ele>152.0</ele></trkpt>
<trkpt lon="1.720759" lat="46.833280"><ele>152.0</ele></trkpt>
<trkpt lon="1.720681" lat="46.833381"><ele>152.5</ele></trkpt>
<trkpt lon="1.720655" lat="46.833447"><ele>152.5</ele></trkpt>
<trkpt lon="1.720663" lat="46.833506"><ele>152.5</ele></trkpt>
<trkpt lon="1.720702" lat="46.833585"><ele>152.25</ele></trkpt>
<trkpt lon="1.720762" lat="46.833641"><ele>152.25</ele></trkpt>
<trkpt lon="1.720731" lat="46.833690"><ele>152.5</ele></trkpt>
<trkpt lon="1.720678" lat="46.833762"><ele>152.75</ele></trkpt>
<trkpt lon="1.720620" lat="46.833788"><ele>152.75</ele></trkpt>
<trkpt lon="1.720225" lat="46.833830"><ele>153.0</ele></trkpt>
<trkpt lon="1.720190" lat="46.833815"><ele>153.0</ele></trkpt>
<trkpt lon="1.720059" lat="46.833780"><ele>153.0</ele></trkpt>
<trkpt lon="1.719973" lat="46.833757"><ele>153.0</ele></trkpt>
<trkpt lon="1.719904" lat="46.833705"><ele>153.0</ele></trkpt>
<trkpt lon="1.719869" lat="46.833626"><ele>153.0</ele></trkpt>
<trkpt lon="1.719879" lat="46.833539"><ele>153.0</ele></trkpt>
<trkpt lon="1.719828" lat="46.833451"><ele>153.0</ele></trkpt>
<trkpt lon="1.719719" lat="46.833389"><ele>152.75</ele></trkpt>
<trkpt lon="1.719049" lat="46.833089"><ele>151.25</ele></trkpt>
<trkpt lon="1.719014" lat="46.833085"><ele>151.75</ele></trkpt>
<trkpt lon="1.718931" lat="46.833059"><ele>153.25</ele></trkpt>
<trkpt lon="1.718794" lat="46.833074"><ele>153.5</ele></trkpt>
<trkpt lon="1.718709" lat="46.833096"><ele>153.5</ele></trkpt>
<trkpt lon="1.718595" lat="46.833130"><ele>153.25</ele></trkpt>
<trkpt lon="1.718497" lat="46.833172"><ele>153.25</ele></trkpt>
<trkpt lon="1.718454" lat="46.833172"><ele>153.25</ele></trkpt>
<trkpt lon="1.718399" lat="46.833168"><ele>153.25</ele></trkpt>
<trkpt lon="1.718377" lat="46.833143"><ele>153.5</ele></trkpt>
<trkpt lon="1.718310" lat="46.833093"><ele>153.75</ele></trkpt>
<trkpt lon="1.718203" lat="46.833062"><ele>153.75</ele></trkpt>
<trkpt lon="1.718135" lat="46.833063"><ele>153.75</ele></trkpt>
<trkpt lon="1.718122" lat="46.833041"><ele>154.0</ele></trkpt>
<trkpt lon="1.718082" lat="46.832966"><ele>154.0</ele></trkpt>
<trkpt lon="1.718070" lat="46.832943"><ele>154.0</ele></trkpt>
<trkpt lon="1.718072" lat="46.832877"><ele>154.0</ele></trkpt>
<trkpt lon="1.718018" lat="46.832801"><ele>154.0</ele></trkpt>
<trkpt lon="1.718001" lat="46.832733"><ele>154.0</ele></trkpt>
<trkpt lon="1.717923" lat="46.832618"><ele>154.0</ele></trkpt>
<trkpt lon="1.717032" lat="46.832236"><ele>154.25</ele></trkpt>
<trkpt lon="1.717022" lat="46.832246"><ele>154.25</ele></trkpt>
<trkpt lon="1.716998" lat="46.832260"><ele>154.25</ele></trkpt>
<trkpt lon="1.716952" lat="46.832286"><ele>154.0</ele></trkpt>
<trkpt lon="1.716912" lat="46.832300"><ele>154.0</ele></trkpt>
<trkpt lon="1.716854" lat="46.832307"><ele>154.0</ele></trkpt>
<trkpt lon="1.716791" lat="46.832306"><ele>154.0</ele></trkpt>
<trkpt lon="1.714997" lat="46.832171"><ele>154.0</ele></trkpt>
<trkpt lon="1.714383" lat="46.832121"><ele>154.0</ele></trkpt>
<trkpt lon="1.714184" lat="46.832104"><ele>154.0</ele></trkpt>
<trkpt lon="1.713876" lat="46.832079"><ele>153.75</ele></trkpt>
<trkpt lon="1.713271" lat="46.832032"><ele>153.0</ele></trkpt>
<trkpt lon="1.713107" lat="46.832007"><ele>153.0</ele></trkpt>
<trkpt lon="1.712130" lat="46.831778"><ele>153.0</ele></trkpt>
<trkpt lon="1.711930" lat="46.831739"><ele>153.0</ele></trkpt>
<trkpt lon="1.710658" lat="46.831642"><ele>153.5</ele></trkpt>
<trkpt lon="1.710600" lat="46.831637"><ele>153.75</ele></trkpt>
<trkpt lon="1.710431" lat="46.831624"><ele>154.0</ele></trkpt>
<trkpt lon="1.709741" lat="46.831579"><ele>154.0</ele></trkpt>
<trkpt lon="1.709620" lat="46.831550"><ele>154.0</ele></trkpt>
<trkpt lon="1.709301" lat="46.831402"><ele>153.25</ele></trkpt>
<trkpt lon="1.709158" lat="46.831325"><ele>153.0</ele></trkpt>
<trkpt lon="1.708999" lat="46.831249"><ele>153.5</ele></trkpt>
<trkpt lon="1.708746" lat="46.831195"><ele>153.25</ele></trkpt>
<trkpt lon="1.708508" lat="46.831162"><ele>153.5</ele></trkpt>
<trkpt lon="1.708504" lat="46.831172"><ele>153.5</ele></trkpt>
<trkpt lon="1.708485" lat="46.831186"><ele>153.25</ele></trkpt>
<trkpt lon="1.708457" lat="46.831188"><ele>153.25</ele></trkpt>
<trkpt lon="1.708427" lat="46.831170"><ele>153.5</ele></trkpt>
<trkpt lon="1.708198" lat="46.831193"><ele>153.75</ele></trkpt>
<trkpt lon="1.708145" lat="46.831205"><ele>153.75</ele></trkpt>
<trkpt lon="1.708085" lat="46.831226"><ele>153.75</ele></trkpt>
<trkpt lon="1.707657" lat="46.830695"><ele>152.5</ele></trkpt>
<trkpt lon="1.707612" lat="46.830642"><ele>152.5</ele></trkpt>
<trkpt lon="1.707562" lat="46.830580"><ele>152.75</ele></trkpt>
<trkpt lon="1.707395" lat="46.830383"><ele>152.25</ele></trkpt>
<trkpt lon="1.707328" lat="46.830302"><ele>152.0</ele></trkpt>
<trkpt lon="1.707014" lat="46.829923"><ele>151.75</ele></trkpt>
<trkpt lon="1.706794" lat="46.829631"><ele>151.75</ele></trkpt>
<trkpt lon="1.706745" lat="46.829566"><ele>151.75</ele></trkpt>
<trkpt lon="1.706724" lat="46.829537"><ele>151.75</ele></trkpt>
<trkpt lon="1.706692" lat="46.829488"><ele>151.75</ele></trkpt>
<trkpt lon="1.706668" lat="46.829454"><ele>151.75</ele></trkpt>
<trkpt lon="1.706412" lat="46.829095"><ele>151.5</ele></trkpt>
<trkpt lon="1.706032" lat="46.828571"><ele>150.0</ele></trkpt>
<trkpt lon="1.705981" lat="46.828502"><ele>150.0</ele></trkpt>
<trkpt lon="1.705878" lat="46.828492"><ele>150.0</ele></trkpt>
<trkpt lon="1.705759" lat="46.828451"><ele>149.5</ele></trkpt>
<trkpt lon="1.705338" lat="46.828298"><ele>149.0</ele></trkpt>
<trkpt lon="1.704442" lat="46.828034"><ele>147.0</ele></trkpt>
<trkpt lon="1.704324" lat="46.827965"><ele>147.0</ele></trkpt>
<trkpt lon="1.703882" lat="46.827826"><ele>146.75</ele></trkpt>
<trkpt lon="1.703740" lat="46.827793"><ele>146.25</ele></trkpt>
<trkpt lon="1.703381" lat="46.827694"><ele>146.0</ele></trkpt>
<trkpt lon="1.702972" lat="46.827450"><ele>145.75</ele></trkpt>
<trkpt lon="1.702730" lat="46.827317"><ele>145.25</ele></trkpt>
<trkpt lon="1.702682" lat="46.827301"><ele>145.25</ele></trkpt>
<trkpt lon="1.702452" lat="46.827222"><ele>145.0</ele></trkpt>
<trkpt lon="1.702368" lat="46.827194"><ele>145.0</ele></trkpt>
<trkpt lon="1.701609" lat="46.826937"><ele>143.75</ele></trkpt>
<trkpt lon="1.701241" lat="46.826798"><ele>143.0</ele></trkpt>
<trkpt lon="1.701235" lat="46.826753"><ele>143.25</ele></trkpt>
<trkpt lon="1.701186" lat="46.826755"><ele>143.0</ele></trkpt>
<trkpt lon="1.700965" lat="46.826683"><ele>143.0</ele></trkpt>
<trkpt lon="1.700860" lat="46.826815"><ele>143.0</ele></trkpt>
<trkpt lon="1.700728" lat="46.826896"><ele>143.0</ele></trkpt>
<trkpt lon="1.700518" lat="46.827083"><ele>143.25</ele></trkpt>
<trkpt lon="1.700035" lat="46.827578"><ele>143.0</ele></trkpt>
<trkpt lon="1.699727" lat="46.827362"><ele>143.0</ele></trkpt>
<trkpt lon="1.699672" lat="46.827322"><ele>142.75</ele></trkpt>
<trkpt lon="1.699361" lat="46.827392"><ele>142.0</ele></trkpt>
<trkpt lon="1.699319" lat="46.827425"><ele>142.0</ele></trkpt>
<trkpt lon="1.699123" lat="46.827546"><ele>142.0</ele></trkpt>
<trkpt lon="1.698897" lat="46.827656"><ele>142.0</ele></trkpt>
<trkpt lon="1.698701" lat="46.827731"><ele>142.0</ele></trkpt>
<trkpt lon="1.698567" lat="46.827767"><ele>142.0</ele></trkpt>
<trkpt lon="1.698450" lat="46.827842"><ele>142.0</ele></trkpt>
<trkpt lon="1.698332" lat="46.827950"><ele>141.75</ele></trkpt>
<trkpt lon="1.698307" lat="46.828038"><ele>141.75</ele></trkpt>
<trkpt lon="1.698245" lat="46.828081"><ele>141.5</ele></trkpt>
<trkpt lon="1.698087" lat="46.828153"><ele>141.25</ele></trkpt>
<trkpt lon="1.697917" lat="46.828202"><ele>141.5</ele></trkpt>
<trkpt lon="1.697801" lat="46.828095"><ele>141.0</ele></trkpt>
<trkpt lon="1.697758" lat="46.828055"><ele>141.0</ele></trkpt>
<trkpt lon="1.697441" lat="46.827776"><ele>142.75</ele></trkpt>
<trkpt lon="1.697201" lat="46.827646"><ele>142.75</ele></trkpt>
<trkpt lon="1.696939" lat="46.827535"><ele>142.75</ele></trkpt>
<trkpt lon="1.696823" lat="46.827503"><ele>142.75</ele></trkpt>
<trkpt lon="1.696359" lat="46.827468"><ele>142.75</ele></trkpt>
<trkpt lon="1.696114" lat="46.827418"><ele>142.0</ele></trkpt>
<trkpt lon="1.696199" lat="46.827342"><ele>142.25</ele></trkpt>
<trkpt lon="1.696247" lat="46.827263"><ele>142.25</ele></trkpt>
<trkpt lon="1.696261" lat="46.827170"><ele>142.5</ele></trkpt>
<trkpt lon="1.696261" lat="46.827104"><ele>142.5</ele></trkpt>
<trkpt lon="1.696235" lat="46.827041"><ele>142.25</ele></trkpt>
<trkpt lon="1.696198" lat="46.826989"><ele>142.25</ele></trkpt>
<trkpt lon="1.696085" lat="46.826913"><ele>142.0</ele></trkpt>
<trkpt lon="1.696020" lat="46.826874"><ele>142.0</ele></trkpt>
<trkpt lon="1.695990" lat="46.826838"><ele>142.0</ele></trkpt>
<trkpt lon="1.695972" lat="46.826772"><ele>142.25</ele></trkpt>
<trkpt lon="1.695970" lat="46.826717"><ele>142.25</ele></trkpt>
<trkpt lon="1.695995" lat="46.826633"><ele>142.25</ele></trkpt>
<trkpt lon="1.695976" lat="46.826587"><ele>142.5</ele></trkpt>
<trkpt lon="1.695937" lat="46.826547"><ele>142.75</ele></trkpt>
<trkpt lon="1.695568" lat="46.826362"><ele>143.0</ele></trkpt>
<trkpt lon="1.695383" lat="46.826239"><ele>142.5</ele></trkpt>
<trkpt lon="1.695182" lat="46.826071"><ele>142.5</ele></trkpt>
<trkpt lon="1.694620" lat="46.825406"><ele>141.75</ele></trkpt>
<trkpt lon="1.694345" lat="46.825027"><ele>142.75</ele></trkpt>
<trkpt lon="1.694134" lat="46.824703"><ele>142.0</ele></trkpt>
<trkpt lon="1.694058" lat="46.824663"><ele>142.0</ele></trkpt>
<trkpt lon="1.693784" lat="46.824573"><ele>142.0</ele></trkpt>
<trkpt lon="1.693626" lat="46.824541"><ele>142.25</ele></trkpt>
<trkpt lon="1.693468" lat="46.824519"><ele>141.75</ele></trkpt>
<trkpt lon="1.693408" lat="46.824520"><ele>141.5</ele></trkpt>
<trkpt lon="1.693365" lat="46.824529"><ele>141.25</ele></trkpt>
<trkpt lon="1.693233" lat="46.824577"><ele>141.25</ele></trkpt>
<trkpt lon="1.693162" lat="46.824618"><ele>141.5</ele></trkpt>
<trkpt lon="1.692923" lat="46.824757"><ele>142.25</ele></trkpt>
<trkpt lon="1.692689" lat="46.824861"><ele>142.0</ele></trkpt>
<trkpt lon="1.692609" lat="46.824886"><ele>141.75</ele></trkpt>
<trkpt lon="1.692421" lat="46.824927"><ele>141.5</ele></trkpt>
<trkpt lon="1.691905" lat="46.825007"><ele>141.75</ele></trkpt>
<trkpt lon="1.691807" lat="46.825021"><ele>141.25</ele></trkpt>
<trkpt lon="1.691654" lat="46.825028"><ele>141.0</ele></trkpt>
<trkpt lon="1.691552" lat="46.824938"><ele>141.5</ele></trkpt>
<trkpt lon="1.691481" lat="46.824856"><ele>141.75</ele></trkpt>
<trkpt lon="1.691448" lat="46.824788"><ele>141.75</ele></trkpt>
<trkpt lon="1.691516" lat="46.824529"><ele>140.5</ele></trkpt>
<trkpt lon="1.691558" lat="46.824396"><ele>140.25</ele></trkpt>
<trkpt lon="1.691579" lat="46.824308"><ele>140.75</ele></trkpt>
<trkpt lon="1.691447" lat="46.824043"><ele>141.0</ele></trkpt>
<trkpt lon="1.691358" lat="46.824011"><ele>141.0</ele></trkpt>
<trkpt lon="1.691307" lat="46.823976"><ele>141.0</ele></trkpt>
<trkpt lon="1.691240" lat="46.823886"><ele>141.0</ele></trkpt>
<trkpt lon="1.691212" lat="46.823810"><ele>141.0</ele></trkpt>
<trkpt lon="1.691189" lat="46.823639"><ele>141.0</ele></trkpt>
<trkpt lon="1.691207" lat="46.823363"><ele>141.0</ele></trkpt>
<trkpt lon="1.691198" lat="46.823191"><ele>141.0</ele></trkpt>
<trkpt lon="1.691157" lat="46.823010"><ele>141.0</ele></trkpt>
<trkpt lon="1.691123" lat="46.822935"><ele>141.0</ele></trkpt>
<trkpt lon="1.691039" lat="46.822821"><ele>140.5</ele></trkpt>
<trkpt lon="1.690983" lat="46.822729"><ele>140.5</ele></trkpt>
<trkpt lon="1.690939" lat="46.822481"><ele>141.0</ele></trkpt>
<trkpt lon="1.690946" lat="46.822364"><ele>141.0</ele></trkpt>
<trkpt lon="1.690937" lat="46.822190"><ele>141.0</ele></trkpt>
<trkpt lon="1.690978" lat="46.822022"><ele>141.0</ele></trkpt>
<trkpt lon="1.690983" lat="46.821814"><ele>141.0</ele></trkpt>
<trkpt lon="1.691035" lat="46.821683"><ele>141.0</ele></trkpt>
<trkpt lon="1.691157" lat="46.821461"><ele>141.0</ele></trkpt>
<trkpt lon="1.691445" lat="46.820792"><ele>140.75</ele></trkpt>
<trkpt lon="1.691497" lat="46.820573"><ele>140.5</ele></trkpt>
<trkpt lon="1.691486" lat="46.820359"><ele>140.0</ele></trkpt>
<trkpt lon="1.691468" lat="46.820242"><ele>140.0</ele></trkpt>
<trkpt lon="1.691434" lat="46.820128"><ele>140.0</ele></trkpt>
<trkpt lon="1.691436" lat="46.820100"><ele>140.0</ele></trkpt>
<trkpt lon="1.691455" lat="46.819856"><ele>140.0</ele></trkpt>
<trkpt lon="1.691464" lat="46.819685"><ele>140.0</ele></trkpt>
<trkpt lon="1.691465" lat="46.819625"><ele>140.0</ele></trkpt>
<trkpt lon="1.691269" lat="46.819583"><ele>139.75</ele></trkpt>
<trkpt lon="1.691170" lat="46.819516"><ele>139.75</ele></trkpt>
<trkpt lon="1.691076" lat="46.819425"><ele>139.75</ele></trkpt>
<trkpt lon="1.691022" lat="46.819347"><ele>139.75</ele></trkpt>
<trkpt lon="1.690887" lat="46.819172"><ele>139.75</ele></trkpt>
<trkpt lon="1.690302" lat="46.818692"><ele>139.5</ele></trkpt>
<trkpt lon="1.690153" lat="46.818533"><ele>139.5</ele></trkpt>
<trkpt lon="1.690046" lat="46.818408"><ele>139.75</ele></trkpt>
<trkpt lon="1.689924" lat="46.818242"><ele>139.75</ele></trkpt>
<trkpt lon="1.689863" lat="46.818090"><ele>139.75</ele></trkpt>
<trkpt lon="1.689848" lat="46.817988"><ele>140.0</ele></trkpt>
<trkpt lon="1.689863" lat="46.817897"><ele>140.25</ele></trkpt>
<trkpt lon="1.689924" lat="46.817748"><ele>140.5</ele></trkpt>
<trkpt lon="1.689896" lat="46.817714"><ele>140.5</ele></trkpt>
<trkpt lon="1.689739" lat="46.817500"><ele>140.75</ele></trkpt>
<trkpt lon="1.689749" lat="46.817274"><ele>140.0</ele></trkpt>
<trkpt lon="1.689725" lat="46.817215"><ele>139.75</ele></trkpt>
<trkpt lon="1.689750" lat="46.817180"><ele>139.75</ele></trkpt>
<trkpt lon="1.689649" lat="46.817043"><ele>139.5</ele></trkpt>
<trkpt lon="1.689635" lat="46.816937"><ele>139.5</ele></trkpt>
<trkpt lon="1.689648" lat="46.816800"><ele>139.5</ele></trkpt>
<trkpt lon="1.689603" lat="46.816865"><ele>139.5</ele></trkpt>
<trkpt lon="1.689571" lat="46.816958"><ele>139.25</ele></trkpt>
<trkpt lon="1.689577" lat="46.817013"><ele>139.25</ele></trkpt>
<trkpt lon="1.689633" lat="46.817161"><ele>139.5</ele></trkpt>
<trkpt lon="1.689505" lat="46.817160"><ele>139.0</ele></trkpt>
<trkpt lon="1.689143" lat="46.817170"><ele>139.75</ele></trkpt>
<trkpt lon="1.689000" lat="46.817178"><ele>141.0</ele></trkpt>
<trkpt lon="1.689006" lat="46.817078"><ele>140.75</ele></trkpt>
<trkpt lon="1.688976" lat="46.816889"><ele>141.0</ele></trkpt>
<trkpt lon="1.689033" lat="46.816443"><ele>140.75</ele></trkpt>
<trkpt lon="1.689022" lat="46.816287"><ele>140.75</ele></trkpt>
<trkpt lon="1.688991" lat="46.816206"><ele>141.0</ele></trkpt>
<trkpt lon="1.688863" lat="46.815991"><ele>140.75</ele></trkpt>
<trkpt lon="1.688447" lat="46.815426"><ele>140.5</ele></trkpt>
<trkpt lon="1.688195" lat="46.815051"><ele>140.25</ele></trkpt>
<trkpt lon="1.688077" lat="46.814894"><ele>140.0</ele></trkpt>
<trkpt lon="1.688012" lat="46.814788"><ele>139.5</ele></trkpt>
<trkpt lon="1.687869" lat="46.814673"><ele>140.0</ele></trkpt>
<trkpt lon="1.687726" lat="46.814586"><ele>140.0</ele></trkpt>
<trkpt lon="1.687588" lat="46.814570"><ele>140.25</ele></trkpt>
<trkpt lon="1.687599" lat="46.814549"><ele>140.0</ele></trkpt>
<trkpt lon="1.687957" lat="46.814079"><ele>140.5</ele></trkpt>
<trkpt lon="1.687997" lat="46.814030"><ele>140.75</ele></trkpt>
<trkpt lon="1.688267" lat="46.813621"><ele>142.0</ele></trkpt>
<trkpt lon="1.688317" lat="46.813546"><ele>141.75</ele></trkpt>
<trkpt lon="1.688401" lat="46.813418"><ele>142.0</ele></trkpt>
<trkpt lon="1.688631" lat="46.813036"><ele>144.0</ele></trkpt>
<trkpt lon="1.688679" lat="46.812964"><ele>144.5</ele></trkpt>
<trkpt lon="1.688713" lat="46.812920"><ele>145.0</ele></trkpt>
<trkpt lon="1.688834" lat="46.812730"><ele>146.75</ele></trkpt>
<trkpt lon="1.688918" lat="46.812635"><ele>147.75</ele></trkpt>
<trkpt lon="1.688946" lat="46.812619"><ele>148.0</ele></trkpt>
<trkpt lon="1.689141" lat="46.812566"><ele>150.25</ele></trkpt>
<trkpt lon="1.689209" lat="46.812546"><ele>151.0</ele></trkpt>
<trkpt lon="1.689260" lat="46.812537"><ele>151.75</ele></trkpt>
<trkpt lon="1.689439" lat="46.812522"><ele>153.75</ele></trkpt>
<trkpt lon="1.689640" lat="46.812492"><ele>155.25</ele></trkpt>
<trkpt lon="1.689787" lat="46.812444"><ele>156.0</ele></trkpt>
<trkpt lon="1.689884" lat="46.812394"><ele>156.0</ele></trkpt>
<trkpt lon="1.689924" lat="46.812374"><ele>156.0</ele></trkpt>
<trkpt lon="1.689958" lat="46.812352"><ele>156.0</ele></trkpt>
<trkpt lon="1.689972" lat="46.812332"><ele>156.0</ele></trkpt>
<trkpt lon="1.690072" lat="46.812191"><ele>155.75</ele></trkpt>
<trkpt lon="1.690162" lat="46.812025"><ele>155.5</ele></trkpt>
<trkpt lon="1.690187" lat="46.811980"><ele>155.5</ele></trkpt>
<trkpt lon="1.690210" lat="46.811931"><ele>155.75</ele></trkpt>
<trkpt lon="1.690302" lat="46.811707"><ele>156.0</ele></trkpt>
<trkpt lon="1.690494" lat="46.811481"><ele>155.25</ele></trkpt>
<trkpt lon="1.690607" lat="46.811382"><ele>155.0</ele></trkpt>
<trkpt lon="1.690698" lat="46.811321"><ele>155.25</ele></trkpt>
<trkpt lon="1.690857" lat="46.811193"><ele>155.25</ele></trkpt>
<trkpt lon="1.690996" lat="46.810952"><ele>155.0</ele></trkpt>
<trkpt lon="1.691000" lat="46.810943"><ele>155.0</ele></trkpt>
<trkpt lon="1.691036" lat="46.810854"><ele>155.0</ele></trkpt>
<trkpt lon="1.691051" lat="46.810819"><ele>155.0</ele></trkpt>
<trkpt lon="1.691116" lat="46.810806"><ele>154.75</ele></trkpt>
<trkpt lon="1.691157" lat="46.810800"><ele>155.0</ele></trkpt>
<trkpt lon="1.691161" lat="46.810776"><ele>155.0</ele></trkpt>
<trkpt lon="1.691176" lat="46.810753"><ele>155.0</ele></trkpt>
<trkpt lon="1.691201" lat="46.810735"><ele>155.0</ele></trkpt>
<trkpt lon="1.691232" lat="46.810723"><ele>155.0</ele></trkpt>
<trkpt lon="1.691288" lat="46.810719"><ele>155.0</ele></trkpt>
<trkpt lon="1.691341" lat="46.810733"><ele>155.0</ele></trkpt>
<trkpt lon="1.691390" lat="46.810695"><ele>155.0</ele></trkpt>
<trkpt lon="1.691819" lat="46.810346"><ele>155.0</ele></trkpt>
<trkpt lon="1.691783" lat="46.810323"><ele>155.0</ele></trkpt>
<trkpt lon="1.691765" lat="46.810319"><ele>155.0</ele></trkpt>
<trkpt lon="1.691747" lat="46.810323"><ele>155.0</ele></trkpt>
<trkpt lon="1.691730" lat="46.810347"><ele>155.0</ele></trkpt>
<trkpt lon="1.691363" lat="46.810651"><ele>155.0</ele></trkpt>
<trkpt lon="1.691331" lat="46.810661"><ele>155.0</ele></trkpt>
<trkpt lon="1.691277" lat="46.810662"><ele>155.0</ele></trkpt>
<trkpt lon="1.691248" lat="46.810649"><ele>155.0</ele></trkpt>
<trkpt lon="1.690972" lat="46.810355"><ele>154.0</ele></trkpt>
  </trkseg></trk></gpx>
