<?xml version="1.0" encoding="UTF-8"?>
<gpx version="1.1" creator="compostel-brouter" xmlns="http://www.topografix.com/GPX/1/1">
  <metadata><name>FR-21-Argenton</name></metadata>
  <trk><name>FR-21-Argenton</name><trkseg>
<trkpt lon="1.690972" lat="46.810355"><ele>154.5</ele></trkpt>
<trkpt lon="1.690322" lat="46.809665"><ele>154.0</ele></trkpt>
<trkpt lon="1.690275" lat="46.809625"><ele>154.0</ele></trkpt>
<trkpt lon="1.690453" lat="46.809526"><ele>154.0</ele></trkpt>
<trkpt lon="1.690839" lat="46.809387"><ele>154.0</ele></trkpt>
<trkpt lon="1.691054" lat="46.809333"><ele>154.25</ele></trkpt>
<trkpt lon="1.691037" lat="46.809286"><ele>154.25</ele></trkpt>
<trkpt lon="1.690761" lat="46.808867"><ele>154.0</ele></trkpt>
<trkpt lon="1.690832" lat="46.808854"><ele>154.0</ele></trkpt>
<trkpt lon="1.691465" lat="46.808551"><ele>155.0</ele></trkpt>
<trkpt lon="1.691541" lat="46.808509"><ele>155.0</ele></trkpt>
<trkpt lon="1.691590" lat="46.808511"><ele>155.0</ele></trkpt>
<trkpt lon="1.691629" lat="46.808480"><ele>155.0</ele></trkpt>
<trkpt lon="1.691653" lat="46.808463"><ele>155.0</ele></trkpt>
<trkpt lon="1.691666" lat="46.808444"><ele>155.0</ele></trkpt>
<trkpt lon="1.691671" lat="46.808420"><ele>155.0</ele></trkpt>
<trkpt lon="1.691700" lat="46.808414"><ele>155.0</ele></trkpt>
<trkpt lon="1.691746" lat="46.808413"><ele>155.0</ele></trkpt>
<trkpt lon="1.691758" lat="46.808260"><ele>155.0</ele></trkpt>
<trkpt lon="1.691756" lat="46.808061"><ele>155.0</ele></trkpt>
<trkpt lon="1.691721" lat="46.807773"><ele>155.0</ele></trkpt>
<trkpt lon="1.691715" lat="46.807681"><ele>155.25</ele></trkpt>
<trkpt lon="1.691709" lat="46.807573"><ele>155.5</ele></trkpt>
<trkpt lon="1.691688" lat="46.806860"><ele>156.25</ele></trkpt>
<trkpt lon="1.691678" lat="46.806459"><ele>156.75</ele></trkpt>
<trkpt lon="1.691677" lat="46.806426"><ele>156.75</ele></trkpt>
<trkpt lon="1.691665" lat="46.806348"><ele>156.75</ele></trkpt>
<trkpt lon="1.691654" lat="46.806301"><ele>156.5</ele></trkpt>
<trkpt lon="1.691702" lat="46.806147"><ele>156.0</ele></trkpt>
<trkpt lon="1.691704" lat="46.806107"><ele>156.0</ele></trkpt>
<trkpt lon="1.691703" lat="46.806039"><ele>156.25</ele></trkpt>
<trkpt lon="1.691732" lat="46.805643"><ele>157.0</ele></trkpt>
<trkpt lon="1.691744" lat="46.805303"><ele>157.0</ele></trkpt>
<trkpt lon="1.691753" lat="46.805029"><ele>157.0</ele></trkpt>
<trkpt lon="1.691758" lat="46.804889"><ele>157.0</ele></trkpt>
<trkpt lon="1.691783" lat="46.804346"><ele>157.0</ele></trkpt>
<trkpt lon="1.691789" lat="46.804308"><ele>157.0</ele></trkpt>
<trkpt lon="1.691795" lat="46.804265"><ele>157.0</ele></trkpt>
<trkpt lon="1.691806" lat="46.804187"><ele>157.0</ele></trkpt>
<trkpt lon="1.691809" lat="46.804141"><ele>157.0</ele></trkpt>
<trkpt lon="1.691766" lat="46.804151"><ele>157.0</ele></trkpt>
<trkpt lon="1.691737" lat="46.804171"><ele>157.0</ele></trkpt>
<trkpt lon="1.691674" lat="46.804191"><ele>157.0</ele></trkpt>
<trkpt lon="1.690628" lat="46.804386"><ele>158.0</ele></trkpt>
<trkpt lon="1.690080" lat="46.804364"><ele>158.0</ele></trkpt>
<trkpt lon="1.689600" lat="46.804367"><ele>158.75</ele></trkpt>
<trkpt lon="1.689436" lat="46.804277"><ele>158.75</ele></trkpt>
<trkpt lon="1.689110" lat="46.803883"><ele>158.75</ele></trkpt>
<trkpt lon="1.688507" lat="46.803155"><ele>157.5</ele></trkpt>
<trkpt lon="1.688407" lat="46.803034"><ele>157.5</ele></trkpt>
<trkpt lon="1.688301" lat="46.802905"><ele>157.5</ele></trkpt>
<trkpt lon="1.688009" lat="46.802576"><ele>157.0</ele></trkpt>
<trkpt lon="1.687597" lat="46.802083"><ele>156.75</ele></trkpt>
<trkpt lon="1.687466" lat="46.801974"><ele>157.0</ele></trkpt>
<trkpt lon="1.687361" lat="46.801901"><ele>156.75</ele></trkpt>
<trkpt lon="1.687225" lat="46.801836"><ele>156.75</ele></trkpt>
<trkpt lon="1.686929" lat="46.801753"><ele>156.25</ele></trkpt>
<trkpt lon="1.686947" lat="46.801721"><ele>156.0</ele></trkpt>
<trkpt lon="1.686922" lat="46.801621"><ele>156.0</ele></trkpt>
<trkpt lon="1.686852" lat="46.801457"><ele>156.0</ele></trkpt>
<trkpt lon="1.686819" lat="46.801131"><ele>156.0</ele></trkpt>
<trkpt lon="1.686819" lat="46.801063"><ele>155.75</ele></trkpt>
<trkpt lon="1.686785" lat="46.800991"><ele>155.5</ele></trkpt>
<trkpt lon="1.686771" lat="46.800946"><ele>155.25</ele></trkpt>
<trkpt lon="1.686588" lat="46.800351"><ele>155.0</ele></trkpt>
<trkpt lon="1.686527" lat="46.800194"><ele>154.75</ele></trkpt>
<trkpt lon="1.686382" lat="46.800035"><ele>154.75</ele></trkpt>
<trkpt lon="1.685990" lat="46.799727"><ele>154.75</ele></trkpt>
<trkpt lon="1.685786" lat="46.799538"><ele>154.75</ele></trkpt>
<trkpt lon="1.685674" lat="46.799420"><ele>154.25</ele></trkpt>
<trkpt lon="1.685567" lat="46.799231"><ele>154.0</ele></trkpt>
<trkpt lon="1.685394" lat="46.798939"><ele>154.0</ele></trkpt>
<trkpt lon="1.685032" lat="46.798346"><ele>153.0</ele></trkpt>
<trkpt lon="1.684806" lat="46.797949"><ele>151.0</ele></trkpt>
<trkpt lon="1.684782" lat="46.797910"><ele>151.0</ele></trkpt>
<trkpt lon="1.684566" lat="46.797565"><ele>149.5</ele></trkpt>
<trkpt lon="1.684350" lat="46.797219"><ele>148.5</ele></trkpt>
<trkpt lon="1.684290" lat="46.797044"><ele>148.25</ele></trkpt>
<trkpt lon="1.684261" lat="46.796877"><ele>148.0</ele></trkpt>
<trkpt lon="1.684250" lat="46.796785"><ele>147.5</ele></trkpt>
<trkpt lon="1.684278" lat="46.796708"><ele>147.5</ele></trkpt>
<trkpt lon="1.684354" lat="46.796634"><ele>147.25</ele></trkpt>
<trkpt lon="1.684785" lat="46.796288"><ele>148.0</ele></trkpt>
<trkpt lon="1.684833" lat="46.796209"><ele>148.0</ele></trkpt>
<trkpt lon="1.684835" lat="46.796152"><ele>148.0</ele></trkpt>
<trkpt lon="1.685121" lat="46.796008"><ele>148.0</ele></trkpt>
<trkpt lon="1.685501" lat="46.795813"><ele>148.0</ele></trkpt>
<trkpt lon="1.686392" lat="46.795356"><ele>149.0</ele></trkpt>
<trkpt lon="1.686454" lat="46.795312"><ele>149.0</ele></trkpt>
<trkpt lon="1.686489" lat="46.795294"><ele>149.0</ele></trkpt>
<trkpt lon="1.686473" lat="46.795280"><ele>149.0</ele></trkpt>
<trkpt lon="1.686452" lat="46.795261"><ele>149.0</ele></trkpt>
<trkpt lon="1.686096" lat="46.794939"><ele>149.25</ele></trkpt>
<trkpt lon="1.684390" lat="46.793379"><ele>152.0</ele></trkpt>
<trkpt lon="1.684319" lat="46.793322"><ele>152.0</ele></trkpt>
<trkpt lon="1.682040" lat="46.791270"><ele>158.0</ele></trkpt>
<trkpt lon="1.682429" lat="46.791073"><ele>158.0</ele></trkpt>
<trkpt lon="1.680606" lat="46.789419"><ele>158.0</ele></trkpt>
<trkpt lon="1.680664" lat="46.789400"><ele>158.0</ele></trkpt>
<trkpt lon="1.680637" lat="46.789235"><ele>158.0</ele></trkpt>
<trkpt lon="1.680631" lat="46.789184"><ele>157.75</ele></trkpt>
<trkpt lon="1.679655" lat="46.788998"><ele>156.25</ele></trkpt>
<trkpt lon="1.679361" lat="46.788904"><ele>155.75</ele></trkpt>
<trkpt lon="1.679045" lat="46.788787"><ele>155.5</ele></trkpt>
<trkpt lon="1.678539" lat="46.788510"><ele>154.25</ele></trkpt>
<trkpt lon="1.678182" lat="46.788224"><ele>154.0</ele></trkpt>
<trkpt lon="1.677928" lat="46.787936"><ele>154.5</ele></trkpt>
<trkpt lon="1.677749" lat="46.787646"><ele>154.75</ele></trkpt>
<trkpt lon="1.677572" lat="46.787207"><ele>156.5</ele></trkpt>
<trkpt lon="1.677352" lat="46.786512"><ele>157.0</ele></trkpt>
<trkpt lon="1.677246" lat="46.786144"><ele>161.0</ele></trkpt>
<trkpt lon="1.676900" lat="46.785020"><ele>160.75</ele></trkpt>
<trkpt lon="1.676896" lat="46.785006"><ele>160.75</ele></trkpt>
<trkpt lon="1.676827" lat="46.784777"><ele>160.25</ele></trkpt>
<trkpt lon="1.676655" lat="46.784210"><ele>160.75</ele></trkpt>
<trkpt lon="1.676595" lat="46.784013"><ele>161.0</ele></trkpt>
<trkpt lon="1.676420" lat="46.783655"><ele>161.0</ele></trkpt>
<trkpt lon="1.675348" lat="46.781672"><ele>155.75</ele></trkpt>
<trkpt lon="1.675291" lat="46.781539"><ele>155.25</ele></trkpt>
<trkpt lon="1.675240" lat="46.781348"><ele>154.5</ele></trkpt>
<trkpt lon="1.675232" lat="46.781318"><ele>154.25</ele></trkpt>
<trkpt lon="1.675187" lat="46.780973"><ele>152.5</ele></trkpt>
<trkpt lon="1.675099" lat="46.779801"><ele>154.5</ele></trkpt>
<trkpt lon="1.675061" lat="46.779294"><ele>155.5</ele></trkpt>
<trkpt lon="1.674938" lat="46.777652"><ele>160.25</ele></trkpt>
<trkpt lon="1.674884" lat="46.776903"><ele>161.0</ele></trkpt>
<trkpt lon="1.674774" lat="46.776199"><ele>161.0</ele></trkpt>
<trkpt lon="1.674651" lat="46.775567"><ele>162.0</ele></trkpt>
<trkpt lon="1.674447" lat="46.774776"><ele>162.0</ele></trkpt>
<trkpt lon="1.673481" lat="46.771021"><ele>161.25</ele></trkpt>
<trkpt lon="1.673385" lat="46.770726"><ele>161.0</ele></trkpt>
<trkpt lon="1.673236" lat="46.770372"><ele>161.0</ele></trkpt>
<trkpt lon="1.673033" lat="46.769988"><ele>161.0</ele></trkpt>
<trkpt lon="1.672776" lat="46.769579"><ele>161.0</ele></trkpt>
<trkpt lon="1.670965" lat="46.766686"><ele>162.0</ele></trkpt>
<trkpt lon="1.670884" lat="46.766436"><ele>162.75</ele></trkpt>
<trkpt lon="1.670801" lat="46.766318"><ele>163.0</ele></trkpt>
<trkpt lon="1.670769" lat="46.766295"><ele>163.0</ele></trkpt>
<trkpt lon="1.670609" lat="46.766126"><ele>163.75</ele></trkpt>
<trkpt lon="1.670530" lat="46.765975"><ele>164.0</ele></trkpt>
<trkpt lon="1.670511" lat="46.765869"><ele>164.0</ele></trkpt>
<trkpt lon="1.670552" lat="46.765540"><ele>165.0</ele></trkpt>
<trkpt lon="1.670732" lat="46.764766"><ele>165.75</ele></trkpt>
<trkpt lon="1.670739" lat="46.764624"><ele>166.0</ele></trkpt>
<trkpt lon="1.670691" lat="46.764513"><ele>166.0</ele></trkpt>
<trkpt lon="1.670571" lat="46.764345"><ele>166.25</ele></trkpt>
<trkpt lon="1.669861" lat="46.763555"><ele>167.25</ele></trkpt>
<trkpt lon="1.669631" lat="46.763333"><ele>167.25</ele></trkpt>
<trkpt lon="1.669498" lat="46.763162"><ele>167.25</ele></trkpt>
<trkpt lon="1.669413" lat="46.762948"><ele>167.0</ele></trkpt>
<trkpt lon="1.669192" lat="46.762448"><ele>167.0</ele></trkpt>
<trkpt lon="1.668983" lat="46.762052"><ele>167.25</ele></trkpt>
<trkpt lon="1.668775" lat="46.761767"><ele>168.0</ele></trkpt>
<trkpt lon="1.668364" lat="46.761332"><ele>168.75</ele></trkpt>
<trkpt lon="1.668163" lat="46.761120"><ele>169.0</ele></trkpt>
<trkpt lon="1.667525" lat="46.760378"><ele>170.75</ele></trkpt>
<trkpt lon="1.667064" lat="46.759928"><ele>171.5</ele></trkpt>
<trkpt lon="1.666635" lat="46.759537"><ele>173.0</ele></trkpt>
<trkpt lon="1.666262" lat="46.759230"><ele>174.0</ele></trkpt>
<trkpt lon="1.665343" lat="46.758611"><ele>175.0</ele></trkpt>
<trkpt lon="1.665063" lat="46.758396"><ele>175.75</ele></trkpt>
<trkpt lon="1.664245" lat="46.757770"><ele>176.5</ele></trkpt>
<trkpt lon="1.664137" lat="46.757651"><ele>176.5</ele></trkpt>
<trkpt lon="1.663547" lat="46.757169"><ele>177.0</ele></trkpt>
<trkpt lon="1.663301" lat="46.756831"><ele>177.0</ele></trkpt>
<trkpt lon="1.662884" lat="46.755970"><ele>178.5</ele></trkpt>
<trkpt lon="1.662619" lat="46.755099"><ele>180.75</ele></trkpt>
<trkpt lon="1.662429" lat="46.754593"><ele>182.0</ele></trkpt>
<trkpt lon="1.662309" lat="46.754392"><ele>182.5</ele></trkpt>
<trkpt lon="1.661195" lat="46.753158"><ele>182.75</ele></trkpt>
<trkpt lon="1.661072" lat="46.753009"><ele>182.75</ele></trkpt>
<trkpt lon="1.660973" lat="46.752814"><ele>182.5</ele></trkpt>
<trkpt lon="1.660661" lat="46.752384"><ele>182.0</ele></trkpt>
<trkpt lon="1.659867" lat="46.750926"><ele>181.0</ele></trkpt>
<trkpt lon="1.658830" lat="46.749155"><ele>178.75</ele></trkpt>
<trkpt lon="1.657851" lat="46.747419"><ele>175.25</ele></trkpt>
<trkpt lon="1.657493" lat="46.746833"><ele>175.0</ele></trkpt>
<trkpt lon="1.657225" lat="46.746367"><ele>174.75</ele></trkpt>
<trkpt lon="1.657221" lat="46.746328"><ele>174.75</ele></trkpt>
<trkpt lon="1.656554" lat="46.745116"><ele>173.0</ele></trkpt>
<trkpt lon="1.655480" lat="46.743288"><ele>173.0</ele></trkpt>
<trkpt lon="1.653725" lat="46.740112"><ele>173.0</ele></trkpt>
<trkpt lon="1.650591" lat="46.734482"><ele>174.75</ele></trkpt>
<trkpt lon="1.650409" lat="46.734188"><ele>174.75</ele></trkpt>
<trkpt lon="1.650377" lat="46.734038"><ele>174.5</ele></trkpt>
<trkpt lon="1.649376" lat="46.730197"><ele>168.75</ele></trkpt>
<trkpt lon="1.649373" lat="46.730131"><ele>168.5</ele></trkpt>
<trkpt lon="1.649381" lat="46.729948"><ele>168.5</ele></trkpt>
<trkpt lon="1.649463" lat="46.729686"><ele>168.0</ele></trkpt>
<trkpt lon="1.649492" lat="46.729420"><ele>168.0</ele></trkpt>
<trkpt lon="1.649357" lat="46.729030"><ele>168.0</ele></trkpt>
<trkpt lon="1.649116" lat="46.728679"><ele>167.75</ele></trkpt>
<trkpt lon="1.648870" lat="46.728111"><ele>167.0</ele></trkpt>
<trkpt lon="1.648587" lat="46.727342"><ele>168.0</ele></trkpt>
<trkpt lon="1.647747" lat="46.726299"><ele>164.5</ele></trkpt>
<trkpt lon="1.646866" lat="46.725122"><ele>161.5</ele></trkpt>
<trkpt lon="1.646413" lat="46.724317"><ele>160.0</ele></trkpt>
<trkpt lon="1.645367" lat="46.722238"><ele>155.75</ele></trkpt>
<trkpt lon="1.645220" lat="46.721964"><ele>155.0</ele></trkpt>
<trkpt lon="1.645050" lat="46.721541"><ele>154.5</ele></trkpt>
<trkpt lon="1.644873" lat="46.720804"><ele>153.25</ele></trkpt>
<trkpt lon="1.644738" lat="46.720526"><ele>153.0</ele></trkpt>
<trkpt lon="1.644556" lat="46.720256"><ele>152.25</ele></trkpt>
<trkpt lon="1.644256" lat="46.719994"><ele>151.75</ele></trkpt>
<trkpt lon="1.643951" lat="46.719672"><ele>151.0</ele></trkpt>
<trkpt lon="1.643675" lat="46.719353"><ele>150.75</ele></trkpt>
<trkpt lon="1.643404" lat="46.718870"><ele>150.75</ele></trkpt>
<trkpt lon="1.643287" lat="46.718467"><ele>150.0</ele></trkpt>
<trkpt lon="1.643169" lat="46.717907"><ele>148.25</ele></trkpt>
<trkpt lon="1.643069" lat="46.717307"><ele>146.25</ele></trkpt>
<trkpt lon="1.642999" lat="46.716799"><ele>145.25</ele></trkpt>
<trkpt lon="1.642899" lat="46.716489"><ele>144.75</ele></trkpt>
<trkpt lon="1.642893" lat="46.716332"><ele>144.75</ele></trkpt>
<trkpt lon="1.642855" lat="46.716123"><ele>144.25</ele></trkpt>
<trkpt lon="1.642797" lat="46.716115"><ele>144.0</ele></trkpt>
<trkpt lon="1.642640" lat="46.716039"><ele>144.0</ele></trkpt>
<trkpt lon="1.642447" lat="46.715913"><ele>143.5</ele></trkpt>
<trkpt lon="1.642000" lat="46.715660"><ele>143.25</ele></trkpt>
<trkpt lon="1.641374" lat="46.715354"><ele>143.25</ele></trkpt>
<trkpt lon="1.641195" lat="46.715228"><ele>143.5</ele></trkpt>
<trkpt lon="1.641079" lat="46.715127"><ele>143.5</ele></trkpt>
<trkpt lon="1.640960" lat="46.714912"><ele>143.5</ele></trkpt>
<trkpt lon="1.640647" lat="46.714154"><ele>143.0</ele></trkpt>
<trkpt lon="1.640099" lat="46.712626"><ele>140.25</ele></trkpt>
<trkpt lon="1.639693" lat="46.711371"><ele>138.75</ele></trkpt>
<trkpt lon="1.639157" lat="46.709725"><ele>137.0</ele></trkpt>
<trkpt lon="1.638233" lat="46.707037"><ele>137.0</ele></trkpt>
<trkpt lon="1.637910" lat="46.706011"><ele>138.0</ele></trkpt>
<trkpt lon="1.637815" lat="46.705597"><ele>138.0</ele></trkpt>
<trkpt lon="1.637707" lat="46.705304"><ele>138.0</ele></trkpt>
<trkpt lon="1.637636" lat="46.705050"><ele>137.0</ele></trkpt>
<trkpt lon="1.637542" lat="46.704902"><ele>137.0</ele></trkpt>
<trkpt lon="1.637400" lat="46.704725"><ele>137.0</ele></trkpt>
<trkpt lon="1.637128" lat="46.704156"><ele>133.75</ele></trkpt>
<trkpt lon="1.637030" lat="46.703920"><ele>132.0</ele></trkpt>
<trkpt lon="1.637002" lat="46.703674"><ele>131.0</ele></trkpt>
<trkpt lon="1.636868" lat="46.703344"><ele>130.0</ele></trkpt>
<trkpt lon="1.636819" lat="46.703168"><ele>130.0</ele></trkpt>
<trkpt lon="1.636587" lat="46.702836"><ele>130.75</ele></trkpt>
<trkpt lon="1.636417" lat="46.702615"><ele>132.0</ele></trkpt>
<trkpt lon="1.636276" lat="46.702472"><ele>133.0</ele></trkpt>
<trkpt lon="1.636156" lat="46.702387"><ele>133.75</ele></trkpt>
<trkpt lon="1.635912" lat="46.702250"><ele>134.75</ele></trkpt>
<trkpt lon="1.635500" lat="46.701932"><ele>135.0</ele></trkpt>
<trkpt lon="1.635374" lat="46.701796"><ele>135.5</ele></trkpt>
<trkpt lon="1.635169" lat="46.701493"><ele>136.5</ele></trkpt>
<trkpt lon="1.634941" lat="46.701088"><ele>137.0</ele></trkpt>
<trkpt lon="1.634723" lat="46.700756"><ele>137.0</ele></trkpt>
<trkpt lon="1.634506" lat="46.700339"><ele>137.0</ele></trkpt>
<trkpt lon="1.634342" lat="46.700080"><ele>137.5</ele></trkpt>
<trkpt lon="1.633971" lat="46.699653"><ele>138.75</ele></trkpt>
<trkpt lon="1.633809" lat="46.699369"><ele>139.0</ele></trkpt>
<trkpt lon="1.633688" lat="46.699175"><ele>139.0</ele></trkpt>
<trkpt lon="1.633426" lat="46.698647"><ele>140.75</ele></trkpt>
<trkpt lon="1.633162" lat="46.698204"><ele>141.0</ele></trkpt>
<trkpt lon="1.633040" lat="46.697885"><ele>141.0</ele></trkpt>
<trkpt lon="1.633054" lat="46.697755"><ele>141.0</ele></trkpt>
<trkpt lon="1.632962" lat="46.697670"><ele>141.0</ele></trkpt>
<trkpt lon="1.631659" lat="46.693639"><ele>136.75</ele></trkpt>
<trkpt lon="1.631643" lat="46.693608"><ele>136.75</ele></trkpt>
<trkpt lon="1.630750" lat="46.691017"><ele>135.0</ele></trkpt>
<trkpt lon="1.630185" lat="46.689990"><ele>135.0</ele></trkpt>
<trkpt lon="1.629693" lat="46.689002"><ele>135.0</ele></trkpt>
<trkpt lon="1.629154" lat="46.687758"><ele>135.0</ele></trkpt>
<trkpt lon="1.628512" lat="46.686315"><ele>134.0</ele></trkpt>
<trkpt lon="1.628028" lat="46.685433"><ele>134.0</ele></trkpt>
<trkpt lon="1.627757" lat="46.684755"><ele>133.0</ele></trkpt>
<trkpt lon="1.630628" lat="46.682697"><ele>132.75</ele></trkpt>
<trkpt lon="1.630825" lat="46.682539"><ele>132.75</ele></trkpt>
<trkpt lon="1.630964" lat="46.682380"><ele>133.0</ele></trkpt>
<trkpt lon="1.632437" lat="46.682283"><ele>135.75</ele></trkpt>
<trkpt lon="1.633493" lat="46.682081"><ele>133.5</ele></trkpt>
<trkpt lon="1.633237" lat="46.681603"><ele>134.5</ele></trkpt>
<trkpt lon="1.632950" lat="46.681178"><ele>135.25</ele></trkpt>
<trkpt lon="1.632192" lat="46.680247"><ele>133.75</ele></trkpt>
<trkpt lon="1.631537" lat="46.679517"><ele>133.75</ele></trkpt>
<trkpt lon="1.631188" lat="46.678918"><ele>132.75</ele></trkpt>
<trkpt lon="1.630627" lat="46.677339"><ele>131.0</ele></trkpt>
<trkpt lon="1.630105" lat="46.675797"><ele>132.75</ele></trkpt>
<trkpt lon="1.629703" lat="46.674911"><ele>132.0</ele></trkpt>
<trkpt lon="1.628855" lat="46.673685"><ele>131.5</ele></trkpt>
<trkpt lon="1.627886" lat="46.672312"><ele>130.5</ele></trkpt>
<trkpt lon="1.627267" lat="46.671151"><ele>126.5</ele></trkpt>
<trkpt lon="1.626671" lat="46.669964"><ele>128.0</ele></trkpt>
<trkpt lon="1.626023" lat="46.668736"><ele>130.25</ele></trkpt>
<trkpt lon="1.625695" lat="46.668086"><ele>130.5</ele></trkpt>
<trkpt lon="1.625464" lat="46.667809"><ele>131.25</ele></trkpt>
<trkpt lon="1.625354" lat="46.667738"><ele>131.5</ele></trkpt>
<trkpt lon="1.625216" lat="46.667686"><ele>131.5</ele></trkpt>
<trkpt lon="1.624921" lat="46.667603"><ele>131.25</ele></trkpt>
<trkpt lon="1.624502" lat="46.667460"><ele>130.75</ele></trkpt>
<trkpt lon="1.624437" lat="46.667408"><ele>130.5</ele></trkpt>
<trkpt lon="1.624431" lat="46.667340"><ele>130.25</ele></trkpt>
<trkpt lon="1.624482" lat="46.667267"><ele>130.0</ele></trkpt>
<trkpt lon="1.626445" lat="46.666236"><ele>124.0</ele></trkpt>
<trkpt lon="1.627019" lat="46.665938"><ele>126.0</ele></trkpt>
<trkpt lon="1.627299" lat="46.665778"><ele>125.75</ele></trkpt>
<trkpt lon="1.627487" lat="46.665717"><ele>126.25</ele></trkpt>
<trkpt lon="1.627597" lat="46.665693"><ele>126.5</ele></trkpt>
<trkpt lon="1.627595" lat="46.665661"><ele>126.75</ele></trkpt>
<trkpt lon="1.627615" lat="46.665631"><ele>126.75</ele></trkpt>
<trkpt lon="1.627682" lat="46.665585"><ele>126.75</ele></trkpt>
<trkpt lon="1.629571" lat="46.664594"><ele>129.5</ele></trkpt>
<trkpt lon="1.631651" lat="46.663516"><ele>134.25</ele></trkpt>
<trkpt lon="1.629951" lat="46.659846"><ele>139.0</ele></trkpt>
<trkpt lon="1.631103" lat="46.659718"><ele>139.0</ele></trkpt>
<trkpt lon="1.632573" lat="46.659539"><ele>138.5</ele></trkpt>
<trkpt lon="1.633880" lat="46.659349"><ele>140.75</ele></trkpt>
<trkpt lon="1.634364" lat="46.658949"><ele>141.5</ele></trkpt>
<trkpt lon="1.634974" lat="46.658512"><ele>142.25</ele></trkpt>
<trkpt lon="1.635473" lat="46.657780"><ele>144.0</ele></trkpt>
<trkpt lon="1.635677" lat="46.657393"><ele>146.0</ele></trkpt>
<trkpt lon="1.635980" lat="46.657027"><ele>146.5</ele></trkpt>
<trkpt lon="1.636634" lat="46.656467"><ele>146.75</ele></trkpt>
<trkpt lon="1.637027" lat="46.656039"><ele>147.75</ele></trkpt>
<trkpt lon="1.637842" lat="46.655113"><ele>149.25</ele></trkpt>
<trkpt lon="1.638225" lat="46.652271"><ele>150.5</ele></trkpt>
<trkpt lon="1.636845" lat="46.652013"><ele>150.75</ele></trkpt>
<trkpt lon="1.635554" lat="46.651382"><ele>149.75</ele></trkpt>
<trkpt lon="1.634513" lat="46.650561"><ele>148.75</ele></trkpt>
<trkpt lon="1.634162" lat="46.650243"><ele>149.0</ele></trkpt>
<trkpt lon="1.633829" lat="46.649924"><ele>149.0</ele></trkpt>
<trkpt lon="1.632857" lat="46.648662"><ele>149.0</ele></trkpt>
<trkpt lon="1.632885" lat="46.648245"><ele>148.5</ele></trkpt>
<trkpt lon="1.633022" lat="46.647706"><ele>148.75</ele></trkpt>
<trkpt lon="1.632642" lat="46.647479"><ele>148.0</ele></trkpt>
<trkpt lon="1.632300" lat="46.647583"><ele>147.0</ele></trkpt>
<trkpt lon="1.630466" lat="46.648310"><ele>149.75</ele></trkpt>
<trkpt lon="1.628997" lat="46.648504"><ele>150.0</ele></trkpt>
<trkpt lon="1.627468" lat="46.648947"><ele>148.0</ele></trkpt>
<trkpt lon="1.626555" lat="46.649018"><ele>148.0</ele></trkpt>
<trkpt lon="1.625948" lat="46.649051"><ele>148.0</ele></trkpt>
<trkpt lon="1.625246" lat="46.648957"><ele>146.75</ele></trkpt>
<trkpt lon="1.624632" lat="46.649009"><ele>145.25</ele></trkpt>
<trkpt lon="1.623556" lat="46.649349"><ele>143.75</ele></trkpt>
<trkpt lon="1.622492" lat="46.649605"><ele>141.0</ele></trkpt>
<trkpt lon="1.622416" lat="46.649500"><ele>141.0</ele></trkpt>
<trkpt lon="1.621786" lat="46.649563"><ele>140.25</ele></trkpt>
<trkpt lon="1.620725" lat="46.649769"><ele>142.25</ele></trkpt>
<trkpt lon="1.619988" lat="46.649935"><ele>142.0</ele></trkpt>
<trkpt lon="1.619301" lat="46.650090"><ele>141.5</ele></trkpt>
<trkpt lon="1.618629" lat="46.649756"><ele>143.0</ele></trkpt>
<trkpt lon="1.618177" lat="46.649582"><ele>139.25</ele></trkpt>
<trkpt lon="1.617448" lat="46.649391"><ele>132.75</ele></trkpt>
<trkpt lon="1.616702" lat="46.649066"><ele>127.75</ele></trkpt>
<trkpt lon="1.615982" lat="46.648898"><ele>130.0</ele></trkpt>
<trkpt lon="1.615213" lat="46.648575"><ele>128.25</ele></trkpt>
<trkpt lon="1.615060" lat="46.648450"><ele>126.75</ele></trkpt>
<trkpt lon="1.615020" lat="46.648416"><ele>126.5</ele></trkpt>
<trkpt lon="1.614986" lat="46.648385"><ele>126.25</ele></trkpt>
<trkpt lon="1.614862" lat="46.648275"><ele>126.0</ele></trkpt>
<trkpt lon="1.614732" lat="46.648142"><ele>126.5</ele></trkpt>
<trkpt lon="1.614378" lat="46.648043"><ele>128.5</ele></trkpt>
<trkpt lon="1.614085" lat="46.648018"><ele>130.75</ele></trkpt>
<trkpt lon="1.613608" lat="46.647940"><ele>134.25</ele></trkpt>
<trkpt lon="1.612828" lat="46.647892"><ele>138.5</ele></trkpt>
<trkpt lon="1.612390" lat="46.647658"><ele>140.75</ele></trkpt>
<trkpt lon="1.612004" lat="46.647325"><ele>143.5</ele></trkpt>
<trkpt lon="1.611670" lat="46.646938"><ele>145.0</ele></trkpt>
<trkpt lon="1.611353" lat="46.646421"><ele>146.75</ele></trkpt>
<trkpt lon="1.611217" lat="46.646251"><ele>147.0</ele></trkpt>
<trkpt lon="1.610897" lat="46.646008"><ele>147.75</ele></trkpt>
<trkpt lon="1.610645" lat="46.645890"><ele>147.75</ele></trkpt>
<trkpt lon="1.610341" lat="46.645641"><ele>148.25</ele></trkpt>
<trkpt lon="1.609969" lat="46.645249"><ele>149.75</ele></trkpt>
<trkpt lon="1.609677" lat="46.644982"><ele>150.0</ele></trkpt>
<trkpt lon="1.608680" lat="46.644333"><ele>150.5</ele></trkpt>
<trkpt lon="1.608415" lat="46.644142"><ele>151.0</ele></trkpt>
<trkpt lon="1.608120" lat="46.643870"><ele>151.25</ele></trkpt>
<trkpt lon="1.607857" lat="46.643573"><ele>152.0</ele></trkpt>
<trkpt lon="1.607615" lat="46.643330"><ele>152.0</ele></trkpt>
<trkpt lon="1.607064" lat="46.643030"><ele>151.25</ele></trkpt>
<trkpt lon="1.606710" lat="46.642795"><ele>150.0</ele></trkpt>
<trkpt lon="1.605788" lat="46.642487"><ele>147.75</ele></trkpt>
<trkpt lon="1.605477" lat="46.642448"><ele>147.25</ele></trkpt>
<trkpt lon="1.605126" lat="46.642484"><ele>146.25</ele></trkpt>
<trkpt lon="1.604814" lat="46.642601"><ele>145.25</ele></trkpt>
<trkpt lon="1.604595" lat="46.642665"><ele>144.5</ele></trkpt>
<trkpt lon="1.603805" lat="46.642669"><ele>141.0</ele></trkpt>
<trkpt lon="1.603119" lat="46.642544"><ele>138.25</ele></trkpt>
<trkpt lon="1.602624" lat="46.642430"><ele>134.0</ele></trkpt>
<trkpt lon="1.602281" lat="46.642216"><ele>129.25</ele></trkpt>
<trkpt lon="1.602131" lat="46.642022"><ele>126.0</ele></trkpt>
<trkpt lon="1.602055" lat="46.641950"><ele>124.75</ele></trkpt>
<trkpt lon="1.602036" lat="46.641857"><ele>123.75</ele></trkpt>
<trkpt lon="1.601936" lat="46.641862"><ele>123.25</ele></trkpt>
<trkpt lon="1.601846" lat="46.641841"><ele>123.0</ele></trkpt>
<trkpt lon="1.601422" lat="46.641487"><ele>121.0</ele></trkpt>
<trkpt lon="1.601194" lat="46.641331"><ele>121.0</ele></trkpt>
<trkpt lon="1.600918" lat="46.641215"><ele>120.5</ele></trkpt>
<trkpt lon="1.600312" lat="46.641002"><ele>122.0</ele></trkpt>
<trkpt lon="1.600202" lat="46.640936"><ele>122.5</ele></trkpt>
<trkpt lon="1.600115" lat="46.640820"><ele>122.75</ele></trkpt>
<trkpt lon="1.600057" lat="46.640627"><ele>123.25</ele></trkpt>
<trkpt lon="1.600052" lat="46.640419"><ele>124.0</ele></trkpt>
<trkpt lon="1.600088" lat="46.640051"><ele>126.5</ele></trkpt>
<trkpt lon="1.600081" lat="46.639788"><ele>127.25</ele></trkpt>
<trkpt lon="1.600042" lat="46.639577"><ele>127.75</ele></trkpt>
<trkpt lon="1.600009" lat="46.639499"><ele>127.75</ele></trkpt>
<trkpt lon="1.599757" lat="46.639005"><ele>130.0</ele></trkpt>
<trkpt lon="1.599459" lat="46.638648"><ele>130.5</ele></trkpt>
<trkpt lon="1.599106" lat="46.638326"><ele>130.25</ele></trkpt>
<trkpt lon="1.598650" lat="46.638009"><ele>131.25</ele></trkpt>
<trkpt lon="1.597834" lat="46.637533"><ele>130.25</ele></trkpt>
<trkpt lon="1.597489" lat="46.637354"><ele>130.0</ele></trkpt>
<trkpt lon="1.596487" lat="46.637012"><ele>133.5</ele></trkpt>
<trkpt lon="1.596006" lat="46.636917"><ele>132.75</ele></trkpt>
<trkpt lon="1.595395" lat="46.636841"><ele>129.5</ele></trkpt>
<trkpt lon="1.595119" lat="46.636775"><ele>128.5</ele></trkpt>
<trkpt lon="1.595005" lat="46.636719"><ele>128.75</ele></trkpt>
<trkpt lon="1.594787" lat="46.636506"><ele>130.75</ele></trkpt>
<trkpt lon="1.594648" lat="46.636404"><ele>132.0</ele></trkpt>
<trkpt lon="1.594427" lat="46.636376"><ele>133.25</ele></trkpt>
<trkpt lon="1.594253" lat="46.636405"><ele>134.75</ele></trkpt>
<trkpt lon="1.594168" lat="46.636447"><ele>135.0</ele></trkpt>
<trkpt lon="1.594080" lat="46.636494"><ele>135.0</ele></trkpt>
<trkpt lon="1.593932" lat="46.636716"><ele>132.75</ele></trkpt>
<trkpt lon="1.593793" lat="46.636858"><ele>131.25</ele></trkpt>
<trkpt lon="1.593315" lat="46.637065"><ele>131.0</ele></trkpt>
<trkpt lon="1.593126" lat="46.637129"><ele>131.0</ele></trkpt>
<trkpt lon="1.592502" lat="46.637222"><ele>132.0</ele></trkpt>
<trkpt lon="1.592241" lat="46.637262"><ele>131.5</ele></trkpt>
<trkpt lon="1.591531" lat="46.637301"><ele>130.0</ele></trkpt>
<trkpt lon="1.590300" lat="46.637041"><ele>126.5</ele></trkpt>
<trkpt lon="1.590252" lat="46.637029"><ele>126.5</ele></trkpt>
<trkpt lon="1.589967" lat="46.636905"><ele>125.75</ele></trkpt>
<trkpt lon="1.585468" lat="46.633920"><ele>119.75</ele></trkpt>
<trkpt lon="1.585087" lat="46.633759"><ele>121.5</ele></trkpt>
<trkpt lon="1.583981" lat="46.633443"><ele>127.75</ele></trkpt>
<trkpt lon="1.583694" lat="46.633412"><ele>129.75</ele></trkpt>
<trkpt lon="1.583448" lat="46.633468"><ele>129.25</ele></trkpt>
<trkpt lon="1.583214" lat="46.633565"><ele>128.75</ele></trkpt>
<trkpt lon="1.582937" lat="46.633633"><ele>128.75</ele></trkpt>
<trkpt lon="1.582737" lat="46.633586"><ele>130.5</ele></trkpt>
<trkpt lon="1.582590" lat="46.633478"><ele>132.5</ele></trkpt>
<trkpt lon="1.582343" lat="46.633155"><ele>135.5</ele></trkpt>
<trkpt lon="1.581860" lat="46.632938"><ele>135.25</ele></trkpt>
<trkpt lon="1.580977" lat="46.632542"><ele>134.75</ele></trkpt>
<trkpt lon="1.579714" lat="46.631853"><ele>130.25</ele></trkpt>
<trkpt lon="1.579620" lat="46.631743"><ele>129.5</ele></trkpt>
<trkpt lon="1.579651" lat="46.630997"><ele>131.0</ele></trkpt>
<trkpt lon="1.579676" lat="46.630835"><ele>132.25</ele></trkpt>
<trkpt lon="1.579710" lat="46.630689"><ele>133.25</ele></trkpt>
<trkpt lon="1.579814" lat="46.630384"><ele>135.25</ele></trkpt>
<trkpt lon="1.579908" lat="46.630114"><ele>137.0</ele></trkpt>
<trkpt lon="1.579953" lat="46.629953"><ele>138.5</ele></trkpt>
<trkpt lon="1.579970" lat="46.629833"><ele>140.25</ele></trkpt>
<trkpt lon="1.579956" lat="46.629721"><ele>141.25</ele></trkpt>
<trkpt lon="1.579927" lat="46.629593"><ele>142.75</ele></trkpt>
<trkpt lon="1.579888" lat="46.629492"><ele>144.0</ele></trkpt>
<trkpt lon="1.579813" lat="46.629390"><ele>144.75</ele></trkpt>
<trkpt lon="1.579620" lat="46.629201"><ele>146.0</ele></trkpt>
<trkpt lon="1.578931" lat="46.628735"><ele>146.25</ele></trkpt>
<trkpt lon="1.578412" lat="46.628361"><ele>146.75</ele></trkpt>
<trkpt lon="1.578141" lat="46.628190"><ele>145.5</ele></trkpt>
<trkpt lon="1.578012" lat="46.628123"><ele>145.5</ele></trkpt>
<trkpt lon="1.577824" lat="46.628047"><ele>146.0</ele></trkpt>
<trkpt lon="1.577606" lat="46.627979"><ele>146.5</ele></trkpt>
<trkpt lon="1.577269" lat="46.627911"><ele>147.75</ele></trkpt>
<trkpt lon="1.576590" lat="46.627824"><ele>150.5</ele></trkpt>
<trkpt lon="1.576157" lat="46.627805"><ele>151.0</ele></trkpt>
<trkpt lon="1.575926" lat="46.627764"><ele>152.0</ele></trkpt>
<trkpt lon="1.575630" lat="46.627655"><ele>153.25</ele></trkpt>
<trkpt lon="1.575326" lat="46.627486"><ele>154.0</ele></trkpt>
<trkpt lon="1.575024" lat="46.627449"><ele>153.25</ele></trkpt>
<trkpt lon="1.574047" lat="46.627426"><ele>152.0</ele></trkpt>
<trkpt lon="1.573855" lat="46.627413"><ele>151.5</ele></trkpt>
<trkpt lon="1.573450" lat="46.627363"><ele>151.0</ele></trkpt>
<trkpt lon="1.573316" lat="46.627352"><ele>151.0</ele></trkpt>
<trkpt lon="1.572855" lat="46.627336"><ele>149.75</ele></trkpt>
<trkpt lon="1.572439" lat="46.627310"><ele>147.75</ele></trkpt>
<trkpt lon="1.572369" lat="46.627301"><ele>147.5</ele></trkpt>
<trkpt lon="1.572065" lat="46.627252"><ele>145.75</ele></trkpt>
<trkpt lon="1.572002" lat="46.627232"><ele>145.25</ele></trkpt>
<trkpt lon="1.571953" lat="46.627207"><ele>145.0</ele></trkpt>
<trkpt lon="1.571930" lat="46.627194"><ele>145.0</ele></trkpt>
<trkpt lon="1.572003" lat="46.627148"><ele>145.5</ele></trkpt>
<trkpt lon="1.571906" lat="46.627049"><ele>145.5</ele></trkpt>
<trkpt lon="1.571775" lat="46.626943"><ele>146.0</ele></trkpt>
<trkpt lon="1.571626" lat="46.626842"><ele>146.5</ele></trkpt>
<trkpt lon="1.571547" lat="46.626806"><ele>146.75</ele></trkpt>
<trkpt lon="1.571120" lat="46.626696"><ele>146.75</ele></trkpt>
<trkpt lon="1.570643" lat="46.626652"><ele>143.0</ele></trkpt>
<trkpt lon="1.569827" lat="46.626490"><ele>142.75</ele></trkpt>
<trkpt lon="1.568738" lat="46.626224"><ele>147.75</ele></trkpt>
<trkpt lon="1.568416" lat="46.626140"><ele>148.5</ele></trkpt>
<trkpt lon="1.568261" lat="46.626044"><ele>149.25</ele></trkpt>
<trkpt lon="1.567998" lat="46.625753"><ele>151.5</ele></trkpt>
<trkpt lon="1.567826" lat="46.625650"><ele>152.25</ele></trkpt>
<trkpt lon="1.566989" lat="46.625370"><ele>148.25</ele></trkpt>
<trkpt lon="1.566635" lat="46.625244"><ele>148.25</ele></trkpt>
<trkpt lon="1.566525" lat="46.625220"><ele>148.5</ele></trkpt>
<trkpt lon="1.566346" lat="46.625160"><ele>149.25</ele></trkpt>
<trkpt lon="1.566040" lat="46.625167"><ele>150.25</ele></trkpt>
<trkpt lon="1.565882" lat="46.625152"><ele>151.0</ele></trkpt>
<trkpt lon="1.565616" lat="46.625149"><ele>151.75</ele></trkpt>
<trkpt lon="1.565278" lat="46.625101"><ele>153.25</ele></trkpt>
<trkpt lon="1.565021" lat="46.624920"><ele>155.0</ele></trkpt>
<trkpt lon="1.564854" lat="46.624736"><ele>155.75</ele></trkpt>
<trkpt lon="1.564538" lat="46.624600"><ele>157.0</ele></trkpt>
<trkpt lon="1.564136" lat="46.624338"><ele>158.0</ele></trkpt>
<trkpt lon="1.563744" lat="46.624095"><ele>159.0</ele></trkpt>
<trkpt lon="1.563320" lat="46.623925"><ele>159.0</ele></trkpt>
<trkpt lon="1.563186" lat="46.623907"><ele>159.0</ele></trkpt>
<trkpt lon="1.563195" lat="46.623732"><ele>159.0</ele></trkpt>
<trkpt lon="1.563429" lat="46.623197"><ele>159.25</ele></trkpt>
<trkpt lon="1.562863" lat="46.621560"><ele>162.75</ele></trkpt>
<trkpt lon="1.562704" lat="46.621136"><ele>164.75</ele></trkpt>
<trkpt lon="1.561577" lat="46.619446"><ele>165.25</ele></trkpt>
<trkpt lon="1.560858" lat="46.618777"><ele>159.0</ele></trkpt>
<trkpt lon="1.560107" lat="46.618264"><ele>153.75</ele></trkpt>
<trkpt lon="1.559763" lat="46.617813"><ele>149.5</ele></trkpt>
<trkpt lon="1.559650" lat="46.617457"><ele>147.0</ele></trkpt>
<trkpt lon="1.559532" lat="46.617313"><ele>143.25</ele></trkpt>
<trkpt lon="1.559181" lat="46.616600"><ele>136.5</ele></trkpt>
<trkpt lon="1.559206" lat="46.616443"><ele>135.75</ele></trkpt>
<trkpt lon="1.559619" lat="46.616124"><ele>132.75</ele></trkpt>
<trkpt lon="1.560042" lat="46.615698"><ele>137.0</ele></trkpt>
<trkpt lon="1.560306" lat="46.615355"><ele>140.25</ele></trkpt>
<trkpt lon="1.560537" lat="46.615224"><ele>141.0</ele></trkpt>
<trkpt lon="1.560595" lat="46.615173"><ele>141.0</ele></trkpt>
<trkpt lon="1.560613" lat="46.615100"><ele>141.25</ele></trkpt>
<trkpt lon="1.560557" lat="46.614975"><ele>142.0</ele></trkpt>
<trkpt lon="1.560565" lat="46.614945"><ele>142.0</ele></trkpt>
<trkpt lon="1.560680" lat="46.614823"><ele>141.75</ele></trkpt>
<trkpt lon="1.560688" lat="46.614766"><ele>141.75</ele></trkpt>
<trkpt lon="1.560667" lat="46.614724"><ele>142.0</ele></trkpt>
<trkpt lon="1.560558" lat="46.614629"><ele>142.5</ele></trkpt>
<trkpt lon="1.558687" lat="46.613660"><ele>151.5</ele></trkpt>
<trkpt lon="1.556592" lat="46.612397"><ele>160.25</ele></trkpt>
<trkpt lon="1.555486" lat="46.611186"><ele>166.5</ele></trkpt>
<trkpt lon="1.555291" lat="46.611062"><ele>167.0</ele></trkpt>
<trkpt lon="1.554557" lat="46.611053"><ele>167.0</ele></trkpt>
<trkpt lon="1.552576" lat="46.610903"><ele>167.0</ele></trkpt>
<trkpt lon="1.547556" lat="46.610387"><ele>167.25</ele></trkpt>
<trkpt lon="1.546218" lat="46.610143"><ele>167.75</ele></trkpt>
<trkpt lon="1.545688" lat="46.610001"><ele>168.5</ele></trkpt>
<trkpt lon="1.544494" lat="46.609762"><ele>169.0</ele></trkpt>
<trkpt lon="1.543184" lat="46.609435"><ele>169.75</ele></trkpt>
<trkpt lon="1.542379" lat="46.609302"><ele>170.5</ele></trkpt>
<trkpt lon="1.541017" lat="46.609214"><ele>172.0</ele></trkpt>
<trkpt lon="1.540354" lat="46.609090"><ele>172.0</ele></trkpt>
<trkpt lon="1.540457" lat="46.609018"><ele>172.0</ele></trkpt>
<trkpt lon="1.543573" lat="46.607981"><ele>166.5</ele></trkpt>
<trkpt lon="1.543632" lat="46.607922"><ele>166.25</ele></trkpt>
<trkpt lon="1.543618" lat="46.607836"><ele>166.0</ele></trkpt>
<trkpt lon="1.542217" lat="46.606671"><ele>165.0</ele></trkpt>
<trkpt lon="1.542135" lat="46.606544"><ele>164.75</ele></trkpt>
<trkpt lon="1.540579" lat="46.602983"><ele>164.75</ele></trkpt>
<trkpt lon="1.540123" lat="46.602674"><ele>165.5</ele></trkpt>
<trkpt lon="1.540123" lat="46.602410"><ele>166.0</ele></trkpt>
<trkpt lon="1.540090" lat="46.602191"><ele>165.75</ele></trkpt>
<trkpt lon="1.539865" lat="46.602011"><ele>165.5</ele></trkpt>
<trkpt lon="1.539376" lat="46.601831"><ele>166.0</ele></trkpt>
<trkpt lon="1.539048" lat="46.601670"><ele>166.25</ele></trkpt>
<trkpt lon="1.538705" lat="46.601384"><ele>165.75</ele></trkpt>
<trkpt lon="1.538419" lat="46.601131"><ele>165.0</ele></trkpt>
<trkpt lon="1.538201" lat="46.600943"><ele>164.25</ele></trkpt>
<trkpt lon="1.538039" lat="46.600767"><ele>163.25</ele></trkpt>
<trkpt lon="1.537645" lat="46.600267"><ele>157.25</ele></trkpt>
<trkpt lon="1.537548" lat="46.600122"><ele>156.75</ele></trkpt>
<trkpt lon="1.537441" lat="46.599937"><ele>156.0</ele></trkpt>
<trkpt lon="1.537379" lat="46.599719"><ele>154.5</ele></trkpt>
<trkpt lon="1.537320" lat="46.599585"><ele>153.75</ele></trkpt>
<trkpt lon="1.537183" lat="46.599430"><ele>152.5</ele></trkpt>
<trkpt lon="1.536862" lat="46.599203"><ele>149.25</ele></trkpt>
<trkpt lon="1.536559" lat="46.599071"><ele>144.5</ele></trkpt>
<trkpt lon="1.536435" lat="46.599039"><ele>142.25</ele></trkpt>
<trkpt lon="1.536247" lat="46.599048"><ele>139.5</ele></trkpt>
<trkpt lon="1.536042" lat="46.599109"><ele>137.5</ele></trkpt>
<trkpt lon="1.535620" lat="46.599169"><ele>133.5</ele></trkpt>
<trkpt lon="1.535486" lat="46.599148"><ele>132.5</ele></trkpt>
<trkpt lon="1.535072" lat="46.598934"><ele>131.5</ele></trkpt>
<trkpt lon="1.534996" lat="46.598897"><ele>131.75</ele></trkpt>
<trkpt lon="1.534918" lat="46.598869"><ele>132.5</ele></trkpt>
<trkpt lon="1.534752" lat="46.598809"><ele>134.0</ele></trkpt>
<trkpt lon="1.533954" lat="46.598314"><ele>137.75</ele></trkpt>
<trkpt lon="1.533188" lat="46.598038"><ele>141.0</ele></trkpt>
<trkpt lon="1.532964" lat="46.598034"><ele>141.0</ele></trkpt>
<trkpt lon="1.532475" lat="46.598023"><ele>142.0</ele></trkpt>
<trkpt lon="1.532344" lat="46.598000"><ele>142.0</ele></trkpt>
<trkpt lon="1.531512" lat="46.597817"><ele>139.5</ele></trkpt>
<trkpt lon="1.531086" lat="46.597723"><ele>137.75</ele></trkpt>
<trkpt lon="1.530207" lat="46.597503"><ele>133.25</ele></trkpt>
<trkpt lon="1.530011" lat="46.597480"><ele>132.0</ele></trkpt>
<trkpt lon="1.529890" lat="46.597422"><ele>131.25</ele></trkpt>
<trkpt lon="1.529487" lat="46.597047"><ele>128.75</ele></trkpt>
<trkpt lon="1.529207" lat="46.596789"><ele>128.75</ele></trkpt>
<trkpt lon="1.528906" lat="46.596479"><ele>131.0</ele></trkpt>
<trkpt lon="1.528884" lat="46.596314"><ele>132.5</ele></trkpt>
<trkpt lon="1.528407" lat="46.595878"><ele>134.75</ele></trkpt>
<trkpt lon="1.527458" lat="46.595342"><ele>137.5</ele></trkpt>
<trkpt lon="1.527402" lat="46.595310"><ele>137.75</ele></trkpt>
<trkpt lon="1.527559" lat="46.595164"><ele>138.75</ele></trkpt>
<trkpt lon="1.527686" lat="46.595045"><ele>139.75</ele></trkpt>
<trkpt lon="1.527632" lat="46.595017"><ele>139.75</ele></trkpt>
<trkpt lon="1.527247" lat="46.594779"><ele>140.75</ele></trkpt>
<trkpt lon="1.526793" lat="46.594443"><ele>141.25</ele></trkpt>
<trkpt lon="1.526677" lat="46.594385"><ele>141.25</ele></trkpt>
<trkpt lon="1.526558" lat="46.594325"><ele>141.75</ele></trkpt>
<trkpt lon="1.526584" lat="46.594292"><ele>142.0</ele></trkpt>
<trkpt lon="1.526833" lat="46.593987"><ele>144.25</ele></trkpt>
<trkpt lon="1.526858" lat="46.593950"><ele>144.5</ele></trkpt>
<trkpt lon="1.527317" lat="46.593416"><ele>148.5</ele></trkpt>
<trkpt lon="1.527279" lat="46.593403"><ele>148.5</ele></trkpt>
<trkpt lon="1.527598" lat="46.593078"><ele>149.75</ele></trkpt>
<trkpt lon="1.527605" lat="46.593010"><ele>150.0</ele></trkpt>
<trkpt lon="1.527621" lat="46.592958"><ele>150.25</ele></trkpt>
<trkpt lon="1.527714" lat="46.592807"><ele>150.75</ele></trkpt>
<trkpt lon="1.527760" lat="46.592730"><ele>151.0</ele></trkpt>
<trkpt lon="1.528033" lat="46.592274"><ele>151.0</ele></trkpt>
<trkpt lon="1.528064" lat="46.592251"><ele>151.0</ele></trkpt>
<trkpt lon="1.528026" lat="46.592133"><ele>151.0</ele></trkpt>
<trkpt lon="1.528027" lat="46.592110"><ele>151.0</ele></trkpt>
<trkpt lon="1.528053" lat="46.592070"><ele>151.0</ele></trkpt>
<trkpt lon="1.528219" lat="46.592005"><ele>151.0</ele></trkpt>
<trkpt lon="1.528219" lat="46.591787"><ele>151.5</ele></trkpt>
<trkpt lon="1.527151" lat="46.591585"><ele>151.0</ele></trkpt>
<trkpt lon="1.527041" lat="46.591559"><ele>151.0</ele></trkpt>
<trkpt lon="1.526967" lat="46.591540"><ele>151.0</ele></trkpt>
<trkpt lon="1.526924" lat="46.591529"><ele>151.0</ele></trkpt>
<trkpt lon="1.526581" lat="46.591432"><ele>150.5</ele></trkpt>
<trkpt lon="1.526502" lat="46.591407"><ele>150.25</ele></trkpt>
<trkpt lon="1.525988" lat="46.591189"><ele>144.0</ele></trkpt>
<trkpt lon="1.525531" lat="46.590974"><ele>140.25</ele></trkpt>
<trkpt lon="1.525303" lat="46.590859"><ele>140.75</ele></trkpt>
<trkpt lon="1.525001" lat="46.590691"><ele>141.0</ele></trkpt>
<trkpt lon="1.524942" lat="46.590641"><ele>140.5</ele></trkpt>
<trkpt lon="1.524913" lat="46.590615"><ele>140.25</ele></trkpt>
<trkpt lon="1.524859" lat="46.590641"><ele>140.0</ele></trkpt>
<trkpt lon="1.524831" lat="46.590620"><ele>139.75</ele></trkpt>
<trkpt lon="1.523541" lat="46.589768"><ele>133.0</ele></trkpt>
<trkpt lon="1.524032" lat="46.589398"><ele>133.0</ele></trkpt>
<trkpt lon="1.524146" lat="46.589338"><ele>133.0</ele></trkpt>
<trkpt lon="1.524271" lat="46.589298"><ele>133.0</ele></trkpt>
<trkpt lon="1.524391" lat="46.589286"><ele>133.25</ele></trkpt>
<trkpt lon="1.524206" lat="46.588843"><ele>131.75</ele></trkpt>
<trkpt lon="1.524431" lat="46.588799"><ele>132.25</ele></trkpt>
<trkpt lon="1.524296" lat="46.588492"><ele>127.5</ele></trkpt>
<trkpt lon="1.524035" lat="46.588085"><ele>112.25</ele></trkpt>
<trkpt lon="1.523928" lat="46.587907"><ele>110.0</ele></trkpt>
<trkpt lon="1.523784" lat="46.587690"><ele>108.25</ele></trkpt>
<trkpt lon="1.523641" lat="46.587483"><ele>107.0</ele></trkpt>
<trkpt lon="1.523462" lat="46.587417"><ele>108.5</ele></trkpt>
<trkpt lon="1.523345" lat="46.587379"><ele>110.0</ele></trkpt>
<trkpt lon="1.523213" lat="46.587335"><ele>109.0</ele></trkpt>
<trkpt lon="1.523142" lat="46.587324"><ele>108.25</ele></trkpt>
<trkpt lon="1.523096" lat="46.587321"><ele>107.5</ele></trkpt>
<trkpt lon="1.521977" lat="46.587492"><ele>107.0</ele></trkpt>
<trkpt lon="1.521522" lat="46.587570"><ele>107.0</ele></trkpt>
<trkpt lon="1.521419" lat="46.587574"><ele>107.0</ele></trkpt>
<trkpt lon="1.521331" lat="46.587567"><ele>107.0</ele></trkpt>
<trkpt lon="1.521155" lat="46.587542"><ele>106.75</ele></trkpt>
<trkpt lon="1.521060" lat="46.587522"><ele>107.0</ele></trkpt>
<trkpt lon="1.520896" lat="46.587467"><ele>107.0</ele></trkpt>
<trkpt lon="1.520868" lat="46.587453"><ele>107.0</ele></trkpt>
<trkpt lon="1.520838" lat="46.587439"><ele>107.0</ele></trkpt>
<trkpt lon="1.520645" lat="46.587551"><ele>107.0</ele></trkpt>
<trkpt lon="1.520562" lat="46.587608"><ele>107.0</ele></trkpt>
<trkpt lon="1.520294" lat="46.587804"><ele>107.0</ele></trkpt>
<trkpt lon="1.520238" lat="46.587855"><ele>106.75</ele></trkpt>
<trkpt lon="1.519959" lat="46.588143"><ele>106.0</ele></trkpt>
  </trkseg></trk></gpx>
