<?xml version="1.0" encoding="UTF-8"?>
<gpx version="1.1" creator="compostel-brouter" xmlns="http://www.topografix.com/GPX/1/1">
  <metadata><name>FR-29-Perigueux</name></metadata>
  <trk><name>FR-29-Perigueux</name><trkseg>
<trkpt lon="0.920342" lat="45.415774"><ele>273.25</ele></trkpt>
<trkpt lon="0.920284" lat="45.415715"><ele>273.5</ele></trkpt>
<trkpt lon="0.920256" lat="45.415699"><ele>273.5</ele></trkpt>
<trkpt lon="0.920221" lat="45.415694"><ele>273.75</ele></trkpt>
<trkpt lon="0.920168" lat="45.415696"><ele>274.0</ele></trkpt>
<trkpt lon="0.920096" lat="45.415711"><ele>274.5</ele></trkpt>
<trkpt lon="0.920062" lat="45.415725"><ele>274.5</ele></trkpt>
<trkpt lon="0.920022" lat="45.415682"><ele>274.75</ele></trkpt>
<trkpt lon="0.919942" lat="45.415537"><ele>275.0</ele></trkpt>
<trkpt lon="0.919861" lat="45.415402"><ele>275.5</ele></trkpt>
<trkpt lon="0.919872" lat="45.415163"><ele>275.25</ele></trkpt>
<trkpt lon="0.919954" lat="45.415157"><ele>275.0</ele></trkpt>
<trkpt lon="0.920094" lat="45.415136"><ele>274.25</ele></trkpt>
<trkpt lon="0.920240" lat="45.415082"><ele>272.75</ele></trkpt>
<trkpt lon="0.920370" lat="45.415023"><ele>271.75</ele></trkpt>
<trkpt lon="0.920478" lat="45.414961"><ele>271.25</ele></trkpt>
<trkpt lon="0.920621" lat="45.414869"><ele>270.75</ele></trkpt>
<trkpt lon="0.920677" lat="45.414824"><ele>270.5</ele></trkpt>
<trkpt lon="0.920668" lat="45.414813"><ele>270.5</ele></trkpt>
<trkpt lon="0.920670" lat="45.414754"><ele>270.75</ele></trkpt>
<trkpt lon="0.920690" lat="45.414643"><ele>271.0</ele></trkpt>
<trkpt lon="0.920808" lat="45.414493"><ele>271.0</ele></trkpt>
<trkpt lon="0.920815" lat="45.414482"><ele>271.0</ele></trkpt>
<trkpt lon="0.920908" lat="45.414343"><ele>270.5</ele></trkpt>
<trkpt lon="0.920939" lat="45.414305"><ele>270.25</ele></trkpt>
<trkpt lon="0.920996" lat="45.414226"><ele>270.0</ele></trkpt>
<trkpt lon="0.921040" lat="45.414163"><ele>269.75</ele></trkpt>
<trkpt lon="0.921119" lat="45.414049"><ele>269.5</ele></trkpt>
<trkpt lon="0.921134" lat="45.414029"><ele>269.5</ele></trkpt>
<trkpt lon="0.921194" lat="45.413943"><ele>269.0</ele></trkpt>
<trkpt lon="0.921304" lat="45.413791"><ele>268.5</ele></trkpt>
<trkpt lon="0.921430" lat="45.413602"><ele>268.0</ele></trkpt>
<trkpt lon="0.921546" lat="45.413444"><ele>267.75</ele></trkpt>
<trkpt lon="0.921560" lat="45.413425"><ele>267.75</ele></trkpt>
<trkpt lon="0.921652" lat="45.413301"><ele>267.75</ele></trkpt>
<trkpt lon="0.921675" lat="45.413271"><ele>267.75</ele></trkpt>
<trkpt lon="0.921773" lat="45.413127"><ele>267.5</ele></trkpt>
<trkpt lon="0.921966" lat="45.412850"><ele>268.0</ele></trkpt>
<trkpt lon="0.922032" lat="45.412732"><ele>268.25</ele></trkpt>
<trkpt lon="0.922114" lat="45.412523"><ele>268.75</ele></trkpt>
<trkpt lon="0.922322" lat="45.412054"><ele>268.5</ele></trkpt>
<trkpt lon="0.922344" lat="45.411993"><ele>268.5</ele></trkpt>
<trkpt lon="0.922421" lat="45.411790"><ele>268.5</ele></trkpt>
<trkpt lon="0.922452" lat="45.411606"><ele>268.5</ele></trkpt>
<trkpt lon="0.922482" lat="45.411560"><ele>268.75</ele></trkpt>
<trkpt lon="0.922563" lat="45.411475"><ele>268.75</ele></trkpt>
<trkpt lon="0.922607" lat="45.411451"><ele>268.75</ele></trkpt>
<trkpt lon="0.922631" lat="45.411420"><ele>268.75</ele></trkpt>
<trkpt lon="0.922636" lat="45.411367"><ele>269.0</ele></trkpt>
<trkpt lon="0.922649" lat="45.411318"><ele>269.0</ele></trkpt>
<trkpt lon="0.922677" lat="45.411248"><ele>269.0</ele></trkpt>
<trkpt lon="0.923085" lat="45.410307"><ele>270.75</ele></trkpt>
<trkpt lon="0.923096" lat="45.410285"><ele>270.75</ele></trkpt>
<trkpt lon="0.923165" lat="45.410143"><ele>270.75</ele></trkpt>
<trkpt lon="0.923197" lat="45.410087"><ele>270.75</ele></trkpt>
<trkpt lon="0.923243" lat="45.409989"><ele>271.0</ele></trkpt>
<trkpt lon="0.923283" lat="45.409906"><ele>271.25</ele></trkpt>
<trkpt lon="0.923343" lat="45.409861"><ele>271.5</ele></trkpt>
<trkpt lon="0.923375" lat="45.409834"><ele>271.5</ele></trkpt>
<trkpt lon="0.923563" lat="45.409667"><ele>272.0</ele></trkpt>
<trkpt lon="0.923668" lat="45.409571"><ele>272.5</ele></trkpt>
<trkpt lon="0.923811" lat="45.409462"><ele>273.5</ele></trkpt>
<trkpt lon="0.923890" lat="45.409416"><ele>273.75</ele></trkpt>
<trkpt lon="0.924696" lat="45.409034"><ele>271.5</ele></trkpt>
<trkpt lon="0.924870" lat="45.408960"><ele>271.25</ele></trkpt>
<trkpt lon="0.924967" lat="45.408924"><ele>271.0</ele></trkpt>
<trkpt lon="0.925143" lat="45.408875"><ele>270.0</ele></trkpt>
<trkpt lon="0.925563" lat="45.408839"><ele>267.25</ele></trkpt>
<trkpt lon="0.925922" lat="45.408799"><ele>265.75</ele></trkpt>
<trkpt lon="0.926294" lat="45.408697"><ele>263.75</ele></trkpt>
<trkpt lon="0.926291" lat="45.408648"><ele>263.75</ele></trkpt>
<trkpt lon="0.926304" lat="45.408536"><ele>263.0</ele></trkpt>
<trkpt lon="0.926355" lat="45.408382"><ele>261.75</ele></trkpt>
<trkpt lon="0.926424" lat="45.408285"><ele>260.5</ele></trkpt>
<trkpt lon="0.926589" lat="45.408174"><ele>259.0</ele></trkpt>
<trkpt lon="0.927016" lat="45.407947"><ele>256.5</ele></trkpt>
<trkpt lon="0.927406" lat="45.407700"><ele>254.75</ele></trkpt>
<trkpt lon="0.927878" lat="45.407204"><ele>252.25</ele></trkpt>
<trkpt lon="0.927650" lat="45.406233"><ele>235.5</ele></trkpt>
<trkpt lon="0.927775" lat="45.405515"><ele>232.25</ele></trkpt>
<trkpt lon="0.927946" lat="45.405065"><ele>231.0</ele></trkpt>
<trkpt lon="0.928088" lat="45.404142"><ele>229.75</ele></trkpt>
<trkpt lon="0.927987" lat="45.403711"><ele>231.5</ele></trkpt>
<trkpt lon="0.927793" lat="45.403236"><ele>232.25</ele></trkpt>
<trkpt lon="0.927166" lat="45.402507"><ele>225.75</ele></trkpt>
<trkpt lon="0.927060" lat="45.401869"><ele>227.75</ele></trkpt>
<trkpt lon="0.926728" lat="45.401465"><ele>233.0</ele></trkpt>
<trkpt lon="0.926867" lat="45.401241"><ele>236.5</ele></trkpt>
<trkpt lon="0.926966" lat="45.400776"><ele>240.0</ele></trkpt>
<trkpt lon="0.926839" lat="45.400756"><ele>239.5</ele></trkpt>
<trkpt lon="0.926297" lat="45.400514"><ele>237.25</ele></trkpt>
<trkpt lon="0.926179" lat="45.400452"><ele>236.25</ele></trkpt>
<trkpt lon="0.926061" lat="45.400357"><ele>235.25</ele></trkpt>
<trkpt lon="0.925920" lat="45.400180"><ele>234.5</ele></trkpt>
<trkpt lon="0.925826" lat="45.400045"><ele>234.0</ele></trkpt>
<trkpt lon="0.925741" lat="45.399924"><ele>234.0</ele></trkpt>
<trkpt lon="0.925694" lat="45.399835"><ele>234.0</ele></trkpt>
<trkpt lon="0.925455" lat="45.399097"><ele>232.5</ele></trkpt>
<trkpt lon="0.925420" lat="45.398932"><ele>232.0</ele></trkpt>
<trkpt lon="0.925441" lat="45.398837"><ele>231.75</ele></trkpt>
<trkpt lon="0.925324" lat="45.398811"><ele>231.75</ele></trkpt>
<trkpt lon="0.925020" lat="45.398698"><ele>231.5</ele></trkpt>
<trkpt lon="0.924835" lat="45.398598"><ele>231.25</ele></trkpt>
<trkpt lon="0.924760" lat="45.398540"><ele>231.0</ele></trkpt>
<trkpt lon="0.924551" lat="45.398378"><ele>230.75</ele></trkpt>
<trkpt lon="0.924104" lat="45.398012"><ele>229.25</ele></trkpt>
<trkpt lon="0.923732" lat="45.397706"><ele>225.5</ele></trkpt>
<trkpt lon="0.923490" lat="45.397492"><ele>224.5</ele></trkpt>
<trkpt lon="0.923401" lat="45.397379"><ele>225.0</ele></trkpt>
<trkpt lon="0.923357" lat="45.397258"><ele>224.75</ele></trkpt>
<trkpt lon="0.923327" lat="45.396914"><ele>223.75</ele></trkpt>
<trkpt lon="0.923255" lat="45.396633"><ele>222.5</ele></trkpt>
<trkpt lon="0.923041" lat="45.396032"><ele>217.5</ele></trkpt>
<trkpt lon="0.923020" lat="45.395913"><ele>216.75</ele></trkpt>
<trkpt lon="0.923026" lat="45.395801"><ele>216.25</ele></trkpt>
<trkpt lon="0.923065" lat="45.395666"><ele>216.25</ele></trkpt>
<trkpt lon="0.923439" lat="45.394973"><ele>219.25</ele></trkpt>
<trkpt lon="0.923494" lat="45.394849"><ele>219.25</ele></trkpt>
<trkpt lon="0.923534" lat="45.394710"><ele>219.25</ele></trkpt>
<trkpt lon="0.923478" lat="45.394561"><ele>218.75</ele></trkpt>
<trkpt lon="0.923411" lat="45.394426"><ele>217.75</ele></trkpt>
<trkpt lon="0.923271" lat="45.394288"><ele>216.25</ele></trkpt>
<trkpt lon="0.922457" lat="45.393726"><ele>210.25</ele></trkpt>
<trkpt lon="0.922228" lat="45.393584"><ele>209.25</ele></trkpt>
<trkpt lon="0.922015" lat="45.393479"><ele>208.25</ele></trkpt>
<trkpt lon="0.921462" lat="45.393248"><ele>206.25</ele></trkpt>
<trkpt lon="0.921140" lat="45.393137"><ele>205.75</ele></trkpt>
<trkpt lon="0.920956" lat="45.393102"><ele>205.0</ele></trkpt>
<trkpt lon="0.920759" lat="45.393089"><ele>204.5</ele></trkpt>
<trkpt lon="0.920611" lat="45.393068"><ele>204.0</ele></trkpt>
<trkpt lon="0.920480" lat="45.393017"><ele>203.5</ele></trkpt>
<trkpt lon="0.920056" lat="45.392659"><ele>199.25</ele></trkpt>
<trkpt lon="0.919598" lat="45.392504"><ele>197.5</ele></trkpt>
<trkpt lon="0.919453" lat="45.392409"><ele>196.25</ele></trkpt>
<trkpt lon="0.919369" lat="45.392315"><ele>195.5</ele></trkpt>
<trkpt lon="0.919257" lat="45.392215"><ele>194.75</ele></trkpt>
<trkpt lon="0.918979" lat="45.392028"><ele>192.0</ele></trkpt>
<trkpt lon="0.918931" lat="45.391948"><ele>191.0</ele></trkpt>
<trkpt lon="0.918946" lat="45.391862"><ele>189.25</ele></trkpt>
<trkpt lon="0.919030" lat="45.391750"><ele>186.5</ele></trkpt>
<trkpt lon="0.918869" lat="45.391685"><ele>185.25</ele></trkpt>
<trkpt lon="0.918766" lat="45.391683"><ele>184.25</ele></trkpt>
<trkpt lon="0.918237" lat="45.391864"><ele>181.25</ele></trkpt>
<trkpt lon="0.918075" lat="45.391868"><ele>179.0</ele></trkpt>
<trkpt lon="0.917947" lat="45.391829"><ele>177.75</ele></trkpt>
<trkpt lon="0.917783" lat="45.391673"><ele>176.0</ele></trkpt>
<trkpt lon="0.917759" lat="45.391606"><ele>174.75</ele></trkpt>
<trkpt lon="0.917785" lat="45.391516"><ele>173.75</ele></trkpt>
<trkpt lon="0.917863" lat="45.391361"><ele>172.0</ele></trkpt>
<trkpt lon="0.917907" lat="45.391201"><ele>169.75</ele></trkpt>
<trkpt lon="0.917909" lat="45.391036"><ele>167.75</ele></trkpt>
<trkpt lon="0.917879" lat="45.390908"><ele>166.5</ele></trkpt>
<trkpt lon="0.917813" lat="45.390821"><ele>165.75</ele></trkpt>
<trkpt lon="0.917703" lat="45.390762"><ele>165.0</ele></trkpt>
<trkpt lon="0.917536" lat="45.390720"><ele>163.75</ele></trkpt>
<trkpt lon="0.917242" lat="45.390705"><ele>163.0</ele></trkpt>
<trkpt lon="0.916923" lat="45.390741"><ele>162.5</ele></trkpt>
<trkpt lon="0.916537" lat="45.390816"><ele>163.75</ele></trkpt>
<trkpt lon="0.916190" lat="45.390884"><ele>165.5</ele></trkpt>
<trkpt lon="0.916138" lat="45.390900"><ele>166.0</ele></trkpt>
<trkpt lon="0.916138" lat="45.390717"><ele>165.0</ele></trkpt>
<trkpt lon="0.916249" lat="45.390441"><ele>163.75</ele></trkpt>
<trkpt lon="0.916403" lat="45.390251"><ele>164.5</ele></trkpt>
<trkpt lon="0.915187" lat="45.390028"><ele>171.0</ele></trkpt>
<trkpt lon="0.914717" lat="45.389911"><ele>172.75</ele></trkpt>
<trkpt lon="0.914344" lat="45.389783"><ele>174.75</ele></trkpt>
<trkpt lon="0.914066" lat="45.389645"><ele>176.75</ele></trkpt>
<trkpt lon="0.914043" lat="45.389626"><ele>177.0</ele></trkpt>
<trkpt lon="0.913909" lat="45.389517"><ele>178.5</ele></trkpt>
<trkpt lon="0.913707" lat="45.389334"><ele>183.25</ele></trkpt>
<trkpt lon="0.913569" lat="45.389287"><ele>183.5</ele></trkpt>
<trkpt lon="0.913500" lat="45.389285"><ele>183.75</ele></trkpt>
<trkpt lon="0.913185" lat="45.389172"><ele>186.0</ele></trkpt>
<trkpt lon="0.912962" lat="45.388874"><ele>188.0</ele></trkpt>
<trkpt lon="0.912789" lat="45.388745"><ele>189.75</ele></trkpt>
<trkpt lon="0.912739" lat="45.388606"><ele>190.25</ele></trkpt>
<trkpt lon="0.912901" lat="45.388461"><ele>191.75</ele></trkpt>
<trkpt lon="0.913006" lat="45.388332"><ele>193.0</ele></trkpt>
<trkpt lon="0.912772" lat="45.387835"><ele>201.0</ele></trkpt>
<trkpt lon="0.912628" lat="45.387471"><ele>205.75</ele></trkpt>
<trkpt lon="0.912377" lat="45.386709"><ele>212.0</ele></trkpt>
<trkpt lon="0.912117" lat="45.386736"><ele>212.25</ele></trkpt>
<trkpt lon="0.911700" lat="45.386709"><ele>213.0</ele></trkpt>
<trkpt lon="0.911061" lat="45.386639"><ele>214.75</ele></trkpt>
<trkpt lon="0.910810" lat="45.386584"><ele>215.75</ele></trkpt>
<trkpt lon="0.910531" lat="45.386513"><ele>216.5</ele></trkpt>
<trkpt lon="0.910213" lat="45.386406"><ele>219.0</ele></trkpt>
<trkpt lon="0.909946" lat="45.386249"><ele>220.0</ele></trkpt>
<trkpt lon="0.909419" lat="45.385885"><ele>220.75</ele></trkpt>
<trkpt lon="0.909281" lat="45.385857"><ele>220.75</ele></trkpt>
<trkpt lon="0.908644" lat="45.385868"><ele>219.75</ele></trkpt>
<trkpt lon="0.908329" lat="45.385862"><ele>218.75</ele></trkpt>
<trkpt lon="0.908096" lat="45.385790"><ele>217.5</ele></trkpt>
<trkpt lon="0.907875" lat="45.385675"><ele>216.75</ele></trkpt>
<trkpt lon="0.907638" lat="45.385571"><ele>217.25</ele></trkpt>
<trkpt lon="0.907377" lat="45.385502"><ele>216.5</ele></trkpt>
<trkpt lon="0.906429" lat="45.385399"><ele>216.75</ele></trkpt>
<trkpt lon="0.905773" lat="45.385293"><ele>217.5</ele></trkpt>
<trkpt lon="0.905282" lat="45.385305"><ele>218.5</ele></trkpt>
<trkpt lon="0.904957" lat="45.385295"><ele>219.75</ele></trkpt>
<trkpt lon="0.904438" lat="45.385231"><ele>220.0</ele></trkpt>
<trkpt lon="0.904393" lat="45.385220"><ele>220.25</ele></trkpt>
<trkpt lon="0.903996" lat="45.383159"><ele>218.25</ele></trkpt>
<trkpt lon="0.903842" lat="45.382200"><ele>217.75</ele></trkpt>
<trkpt lon="0.903780" lat="45.381866"><ele>216.0</ele></trkpt>
<trkpt lon="0.903668" lat="45.381266"><ele>213.0</ele></trkpt>
<trkpt lon="0.903245" lat="45.379054"><ele>206.5</ele></trkpt>
<trkpt lon="0.902528" lat="45.377402"><ele>203.5</ele></trkpt>
<trkpt lon="0.902426" lat="45.377088"><ele>202.75</ele></trkpt>
<trkpt lon="0.902353" lat="45.376962"><ele>202.5</ele></trkpt>
<trkpt lon="0.901438" lat="45.374833"><ele>199.75</ele></trkpt>
<trkpt lon="0.901059" lat="45.373975"><ele>194.75</ele></trkpt>
<trkpt lon="0.900717" lat="45.373147"><ele>191.5</ele></trkpt>
<trkpt lon="0.900160" lat="45.371858"><ele>182.75</ele></trkpt>
<trkpt lon="0.899774" lat="45.370963"><ele>180.25</ele></trkpt>
<trkpt lon="0.899420" lat="45.370144"><ele>187.0</ele></trkpt>
<trkpt lon="0.898942" lat="45.368980"><ele>188.5</ele></trkpt>
<trkpt lon="0.898309" lat="45.367567"><ele>178.0</ele></trkpt>
<trkpt lon="0.898134" lat="45.367260"><ele>179.5</ele></trkpt>
<trkpt lon="0.898082" lat="45.367212"><ele>180.0</ele></trkpt>
<trkpt lon="0.897907" lat="45.367050"><ele>181.5</ele></trkpt>
<trkpt lon="0.897384" lat="45.366782"><ele>184.25</ele></trkpt>
<trkpt lon="0.897213" lat="45.366656"><ele>186.0</ele></trkpt>
<trkpt lon="0.897079" lat="45.366518"><ele>187.75</ele></trkpt>
<trkpt lon="0.896533" lat="45.365596"><ele>189.5</ele></trkpt>
<trkpt lon="0.895535" lat="45.363916"><ele>193.0</ele></trkpt>
<trkpt lon="0.894706" lat="45.362538"><ele>183.25</ele></trkpt>
<trkpt lon="0.894613" lat="45.362391"><ele>182.0</ele></trkpt>
<trkpt lon="0.894154" lat="45.361596"><ele>184.0</ele></trkpt>
<trkpt lon="0.893438" lat="45.361717"><ele>186.5</ele></trkpt>
<trkpt lon="0.892904" lat="45.361819"><ele>187.75</ele></trkpt>
<trkpt lon="0.892765" lat="45.361821"><ele>188.0</ele></trkpt>
<trkpt lon="0.892631" lat="45.361798"><ele>188.25</ele></trkpt>
<trkpt lon="0.892097" lat="45.361548"><ele>189.25</ele></trkpt>
<trkpt lon="0.891974" lat="45.361496"><ele>189.75</ele></trkpt>
<trkpt lon="0.891861" lat="45.361482"><ele>190.25</ele></trkpt>
<trkpt lon="0.891789" lat="45.361501"><ele>190.5</ele></trkpt>
<trkpt lon="0.891601" lat="45.361566"><ele>191.0</ele></trkpt>
<trkpt lon="0.891437" lat="45.361606"><ele>191.0</ele></trkpt>
<trkpt lon="0.891233" lat="45.361610"><ele>191.75</ele></trkpt>
<trkpt lon="0.891110" lat="45.361598"><ele>192.0</ele></trkpt>
<trkpt lon="0.890887" lat="45.361553"><ele>192.25</ele></trkpt>
<trkpt lon="0.890373" lat="45.361488"><ele>193.75</ele></trkpt>
<trkpt lon="0.889871" lat="45.361411"><ele>196.25</ele></trkpt>
<trkpt lon="0.889531" lat="45.361388"><ele>197.5</ele></trkpt>
<trkpt lon="0.889321" lat="45.361418"><ele>197.75</ele></trkpt>
<trkpt lon="0.889168" lat="45.361482"><ele>197.5</ele></trkpt>
<trkpt lon="0.889018" lat="45.361560"><ele>197.0</ele></trkpt>
<trkpt lon="0.888605" lat="45.361654"><ele>195.75</ele></trkpt>
<trkpt lon="0.888466" lat="45.361669"><ele>195.25</ele></trkpt>
<trkpt lon="0.888324" lat="45.361660"><ele>194.75</ele></trkpt>
<trkpt lon="0.888184" lat="45.361620"><ele>194.25</ele></trkpt>
<trkpt lon="0.887862" lat="45.361494"><ele>193.5</ele></trkpt>
<trkpt lon="0.886867" lat="45.361122"><ele>195.25</ele></trkpt>
<trkpt lon="0.886451" lat="45.360953"><ele>194.25</ele></trkpt>
<trkpt lon="0.885907" lat="45.360744"><ele>193.25</ele></trkpt>
<trkpt lon="0.885834" lat="45.360683"><ele>193.0</ele></trkpt>
<trkpt lon="0.885738" lat="45.360544"><ele>193.0</ele></trkpt>
<trkpt lon="0.884936" lat="45.360240"><ele>191.75</ele></trkpt>
<trkpt lon="0.884649" lat="45.360073"><ele>191.5</ele></trkpt>
<trkpt lon="0.884496" lat="45.360005"><ele>191.75</ele></trkpt>
<trkpt lon="0.884003" lat="45.359815"><ele>190.0</ele></trkpt>
<trkpt lon="0.883876" lat="45.359734"><ele>189.75</ele></trkpt>
<trkpt lon="0.883740" lat="45.359622"><ele>189.0</ele></trkpt>
<trkpt lon="0.883533" lat="45.359413"><ele>187.25</ele></trkpt>
<trkpt lon="0.883490" lat="45.359321"><ele>186.5</ele></trkpt>
<trkpt lon="0.883496" lat="45.359217"><ele>185.75</ele></trkpt>
<trkpt lon="0.883522" lat="45.359125"><ele>185.75</ele></trkpt>
<trkpt lon="0.883549" lat="45.358949"><ele>186.5</ele></trkpt>
<trkpt lon="0.883538" lat="45.358854"><ele>186.75</ele></trkpt>
<trkpt lon="0.882859" lat="45.358904"><ele>184.75</ele></trkpt>
<trkpt lon="0.882753" lat="45.358769"><ele>185.25</ele></trkpt>
<trkpt lon="0.882669" lat="45.358640"><ele>185.5</ele></trkpt>
<trkpt lon="0.882458" lat="45.357724"><ele>187.5</ele></trkpt>
<trkpt lon="0.882431" lat="45.357476"><ele>187.75</ele></trkpt>
<trkpt lon="0.882364" lat="45.357121"><ele>188.75</ele></trkpt>
<trkpt lon="0.882264" lat="45.356948"><ele>189.0</ele></trkpt>
<trkpt lon="0.882154" lat="45.356824"><ele>188.75</ele></trkpt>
<trkpt lon="0.882036" lat="45.356675"><ele>188.75</ele></trkpt>
<trkpt lon="0.881975" lat="45.356584"><ele>189.25</ele></trkpt>
<trkpt lon="0.881822" lat="45.356228"><ele>190.25</ele></trkpt>
<trkpt lon="0.881817" lat="45.356056"><ele>190.5</ele></trkpt>
<trkpt lon="0.881849" lat="45.355681"><ele>191.5</ele></trkpt>
<trkpt lon="0.881833" lat="45.355613"><ele>191.75</ele></trkpt>
<trkpt lon="0.881763" lat="45.355563"><ele>191.75</ele></trkpt>
<trkpt lon="0.881728" lat="45.355546"><ele>191.75</ele></trkpt>
<trkpt lon="0.881320" lat="45.355470"><ele>192.75</ele></trkpt>
<trkpt lon="0.881138" lat="45.355378"><ele>192.75</ele></trkpt>
<trkpt lon="0.880980" lat="45.355253"><ele>193.25</ele></trkpt>
<trkpt lon="0.880744" lat="45.355161"><ele>194.0</ele></trkpt>
<trkpt lon="0.880542" lat="45.355140"><ele>194.5</ele></trkpt>
<trkpt lon="0.880302" lat="45.355154"><ele>195.25</ele></trkpt>
<trkpt lon="0.879972" lat="45.355161"><ele>197.5</ele></trkpt>
<trkpt lon="0.879641" lat="45.355176"><ele>199.25</ele></trkpt>
<trkpt lon="0.879354" lat="45.355160"><ele>200.0</ele></trkpt>
<trkpt lon="0.878976" lat="45.355074"><ele>200.0</ele></trkpt>
<trkpt lon="0.877779" lat="45.354784"><ele>196.75</ele></trkpt>
<trkpt lon="0.877678" lat="45.354760"><ele>196.25</ele></trkpt>
<trkpt lon="0.877445" lat="45.354718"><ele>195.75</ele></trkpt>
<trkpt lon="0.877217" lat="45.354688"><ele>195.0</ele></trkpt>
<trkpt lon="0.877093" lat="45.354690"><ele>194.5</ele></trkpt>
<trkpt lon="0.876272" lat="45.354790"><ele>189.75</ele></trkpt>
<trkpt lon="0.876074" lat="45.354784"><ele>189.0</ele></trkpt>
<trkpt lon="0.875951" lat="45.354756"><ele>188.5</ele></trkpt>
<trkpt lon="0.875833" lat="45.354692"><ele>188.0</ele></trkpt>
<trkpt lon="0.875645" lat="45.354558"><ele>188.25</ele></trkpt>
<trkpt lon="0.875489" lat="45.354395"><ele>188.75</ele></trkpt>
<trkpt lon="0.875500" lat="45.354323"><ele>189.0</ele></trkpt>
<trkpt lon="0.875623" lat="45.354174"><ele>189.5</ele></trkpt>
<trkpt lon="0.875644" lat="45.354131"><ele>189.5</ele></trkpt>
<trkpt lon="0.875654" lat="45.354079"><ele>189.25</ele></trkpt>
<trkpt lon="0.875661" lat="45.353847"><ele>188.0</ele></trkpt>
<trkpt lon="0.875653" lat="45.353571"><ele>185.5</ele></trkpt>
<trkpt lon="0.875728" lat="45.353554"><ele>185.5</ele></trkpt>
<trkpt lon="0.875979" lat="45.353471"><ele>185.5</ele></trkpt>
<trkpt lon="0.875948" lat="45.353323"><ele>184.25</ele></trkpt>
<trkpt lon="0.875964" lat="45.353112"><ele>183.25</ele></trkpt>
<trkpt lon="0.875996" lat="45.352860"><ele>182.25</ele></trkpt>
<trkpt lon="0.875985" lat="45.352771"><ele>182.0</ele></trkpt>
<trkpt lon="0.875942" lat="45.352694"><ele>182.25</ele></trkpt>
<trkpt lon="0.875792" lat="45.352485"><ele>183.0</ele></trkpt>
<trkpt lon="0.875696" lat="45.352372"><ele>183.75</ele></trkpt>
<trkpt lon="0.875642" lat="45.352332"><ele>184.0</ele></trkpt>
<trkpt lon="0.875114" lat="45.352132"><ele>184.75</ele></trkpt>
<trkpt lon="0.874974" lat="45.352044"><ele>185.0</ele></trkpt>
<trkpt lon="0.874497" lat="45.351684"><ele>184.0</ele></trkpt>
<trkpt lon="0.874188" lat="45.351510"><ele>183.0</ele></trkpt>
<trkpt lon="0.873858" lat="45.351201"><ele>181.75</ele></trkpt>
<trkpt lon="0.873343" lat="45.350754"><ele>182.5</ele></trkpt>
<trkpt lon="0.873107" lat="45.350579"><ele>183.0</ele></trkpt>
<trkpt lon="0.872960" lat="45.350436"><ele>183.25</ele></trkpt>
<trkpt lon="0.872649" lat="45.350211"><ele>184.75</ele></trkpt>
<trkpt lon="0.872611" lat="45.350044"><ele>186.25</ele></trkpt>
<trkpt lon="0.872627" lat="45.349917"><ele>187.0</ele></trkpt>
<trkpt lon="0.872614" lat="45.349748"><ele>188.25</ele></trkpt>
<trkpt lon="0.872625" lat="45.349699"><ele>188.5</ele></trkpt>
<trkpt lon="0.872684" lat="45.349657"><ele>188.5</ele></trkpt>
<trkpt lon="0.873478" lat="45.349373"><ele>186.5</ele></trkpt>
<trkpt lon="0.873571" lat="45.349350"><ele>186.0</ele></trkpt>
<trkpt lon="0.873783" lat="45.349339"><ele>185.75</ele></trkpt>
<trkpt lon="0.873875" lat="45.349318"><ele>185.5</ele></trkpt>
<trkpt lon="0.873971" lat="45.349284"><ele>185.0</ele></trkpt>
<trkpt lon="0.874086" lat="45.349214"><ele>184.25</ele></trkpt>
<trkpt lon="0.874277" lat="45.348903"><ele>182.5</ele></trkpt>
<trkpt lon="0.874175" lat="45.348881"><ele>182.75</ele></trkpt>
<trkpt lon="0.873850" lat="45.348751"><ele>184.5</ele></trkpt>
<trkpt lon="0.872896" lat="45.348242"><ele>189.5</ele></trkpt>
<trkpt lon="0.872777" lat="45.348191"><ele>189.25</ele></trkpt>
<trkpt lon="0.872566" lat="45.348113"><ele>189.0</ele></trkpt>
<trkpt lon="0.871734" lat="45.347851"><ele>185.5</ele></trkpt>
<trkpt lon="0.871251" lat="45.347759"><ele>183.75</ele></trkpt>
<trkpt lon="0.870895" lat="45.347623"><ele>183.0</ele></trkpt>
<trkpt lon="0.870648" lat="45.347521"><ele>181.25</ele></trkpt>
<trkpt lon="0.870527" lat="45.347439"><ele>180.25</ele></trkpt>
<trkpt lon="0.870511" lat="45.347388"><ele>180.0</ele></trkpt>
<trkpt lon="0.870535" lat="45.347310"><ele>179.5</ele></trkpt>
<trkpt lon="0.870604" lat="45.347190"><ele>179.0</ele></trkpt>
<trkpt lon="0.870691" lat="45.347041"><ele>178.25</ele></trkpt>
<trkpt lon="0.870747" lat="45.346909"><ele>177.5</ele></trkpt>
<trkpt lon="0.870838" lat="45.346585"><ele>176.5</ele></trkpt>
<trkpt lon="0.870927" lat="45.346064"><ele>175.0</ele></trkpt>
<trkpt lon="0.870907" lat="45.345975"><ele>174.75</ele></trkpt>
<trkpt lon="0.870127" lat="45.346060"><ele>175.25</ele></trkpt>
<trkpt lon="0.869956" lat="45.346074"><ele>176.0</ele></trkpt>
<trkpt lon="0.869781" lat="45.346081"><ele>176.75</ele></trkpt>
<trkpt lon="0.869558" lat="45.346086"><ele>177.5</ele></trkpt>
<trkpt lon="0.869362" lat="45.346087"><ele>178.0</ele></trkpt>
<trkpt lon="0.869312" lat="45.346089"><ele>178.25</ele></trkpt>
<trkpt lon="0.869249" lat="45.346105"><ele>178.5</ele></trkpt>
<trkpt lon="0.869169" lat="45.346125"><ele>178.75</ele></trkpt>
<trkpt lon="0.868664" lat="45.346202"><ele>181.75</ele></trkpt>
<trkpt lon="0.868163" lat="45.346257"><ele>184.0</ele></trkpt>
<trkpt lon="0.867801" lat="45.346281"><ele>184.75</ele></trkpt>
<trkpt lon="0.867646" lat="45.346283"><ele>185.0</ele></trkpt>
<trkpt lon="0.867434" lat="45.346272"><ele>185.0</ele></trkpt>
<trkpt lon="0.867209" lat="45.346243"><ele>184.75</ele></trkpt>
<trkpt lon="0.866815" lat="45.346141"><ele>183.25</ele></trkpt>
<trkpt lon="0.866442" lat="45.345997"><ele>181.75</ele></trkpt>
<trkpt lon="0.866321" lat="45.345964"><ele>181.25</ele></trkpt>
<trkpt lon="0.866230" lat="45.345939"><ele>181.0</ele></trkpt>
<trkpt lon="0.865943" lat="45.345881"><ele>180.75</ele></trkpt>
<trkpt lon="0.865700" lat="45.345856"><ele>180.25</ele></trkpt>
<trkpt lon="0.865114" lat="45.345798"><ele>179.5</ele></trkpt>
<trkpt lon="0.864972" lat="45.345760"><ele>179.5</ele></trkpt>
<trkpt lon="0.864725" lat="45.345671"><ele>180.0</ele></trkpt>
<trkpt lon="0.864693" lat="45.345653"><ele>180.25</ele></trkpt>
<trkpt lon="0.864586" lat="45.345594"><ele>180.25</ele></trkpt>
<trkpt lon="0.864477" lat="45.345550"><ele>180.0</ele></trkpt>
<trkpt lon="0.864368" lat="45.345505"><ele>179.75</ele></trkpt>
<trkpt lon="0.864332" lat="45.345452"><ele>179.75</ele></trkpt>
<trkpt lon="0.864229" lat="45.345308"><ele>180.0</ele></trkpt>
<trkpt lon="0.864136" lat="45.345162"><ele>179.75</ele></trkpt>
<trkpt lon="0.864061" lat="45.344952"><ele>180.0</ele></trkpt>
<trkpt lon="0.863961" lat="45.344640"><ele>180.0</ele></trkpt>
<trkpt lon="0.863891" lat="45.344561"><ele>180.0</ele></trkpt>
<trkpt lon="0.863660" lat="45.344230"><ele>178.25</ele></trkpt>
<trkpt lon="0.863344" lat="45.343621"><ele>175.0</ele></trkpt>
<trkpt lon="0.863266" lat="45.343454"><ele>173.75</ele></trkpt>
<trkpt lon="0.862681" lat="45.342491"><ele>170.75</ele></trkpt>
<trkpt lon="0.862558" lat="45.342265"><ele>170.25</ele></trkpt>
<trkpt lon="0.862550" lat="45.342237"><ele>170.0</ele></trkpt>
<trkpt lon="0.862327" lat="45.341741"><ele>168.5</ele></trkpt>
<trkpt lon="0.862220" lat="45.341558"><ele>167.5</ele></trkpt>
<trkpt lon="0.861742" lat="45.340924"><ele>168.25</ele></trkpt>
<trkpt lon="0.861512" lat="45.340583"><ele>167.75</ele></trkpt>
<trkpt lon="0.861378" lat="45.340413"><ele>167.0</ele></trkpt>
<trkpt lon="0.861123" lat="45.340112"><ele>166.25</ele></trkpt>
<trkpt lon="0.860890" lat="45.339765"><ele>165.75</ele></trkpt>
<trkpt lon="0.860600" lat="45.339271"><ele>166.75</ele></trkpt>
<trkpt lon="0.860511" lat="45.339137"><ele>166.5</ele></trkpt>
<trkpt lon="0.860450" lat="45.339013"><ele>166.25</ele></trkpt>
<trkpt lon="0.860428" lat="45.338924"><ele>166.0</ele></trkpt>
<trkpt lon="0.860450" lat="45.338883"><ele>166.0</ele></trkpt>
<trkpt lon="0.860490" lat="45.338852"><ele>166.0</ele></trkpt>
<trkpt lon="0.860568" lat="45.338826"><ele>166.0</ele></trkpt>
<trkpt lon="0.862464" lat="45.338385"><ele>167.5</ele></trkpt>
<trkpt lon="0.862503" lat="45.338388"><ele>167.75</ele></trkpt>
<trkpt lon="0.862491" lat="45.338291"><ele>167.75</ele></trkpt>
<trkpt lon="0.862448" lat="45.338211"><ele>167.75</ele></trkpt>
<trkpt lon="0.862365" lat="45.338017"><ele>168.0</ele></trkpt>
<trkpt lon="0.862233" lat="45.337593"><ele>169.5</ele></trkpt>
<trkpt lon="0.862147" lat="45.337363"><ele>170.75</ele></trkpt>
<trkpt lon="0.862088" lat="45.337259"><ele>171.25</ele></trkpt>
<trkpt lon="0.861965" lat="45.337100"><ele>172.25</ele></trkpt>
<trkpt lon="0.861829" lat="45.336894"><ele>173.5</ele></trkpt>
<trkpt lon="0.861762" lat="45.336743"><ele>174.0</ele></trkpt>
<trkpt lon="0.861547" lat="45.336182"><ele>175.75</ele></trkpt>
<trkpt lon="0.861512" lat="45.336012"><ele>176.0</ele></trkpt>
<trkpt lon="0.861464" lat="45.335916"><ele>176.0</ele></trkpt>
<trkpt lon="0.861239" lat="45.335542"><ele>177.5</ele></trkpt>
<trkpt lon="0.861016" lat="45.335245"><ele>179.25</ele></trkpt>
<trkpt lon="0.860834" lat="45.334950"><ele>181.0</ele></trkpt>
<trkpt lon="0.860573" lat="45.334407"><ele>183.25</ele></trkpt>
<trkpt lon="0.860463" lat="45.334115"><ele>185.25</ele></trkpt>
<trkpt lon="0.860431" lat="45.333885"><ele>187.0</ele></trkpt>
<trkpt lon="0.860434" lat="45.333487"><ele>189.0</ele></trkpt>
<trkpt lon="0.860402" lat="45.333067"><ele>189.0</ele></trkpt>
<trkpt lon="0.860319" lat="45.332618"><ele>187.75</ele></trkpt>
<trkpt lon="0.860198" lat="45.332144"><ele>188.25</ele></trkpt>
<trkpt lon="0.860101" lat="45.331666"><ele>190.5</ele></trkpt>
<trkpt lon="0.860074" lat="45.331356"><ele>189.25</ele></trkpt>
<trkpt lon="0.860077" lat="45.331107"><ele>189.0</ele></trkpt>
<trkpt lon="0.860069" lat="45.331014"><ele>188.75</ele></trkpt>
<trkpt lon="0.859972" lat="45.330739"><ele>189.0</ele></trkpt>
<trkpt lon="0.859937" lat="45.330562"><ele>189.0</ele></trkpt>
<trkpt lon="0.859924" lat="45.330304"><ele>190.0</ele></trkpt>
<trkpt lon="0.859881" lat="45.330124"><ele>190.5</ele></trkpt>
<trkpt lon="0.859806" lat="45.329919"><ele>191.0</ele></trkpt>
<trkpt lon="0.859624" lat="45.329647"><ele>191.75</ele></trkpt>
<trkpt lon="0.860552" lat="45.329346"><ele>193.75</ele></trkpt>
<trkpt lon="0.861810" lat="45.328877"><ele>194.75</ele></trkpt>
<trkpt lon="0.861995" lat="45.328826"><ele>194.75</ele></trkpt>
<trkpt lon="0.862137" lat="45.328775"><ele>194.75</ele></trkpt>
<trkpt lon="0.862303" lat="45.328762"><ele>195.25</ele></trkpt>
<trkpt lon="0.862671" lat="45.328753"><ele>196.5</ele></trkpt>
<trkpt lon="0.862561" lat="45.328349"><ele>196.0</ele></trkpt>
<trkpt lon="0.863038" lat="45.328300"><ele>196.75</ele></trkpt>
<trkpt lon="0.863821" lat="45.328176"><ele>197.0</ele></trkpt>
<trkpt lon="0.863880" lat="45.328070"><ele>196.75</ele></trkpt>
<trkpt lon="0.864366" lat="45.327953"><ele>195.75</ele></trkpt>
<trkpt lon="0.864318" lat="45.327693"><ele>197.0</ele></trkpt>
<trkpt lon="0.864181" lat="45.327121"><ele>200.75</ele></trkpt>
<trkpt lon="0.864151" lat="45.327050"><ele>201.0</ele></trkpt>
<trkpt lon="0.864076" lat="45.326921"><ele>200.75</ele></trkpt>
<trkpt lon="0.863602" lat="45.326212"><ele>192.0</ele></trkpt>
<trkpt lon="0.863041" lat="45.325351"><ele>184.5</ele></trkpt>
<trkpt lon="0.863006" lat="45.325253"><ele>184.25</ele></trkpt>
<trkpt lon="0.863095" lat="45.324832"><ele>182.75</ele></trkpt>
<trkpt lon="0.863095" lat="45.324555"><ele>182.0</ele></trkpt>
<trkpt lon="0.863122" lat="45.324357"><ele>181.5</ele></trkpt>
<trkpt lon="0.863156" lat="45.324000"><ele>180.5</ele></trkpt>
<trkpt lon="0.863108" lat="45.323708"><ele>179.25</ele></trkpt>
<trkpt lon="0.862920" lat="45.323169"><ele>177.25</ele></trkpt>
<trkpt lon="0.862759" lat="45.322803"><ele>177.0</ele></trkpt>
<trkpt lon="0.862679" lat="45.322595"><ele>177.5</ele></trkpt>
<trkpt lon="0.862569" lat="45.322417"><ele>178.5</ele></trkpt>
<trkpt lon="0.862182" lat="45.321884"><ele>181.25</ele></trkpt>
<trkpt lon="0.862086" lat="45.321740"><ele>182.0</ele></trkpt>
<trkpt lon="0.861764" lat="45.321163"><ele>184.75</ele></trkpt>
<trkpt lon="0.861643" lat="45.320967"><ele>186.0</ele></trkpt>
<trkpt lon="0.861547" lat="45.320839"><ele>186.75</ele></trkpt>
<trkpt lon="0.861919" lat="45.320627"><ele>186.75</ele></trkpt>
<trkpt lon="0.862368" lat="45.320436"><ele>186.0</ele></trkpt>
<trkpt lon="0.862832" lat="45.320257"><ele>186.75</ele></trkpt>
<trkpt lon="0.864194" lat="45.319762"><ele>189.5</ele></trkpt>
<trkpt lon="0.863907" lat="45.319288"><ele>192.5</ele></trkpt>
<trkpt lon="0.863521" lat="45.318717"><ele>190.75</ele></trkpt>
<trkpt lon="0.863010" lat="45.317809"><ele>182.75</ele></trkpt>
<trkpt lon="0.862554" lat="45.317167"><ele>181.25</ele></trkpt>
<trkpt lon="0.861950" lat="45.316199"><ele>186.5</ele></trkpt>
<trkpt lon="0.861641" lat="45.315622"><ele>188.25</ele></trkpt>
<trkpt lon="0.861440" lat="45.315280"><ele>189.0</ele></trkpt>
<trkpt lon="0.861015" lat="45.314824"><ele>191.0</ele></trkpt>
<trkpt lon="0.860901" lat="45.314757"><ele>191.5</ele></trkpt>
<trkpt lon="0.860817" lat="45.314690"><ele>191.75</ele></trkpt>
<trkpt lon="0.860644" lat="45.314485"><ele>192.25</ele></trkpt>
<trkpt lon="0.860812" lat="45.314442"><ele>192.0</ele></trkpt>
<trkpt lon="0.861337" lat="45.314094"><ele>191.25</ele></trkpt>
<trkpt lon="0.861716" lat="45.313760"><ele>188.5</ele></trkpt>
<trkpt lon="0.862468" lat="45.313119"><ele>184.25</ele></trkpt>
<trkpt lon="0.862939" lat="45.312678"><ele>182.0</ele></trkpt>
<trkpt lon="0.863242" lat="45.312407"><ele>181.25</ele></trkpt>
<trkpt lon="0.863462" lat="45.312267"><ele>180.25</ele></trkpt>
<trkpt lon="0.863741" lat="45.312120"><ele>179.0</ele></trkpt>
<trkpt lon="0.864063" lat="45.311982"><ele>176.75</ele></trkpt>
<trkpt lon="0.864304" lat="45.311896"><ele>174.75</ele></trkpt>
<trkpt lon="0.864546" lat="45.311775"><ele>172.75</ele></trkpt>
<trkpt lon="0.864766" lat="45.311635"><ele>170.5</ele></trkpt>
<trkpt lon="0.865029" lat="45.311422"><ele>169.0</ele></trkpt>
<trkpt lon="0.865391" lat="45.311166"><ele>167.5</ele></trkpt>
<trkpt lon="0.865546" lat="45.311047"><ele>167.5</ele></trkpt>
<trkpt lon="0.865691" lat="45.310952"><ele>167.25</ele></trkpt>
<trkpt lon="0.866052" lat="45.310771"><ele>166.75</ele></trkpt>
<trkpt lon="0.866078" lat="45.310748"><ele>166.5</ele></trkpt>
<trkpt lon="0.866246" lat="45.310639"><ele>166.75</ele></trkpt>
<trkpt lon="0.866472" lat="45.310462"><ele>166.75</ele></trkpt>
<trkpt lon="0.866775" lat="45.310243"><ele>166.5</ele></trkpt>
<trkpt lon="0.866962" lat="45.310096"><ele>166.75</ele></trkpt>
<trkpt lon="0.867131" lat="45.309936"><ele>166.75</ele></trkpt>
<trkpt lon="0.867370" lat="45.309728"><ele>167.0</ele></trkpt>
<trkpt lon="0.867724" lat="45.309391"><ele>166.5</ele></trkpt>
<trkpt lon="0.868028" lat="45.309089"><ele>167.5</ele></trkpt>
<trkpt lon="0.868042" lat="45.309049"><ele>167.25</ele></trkpt>
<trkpt lon="0.868744" lat="45.308947"><ele>170.25</ele></trkpt>
<trkpt lon="0.869107" lat="45.308850"><ele>169.75</ele></trkpt>
<trkpt lon="0.869291" lat="45.308783"><ele>169.25</ele></trkpt>
<trkpt lon="0.869530" lat="45.308686"><ele>168.5</ele></trkpt>
<trkpt lon="0.869720" lat="45.308597"><ele>168.75</ele></trkpt>
<trkpt lon="0.870941" lat="45.307864"><ele>173.75</ele></trkpt>
<trkpt lon="0.871091" lat="45.307759"><ele>175.0</ele></trkpt>
<trkpt lon="0.871614" lat="45.307381"><ele>178.75</ele></trkpt>
<trkpt lon="0.871779" lat="45.307295"><ele>179.75</ele></trkpt>
<trkpt lon="0.871952" lat="45.307252"><ele>180.75</ele></trkpt>
<trkpt lon="0.872080" lat="45.307227"><ele>180.75</ele></trkpt>
<trkpt lon="0.872034" lat="45.306980"><ele>181.25</ele></trkpt>
<trkpt lon="0.871969" lat="45.306980"><ele>181.0</ele></trkpt>
<trkpt lon="0.871837" lat="45.306955"><ele>180.75</ele></trkpt>
<trkpt lon="0.871628" lat="45.306895"><ele>180.25</ele></trkpt>
<trkpt lon="0.871494" lat="45.306770"><ele>178.75</ele></trkpt>
<trkpt lon="0.871335" lat="45.306589"><ele>177.0</ele></trkpt>
<trkpt lon="0.871216" lat="45.306469"><ele>175.75</ele></trkpt>
<trkpt lon="0.870876" lat="45.306160"><ele>172.5</ele></trkpt>
<trkpt lon="0.871315" lat="45.305857"><ele>172.5</ele></trkpt>
<trkpt lon="0.871582" lat="45.305706"><ele>172.75</ele></trkpt>
<trkpt lon="0.871937" lat="45.305552"><ele>173.75</ele></trkpt>
<trkpt lon="0.872213" lat="45.305474"><ele>174.5</ele></trkpt>
<trkpt lon="0.872264" lat="45.305460"><ele>174.5</ele></trkpt>
<trkpt lon="0.872520" lat="45.305387"><ele>174.25</ele></trkpt>
<trkpt lon="0.872414" lat="45.305194"><ele>174.0</ele></trkpt>
<trkpt lon="0.872378" lat="45.305184"><ele>174.0</ele></trkpt>
<trkpt lon="0.872414" lat="45.305097"><ele>174.0</ele></trkpt>
<trkpt lon="0.872434" lat="45.305050"><ele>174.0</ele></trkpt>
<trkpt lon="0.872438" lat="45.304991"><ele>174.0</ele></trkpt>
<trkpt lon="0.872509" lat="45.304963"><ele>173.75</ele></trkpt>
<trkpt lon="0.872530" lat="45.304925"><ele>173.75</ele></trkpt>
<trkpt lon="0.872488" lat="45.304773"><ele>174.0</ele></trkpt>
<trkpt lon="0.872464" lat="45.304561"><ele>173.25</ele></trkpt>
<trkpt lon="0.872466" lat="45.304412"><ele>173.0</ele></trkpt>
<trkpt lon="0.872506" lat="45.304265"><ele>172.75</ele></trkpt>
<trkpt lon="0.872569" lat="45.304093"><ele>172.75</ele></trkpt>
<trkpt lon="0.872222" lat="45.303958"><ele>173.75</ele></trkpt>
<trkpt lon="0.871694" lat="45.303811"><ele>174.75</ele></trkpt>
<trkpt lon="0.871503" lat="45.303664"><ele>174.75</ele></trkpt>
<trkpt lon="0.871388" lat="45.303546"><ele>174.75</ele></trkpt>
<trkpt lon="0.871246" lat="45.303309"><ele>174.25</ele></trkpt>
<trkpt lon="0.871010" lat="45.302926"><ele>173.5</ele></trkpt>
<trkpt lon="0.870980" lat="45.302824"><ele>173.5</ele></trkpt>
<trkpt lon="0.870950" lat="45.302637"><ele>173.0</ele></trkpt>
<trkpt lon="0.870911" lat="45.302471"><ele>172.75</ele></trkpt>
<trkpt lon="0.870846" lat="45.302326"><ele>172.25</ele></trkpt>
<trkpt lon="0.870581" lat="45.301835"><ele>170.0</ele></trkpt>
<trkpt lon="0.870489" lat="45.301684"><ele>169.75</ele></trkpt>
<trkpt lon="0.870412" lat="45.301579"><ele>169.25</ele></trkpt>
<trkpt lon="0.870275" lat="45.301435"><ele>168.75</ele></trkpt>
<trkpt lon="0.870076" lat="45.301198"><ele>168.25</ele></trkpt>
<trkpt lon="0.870023" lat="45.301105"><ele>168.0</ele></trkpt>
<trkpt lon="0.870015" lat="45.301048"><ele>168.25</ele></trkpt>
<trkpt lon="0.870020" lat="45.301016"><ele>168.25</ele></trkpt>
<trkpt lon="0.869642" lat="45.300948"><ele>166.5</ele></trkpt>
<trkpt lon="0.869374" lat="45.300884"><ele>164.75</ele></trkpt>
<trkpt lon="0.869270" lat="45.300852"><ele>164.25</ele></trkpt>
<trkpt lon="0.869169" lat="45.300798"><ele>164.0</ele></trkpt>
<trkpt lon="0.869068" lat="45.300692"><ele>163.25</ele></trkpt>
<trkpt lon="0.868956" lat="45.300521"><ele>162.25</ele></trkpt>
<trkpt lon="0.868584" lat="45.300046"><ele>160.75</ele></trkpt>
<trkpt lon="0.868031" lat="45.299599"><ele>158.75</ele></trkpt>
<trkpt lon="0.867944" lat="45.299472"><ele>158.0</ele></trkpt>
<trkpt lon="0.867862" lat="45.299268"><ele>157.5</ele></trkpt>
<trkpt lon="0.867864" lat="45.299032"><ele>157.0</ele></trkpt>
<trkpt lon="0.867845" lat="45.298766"><ele>156.25</ele></trkpt>
<trkpt lon="0.867815" lat="45.298532"><ele>156.0</ele></trkpt>
<trkpt lon="0.867752" lat="45.298272"><ele>155.75</ele></trkpt>
<trkpt lon="0.867678" lat="45.298101"><ele>155.25</ele></trkpt>
<trkpt lon="0.867656" lat="45.298008"><ele>155.0</ele></trkpt>
<trkpt lon="0.867580" lat="45.297822"><ele>154.5</ele></trkpt>
<trkpt lon="0.867533" lat="45.297641"><ele>154.0</ele></trkpt>
<trkpt lon="0.867462" lat="45.297447"><ele>153.75</ele></trkpt>
<trkpt lon="0.867297" lat="45.297276"><ele>153.0</ele></trkpt>
<trkpt lon="0.866526" lat="45.296775"><ele>153.0</ele></trkpt>
<trkpt lon="0.865776" lat="45.296125"><ele>152.25</ele></trkpt>
<trkpt lon="0.865306" lat="45.295736"><ele>153.0</ele></trkpt>
<trkpt lon="0.864961" lat="45.295359"><ele>156.0</ele></trkpt>
<trkpt lon="0.864595" lat="45.295101"><ele>155.0</ele></trkpt>
<trkpt lon="0.863971" lat="45.294686"><ele>152.0</ele></trkpt>
<trkpt lon="0.863626" lat="45.294370"><ele>149.75</ele></trkpt>
<trkpt lon="0.863555" lat="45.294224"><ele>148.75</ele></trkpt>
<trkpt lon="0.863358" lat="45.293474"><ele>147.0</ele></trkpt>
<trkpt lon="0.862954" lat="45.293170"><ele>146.0</ele></trkpt>
<trkpt lon="0.862784" lat="45.293077"><ele>146.0</ele></trkpt>
<trkpt lon="0.862686" lat="45.292946"><ele>146.0</ele></trkpt>
<trkpt lon="0.862636" lat="45.292723"><ele>145.75</ele></trkpt>
<trkpt lon="0.862664" lat="45.292581"><ele>145.5</ele></trkpt>
<trkpt lon="0.862325" lat="45.292115"><ele>146.5</ele></trkpt>
<trkpt lon="0.862062" lat="45.291688"><ele>150.25</ele></trkpt>
<trkpt lon="0.861537" lat="45.291234"><ele>154.5</ele></trkpt>
<trkpt lon="0.861264" lat="45.291057"><ele>155.0</ele></trkpt>
<trkpt lon="0.861056" lat="45.290838"><ele>155.75</ele></trkpt>
<trkpt lon="0.860826" lat="45.290645"><ele>155.5</ele></trkpt>
<trkpt lon="0.860596" lat="45.290403"><ele>155.5</ele></trkpt>
<trkpt lon="0.860060" lat="45.289864"><ele>156.25</ele></trkpt>
<trkpt lon="0.859918" lat="45.289641"><ele>157.0</ele></trkpt>
<trkpt lon="0.859551" lat="45.288968"><ele>158.0</ele></trkpt>
<trkpt lon="0.859283" lat="45.288471"><ele>158.5</ele></trkpt>
<trkpt lon="0.859144" lat="45.288069"><ele>158.75</ele></trkpt>
<trkpt lon="0.859313" lat="45.288035"><ele>159.0</ele></trkpt>
<trkpt lon="0.859398" lat="45.288007"><ele>159.0</ele></trkpt>
<trkpt lon="0.859412" lat="45.287965"><ele>159.0</ele></trkpt>
<trkpt lon="0.859415" lat="45.287933"><ele>159.0</ele></trkpt>
<trkpt lon="0.859377" lat="45.287907"><ele>159.0</ele></trkpt>
<trkpt lon="0.859034" lat="45.287746"><ele>159.25</ele></trkpt>
<trkpt lon="0.858390" lat="45.287431"><ele>161.0</ele></trkpt>
<trkpt lon="0.858090" lat="45.287261"><ele>162.5</ele></trkpt>
<trkpt lon="0.858186" lat="45.287137"><ele>163.0</ele></trkpt>
<trkpt lon="0.858515" lat="45.286883"><ele>163.5</ele></trkpt>
<trkpt lon="0.858779" lat="45.286654"><ele>163.75</ele></trkpt>
<trkpt lon="0.858961" lat="45.286448"><ele>163.5</ele></trkpt>
<trkpt lon="0.859169" lat="45.286130"><ele>163.75</ele></trkpt>
<trkpt lon="0.859454" lat="45.285635"><ele>164.5</ele></trkpt>
<trkpt lon="0.859625" lat="45.285246"><ele>165.25</ele></trkpt>
<trkpt lon="0.859656" lat="45.285201"><ele>165.5</ele></trkpt>
<trkpt lon="0.859616" lat="45.285112"><ele>165.0</ele></trkpt>
<trkpt lon="0.859557" lat="45.284777"><ele>164.75</ele></trkpt>
<trkpt lon="0.859534" lat="45.284329"><ele>163.0</ele></trkpt>
<trkpt lon="0.859472" lat="45.283228"><ele>156.0</ele></trkpt>
<trkpt lon="0.859642" lat="45.282843"><ele>153.25</ele></trkpt>
<trkpt lon="0.859902" lat="45.282279"><ele>149.5</ele></trkpt>
<trkpt lon="0.860254" lat="45.281848"><ele>148.25</ele></trkpt>
<trkpt lon="0.860612" lat="45.281509"><ele>147.0</ele></trkpt>
<trkpt lon="0.860944" lat="45.281138"><ele>145.0</ele></trkpt>
<trkpt lon="0.861329" lat="45.280482"><ele>141.0</ele></trkpt>
<trkpt lon="0.861746" lat="45.279914"><ele>136.0</ele></trkpt>
<trkpt lon="0.861785" lat="45.279832"><ele>135.5</ele></trkpt>
<trkpt lon="0.861726" lat="45.279364"><ele>135.0</ele></trkpt>
<trkpt lon="0.861661" lat="45.278580"><ele>134.0</ele></trkpt>
<trkpt lon="0.861596" lat="45.278512"><ele>134.5</ele></trkpt>
<trkpt lon="0.861244" lat="45.278530"><ele>135.75</ele></trkpt>
<trkpt lon="0.860821" lat="45.278567"><ele>136.5</ele></trkpt>
<trkpt lon="0.859603" lat="45.278475"><ele>138.25</ele></trkpt>
<trkpt lon="0.858736" lat="45.278443"><ele>139.25</ele></trkpt>
<trkpt lon="0.858176" lat="45.278557"><ele>140.5</ele></trkpt>
<trkpt lon="0.857968" lat="45.278521"><ele>141.25</ele></trkpt>
<trkpt lon="0.856991" lat="45.278250"><ele>144.75</ele></trkpt>
<trkpt lon="0.856724" lat="45.278255"><ele>145.75</ele></trkpt>
<trkpt lon="0.856470" lat="45.278296"><ele>146.5</ele></trkpt>
<trkpt lon="0.855629" lat="45.278195"><ele>149.75</ele></trkpt>
<trkpt lon="0.855167" lat="45.278062"><ele>152.75</ele></trkpt>
<trkpt lon="0.854880" lat="45.278012"><ele>154.75</ele></trkpt>
<trkpt lon="0.854639" lat="45.277824"><ele>156.25</ele></trkpt>
<trkpt lon="0.854105" lat="45.277682"><ele>158.0</ele></trkpt>
<trkpt lon="0.854008" lat="45.277685"><ele>158.0</ele></trkpt>
<trkpt lon="0.853923" lat="45.277687"><ele>158.25</ele></trkpt>
<trkpt lon="0.853272" lat="45.277852"><ele>159.0</ele></trkpt>
<trkpt lon="0.853077" lat="45.277429"><ele>159.5</ele></trkpt>
<trkpt lon="0.852910" lat="45.276974"><ele>159.5</ele></trkpt>
<trkpt lon="0.852841" lat="45.276538"><ele>159.75</ele></trkpt>
<trkpt lon="0.852862" lat="45.276445"><ele>159.75</ele></trkpt>
<trkpt lon="0.852823" lat="45.276308"><ele>160.25</ele></trkpt>
<trkpt lon="0.852765" lat="45.275950"><ele>160.75</ele></trkpt>
<trkpt lon="0.852853" lat="45.275553"><ele>161.25</ele></trkpt>
<trkpt lon="0.852864" lat="45.275428"><ele>160.5</ele></trkpt>
<trkpt lon="0.852962" lat="45.275151"><ele>160.5</ele></trkpt>
<trkpt lon="0.853077" lat="45.274924"><ele>160.5</ele></trkpt>
<trkpt lon="0.853175" lat="45.274637"><ele>159.0</ele></trkpt>
<trkpt lon="0.853162" lat="45.274483"><ele>158.0</ele></trkpt>
<trkpt lon="0.853203" lat="45.274224"><ele>156.25</ele></trkpt>
<trkpt lon="0.853225" lat="45.273889"><ele>154.5</ele></trkpt>
<trkpt lon="0.853184" lat="45.273550"><ele>152.0</ele></trkpt>
<trkpt lon="0.853189" lat="45.273488"><ele>151.5</ele></trkpt>
<trkpt lon="0.853241" lat="45.273450"><ele>151.5</ele></trkpt>
<trkpt lon="0.853309" lat="45.273371"><ele>151.0</ele></trkpt>
<trkpt lon="0.853553" lat="45.273277"><ele>151.0</ele></trkpt>
<trkpt lon="0.853725" lat="45.273165"><ele>150.75</ele></trkpt>
<trkpt lon="0.853884" lat="45.272838"><ele>147.75</ele></trkpt>
<trkpt lon="0.853999" lat="45.272559"><ele>146.25</ele></trkpt>
<trkpt lon="0.854144" lat="45.272280"><ele>148.25</ele></trkpt>
<trkpt lon="0.854165" lat="45.272110"><ele>150.0</ele></trkpt>
<trkpt lon="0.854067" lat="45.271849"><ele>152.25</ele></trkpt>
<trkpt lon="0.853966" lat="45.271675"><ele>153.0</ele></trkpt>
<trkpt lon="0.853856" lat="45.271539"><ele>154.75</ele></trkpt>
<trkpt lon="0.853711" lat="45.271427"><ele>155.75</ele></trkpt>
<trkpt lon="0.853093" lat="45.271176"><ele>158.0</ele></trkpt>
<trkpt lon="0.852892" lat="45.270974"><ele>158.0</ele></trkpt>
<trkpt lon="0.852690" lat="45.270710"><ele>157.0</ele></trkpt>
<trkpt lon="0.852513" lat="45.270269"><ele>153.0</ele></trkpt>
<trkpt lon="0.852393" lat="45.269891"><ele>150.75</ele></trkpt>
<trkpt lon="0.852377" lat="45.269684"><ele>150.0</ele></trkpt>
<trkpt lon="0.852234" lat="45.269431"><ele>148.0</ele></trkpt>
<trkpt lon="0.852095" lat="45.269208"><ele>147.5</ele></trkpt>
<trkpt lon="0.851983" lat="45.268813"><ele>146.25</ele></trkpt>
<trkpt lon="0.851754" lat="45.268241"><ele>143.25</ele></trkpt>
<trkpt lon="0.851696" lat="45.267988"><ele>141.5</ele></trkpt>
<trkpt lon="0.851809" lat="45.267623"><ele>139.0</ele></trkpt>
<trkpt lon="0.851929" lat="45.267321"><ele>137.0</ele></trkpt>
<trkpt lon="0.852095" lat="45.267046"><ele>137.5</ele></trkpt>
<trkpt lon="0.852458" lat="45.266622"><ele>137.5</ele></trkpt>
<trkpt lon="0.852629" lat="45.266290"><ele>139.75</ele></trkpt>
<trkpt lon="0.852696" lat="45.266052"><ele>140.25</ele></trkpt>
<trkpt lon="0.852343" lat="45.265992"><ele>141.0</ele></trkpt>
<trkpt lon="0.852059" lat="45.265906"><ele>141.25</ele></trkpt>
<trkpt lon="0.851929" lat="45.265762"><ele>142.0</ele></trkpt>
<trkpt lon="0.851873" lat="45.265645"><ele>142.25</ele></trkpt>
<trkpt lon="0.851735" lat="45.265328"><ele>143.0</ele></trkpt>
<trkpt lon="0.851638" lat="45.265208"><ele>143.0</ele></trkpt>
<trkpt lon="0.851508" lat="45.265087"><ele>143.5</ele></trkpt>
<trkpt lon="0.850781" lat="45.264557"><ele>146.5</ele></trkpt>
<trkpt lon="0.850475" lat="45.264270"><ele>149.0</ele></trkpt>
<trkpt lon="0.850309" lat="45.264172"><ele>150.75</ele></trkpt>
<trkpt lon="0.849869" lat="45.264123"><ele>153.75</ele></trkpt>
<trkpt lon="0.849754" lat="45.264163"><ele>154.75</ele></trkpt>
<trkpt lon="0.849717" lat="45.264193"><ele>154.75</ele></trkpt>
<trkpt lon="0.849429" lat="45.264229"><ele>155.0</ele></trkpt>
<trkpt lon="0.849393" lat="45.263968"><ele>154.25</ele></trkpt>
<trkpt lon="0.849405" lat="45.263867"><ele>153.75</ele></trkpt>
<trkpt lon="0.849474" lat="45.263669"><ele>153.25</ele></trkpt>
<trkpt lon="0.849610" lat="45.263435"><ele>152.5</ele></trkpt>
<trkpt lon="0.849668" lat="45.263309"><ele>152.25</ele></trkpt>
<trkpt lon="0.849652" lat="45.262928"><ele>149.5</ele></trkpt>
<trkpt lon="0.849795" lat="45.262482"><ele>146.0</ele></trkpt>
<trkpt lon="0.849849" lat="45.262351"><ele>144.75</ele></trkpt>
<trkpt lon="0.849699" lat="45.262351"><ele>144.25</ele></trkpt>
<trkpt lon="0.849385" lat="45.262332"><ele>142.75</ele></trkpt>
<trkpt lon="0.848964" lat="45.262283"><ele>141.25</ele></trkpt>
<trkpt lon="0.848801" lat="45.262220"><ele>141.5</ele></trkpt>
<trkpt lon="0.848546" lat="45.262155"><ele>142.75</ele></trkpt>
<trkpt lon="0.848326" lat="45.262087"><ele>143.5</ele></trkpt>
<trkpt lon="0.848105" lat="45.262000"><ele>144.75</ele></trkpt>
<trkpt lon="0.847935" lat="45.261866"><ele>145.0</ele></trkpt>
<trkpt lon="0.847579" lat="45.261510"><ele>141.5</ele></trkpt>
<trkpt lon="0.847490" lat="45.261439"><ele>140.0</ele></trkpt>
<trkpt lon="0.847115" lat="45.261376"><ele>140.25</ele></trkpt>
<trkpt lon="0.846407" lat="45.261205"><ele>142.25</ele></trkpt>
<trkpt lon="0.846059" lat="45.261210"><ele>141.5</ele></trkpt>
<trkpt lon="0.845657" lat="45.261308"><ele>142.25</ele></trkpt>
<trkpt lon="0.845038" lat="45.261444"><ele>143.0</ele></trkpt>
<trkpt lon="0.844717" lat="45.261594"><ele>143.25</ele></trkpt>
<trkpt lon="0.843885" lat="45.261499"><ele>144.25</ele></trkpt>
<trkpt lon="0.843096" lat="45.261368"><ele>144.75</ele></trkpt>
<trkpt lon="0.842144" lat="45.260971"><ele>146.75</ele></trkpt>
<trkpt lon="0.841680" lat="45.260601"><ele>146.75</ele></trkpt>
<trkpt lon="0.841464" lat="45.260470"><ele>146.5</ele></trkpt>
<trkpt lon="0.841348" lat="45.260209"><ele>147.0</ele></trkpt>
<trkpt lon="0.841115" lat="45.259920"><ele>147.5</ele></trkpt>
<trkpt lon="0.840845" lat="45.259664"><ele>148.5</ele></trkpt>
<trkpt lon="0.840435" lat="45.259332"><ele>149.75</ele></trkpt>
<trkpt lon="0.840218" lat="45.259103"><ele>150.75</ele></trkpt>
<trkpt lon="0.840102" lat="45.259054"><ele>151.0</ele></trkpt>
<trkpt lon="0.839916" lat="45.259185"><ele>150.5</ele></trkpt>
<trkpt lon="0.839762" lat="45.259332"><ele>151.5</ele></trkpt>
<trkpt lon="0.839545" lat="45.259370"><ele>152.0</ele></trkpt>
<trkpt lon="0.839228" lat="45.259305"><ele>153.5</ele></trkpt>
<trkpt lon="0.838787" lat="45.259250"><ele>155.25</ele></trkpt>
<trkpt lon="0.838408" lat="45.259120"><ele>155.25</ele></trkpt>
<trkpt lon="0.838064" lat="45.258974"><ele>153.0</ele></trkpt>
<trkpt lon="0.837356" lat="45.258659"><ele>153.25</ele></trkpt>
<trkpt lon="0.836992" lat="45.258540"><ele>154.25</ele></trkpt>
<trkpt lon="0.836706" lat="45.258401"><ele>157.0</ele></trkpt>
<trkpt lon="0.836446" lat="45.258343"><ele>159.25</ele></trkpt>
<trkpt lon="0.835319" lat="45.258016"><ele>160.75</ele></trkpt>
<trkpt lon="0.834346" lat="45.257827"><ele>160.75</ele></trkpt>
<trkpt lon="0.833712" lat="45.258011"><ele>160.75</ele></trkpt>
<trkpt lon="0.833188" lat="45.257141"><ele>166.5</ele></trkpt>
<trkpt lon="0.831981" lat="45.255301"><ele>181.75</ele></trkpt>
<trkpt lon="0.831761" lat="45.254913"><ele>183.75</ele></trkpt>
<trkpt lon="0.831746" lat="45.254781"><ele>184.5</ele></trkpt>
<trkpt lon="0.831586" lat="45.254500"><ele>185.75</ele></trkpt>
<trkpt lon="0.831484" lat="45.254422"><ele>186.0</ele></trkpt>
<trkpt lon="0.831300" lat="45.254412"><ele>186.0</ele></trkpt>
<trkpt lon="0.830974" lat="45.254405"><ele>185.5</ele></trkpt>
<trkpt lon="0.830843" lat="45.254355"><ele>185.25</ele></trkpt>
<trkpt lon="0.830776" lat="45.254265"><ele>185.25</ele></trkpt>
<trkpt lon="0.830694" lat="45.254044"><ele>185.25</ele></trkpt>
<trkpt lon="0.830638" lat="45.253922"><ele>185.0</ele></trkpt>
<trkpt lon="0.830556" lat="45.253852"><ele>184.75</ele></trkpt>
<trkpt lon="0.830305" lat="45.253812"><ele>184.5</ele></trkpt>
<trkpt lon="0.830040" lat="45.253797"><ele>183.75</ele></trkpt>
<trkpt lon="0.829859" lat="45.253752"><ele>182.25</ele></trkpt>
<trkpt lon="0.829686" lat="45.253655"><ele>181.5</ele></trkpt>
<trkpt lon="0.829434" lat="45.253413"><ele>179.75</ele></trkpt>
<trkpt lon="0.829325" lat="45.253369"><ele>179.0</ele></trkpt>
<trkpt lon="0.828999" lat="45.253291"><ele>176.5</ele></trkpt>
<trkpt lon="0.828691" lat="45.253144"><ele>174.75</ele></trkpt>
<trkpt lon="0.828415" lat="45.252980"><ele>173.5</ele></trkpt>
<trkpt lon="0.828082" lat="45.252768"><ele>171.25</ele></trkpt>
<trkpt lon="0.827888" lat="45.252591"><ele>171.0</ele></trkpt>
<trkpt lon="0.827757" lat="45.252434"><ele>171.25</ele></trkpt>
<trkpt lon="0.827449" lat="45.251652"><ele>175.75</ele></trkpt>
<trkpt lon="0.827293" lat="45.251440"><ele>175.25</ele></trkpt>
<trkpt lon="0.826819" lat="45.250974"><ele>173.0</ele></trkpt>
<trkpt lon="0.826752" lat="45.250852"><ele>173.25</ele></trkpt>
<trkpt lon="0.826706" lat="45.250658"><ele>174.25</ele></trkpt>
<trkpt lon="0.826539" lat="45.250471"><ele>175.75</ele></trkpt>
<trkpt lon="0.826030" lat="45.250182"><ele>179.25</ele></trkpt>
<trkpt lon="0.825754" lat="45.250000"><ele>180.25</ele></trkpt>
<trkpt lon="0.825605" lat="45.249875"><ele>180.25</ele></trkpt>
<trkpt lon="0.824642" lat="45.249076"><ele>171.25</ele></trkpt>
<trkpt lon="0.824529" lat="45.248991"><ele>169.25</ele></trkpt>
<trkpt lon="0.824207" lat="45.248841"><ele>164.0</ele></trkpt>
<trkpt lon="0.824023" lat="45.248744"><ele>161.0</ele></trkpt>
<trkpt lon="0.823531" lat="45.248126"><ele>148.5</ele></trkpt>
<trkpt lon="0.823333" lat="45.247842"><ele>144.0</ele></trkpt>
<trkpt lon="0.823124" lat="45.247506"><ele>139.5</ele></trkpt>
<trkpt lon="0.822852" lat="45.247122"><ele>136.75</ele></trkpt>
<trkpt lon="0.822420" lat="45.246596"><ele>135.75</ele></trkpt>
<trkpt lon="0.822342" lat="45.246399"><ele>134.5</ele></trkpt>
<trkpt lon="0.822395" lat="45.245804"><ele>132.25</ele></trkpt>
<trkpt lon="0.822479" lat="45.245306"><ele>129.0</ele></trkpt>
<trkpt lon="0.822730" lat="45.245222"><ele>130.0</ele></trkpt>
<trkpt lon="0.823174" lat="45.245092"><ele>129.25</ele></trkpt>
<trkpt lon="0.823218" lat="45.245089"><ele>129.25</ele></trkpt>
<trkpt lon="0.823127" lat="45.244838"><ele>126.5</ele></trkpt>
<trkpt lon="0.822698" lat="45.244022"><ele>125.5</ele></trkpt>
<trkpt lon="0.822604" lat="45.243825"><ele>126.25</ele></trkpt>
<trkpt lon="0.822522" lat="45.243526"><ele>128.5</ele></trkpt>
<trkpt lon="0.822393" lat="45.242947"><ele>132.75</ele></trkpt>
<trkpt lon="0.822346" lat="45.242823"><ele>133.0</ele></trkpt>
<trkpt lon="0.822198" lat="45.242700"><ele>133.75</ele></trkpt>
<trkpt lon="0.821911" lat="45.242506"><ele>135.0</ele></trkpt>
<trkpt lon="0.821864" lat="45.242444"><ele>135.25</ele></trkpt>
<trkpt lon="0.821882" lat="45.242379"><ele>135.0</ele></trkpt>
<trkpt lon="0.822141" lat="45.242049"><ele>138.0</ele></trkpt>
<trkpt lon="0.822176" lat="45.241967"><ele>139.5</ele></trkpt>
<trkpt lon="0.822076" lat="45.241812"><ele>141.25</ele></trkpt>
<trkpt lon="0.822018" lat="45.241681"><ele>143.0</ele></trkpt>
<trkpt lon="0.821909" lat="45.241561"><ele>145.0</ele></trkpt>
<trkpt lon="0.821786" lat="45.241406"><ele>147.5</ele></trkpt>
<trkpt lon="0.821840" lat="45.241341"><ele>148.75</ele></trkpt>
<trkpt lon="0.822076" lat="45.241237"><ele>151.25</ele></trkpt>
<trkpt lon="0.822385" lat="45.241112"><ele>153.75</ele></trkpt>
<trkpt lon="0.822489" lat="45.241014"><ele>155.0</ele></trkpt>
<trkpt lon="0.822466" lat="45.240905"><ele>156.0</ele></trkpt>
<trkpt lon="0.822493" lat="45.240823"><ele>157.0</ele></trkpt>
<trkpt lon="0.822776" lat="45.240578"><ele>159.5</ele></trkpt>
<trkpt lon="0.823004" lat="45.240347"><ele>162.75</ele></trkpt>
<trkpt lon="0.823151" lat="45.240099"><ele>164.75</ele></trkpt>
<trkpt lon="0.823170" lat="45.240042"><ele>165.0</ele></trkpt>
<trkpt lon="0.823242" lat="45.239832"><ele>165.25</ele></trkpt>
<trkpt lon="0.823313" lat="45.239705"><ele>164.75</ele></trkpt>
<trkpt lon="0.823307" lat="45.239547"><ele>163.25</ele></trkpt>
<trkpt lon="0.823324" lat="45.239469"><ele>162.25</ele></trkpt>
<trkpt lon="0.822992" lat="45.239445"><ele>164.25</ele></trkpt>
<trkpt lon="0.822431" lat="45.239374"><ele>167.5</ele></trkpt>
<trkpt lon="0.821848" lat="45.239140"><ele>170.75</ele></trkpt>
<trkpt lon="0.821321" lat="45.238941"><ele>172.5</ele></trkpt>
<trkpt lon="0.821022" lat="45.238848"><ele>172.75</ele></trkpt>
<trkpt lon="0.820126" lat="45.238782"><ele>177.75</ele></trkpt>
<trkpt lon="0.819337" lat="45.238562"><ele>185.0</ele></trkpt>
<trkpt lon="0.818690" lat="45.238177"><ele>189.75</ele></trkpt>
<trkpt lon="0.817365" lat="45.237315"><ele>190.5</ele></trkpt>
<trkpt lon="0.816835" lat="45.236895"><ele>189.25</ele></trkpt>
<trkpt lon="0.815674" lat="45.236353"><ele>187.25</ele></trkpt>
<trkpt lon="0.815346" lat="45.236133"><ele>186.75</ele></trkpt>
<trkpt lon="0.815045" lat="45.235945"><ele>188.75</ele></trkpt>
<trkpt lon="0.814852" lat="45.235778"><ele>190.5</ele></trkpt>
<trkpt lon="0.814701" lat="45.235648"><ele>192.0</ele></trkpt>
<trkpt lon="0.814274" lat="45.235332"><ele>195.25</ele></trkpt>
<trkpt lon="0.813858" lat="45.234962"><ele>199.5</ele></trkpt>
<trkpt lon="0.813536" lat="45.234643"><ele>202.25</ele></trkpt>
<trkpt lon="0.813377" lat="45.234519"><ele>202.5</ele></trkpt>
<trkpt lon="0.813163" lat="45.234394"><ele>203.0</ele></trkpt>
<trkpt lon="0.812994" lat="45.234350"><ele>203.0</ele></trkpt>
<trkpt lon="0.812833" lat="45.234336"><ele>203.0</ele></trkpt>
<trkpt lon="0.811840" lat="45.234302"><ele>202.25</ele></trkpt>
<trkpt lon="0.811547" lat="45.234268"><ele>202.25</ele></trkpt>
<trkpt lon="0.811435" lat="45.234234"><ele>202.0</ele></trkpt>
<trkpt lon="0.811319" lat="45.234225"><ele>202.25</ele></trkpt>
<trkpt lon="0.810995" lat="45.234215"><ele>203.0</ele></trkpt>
<trkpt lon="0.810679" lat="45.234213"><ele>202.75</ele></trkpt>
<trkpt lon="0.810443" lat="45.234172"><ele>202.75</ele></trkpt>
<trkpt lon="0.810209" lat="45.234082"><ele>202.5</ele></trkpt>
<trkpt lon="0.809343" lat="45.233577"><ele>200.5</ele></trkpt>
<trkpt lon="0.808995" lat="45.233489"><ele>200.0</ele></trkpt>
<trkpt lon="0.807583" lat="45.233327"><ele>196.0</ele></trkpt>
<trkpt lon="0.806304" lat="45.233705"><ele>192.75</ele></trkpt>
<trkpt lon="0.805702" lat="45.233820"><ele>192.0</ele></trkpt>
<trkpt lon="0.804934" lat="45.233846"><ele>192.25</ele></trkpt>
<trkpt lon="0.804795" lat="45.233544"><ele>194.25</ele></trkpt>
<trkpt lon="0.804663" lat="45.233294"><ele>195.0</ele></trkpt>
<trkpt lon="0.804516" lat="45.232912"><ele>195.25</ele></trkpt>
<trkpt lon="0.804238" lat="45.232465"><ele>193.5</ele></trkpt>
<trkpt lon="0.803994" lat="45.232181"><ele>191.5</ele></trkpt>
<trkpt lon="0.803897" lat="45.232119"><ele>191.25</ele></trkpt>
<trkpt lon="0.803673" lat="45.232182"><ele>191.5</ele></trkpt>
<trkpt lon="0.802696" lat="45.232489"><ele>191.75</ele></trkpt>
<trkpt lon="0.802312" lat="45.232575"><ele>192.5</ele></trkpt>
<trkpt lon="0.801115" lat="45.232937"><ele>196.75</ele></trkpt>
<trkpt lon="0.800098" lat="45.233324"><ele>206.25</ele></trkpt>
<trkpt lon="0.799726" lat="45.233289"><ele>208.75</ele></trkpt>
<trkpt lon="0.799436" lat="45.233228"><ele>210.0</ele></trkpt>
<trkpt lon="0.798758" lat="45.233047"><ele>209.5</ele></trkpt>
<trkpt lon="0.798315" lat="45.232870"><ele>208.5</ele></trkpt>
<trkpt lon="0.798009" lat="45.232719"><ele>208.25</ele></trkpt>
<trkpt lon="0.797664" lat="45.232527"><ele>209.25</ele></trkpt>
<trkpt lon="0.797117" lat="45.232207"><ele>209.75</ele></trkpt>
<trkpt lon="0.796893" lat="45.232103"><ele>210.25</ele></trkpt>
<trkpt lon="0.796652" lat="45.232068"><ele>209.0</ele></trkpt>
<trkpt lon="0.796155" lat="45.232076"><ele>209.5</ele></trkpt>
<trkpt lon="0.795882" lat="45.232090"><ele>209.25</ele></trkpt>
<trkpt lon="0.795558" lat="45.232118"><ele>209.5</ele></trkpt>
<trkpt lon="0.795338" lat="45.232129"><ele>208.75</ele></trkpt>
<trkpt lon="0.795241" lat="45.232134"><ele>208.25</ele></trkpt>
<trkpt lon="0.794814" lat="45.232134"><ele>205.25</ele></trkpt>
<trkpt lon="0.794645" lat="45.232122"><ele>204.0</ele></trkpt>
<trkpt lon="0.794311" lat="45.232041"><ele>201.75</ele></trkpt>
<trkpt lon="0.794038" lat="45.231964"><ele>199.75</ele></trkpt>
<trkpt lon="0.793693" lat="45.231883"><ele>199.0</ele></trkpt>
<trkpt lon="0.793261" lat="45.231795"><ele>198.0</ele></trkpt>
<trkpt lon="0.792977" lat="45.231787"><ele>197.5</ele></trkpt>
<trkpt lon="0.792566" lat="45.231795"><ele>200.0</ele></trkpt>
<trkpt lon="0.792188" lat="45.231819"><ele>201.5</ele></trkpt>
<trkpt lon="0.791427" lat="45.231874"><ele>203.5</ele></trkpt>
<trkpt lon="0.790879" lat="45.231939"><ele>205.5</ele></trkpt>
<trkpt lon="0.790368" lat="45.231879"><ele>206.0</ele></trkpt>
<trkpt lon="0.789873" lat="45.231765"><ele>205.0</ele></trkpt>
<trkpt lon="0.789416" lat="45.231689"><ele>202.75</ele></trkpt>
<trkpt lon="0.789258" lat="45.231817"><ele>202.5</ele></trkpt>
<trkpt lon="0.789163" lat="45.231895"><ele>202.5</ele></trkpt>
<trkpt lon="0.788938" lat="45.231915"><ele>201.75</ele></trkpt>
<trkpt lon="0.788068" lat="45.231879"><ele>197.75</ele></trkpt>
<trkpt lon="0.787303" lat="45.231865"><ele>193.0</ele></trkpt>
<trkpt lon="0.786973" lat="45.231780"><ele>189.75</ele></trkpt>
<trkpt lon="0.787196" lat="45.231181"><ele>184.5</ele></trkpt>
<trkpt lon="0.787329" lat="45.230898"><ele>182.0</ele></trkpt>
<trkpt lon="0.787188" lat="45.230702"><ele>181.75</ele></trkpt>
<trkpt lon="0.786644" lat="45.230188"><ele>179.25</ele></trkpt>
<trkpt lon="0.786193" lat="45.229680"><ele>178.0</ele></trkpt>
<trkpt lon="0.786128" lat="45.229524"><ele>176.75</ele></trkpt>
<trkpt lon="0.786125" lat="45.229302"><ele>176.5</ele></trkpt>
<trkpt lon="0.785704" lat="45.229079"><ele>174.75</ele></trkpt>
<trkpt lon="0.783854" lat="45.228314"><ele>168.25</ele></trkpt>
<trkpt lon="0.781913" lat="45.227777"><ele>164.75</ele></trkpt>
<trkpt lon="0.780880" lat="45.226286"><ele>161.75</ele></trkpt>
<trkpt lon="0.780314" lat="45.226009"><ele>160.5</ele></trkpt>
<trkpt lon="0.779984" lat="45.225832"><ele>158.0</ele></trkpt>
<trkpt lon="0.779654" lat="45.225444"><ele>158.5</ele></trkpt>
<trkpt lon="0.779410" lat="45.224808"><ele>157.0</ele></trkpt>
<trkpt lon="0.779182" lat="45.224369"><ele>156.25</ele></trkpt>
<trkpt lon="0.778947" lat="45.224192"><ele>155.5</ele></trkpt>
<trkpt lon="0.778679" lat="45.223865"><ele>154.5</ele></trkpt>
<trkpt lon="0.778624" lat="45.223151"><ele>152.25</ele></trkpt>
<trkpt lon="0.778239" lat="45.222614"><ele>152.0</ele></trkpt>
<trkpt lon="0.777878" lat="45.221712"><ele>149.75</ele></trkpt>
<trkpt lon="0.777701" lat="45.220941"><ele>147.75</ele></trkpt>
<trkpt lon="0.777629" lat="45.220913"><ele>147.0</ele></trkpt>
<trkpt lon="0.777565" lat="45.220709"><ele>146.5</ele></trkpt>
<trkpt lon="0.777415" lat="45.220325"><ele>145.5</ele></trkpt>
<trkpt lon="0.777249" lat="45.220164"><ele>146.25</ele></trkpt>
<trkpt lon="0.776368" lat="45.219906"><ele>145.25</ele></trkpt>
<trkpt lon="0.775940" lat="45.219715"><ele>143.25</ele></trkpt>
<trkpt lon="0.775446" lat="45.219307"><ele>143.75</ele></trkpt>
<trkpt lon="0.775115" lat="45.219135"><ele>142.0</ele></trkpt>
<trkpt lon="0.774790" lat="45.218931"><ele>141.0</ele></trkpt>
<trkpt lon="0.774477" lat="45.218734"><ele>140.25</ele></trkpt>
<trkpt lon="0.774374" lat="45.218616"><ele>140.25</ele></trkpt>
<trkpt lon="0.774256" lat="45.218253"><ele>139.0</ele></trkpt>
<trkpt lon="0.774120" lat="45.218154"><ele>139.25</ele></trkpt>
<trkpt lon="0.774039" lat="45.217936"><ele>139.5</ele></trkpt>
<trkpt lon="0.773979" lat="45.217486"><ele>138.75</ele></trkpt>
<trkpt lon="0.773651" lat="45.216890"><ele>136.5</ele></trkpt>
<trkpt lon="0.773416" lat="45.216551"><ele>136.25</ele></trkpt>
<trkpt lon="0.773101" lat="45.216344"><ele>135.5</ele></trkpt>
<trkpt lon="0.772552" lat="45.215942"><ele>135.0</ele></trkpt>
<trkpt lon="0.772338" lat="45.215550"><ele>133.75</ele></trkpt>
<trkpt lon="0.772110" lat="45.214682"><ele>133.0</ele></trkpt>
<trkpt lon="0.771848" lat="45.214098"><ele>132.0</ele></trkpt>
<trkpt lon="0.771703" lat="45.213641"><ele>131.0</ele></trkpt>
<trkpt lon="0.771697" lat="45.213082"><ele>130.0</ele></trkpt>
<trkpt lon="0.771633" lat="45.212897"><ele>129.75</ele></trkpt>
<trkpt lon="0.771562" lat="45.212758"><ele>129.5</ele></trkpt>
<trkpt lon="0.771496" lat="45.212662"><ele>129.5</ele></trkpt>
<trkpt lon="0.771442" lat="45.212616"><ele>129.25</ele></trkpt>
<trkpt lon="0.771374" lat="45.212597"><ele>128.75</ele></trkpt>
<trkpt lon="0.771324" lat="45.212599"><ele>128.5</ele></trkpt>
<trkpt lon="0.771311" lat="45.212510"><ele>128.25</ele></trkpt>
<trkpt lon="0.771202" lat="45.212502"><ele>127.5</ele></trkpt>
<trkpt lon="0.770567" lat="45.212388"><ele>126.5</ele></trkpt>
<trkpt lon="0.770312" lat="45.212301"><ele>126.25</ele></trkpt>
<trkpt lon="0.770250" lat="45.212238"><ele>126.0</ele></trkpt>
<trkpt lon="0.770008" lat="45.211855"><ele>125.0</ele></trkpt>
<trkpt lon="0.769216" lat="45.210909"><ele>123.25</ele></trkpt>
<trkpt lon="0.768968" lat="45.210592"><ele>122.5</ele></trkpt>
<trkpt lon="0.768989" lat="45.210434"><ele>122.5</ele></trkpt>
<trkpt lon="0.769130" lat="45.210071"><ele>122.25</ele></trkpt>
<trkpt lon="0.769233" lat="45.209780"><ele>121.75</ele></trkpt>
<trkpt lon="0.769238" lat="45.209434"><ele>121.5</ele></trkpt>
<trkpt lon="0.769182" lat="45.209055"><ele>120.0</ele></trkpt>
<trkpt lon="0.769141" lat="45.208334"><ele>119.0</ele></trkpt>
<trkpt lon="0.769108" lat="45.208008"><ele>119.25</ele></trkpt>
<trkpt lon="0.769115" lat="45.207801"><ele>119.0</ele></trkpt>
<trkpt lon="0.768860" lat="45.207092"><ele>117.75</ele></trkpt>
<trkpt lon="0.768834" lat="45.207017"><ele>117.75</ele></trkpt>
<trkpt lon="0.768432" lat="45.206091"><ele>116.5</ele></trkpt>
<trkpt lon="0.767992" lat="45.204928"><ele>115.0</ele></trkpt>
<trkpt lon="0.767999" lat="45.204707"><ele>115.0</ele></trkpt>
<trkpt lon="0.768304" lat="45.203733"><ele>115.5</ele></trkpt>
<trkpt lon="0.768426" lat="45.203436"><ele>114.5</ele></trkpt>
<trkpt lon="0.768423" lat="45.203361"><ele>113.75</ele></trkpt>
<trkpt lon="0.768411" lat="45.203321"><ele>113.5</ele></trkpt>
<trkpt lon="0.768343" lat="45.203243"><ele>113.0</ele></trkpt>
<trkpt lon="0.768051" lat="45.203035"><ele>113.75</ele></trkpt>
<trkpt lon="0.767704" lat="45.202849"><ele>115.0</ele></trkpt>
<trkpt lon="0.767615" lat="45.202764"><ele>115.5</ele></trkpt>
<trkpt lon="0.767120" lat="45.202671"><ele>117.75</ele></trkpt>
<trkpt lon="0.766868" lat="45.202561"><ele>119.0</ele></trkpt>
<trkpt lon="0.766138" lat="45.202418"><ele>123.75</ele></trkpt>
<trkpt lon="0.765503" lat="45.202391"><ele>130.25</ele></trkpt>
<trkpt lon="0.764449" lat="45.202716"><ele>144.75</ele></trkpt>
<trkpt lon="0.764003" lat="45.202871"><ele>151.25</ele></trkpt>
<trkpt lon="0.763649" lat="45.203154"><ele>155.0</ele></trkpt>
<trkpt lon="0.763006" lat="45.203487"><ele>161.5</ele></trkpt>
<trkpt lon="0.762877" lat="45.203506"><ele>163.0</ele></trkpt>
<trkpt lon="0.762710" lat="45.203408"><ele>165.25</ele></trkpt>
<trkpt lon="0.762496" lat="45.203332"><ele>168.0</ele></trkpt>
<trkpt lon="0.761267" lat="45.203030"><ele>178.25</ele></trkpt>
<trkpt lon="0.760999" lat="45.203000"><ele>179.5</ele></trkpt>
<trkpt lon="0.760672" lat="45.203037"><ele>181.25</ele></trkpt>
<trkpt lon="0.760361" lat="45.203143"><ele>182.5</ele></trkpt>
<trkpt lon="0.759889" lat="45.203257"><ele>186.0</ele></trkpt>
<trkpt lon="0.759645" lat="45.203280"><ele>188.25</ele></trkpt>
<trkpt lon="0.759420" lat="45.203277"><ele>190.75</ele></trkpt>
<trkpt lon="0.759294" lat="45.203253"><ele>192.25</ele></trkpt>
<trkpt lon="0.759185" lat="45.203259"><ele>193.25</ele></trkpt>
<trkpt lon="0.758152" lat="45.203396"><ele>200.0</ele></trkpt>
<trkpt lon="0.757662" lat="45.203469"><ele>203.25</ele></trkpt>
<trkpt lon="0.757544" lat="45.203517"><ele>204.0</ele></trkpt>
<trkpt lon="0.757335" lat="45.203712"><ele>203.0</ele></trkpt>
<trkpt lon="0.756926" lat="45.203915"><ele>201.5</ele></trkpt>
<trkpt lon="0.756873" lat="45.203967"><ele>201.0</ele></trkpt>
<trkpt lon="0.756779" lat="45.204260"><ele>198.5</ele></trkpt>
<trkpt lon="0.755630" lat="45.203951"><ele>195.5</ele></trkpt>
<trkpt lon="0.755130" lat="45.203771"><ele>193.75</ele></trkpt>
<trkpt lon="0.754358" lat="45.203453"><ele>189.5</ele></trkpt>
<trkpt lon="0.753904" lat="45.203259"><ele>187.5</ele></trkpt>
<trkpt lon="0.753540" lat="45.203017"><ele>189.0</ele></trkpt>
<trkpt lon="0.752681" lat="45.202152"><ele>192.0</ele></trkpt>
<trkpt lon="0.752655" lat="45.202063"><ele>191.75</ele></trkpt>
<trkpt lon="0.752694" lat="45.201914"><ele>192.25</ele></trkpt>
<trkpt lon="0.753180" lat="45.201474"><ele>195.5</ele></trkpt>
<trkpt lon="0.754504" lat="45.200355"><ele>193.75</ele></trkpt>
<trkpt lon="0.754631" lat="45.200241"><ele>193.25</ele></trkpt>
<trkpt lon="0.754750" lat="45.200099"><ele>193.25</ele></trkpt>
<trkpt lon="0.754689" lat="45.200026"><ele>192.75</ele></trkpt>
<trkpt lon="0.754487" lat="45.199741"><ele>189.25</ele></trkpt>
<trkpt lon="0.754458" lat="45.199716"><ele>189.0</ele></trkpt>
<trkpt lon="0.754405" lat="45.199697"><ele>188.75</ele></trkpt>
<trkpt lon="0.754321" lat="45.199681"><ele>188.25</ele></trkpt>
<trkpt lon="0.753586" lat="45.199685"><ele>182.25</ele></trkpt>
<trkpt lon="0.753457" lat="45.199609"><ele>180.5</ele></trkpt>
<trkpt lon="0.753510" lat="45.199431"><ele>178.0</ele></trkpt>
<trkpt lon="0.753548" lat="45.198702"><ele>167.5</ele></trkpt>
<trkpt lon="0.753505" lat="45.198233"><ele>160.5</ele></trkpt>
<trkpt lon="0.753375" lat="45.197853"><ele>153.75</ele></trkpt>
<trkpt lon="0.753235" lat="45.197602"><ele>149.5</ele></trkpt>
<trkpt lon="0.753100" lat="45.197389"><ele>146.25</ele></trkpt>
<trkpt lon="0.752999" lat="45.197314"><ele>144.75</ele></trkpt>
<trkpt lon="0.752883" lat="45.197248"><ele>143.25</ele></trkpt>
<trkpt lon="0.752750" lat="45.197200"><ele>142.0</ele></trkpt>
<trkpt lon="0.752425" lat="45.197130"><ele>139.25</ele></trkpt>
<trkpt lon="0.752290" lat="45.197068"><ele>137.75</ele></trkpt>
<trkpt lon="0.752103" lat="45.196947"><ele>135.5</ele></trkpt>
<trkpt lon="0.751957" lat="45.196809"><ele>134.0</ele></trkpt>
<trkpt lon="0.751764" lat="45.196467"><ele>130.75</ele></trkpt>
<trkpt lon="0.751762" lat="45.196381"><ele>130.25</ele></trkpt>
<trkpt lon="0.751628" lat="45.195989"><ele>125.0</ele></trkpt>
<trkpt lon="0.751546" lat="45.195810"><ele>123.5</ele></trkpt>
<trkpt lon="0.751277" lat="45.195020"><ele>118.0</ele></trkpt>
<trkpt lon="0.751228" lat="45.194929"><ele>117.0</ele></trkpt>
<trkpt lon="0.751136" lat="45.194804"><ele>115.25</ele></trkpt>
<trkpt lon="0.751058" lat="45.194743"><ele>114.75</ele></trkpt>
<trkpt lon="0.750911" lat="45.194654"><ele>114.25</ele></trkpt>
<trkpt lon="0.749730" lat="45.194203"><ele>108.0</ele></trkpt>
<trkpt lon="0.749669" lat="45.194163"><ele>108.75</ele></trkpt>
<trkpt lon="0.749635" lat="45.194124"><ele>109.75</ele></trkpt>
<trkpt lon="0.749762" lat="45.193872"><ele>110.5</ele></trkpt>
<trkpt lon="0.749950" lat="45.193305"><ele>113.0</ele></trkpt>
<trkpt lon="0.749956" lat="45.193118"><ele>113.5</ele></trkpt>
<trkpt lon="0.749860" lat="45.192482"><ele>113.25</ele></trkpt>
<trkpt lon="0.749789" lat="45.192292"><ele>112.75</ele></trkpt>
<trkpt lon="0.749601" lat="45.192351"><ele>115.25</ele></trkpt>
<trkpt lon="0.749482" lat="45.192353"><ele>116.5</ele></trkpt>
<trkpt lon="0.749237" lat="45.192204"><ele>117.5</ele></trkpt>
<trkpt lon="0.748839" lat="45.192023"><ele>119.25</ele></trkpt>
<trkpt lon="0.748531" lat="45.191955"><ele>120.25</ele></trkpt>
<trkpt lon="0.747594" lat="45.191847"><ele>118.75</ele></trkpt>
<trkpt lon="0.747260" lat="45.191734"><ele>115.25</ele></trkpt>
<trkpt lon="0.747247" lat="45.191648"><ele>112.75</ele></trkpt>
<trkpt lon="0.746434" lat="45.191921"><ele>120.0</ele></trkpt>
<trkpt lon="0.745061" lat="45.192308"><ele>129.5</ele></trkpt>
<trkpt lon="0.744353" lat="45.192503"><ele>131.75</ele></trkpt>
<trkpt lon="0.743916" lat="45.192579"><ele>133.0</ele></trkpt>
<trkpt lon="0.743899" lat="45.192490"><ele>129.5</ele></trkpt>
<trkpt lon="0.743861" lat="45.192450"><ele>128.0</ele></trkpt>
<trkpt lon="0.743758" lat="45.192443"><ele>127.75</ele></trkpt>
<trkpt lon="0.743299" lat="45.192490"><ele>129.25</ele></trkpt>
<trkpt lon="0.743111" lat="45.192497"><ele>127.5</ele></trkpt>
<trkpt lon="0.742969" lat="45.192455"><ele>125.5</ele></trkpt>
<trkpt lon="0.742706" lat="45.192318"><ele>120.0</ele></trkpt>
<trkpt lon="0.742366" lat="45.192252"><ele>115.25</ele></trkpt>
<trkpt lon="0.742195" lat="45.192255"><ele>113.25</ele></trkpt>
<trkpt lon="0.742065" lat="45.192314"><ele>112.0</ele></trkpt>
<trkpt lon="0.741875" lat="45.192281"><ele>108.0</ele></trkpt>
<trkpt lon="0.741726" lat="45.192235"><ele>106.5</ele></trkpt>
<trkpt lon="0.741470" lat="45.191932"><ele>100.0</ele></trkpt>
<trkpt lon="0.741444" lat="45.191881"><ele>99.25</ele></trkpt>
<trkpt lon="0.741353" lat="45.191860"><ele>98.75</ele></trkpt>
<trkpt lon="0.741050" lat="45.191745"><ele>97.75</ele></trkpt>
<trkpt lon="0.740952" lat="45.191740"><ele>98.0</ele></trkpt>
<trkpt lon="0.740915" lat="45.191282"><ele>92.75</ele></trkpt>
<trkpt lon="0.740911" lat="45.191062"><ele>91.0</ele></trkpt>
<trkpt lon="0.740927" lat="45.190965"><ele>89.75</ele></trkpt>
<trkpt lon="0.741027" lat="45.190575"><ele>88.0</ele></trkpt>
<trkpt lon="0.741017" lat="45.190493"><ele>88.0</ele></trkpt>
<trkpt lon="0.741005" lat="45.190459"><ele>88.0</ele></trkpt>
<trkpt lon="0.740996" lat="45.190432"><ele>88.25</ele></trkpt>
<trkpt lon="0.740980" lat="45.190402"><ele>88.25</ele></trkpt>
<trkpt lon="0.740975" lat="45.190380"><ele>88.25</ele></trkpt>
<trkpt lon="0.740966" lat="45.190341"><ele>88.25</ele></trkpt>
<trkpt lon="0.740969" lat="45.190298"><ele>88.25</ele></trkpt>
<trkpt lon="0.741001" lat="45.190202"><ele>88.25</ele></trkpt>
<trkpt lon="0.741018" lat="45.189993"><ele>88.25</ele></trkpt>
<trkpt lon="0.740977" lat="45.189825"><ele>87.5</ele></trkpt>
<trkpt lon="0.740896" lat="45.189604"><ele>87.5</ele></trkpt>
<trkpt lon="0.740691" lat="45.189083"><ele>87.0</ele></trkpt>
<trkpt lon="0.740660" lat="45.189017"><ele>87.0</ele></trkpt>
<trkpt lon="0.740579" lat="45.188898"><ele>87.0</ele></trkpt>
<trkpt lon="0.740564" lat="45.188850"><ele>87.0</ele></trkpt>
<trkpt lon="0.740553" lat="45.188803"><ele>87.0</ele></trkpt>
<trkpt lon="0.740371" lat="45.188831"><ele>87.0</ele></trkpt>
<trkpt lon="0.740326" lat="45.188826"><ele>87.0</ele></trkpt>
<trkpt lon="0.740291" lat="45.188813"><ele>87.0</ele></trkpt>
<trkpt lon="0.739790" lat="45.188509"><ele>87.0</ele></trkpt>
<trkpt lon="0.739628" lat="45.188407"><ele>86.5</ele></trkpt>
<trkpt lon="0.739564" lat="45.188344"><ele>86.25</ele></trkpt>
<trkpt lon="0.739507" lat="45.188274"><ele>86.25</ele></trkpt>
<trkpt lon="0.739466" lat="45.188244"><ele>86.0</ele></trkpt>
<trkpt lon="0.739363" lat="45.188188"><ele>86.0</ele></trkpt>
<trkpt lon="0.739308" lat="45.188171"><ele>86.25</ele></trkpt>
<trkpt lon="0.738480" lat="45.188020"><ele>86.0</ele></trkpt>
<trkpt lon="0.738294" lat="45.187992"><ele>86.0</ele></trkpt>
<trkpt lon="0.738178" lat="45.187986"><ele>85.75</ele></trkpt>
<trkpt lon="0.738114" lat="45.187992"><ele>85.5</ele></trkpt>
<trkpt lon="0.737880" lat="45.188048"><ele>85.75</ele></trkpt>
<trkpt lon="0.737113" lat="45.188248"><ele>85.25</ele></trkpt>
<trkpt lon="0.737008" lat="45.188291"><ele>85.5</ele></trkpt>
<trkpt lon="0.736708" lat="45.188367"><ele>85.25</ele></trkpt>
<trkpt lon="0.736638" lat="45.188385"><ele>85.25</ele></trkpt>
<trkpt lon="0.736450" lat="45.188433"><ele>85.25</ele></trkpt>
<trkpt lon="0.736246" lat="45.188038"><ele>85.5</ele></trkpt>
<trkpt lon="0.735981" lat="45.188086"><ele>85.75</ele></trkpt>
<trkpt lon="0.735937" lat="45.188086"><ele>85.75</ele></trkpt>
<trkpt lon="0.735915" lat="45.188039"><ele>86.0</ele></trkpt>
<trkpt lon="0.734521" lat="45.188259"><ele>84.75</ele></trkpt>
<trkpt lon="0.733766" lat="45.188276"><ele>85.0</ele></trkpt>
<trkpt lon="0.733184" lat="45.188238"><ele>84.75</ele></trkpt>
<trkpt lon="0.732051" lat="45.188122"><ele>86.25</ele></trkpt>
<trkpt lon="0.731297" lat="45.187994"><ele>85.25</ele></trkpt>
<trkpt lon="0.730928" lat="45.187864"><ele>85.5</ele></trkpt>
<trkpt lon="0.730768" lat="45.187771"><ele>85.75</ele></trkpt>
<trkpt lon="0.730611" lat="45.187680"><ele>85.75</ele></trkpt>
<trkpt lon="0.730602" lat="45.187675"><ele>85.75</ele></trkpt>
<trkpt lon="0.730100" lat="45.187383"><ele>85.5</ele></trkpt>
<trkpt lon="0.729697" lat="45.187148"><ele>86.0</ele></trkpt>
<trkpt lon="0.728370" lat="45.186353"><ele>85.25</ele></trkpt>
<trkpt lon="0.728195" lat="45.186223"><ele>85.5</ele></trkpt>
<trkpt lon="0.728129" lat="45.186173"><ele>85.75</ele></trkpt>
<trkpt lon="0.727470" lat="45.185668"><ele>85.5</ele></trkpt>
<trkpt lon="0.727244" lat="45.185495"><ele>85.25</ele></trkpt>
<trkpt lon="0.726704" lat="45.185091"><ele>85.25</ele></trkpt>
<trkpt lon="0.726561" lat="45.184976"><ele>85.25</ele></trkpt>
<trkpt lon="0.726530" lat="45.184942"><ele>85.25</ele></trkpt>
<trkpt lon="0.726274" lat="45.184640"><ele>85.25</ele></trkpt>
<trkpt lon="0.725992" lat="45.184323"><ele>85.75</ele></trkpt>
<trkpt lon="0.725651" lat="45.183925"><ele>86.0</ele></trkpt>
<trkpt lon="0.725529" lat="45.183764"><ele>86.25</ele></trkpt>
<trkpt lon="0.725505" lat="45.183712"><ele>86.25</ele></trkpt>
<trkpt lon="0.725503" lat="45.183677"><ele>86.25</ele></trkpt>
<trkpt lon="0.725525" lat="45.183628"><ele>86.5</ele></trkpt>
<trkpt lon="0.725483" lat="45.183592"><ele>86.5</ele></trkpt>
<trkpt lon="0.725322" lat="45.183365"><ele>88.25</ele></trkpt>
<trkpt lon="0.725262" lat="45.183391"><ele>87.75</ele></trkpt>
<trkpt lon="0.725241" lat="45.183399"><ele>87.75</ele></trkpt>
<trkpt lon="0.724581" lat="45.183674"><ele>88.0</ele></trkpt>
<trkpt lon="0.724544" lat="45.183710"><ele>88.25</ele></trkpt>
<trkpt lon="0.724464" lat="45.183745"><ele>88.25</ele></trkpt>
<trkpt lon="0.724405" lat="45.183766"><ele>88.5</ele></trkpt>
<trkpt lon="0.724377" lat="45.183759"><ele>88.75</ele></trkpt>
<trkpt lon="0.724344" lat="45.183763"><ele>89.0</ele></trkpt>
<trkpt lon="0.724134" lat="45.183857"><ele>90.25</ele></trkpt>
<trkpt lon="0.723818" lat="45.183992"><ele>94.75</ele></trkpt>
<trkpt lon="0.723604" lat="45.184071"><ele>95.5</ele></trkpt>
<trkpt lon="0.723481" lat="45.184105"><ele>96.5</ele></trkpt>
<trkpt lon="0.723316" lat="45.184147"><ele>97.75</ele></trkpt>
<trkpt lon="0.723216" lat="45.184163"><ele>98.25</ele></trkpt>
<trkpt lon="0.723052" lat="45.184165"><ele>99.0</ele></trkpt>
<trkpt lon="0.722919" lat="45.184178"><ele>100.0</ele></trkpt>
<trkpt lon="0.722850" lat="45.184191"><ele>100.5</ele></trkpt>
<trkpt lon="0.722780" lat="45.184182"><ele>100.75</ele></trkpt>
<trkpt lon="0.722753" lat="45.184174"><ele>101.0</ele></trkpt>
<trkpt lon="0.722468" lat="45.184119"><ele>101.5</ele></trkpt>
<trkpt lon="0.721907" lat="45.184078"><ele>104.0</ele></trkpt>
<trkpt lon="0.721728" lat="45.184073"><ele>104.0</ele></trkpt>
<trkpt lon="0.721750" lat="45.184207"><ele>104.0</ele></trkpt>
<trkpt lon="0.721545" lat="45.184216"><ele>104.0</ele></trkpt>
<trkpt lon="0.721259" lat="45.184188"><ele>104.5</ele></trkpt>
<trkpt lon="0.721194" lat="45.184124"><ele>104.5</ele></trkpt>
<trkpt lon="0.721095" lat="45.184126"><ele>105.0</ele></trkpt>
  </trkseg></trk></gpx>
