<?xml version="1.0" encoding="UTF-8"?>
<gpx version="1.1" creator="compostel-brouter" xmlns="http://www.topografix.com/GPX/1/1">
  <metadata><name>FR-24-Bellac</name></metadata>
  <trk><name>FR-24-Bellac</name><trkseg>
<trkpt lon="1.081554" lat="46.214652"><ele>220.5</ele></trkpt>
<trkpt lon="1.081561" lat="46.214643"><ele>220.5</ele></trkpt>
<trkpt lon="1.081612" lat="46.214498"><ele>219.5</ele></trkpt>
<trkpt lon="1.081605" lat="46.214387"><ele>219.25</ele></trkpt>
<trkpt lon="1.081610" lat="46.214145"><ele>218.5</ele></trkpt>
<trkpt lon="1.081596" lat="46.213544"><ele>220.0</ele></trkpt>
<trkpt lon="1.081564" lat="46.213011"><ele>214.5</ele></trkpt>
<trkpt lon="1.081569" lat="46.212953"><ele>213.25</ele></trkpt>
<trkpt lon="1.081585" lat="46.212920"><ele>212.5</ele></trkpt>
<trkpt lon="1.081761" lat="46.212957"><ele>212.5</ele></trkpt>
<trkpt lon="1.081736" lat="46.212761"><ele>208.75</ele></trkpt>
<trkpt lon="1.081682" lat="46.212735"><ele>208.5</ele></trkpt>
<trkpt lon="1.081592" lat="46.212577"><ele>207.0</ele></trkpt>
<trkpt lon="1.081534" lat="46.212372"><ele>205.5</ele></trkpt>
<trkpt lon="1.081606" lat="46.212342"><ele>205.25</ele></trkpt>
<trkpt lon="1.081664" lat="46.212333"><ele>205.25</ele></trkpt>
<trkpt lon="1.081753" lat="46.212339"><ele>205.25</ele></trkpt>
<trkpt lon="1.082133" lat="46.212408"><ele>205.5</ele></trkpt>
<trkpt lon="1.082248" lat="46.211862"><ele>202.75</ele></trkpt>
<trkpt lon="1.082311" lat="46.211601"><ele>202.75</ele></trkpt>
<trkpt lon="1.082382" lat="46.211278"><ele>202.5</ele></trkpt>
<trkpt lon="1.082641" lat="46.210570"><ele>205.25</ele></trkpt>
<trkpt lon="1.082643" lat="46.210446"><ele>206.25</ele></trkpt>
<trkpt lon="1.083757" lat="46.210608"><ele>206.5</ele></trkpt>
<trkpt lon="1.084143" lat="46.210688"><ele>205.0</ele></trkpt>
<trkpt lon="1.084524" lat="46.210669"><ele>204.25</ele></trkpt>
<trkpt lon="1.084785" lat="46.210593"><ele>203.75</ele></trkpt>
<trkpt lon="1.084889" lat="46.210261"><ele>205.0</ele></trkpt>
<trkpt lon="1.085287" lat="46.209848"><ele>204.25</ele></trkpt>
<trkpt lon="1.085489" lat="46.209820"><ele>204.0</ele></trkpt>
<trkpt lon="1.086036" lat="46.209282"><ele>203.75</ele></trkpt>
<trkpt lon="1.086487" lat="46.208979"><ele>203.25</ele></trkpt>
<trkpt lon="1.086762" lat="46.208657"><ele>203.0</ele></trkpt>
<trkpt lon="1.087151" lat="46.208057"><ele>203.75</ele></trkpt>
<trkpt lon="1.087549" lat="46.207085"><ele>206.5</ele></trkpt>
<trkpt lon="1.087643" lat="46.206882"><ele>207.0</ele></trkpt>
<trkpt lon="1.087766" lat="46.206670"><ele>207.0</ele></trkpt>
<trkpt lon="1.087644" lat="46.206569"><ele>207.75</ele></trkpt>
<trkpt lon="1.087576" lat="46.206313"><ele>209.0</ele></trkpt>
<trkpt lon="1.087571" lat="46.205535"><ele>213.0</ele></trkpt>
<trkpt lon="1.087530" lat="46.204921"><ele>216.5</ele></trkpt>
<trkpt lon="1.090079" lat="46.203457"><ele>219.75</ele></trkpt>
<trkpt lon="1.090478" lat="46.203218"><ele>221.5</ele></trkpt>
<trkpt lon="1.096995" lat="46.199439"><ele>227.75</ele></trkpt>
<trkpt lon="1.097460" lat="46.199200"><ele>227.75</ele></trkpt>
<trkpt lon="1.098135" lat="46.198906"><ele>231.0</ele></trkpt>
<trkpt lon="1.099002" lat="46.198583"><ele>232.5</ele></trkpt>
<trkpt lon="1.099205" lat="46.198523"><ele>232.75</ele></trkpt>
<trkpt lon="1.099083" lat="46.198273"><ele>233.25</ele></trkpt>
<trkpt lon="1.098965" lat="46.197619"><ele>230.0</ele></trkpt>
<trkpt lon="1.098868" lat="46.196825"><ele>225.5</ele></trkpt>
<trkpt lon="1.098804" lat="46.196498"><ele>225.25</ele></trkpt>
<trkpt lon="1.099008" lat="46.195592"><ele>228.25</ele></trkpt>
<trkpt lon="1.099083" lat="46.195339"><ele>229.25</ele></trkpt>
<trkpt lon="1.099748" lat="46.194537"><ele>232.5</ele></trkpt>
<trkpt lon="1.100510" lat="46.193758"><ele>238.0</ele></trkpt>
<trkpt lon="1.101218" lat="46.192896"><ele>244.0</ele></trkpt>
<trkpt lon="1.102173" lat="46.191871"><ele>249.25</ele></trkpt>
<trkpt lon="1.102319" lat="46.191582"><ele>250.5</ele></trkpt>
<trkpt lon="1.100104" lat="46.189784"><ele>246.75</ele></trkpt>
<trkpt lon="1.099539" lat="46.189301"><ele>248.75</ele></trkpt>
<trkpt lon="1.099301" lat="46.189121"><ele>249.5</ele></trkpt>
<trkpt lon="1.097930" lat="46.188042"><ele>257.0</ele></trkpt>
<trkpt lon="1.096573" lat="46.186939"><ele>255.0</ele></trkpt>
<trkpt lon="1.095355" lat="46.185959"><ele>252.25</ele></trkpt>
<trkpt lon="1.095183" lat="46.185810"><ele>252.0</ele></trkpt>
<trkpt lon="1.094818" lat="46.185008"><ele>252.75</ele></trkpt>
<trkpt lon="1.094116" lat="46.183574"><ele>254.0</ele></trkpt>
<trkpt lon="1.093660" lat="46.182612"><ele>254.0</ele></trkpt>
<trkpt lon="1.093102" lat="46.181524"><ele>253.0</ele></trkpt>
<trkpt lon="1.093038" lat="46.181383"><ele>253.0</ele></trkpt>
<trkpt lon="1.092705" lat="46.180648"><ele>252.5</ele></trkpt>
<trkpt lon="1.092254" lat="46.179697"><ele>252.75</ele></trkpt>
<trkpt lon="1.092107" lat="46.179437"><ele>253.0</ele></trkpt>
<trkpt lon="1.091762" lat="46.178861"><ele>252.75</ele></trkpt>
<trkpt lon="1.091295" lat="46.178204"><ele>251.5</ele></trkpt>
<trkpt lon="1.090984" lat="46.177820"><ele>250.5</ele></trkpt>
<trkpt lon="1.090249" lat="46.177387"><ele>250.5</ele></trkpt>
<trkpt lon="1.089901" lat="46.177173"><ele>250.25</ele></trkpt>
<trkpt lon="1.088856" lat="46.176172"><ele>252.0</ele></trkpt>
<trkpt lon="1.088628" lat="46.175878"><ele>251.75</ele></trkpt>
<trkpt lon="1.088484" lat="46.175743"><ele>252.25</ele></trkpt>
<trkpt lon="1.088334" lat="46.175617"><ele>252.0</ele></trkpt>
<trkpt lon="1.088081" lat="46.175655"><ele>252.75</ele></trkpt>
<trkpt lon="1.088028" lat="46.175362"><ele>252.25</ele></trkpt>
<trkpt lon="1.087268" lat="46.175565"><ele>253.0</ele></trkpt>
<trkpt lon="1.087140" lat="46.175166"><ele>252.25</ele></trkpt>
<trkpt lon="1.086883" lat="46.174726"><ele>251.75</ele></trkpt>
<trkpt lon="1.084839" lat="46.173315"><ele>250.75</ele></trkpt>
<trkpt lon="1.082470" lat="46.171438"><ele>242.75</ele></trkpt>
<trkpt lon="1.077438" lat="46.167037"><ele>237.25</ele></trkpt>
<trkpt lon="1.077381" lat="46.166573"><ele>236.75</ele></trkpt>
<trkpt lon="1.077331" lat="46.166149"><ele>236.5</ele></trkpt>
<trkpt lon="1.077009" lat="46.164395"><ele>234.5</ele></trkpt>
<trkpt lon="1.076858" lat="46.164068"><ele>233.75</ele></trkpt>
<trkpt lon="1.076756" lat="46.163908"><ele>233.5</ele></trkpt>
<trkpt lon="1.076574" lat="46.163388"><ele>232.25</ele></trkpt>
<trkpt lon="1.075984" lat="46.162441"><ele>228.5</ele></trkpt>
<trkpt lon="1.075694" lat="46.161943"><ele>225.25</ele></trkpt>
<trkpt lon="1.075727" lat="46.161772"><ele>224.25</ele></trkpt>
<trkpt lon="1.075930" lat="46.161419"><ele>222.5</ele></trkpt>
<trkpt lon="1.076215" lat="46.161126"><ele>222.25</ele></trkpt>
<trkpt lon="1.076209" lat="46.160921"><ele>222.0</ele></trkpt>
<trkpt lon="1.075823" lat="46.160308"><ele>220.0</ele></trkpt>
<trkpt lon="1.075753" lat="46.159736"><ele>217.75</ele></trkpt>
<trkpt lon="1.075721" lat="46.159416"><ele>214.5</ele></trkpt>
<trkpt lon="1.075657" lat="46.159361"><ele>213.75</ele></trkpt>
<trkpt lon="1.075212" lat="46.159361"><ele>212.75</ele></trkpt>
<trkpt lon="1.074670" lat="46.159502"><ele>211.0</ele></trkpt>
<trkpt lon="1.073758" lat="46.159825"><ele>210.0</ele></trkpt>
<trkpt lon="1.073431" lat="46.159885"><ele>211.75</ele></trkpt>
<trkpt lon="1.072267" lat="46.160011"><ele>214.0</ele></trkpt>
<trkpt lon="1.071344" lat="46.160078"><ele>214.25</ele></trkpt>
<trkpt lon="1.071033" lat="46.160107"><ele>214.75</ele></trkpt>
<trkpt lon="1.070636" lat="46.160130"><ele>214.0</ele></trkpt>
<trkpt lon="1.070384" lat="46.160171"><ele>213.25</ele></trkpt>
<trkpt lon="1.069998" lat="46.160513"><ele>213.5</ele></trkpt>
<trkpt lon="1.069536" lat="46.160869"><ele>212.75</ele></trkpt>
<trkpt lon="1.069166" lat="46.161278"><ele>211.0</ele></trkpt>
<trkpt lon="1.068914" lat="46.161925"><ele>210.0</ele></trkpt>
<trkpt lon="1.068651" lat="46.162069"><ele>211.5</ele></trkpt>
<trkpt lon="1.068446" lat="46.162165"><ele>213.75</ele></trkpt>
<trkpt lon="1.068211" lat="46.162274"><ele>215.0</ele></trkpt>
<trkpt lon="1.067970" lat="46.162534"><ele>217.5</ele></trkpt>
<trkpt lon="1.067830" lat="46.162768"><ele>218.25</ele></trkpt>
<trkpt lon="1.067761" lat="46.163050"><ele>219.75</ele></trkpt>
<trkpt lon="1.067724" lat="46.163245"><ele>220.25</ele></trkpt>
<trkpt lon="1.067578" lat="46.163370"><ele>220.25</ele></trkpt>
<trkpt lon="1.067335" lat="46.163219"><ele>217.5</ele></trkpt>
<trkpt lon="1.066712" lat="46.162922"><ele>212.0</ele></trkpt>
<trkpt lon="1.065856" lat="46.162497"><ele>208.75</ele></trkpt>
<trkpt lon="1.065178" lat="46.162312"><ele>201.75</ele></trkpt>
<trkpt lon="1.064429" lat="46.161992"><ele>189.25</ele></trkpt>
<trkpt lon="1.063920" lat="46.161694"><ele>180.5</ele></trkpt>
<trkpt lon="1.063423" lat="46.161431"><ele>176.25</ele></trkpt>
<trkpt lon="1.062825" lat="46.161219"><ele>175.75</ele></trkpt>
<trkpt lon="1.062359" lat="46.161066"><ele>173.5</ele></trkpt>
<trkpt lon="1.062015" lat="46.160936"><ele>174.25</ele></trkpt>
<trkpt lon="1.061842" lat="46.160892"><ele>174.25</ele></trkpt>
<trkpt lon="1.061834" lat="46.160833"><ele>174.0</ele></trkpt>
<trkpt lon="1.061835" lat="46.160734"><ele>174.0</ele></trkpt>
<trkpt lon="1.061810" lat="46.160238"><ele>175.25</ele></trkpt>
<trkpt lon="1.061740" lat="46.158896"><ele>188.0</ele></trkpt>
<trkpt lon="1.061709" lat="46.158785"><ele>189.0</ele></trkpt>
<trkpt lon="1.061630" lat="46.158696"><ele>189.25</ele></trkpt>
<trkpt lon="1.061577" lat="46.158676"><ele>189.5</ele></trkpt>
<trkpt lon="1.061447" lat="46.158812"><ele>189.0</ele></trkpt>
<trkpt lon="1.061295" lat="46.158913"><ele>188.25</ele></trkpt>
<trkpt lon="1.061128" lat="46.158992"><ele>187.25</ele></trkpt>
<trkpt lon="1.060895" lat="46.159053"><ele>187.5</ele></trkpt>
<trkpt lon="1.060869" lat="46.159023"><ele>187.75</ele></trkpt>
<trkpt lon="1.060511" lat="46.158598"><ele>190.0</ele></trkpt>
<trkpt lon="1.060000" lat="46.157916"><ele>190.0</ele></trkpt>
<trkpt lon="1.059826" lat="46.157721"><ele>190.0</ele></trkpt>
<trkpt lon="1.059557" lat="46.157504"><ele>189.75</ele></trkpt>
<trkpt lon="1.059372" lat="46.157386"><ele>190.25</ele></trkpt>
<trkpt lon="1.059206" lat="46.157324"><ele>190.5</ele></trkpt>
<trkpt lon="1.058998" lat="46.157289"><ele>190.25</ele></trkpt>
<trkpt lon="1.058265" lat="46.157207"><ele>190.0</ele></trkpt>
<trkpt lon="1.058078" lat="46.157176"><ele>190.25</ele></trkpt>
<trkpt lon="1.057542" lat="46.156864"><ele>194.75</ele></trkpt>
<trkpt lon="1.056512" lat="46.156540"><ele>192.25</ele></trkpt>
<trkpt lon="1.057532" lat="46.155816"><ele>197.75</ele></trkpt>
<trkpt lon="1.056925" lat="46.155292"><ele>194.75</ele></trkpt>
<trkpt lon="1.057171" lat="46.155006"><ele>193.5</ele></trkpt>
<trkpt lon="1.057724" lat="46.154467"><ele>194.25</ele></trkpt>
<trkpt lon="1.057922" lat="46.154296"><ele>195.25</ele></trkpt>
<trkpt lon="1.058099" lat="46.154103"><ele>196.5</ele></trkpt>
<trkpt lon="1.058035" lat="46.153969"><ele>194.5</ele></trkpt>
<trkpt lon="1.057917" lat="46.153779"><ele>194.25</ele></trkpt>
<trkpt lon="1.057799" lat="46.153634"><ele>194.0</ele></trkpt>
<trkpt lon="1.058024" lat="46.153445"><ele>196.25</ele></trkpt>
<trkpt lon="1.058185" lat="46.153430"><ele>195.75</ele></trkpt>
<trkpt lon="1.058496" lat="46.153542"><ele>196.75</ele></trkpt>
<trkpt lon="1.058695" lat="46.153527"><ele>198.0</ele></trkpt>
<trkpt lon="1.059231" lat="46.153427"><ele>201.0</ele></trkpt>
<trkpt lon="1.059489" lat="46.153360"><ele>202.25</ele></trkpt>
<trkpt lon="1.059601" lat="46.153285"><ele>203.75</ele></trkpt>
<trkpt lon="1.059665" lat="46.153117"><ele>205.0</ele></trkpt>
<trkpt lon="1.059636" lat="46.153054"><ele>205.0</ele></trkpt>
<trkpt lon="1.059641" lat="46.152964"><ele>205.0</ele></trkpt>
<trkpt lon="1.059723" lat="46.152764"><ele>205.75</ele></trkpt>
<trkpt lon="1.059742" lat="46.152668"><ele>205.5</ele></trkpt>
<trkpt lon="1.059735" lat="46.152571"><ele>205.25</ele></trkpt>
<trkpt lon="1.059692" lat="46.152450"><ele>204.75</ele></trkpt>
<trkpt lon="1.059495" lat="46.152182"><ele>202.75</ele></trkpt>
<trkpt lon="1.059223" lat="46.151886"><ele>201.25</ele></trkpt>
<trkpt lon="1.059001" lat="46.151733"><ele>200.25</ele></trkpt>
<trkpt lon="1.051411" lat="46.147932"><ele>230.25</ele></trkpt>
<trkpt lon="1.050492" lat="46.147487"><ele>232.25</ele></trkpt>
<trkpt lon="1.050237" lat="46.147440"><ele>233.5</ele></trkpt>
<trkpt lon="1.048440" lat="46.147381"><ele>240.0</ele></trkpt>
<trkpt lon="1.048092" lat="46.147351"><ele>240.5</ele></trkpt>
<trkpt lon="1.047811" lat="46.147274"><ele>241.5</ele></trkpt>
<trkpt lon="1.047541" lat="46.147111"><ele>242.25</ele></trkpt>
<trkpt lon="1.047181" lat="46.146850"><ele>243.25</ele></trkpt>
<trkpt lon="1.046894" lat="46.146663"><ele>244.0</ele></trkpt>
<trkpt lon="1.045817" lat="46.146115"><ele>246.75</ele></trkpt>
<trkpt lon="1.045396" lat="46.145881"><ele>248.25</ele></trkpt>
<trkpt lon="1.043779" lat="46.144918"><ele>252.25</ele></trkpt>
<trkpt lon="1.042742" lat="46.144412"><ele>253.0</ele></trkpt>
<trkpt lon="1.042591" lat="46.144336"><ele>253.25</ele></trkpt>
<trkpt lon="1.042512" lat="46.144261"><ele>253.5</ele></trkpt>
<trkpt lon="1.042443" lat="46.144272"><ele>253.5</ele></trkpt>
<trkpt lon="1.042408" lat="46.144266"><ele>253.5</ele></trkpt>
<trkpt lon="1.042353" lat="46.144235"><ele>253.5</ele></trkpt>
<trkpt lon="1.042333" lat="46.144188"><ele>253.75</ele></trkpt>
<trkpt lon="1.042349" lat="46.144146"><ele>254.0</ele></trkpt>
<trkpt lon="1.042395" lat="46.144116"><ele>254.0</ele></trkpt>
<trkpt lon="1.042283" lat="46.143977"><ele>254.0</ele></trkpt>
<trkpt lon="1.041977" lat="46.143596"><ele>255.0</ele></trkpt>
<trkpt lon="1.041651" lat="46.143175"><ele>256.0</ele></trkpt>
<trkpt lon="1.041610" lat="46.143122"><ele>256.0</ele></trkpt>
<trkpt lon="1.041364" lat="46.142794"><ele>257.0</ele></trkpt>
<trkpt lon="1.041263" lat="46.142610"><ele>257.25</ele></trkpt>
<trkpt lon="1.041103" lat="46.142245"><ele>258.0</ele></trkpt>
<trkpt lon="1.040902" lat="46.141972"><ele>258.0</ele></trkpt>
<trkpt lon="1.040547" lat="46.141498"><ele>258.0</ele></trkpt>
<trkpt lon="1.040477" lat="46.141363"><ele>258.25</ele></trkpt>
<trkpt lon="1.040432" lat="46.141248"><ele>258.0</ele></trkpt>
<trkpt lon="1.040426" lat="46.140877"><ele>258.0</ele></trkpt>
<trkpt lon="1.040422" lat="46.140832"><ele>258.0</ele></trkpt>
<trkpt lon="1.040423" lat="46.140716"><ele>258.0</ele></trkpt>
<trkpt lon="1.040418" lat="46.140645"><ele>258.0</ele></trkpt>
<trkpt lon="1.040382" lat="46.140233"><ele>258.0</ele></trkpt>
<trkpt lon="1.040336" lat="46.140152"><ele>258.0</ele></trkpt>
<trkpt lon="1.040272" lat="46.140104"><ele>258.0</ele></trkpt>
<trkpt lon="1.040207" lat="46.140070"><ele>258.0</ele></trkpt>
<trkpt lon="1.040123" lat="46.140048"><ele>258.0</ele></trkpt>
<trkpt lon="1.039510" lat="46.139882"><ele>258.0</ele></trkpt>
<trkpt lon="1.039403" lat="46.139812"><ele>258.0</ele></trkpt>
<trkpt lon="1.039237" lat="46.139640"><ele>258.0</ele></trkpt>
<trkpt lon="1.039213" lat="46.139613"><ele>258.0</ele></trkpt>
<trkpt lon="1.039402" lat="46.139543"><ele>258.0</ele></trkpt>
<trkpt lon="1.039790" lat="46.139385"><ele>259.0</ele></trkpt>
<trkpt lon="1.040027" lat="46.139258"><ele>259.5</ele></trkpt>
<trkpt lon="1.040236" lat="46.139123"><ele>260.0</ele></trkpt>
<trkpt lon="1.040970" lat="46.138577"><ele>262.0</ele></trkpt>
<trkpt lon="1.041184" lat="46.138418"><ele>262.0</ele></trkpt>
<trkpt lon="1.041544" lat="46.138149"><ele>261.5</ele></trkpt>
<trkpt lon="1.041608" lat="46.138101"><ele>261.75</ele></trkpt>
<trkpt lon="1.042081" lat="46.137747"><ele>260.25</ele></trkpt>
<trkpt lon="1.043082" lat="46.136999"><ele>260.75</ele></trkpt>
<trkpt lon="1.043208" lat="46.136931"><ele>260.75</ele></trkpt>
<trkpt lon="1.043335" lat="46.136874"><ele>260.5</ele></trkpt>
<trkpt lon="1.043535" lat="46.136804"><ele>260.25</ele></trkpt>
<trkpt lon="1.044614" lat="46.136524"><ele>259.5</ele></trkpt>
<trkpt lon="1.044809" lat="46.136461"><ele>259.25</ele></trkpt>
<trkpt lon="1.045042" lat="46.136369"><ele>259.75</ele></trkpt>
<trkpt lon="1.045373" lat="46.136207"><ele>259.75</ele></trkpt>
<trkpt lon="1.045592" lat="46.136086"><ele>259.75</ele></trkpt>
<trkpt lon="1.045816" lat="46.135965"><ele>258.0</ele></trkpt>
<trkpt lon="1.046398" lat="46.135650"><ele>260.25</ele></trkpt>
<trkpt lon="1.046717" lat="46.135465"><ele>259.75</ele></trkpt>
<trkpt lon="1.047024" lat="46.135230"><ele>258.75</ele></trkpt>
<trkpt lon="1.047216" lat="46.135018"><ele>258.75</ele></trkpt>
<trkpt lon="1.047268" lat="46.134944"><ele>258.5</ele></trkpt>
<trkpt lon="1.048504" lat="46.132727"><ele>254.75</ele></trkpt>
<trkpt lon="1.049726" lat="46.131641"><ele>250.75</ele></trkpt>
<trkpt lon="1.049890" lat="46.131473"><ele>249.5</ele></trkpt>
<trkpt lon="1.050119" lat="46.131158"><ele>248.0</ele></trkpt>
<trkpt lon="1.050286" lat="46.130962"><ele>247.25</ele></trkpt>
<trkpt lon="1.050420" lat="46.130815"><ele>246.75</ele></trkpt>
<trkpt lon="1.050618" lat="46.130646"><ele>245.5</ele></trkpt>
<trkpt lon="1.050995" lat="46.130379"><ele>244.0</ele></trkpt>
<trkpt lon="1.051175" lat="46.130267"><ele>244.0</ele></trkpt>
<trkpt lon="1.051369" lat="46.130163"><ele>244.5</ele></trkpt>
<trkpt lon="1.051522" lat="46.130090"><ele>244.5</ele></trkpt>
<trkpt lon="1.051673" lat="46.130030"><ele>245.0</ele></trkpt>
<trkpt lon="1.051769" lat="46.130007"><ele>245.0</ele></trkpt>
<trkpt lon="1.051217" lat="46.129264"><ele>243.25</ele></trkpt>
<trkpt lon="1.051244" lat="46.129153"><ele>243.25</ele></trkpt>
<trkpt lon="1.051157" lat="46.129077"><ele>243.0</ele></trkpt>
<trkpt lon="1.051101" lat="46.128986"><ele>242.75</ele></trkpt>
<trkpt lon="1.050903" lat="46.128659"><ele>241.25</ele></trkpt>
<trkpt lon="1.050581" lat="46.128127"><ele>238.25</ele></trkpt>
<trkpt lon="1.050214" lat="46.127520"><ele>234.75</ele></trkpt>
<trkpt lon="1.050040" lat="46.127234"><ele>233.0</ele></trkpt>
<trkpt lon="1.049970" lat="46.127118"><ele>232.75</ele></trkpt>
<trkpt lon="1.049802" lat="46.126838"><ele>231.75</ele></trkpt>
<trkpt lon="1.049709" lat="46.126688"><ele>231.75</ele></trkpt>
<trkpt lon="1.049234" lat="46.126055"><ele>232.75</ele></trkpt>
<trkpt lon="1.049103" lat="46.125866"><ele>234.25</ele></trkpt>
<trkpt lon="1.048987" lat="46.125662"><ele>234.75</ele></trkpt>
<trkpt lon="1.048928" lat="46.125544"><ele>235.0</ele></trkpt>
<trkpt lon="1.048782" lat="46.125258"><ele>235.5</ele></trkpt>
<trkpt lon="1.048755" lat="46.125176"><ele>235.75</ele></trkpt>
<trkpt lon="1.048753" lat="46.125071"><ele>236.25</ele></trkpt>
<trkpt lon="1.048799" lat="46.124926"><ele>237.0</ele></trkpt>
<trkpt lon="1.048743" lat="46.124904"><ele>237.0</ele></trkpt>
<trkpt lon="1.048467" lat="46.124716"><ele>237.5</ele></trkpt>
<trkpt lon="1.048169" lat="46.124510"><ele>238.25</ele></trkpt>
<trkpt lon="1.048267" lat="46.124449"><ele>239.25</ele></trkpt>
<trkpt lon="1.047736" lat="46.124076"><ele>239.0</ele></trkpt>
<trkpt lon="1.047399" lat="46.123840"><ele>239.25</ele></trkpt>
<trkpt lon="1.047458" lat="46.123606"><ele>239.5</ele></trkpt>
<trkpt lon="1.047505" lat="46.123498"><ele>240.0</ele></trkpt>
<trkpt lon="1.047532" lat="46.123465"><ele>240.0</ele></trkpt>
<trkpt lon="1.047491" lat="46.123428"><ele>239.75</ele></trkpt>
<trkpt lon="1.047441" lat="46.123382"><ele>239.75</ele></trkpt>
<trkpt lon="1.047521" lat="46.123337"><ele>240.0</ele></trkpt>
<trkpt lon="1.047590" lat="46.123309"><ele>240.0</ele></trkpt>
<trkpt lon="1.048208" lat="46.123070"><ele>240.75</ele></trkpt>
<trkpt lon="1.048899" lat="46.122781"><ele>244.0</ele></trkpt>
<trkpt lon="1.049051" lat="46.122733"><ele>245.0</ele></trkpt>
  </trkseg></trk></gpx>
