<?xml version="1.0" encoding="UTF-8"?>
<gpx version="1.1" creator="compostel-brouter" xmlns="http://www.topografix.com/GPX/1/1">
  <metadata><name>FR-27-Chalus</name></metadata>
  <trk><name>FR-27-Chalus</name><trkseg>
<trkpt lon="1.261327" lat="45.833665"><ele>264.75</ele></trkpt>
<trkpt lon="1.260915" lat="45.834368"><ele>265.5</ele></trkpt>
<trkpt lon="1.260890" lat="45.834374"><ele>265.75</ele></trkpt>
<trkpt lon="1.260859" lat="45.834434"><ele>265.75</ele></trkpt>
<trkpt lon="1.260823" lat="45.834502"><ele>266.0</ele></trkpt>
<trkpt lon="1.259848" lat="45.834214"><ele>268.5</ele></trkpt>
<trkpt lon="1.259800" lat="45.834203"><ele>268.5</ele></trkpt>
<trkpt lon="1.259736" lat="45.834184"><ele>268.75</ele></trkpt>
<trkpt lon="1.259622" lat="45.834155"><ele>269.25</ele></trkpt>
<trkpt lon="1.257789" lat="45.833615"><ele>275.0</ele></trkpt>
<trkpt lon="1.257689" lat="45.833586"><ele>275.25</ele></trkpt>
<trkpt lon="1.257648" lat="45.833571"><ele>275.25</ele></trkpt>
<trkpt lon="1.257610" lat="45.833558"><ele>275.5</ele></trkpt>
<trkpt lon="1.256384" lat="45.833184"><ele>281.0</ele></trkpt>
<trkpt lon="1.255996" lat="45.833056"><ele>282.75</ele></trkpt>
<trkpt lon="1.255927" lat="45.833030"><ele>283.25</ele></trkpt>
<trkpt lon="1.255865" lat="45.833060"><ele>283.75</ele></trkpt>
<trkpt lon="1.255820" lat="45.833069"><ele>284.0</ele></trkpt>
<trkpt lon="1.255778" lat="45.833074"><ele>284.0</ele></trkpt>
<trkpt lon="1.255737" lat="45.833076"><ele>284.0</ele></trkpt>
<trkpt lon="1.255717" lat="45.833075"><ele>284.0</ele></trkpt>
<trkpt lon="1.255675" lat="45.833073"><ele>284.0</ele></trkpt>
<trkpt lon="1.255575" lat="45.833040"><ele>283.75</ele></trkpt>
<trkpt lon="1.255559" lat="45.833029"><ele>283.75</ele></trkpt>
<trkpt lon="1.255543" lat="45.833019"><ele>284.0</ele></trkpt>
<trkpt lon="1.255573" lat="45.833001"><ele>283.75</ele></trkpt>
<trkpt lon="1.255584" lat="45.832978"><ele>283.75</ele></trkpt>
<trkpt lon="1.255543" lat="45.832895"><ele>284.0</ele></trkpt>
<trkpt lon="1.255547" lat="45.832853"><ele>284.0</ele></trkpt>
<trkpt lon="1.255586" lat="45.832784"><ele>283.75</ele></trkpt>
<trkpt lon="1.255554" lat="45.832731"><ele>284.0</ele></trkpt>
<trkpt lon="1.255541" lat="45.832739"><ele>284.0</ele></trkpt>
<trkpt lon="1.255488" lat="45.832674"><ele>284.0</ele></trkpt>
<trkpt lon="1.255403" lat="45.832573"><ele>284.25</ele></trkpt>
<trkpt lon="1.255124" lat="45.832381"><ele>285.25</ele></trkpt>
<trkpt lon="1.255153" lat="45.832347"><ele>285.5</ele></trkpt>
<trkpt lon="1.255175" lat="45.832321"><ele>285.5</ele></trkpt>
<trkpt lon="1.255139" lat="45.832274"><ele>285.75</ele></trkpt>
<trkpt lon="1.255094" lat="45.832216"><ele>286.0</ele></trkpt>
<trkpt lon="1.255055" lat="45.832233"><ele>285.75</ele></trkpt>
<trkpt lon="1.255024" lat="45.832226"><ele>285.75</ele></trkpt>
<trkpt lon="1.254165" lat="45.831731"><ele>289.75</ele></trkpt>
<trkpt lon="1.254143" lat="45.831704"><ele>289.75</ele></trkpt>
<trkpt lon="1.254082" lat="45.831690"><ele>290.0</ele></trkpt>
<trkpt lon="1.254021" lat="45.831676"><ele>290.5</ele></trkpt>
<trkpt lon="1.253993" lat="45.831679"><ele>290.5</ele></trkpt>
<trkpt lon="1.253813" lat="45.831636"><ele>291.5</ele></trkpt>
<trkpt lon="1.253777" lat="45.831598"><ele>292.0</ele></trkpt>
<trkpt lon="1.253679" lat="45.831576"><ele>292.75</ele></trkpt>
<trkpt lon="1.253599" lat="45.831558"><ele>293.25</ele></trkpt>
<trkpt lon="1.253513" lat="45.831562"><ele>293.75</ele></trkpt>
<trkpt lon="1.252805" lat="45.831362"><ele>298.0</ele></trkpt>
<trkpt lon="1.252761" lat="45.831339"><ele>298.25</ele></trkpt>
<trkpt lon="1.252747" lat="45.831295"><ele>298.75</ele></trkpt>
<trkpt lon="1.252699" lat="45.831235"><ele>299.75</ele></trkpt>
<trkpt lon="1.252655" lat="45.831189"><ele>300.75</ele></trkpt>
<trkpt lon="1.252502" lat="45.831236"><ele>301.5</ele></trkpt>
<trkpt lon="1.252437" lat="45.831244"><ele>301.25</ele></trkpt>
<trkpt lon="1.252368" lat="45.831231"><ele>301.5</ele></trkpt>
<trkpt lon="1.252315" lat="45.831207"><ele>301.5</ele></trkpt>
<trkpt lon="1.251526" lat="45.830831"><ele>302.0</ele></trkpt>
<trkpt lon="1.250591" lat="45.830385"><ele>301.5</ele></trkpt>
<trkpt lon="1.250548" lat="45.830345"><ele>301.0</ele></trkpt>
<trkpt lon="1.250534" lat="45.830304"><ele>301.0</ele></trkpt>
<trkpt lon="1.250542" lat="45.830235"><ele>300.75</ele></trkpt>
<trkpt lon="1.250517" lat="45.830225"><ele>300.75</ele></trkpt>
<trkpt lon="1.250483" lat="45.830210"><ele>300.75</ele></trkpt>
<trkpt lon="1.250443" lat="45.830195"><ele>300.75</ele></trkpt>
<trkpt lon="1.250461" lat="45.830162"><ele>300.75</ele></trkpt>
<trkpt lon="1.250449" lat="45.830145"><ele>300.75</ele></trkpt>
<trkpt lon="1.250431" lat="45.830121"><ele>300.5</ele></trkpt>
<trkpt lon="1.250407" lat="45.830092"><ele>300.5</ele></trkpt>
<trkpt lon="1.250493" lat="45.830058"><ele>300.75</ele></trkpt>
<trkpt lon="1.250496" lat="45.830025"><ele>300.75</ele></trkpt>
<trkpt lon="1.250498" lat="45.829995"><ele>300.75</ele></trkpt>
<trkpt lon="1.250500" lat="45.829959"><ele>300.5</ele></trkpt>
<trkpt lon="1.250500" lat="45.829921"><ele>300.5</ele></trkpt>
<trkpt lon="1.250428" lat="45.829938"><ele>300.25</ele></trkpt>
<trkpt lon="1.249628" lat="45.829926"><ele>298.75</ele></trkpt>
<trkpt lon="1.249586" lat="45.829912"><ele>298.75</ele></trkpt>
<trkpt lon="1.249573" lat="45.829880"><ele>298.75</ele></trkpt>
<trkpt lon="1.249537" lat="45.829606"><ele>297.5</ele></trkpt>
<trkpt lon="1.249549" lat="45.829582"><ele>297.5</ele></trkpt>
<trkpt lon="1.249546" lat="45.829554"><ele>297.25</ele></trkpt>
<trkpt lon="1.249459" lat="45.829552"><ele>296.75</ele></trkpt>
<trkpt lon="1.249381" lat="45.829142"><ele>293.75</ele></trkpt>
<trkpt lon="1.249333" lat="45.828892"><ele>292.0</ele></trkpt>
<trkpt lon="1.249240" lat="45.828391"><ele>288.5</ele></trkpt>
<trkpt lon="1.249232" lat="45.828356"><ele>288.25</ele></trkpt>
<trkpt lon="1.249226" lat="45.828305"><ele>288.0</ele></trkpt>
<trkpt lon="1.249223" lat="45.828283"><ele>287.75</ele></trkpt>
<trkpt lon="1.249212" lat="45.828230"><ele>287.25</ele></trkpt>
<trkpt lon="1.249147" lat="45.828236"><ele>287.25</ele></trkpt>
<trkpt lon="1.249120" lat="45.828239"><ele>287.25</ele></trkpt>
<trkpt lon="1.248988" lat="45.827533"><ele>282.0</ele></trkpt>
<trkpt lon="1.248971" lat="45.827519"><ele>282.0</ele></trkpt>
<trkpt lon="1.247541" lat="45.827711"><ele>285.5</ele></trkpt>
<trkpt lon="1.247302" lat="45.827743"><ele>286.25</ele></trkpt>
<trkpt lon="1.247278" lat="45.827732"><ele>286.5</ele></trkpt>
<trkpt lon="1.247193" lat="45.827409"><ele>284.25</ele></trkpt>
<trkpt lon="1.247175" lat="45.827402"><ele>284.25</ele></trkpt>
<trkpt lon="1.247168" lat="45.827367"><ele>284.0</ele></trkpt>
<trkpt lon="1.247159" lat="45.827328"><ele>283.75</ele></trkpt>
<trkpt lon="1.246167" lat="45.827453"><ele>284.75</ele></trkpt>
<trkpt lon="1.246126" lat="45.827436"><ele>284.75</ele></trkpt>
<trkpt lon="1.245816" lat="45.826546"><ele>280.5</ele></trkpt>
<trkpt lon="1.245765" lat="45.826555"><ele>280.25</ele></trkpt>
<trkpt lon="1.245708" lat="45.826564"><ele>280.25</ele></trkpt>
<trkpt lon="1.245569" lat="45.826170"><ele>279.0</ele></trkpt>
<trkpt lon="1.245560" lat="45.826146"><ele>279.0</ele></trkpt>
<trkpt lon="1.245506" lat="45.826153"><ele>278.75</ele></trkpt>
<trkpt lon="1.245404" lat="45.826167"><ele>278.5</ele></trkpt>
<trkpt lon="1.245182" lat="45.826210"><ele>277.75</ele></trkpt>
<trkpt lon="1.245145" lat="45.826230"><ele>277.5</ele></trkpt>
<trkpt lon="1.245101" lat="45.826236"><ele>277.25</ele></trkpt>
<trkpt lon="1.245037" lat="45.826245"><ele>277.0</ele></trkpt>
<trkpt lon="1.244928" lat="45.826257"><ele>277.0</ele></trkpt>
<trkpt lon="1.244915" lat="45.826223"><ele>276.75</ele></trkpt>
<trkpt lon="1.244585" lat="45.826263"><ele>277.5</ele></trkpt>
<trkpt lon="1.244378" lat="45.826280"><ele>278.25</ele></trkpt>
<trkpt lon="1.244085" lat="45.826305"><ele>279.5</ele></trkpt>
<trkpt lon="1.243844" lat="45.826332"><ele>280.5</ele></trkpt>
<trkpt lon="1.243838" lat="45.826300"><ele>280.25</ele></trkpt>
<trkpt lon="1.243721" lat="45.826315"><ele>280.75</ele></trkpt>
<trkpt lon="1.243058" lat="45.826430"><ele>283.25</ele></trkpt>
<trkpt lon="1.243024" lat="45.826436"><ele>283.5</ele></trkpt>
<trkpt lon="1.242989" lat="45.826419"><ele>283.5</ele></trkpt>
<trkpt lon="1.242570" lat="45.825918"><ele>280.75</ele></trkpt>
<trkpt lon="1.242134" lat="45.825397"><ele>278.5</ele></trkpt>
<trkpt lon="1.242113" lat="45.825369"><ele>278.5</ele></trkpt>
<trkpt lon="1.242128" lat="45.825343"><ele>278.5</ele></trkpt>
<trkpt lon="1.242080" lat="45.825283"><ele>278.5</ele></trkpt>
<trkpt lon="1.242033" lat="45.825287"><ele>278.5</ele></trkpt>
<trkpt lon="1.241977" lat="45.825291"><ele>278.75</ele></trkpt>
<trkpt lon="1.241918" lat="45.825293"><ele>279.0</ele></trkpt>
<trkpt lon="1.241859" lat="45.825296"><ele>279.25</ele></trkpt>
<trkpt lon="1.239452" lat="45.825409"><ele>287.25</ele></trkpt>
<trkpt lon="1.239409" lat="45.825412"><ele>287.5</ele></trkpt>
<trkpt lon="1.239357" lat="45.825415"><ele>288.0</ele></trkpt>
<trkpt lon="1.239317" lat="45.825336"><ele>288.0</ele></trkpt>
<trkpt lon="1.239011" lat="45.824770"><ele>288.5</ele></trkpt>
<trkpt lon="1.238945" lat="45.824721"><ele>288.75</ele></trkpt>
<trkpt lon="1.238890" lat="45.824692"><ele>288.75</ele></trkpt>
<trkpt lon="1.238855" lat="45.824685"><ele>289.0</ele></trkpt>
<trkpt lon="1.238809" lat="45.824676"><ele>289.25</ele></trkpt>
<trkpt lon="1.238765" lat="45.824669"><ele>289.5</ele></trkpt>
<trkpt lon="1.238506" lat="45.824379"><ele>290.5</ele></trkpt>
<trkpt lon="1.238319" lat="45.824146"><ele>290.75</ele></trkpt>
<trkpt lon="1.238283" lat="45.824101"><ele>290.75</ele></trkpt>
<trkpt lon="1.238255" lat="45.824066"><ele>290.75</ele></trkpt>
<trkpt lon="1.238228" lat="45.824035"><ele>290.75</ele></trkpt>
<trkpt lon="1.238188" lat="45.823987"><ele>290.75</ele></trkpt>
<trkpt lon="1.237889" lat="45.823634"><ele>291.5</ele></trkpt>
<trkpt lon="1.237866" lat="45.823607"><ele>291.5</ele></trkpt>
<trkpt lon="1.237832" lat="45.823567"><ele>291.5</ele></trkpt>
<trkpt lon="1.237807" lat="45.823534"><ele>291.5</ele></trkpt>
<trkpt lon="1.237767" lat="45.823483"><ele>291.5</ele></trkpt>
<trkpt lon="1.237467" lat="45.823101"><ele>290.25</ele></trkpt>
<trkpt lon="1.237423" lat="45.823054"><ele>290.25</ele></trkpt>
<trkpt lon="1.237392" lat="45.823011"><ele>289.75</ele></trkpt>
<trkpt lon="1.237350" lat="45.822966"><ele>289.5</ele></trkpt>
<trkpt lon="1.237305" lat="45.822910"><ele>289.0</ele></trkpt>
<trkpt lon="1.236959" lat="45.822482"><ele>285.75</ele></trkpt>
<trkpt lon="1.236849" lat="45.822349"><ele>285.25</ele></trkpt>
<trkpt lon="1.236818" lat="45.822311"><ele>285.0</ele></trkpt>
<trkpt lon="1.236753" lat="45.822232"><ele>284.25</ele></trkpt>
<trkpt lon="1.236715" lat="45.822187"><ele>284.0</ele></trkpt>
<trkpt lon="1.236684" lat="45.822151"><ele>284.0</ele></trkpt>
<trkpt lon="1.236729" lat="45.822115"><ele>284.0</ele></trkpt>
<trkpt lon="1.236737" lat="45.822092"><ele>284.0</ele></trkpt>
<trkpt lon="1.236734" lat="45.822067"><ele>283.75</ele></trkpt>
<trkpt lon="1.236720" lat="45.822045"><ele>283.75</ele></trkpt>
<trkpt lon="1.236670" lat="45.822016"><ele>283.75</ele></trkpt>
<trkpt lon="1.236638" lat="45.822010"><ele>284.0</ele></trkpt>
<trkpt lon="1.236604" lat="45.822012"><ele>284.25</ele></trkpt>
<trkpt lon="1.236573" lat="45.822021"><ele>284.5</ele></trkpt>
<trkpt lon="1.236556" lat="45.821990"><ele>284.5</ele></trkpt>
<trkpt lon="1.236492" lat="45.821907"><ele>285.5</ele></trkpt>
<trkpt lon="1.236409" lat="45.821809"><ele>286.75</ele></trkpt>
<trkpt lon="1.236276" lat="45.821644"><ele>289.0</ele></trkpt>
<trkpt lon="1.236232" lat="45.821575"><ele>289.75</ele></trkpt>
<trkpt lon="1.236164" lat="45.821461"><ele>291.0</ele></trkpt>
<trkpt lon="1.235991" lat="45.821092"><ele>295.25</ele></trkpt>
<trkpt lon="1.235895" lat="45.820955"><ele>296.5</ele></trkpt>
<trkpt lon="1.235826" lat="45.820887"><ele>297.0</ele></trkpt>
<trkpt lon="1.235606" lat="45.820673"><ele>298.25</ele></trkpt>
<trkpt lon="1.235403" lat="45.820537"><ele>299.0</ele></trkpt>
<trkpt lon="1.235282" lat="45.820465"><ele>299.0</ele></trkpt>
<trkpt lon="1.235246" lat="45.820443"><ele>299.0</ele></trkpt>
<trkpt lon="1.235006" lat="45.820343"><ele>299.0</ele></trkpt>
<trkpt lon="1.234919" lat="45.820319"><ele>299.0</ele></trkpt>
<trkpt lon="1.234412" lat="45.820155"><ele>298.5</ele></trkpt>
<trkpt lon="1.234306" lat="45.820117"><ele>298.25</ele></trkpt>
<trkpt lon="1.234210" lat="45.820071"><ele>298.25</ele></trkpt>
<trkpt lon="1.234092" lat="45.819950"><ele>297.75</ele></trkpt>
<trkpt lon="1.234052" lat="45.819894"><ele>297.5</ele></trkpt>
<trkpt lon="1.234006" lat="45.819839"><ele>297.75</ele></trkpt>
<trkpt lon="1.233982" lat="45.819807"><ele>297.75</ele></trkpt>
<trkpt lon="1.233919" lat="45.819813"><ele>297.5</ele></trkpt>
<trkpt lon="1.233790" lat="45.819788"><ele>297.75</ele></trkpt>
<trkpt lon="1.233728" lat="45.819794"><ele>297.75</ele></trkpt>
<trkpt lon="1.233711" lat="45.819731"><ele>297.75</ele></trkpt>
<trkpt lon="1.233643" lat="45.819448"><ele>298.0</ele></trkpt>
<trkpt lon="1.233636" lat="45.819334"><ele>298.0</ele></trkpt>
<trkpt lon="1.233586" lat="45.819320"><ele>297.75</ele></trkpt>
<trkpt lon="1.233516" lat="45.819287"><ele>297.5</ele></trkpt>
<trkpt lon="1.233424" lat="45.819361"><ele>297.5</ele></trkpt>
<trkpt lon="1.233315" lat="45.819434"><ele>297.75</ele></trkpt>
<trkpt lon="1.232874" lat="45.819648"><ele>296.75</ele></trkpt>
<trkpt lon="1.232780" lat="45.819623"><ele>296.5</ele></trkpt>
<trkpt lon="1.232561" lat="45.819549"><ele>296.75</ele></trkpt>
<trkpt lon="1.232253" lat="45.819448"><ele>297.0</ele></trkpt>
<trkpt lon="1.231577" lat="45.819221"><ele>297.0</ele></trkpt>
<trkpt lon="1.231553" lat="45.819256"><ele>297.0</ele></trkpt>
<trkpt lon="1.230966" lat="45.819045"><ele>297.25</ele></trkpt>
<trkpt lon="1.230017" lat="45.818720"><ele>297.75</ele></trkpt>
<trkpt lon="1.229969" lat="45.818726"><ele>298.0</ele></trkpt>
<trkpt lon="1.229947" lat="45.818742"><ele>298.0</ele></trkpt>
<trkpt lon="1.229951" lat="45.818777"><ele>298.0</ele></trkpt>
<trkpt lon="1.229887" lat="45.818793"><ele>298.25</ele></trkpt>
<trkpt lon="1.229824" lat="45.818810"><ele>298.5</ele></trkpt>
<trkpt lon="1.229747" lat="45.818712"><ele>298.75</ele></trkpt>
<trkpt lon="1.229674" lat="45.818650"><ele>299.0</ele></trkpt>
<trkpt lon="1.229531" lat="45.818539"><ele>299.0</ele></trkpt>
<trkpt lon="1.229392" lat="45.818448"><ele>299.0</ele></trkpt>
<trkpt lon="1.229302" lat="45.818401"><ele>299.0</ele></trkpt>
<trkpt lon="1.228971" lat="45.818225"><ele>299.25</ele></trkpt>
<trkpt lon="1.228733" lat="45.818099"><ele>300.25</ele></trkpt>
<trkpt lon="1.226757" lat="45.817311"><ele>306.0</ele></trkpt>
<trkpt lon="1.226464" lat="45.817201"><ele>305.75</ele></trkpt>
<trkpt lon="1.226234" lat="45.817098"><ele>305.0</ele></trkpt>
<trkpt lon="1.226144" lat="45.817079"><ele>304.25</ele></trkpt>
<trkpt lon="1.226056" lat="45.817028"><ele>303.75</ele></trkpt>
<trkpt lon="1.225956" lat="45.816981"><ele>303.75</ele></trkpt>
<trkpt lon="1.225954" lat="45.816964"><ele>303.75</ele></trkpt>
<trkpt lon="1.225928" lat="45.816932"><ele>304.0</ele></trkpt>
<trkpt lon="1.225681" lat="45.816771"><ele>303.0</ele></trkpt>
<trkpt lon="1.224564" lat="45.815954"><ele>300.25</ele></trkpt>
<trkpt lon="1.224465" lat="45.815853"><ele>300.75</ele></trkpt>
<trkpt lon="1.224410" lat="45.815828"><ele>300.75</ele></trkpt>
<trkpt lon="1.224354" lat="45.815818"><ele>300.5</ele></trkpt>
<trkpt lon="1.224226" lat="45.815819"><ele>300.25</ele></trkpt>
<trkpt lon="1.224173" lat="45.815831"><ele>300.0</ele></trkpt>
<trkpt lon="1.224071" lat="45.815896"><ele>299.25</ele></trkpt>
<trkpt lon="1.224047" lat="45.815938"><ele>298.75</ele></trkpt>
<trkpt lon="1.223979" lat="45.815921"><ele>299.0</ele></trkpt>
<trkpt lon="1.223928" lat="45.815909"><ele>299.0</ele></trkpt>
<trkpt lon="1.223931" lat="45.815761"><ele>300.5</ele></trkpt>
<trkpt lon="1.223908" lat="45.815684"><ele>301.0</ele></trkpt>
<trkpt lon="1.223886" lat="45.815632"><ele>301.25</ele></trkpt>
<trkpt lon="1.223859" lat="45.815594"><ele>301.5</ele></trkpt>
<trkpt lon="1.223794" lat="45.815540"><ele>302.0</ele></trkpt>
<trkpt lon="1.223507" lat="45.815379"><ele>303.0</ele></trkpt>
<trkpt lon="1.222449" lat="45.814768"><ele>307.5</ele></trkpt>
<trkpt lon="1.221721" lat="45.814354"><ele>310.75</ele></trkpt>
<trkpt lon="1.220985" lat="45.813953"><ele>312.25</ele></trkpt>
<trkpt lon="1.220403" lat="45.813705"><ele>313.25</ele></trkpt>
<trkpt lon="1.219694" lat="45.813424"><ele>314.25</ele></trkpt>
<trkpt lon="1.218673" lat="45.813016"><ele>317.25</ele></trkpt>
<trkpt lon="1.218491" lat="45.812925"><ele>318.0</ele></trkpt>
<trkpt lon="1.218243" lat="45.812779"><ele>320.75</ele></trkpt>
<trkpt lon="1.218130" lat="45.812706"><ele>321.0</ele></trkpt>
<trkpt lon="1.217642" lat="45.812332"><ele>324.5</ele></trkpt>
<trkpt lon="1.217707" lat="45.812301"><ele>324.75</ele></trkpt>
<trkpt lon="1.217775" lat="45.812254"><ele>324.75</ele></trkpt>
<trkpt lon="1.217619" lat="45.812104"><ele>325.5</ele></trkpt>
<trkpt lon="1.217609" lat="45.812047"><ele>325.5</ele></trkpt>
<trkpt lon="1.217638" lat="45.811967"><ele>325.5</ele></trkpt>
<trkpt lon="1.217701" lat="45.811886"><ele>325.0</ele></trkpt>
<trkpt lon="1.217645" lat="45.811848"><ele>325.0</ele></trkpt>
<trkpt lon="1.217584" lat="45.811812"><ele>325.0</ele></trkpt>
<trkpt lon="1.217402" lat="45.811702"><ele>325.5</ele></trkpt>
<trkpt lon="1.217280" lat="45.811640"><ele>326.25</ele></trkpt>
<trkpt lon="1.217132" lat="45.811588"><ele>326.5</ele></trkpt>
<trkpt lon="1.216940" lat="45.811440"><ele>326.0</ele></trkpt>
<trkpt lon="1.216662" lat="45.811375"><ele>326.75</ele></trkpt>
<trkpt lon="1.216405" lat="45.811343"><ele>327.5</ele></trkpt>
<trkpt lon="1.216071" lat="45.811291"><ele>328.0</ele></trkpt>
<trkpt lon="1.215910" lat="45.811286"><ele>329.0</ele></trkpt>
<trkpt lon="1.215588" lat="45.811215"><ele>329.75</ele></trkpt>
<trkpt lon="1.215424" lat="45.811168"><ele>330.0</ele></trkpt>
<trkpt lon="1.215325" lat="45.811054"><ele>329.5</ele></trkpt>
<trkpt lon="1.215194" lat="45.810599"><ele>327.75</ele></trkpt>
<trkpt lon="1.215003" lat="45.809762"><ele>323.25</ele></trkpt>
<trkpt lon="1.214838" lat="45.808581"><ele>320.75</ele></trkpt>
<trkpt lon="1.214910" lat="45.808467"><ele>319.75</ele></trkpt>
<trkpt lon="1.215378" lat="45.808186"><ele>317.75</ele></trkpt>
<trkpt lon="1.215566" lat="45.808069"><ele>316.75</ele></trkpt>
<trkpt lon="1.215641" lat="45.808031"><ele>316.5</ele></trkpt>
<trkpt lon="1.215671" lat="45.808016"><ele>316.25</ele></trkpt>
<trkpt lon="1.215691" lat="45.808006"><ele>316.0</ele></trkpt>
<trkpt lon="1.215732" lat="45.807981"><ele>315.75</ele></trkpt>
<trkpt lon="1.215766" lat="45.807958"><ele>315.75</ele></trkpt>
<trkpt lon="1.215793" lat="45.807941"><ele>315.5</ele></trkpt>
<trkpt lon="1.215759" lat="45.807908"><ele>315.5</ele></trkpt>
<trkpt lon="1.215049" lat="45.807230"><ele>314.5</ele></trkpt>
<trkpt lon="1.215013" lat="45.807191"><ele>314.75</ele></trkpt>
<trkpt lon="1.215011" lat="45.807134"><ele>314.75</ele></trkpt>
<trkpt lon="1.214962" lat="45.807088"><ele>315.0</ele></trkpt>
<trkpt lon="1.214910" lat="45.807041"><ele>315.25</ele></trkpt>
<trkpt lon="1.214850" lat="45.807047"><ele>315.5</ele></trkpt>
<trkpt lon="1.214562" lat="45.806770"><ele>316.5</ele></trkpt>
<trkpt lon="1.214564" lat="45.806730"><ele>316.5</ele></trkpt>
<trkpt lon="1.214603" lat="45.806685"><ele>316.25</ele></trkpt>
<trkpt lon="1.214570" lat="45.806665"><ele>316.5</ele></trkpt>
<trkpt lon="1.214519" lat="45.806635"><ele>316.5</ele></trkpt>
<trkpt lon="1.214889" lat="45.806455"><ele>314.5</ele></trkpt>
<trkpt lon="1.214319" lat="45.805934"><ele>316.0</ele></trkpt>
<trkpt lon="1.214306" lat="45.805866"><ele>316.0</ele></trkpt>
<trkpt lon="1.214498" lat="45.805599"><ele>314.25</ele></trkpt>
<trkpt lon="1.214071" lat="45.805438"><ele>313.25</ele></trkpt>
<trkpt lon="1.214036" lat="45.805425"><ele>313.25</ele></trkpt>
<trkpt lon="1.214270" lat="45.805107"><ele>310.5</ele></trkpt>
<trkpt lon="1.214264" lat="45.805000"><ele>309.5</ele></trkpt>
<trkpt lon="1.214461" lat="45.804721"><ele>307.0</ele></trkpt>
<trkpt lon="1.214484" lat="45.804655"><ele>306.75</ele></trkpt>
<trkpt lon="1.214512" lat="45.804648"><ele>306.75</ele></trkpt>
<trkpt lon="1.214533" lat="45.804633"><ele>306.75</ele></trkpt>
<trkpt lon="1.214542" lat="45.804613"><ele>306.5</ele></trkpt>
<trkpt lon="1.214538" lat="45.804592"><ele>306.5</ele></trkpt>
<trkpt lon="1.214644" lat="45.804495"><ele>305.5</ele></trkpt>
<trkpt lon="1.214791" lat="45.804292"><ele>304.25</ele></trkpt>
<trkpt lon="1.214734" lat="45.804279"><ele>304.25</ele></trkpt>
<trkpt lon="1.214732" lat="45.804247"><ele>304.25</ele></trkpt>
<trkpt lon="1.214716" lat="45.804217"><ele>304.0</ele></trkpt>
<trkpt lon="1.214659" lat="45.804167"><ele>304.0</ele></trkpt>
<trkpt lon="1.214629" lat="45.804160"><ele>303.75</ele></trkpt>
<trkpt lon="1.214643" lat="45.804126"><ele>303.5</ele></trkpt>
<trkpt lon="1.214402" lat="45.804081"><ele>303.5</ele></trkpt>
<trkpt lon="1.214184" lat="45.804030"><ele>304.75</ele></trkpt>
<trkpt lon="1.214068" lat="45.803988"><ele>305.0</ele></trkpt>
<trkpt lon="1.213897" lat="45.803888"><ele>304.75</ele></trkpt>
<trkpt lon="1.213673" lat="45.803691"><ele>304.75</ele></trkpt>
<trkpt lon="1.213579" lat="45.803577"><ele>305.0</ele></trkpt>
<trkpt lon="1.213551" lat="45.803503"><ele>305.0</ele></trkpt>
<trkpt lon="1.213538" lat="45.803372"><ele>305.25</ele></trkpt>
<trkpt lon="1.213511" lat="45.803086"><ele>307.5</ele></trkpt>
<trkpt lon="1.213477" lat="45.802965"><ele>309.0</ele></trkpt>
<trkpt lon="1.213437" lat="45.802863"><ele>310.0</ele></trkpt>
<trkpt lon="1.213217" lat="45.802388"><ele>314.75</ele></trkpt>
<trkpt lon="1.213138" lat="45.802188"><ele>316.5</ele></trkpt>
<trkpt lon="1.212919" lat="45.801877"><ele>319.75</ele></trkpt>
<trkpt lon="1.212739" lat="45.801637"><ele>322.25</ele></trkpt>
<trkpt lon="1.212658" lat="45.801525"><ele>322.75</ele></trkpt>
<trkpt lon="1.212567" lat="45.801410"><ele>323.5</ele></trkpt>
<trkpt lon="1.212298" lat="45.801075"><ele>324.5</ele></trkpt>
<trkpt lon="1.212222" lat="45.801036"><ele>324.5</ele></trkpt>
<trkpt lon="1.212118" lat="45.801019"><ele>325.25</ele></trkpt>
<trkpt lon="1.212109" lat="45.800986"><ele>325.25</ele></trkpt>
<trkpt lon="1.212073" lat="45.800897"><ele>325.25</ele></trkpt>
<trkpt lon="1.211861" lat="45.800719"><ele>325.0</ele></trkpt>
<trkpt lon="1.211559" lat="45.800638"><ele>325.5</ele></trkpt>
<trkpt lon="1.211171" lat="45.800570"><ele>326.0</ele></trkpt>
<trkpt lon="1.210653" lat="45.800501"><ele>327.0</ele></trkpt>
<trkpt lon="1.210392" lat="45.800476"><ele>326.5</ele></trkpt>
<trkpt lon="1.210158" lat="45.800457"><ele>326.0</ele></trkpt>
<trkpt lon="1.209969" lat="45.800436"><ele>326.0</ele></trkpt>
<trkpt lon="1.209098" lat="45.800338"><ele>323.0</ele></trkpt>
<trkpt lon="1.208799" lat="45.800284"><ele>322.5</ele></trkpt>
<trkpt lon="1.208641" lat="45.800240"><ele>321.75</ele></trkpt>
<trkpt lon="1.208553" lat="45.800180"><ele>321.5</ele></trkpt>
<trkpt lon="1.208423" lat="45.800160"><ele>321.0</ele></trkpt>
<trkpt lon="1.208293" lat="45.800112"><ele>320.75</ele></trkpt>
<trkpt lon="1.208195" lat="45.800047"><ele>320.5</ele></trkpt>
<trkpt lon="1.207931" lat="45.799986"><ele>319.25</ele></trkpt>
<trkpt lon="1.207836" lat="45.799955"><ele>319.0</ele></trkpt>
<trkpt lon="1.206962" lat="45.799736"><ele>319.0</ele></trkpt>
<trkpt lon="1.206297" lat="45.799546"><ele>317.25</ele></trkpt>
<trkpt lon="1.205566" lat="45.799356"><ele>314.25</ele></trkpt>
<trkpt lon="1.204554" lat="45.799134"><ele>311.25</ele></trkpt>
<trkpt lon="1.203172" lat="45.798933"><ele>309.0</ele></trkpt>
<trkpt lon="1.202703" lat="45.798846"><ele>307.25</ele></trkpt>
<trkpt lon="1.202486" lat="45.798803"><ele>306.0</ele></trkpt>
<trkpt lon="1.201477" lat="45.798565"><ele>300.5</ele></trkpt>
<trkpt lon="1.201200" lat="45.798481"><ele>298.5</ele></trkpt>
<trkpt lon="1.200859" lat="45.798387"><ele>297.5</ele></trkpt>
<trkpt lon="1.200621" lat="45.798298"><ele>296.5</ele></trkpt>
<trkpt lon="1.200403" lat="45.798196"><ele>295.5</ele></trkpt>
<trkpt lon="1.200026" lat="45.797993"><ele>294.75</ele></trkpt>
<trkpt lon="1.199908" lat="45.797872"><ele>294.25</ele></trkpt>
<trkpt lon="1.199818" lat="45.797808"><ele>294.0</ele></trkpt>
<trkpt lon="1.199765" lat="45.797740"><ele>293.75</ele></trkpt>
<trkpt lon="1.199735" lat="45.797652"><ele>293.5</ele></trkpt>
<trkpt lon="1.199574" lat="45.797584"><ele>293.25</ele></trkpt>
<trkpt lon="1.199508" lat="45.797622"><ele>293.25</ele></trkpt>
<trkpt lon="1.199256" lat="45.797761"><ele>293.75</ele></trkpt>
<trkpt lon="1.199242" lat="45.797777"><ele>293.75</ele></trkpt>
<trkpt lon="1.199222" lat="45.797804"><ele>293.75</ele></trkpt>
<trkpt lon="1.199306" lat="45.797887"><ele>294.0</ele></trkpt>
<trkpt lon="1.199250" lat="45.797906"><ele>293.75</ele></trkpt>
<trkpt lon="1.198708" lat="45.797871"><ele>292.5</ele></trkpt>
<trkpt lon="1.198495" lat="45.797872"><ele>292.25</ele></trkpt>
<trkpt lon="1.196974" lat="45.797947"><ele>291.0</ele></trkpt>
<trkpt lon="1.195082" lat="45.798057"><ele>294.75</ele></trkpt>
<trkpt lon="1.195062" lat="45.798131"><ele>294.5</ele></trkpt>
<trkpt lon="1.194964" lat="45.798132"><ele>294.5</ele></trkpt>
<trkpt lon="1.194803" lat="45.798132"><ele>294.0</ele></trkpt>
<trkpt lon="1.194120" lat="45.798131"><ele>291.0</ele></trkpt>
<trkpt lon="1.193818" lat="45.798125"><ele>290.5</ele></trkpt>
<trkpt lon="1.193729" lat="45.798184"><ele>290.0</ele></trkpt>
<trkpt lon="1.192091" lat="45.798105"><ele>286.0</ele></trkpt>
<trkpt lon="1.191468" lat="45.798024"><ele>285.5</ele></trkpt>
<trkpt lon="1.190834" lat="45.797864"><ele>286.75</ele></trkpt>
<trkpt lon="1.188816" lat="45.797607"><ele>285.25</ele></trkpt>
<trkpt lon="1.187165" lat="45.797421"><ele>288.25</ele></trkpt>
<trkpt lon="1.186815" lat="45.797331"><ele>288.5</ele></trkpt>
<trkpt lon="1.186671" lat="45.797233"><ele>288.0</ele></trkpt>
<trkpt lon="1.186613" lat="45.797192"><ele>288.25</ele></trkpt>
<trkpt lon="1.185700" lat="45.796265"><ele>293.75</ele></trkpt>
<trkpt lon="1.185465" lat="45.796197"><ele>295.0</ele></trkpt>
<trkpt lon="1.183844" lat="45.796202"><ele>298.5</ele></trkpt>
<trkpt lon="1.182459" lat="45.796213"><ele>296.0</ele></trkpt>
<trkpt lon="1.182806" lat="45.796685"><ele>299.25</ele></trkpt>
<trkpt lon="1.182687" lat="45.796677"><ele>298.5</ele></trkpt>
<trkpt lon="1.181920" lat="45.796682"><ele>293.75</ele></trkpt>
<trkpt lon="1.181569" lat="45.796215"><ele>290.5</ele></trkpt>
<trkpt lon="1.179937" lat="45.796239"><ele>285.75</ele></trkpt>
<trkpt lon="1.179415" lat="45.796164"><ele>284.75</ele></trkpt>
<trkpt lon="1.179236" lat="45.796133"><ele>284.0</ele></trkpt>
<trkpt lon="1.178758" lat="45.796071"><ele>283.0</ele></trkpt>
<trkpt lon="1.178296" lat="45.796035"><ele>283.25</ele></trkpt>
<trkpt lon="1.177867" lat="45.796022"><ele>283.75</ele></trkpt>
<trkpt lon="1.177236" lat="45.796051"><ele>285.0</ele></trkpt>
<trkpt lon="1.176184" lat="45.796077"><ele>283.75</ele></trkpt>
<trkpt lon="1.176029" lat="45.796071"><ele>283.5</ele></trkpt>
<trkpt lon="1.175906" lat="45.796052"><ele>283.0</ele></trkpt>
<trkpt lon="1.175792" lat="45.796011"><ele>282.5</ele></trkpt>
<trkpt lon="1.175615" lat="45.795929"><ele>282.5</ele></trkpt>
<trkpt lon="1.175447" lat="45.795828"><ele>281.75</ele></trkpt>
<trkpt lon="1.175343" lat="45.795744"><ele>281.0</ele></trkpt>
<trkpt lon="1.175309" lat="45.795657"><ele>280.0</ele></trkpt>
<trkpt lon="1.175125" lat="45.795564"><ele>279.0</ele></trkpt>
<trkpt lon="1.175137" lat="45.795470"><ele>278.5</ele></trkpt>
<trkpt lon="1.174934" lat="45.795407"><ele>277.75</ele></trkpt>
<trkpt lon="1.174612" lat="45.795374"><ele>277.25</ele></trkpt>
<trkpt lon="1.174303" lat="45.795267"><ele>275.25</ele></trkpt>
<trkpt lon="1.173929" lat="45.795218"><ele>273.25</ele></trkpt>
<trkpt lon="1.173856" lat="45.795199"><ele>272.75</ele></trkpt>
<trkpt lon="1.173700" lat="45.795140"><ele>272.5</ele></trkpt>
<trkpt lon="1.173595" lat="45.795155"><ele>272.5</ele></trkpt>
<trkpt lon="1.173650" lat="45.795225"><ele>272.75</ele></trkpt>
<trkpt lon="1.173623" lat="45.795251"><ele>272.75</ele></trkpt>
<trkpt lon="1.173540" lat="45.795317"><ele>274.0</ele></trkpt>
<trkpt lon="1.173267" lat="45.795461"><ele>275.75</ele></trkpt>
<trkpt lon="1.172746" lat="45.795605"><ele>273.5</ele></trkpt>
<trkpt lon="1.172737" lat="45.795590"><ele>273.25</ele></trkpt>
<trkpt lon="1.172187" lat="45.794750"><ele>267.75</ele></trkpt>
<trkpt lon="1.172139" lat="45.794714"><ele>267.25</ele></trkpt>
<trkpt lon="1.172095" lat="45.794684"><ele>266.75</ele></trkpt>
<trkpt lon="1.172007" lat="45.794764"><ele>266.5</ele></trkpt>
<trkpt lon="1.171934" lat="45.794815"><ele>266.5</ele></trkpt>
<trkpt lon="1.171809" lat="45.794866"><ele>266.25</ele></trkpt>
<trkpt lon="1.171646" lat="45.794905"><ele>265.5</ele></trkpt>
<trkpt lon="1.171510" lat="45.794916"><ele>264.5</ele></trkpt>
<trkpt lon="1.171392" lat="45.794912"><ele>263.5</ele></trkpt>
<trkpt lon="1.171293" lat="45.794899"><ele>262.75</ele></trkpt>
<trkpt lon="1.171193" lat="45.794876"><ele>262.0</ele></trkpt>
<trkpt lon="1.171043" lat="45.794815"><ele>260.75</ele></trkpt>
<trkpt lon="1.170903" lat="45.794718"><ele>259.25</ele></trkpt>
<trkpt lon="1.170871" lat="45.794733"><ele>259.25</ele></trkpt>
<trkpt lon="1.170196" lat="45.795061"><ele>256.25</ele></trkpt>
<trkpt lon="1.169957" lat="45.795158"><ele>257.0</ele></trkpt>
<trkpt lon="1.169711" lat="45.795244"><ele>257.25</ele></trkpt>
<trkpt lon="1.169647" lat="45.795270"><ele>257.5</ele></trkpt>
<trkpt lon="1.169579" lat="45.795296"><ele>257.5</ele></trkpt>
<trkpt lon="1.168934" lat="45.795476"><ele>258.0</ele></trkpt>
<trkpt lon="1.168047" lat="45.795775"><ele>258.5</ele></trkpt>
<trkpt lon="1.167280" lat="45.795920"><ele>256.0</ele></trkpt>
<trkpt lon="1.166222" lat="45.796130"><ele>254.5</ele></trkpt>
<trkpt lon="1.165478" lat="45.796244"><ele>254.75</ele></trkpt>
<trkpt lon="1.165347" lat="45.796265"><ele>254.5</ele></trkpt>
<trkpt lon="1.165306" lat="45.796255"><ele>254.5</ele></trkpt>
<trkpt lon="1.164671" lat="45.796098"><ele>254.75</ele></trkpt>
<trkpt lon="1.164516" lat="45.796060"><ele>254.75</ele></trkpt>
<trkpt lon="1.163493" lat="45.795867"><ele>256.25</ele></trkpt>
<trkpt lon="1.161731" lat="45.795707"><ele>255.0</ele></trkpt>
<trkpt lon="1.161353" lat="45.795741"><ele>256.25</ele></trkpt>
<trkpt lon="1.160759" lat="45.795875"><ele>259.0</ele></trkpt>
<trkpt lon="1.159933" lat="45.796023"><ele>262.0</ele></trkpt>
<trkpt lon="1.159580" lat="45.796027"><ele>263.25</ele></trkpt>
<trkpt lon="1.159187" lat="45.795977"><ele>264.25</ele></trkpt>
<trkpt lon="1.158313" lat="45.795923"><ele>263.5</ele></trkpt>
<trkpt lon="1.157405" lat="45.795785"><ele>259.75</ele></trkpt>
<trkpt lon="1.156720" lat="45.795729"><ele>256.75</ele></trkpt>
<trkpt lon="1.156374" lat="45.795739"><ele>255.5</ele></trkpt>
<trkpt lon="1.155854" lat="45.796740"><ele>250.5</ele></trkpt>
<trkpt lon="1.155830" lat="45.797022"><ele>248.0</ele></trkpt>
<trkpt lon="1.155886" lat="45.797168"><ele>246.75</ele></trkpt>
<trkpt lon="1.156025" lat="45.797327"><ele>245.0</ele></trkpt>
<trkpt lon="1.156261" lat="45.797576"><ele>238.5</ele></trkpt>
<trkpt lon="1.155456" lat="45.797941"><ele>226.75</ele></trkpt>
<trkpt lon="1.155242" lat="45.798139"><ele>220.5</ele></trkpt>
<trkpt lon="1.155137" lat="45.798199"><ele>217.0</ele></trkpt>
<trkpt lon="1.155079" lat="45.798144"><ele>219.0</ele></trkpt>
<trkpt lon="1.155004" lat="45.798183"><ele>216.75</ele></trkpt>
<trkpt lon="1.154727" lat="45.798293"><ele>215.0</ele></trkpt>
<trkpt lon="1.154676" lat="45.798338"><ele>214.75</ele></trkpt>
<trkpt lon="1.154650" lat="45.798518"><ele>211.25</ele></trkpt>
<trkpt lon="1.154396" lat="45.798450"><ele>209.0</ele></trkpt>
<trkpt lon="1.154186" lat="45.798365"><ele>207.0</ele></trkpt>
<trkpt lon="1.154191" lat="45.798329"><ele>207.0</ele></trkpt>
<trkpt lon="1.154408" lat="45.798243"><ele>208.5</ele></trkpt>
<trkpt lon="1.154514" lat="45.798164"><ele>209.0</ele></trkpt>
<trkpt lon="1.154549" lat="45.798015"><ele>208.5</ele></trkpt>
<trkpt lon="1.153712" lat="45.797048"><ele>205.5</ele></trkpt>
<trkpt lon="1.153536" lat="45.797118"><ele>205.0</ele></trkpt>
<trkpt lon="1.151586" lat="45.797894"><ele>205.0</ele></trkpt>
<trkpt lon="1.151416" lat="45.797900"><ele>205.0</ele></trkpt>
<trkpt lon="1.151320" lat="45.797954"><ele>204.75</ele></trkpt>
<trkpt lon="1.151068" lat="45.798120"><ele>206.0</ele></trkpt>
<trkpt lon="1.150976" lat="45.798214"><ele>207.5</ele></trkpt>
<trkpt lon="1.150966" lat="45.798288"><ele>207.75</ele></trkpt>
<trkpt lon="1.150843" lat="45.798385"><ele>209.25</ele></trkpt>
<trkpt lon="1.150825" lat="45.798401"><ele>209.5</ele></trkpt>
<trkpt lon="1.150677" lat="45.798521"><ele>212.0</ele></trkpt>
<trkpt lon="1.150567" lat="45.798576"><ele>213.0</ele></trkpt>
<trkpt lon="1.150131" lat="45.798336"><ele>216.0</ele></trkpt>
<trkpt lon="1.149865" lat="45.798221"><ele>218.25</ele></trkpt>
<trkpt lon="1.148850" lat="45.797803"><ele>224.5</ele></trkpt>
<trkpt lon="1.148653" lat="45.797679"><ele>225.75</ele></trkpt>
<trkpt lon="1.148572" lat="45.797574"><ele>225.5</ele></trkpt>
<trkpt lon="1.148455" lat="45.797488"><ele>224.75</ele></trkpt>
<trkpt lon="1.148429" lat="45.797538"><ele>225.25</ele></trkpt>
<trkpt lon="1.148372" lat="45.797520"><ele>225.0</ele></trkpt>
<trkpt lon="1.148238" lat="45.797454"><ele>224.75</ele></trkpt>
<trkpt lon="1.148116" lat="45.797403"><ele>224.75</ele></trkpt>
<trkpt lon="1.147990" lat="45.797384"><ele>224.5</ele></trkpt>
<trkpt lon="1.147433" lat="45.797418"><ele>223.0</ele></trkpt>
<trkpt lon="1.146603" lat="45.797534"><ele>219.25</ele></trkpt>
<trkpt lon="1.146554" lat="45.797572"><ele>219.5</ele></trkpt>
<trkpt lon="1.146338" lat="45.797577"><ele>218.25</ele></trkpt>
<trkpt lon="1.146227" lat="45.797580"><ele>217.75</ele></trkpt>
<trkpt lon="1.145232" lat="45.797741"><ele>213.25</ele></trkpt>
<trkpt lon="1.144093" lat="45.797881"><ele>207.25</ele></trkpt>
<trkpt lon="1.143926" lat="45.797895"><ele>206.0</ele></trkpt>
<trkpt lon="1.143849" lat="45.797898"><ele>205.5</ele></trkpt>
<trkpt lon="1.143695" lat="45.797836"><ele>204.75</ele></trkpt>
<trkpt lon="1.143558" lat="45.797814"><ele>204.25</ele></trkpt>
<trkpt lon="1.143481" lat="45.797787"><ele>204.0</ele></trkpt>
<trkpt lon="1.143445" lat="45.797774"><ele>203.75</ele></trkpt>
<trkpt lon="1.143418" lat="45.797758"><ele>203.25</ele></trkpt>
<trkpt lon="1.143384" lat="45.797738"><ele>202.75</ele></trkpt>
<trkpt lon="1.143364" lat="45.797723"><ele>202.25</ele></trkpt>
<trkpt lon="1.143346" lat="45.797709"><ele>202.25</ele></trkpt>
<trkpt lon="1.142345" lat="45.796892"><ele>202.5</ele></trkpt>
<trkpt lon="1.142201" lat="45.796777"><ele>202.75</ele></trkpt>
<trkpt lon="1.142119" lat="45.796717"><ele>202.75</ele></trkpt>
<trkpt lon="1.142014" lat="45.796665"><ele>202.5</ele></trkpt>
<trkpt lon="1.141943" lat="45.796651"><ele>202.75</ele></trkpt>
<trkpt lon="1.141846" lat="45.796644"><ele>203.0</ele></trkpt>
<trkpt lon="1.141719" lat="45.796650"><ele>203.75</ele></trkpt>
<trkpt lon="1.141666" lat="45.796651"><ele>203.75</ele></trkpt>
<trkpt lon="1.141598" lat="45.796656"><ele>203.75</ele></trkpt>
<trkpt lon="1.141432" lat="45.796681"><ele>203.75</ele></trkpt>
<trkpt lon="1.141403" lat="45.796690"><ele>203.75</ele></trkpt>
<trkpt lon="1.141310" lat="45.796721"><ele>204.25</ele></trkpt>
<trkpt lon="1.141193" lat="45.796808"><ele>205.25</ele></trkpt>
<trkpt lon="1.141146" lat="45.796864"><ele>205.5</ele></trkpt>
<trkpt lon="1.141011" lat="45.796934"><ele>207.25</ele></trkpt>
<trkpt lon="1.140797" lat="45.797052"><ele>209.5</ele></trkpt>
<trkpt lon="1.140587" lat="45.797040"><ele>212.5</ele></trkpt>
<trkpt lon="1.140482" lat="45.797026"><ele>213.5</ele></trkpt>
<trkpt lon="1.140387" lat="45.797005"><ele>214.0</ele></trkpt>
<trkpt lon="1.140270" lat="45.796948"><ele>215.0</ele></trkpt>
<trkpt lon="1.139984" lat="45.796757"><ele>219.0</ele></trkpt>
<trkpt lon="1.139391" lat="45.796445"><ele>224.75</ele></trkpt>
<trkpt lon="1.139029" lat="45.796368"><ele>224.75</ele></trkpt>
<trkpt lon="1.138765" lat="45.796312"><ele>225.25</ele></trkpt>
<trkpt lon="1.138112" lat="45.796154"><ele>226.0</ele></trkpt>
<trkpt lon="1.137705" lat="45.796045"><ele>226.0</ele></trkpt>
<trkpt lon="1.137304" lat="45.795947"><ele>226.0</ele></trkpt>
<trkpt lon="1.136808" lat="45.795817"><ele>226.0</ele></trkpt>
<trkpt lon="1.136725" lat="45.795791"><ele>226.0</ele></trkpt>
<trkpt lon="1.136683" lat="45.795726"><ele>226.25</ele></trkpt>
<trkpt lon="1.136653" lat="45.795653"><ele>226.5</ele></trkpt>
<trkpt lon="1.136614" lat="45.795533"><ele>227.0</ele></trkpt>
<trkpt lon="1.136579" lat="45.795417"><ele>227.5</ele></trkpt>
<trkpt lon="1.136552" lat="45.795200"><ele>228.25</ele></trkpt>
<trkpt lon="1.136563" lat="45.795039"><ele>228.0</ele></trkpt>
<trkpt lon="1.136598" lat="45.794892"><ele>227.75</ele></trkpt>
<trkpt lon="1.136623" lat="45.794820"><ele>227.5</ele></trkpt>
<trkpt lon="1.136703" lat="45.794624"><ele>227.0</ele></trkpt>
<trkpt lon="1.136906" lat="45.794199"><ele>227.0</ele></trkpt>
<trkpt lon="1.137003" lat="45.793941"><ele>228.5</ele></trkpt>
<trkpt lon="1.137029" lat="45.793825"><ele>229.25</ele></trkpt>
<trkpt lon="1.137047" lat="45.793750"><ele>230.0</ele></trkpt>
<trkpt lon="1.137054" lat="45.793302"><ele>232.5</ele></trkpt>
<trkpt lon="1.137013" lat="45.793172"><ele>233.25</ele></trkpt>
<trkpt lon="1.136825" lat="45.792740"><ele>237.0</ele></trkpt>
<trkpt lon="1.136577" lat="45.792109"><ele>241.5</ele></trkpt>
<trkpt lon="1.136524" lat="45.791996"><ele>242.5</ele></trkpt>
<trkpt lon="1.136496" lat="45.791927"><ele>242.75</ele></trkpt>
<trkpt lon="1.136354" lat="45.791607"><ele>243.5</ele></trkpt>
<trkpt lon="1.136317" lat="45.791516"><ele>243.75</ele></trkpt>
<trkpt lon="1.136273" lat="45.791435"><ele>244.0</ele></trkpt>
<trkpt lon="1.136114" lat="45.791233"><ele>243.75</ele></trkpt>
<trkpt lon="1.136034" lat="45.791153"><ele>244.25</ele></trkpt>
<trkpt lon="1.135945" lat="45.791091"><ele>244.25</ele></trkpt>
<trkpt lon="1.135876" lat="45.791047"><ele>243.75</ele></trkpt>
<trkpt lon="1.135668" lat="45.790954"><ele>244.0</ele></trkpt>
<trkpt lon="1.135484" lat="45.790898"><ele>244.75</ele></trkpt>
<trkpt lon="1.135098" lat="45.790780"><ele>245.25</ele></trkpt>
<trkpt lon="1.134947" lat="45.790734"><ele>245.25</ele></trkpt>
<trkpt lon="1.134639" lat="45.790640"><ele>244.75</ele></trkpt>
<trkpt lon="1.134060" lat="45.790479"><ele>243.0</ele></trkpt>
<trkpt lon="1.133608" lat="45.790259"><ele>243.75</ele></trkpt>
<trkpt lon="1.132740" lat="45.789746"><ele>246.25</ele></trkpt>
<trkpt lon="1.132399" lat="45.789552"><ele>247.0</ele></trkpt>
<trkpt lon="1.132407" lat="45.789511"><ele>246.75</ele></trkpt>
<trkpt lon="1.132335" lat="45.789260"><ele>245.0</ele></trkpt>
<trkpt lon="1.132228" lat="45.788836"><ele>242.25</ele></trkpt>
<trkpt lon="1.132234" lat="45.788663"><ele>241.0</ele></trkpt>
<trkpt lon="1.132337" lat="45.788330"><ele>239.5</ele></trkpt>
<trkpt lon="1.132452" lat="45.788167"><ele>236.75</ele></trkpt>
<trkpt lon="1.132650" lat="45.787255"><ele>232.75</ele></trkpt>
<trkpt lon="1.132643" lat="45.787166"><ele>232.25</ele></trkpt>
<trkpt lon="1.132571" lat="45.786839"><ele>229.25</ele></trkpt>
<trkpt lon="1.132551" lat="45.786802"><ele>228.75</ele></trkpt>
<trkpt lon="1.132383" lat="45.786473"><ele>226.75</ele></trkpt>
<trkpt lon="1.132363" lat="45.786313"><ele>227.25</ele></trkpt>
<trkpt lon="1.132379" lat="45.786205"><ele>228.75</ele></trkpt>
<trkpt lon="1.132427" lat="45.786151"><ele>229.0</ele></trkpt>
<trkpt lon="1.132178" lat="45.786082"><ele>231.75</ele></trkpt>
<trkpt lon="1.132111" lat="45.786014"><ele>233.75</ele></trkpt>
<trkpt lon="1.131651" lat="45.785133"><ele>247.75</ele></trkpt>
<trkpt lon="1.131535" lat="45.784801"><ele>253.75</ele></trkpt>
<trkpt lon="1.131150" lat="45.784514"><ele>256.5</ele></trkpt>
<trkpt lon="1.130585" lat="45.784272"><ele>257.0</ele></trkpt>
<trkpt lon="1.130353" lat="45.784192"><ele>257.0</ele></trkpt>
<trkpt lon="1.130135" lat="45.784219"><ele>258.0</ele></trkpt>
<trkpt lon="1.129929" lat="45.784129"><ele>258.0</ele></trkpt>
<trkpt lon="1.129328" lat="45.783584"><ele>260.75</ele></trkpt>
<trkpt lon="1.129031" lat="45.783205"><ele>263.0</ele></trkpt>
<trkpt lon="1.129369" lat="45.782827"><ele>262.0</ele></trkpt>
<trkpt lon="1.129391" lat="45.782770"><ele>262.0</ele></trkpt>
<trkpt lon="1.128581" lat="45.782243"><ele>263.0</ele></trkpt>
<trkpt lon="1.128504" lat="45.782193"><ele>262.75</ele></trkpt>
<trkpt lon="1.128317" lat="45.782029"><ele>262.25</ele></trkpt>
<trkpt lon="1.128165" lat="45.781841"><ele>261.75</ele></trkpt>
<trkpt lon="1.128056" lat="45.781618"><ele>260.5</ele></trkpt>
<trkpt lon="1.127967" lat="45.781215"><ele>258.25</ele></trkpt>
<trkpt lon="1.127952" lat="45.780892"><ele>258.0</ele></trkpt>
<trkpt lon="1.128002" lat="45.780679"><ele>258.25</ele></trkpt>
<trkpt lon="1.128407" lat="45.780036"><ele>261.25</ele></trkpt>
<trkpt lon="1.128874" lat="45.779294"><ele>267.0</ele></trkpt>
<trkpt lon="1.128834" lat="45.778806"><ele>269.0</ele></trkpt>
<trkpt lon="1.128514" lat="45.777180"><ele>261.0</ele></trkpt>
<trkpt lon="1.128330" lat="45.776975"><ele>258.5</ele></trkpt>
<trkpt lon="1.127789" lat="45.776404"><ele>257.0</ele></trkpt>
<trkpt lon="1.126650" lat="45.775374"><ele>253.25</ele></trkpt>
<trkpt lon="1.126388" lat="45.775204"><ele>255.25</ele></trkpt>
<trkpt lon="1.125674" lat="45.774528"><ele>260.25</ele></trkpt>
<trkpt lon="1.125658" lat="45.774340"><ele>260.0</ele></trkpt>
<trkpt lon="1.125592" lat="45.774175"><ele>259.75</ele></trkpt>
<trkpt lon="1.125498" lat="45.774035"><ele>259.5</ele></trkpt>
<trkpt lon="1.125431" lat="45.773984"><ele>259.75</ele></trkpt>
<trkpt lon="1.125346" lat="45.773944"><ele>259.75</ele></trkpt>
<trkpt lon="1.125259" lat="45.773931"><ele>260.0</ele></trkpt>
<trkpt lon="1.125153" lat="45.773946"><ele>260.5</ele></trkpt>
<trkpt lon="1.124851" lat="45.774024"><ele>262.25</ele></trkpt>
<trkpt lon="1.115441" lat="45.772289"><ele>299.75</ele></trkpt>
<trkpt lon="1.115226" lat="45.772258"><ele>299.5</ele></trkpt>
<trkpt lon="1.115203" lat="45.772254"><ele>299.5</ele></trkpt>
<trkpt lon="1.115176" lat="45.772249"><ele>299.5</ele></trkpt>
<trkpt lon="1.114808" lat="45.771304"><ele>300.25</ele></trkpt>
<trkpt lon="1.114736" lat="45.771309"><ele>300.5</ele></trkpt>
<trkpt lon="1.114627" lat="45.771222"><ele>300.5</ele></trkpt>
<trkpt lon="1.113719" lat="45.769848"><ele>302.5</ele></trkpt>
<trkpt lon="1.112592" lat="45.768332"><ele>305.5</ele></trkpt>
<trkpt lon="1.112136" lat="45.767395"><ele>303.5</ele></trkpt>
<trkpt lon="1.111632" lat="45.766186"><ele>299.5</ele></trkpt>
<trkpt lon="1.111507" lat="45.765989"><ele>299.5</ele></trkpt>
<trkpt lon="1.111186" lat="45.765501"><ele>299.25</ele></trkpt>
<trkpt lon="1.110930" lat="45.765201"><ele>298.5</ele></trkpt>
<trkpt lon="1.110666" lat="45.764959"><ele>298.25</ele></trkpt>
<trkpt lon="1.110377" lat="45.764187"><ele>298.25</ele></trkpt>
<trkpt lon="1.110138" lat="45.763203"><ele>298.25</ele></trkpt>
<trkpt lon="1.110130" lat="45.762627"><ele>295.5</ele></trkpt>
<trkpt lon="1.110072" lat="45.762275"><ele>294.5</ele></trkpt>
<trkpt lon="1.110006" lat="45.761987"><ele>294.0</ele></trkpt>
<trkpt lon="1.109717" lat="45.761572"><ele>293.25</ele></trkpt>
<trkpt lon="1.109560" lat="45.761204"><ele>291.75</ele></trkpt>
<trkpt lon="1.109816" lat="45.760945"><ele>288.25</ele></trkpt>
<trkpt lon="1.110534" lat="45.760541"><ele>284.75</ele></trkpt>
<trkpt lon="1.110996" lat="45.760253"><ele>280.5</ele></trkpt>
<trkpt lon="1.111171" lat="45.760080"><ele>277.75</ele></trkpt>
<trkpt lon="1.110669" lat="45.759783"><ele>278.0</ele></trkpt>
<trkpt lon="1.110484" lat="45.759684"><ele>277.75</ele></trkpt>
<trkpt lon="1.110558" lat="45.759557"><ele>276.75</ele></trkpt>
<trkpt lon="1.110398" lat="45.759421"><ele>276.25</ele></trkpt>
<trkpt lon="1.110443" lat="45.759246"><ele>274.5</ele></trkpt>
<trkpt lon="1.110463" lat="45.758998"><ele>271.5</ele></trkpt>
<trkpt lon="1.110383" lat="45.758837"><ele>269.25</ele></trkpt>
<trkpt lon="1.110212" lat="45.758771"><ele>267.5</ele></trkpt>
<trkpt lon="1.109907" lat="45.758704"><ele>264.0</ele></trkpt>
<trkpt lon="1.109536" lat="45.758666"><ele>261.0</ele></trkpt>
<trkpt lon="1.109230" lat="45.758648"><ele>258.25</ele></trkpt>
<trkpt lon="1.109068" lat="45.758583"><ele>255.75</ele></trkpt>
<trkpt lon="1.108694" lat="45.758505"><ele>252.75</ele></trkpt>
<trkpt lon="1.108343" lat="45.758505"><ele>252.25</ele></trkpt>
<trkpt lon="1.108062" lat="45.758512"><ele>252.0</ele></trkpt>
<trkpt lon="1.107691" lat="45.758498"><ele>253.25</ele></trkpt>
<trkpt lon="1.107501" lat="45.758431"><ele>253.25</ele></trkpt>
<trkpt lon="1.107415" lat="45.758229"><ele>251.0</ele></trkpt>
<trkpt lon="1.107405" lat="45.757998"><ele>248.25</ele></trkpt>
<trkpt lon="1.107521" lat="45.757505"><ele>247.75</ele></trkpt>
<trkpt lon="1.107551" lat="45.757403"><ele>248.75</ele></trkpt>
<trkpt lon="1.107706" lat="45.757148"><ele>252.0</ele></trkpt>
<trkpt lon="1.107892" lat="45.756875"><ele>256.25</ele></trkpt>
<trkpt lon="1.108107" lat="45.756641"><ele>259.5</ele></trkpt>
<trkpt lon="1.108382" lat="45.756362"><ele>262.75</ele></trkpt>
<trkpt lon="1.108051" lat="45.756313"><ele>263.0</ele></trkpt>
<trkpt lon="1.106352" lat="45.756110"><ele>266.0</ele></trkpt>
<trkpt lon="1.106167" lat="45.756075"><ele>266.25</ele></trkpt>
<trkpt lon="1.104703" lat="45.755627"><ele>275.75</ele></trkpt>
<trkpt lon="1.104503" lat="45.755519"><ele>277.75</ele></trkpt>
<trkpt lon="1.104302" lat="45.755330"><ele>280.0</ele></trkpt>
<trkpt lon="1.103270" lat="45.753914"><ele>285.75</ele></trkpt>
<trkpt lon="1.102892" lat="45.753425"><ele>287.0</ele></trkpt>
<trkpt lon="1.102353" lat="45.752835"><ele>289.5</ele></trkpt>
<trkpt lon="1.101650" lat="45.751394"><ele>293.0</ele></trkpt>
<trkpt lon="1.098532" lat="45.747817"><ele>294.0</ele></trkpt>
<trkpt lon="1.098501" lat="45.747794"><ele>294.0</ele></trkpt>
<trkpt lon="1.098479" lat="45.747765"><ele>294.0</ele></trkpt>
<trkpt lon="1.098298" lat="45.747518"><ele>295.75</ele></trkpt>
<trkpt lon="1.098107" lat="45.747427"><ele>297.5</ele></trkpt>
<trkpt lon="1.097811" lat="45.747382"><ele>299.0</ele></trkpt>
<trkpt lon="1.097446" lat="45.747341"><ele>300.0</ele></trkpt>
<trkpt lon="1.097075" lat="45.747230"><ele>301.25</ele></trkpt>
<trkpt lon="1.095647" lat="45.746684"><ele>307.75</ele></trkpt>
<trkpt lon="1.095110" lat="45.746346"><ele>307.25</ele></trkpt>
<trkpt lon="1.094640" lat="45.746004"><ele>306.0</ele></trkpt>
<trkpt lon="1.093742" lat="45.745013"><ele>300.0</ele></trkpt>
<trkpt lon="1.092070" lat="45.743133"><ele>297.5</ele></trkpt>
<trkpt lon="1.091892" lat="45.742887"><ele>297.75</ele></trkpt>
<trkpt lon="1.091676" lat="45.742555"><ele>298.0</ele></trkpt>
<trkpt lon="1.091435" lat="45.742267"><ele>298.75</ele></trkpt>
<trkpt lon="1.091359" lat="45.742185"><ele>298.75</ele></trkpt>
<trkpt lon="1.090976" lat="45.741868"><ele>299.25</ele></trkpt>
<trkpt lon="1.090169" lat="45.741324"><ele>295.25</ele></trkpt>
<trkpt lon="1.089979" lat="45.741236"><ele>294.75</ele></trkpt>
<trkpt lon="1.088066" lat="45.740665"><ele>300.25</ele></trkpt>
<trkpt lon="1.087389" lat="45.740409"><ele>296.25</ele></trkpt>
<trkpt lon="1.085741" lat="45.739626"><ele>300.25</ele></trkpt>
<trkpt lon="1.085486" lat="45.739536"><ele>301.5</ele></trkpt>
<trkpt lon="1.085282" lat="45.739492"><ele>301.75</ele></trkpt>
<trkpt lon="1.084586" lat="45.739436"><ele>299.25</ele></trkpt>
<trkpt lon="1.083907" lat="45.739298"><ele>297.75</ele></trkpt>
<trkpt lon="1.083779" lat="45.739219"><ele>298.0</ele></trkpt>
<trkpt lon="1.083663" lat="45.738996"><ele>298.0</ele></trkpt>
<trkpt lon="1.083670" lat="45.738856"><ele>297.0</ele></trkpt>
<trkpt lon="1.083455" lat="45.738882"><ele>300.0</ele></trkpt>
<trkpt lon="1.083358" lat="45.738956"><ele>301.75</ele></trkpt>
<trkpt lon="1.081867" lat="45.740922"><ele>328.25</ele></trkpt>
<trkpt lon="1.081761" lat="45.741098"><ele>329.75</ele></trkpt>
<trkpt lon="1.081548" lat="45.742180"><ele>333.25</ele></trkpt>
<trkpt lon="1.079898" lat="45.741868"><ele>343.0</ele></trkpt>
<trkpt lon="1.079503" lat="45.741776"><ele>343.0</ele></trkpt>
<trkpt lon="1.077661" lat="45.740930"><ele>342.75</ele></trkpt>
<trkpt lon="1.077378" lat="45.740771"><ele>342.75</ele></trkpt>
<trkpt lon="1.077072" lat="45.740574"><ele>342.25</ele></trkpt>
<trkpt lon="1.074737" lat="45.738543"><ele>329.5</ele></trkpt>
<trkpt lon="1.074363" lat="45.738240"><ele>326.0</ele></trkpt>
<trkpt lon="1.074133" lat="45.738307"><ele>325.75</ele></trkpt>
<trkpt lon="1.073897" lat="45.738325"><ele>325.0</ele></trkpt>
<trkpt lon="1.073744" lat="45.738298"><ele>324.5</ele></trkpt>
<trkpt lon="1.073257" lat="45.738160"><ele>323.5</ele></trkpt>
<trkpt lon="1.073122" lat="45.737623"><ele>324.0</ele></trkpt>
<trkpt lon="1.072963" lat="45.737240"><ele>323.5</ele></trkpt>
<trkpt lon="1.072975" lat="45.737125"><ele>323.5</ele></trkpt>
<trkpt lon="1.072875" lat="45.737090"><ele>323.25</ele></trkpt>
<trkpt lon="1.072373" lat="45.736660"><ele>322.5</ele></trkpt>
<trkpt lon="1.072184" lat="45.736597"><ele>322.0</ele></trkpt>
<trkpt lon="1.071793" lat="45.736540"><ele>321.5</ele></trkpt>
<trkpt lon="1.071478" lat="45.736481"><ele>321.0</ele></trkpt>
<trkpt lon="1.071244" lat="45.736401"><ele>320.25</ele></trkpt>
<trkpt lon="1.070155" lat="45.735732"><ele>320.0</ele></trkpt>
<trkpt lon="1.069039" lat="45.735354"><ele>321.0</ele></trkpt>
<trkpt lon="1.068735" lat="45.735223"><ele>322.0</ele></trkpt>
<trkpt lon="1.068604" lat="45.735059"><ele>323.0</ele></trkpt>
<trkpt lon="1.068584" lat="45.734728"><ele>323.0</ele></trkpt>
<trkpt lon="1.068579" lat="45.734377"><ele>324.0</ele></trkpt>
<trkpt lon="1.068492" lat="45.733798"><ele>324.75</ele></trkpt>
<trkpt lon="1.068442" lat="45.733517"><ele>325.25</ele></trkpt>
<trkpt lon="1.068310" lat="45.733326"><ele>327.0</ele></trkpt>
<trkpt lon="1.068188" lat="45.733194"><ele>327.75</ele></trkpt>
<trkpt lon="1.066913" lat="45.732132"><ele>333.0</ele></trkpt>
<trkpt lon="1.066264" lat="45.731692"><ele>333.5</ele></trkpt>
<trkpt lon="1.064678" lat="45.730300"><ele>324.75</ele></trkpt>
<trkpt lon="1.064598" lat="45.730191"><ele>323.25</ele></trkpt>
<trkpt lon="1.064556" lat="45.730074"><ele>321.75</ele></trkpt>
<trkpt lon="1.064521" lat="45.729611"><ele>319.0</ele></trkpt>
<trkpt lon="1.064594" lat="45.728828"><ele>320.75</ele></trkpt>
<trkpt lon="1.064556" lat="45.728523"><ele>322.5</ele></trkpt>
<trkpt lon="1.064454" lat="45.728304"><ele>322.75</ele></trkpt>
<trkpt lon="1.064255" lat="45.728015"><ele>324.0</ele></trkpt>
<trkpt lon="1.064116" lat="45.727904"><ele>324.75</ele></trkpt>
<trkpt lon="1.063912" lat="45.727774"><ele>325.75</ele></trkpt>
<trkpt lon="1.063266" lat="45.727461"><ele>328.25</ele></trkpt>
<trkpt lon="1.062212" lat="45.726123"><ele>328.75</ele></trkpt>
<trkpt lon="1.062130" lat="45.725979"><ele>330.25</ele></trkpt>
<trkpt lon="1.062085" lat="45.725828"><ele>331.5</ele></trkpt>
<trkpt lon="1.062115" lat="45.725644"><ele>333.5</ele></trkpt>
<trkpt lon="1.062366" lat="45.724811"><ele>337.75</ele></trkpt>
<trkpt lon="1.062463" lat="45.724488"><ele>338.75</ele></trkpt>
<trkpt lon="1.057902" lat="45.723624"><ele>349.75</ele></trkpt>
<trkpt lon="1.055628" lat="45.722909"><ele>354.0</ele></trkpt>
<trkpt lon="1.055097" lat="45.722696"><ele>353.5</ele></trkpt>
<trkpt lon="1.054695" lat="45.722498"><ele>353.0</ele></trkpt>
<trkpt lon="1.052582" lat="45.721302"><ele>361.0</ele></trkpt>
<trkpt lon="1.052450" lat="45.721250"><ele>360.75</ele></trkpt>
<trkpt lon="1.052432" lat="45.721057"><ele>360.75</ele></trkpt>
<trkpt lon="1.051427" lat="45.719398"><ele>358.25</ele></trkpt>
<trkpt lon="1.051493" lat="45.719338"><ele>358.5</ele></trkpt>
<trkpt lon="1.051042" lat="45.719025"><ele>358.0</ele></trkpt>
<trkpt lon="1.049588" lat="45.717952"><ele>358.0</ele></trkpt>
<trkpt lon="1.049009" lat="45.717459"><ele>356.75</ele></trkpt>
<trkpt lon="1.047728" lat="45.716100"><ele>356.75</ele></trkpt>
<trkpt lon="1.047244" lat="45.715576"><ele>357.75</ele></trkpt>
<trkpt lon="1.047089" lat="45.715408"><ele>358.25</ele></trkpt>
<trkpt lon="1.046813" lat="45.715022"><ele>359.25</ele></trkpt>
<trkpt lon="1.046259" lat="45.713792"><ele>361.0</ele></trkpt>
<trkpt lon="1.046362" lat="45.713686"><ele>361.0</ele></trkpt>
<trkpt lon="1.044953" lat="45.712037"><ele>358.75</ele></trkpt>
<trkpt lon="1.044723" lat="45.711833"><ele>359.25</ele></trkpt>
<trkpt lon="1.044422" lat="45.711659"><ele>359.0</ele></trkpt>
<trkpt lon="1.044092" lat="45.711548"><ele>359.25</ele></trkpt>
<trkpt lon="1.042101" lat="45.711061"><ele>359.0</ele></trkpt>
<trkpt lon="1.041934" lat="45.710973"><ele>359.0</ele></trkpt>
<trkpt lon="1.042073" lat="45.710876"><ele>359.0</ele></trkpt>
<trkpt lon="1.042156" lat="45.710740"><ele>359.0</ele></trkpt>
<trkpt lon="1.042331" lat="45.709562"><ele>356.25</ele></trkpt>
<trkpt lon="1.042366" lat="45.709482"><ele>356.0</ele></trkpt>
<trkpt lon="1.041817" lat="45.709078"><ele>354.5</ele></trkpt>
<trkpt lon="1.041713" lat="45.708952"><ele>354.5</ele></trkpt>
<trkpt lon="1.041632" lat="45.708809"><ele>355.0</ele></trkpt>
<trkpt lon="1.041600" lat="45.708679"><ele>355.0</ele></trkpt>
<trkpt lon="1.041457" lat="45.707136"><ele>354.75</ele></trkpt>
<trkpt lon="1.041379" lat="45.706897"><ele>356.0</ele></trkpt>
<trkpt lon="1.041270" lat="45.706677"><ele>356.75</ele></trkpt>
<trkpt lon="1.041056" lat="45.706352"><ele>358.25</ele></trkpt>
<trkpt lon="1.039054" lat="45.703497"><ele>376.0</ele></trkpt>
<trkpt lon="1.038888" lat="45.703185"><ele>376.0</ele></trkpt>
<trkpt lon="1.038812" lat="45.702939"><ele>376.25</ele></trkpt>
<trkpt lon="1.038770" lat="45.702683"><ele>376.75</ele></trkpt>
<trkpt lon="1.038759" lat="45.702457"><ele>377.5</ele></trkpt>
<trkpt lon="1.038731" lat="45.702369"><ele>378.0</ele></trkpt>
<trkpt lon="1.036784" lat="45.703060"><ele>386.5</ele></trkpt>
<trkpt lon="1.036778" lat="45.703033"><ele>386.75</ele></trkpt>
<trkpt lon="1.036759" lat="45.702949"><ele>387.75</ele></trkpt>
<trkpt lon="1.036771" lat="45.702661"><ele>389.75</ele></trkpt>
<trkpt lon="1.036746" lat="45.702489"><ele>390.5</ele></trkpt>
<trkpt lon="1.036650" lat="45.702090"><ele>391.25</ele></trkpt>
<trkpt lon="1.036634" lat="45.701797"><ele>392.0</ele></trkpt>
<trkpt lon="1.036640" lat="45.701438"><ele>392.0</ele></trkpt>
<trkpt lon="1.036634" lat="45.701263"><ele>392.5</ele></trkpt>
<trkpt lon="1.036596" lat="45.701071"><ele>393.0</ele></trkpt>
<trkpt lon="1.036412" lat="45.700620"><ele>394.0</ele></trkpt>
<trkpt lon="1.036390" lat="45.700534"><ele>394.0</ele></trkpt>
<trkpt lon="1.036379" lat="45.700335"><ele>394.75</ele></trkpt>
<trkpt lon="1.036391" lat="45.700246"><ele>394.75</ele></trkpt>
<trkpt lon="1.036475" lat="45.699886"><ele>395.0</ele></trkpt>
<trkpt lon="1.036487" lat="45.699748"><ele>395.0</ele></trkpt>
<trkpt lon="1.036484" lat="45.699357"><ele>394.75</ele></trkpt>
<trkpt lon="1.036455" lat="45.699264"><ele>394.5</ele></trkpt>
<trkpt lon="1.036360" lat="45.699137"><ele>394.0</ele></trkpt>
<trkpt lon="1.036139" lat="45.698908"><ele>394.0</ele></trkpt>
<trkpt lon="1.036030" lat="45.698717"><ele>393.25</ele></trkpt>
<trkpt lon="1.035906" lat="45.698472"><ele>393.0</ele></trkpt>
<trkpt lon="1.035832" lat="45.698322"><ele>392.75</ele></trkpt>
<trkpt lon="1.035802" lat="45.698240"><ele>392.5</ele></trkpt>
<trkpt lon="1.035773" lat="45.698139"><ele>392.25</ele></trkpt>
<trkpt lon="1.035723" lat="45.697840"><ele>392.5</ele></trkpt>
<trkpt lon="1.035714" lat="45.697534"><ele>392.5</ele></trkpt>
<trkpt lon="1.035727" lat="45.697326"><ele>392.0</ele></trkpt>
<trkpt lon="1.035779" lat="45.697140"><ele>392.0</ele></trkpt>
<trkpt lon="1.035798" lat="45.697106"><ele>392.0</ele></trkpt>
<trkpt lon="1.035545" lat="45.697060"><ele>391.75</ele></trkpt>
<trkpt lon="1.035390" lat="45.697040"><ele>391.75</ele></trkpt>
<trkpt lon="1.034774" lat="45.697016"><ele>390.0</ele></trkpt>
<trkpt lon="1.033697" lat="45.695393"><ele>385.5</ele></trkpt>
<trkpt lon="1.033621" lat="45.695408"><ele>385.0</ele></trkpt>
<trkpt lon="1.033477" lat="45.695424"><ele>384.0</ele></trkpt>
<trkpt lon="1.033402" lat="45.695419"><ele>383.5</ele></trkpt>
<trkpt lon="1.033271" lat="45.695377"><ele>382.25</ele></trkpt>
<trkpt lon="1.033178" lat="45.695301"><ele>381.0</ele></trkpt>
<trkpt lon="1.032296" lat="45.694190"><ele>371.25</ele></trkpt>
<trkpt lon="1.032069" lat="45.693969"><ele>369.0</ele></trkpt>
<trkpt lon="1.031716" lat="45.693772"><ele>366.5</ele></trkpt>
<trkpt lon="1.031555" lat="45.693710"><ele>366.75</ele></trkpt>
<trkpt lon="1.031290" lat="45.693569"><ele>368.25</ele></trkpt>
<trkpt lon="1.031142" lat="45.693419"><ele>368.75</ele></trkpt>
<trkpt lon="1.030019" lat="45.691533"><ele>374.25</ele></trkpt>
<trkpt lon="1.029927" lat="45.691381"><ele>375.25</ele></trkpt>
<trkpt lon="1.029789" lat="45.691128"><ele>377.25</ele></trkpt>
<trkpt lon="1.029128" lat="45.689555"><ele>385.0</ele></trkpt>
<trkpt lon="1.029057" lat="45.689406"><ele>386.0</ele></trkpt>
<trkpt lon="1.028990" lat="45.689298"><ele>386.75</ele></trkpt>
<trkpt lon="1.028932" lat="45.689231"><ele>387.0</ele></trkpt>
<trkpt lon="1.028852" lat="45.689160"><ele>387.25</ele></trkpt>
<trkpt lon="1.028244" lat="45.688715"><ele>389.75</ele></trkpt>
<trkpt lon="1.027514" lat="45.688235"><ele>394.75</ele></trkpt>
<trkpt lon="1.026962" lat="45.687905"><ele>399.75</ele></trkpt>
<trkpt lon="1.026016" lat="45.687358"><ele>404.0</ele></trkpt>
<trkpt lon="1.025873" lat="45.687285"><ele>404.0</ele></trkpt>
<trkpt lon="1.025749" lat="45.687232"><ele>404.25</ele></trkpt>
<trkpt lon="1.025637" lat="45.687192"><ele>404.5</ele></trkpt>
<trkpt lon="1.025527" lat="45.687164"><ele>404.75</ele></trkpt>
<trkpt lon="1.025394" lat="45.687140"><ele>404.75</ele></trkpt>
<trkpt lon="1.025263" lat="45.687125"><ele>404.75</ele></trkpt>
<trkpt lon="1.024852" lat="45.687104"><ele>404.25</ele></trkpt>
<trkpt lon="1.023574" lat="45.687066"><ele>403.0</ele></trkpt>
<trkpt lon="1.023599" lat="45.686999"><ele>403.0</ele></trkpt>
<trkpt lon="1.023626" lat="45.686968"><ele>403.0</ele></trkpt>
<trkpt lon="1.023929" lat="45.686711"><ele>401.25</ele></trkpt>
<trkpt lon="1.024214" lat="45.686495"><ele>400.25</ele></trkpt>
<trkpt lon="1.024313" lat="45.686428"><ele>400.0</ele></trkpt>
<trkpt lon="1.024601" lat="45.686265"><ele>400.0</ele></trkpt>
<trkpt lon="1.024143" lat="45.686168"><ele>398.25</ele></trkpt>
<trkpt lon="1.023599" lat="45.686120"><ele>396.0</ele></trkpt>
<trkpt lon="1.023182" lat="45.685894"><ele>393.75</ele></trkpt>
<trkpt lon="1.023020" lat="45.685767"><ele>391.75</ele></trkpt>
<trkpt lon="1.022814" lat="45.685664"><ele>391.5</ele></trkpt>
<trkpt lon="1.022559" lat="45.685626"><ele>391.0</ele></trkpt>
<trkpt lon="1.022167" lat="45.685719"><ele>389.5</ele></trkpt>
<trkpt lon="1.021688" lat="45.685810"><ele>385.75</ele></trkpt>
<trkpt lon="1.021462" lat="45.685860"><ele>384.5</ele></trkpt>
<trkpt lon="1.020866" lat="45.685901"><ele>382.25</ele></trkpt>
<trkpt lon="1.019934" lat="45.685953"><ele>382.25</ele></trkpt>
<trkpt lon="1.019770" lat="45.685592"><ele>380.75</ele></trkpt>
<trkpt lon="1.019485" lat="45.685626"><ele>381.0</ele></trkpt>
<trkpt lon="1.018951" lat="45.685640"><ele>379.5</ele></trkpt>
<trkpt lon="1.016926" lat="45.685719"><ele>378.0</ele></trkpt>
<trkpt lon="1.016389" lat="45.685801"><ele>375.75</ele></trkpt>
<trkpt lon="1.016573" lat="45.685342"><ele>372.75</ele></trkpt>
<trkpt lon="1.016680" lat="45.684884"><ele>368.75</ele></trkpt>
<trkpt lon="1.016744" lat="45.684418"><ele>365.5</ele></trkpt>
<trkpt lon="1.016779" lat="45.683962"><ele>367.0</ele></trkpt>
<trkpt lon="1.016813" lat="45.683674"><ele>367.0</ele></trkpt>
<trkpt lon="1.016911" lat="45.683438"><ele>366.25</ele></trkpt>
<trkpt lon="1.017107" lat="45.683157"><ele>364.25</ele></trkpt>
<trkpt lon="1.017063" lat="45.683025"><ele>363.0</ele></trkpt>
<trkpt lon="1.016430" lat="45.682671"><ele>358.75</ele></trkpt>
<trkpt lon="1.015486" lat="45.682317"><ele>353.25</ele></trkpt>
<trkpt lon="1.015084" lat="45.681998"><ele>350.0</ele></trkpt>
<trkpt lon="1.014658" lat="45.681392"><ele>347.25</ele></trkpt>
<trkpt lon="1.014343" lat="45.680958"><ele>346.75</ele></trkpt>
<trkpt lon="1.014212" lat="45.680850"><ele>346.75</ele></trkpt>
<trkpt lon="1.014153" lat="45.680796"><ele>347.0</ele></trkpt>
<trkpt lon="1.012565" lat="45.679378"><ele>356.0</ele></trkpt>
<trkpt lon="1.012504" lat="45.679347"><ele>356.5</ele></trkpt>
<trkpt lon="1.012446" lat="45.679331"><ele>356.75</ele></trkpt>
<trkpt lon="1.011909" lat="45.678930"><ele>359.0</ele></trkpt>
<trkpt lon="1.011681" lat="45.677815"><ele>370.25</ele></trkpt>
<trkpt lon="1.010517" lat="45.676281"><ele>378.25</ele></trkpt>
<trkpt lon="1.009745" lat="45.675318"><ele>381.75</ele></trkpt>
<trkpt lon="1.009283" lat="45.675509"><ele>380.0</ele></trkpt>
<trkpt lon="1.009169" lat="45.675567"><ele>380.75</ele></trkpt>
<trkpt lon="1.009075" lat="45.675637"><ele>382.0</ele></trkpt>
<trkpt lon="1.008976" lat="45.675735"><ele>382.75</ele></trkpt>
<trkpt lon="1.008560" lat="45.676239"><ele>385.25</ele></trkpt>
<trkpt lon="1.008165" lat="45.676703"><ele>386.0</ele></trkpt>
<trkpt lon="1.008142" lat="45.676675"><ele>386.25</ele></trkpt>
<trkpt lon="1.008122" lat="45.676617"><ele>386.5</ele></trkpt>
<trkpt lon="1.008107" lat="45.676446"><ele>387.5</ele></trkpt>
<trkpt lon="1.008143" lat="45.675778"><ele>389.0</ele></trkpt>
<trkpt lon="1.008197" lat="45.675458"><ele>390.0</ele></trkpt>
<trkpt lon="1.007950" lat="45.675355"><ele>390.25</ele></trkpt>
<trkpt lon="1.007840" lat="45.675293"><ele>390.75</ele></trkpt>
<trkpt lon="1.007749" lat="45.675186"><ele>391.0</ele></trkpt>
<trkpt lon="1.007655" lat="45.675098"><ele>390.5</ele></trkpt>
<trkpt lon="1.007382" lat="45.674860"><ele>390.75</ele></trkpt>
<trkpt lon="1.006998" lat="45.674510"><ele>391.5</ele></trkpt>
<trkpt lon="1.006660" lat="45.674303"><ele>390.75</ele></trkpt>
<trkpt lon="1.006440" lat="45.674195"><ele>391.0</ele></trkpt>
<trkpt lon="1.006271" lat="45.674101"><ele>390.75</ele></trkpt>
<trkpt lon="1.006142" lat="45.673964"><ele>391.25</ele></trkpt>
<trkpt lon="1.005791" lat="45.673539"><ele>392.5</ele></trkpt>
<trkpt lon="1.005574" lat="45.673314"><ele>393.25</ele></trkpt>
<trkpt lon="1.005185" lat="45.672903"><ele>393.5</ele></trkpt>
<trkpt lon="1.005027" lat="45.672770"><ele>393.0</ele></trkpt>
<trkpt lon="1.004890" lat="45.672630"><ele>391.75</ele></trkpt>
<trkpt lon="1.004810" lat="45.672529"><ele>391.0</ele></trkpt>
<trkpt lon="1.004750" lat="45.672426"><ele>390.0</ele></trkpt>
<trkpt lon="1.004613" lat="45.672231"><ele>388.0</ele></trkpt>
<trkpt lon="1.004554" lat="45.672111"><ele>387.0</ele></trkpt>
<trkpt lon="1.004479" lat="45.671929"><ele>385.25</ele></trkpt>
<trkpt lon="1.004481" lat="45.671842"><ele>384.75</ele></trkpt>
<trkpt lon="1.004434" lat="45.671052"><ele>378.25</ele></trkpt>
<trkpt lon="1.004479" lat="45.670986"><ele>378.25</ele></trkpt>
<trkpt lon="1.004689" lat="45.670838"><ele>377.75</ele></trkpt>
<trkpt lon="1.004895" lat="45.670714"><ele>377.75</ele></trkpt>
<trkpt lon="1.004903" lat="45.670643"><ele>377.25</ele></trkpt>
<trkpt lon="1.004855" lat="45.670576"><ele>376.5</ele></trkpt>
<trkpt lon="1.004758" lat="45.670495"><ele>376.0</ele></trkpt>
<trkpt lon="1.004606" lat="45.670388"><ele>375.5</ele></trkpt>
<trkpt lon="1.004501" lat="45.670293"><ele>375.0</ele></trkpt>
<trkpt lon="1.004096" lat="45.670081"><ele>376.25</ele></trkpt>
<trkpt lon="1.003721" lat="45.669721"><ele>379.25</ele></trkpt>
<trkpt lon="1.003511" lat="45.669593"><ele>381.0</ele></trkpt>
<trkpt lon="1.003010" lat="45.669483"><ele>383.75</ele></trkpt>
<trkpt lon="1.002927" lat="45.669457"><ele>384.0</ele></trkpt>
<trkpt lon="1.002717" lat="45.669299"><ele>387.0</ele></trkpt>
<trkpt lon="1.002602" lat="45.669185"><ele>389.25</ele></trkpt>
<trkpt lon="1.002286" lat="45.668930"><ele>393.5</ele></trkpt>
<trkpt lon="1.002151" lat="45.668844"><ele>394.5</ele></trkpt>
<trkpt lon="1.002001" lat="45.668778"><ele>395.75</ele></trkpt>
<trkpt lon="1.001760" lat="45.668583"><ele>395.25</ele></trkpt>
<trkpt lon="1.001569" lat="45.668456"><ele>395.0</ele></trkpt>
<trkpt lon="1.001193" lat="45.668254"><ele>394.75</ele></trkpt>
<trkpt lon="1.001138" lat="45.668227"><ele>394.75</ele></trkpt>
<trkpt lon="1.000834" lat="45.668109"><ele>394.25</ele></trkpt>
<trkpt lon="1.000309" lat="45.668021"><ele>393.75</ele></trkpt>
<trkpt lon="1.000019" lat="45.667942"><ele>394.0</ele></trkpt>
<trkpt lon="0.999692" lat="45.667822"><ele>394.25</ele></trkpt>
<trkpt lon="0.999372" lat="45.667670"><ele>394.75</ele></trkpt>
<trkpt lon="0.998900" lat="45.667410"><ele>395.75</ele></trkpt>
<trkpt lon="0.998903" lat="45.667333"><ele>395.75</ele></trkpt>
<trkpt lon="0.998750" lat="45.667230"><ele>396.25</ele></trkpt>
<trkpt lon="0.998541" lat="45.667076"><ele>397.25</ele></trkpt>
<trkpt lon="0.998297" lat="45.666881"><ele>398.25</ele></trkpt>
<trkpt lon="0.998042" lat="45.666699"><ele>399.75</ele></trkpt>
<trkpt lon="0.997739" lat="45.666390"><ele>401.75</ele></trkpt>
<trkpt lon="0.997530" lat="45.666190"><ele>402.5</ele></trkpt>
<trkpt lon="0.997302" lat="45.665913"><ele>403.0</ele></trkpt>
<trkpt lon="0.996916" lat="45.665434"><ele>402.75</ele></trkpt>
<trkpt lon="0.996706" lat="45.665303"><ele>403.5</ele></trkpt>
<trkpt lon="0.996556" lat="45.665221"><ele>404.25</ele></trkpt>
<trkpt lon="0.996291" lat="45.665080"><ele>405.0</ele></trkpt>
<trkpt lon="0.996009" lat="45.664951"><ele>405.25</ele></trkpt>
<trkpt lon="0.995795" lat="45.664823"><ele>406.25</ele></trkpt>
<trkpt lon="0.995685" lat="45.664765"><ele>406.0</ele></trkpt>
<trkpt lon="0.995435" lat="45.664667"><ele>405.75</ele></trkpt>
<trkpt lon="0.995164" lat="45.664608"><ele>406.25</ele></trkpt>
<trkpt lon="0.994934" lat="45.664546"><ele>406.5</ele></trkpt>
<trkpt lon="0.994641" lat="45.664506"><ele>407.0</ele></trkpt>
<trkpt lon="0.993190" lat="45.664413"><ele>408.0</ele></trkpt>
<trkpt lon="0.993160" lat="45.664351"><ele>408.25</ele></trkpt>
<trkpt lon="0.992897" lat="45.664097"><ele>409.25</ele></trkpt>
<trkpt lon="0.992216" lat="45.663506"><ele>411.25</ele></trkpt>
<trkpt lon="0.991830" lat="45.663237"><ele>411.0</ele></trkpt>
<trkpt lon="0.991645" lat="45.663135"><ele>410.25</ele></trkpt>
<trkpt lon="0.991439" lat="45.663120"><ele>410.0</ele></trkpt>
<trkpt lon="0.991328" lat="45.662965"><ele>409.5</ele></trkpt>
<trkpt lon="0.991154" lat="45.662851"><ele>408.5</ele></trkpt>
<trkpt lon="0.990158" lat="45.662157"><ele>406.0</ele></trkpt>
<trkpt lon="0.989427" lat="45.661674"><ele>408.0</ele></trkpt>
<trkpt lon="0.989333" lat="45.661609"><ele>408.0</ele></trkpt>
<trkpt lon="0.989240" lat="45.661501"><ele>407.75</ele></trkpt>
<trkpt lon="0.988690" lat="45.661161"><ele>409.0</ele></trkpt>
<trkpt lon="0.988225" lat="45.660817"><ele>404.75</ele></trkpt>
<trkpt lon="0.987723" lat="45.660389"><ele>402.25</ele></trkpt>
<trkpt lon="0.987435" lat="45.660064"><ele>399.75</ele></trkpt>
<trkpt lon="0.987169" lat="45.659525"><ele>397.25</ele></trkpt>
<trkpt lon="0.987111" lat="45.659342"><ele>396.0</ele></trkpt>
<trkpt lon="0.986494" lat="45.659236"><ele>397.0</ele></trkpt>
<trkpt lon="0.985488" lat="45.659057"><ele>397.0</ele></trkpt>
<trkpt lon="0.985154" lat="45.659005"><ele>396.75</ele></trkpt>
<trkpt lon="0.984142" lat="45.658883"><ele>393.75</ele></trkpt>
<trkpt lon="0.983835" lat="45.658842"><ele>392.75</ele></trkpt>
<trkpt lon="0.983702" lat="45.658851"><ele>392.25</ele></trkpt>
<trkpt lon="0.983647" lat="45.658855"><ele>392.0</ele></trkpt>
<trkpt lon="0.983512" lat="45.658841"><ele>392.0</ele></trkpt>
<trkpt lon="0.983264" lat="45.658781"><ele>391.75</ele></trkpt>
<trkpt lon="0.982460" lat="45.658459"><ele>390.75</ele></trkpt>
<trkpt lon="0.981973" lat="45.658233"><ele>390.75</ele></trkpt>
<trkpt lon="0.981478" lat="45.658032"><ele>391.5</ele></trkpt>
<trkpt lon="0.981064" lat="45.657855"><ele>393.5</ele></trkpt>
<trkpt lon="0.981123" lat="45.657668"><ele>392.75</ele></trkpt>
<trkpt lon="0.981252" lat="45.657443"><ele>392.25</ele></trkpt>
<trkpt lon="0.981265" lat="45.657388"><ele>392.25</ele></trkpt>
<trkpt lon="0.981258" lat="45.657239"><ele>392.25</ele></trkpt>
<trkpt lon="0.981214" lat="45.656943"><ele>391.0</ele></trkpt>
<trkpt lon="0.981166" lat="45.656646"><ele>388.5</ele></trkpt>
<trkpt lon="0.981120" lat="45.656440"><ele>385.5</ele></trkpt>
<trkpt lon="0.981073" lat="45.656190"><ele>382.25</ele></trkpt>
<trkpt lon="0.980962" lat="45.655952"><ele>379.5</ele></trkpt>
<trkpt lon="0.980879" lat="45.655868"><ele>378.5</ele></trkpt>
<trkpt lon="0.980828" lat="45.655842"><ele>378.0</ele></trkpt>
<trkpt lon="0.980764" lat="45.655821"><ele>377.0</ele></trkpt>
<trkpt lon="0.980654" lat="45.655808"><ele>375.5</ele></trkpt>
<trkpt lon="0.980496" lat="45.655806"><ele>374.0</ele></trkpt>
<trkpt lon="0.980233" lat="45.655948"><ele>375.25</ele></trkpt>
<trkpt lon="0.980167" lat="45.655931"><ele>374.0</ele></trkpt>
<trkpt lon="0.979750" lat="45.655953"><ele>369.75</ele></trkpt>
<trkpt lon="0.979655" lat="45.655934"><ele>369.0</ele></trkpt>
<trkpt lon="0.979514" lat="45.655885"><ele>369.0</ele></trkpt>
<trkpt lon="0.979431" lat="45.655834"><ele>370.0</ele></trkpt>
<trkpt lon="0.978656" lat="45.654812"><ele>379.0</ele></trkpt>
<trkpt lon="0.978774" lat="45.654821"><ele>378.5</ele></trkpt>
<trkpt lon="0.978795" lat="45.654767"><ele>379.0</ele></trkpt>
<trkpt lon="0.979226" lat="45.654524"><ele>381.0</ele></trkpt>
<trkpt lon="0.979205" lat="45.654440"><ele>382.0</ele></trkpt>
<trkpt lon="0.978853" lat="45.654153"><ele>382.75</ele></trkpt>
<trkpt lon="0.978706" lat="45.654035"><ele>382.0</ele></trkpt>
<trkpt lon="0.978575" lat="45.653919"><ele>381.75</ele></trkpt>
<trkpt lon="0.979378" lat="45.653546"><ele>384.5</ele></trkpt>
<trkpt lon="0.979886" lat="45.653266"><ele>386.25</ele></trkpt>
<trkpt lon="0.980117" lat="45.653119"><ele>387.25</ele></trkpt>
<trkpt lon="0.980208" lat="45.653044"><ele>388.0</ele></trkpt>
  </trkseg></trk></gpx>
