<?xml version="1.0" encoding="UTF-8"?>
<gpx version="1.1" creator="compostel-brouter" xmlns="http://www.topografix.com/GPX/1/1">
  <metadata><name>FR-23-Le-Dorat</name></metadata>
  <trk><name>FR-23-Le-Dorat</name><trkseg>
<trkpt lon="1.486877" lat="46.237161"><ele>375.25</ele></trkpt>
<trkpt lon="1.486862" lat="46.237166"><ele>375.5</ele></trkpt>
<trkpt lon="1.486840" lat="46.237172"><ele>375.5</ele></trkpt>
<trkpt lon="1.486819" lat="46.237177"><ele>375.5</ele></trkpt>
<trkpt lon="1.486575" lat="46.237227"><ele>376.5</ele></trkpt>
<trkpt lon="1.486539" lat="46.237234"><ele>377.0</ele></trkpt>
<trkpt lon="1.486043" lat="46.237328"><ele>380.5</ele></trkpt>
<trkpt lon="1.485951" lat="46.237350"><ele>381.0</ele></trkpt>
<trkpt lon="1.485878" lat="46.237360"><ele>381.25</ele></trkpt>
<trkpt lon="1.485801" lat="46.237363"><ele>381.5</ele></trkpt>
<trkpt lon="1.485658" lat="46.237380"><ele>381.75</ele></trkpt>
<trkpt lon="1.485610" lat="46.237396"><ele>382.0</ele></trkpt>
<trkpt lon="1.485235" lat="46.237437"><ele>383.75</ele></trkpt>
<trkpt lon="1.485134" lat="46.237441"><ele>384.5</ele></trkpt>
<trkpt lon="1.484962" lat="46.237410"><ele>385.0</ele></trkpt>
<trkpt lon="1.484785" lat="46.237265"><ele>383.25</ele></trkpt>
<trkpt lon="1.484697" lat="46.237180"><ele>382.75</ele></trkpt>
<trkpt lon="1.484569" lat="46.237021"><ele>382.0</ele></trkpt>
<trkpt lon="1.484379" lat="46.236919"><ele>381.5</ele></trkpt>
<trkpt lon="1.484135" lat="46.236852"><ele>380.25</ele></trkpt>
<trkpt lon="1.484026" lat="46.236822"><ele>379.75</ele></trkpt>
<trkpt lon="1.483841" lat="46.236815"><ele>379.25</ele></trkpt>
<trkpt lon="1.483559" lat="46.236805"><ele>378.25</ele></trkpt>
<trkpt lon="1.483320" lat="46.236797"><ele>377.25</ele></trkpt>
<trkpt lon="1.482696" lat="46.236842"><ele>376.25</ele></trkpt>
<trkpt lon="1.481827" lat="46.236877"><ele>375.0</ele></trkpt>
<trkpt lon="1.481567" lat="46.236879"><ele>374.75</ele></trkpt>
<trkpt lon="1.481001" lat="46.236833"><ele>374.75</ele></trkpt>
<trkpt lon="1.480873" lat="46.236808"><ele>374.75</ele></trkpt>
<trkpt lon="1.480831" lat="46.236790"><ele>375.0</ele></trkpt>
<trkpt lon="1.480772" lat="46.236764"><ele>375.0</ele></trkpt>
<trkpt lon="1.480688" lat="46.236712"><ele>375.0</ele></trkpt>
<trkpt lon="1.480354" lat="46.236500"><ele>375.25</ele></trkpt>
<trkpt lon="1.480225" lat="46.236423"><ele>375.25</ele></trkpt>
<trkpt lon="1.480163" lat="46.236384"><ele>375.25</ele></trkpt>
<trkpt lon="1.480050" lat="46.236549"><ele>375.75</ele></trkpt>
<trkpt lon="1.479767" lat="46.236994"><ele>376.0</ele></trkpt>
<trkpt lon="1.479688" lat="46.237119"><ele>376.0</ele></trkpt>
<trkpt lon="1.479623" lat="46.237105"><ele>376.25</ele></trkpt>
<trkpt lon="1.479271" lat="46.237000"><ele>377.5</ele></trkpt>
<trkpt lon="1.479062" lat="46.236963"><ele>378.25</ele></trkpt>
<trkpt lon="1.478879" lat="46.236973"><ele>379.0</ele></trkpt>
<trkpt lon="1.478805" lat="46.236985"><ele>379.0</ele></trkpt>
<trkpt lon="1.478703" lat="46.237002"><ele>379.0</ele></trkpt>
<trkpt lon="1.478591" lat="46.237028"><ele>379.25</ele></trkpt>
<trkpt lon="1.478163" lat="46.237128"><ele>381.75</ele></trkpt>
<trkpt lon="1.477881" lat="46.237154"><ele>383.75</ele></trkpt>
<trkpt lon="1.477671" lat="46.237151"><ele>385.0</ele></trkpt>
<trkpt lon="1.477170" lat="46.237117"><ele>386.5</ele></trkpt>
<trkpt lon="1.477014" lat="46.237114"><ele>386.75</ele></trkpt>
<trkpt lon="1.476732" lat="46.237140"><ele>388.25</ele></trkpt>
<trkpt lon="1.476430" lat="46.237199"><ele>388.75</ele></trkpt>
<trkpt lon="1.476090" lat="46.237300"><ele>390.0</ele></trkpt>
<trkpt lon="1.475833" lat="46.237398"><ele>391.0</ele></trkpt>
<trkpt lon="1.475248" lat="46.237577"><ele>392.75</ele></trkpt>
<trkpt lon="1.475182" lat="46.237446"><ele>393.25</ele></trkpt>
<trkpt lon="1.475096" lat="46.237320"><ele>394.0</ele></trkpt>
<trkpt lon="1.474963" lat="46.237194"><ele>395.0</ele></trkpt>
<trkpt lon="1.474720" lat="46.237045"><ele>396.25</ele></trkpt>
<trkpt lon="1.474421" lat="46.237001"><ele>398.25</ele></trkpt>
<trkpt lon="1.473906" lat="46.237023"><ele>400.75</ele></trkpt>
<trkpt lon="1.473456" lat="46.237034"><ele>403.0</ele></trkpt>
<trkpt lon="1.473080" lat="46.237064"><ele>405.25</ele></trkpt>
<trkpt lon="1.472762" lat="46.237060"><ele>407.5</ele></trkpt>
<trkpt lon="1.472420" lat="46.236990"><ele>409.25</ele></trkpt>
<trkpt lon="1.472034" lat="46.236860"><ele>412.25</ele></trkpt>
<trkpt lon="1.471938" lat="46.236810"><ele>413.0</ele></trkpt>
<trkpt lon="1.471807" lat="46.236741"><ele>414.0</ele></trkpt>
<trkpt lon="1.471459" lat="46.236615"><ele>415.5</ele></trkpt>
<trkpt lon="1.471019" lat="46.236492"><ele>417.0</ele></trkpt>
<trkpt lon="1.470852" lat="46.236451"><ele>417.0</ele></trkpt>
<trkpt lon="1.470541" lat="46.236451"><ele>417.0</ele></trkpt>
<trkpt lon="1.470262" lat="46.236407"><ele>416.25</ele></trkpt>
<trkpt lon="1.469990" lat="46.236315"><ele>417.0</ele></trkpt>
<trkpt lon="1.469845" lat="46.236226"><ele>417.5</ele></trkpt>
<trkpt lon="1.469658" lat="46.236107"><ele>418.0</ele></trkpt>
<trkpt lon="1.469495" lat="46.235991"><ele>417.5</ele></trkpt>
<trkpt lon="1.469254" lat="46.235832"><ele>416.25</ele></trkpt>
<trkpt lon="1.469089" lat="46.235751"><ele>414.0</ele></trkpt>
<trkpt lon="1.468939" lat="46.235740"><ele>412.5</ele></trkpt>
<trkpt lon="1.468772" lat="46.235784"><ele>412.0</ele></trkpt>
<trkpt lon="1.468123" lat="46.235944"><ele>410.75</ele></trkpt>
<trkpt lon="1.467549" lat="46.236055"><ele>409.25</ele></trkpt>
<trkpt lon="1.467131" lat="46.236118"><ele>407.75</ele></trkpt>
<trkpt lon="1.466643" lat="46.236222"><ele>407.75</ele></trkpt>
<trkpt lon="1.466336" lat="46.236273"><ele>407.75</ele></trkpt>
<trkpt lon="1.466073" lat="46.236270"><ele>408.75</ele></trkpt>
<trkpt lon="1.465924" lat="46.236229"><ele>410.25</ele></trkpt>
<trkpt lon="1.465601" lat="46.236032"><ele>411.5</ele></trkpt>
<trkpt lon="1.465387" lat="46.235921"><ele>411.25</ele></trkpt>
<trkpt lon="1.465129" lat="46.235795"><ele>411.5</ele></trkpt>
<trkpt lon="1.464712" lat="46.235628"><ele>411.5</ele></trkpt>
<trkpt lon="1.464506" lat="46.235527"><ele>412.5</ele></trkpt>
<trkpt lon="1.464324" lat="46.235257"><ele>413.5</ele></trkpt>
<trkpt lon="1.464289" lat="46.235329"><ele>414.0</ele></trkpt>
<trkpt lon="1.464237" lat="46.235522"><ele>415.0</ele></trkpt>
<trkpt lon="1.463881" lat="46.235958"><ele>419.0</ele></trkpt>
<trkpt lon="1.463653" lat="46.236559"><ele>422.25</ele></trkpt>
<trkpt lon="1.463526" lat="46.236833"><ele>423.75</ele></trkpt>
<trkpt lon="1.463000" lat="46.236579"><ele>424.0</ele></trkpt>
<trkpt lon="1.462727" lat="46.236434"><ele>423.25</ele></trkpt>
<trkpt lon="1.462356" lat="46.236335"><ele>424.5</ele></trkpt>
<trkpt lon="1.461919" lat="46.236268"><ele>425.75</ele></trkpt>
<trkpt lon="1.461522" lat="46.236173"><ele>425.25</ele></trkpt>
<trkpt lon="1.461112" lat="46.236020"><ele>424.75</ele></trkpt>
<trkpt lon="1.460545" lat="46.235858"><ele>425.75</ele></trkpt>
<trkpt lon="1.460161" lat="46.235781"><ele>427.25</ele></trkpt>
<trkpt lon="1.459314" lat="46.235542"><ele>428.75</ele></trkpt>
<trkpt lon="1.459049" lat="46.235417"><ele>427.25</ele></trkpt>
<trkpt lon="1.458793" lat="46.235295"><ele>425.75</ele></trkpt>
<trkpt lon="1.458207" lat="46.235047"><ele>423.5</ele></trkpt>
<trkpt lon="1.458062" lat="46.234903"><ele>422.25</ele></trkpt>
<trkpt lon="1.457533" lat="46.234900"><ele>422.0</ele></trkpt>
<trkpt lon="1.457167" lat="46.234831"><ele>420.5</ele></trkpt>
<trkpt lon="1.456545" lat="46.234622"><ele>418.5</ele></trkpt>
<trkpt lon="1.455916" lat="46.234443"><ele>416.25</ele></trkpt>
<trkpt lon="1.455266" lat="46.234376"><ele>414.25</ele></trkpt>
<trkpt lon="1.454316" lat="46.234485"><ele>411.0</ele></trkpt>
<trkpt lon="1.454111" lat="46.234489"><ele>410.5</ele></trkpt>
<trkpt lon="1.453889" lat="46.234470"><ele>410.75</ele></trkpt>
<trkpt lon="1.453694" lat="46.234414"><ele>409.5</ele></trkpt>
<trkpt lon="1.453395" lat="46.234263"><ele>408.75</ele></trkpt>
<trkpt lon="1.452904" lat="46.233987"><ele>406.75</ele></trkpt>
<trkpt lon="1.452565" lat="46.233846"><ele>405.5</ele></trkpt>
<trkpt lon="1.452351" lat="46.233769"><ele>405.25</ele></trkpt>
<trkpt lon="1.451871" lat="46.233748"><ele>404.0</ele></trkpt>
<trkpt lon="1.451568" lat="46.233760"><ele>402.5</ele></trkpt>
<trkpt lon="1.451385" lat="46.233768"><ele>401.75</ele></trkpt>
<trkpt lon="1.450763" lat="46.233849"><ele>400.5</ele></trkpt>
<trkpt lon="1.449942" lat="46.233968"><ele>400.5</ele></trkpt>
<trkpt lon="1.449533" lat="46.233982"><ele>401.5</ele></trkpt>
<trkpt lon="1.449163" lat="46.233934"><ele>402.25</ele></trkpt>
<trkpt lon="1.448617" lat="46.233812"><ele>402.25</ele></trkpt>
<trkpt lon="1.448363" lat="46.233779"><ele>401.5</ele></trkpt>
<trkpt lon="1.448165" lat="46.233776"><ele>401.0</ele></trkpt>
<trkpt lon="1.447848" lat="46.233537"><ele>399.75</ele></trkpt>
<trkpt lon="1.447333" lat="46.233229"><ele>396.75</ele></trkpt>
<trkpt lon="1.447130" lat="46.233136"><ele>396.0</ele></trkpt>
<trkpt lon="1.446882" lat="46.233021"><ele>395.5</ele></trkpt>
<trkpt lon="1.446297" lat="46.232817"><ele>396.0</ele></trkpt>
<trkpt lon="1.445879" lat="46.232624"><ele>396.75</ele></trkpt>
<trkpt lon="1.445600" lat="46.232401"><ele>395.5</ele></trkpt>
<trkpt lon="1.445423" lat="46.232142"><ele>394.75</ele></trkpt>
<trkpt lon="1.445307" lat="46.231759"><ele>394.0</ele></trkpt>
<trkpt lon="1.445205" lat="46.231775"><ele>393.75</ele></trkpt>
<trkpt lon="1.444271" lat="46.231866"><ele>395.0</ele></trkpt>
<trkpt lon="1.443983" lat="46.231870"><ele>395.25</ele></trkpt>
<trkpt lon="1.443762" lat="46.231850"><ele>394.5</ele></trkpt>
<trkpt lon="1.443633" lat="46.231796"><ele>394.0</ele></trkpt>
<trkpt lon="1.443555" lat="46.231714"><ele>394.0</ele></trkpt>
<trkpt lon="1.443489" lat="46.231593"><ele>393.75</ele></trkpt>
<trkpt lon="1.443379" lat="46.231559"><ele>392.75</ele></trkpt>
<trkpt lon="1.443116" lat="46.231559"><ele>390.5</ele></trkpt>
<trkpt lon="1.442811" lat="46.231518"><ele>387.25</ele></trkpt>
<trkpt lon="1.442516" lat="46.231503"><ele>385.0</ele></trkpt>
<trkpt lon="1.442135" lat="46.231433"><ele>382.5</ele></trkpt>
<trkpt lon="1.441668" lat="46.231437"><ele>380.0</ele></trkpt>
<trkpt lon="1.441509" lat="46.231391"><ele>378.75</ele></trkpt>
<trkpt lon="1.441198" lat="46.231187"><ele>376.5</ele></trkpt>
<trkpt lon="1.441018" lat="46.231059"><ele>375.75</ele></trkpt>
<trkpt lon="1.440763" lat="46.230960"><ele>375.25</ele></trkpt>
<trkpt lon="1.440523" lat="46.230848"><ele>374.75</ele></trkpt>
<trkpt lon="1.440220" lat="46.230738"><ele>373.5</ele></trkpt>
<trkpt lon="1.440037" lat="46.230644"><ele>373.0</ele></trkpt>
<trkpt lon="1.439750" lat="46.230492"><ele>371.75</ele></trkpt>
<trkpt lon="1.439377" lat="46.230224"><ele>370.5</ele></trkpt>
<trkpt lon="1.439184" lat="46.230124"><ele>370.0</ele></trkpt>
<trkpt lon="1.438657" lat="46.230074"><ele>368.25</ele></trkpt>
<trkpt lon="1.438457" lat="46.230101"><ele>368.0</ele></trkpt>
<trkpt lon="1.438337" lat="46.230090"><ele>368.0</ele></trkpt>
<trkpt lon="1.438068" lat="46.230112"><ele>367.25</ele></trkpt>
<trkpt lon="1.437720" lat="46.230194"><ele>366.75</ele></trkpt>
<trkpt lon="1.437503" lat="46.230270"><ele>366.0</ele></trkpt>
<trkpt lon="1.437366" lat="46.230314"><ele>366.0</ele></trkpt>
<trkpt lon="1.437167" lat="46.230334"><ele>365.75</ele></trkpt>
<trkpt lon="1.436876" lat="46.230340"><ele>364.75</ele></trkpt>
<trkpt lon="1.436763" lat="46.230333"><ele>364.25</ele></trkpt>
<trkpt lon="1.436626" lat="46.230305"><ele>363.75</ele></trkpt>
<trkpt lon="1.436354" lat="46.230181"><ele>363.0</ele></trkpt>
<trkpt lon="1.434604" lat="46.229377"><ele>361.25</ele></trkpt>
<trkpt lon="1.433988" lat="46.229087"><ele>364.0</ele></trkpt>
<trkpt lon="1.433751" lat="46.228954"><ele>366.5</ele></trkpt>
<trkpt lon="1.433592" lat="46.228851"><ele>367.75</ele></trkpt>
<trkpt lon="1.433280" lat="46.228567"><ele>368.75</ele></trkpt>
<trkpt lon="1.432994" lat="46.228290"><ele>368.75</ele></trkpt>
<trkpt lon="1.432774" lat="46.228143"><ele>368.75</ele></trkpt>
<trkpt lon="1.432580" lat="46.228049"><ele>368.5</ele></trkpt>
<trkpt lon="1.432050" lat="46.227820"><ele>366.0</ele></trkpt>
<trkpt lon="1.431754" lat="46.227666"><ele>364.5</ele></trkpt>
<trkpt lon="1.430322" lat="46.226839"><ele>367.0</ele></trkpt>
<trkpt lon="1.429953" lat="46.226725"><ele>369.25</ele></trkpt>
<trkpt lon="1.429480" lat="46.226946"><ele>365.0</ele></trkpt>
<trkpt lon="1.429076" lat="46.227176"><ele>359.75</ele></trkpt>
<trkpt lon="1.428886" lat="46.227269"><ele>357.25</ele></trkpt>
<trkpt lon="1.428444" lat="46.227340"><ele>354.5</ele></trkpt>
<trkpt lon="1.428246" lat="46.227466"><ele>352.75</ele></trkpt>
<trkpt lon="1.428135" lat="46.227586"><ele>352.0</ele></trkpt>
<trkpt lon="1.427969" lat="46.227685"><ele>352.5</ele></trkpt>
<trkpt lon="1.427874" lat="46.227652"><ele>353.0</ele></trkpt>
<trkpt lon="1.427762" lat="46.227553"><ele>352.5</ele></trkpt>
<trkpt lon="1.427566" lat="46.227417"><ele>353.25</ele></trkpt>
<trkpt lon="1.427392" lat="46.227335"><ele>352.25</ele></trkpt>
<trkpt lon="1.427170" lat="46.227346"><ele>352.0</ele></trkpt>
<trkpt lon="1.426933" lat="46.227373"><ele>351.5</ele></trkpt>
<trkpt lon="1.426395" lat="46.227466"><ele>352.5</ele></trkpt>
<trkpt lon="1.426130" lat="46.227465"><ele>353.5</ele></trkpt>
<trkpt lon="1.426000" lat="46.227455"><ele>354.0</ele></trkpt>
<trkpt lon="1.425747" lat="46.227422"><ele>354.0</ele></trkpt>
<trkpt lon="1.425407" lat="46.227433"><ele>353.5</ele></trkpt>
<trkpt lon="1.425146" lat="46.227490"><ele>353.25</ele></trkpt>
<trkpt lon="1.424870" lat="46.227494"><ele>352.75</ele></trkpt>
<trkpt lon="1.424226" lat="46.227333"><ele>353.25</ele></trkpt>
<trkpt lon="1.424125" lat="46.227328"><ele>353.25</ele></trkpt>
<trkpt lon="1.423452" lat="46.227221"><ele>352.75</ele></trkpt>
<trkpt lon="1.423159" lat="46.227191"><ele>353.25</ele></trkpt>
<trkpt lon="1.422952" lat="46.227151"><ele>353.5</ele></trkpt>
<trkpt lon="1.422069" lat="46.226942"><ele>354.5</ele></trkpt>
<trkpt lon="1.421771" lat="46.226895"><ele>354.75</ele></trkpt>
<trkpt lon="1.421315" lat="46.226802"><ele>355.75</ele></trkpt>
<trkpt lon="1.421027" lat="46.226755"><ele>356.5</ele></trkpt>
<trkpt lon="1.420690" lat="46.226729"><ele>357.0</ele></trkpt>
<trkpt lon="1.420388" lat="46.226682"><ele>357.0</ele></trkpt>
<trkpt lon="1.420134" lat="46.226653"><ele>356.75</ele></trkpt>
<trkpt lon="1.419150" lat="46.226712"><ele>354.75</ele></trkpt>
<trkpt lon="1.419015" lat="46.226749"><ele>354.25</ele></trkpt>
<trkpt lon="1.418639" lat="46.226955"><ele>353.0</ele></trkpt>
<trkpt lon="1.418592" lat="46.226884"><ele>353.0</ele></trkpt>
<trkpt lon="1.418446" lat="46.226567"><ele>354.0</ele></trkpt>
<trkpt lon="1.418337" lat="46.226274"><ele>354.0</ele></trkpt>
<trkpt lon="1.418063" lat="46.225800"><ele>352.25</ele></trkpt>
<trkpt lon="1.417865" lat="46.225554"><ele>348.75</ele></trkpt>
<trkpt lon="1.417610" lat="46.225287"><ele>346.0</ele></trkpt>
<trkpt lon="1.417589" lat="46.225252"><ele>346.0</ele></trkpt>
<trkpt lon="1.417577" lat="46.225227"><ele>346.0</ele></trkpt>
<trkpt lon="1.417473" lat="46.224951"><ele>347.0</ele></trkpt>
<trkpt lon="1.417328" lat="46.224489"><ele>348.75</ele></trkpt>
<trkpt lon="1.417252" lat="46.224284"><ele>349.0</ele></trkpt>
<trkpt lon="1.415278" lat="46.224660"><ele>347.0</ele></trkpt>
<trkpt lon="1.411357" lat="46.225452"><ele>353.0</ele></trkpt>
<trkpt lon="1.411078" lat="46.225489"><ele>353.0</ele></trkpt>
<trkpt lon="1.410746" lat="46.225504"><ele>354.0</ele></trkpt>
<trkpt lon="1.410499" lat="46.225497"><ele>354.0</ele></trkpt>
<trkpt lon="1.410362" lat="46.225470"><ele>354.0</ele></trkpt>
<trkpt lon="1.410263" lat="46.225401"><ele>354.0</ele></trkpt>
<trkpt lon="1.410161" lat="46.225280"><ele>354.0</ele></trkpt>
<trkpt lon="1.410113" lat="46.225178"><ele>354.25</ele></trkpt>
<trkpt lon="1.410102" lat="46.225074"><ele>354.5</ele></trkpt>
<trkpt lon="1.410098" lat="46.224897"><ele>355.0</ele></trkpt>
<trkpt lon="1.410083" lat="46.224544"><ele>355.75</ele></trkpt>
<trkpt lon="1.410024" lat="46.224353"><ele>356.0</ele></trkpt>
<trkpt lon="1.409995" lat="46.224306"><ele>356.0</ele></trkpt>
<trkpt lon="1.409863" lat="46.224247"><ele>356.0</ele></trkpt>
<trkpt lon="1.409828" lat="46.224217"><ele>356.0</ele></trkpt>
<trkpt lon="1.409685" lat="46.224085"><ele>356.0</ele></trkpt>
<trkpt lon="1.409721" lat="46.224044"><ele>356.25</ele></trkpt>
<trkpt lon="1.409726" lat="46.223990"><ele>356.5</ele></trkpt>
<trkpt lon="1.409693" lat="46.223887"><ele>356.75</ele></trkpt>
<trkpt lon="1.409662" lat="46.223698"><ele>357.25</ele></trkpt>
<trkpt lon="1.409622" lat="46.223532"><ele>358.0</ele></trkpt>
<trkpt lon="1.409652" lat="46.223440"><ele>358.5</ele></trkpt>
<trkpt lon="1.409726" lat="46.223370"><ele>358.75</ele></trkpt>
<trkpt lon="1.410066" lat="46.223194"><ele>359.25</ele></trkpt>
<trkpt lon="1.409985" lat="46.223126"><ele>359.5</ele></trkpt>
<trkpt lon="1.409000" lat="46.222516"><ele>363.25</ele></trkpt>
<trkpt lon="1.408664" lat="46.221702"><ele>371.25</ele></trkpt>
<trkpt lon="1.408546" lat="46.221490"><ele>374.25</ele></trkpt>
<trkpt lon="1.408374" lat="46.221338"><ele>376.75</ele></trkpt>
<trkpt lon="1.407897" lat="46.221112"><ele>380.0</ele></trkpt>
<trkpt lon="1.407682" lat="46.220993"><ele>381.75</ele></trkpt>
<trkpt lon="1.406881" lat="46.219966"><ele>380.75</ele></trkpt>
<trkpt lon="1.406128" lat="46.219002"><ele>373.0</ele></trkpt>
<trkpt lon="1.406014" lat="46.218752"><ele>372.0</ele></trkpt>
<trkpt lon="1.405891" lat="46.218211"><ele>370.75</ele></trkpt>
<trkpt lon="1.405185" lat="46.217479"><ele>370.25</ele></trkpt>
<trkpt lon="1.404627" lat="46.217086"><ele>370.0</ele></trkpt>
<trkpt lon="1.404154" lat="46.216431"><ele>369.75</ele></trkpt>
<trkpt lon="1.404071" lat="46.216247"><ele>371.0</ele></trkpt>
<trkpt lon="1.404002" lat="46.215204"><ele>376.25</ele></trkpt>
<trkpt lon="1.402278" lat="46.215027"><ele>375.75</ele></trkpt>
<trkpt lon="1.398587" lat="46.214603"><ele>379.0</ele></trkpt>
<trkpt lon="1.398475" lat="46.214590"><ele>379.0</ele></trkpt>
<trkpt lon="1.398287" lat="46.214680"><ele>379.0</ele></trkpt>
<trkpt lon="1.397533" lat="46.214796"><ele>377.75</ele></trkpt>
<trkpt lon="1.396799" lat="46.214870"><ele>376.0</ele></trkpt>
<trkpt lon="1.395440" lat="46.215165"><ele>376.0</ele></trkpt>
<trkpt lon="1.394402" lat="46.215373"><ele>376.75</ele></trkpt>
<trkpt lon="1.394119" lat="46.215548"><ele>377.25</ele></trkpt>
<trkpt lon="1.393980" lat="46.215648"><ele>378.0</ele></trkpt>
<trkpt lon="1.393840" lat="46.215717"><ele>378.25</ele></trkpt>
<trkpt lon="1.393623" lat="46.215781"><ele>378.25</ele></trkpt>
<trkpt lon="1.393046" lat="46.215847"><ele>377.75</ele></trkpt>
<trkpt lon="1.392030" lat="46.215933"><ele>377.0</ele></trkpt>
<trkpt lon="1.391548" lat="46.216016"><ele>376.25</ele></trkpt>
<trkpt lon="1.391191" lat="46.216061"><ele>375.75</ele></trkpt>
<trkpt lon="1.391140" lat="46.216067"><ele>375.75</ele></trkpt>
<trkpt lon="1.391180" lat="46.216334"><ele>376.0</ele></trkpt>
<trkpt lon="1.390864" lat="46.216437"><ele>375.0</ele></trkpt>
<trkpt lon="1.390738" lat="46.216486"><ele>374.75</ele></trkpt>
<trkpt lon="1.390690" lat="46.216492"><ele>374.5</ele></trkpt>
<trkpt lon="1.390630" lat="46.216488"><ele>374.5</ele></trkpt>
<trkpt lon="1.390583" lat="46.216498"><ele>374.25</ele></trkpt>
<trkpt lon="1.390400" lat="46.216625"><ele>374.25</ele></trkpt>
<trkpt lon="1.390175" lat="46.216712"><ele>373.5</ele></trkpt>
<trkpt lon="1.389888" lat="46.216805"><ele>372.5</ele></trkpt>
<trkpt lon="1.389760" lat="46.216897"><ele>372.0</ele></trkpt>
<trkpt lon="1.389694" lat="46.216889"><ele>371.75</ele></trkpt>
<trkpt lon="1.389622" lat="46.217014"><ele>372.0</ele></trkpt>
<trkpt lon="1.389357" lat="46.217065"><ele>371.75</ele></trkpt>
<trkpt lon="1.389209" lat="46.217072"><ele>371.5</ele></trkpt>
<trkpt lon="1.388991" lat="46.217109"><ele>370.5</ele></trkpt>
<trkpt lon="1.388959" lat="46.217104"><ele>370.25</ele></trkpt>
<trkpt lon="1.388798" lat="46.216978"><ele>369.75</ele></trkpt>
<trkpt lon="1.388332" lat="46.217071"><ele>368.5</ele></trkpt>
<trkpt lon="1.388248" lat="46.217092"><ele>368.0</ele></trkpt>
<trkpt lon="1.387782" lat="46.217196"><ele>366.5</ele></trkpt>
<trkpt lon="1.387582" lat="46.217251"><ele>365.75</ele></trkpt>
<trkpt lon="1.387493" lat="46.217282"><ele>365.75</ele></trkpt>
<trkpt lon="1.387418" lat="46.217363"><ele>365.25</ele></trkpt>
<trkpt lon="1.387404" lat="46.217493"><ele>364.5</ele></trkpt>
<trkpt lon="1.387515" lat="46.217676"><ele>364.25</ele></trkpt>
<trkpt lon="1.387555" lat="46.217818"><ele>363.75</ele></trkpt>
<trkpt lon="1.387551" lat="46.217900"><ele>363.5</ele></trkpt>
<trkpt lon="1.387417" lat="46.218039"><ele>363.0</ele></trkpt>
<trkpt lon="1.387247" lat="46.218166"><ele>362.0</ele></trkpt>
<trkpt lon="1.386878" lat="46.218396"><ele>359.5</ele></trkpt>
<trkpt lon="1.385267" lat="46.219552"><ele>353.5</ele></trkpt>
<trkpt lon="1.384839" lat="46.219784"><ele>352.5</ele></trkpt>
<trkpt lon="1.384220" lat="46.220013"><ele>351.75</ele></trkpt>
<trkpt lon="1.383980" lat="46.220135"><ele>351.0</ele></trkpt>
<trkpt lon="1.383438" lat="46.220701"><ele>351.5</ele></trkpt>
<trkpt lon="1.383239" lat="46.220948"><ele>351.5</ele></trkpt>
<trkpt lon="1.383084" lat="46.221100"><ele>351.0</ele></trkpt>
<trkpt lon="1.382877" lat="46.221264"><ele>350.25</ele></trkpt>
<trkpt lon="1.382616" lat="46.221436"><ele>349.25</ele></trkpt>
<trkpt lon="1.382161" lat="46.221640"><ele>347.0</ele></trkpt>
<trkpt lon="1.381720" lat="46.221747"><ele>346.25</ele></trkpt>
<trkpt lon="1.380900" lat="46.221883"><ele>344.0</ele></trkpt>
<trkpt lon="1.380682" lat="46.221950"><ele>342.75</ele></trkpt>
<trkpt lon="1.380414" lat="46.222065"><ele>341.75</ele></trkpt>
<trkpt lon="1.380070" lat="46.222238"><ele>340.5</ele></trkpt>
<trkpt lon="1.379244" lat="46.222685"><ele>336.0</ele></trkpt>
<trkpt lon="1.378655" lat="46.222937"><ele>332.0</ele></trkpt>
<trkpt lon="1.377580" lat="46.223299"><ele>325.5</ele></trkpt>
<trkpt lon="1.377344" lat="46.223361"><ele>324.25</ele></trkpt>
<trkpt lon="1.376711" lat="46.223470"><ele>319.25</ele></trkpt>
<trkpt lon="1.375680" lat="46.223624"><ele>314.75</ele></trkpt>
<trkpt lon="1.375330" lat="46.223729"><ele>315.75</ele></trkpt>
<trkpt lon="1.373936" lat="46.224329"><ele>316.0</ele></trkpt>
<trkpt lon="1.373712" lat="46.224383"><ele>317.0</ele></trkpt>
<trkpt lon="1.372742" lat="46.224481"><ele>317.0</ele></trkpt>
<trkpt lon="1.371704" lat="46.224562"><ele>315.25</ele></trkpt>
<trkpt lon="1.371353" lat="46.224597"><ele>315.25</ele></trkpt>
<trkpt lon="1.371148" lat="46.224653"><ele>315.0</ele></trkpt>
<trkpt lon="1.370974" lat="46.224740"><ele>315.25</ele></trkpt>
<trkpt lon="1.370405" lat="46.225318"><ele>314.75</ele></trkpt>
<trkpt lon="1.370249" lat="46.225386"><ele>314.5</ele></trkpt>
<trkpt lon="1.369775" lat="46.225488"><ele>313.5</ele></trkpt>
<trkpt lon="1.369683" lat="46.225553"><ele>313.0</ele></trkpt>
<trkpt lon="1.369669" lat="46.225646"><ele>312.75</ele></trkpt>
<trkpt lon="1.369691" lat="46.225753"><ele>312.75</ele></trkpt>
<trkpt lon="1.369966" lat="46.226225"><ele>315.0</ele></trkpt>
<trkpt lon="1.369411" lat="46.226427"><ele>313.75</ele></trkpt>
<trkpt lon="1.369270" lat="46.226542"><ele>313.5</ele></trkpt>
<trkpt lon="1.369150" lat="46.226774"><ele>313.5</ele></trkpt>
<trkpt lon="1.368930" lat="46.226951"><ele>313.75</ele></trkpt>
<trkpt lon="1.368305" lat="46.227418"><ele>313.75</ele></trkpt>
<trkpt lon="1.368002" lat="46.227636"><ele>313.75</ele></trkpt>
<trkpt lon="1.367841" lat="46.227724"><ele>314.25</ele></trkpt>
<trkpt lon="1.367644" lat="46.227797"><ele>314.5</ele></trkpt>
<trkpt lon="1.367079" lat="46.227943"><ele>315.75</ele></trkpt>
<trkpt lon="1.366930" lat="46.227997"><ele>316.25</ele></trkpt>
<trkpt lon="1.366801" lat="46.228069"><ele>317.0</ele></trkpt>
<trkpt lon="1.365342" lat="46.229049"><ele>324.0</ele></trkpt>
<trkpt lon="1.364300" lat="46.229405"><ele>324.25</ele></trkpt>
<trkpt lon="1.364145" lat="46.229419"><ele>323.75</ele></trkpt>
<trkpt lon="1.363555" lat="46.229425"><ele>322.75</ele></trkpt>
<trkpt lon="1.363289" lat="46.229448"><ele>321.75</ele></trkpt>
<trkpt lon="1.361961" lat="46.229633"><ele>325.25</ele></trkpt>
<trkpt lon="1.361972" lat="46.229800"><ele>326.25</ele></trkpt>
<trkpt lon="1.361678" lat="46.229704"><ele>327.75</ele></trkpt>
<trkpt lon="1.361367" lat="46.229686"><ele>329.75</ele></trkpt>
<trkpt lon="1.360919" lat="46.229791"><ele>331.0</ele></trkpt>
<trkpt lon="1.360416" lat="46.229975"><ele>332.75</ele></trkpt>
<trkpt lon="1.359965" lat="46.230211"><ele>334.0</ele></trkpt>
<trkpt lon="1.359336" lat="46.230560"><ele>331.75</ele></trkpt>
<trkpt lon="1.359153" lat="46.230686"><ele>331.25</ele></trkpt>
<trkpt lon="1.359019" lat="46.230844"><ele>330.25</ele></trkpt>
<trkpt lon="1.358916" lat="46.231004"><ele>330.0</ele></trkpt>
<trkpt lon="1.358790" lat="46.231261"><ele>329.25</ele></trkpt>
<trkpt lon="1.358742" lat="46.231412"><ele>328.75</ele></trkpt>
<trkpt lon="1.358742" lat="46.231724"><ele>329.25</ele></trkpt>
<trkpt lon="1.358679" lat="46.231836"><ele>329.0</ele></trkpt>
<trkpt lon="1.358559" lat="46.231910"><ele>328.75</ele></trkpt>
<trkpt lon="1.358027" lat="46.232121"><ele>326.75</ele></trkpt>
<trkpt lon="1.357850" lat="46.232220"><ele>326.25</ele></trkpt>
<trkpt lon="1.356896" lat="46.232906"><ele>322.75</ele></trkpt>
<trkpt lon="1.356696" lat="46.233022"><ele>322.0</ele></trkpt>
<trkpt lon="1.356250" lat="46.233202"><ele>320.75</ele></trkpt>
<trkpt lon="1.356036" lat="46.233267"><ele>320.75</ele></trkpt>
<trkpt lon="1.355839" lat="46.233293"><ele>320.75</ele></trkpt>
<trkpt lon="1.355031" lat="46.233263"><ele>321.5</ele></trkpt>
<trkpt lon="1.354813" lat="46.233291"><ele>321.75</ele></trkpt>
<trkpt lon="1.354582" lat="46.233382"><ele>322.5</ele></trkpt>
<trkpt lon="1.354348" lat="46.233510"><ele>323.0</ele></trkpt>
<trkpt lon="1.354071" lat="46.233720"><ele>324.0</ele></trkpt>
<trkpt lon="1.353871" lat="46.233844"><ele>324.75</ele></trkpt>
<trkpt lon="1.353691" lat="46.233917"><ele>325.0</ele></trkpt>
<trkpt lon="1.353408" lat="46.234002"><ele>326.0</ele></trkpt>
<trkpt lon="1.353196" lat="46.234075"><ele>327.0</ele></trkpt>
<trkpt lon="1.353074" lat="46.234147"><ele>327.75</ele></trkpt>
<trkpt lon="1.352148" lat="46.234866"><ele>330.0</ele></trkpt>
<trkpt lon="1.351962" lat="46.234961"><ele>330.0</ele></trkpt>
<trkpt lon="1.351791" lat="46.235008"><ele>329.25</ele></trkpt>
<trkpt lon="1.351562" lat="46.235044"><ele>328.75</ele></trkpt>
<trkpt lon="1.351082" lat="46.235071"><ele>328.0</ele></trkpt>
<trkpt lon="1.351304" lat="46.234526"><ele>328.5</ele></trkpt>
<trkpt lon="1.351315" lat="46.234073"><ele>328.5</ele></trkpt>
<trkpt lon="1.351146" lat="46.233877"><ele>328.0</ele></trkpt>
<trkpt lon="1.351071" lat="46.233714"><ele>329.25</ele></trkpt>
<trkpt lon="1.350707" lat="46.233588"><ele>330.0</ele></trkpt>
<trkpt lon="1.350608" lat="46.233529"><ele>330.75</ele></trkpt>
<trkpt lon="1.350063" lat="46.233476"><ele>330.5</ele></trkpt>
<trkpt lon="1.349623" lat="46.233521"><ele>329.5</ele></trkpt>
<trkpt lon="1.348990" lat="46.233157"><ele>329.5</ele></trkpt>
<trkpt lon="1.348926" lat="46.233120"><ele>329.5</ele></trkpt>
<trkpt lon="1.348056" lat="46.232407"><ele>329.5</ele></trkpt>
<trkpt lon="1.348017" lat="46.232325"><ele>329.25</ele></trkpt>
<trkpt lon="1.347892" lat="46.232062"><ele>328.5</ele></trkpt>
<trkpt lon="1.347842" lat="46.231361"><ele>324.75</ele></trkpt>
<trkpt lon="1.347989" lat="46.230013"><ele>313.5</ele></trkpt>
<trkpt lon="1.347237" lat="46.229759"><ele>307.5</ele></trkpt>
<trkpt lon="1.346084" lat="46.229453"><ele>302.25</ele></trkpt>
<trkpt lon="1.344374" lat="46.228852"><ele>296.25</ele></trkpt>
<trkpt lon="1.343890" lat="46.228606"><ele>298.75</ele></trkpt>
<trkpt lon="1.343676" lat="46.228271"><ele>297.0</ele></trkpt>
<trkpt lon="1.343548" lat="46.227916"><ele>294.75</ele></trkpt>
<trkpt lon="1.343392" lat="46.227630"><ele>292.5</ele></trkpt>
<trkpt lon="1.343078" lat="46.227709"><ele>292.25</ele></trkpt>
<trkpt lon="1.342950" lat="46.227887"><ele>294.25</ele></trkpt>
<trkpt lon="1.342679" lat="46.227896"><ele>292.0</ele></trkpt>
<trkpt lon="1.342181" lat="46.227936"><ele>289.75</ele></trkpt>
<trkpt lon="1.341554" lat="46.227936"><ele>292.0</ele></trkpt>
<trkpt lon="1.340443" lat="46.227709"><ele>294.0</ele></trkpt>
<trkpt lon="1.340002" lat="46.227729"><ele>291.75</ele></trkpt>
<trkpt lon="1.339532" lat="46.227768"><ele>291.75</ele></trkpt>
<trkpt lon="1.339104" lat="46.227709"><ele>292.5</ele></trkpt>
<trkpt lon="1.338349" lat="46.227483"><ele>289.5</ele></trkpt>
<trkpt lon="1.337950" lat="46.227354"><ele>291.5</ele></trkpt>
<trkpt lon="1.337082" lat="46.227088"><ele>289.25</ele></trkpt>
<trkpt lon="1.336711" lat="46.226803"><ele>288.75</ele></trkpt>
<trkpt lon="1.336284" lat="46.226566"><ele>290.25</ele></trkpt>
<trkpt lon="1.335999" lat="46.226054"><ele>288.75</ele></trkpt>
<trkpt lon="1.335729" lat="46.225423"><ele>286.25</ele></trkpt>
<trkpt lon="1.335429" lat="46.225430"><ele>289.0</ele></trkpt>
<trkpt lon="1.335010" lat="46.225334"><ele>292.75</ele></trkpt>
<trkpt lon="1.334388" lat="46.225512"><ele>299.25</ele></trkpt>
<trkpt lon="1.333487" lat="46.226113"><ele>306.75</ele></trkpt>
<trkpt lon="1.333057" lat="46.226610"><ele>310.75</ele></trkpt>
<trkpt lon="1.332478" lat="46.226944"><ele>315.0</ele></trkpt>
<trkpt lon="1.332188" lat="46.227041"><ele>316.75</ele></trkpt>
<trkpt lon="1.331954" lat="46.227150"><ele>317.5</ele></trkpt>
<trkpt lon="1.331932" lat="46.227160"><ele>317.75</ele></trkpt>
<trkpt lon="1.331786" lat="46.227152"><ele>317.5</ele></trkpt>
<trkpt lon="1.331636" lat="46.227152"><ele>317.5</ele></trkpt>
<trkpt lon="1.331580" lat="46.227166"><ele>317.75</ele></trkpt>
<trkpt lon="1.331449" lat="46.226932"><ele>316.75</ele></trkpt>
<trkpt lon="1.331341" lat="46.226959"><ele>316.75</ele></trkpt>
<trkpt lon="1.330268" lat="46.226982"><ele>312.75</ele></trkpt>
<trkpt lon="1.329946" lat="46.226915"><ele>310.75</ele></trkpt>
<trkpt lon="1.328933" lat="46.226599"><ele>307.0</ele></trkpt>
<trkpt lon="1.328712" lat="46.226551"><ele>305.75</ele></trkpt>
<trkpt lon="1.326255" lat="46.226670"><ele>292.0</ele></trkpt>
<trkpt lon="1.325794" lat="46.226633"><ele>289.5</ele></trkpt>
<trkpt lon="1.321917" lat="46.226763"><ele>273.0</ele></trkpt>
<trkpt lon="1.318147" lat="46.226915"><ele>292.25</ele></trkpt>
<trkpt lon="1.313853" lat="46.227382"><ele>311.0</ele></trkpt>
<trkpt lon="1.313617" lat="46.227449"><ele>311.5</ele></trkpt>
<trkpt lon="1.312733" lat="46.227995"><ele>312.5</ele></trkpt>
<trkpt lon="1.311214" lat="46.228896"><ele>315.25</ele></trkpt>
<trkpt lon="1.309197" lat="46.230448"><ele>320.5</ele></trkpt>
<trkpt lon="1.308838" lat="46.230714"><ele>322.75</ele></trkpt>
<trkpt lon="1.308104" lat="46.231294"><ele>324.0</ele></trkpt>
<trkpt lon="1.307989" lat="46.231344"><ele>323.75</ele></trkpt>
<trkpt lon="1.307847" lat="46.231403"><ele>323.0</ele></trkpt>
<trkpt lon="1.307378" lat="46.231772"><ele>321.0</ele></trkpt>
<trkpt lon="1.307167" lat="46.232008"><ele>319.5</ele></trkpt>
<trkpt lon="1.307091" lat="46.232162"><ele>318.5</ele></trkpt>
<trkpt lon="1.306817" lat="46.233145"><ele>313.0</ele></trkpt>
<trkpt lon="1.306731" lat="46.233286"><ele>311.75</ele></trkpt>
<trkpt lon="1.305233" lat="46.235057"><ele>295.25</ele></trkpt>
<trkpt lon="1.304948" lat="46.235294"><ele>293.75</ele></trkpt>
<trkpt lon="1.304453" lat="46.235717"><ele>295.0</ele></trkpt>
<trkpt lon="1.304267" lat="46.235627"><ele>295.0</ele></trkpt>
<trkpt lon="1.304086" lat="46.235563"><ele>295.0</ele></trkpt>
<trkpt lon="1.303838" lat="46.235518"><ele>294.5</ele></trkpt>
<trkpt lon="1.303505" lat="46.235513"><ele>294.75</ele></trkpt>
<trkpt lon="1.302946" lat="46.235471"><ele>295.25</ele></trkpt>
<trkpt lon="1.302598" lat="46.235456"><ele>295.5</ele></trkpt>
<trkpt lon="1.302284" lat="46.235483"><ele>295.5</ele></trkpt>
<trkpt lon="1.302046" lat="46.235522"><ele>295.75</ele></trkpt>
<trkpt lon="1.301831" lat="46.235595"><ele>295.5</ele></trkpt>
<trkpt lon="1.301564" lat="46.235698"><ele>295.5</ele></trkpt>
<trkpt lon="1.301402" lat="46.235721"><ele>295.75</ele></trkpt>
<trkpt lon="1.301228" lat="46.235702"><ele>297.0</ele></trkpt>
<trkpt lon="1.300775" lat="46.235585"><ele>299.25</ele></trkpt>
<trkpt lon="1.300584" lat="46.235564"><ele>299.75</ele></trkpt>
<trkpt lon="1.300434" lat="46.235557"><ele>300.25</ele></trkpt>
<trkpt lon="1.300344" lat="46.235504"><ele>300.25</ele></trkpt>
<trkpt lon="1.300141" lat="46.235446"><ele>300.0</ele></trkpt>
<trkpt lon="1.298811" lat="46.235165"><ele>302.25</ele></trkpt>
<trkpt lon="1.298678" lat="46.235122"><ele>302.5</ele></trkpt>
<trkpt lon="1.298564" lat="46.235058"><ele>302.75</ele></trkpt>
<trkpt lon="1.297980" lat="46.234634"><ele>303.75</ele></trkpt>
<trkpt lon="1.297711" lat="46.234477"><ele>303.75</ele></trkpt>
<trkpt lon="1.297536" lat="46.234428"><ele>304.5</ele></trkpt>
<trkpt lon="1.297368" lat="46.234438"><ele>305.25</ele></trkpt>
<trkpt lon="1.296052" lat="46.234812"><ele>310.75</ele></trkpt>
<trkpt lon="1.295955" lat="46.234828"><ele>311.0</ele></trkpt>
<trkpt lon="1.295849" lat="46.235036"><ele>313.25</ele></trkpt>
<trkpt lon="1.295682" lat="46.235299"><ele>314.5</ele></trkpt>
<trkpt lon="1.295587" lat="46.235417"><ele>315.5</ele></trkpt>
<trkpt lon="1.295425" lat="46.235563"><ele>316.5</ele></trkpt>
<trkpt lon="1.295180" lat="46.235691"><ele>317.75</ele></trkpt>
<trkpt lon="1.294826" lat="46.235825"><ele>320.5</ele></trkpt>
<trkpt lon="1.294481" lat="46.235934"><ele>323.0</ele></trkpt>
<trkpt lon="1.294343" lat="46.235988"><ele>323.5</ele></trkpt>
<trkpt lon="1.294192" lat="46.236082"><ele>324.5</ele></trkpt>
<trkpt lon="1.294092" lat="46.236218"><ele>325.75</ele></trkpt>
<trkpt lon="1.293931" lat="46.236297"><ele>326.25</ele></trkpt>
<trkpt lon="1.293793" lat="46.236334"><ele>326.5</ele></trkpt>
<trkpt lon="1.293565" lat="46.236392"><ele>326.75</ele></trkpt>
<trkpt lon="1.292765" lat="46.236704"><ele>322.75</ele></trkpt>
<trkpt lon="1.292562" lat="46.236875"><ele>321.25</ele></trkpt>
<trkpt lon="1.292288" lat="46.237165"><ele>318.75</ele></trkpt>
<trkpt lon="1.291623" lat="46.238137"><ele>320.75</ele></trkpt>
<trkpt lon="1.290609" lat="46.240021"><ele>335.0</ele></trkpt>
<trkpt lon="1.290442" lat="46.240110"><ele>336.0</ele></trkpt>
<trkpt lon="1.290443" lat="46.240059"><ele>335.75</ele></trkpt>
<trkpt lon="1.288076" lat="46.237865"><ele>329.5</ele></trkpt>
<trkpt lon="1.285271" lat="46.235443"><ele>328.5</ele></trkpt>
<trkpt lon="1.284799" lat="46.235792"><ele>329.0</ele></trkpt>
<trkpt lon="1.284304" lat="46.235272"><ele>328.25</ele></trkpt>
<trkpt lon="1.284065" lat="46.234929"><ele>327.25</ele></trkpt>
<trkpt lon="1.284018" lat="46.234851"><ele>326.75</ele></trkpt>
<trkpt lon="1.282253" lat="46.234827"><ele>319.25</ele></trkpt>
<trkpt lon="1.281736" lat="46.234866"><ele>316.25</ele></trkpt>
<trkpt lon="1.281389" lat="46.234931"><ele>314.25</ele></trkpt>
<trkpt lon="1.278068" lat="46.235984"><ele>314.25</ele></trkpt>
<trkpt lon="1.277699" lat="46.236087"><ele>316.25</ele></trkpt>
<trkpt lon="1.277291" lat="46.236163"><ele>317.75</ele></trkpt>
<trkpt lon="1.276811" lat="46.236225"><ele>319.75</ele></trkpt>
<trkpt lon="1.276293" lat="46.236240"><ele>320.75</ele></trkpt>
<trkpt lon="1.275460" lat="46.236144"><ele>321.0</ele></trkpt>
<trkpt lon="1.275068" lat="46.236019"><ele>320.0</ele></trkpt>
<trkpt lon="1.272775" lat="46.235122"><ele>310.25</ele></trkpt>
<trkpt lon="1.272792" lat="46.235208"><ele>310.75</ele></trkpt>
<trkpt lon="1.272806" lat="46.235396"><ele>311.75</ele></trkpt>
<trkpt lon="1.272808" lat="46.235793"><ele>314.5</ele></trkpt>
<trkpt lon="1.272747" lat="46.236065"><ele>315.75</ele></trkpt>
<trkpt lon="1.272645" lat="46.236316"><ele>318.25</ele></trkpt>
<trkpt lon="1.272587" lat="46.236511"><ele>320.25</ele></trkpt>
<trkpt lon="1.272570" lat="46.236670"><ele>322.0</ele></trkpt>
<trkpt lon="1.272567" lat="46.236820"><ele>322.5</ele></trkpt>
<trkpt lon="1.272578" lat="46.237037"><ele>323.5</ele></trkpt>
<trkpt lon="1.272626" lat="46.237167"><ele>324.5</ele></trkpt>
<trkpt lon="1.272705" lat="46.237335"><ele>325.5</ele></trkpt>
<trkpt lon="1.272719" lat="46.237424"><ele>326.25</ele></trkpt>
<trkpt lon="1.272696" lat="46.237512"><ele>326.75</ele></trkpt>
<trkpt lon="1.272641" lat="46.237600"><ele>327.0</ele></trkpt>
<trkpt lon="1.272478" lat="46.237770"><ele>327.75</ele></trkpt>
<trkpt lon="1.271595" lat="46.238645"><ele>336.25</ele></trkpt>
<trkpt lon="1.270975" lat="46.239275"><ele>340.75</ele></trkpt>
<trkpt lon="1.270083" lat="46.240155"><ele>345.25</ele></trkpt>
<trkpt lon="1.269779" lat="46.240014"><ele>345.75</ele></trkpt>
<trkpt lon="1.269490" lat="46.239940"><ele>345.5</ele></trkpt>
<trkpt lon="1.268900" lat="46.239836"><ele>346.25</ele></trkpt>
<trkpt lon="1.268336" lat="46.239748"><ele>347.0</ele></trkpt>
<trkpt lon="1.268154" lat="46.239724"><ele>347.0</ele></trkpt>
<trkpt lon="1.267477" lat="46.239570"><ele>346.25</ele></trkpt>
<trkpt lon="1.265241" lat="46.239034"><ele>341.75</ele></trkpt>
<trkpt lon="1.264908" lat="46.238960"><ele>341.5</ele></trkpt>
<trkpt lon="1.264581" lat="46.238925"><ele>341.75</ele></trkpt>
<trkpt lon="1.264264" lat="46.238900"><ele>341.75</ele></trkpt>
<trkpt lon="1.264044" lat="46.238887"><ele>341.75</ele></trkpt>
<trkpt lon="1.263901" lat="46.238899"><ele>341.75</ele></trkpt>
<trkpt lon="1.261677" lat="46.239125"><ele>344.75</ele></trkpt>
<trkpt lon="1.259772" lat="46.239575"><ele>342.5</ele></trkpt>
<trkpt lon="1.257529" lat="46.240134"><ele>338.5</ele></trkpt>
<trkpt lon="1.256506" lat="46.240320"><ele>337.5</ele></trkpt>
<trkpt lon="1.255358" lat="46.240307"><ele>337.0</ele></trkpt>
<trkpt lon="1.254137" lat="46.240220"><ele>335.5</ele></trkpt>
<trkpt lon="1.253482" lat="46.240285"><ele>334.5</ele></trkpt>
<trkpt lon="1.252968" lat="46.240397"><ele>334.25</ele></trkpt>
<trkpt lon="1.252721" lat="46.240340"><ele>334.0</ele></trkpt>
<trkpt lon="1.249479" lat="46.239697"><ele>333.75</ele></trkpt>
<trkpt lon="1.247861" lat="46.239458"><ele>334.25</ele></trkpt>
<trkpt lon="1.247354" lat="46.239370"><ele>333.5</ele></trkpt>
<trkpt lon="1.244900" lat="46.238941"><ele>329.75</ele></trkpt>
<trkpt lon="1.243368" lat="46.238637"><ele>332.75</ele></trkpt>
<trkpt lon="1.242516" lat="46.238315"><ele>334.0</ele></trkpt>
<trkpt lon="1.239943" lat="46.237304"><ele>333.75</ele></trkpt>
<trkpt lon="1.239440" lat="46.237158"><ele>333.75</ele></trkpt>
<trkpt lon="1.238058" lat="46.236774"><ele>332.0</ele></trkpt>
<trkpt lon="1.237783" lat="46.236244"><ele>329.75</ele></trkpt>
<trkpt lon="1.237553" lat="46.235844"><ele>328.0</ele></trkpt>
<trkpt lon="1.235730" lat="46.236393"><ele>327.5</ele></trkpt>
<trkpt lon="1.235322" lat="46.236527"><ele>326.0</ele></trkpt>
<trkpt lon="1.233863" lat="46.236519"><ele>319.75</ele></trkpt>
<trkpt lon="1.231374" lat="46.236542"><ele>316.5</ele></trkpt>
<trkpt lon="1.229990" lat="46.236534"><ele>317.5</ele></trkpt>
<trkpt lon="1.229432" lat="46.236430"><ele>317.0</ele></trkpt>
<trkpt lon="1.228940" lat="46.236231"><ele>317.25</ele></trkpt>
<trkpt lon="1.228710" lat="46.236066"><ele>316.75</ele></trkpt>
<trkpt lon="1.227034" lat="46.235763"><ele>315.5</ele></trkpt>
<trkpt lon="1.225584" lat="46.235604"><ele>314.0</ele></trkpt>
<trkpt lon="1.225290" lat="46.235549"><ele>314.75</ele></trkpt>
<trkpt lon="1.224575" lat="46.235315"><ele>315.0</ele></trkpt>
<trkpt lon="1.223748" lat="46.235139"><ele>313.5</ele></trkpt>
<trkpt lon="1.223171" lat="46.235091"><ele>312.5</ele></trkpt>
<trkpt lon="1.221703" lat="46.235068"><ele>312.0</ele></trkpt>
<trkpt lon="1.221451" lat="46.235020"><ele>312.0</ele></trkpt>
<trkpt lon="1.220765" lat="46.234935"><ele>312.75</ele></trkpt>
<trkpt lon="1.218475" lat="46.234699"><ele>311.75</ele></trkpt>
<trkpt lon="1.216888" lat="46.234735"><ele>312.0</ele></trkpt>
<trkpt lon="1.215877" lat="46.234802"><ele>311.0</ele></trkpt>
<trkpt lon="1.214733" lat="46.234717"><ele>309.75</ele></trkpt>
<trkpt lon="1.213252" lat="46.234566"><ele>308.25</ele></trkpt>
<trkpt lon="1.211762" lat="46.234370"><ele>307.0</ele></trkpt>
<trkpt lon="1.211300" lat="46.234286"><ele>307.0</ele></trkpt>
<trkpt lon="1.207477" lat="46.233135"><ele>305.25</ele></trkpt>
<trkpt lon="1.205422" lat="46.232463"><ele>300.75</ele></trkpt>
<trkpt lon="1.203699" lat="46.231940"><ele>295.25</ele></trkpt>
<trkpt lon="1.199175" lat="46.230495"><ele>276.75</ele></trkpt>
<trkpt lon="1.198229" lat="46.230203"><ele>273.5</ele></trkpt>
<trkpt lon="1.196627" lat="46.229813"><ele>268.75</ele></trkpt>
<trkpt lon="1.193966" lat="46.229092"><ele>263.0</ele></trkpt>
<trkpt lon="1.192360" lat="46.228618"><ele>260.25</ele></trkpt>
<trkpt lon="1.191979" lat="46.228603"><ele>260.0</ele></trkpt>
<trkpt lon="1.191781" lat="46.228626"><ele>260.0</ele></trkpt>
<trkpt lon="1.191625" lat="46.228643"><ele>259.75</ele></trkpt>
<trkpt lon="1.189721" lat="46.228724"><ele>256.5</ele></trkpt>
<trkpt lon="1.187620" lat="46.228874"><ele>255.0</ele></trkpt>
<trkpt lon="1.186231" lat="46.228983"><ele>254.0</ele></trkpt>
<trkpt lon="1.185697" lat="46.229032"><ele>254.5</ele></trkpt>
<trkpt lon="1.185057" lat="46.229068"><ele>254.5</ele></trkpt>
<trkpt lon="1.184893" lat="46.229132"><ele>254.5</ele></trkpt>
<trkpt lon="1.184847" lat="46.229156"><ele>254.25</ele></trkpt>
<trkpt lon="1.184695" lat="46.229041"><ele>254.0</ele></trkpt>
<trkpt lon="1.184501" lat="46.228918"><ele>253.75</ele></trkpt>
<trkpt lon="1.182529" lat="46.227786"><ele>251.0</ele></trkpt>
<trkpt lon="1.180504" lat="46.227636"><ele>250.25</ele></trkpt>
<trkpt lon="1.178737" lat="46.227459"><ele>249.25</ele></trkpt>
<trkpt lon="1.178056" lat="46.227197"><ele>248.75</ele></trkpt>
<trkpt lon="1.177766" lat="46.227140"><ele>249.0</ele></trkpt>
<trkpt lon="1.177399" lat="46.227112"><ele>249.5</ele></trkpt>
<trkpt lon="1.176781" lat="46.227127"><ele>250.0</ele></trkpt>
<trkpt lon="1.176519" lat="46.227173"><ele>250.0</ele></trkpt>
<trkpt lon="1.176154" lat="46.227221"><ele>250.0</ele></trkpt>
<trkpt lon="1.175934" lat="46.227313"><ele>250.0</ele></trkpt>
<trkpt lon="1.175870" lat="46.227368"><ele>250.0</ele></trkpt>
<trkpt lon="1.175856" lat="46.227452"><ele>250.0</ele></trkpt>
<trkpt lon="1.174676" lat="46.227572"><ele>250.0</ele></trkpt>
<trkpt lon="1.172238" lat="46.227800"><ele>251.0</ele></trkpt>
<trkpt lon="1.171262" lat="46.227871"><ele>251.0</ele></trkpt>
<trkpt lon="1.171371" lat="46.227816"><ele>251.0</ele></trkpt>
<trkpt lon="1.171466" lat="46.227733"><ele>251.0</ele></trkpt>
<trkpt lon="1.171423" lat="46.226068"><ele>248.25</ele></trkpt>
<trkpt lon="1.171392" lat="46.225658"><ele>248.0</ele></trkpt>
<trkpt lon="1.171409" lat="46.225230"><ele>247.75</ele></trkpt>
<trkpt lon="1.171373" lat="46.224755"><ele>248.0</ele></trkpt>
<trkpt lon="1.171288" lat="46.224447"><ele>248.0</ele></trkpt>
<trkpt lon="1.171251" lat="46.222597"><ele>242.75</ele></trkpt>
<trkpt lon="1.171345" lat="46.222084"><ele>240.5</ele></trkpt>
<trkpt lon="1.171368" lat="46.221514"><ele>238.75</ele></trkpt>
<trkpt lon="1.171190" lat="46.220928"><ele>236.75</ele></trkpt>
<trkpt lon="1.171352" lat="46.220921"><ele>236.25</ele></trkpt>
<trkpt lon="1.171456" lat="46.220845"><ele>236.0</ele></trkpt>
<trkpt lon="1.171712" lat="46.220758"><ele>235.5</ele></trkpt>
<trkpt lon="1.171857" lat="46.220696"><ele>235.5</ele></trkpt>
<trkpt lon="1.171964" lat="46.220634"><ele>235.0</ele></trkpt>
<trkpt lon="1.172092" lat="46.220527"><ele>234.25</ele></trkpt>
<trkpt lon="1.172210" lat="46.220306"><ele>233.0</ele></trkpt>
<trkpt lon="1.172238" lat="46.220032"><ele>232.0</ele></trkpt>
<trkpt lon="1.172258" lat="46.219969"><ele>231.75</ele></trkpt>
<trkpt lon="1.172064" lat="46.219885"><ele>231.75</ele></trkpt>
<trkpt lon="1.171882" lat="46.219759"><ele>231.25</ele></trkpt>
<trkpt lon="1.171653" lat="46.219665"><ele>231.0</ele></trkpt>
<trkpt lon="1.171463" lat="46.219657"><ele>231.5</ele></trkpt>
<trkpt lon="1.171270" lat="46.219710"><ele>231.75</ele></trkpt>
<trkpt lon="1.171095" lat="46.219817"><ele>231.75</ele></trkpt>
<trkpt lon="1.170985" lat="46.219929"><ele>232.75</ele></trkpt>
<trkpt lon="1.170830" lat="46.220032"><ele>233.0</ele></trkpt>
<trkpt lon="1.170653" lat="46.220130"><ele>232.75</ele></trkpt>
<trkpt lon="1.170478" lat="46.220276"><ele>233.5</ele></trkpt>
<trkpt lon="1.170323" lat="46.220339"><ele>233.25</ele></trkpt>
<trkpt lon="1.170229" lat="46.220333"><ele>233.0</ele></trkpt>
<trkpt lon="1.170119" lat="46.220262"><ele>232.25</ele></trkpt>
<trkpt lon="1.169905" lat="46.220082"><ele>230.75</ele></trkpt>
<trkpt lon="1.169636" lat="46.219879"><ele>229.5</ele></trkpt>
<trkpt lon="1.169357" lat="46.219849"><ele>229.25</ele></trkpt>
<trkpt lon="1.168982" lat="46.219923"><ele>229.5</ele></trkpt>
<trkpt lon="1.168717" lat="46.219950"><ele>229.0</ele></trkpt>
<trkpt lon="1.168424" lat="46.219864"><ele>227.25</ele></trkpt>
<trkpt lon="1.167998" lat="46.219587"><ele>224.5</ele></trkpt>
<trkpt lon="1.167815" lat="46.219408"><ele>223.75</ele></trkpt>
<trkpt lon="1.167566" lat="46.219039"><ele>224.5</ele></trkpt>
<trkpt lon="1.167330" lat="46.218703"><ele>226.25</ele></trkpt>
<trkpt lon="1.167006" lat="46.218583"><ele>227.75</ele></trkpt>
<trkpt lon="1.166879" lat="46.218474"><ele>228.25</ele></trkpt>
<trkpt lon="1.166822" lat="46.218384"><ele>229.0</ele></trkpt>
<trkpt lon="1.166799" lat="46.218230"><ele>230.25</ele></trkpt>
<trkpt lon="1.166830" lat="46.217925"><ele>231.75</ele></trkpt>
<trkpt lon="1.166826" lat="46.217808"><ele>232.25</ele></trkpt>
<trkpt lon="1.166866" lat="46.217553"><ele>233.0</ele></trkpt>
<trkpt lon="1.166839" lat="46.217483"><ele>233.25</ele></trkpt>
<trkpt lon="1.166827" lat="46.217323"><ele>234.25</ele></trkpt>
<trkpt lon="1.166441" lat="46.217279"><ele>234.25</ele></trkpt>
<trkpt lon="1.166346" lat="46.217257"><ele>234.0</ele></trkpt>
<trkpt lon="1.166214" lat="46.217226"><ele>234.0</ele></trkpt>
<trkpt lon="1.166006" lat="46.217333"><ele>234.0</ele></trkpt>
<trkpt lon="1.165370" lat="46.217657"><ele>235.0</ele></trkpt>
<trkpt lon="1.165195" lat="46.217773"><ele>235.5</ele></trkpt>
<trkpt lon="1.165130" lat="46.217822"><ele>235.75</ele></trkpt>
<trkpt lon="1.165061" lat="46.217812"><ele>236.25</ele></trkpt>
<trkpt lon="1.164336" lat="46.217840"><ele>240.75</ele></trkpt>
<trkpt lon="1.164175" lat="46.217875"><ele>240.75</ele></trkpt>
<trkpt lon="1.164019" lat="46.218006"><ele>241.0</ele></trkpt>
<trkpt lon="1.163888" lat="46.218069"><ele>240.75</ele></trkpt>
<trkpt lon="1.163637" lat="46.218067"><ele>240.75</ele></trkpt>
<trkpt lon="1.163469" lat="46.218120"><ele>241.0</ele></trkpt>
<trkpt lon="1.163069" lat="46.218202"><ele>241.75</ele></trkpt>
<trkpt lon="1.161882" lat="46.218392"><ele>243.0</ele></trkpt>
<trkpt lon="1.161812" lat="46.218433"><ele>243.25</ele></trkpt>
<trkpt lon="1.161768" lat="46.218487"><ele>243.5</ele></trkpt>
<trkpt lon="1.161684" lat="46.219151"><ele>244.0</ele></trkpt>
<trkpt lon="1.161683" lat="46.219196"><ele>244.0</ele></trkpt>
<trkpt lon="1.160974" lat="46.219174"><ele>244.0</ele></trkpt>
<trkpt lon="1.159737" lat="46.219102"><ele>243.75</ele></trkpt>
<trkpt lon="1.159609" lat="46.219084"><ele>243.25</ele></trkpt>
<trkpt lon="1.159486" lat="46.219047"><ele>243.0</ele></trkpt>
<trkpt lon="1.159363" lat="46.218988"><ele>242.5</ele></trkpt>
<trkpt lon="1.159259" lat="46.218907"><ele>242.25</ele></trkpt>
<trkpt lon="1.158889" lat="46.218306"><ele>238.75</ele></trkpt>
<trkpt lon="1.158862" lat="46.218265"><ele>238.5</ele></trkpt>
<trkpt lon="1.158770" lat="46.218305"><ele>238.25</ele></trkpt>
<trkpt lon="1.158279" lat="46.218519"><ele>237.5</ele></trkpt>
<trkpt lon="1.157393" lat="46.218865"><ele>236.0</ele></trkpt>
<trkpt lon="1.157181" lat="46.218959"><ele>235.75</ele></trkpt>
<trkpt lon="1.157019" lat="46.219063"><ele>235.25</ele></trkpt>
<trkpt lon="1.156839" lat="46.219217"><ele>234.5</ele></trkpt>
<trkpt lon="1.156707" lat="46.219398"><ele>234.75</ele></trkpt>
<trkpt lon="1.156596" lat="46.219674"><ele>235.75</ele></trkpt>
<trkpt lon="1.156099" lat="46.219500"><ele>235.0</ele></trkpt>
<trkpt lon="1.155818" lat="46.219457"><ele>235.0</ele></trkpt>
<trkpt lon="1.155211" lat="46.219482"><ele>236.0</ele></trkpt>
<trkpt lon="1.154914" lat="46.219474"><ele>236.25</ele></trkpt>
<trkpt lon="1.153350" lat="46.218914"><ele>234.0</ele></trkpt>
<trkpt lon="1.152853" lat="46.219012"><ele>234.0</ele></trkpt>
<trkpt lon="1.152169" lat="46.219211"><ele>233.0</ele></trkpt>
<trkpt lon="1.151772" lat="46.219374"><ele>232.5</ele></trkpt>
<trkpt lon="1.151311" lat="46.219537"><ele>231.0</ele></trkpt>
<trkpt lon="1.150120" lat="46.219589"><ele>226.75</ele></trkpt>
<trkpt lon="1.148401" lat="46.219822"><ele>225.0</ele></trkpt>
<trkpt lon="1.148136" lat="46.219407"><ele>223.75</ele></trkpt>
<trkpt lon="1.147551" lat="46.218472"><ele>221.25</ele></trkpt>
<trkpt lon="1.147165" lat="46.217091"><ele>220.75</ele></trkpt>
<trkpt lon="1.146604" lat="46.215728"><ele>218.0</ele></trkpt>
<trkpt lon="1.145661" lat="46.213703"><ele>221.5</ele></trkpt>
<trkpt lon="1.145527" lat="46.213388"><ele>222.0</ele></trkpt>
<trkpt lon="1.145440" lat="46.213225"><ele>221.25</ele></trkpt>
<trkpt lon="1.145101" lat="46.213223"><ele>221.5</ele></trkpt>
<trkpt lon="1.144815" lat="46.213270"><ele>221.75</ele></trkpt>
<trkpt lon="1.144716" lat="46.213397"><ele>221.75</ele></trkpt>
<trkpt lon="1.144507" lat="46.213469"><ele>221.0</ele></trkpt>
<trkpt lon="1.144188" lat="46.213524"><ele>220.25</ele></trkpt>
<trkpt lon="1.144087" lat="46.213575"><ele>220.0</ele></trkpt>
<trkpt lon="1.143909" lat="46.213714"><ele>219.25</ele></trkpt>
<trkpt lon="1.143668" lat="46.213673"><ele>218.75</ele></trkpt>
<trkpt lon="1.143466" lat="46.213611"><ele>218.25</ele></trkpt>
<trkpt lon="1.143094" lat="46.213435"><ele>217.25</ele></trkpt>
<trkpt lon="1.142626" lat="46.213182"><ele>215.25</ele></trkpt>
<trkpt lon="1.142129" lat="46.212834"><ele>212.75</ele></trkpt>
<trkpt lon="1.141756" lat="46.212478"><ele>209.75</ele></trkpt>
<trkpt lon="1.141241" lat="46.212046"><ele>203.0</ele></trkpt>
<trkpt lon="1.141056" lat="46.211543"><ele>198.25</ele></trkpt>
<trkpt lon="1.140963" lat="46.211392"><ele>197.25</ele></trkpt>
<trkpt lon="1.140529" lat="46.211113"><ele>197.0</ele></trkpt>
<trkpt lon="1.140227" lat="46.211017"><ele>196.75</ele></trkpt>
<trkpt lon="1.140066" lat="46.210986"><ele>197.75</ele></trkpt>
<trkpt lon="1.139919" lat="46.211011"><ele>198.75</ele></trkpt>
<trkpt lon="1.139743" lat="46.211144"><ele>198.5</ele></trkpt>
<trkpt lon="1.139596" lat="46.211210"><ele>199.25</ele></trkpt>
<trkpt lon="1.139447" lat="46.211233"><ele>200.25</ele></trkpt>
<trkpt lon="1.139262" lat="46.211226"><ele>199.75</ele></trkpt>
<trkpt lon="1.139109" lat="46.211208"><ele>199.5</ele></trkpt>
<trkpt lon="1.138968" lat="46.211173"><ele>198.75</ele></trkpt>
<trkpt lon="1.138918" lat="46.211077"><ele>200.0</ele></trkpt>
<trkpt lon="1.139091" lat="46.210823"><ele>205.0</ele></trkpt>
<trkpt lon="1.139109" lat="46.210715"><ele>205.75</ele></trkpt>
<trkpt lon="1.139070" lat="46.210599"><ele>206.5</ele></trkpt>
<trkpt lon="1.138962" lat="46.210471"><ele>207.0</ele></trkpt>
<trkpt lon="1.138454" lat="46.210259"><ele>207.0</ele></trkpt>
<trkpt lon="1.133513" lat="46.211246"><ele>199.25</ele></trkpt>
<trkpt lon="1.133290" lat="46.211290"><ele>197.25</ele></trkpt>
<trkpt lon="1.131623" lat="46.211613"><ele>200.0</ele></trkpt>
<trkpt lon="1.131283" lat="46.211656"><ele>200.0</ele></trkpt>
<trkpt lon="1.131070" lat="46.211693"><ele>199.75</ele></trkpt>
<trkpt lon="1.130638" lat="46.211738"><ele>198.75</ele></trkpt>
<trkpt lon="1.130206" lat="46.211761"><ele>198.25</ele></trkpt>
<trkpt lon="1.126528" lat="46.211745"><ele>197.25</ele></trkpt>
<trkpt lon="1.125216" lat="46.211756"><ele>197.25</ele></trkpt>
<trkpt lon="1.124582" lat="46.211809"><ele>196.5</ele></trkpt>
<trkpt lon="1.123651" lat="46.212041"><ele>196.25</ele></trkpt>
<trkpt lon="1.121201" lat="46.212803"><ele>201.5</ele></trkpt>
<trkpt lon="1.120562" lat="46.212929"><ele>203.25</ele></trkpt>
<trkpt lon="1.120214" lat="46.212965"><ele>203.25</ele></trkpt>
<trkpt lon="1.118323" lat="46.213130"><ele>202.25</ele></trkpt>
<trkpt lon="1.117461" lat="46.213205"><ele>203.5</ele></trkpt>
<trkpt lon="1.116649" lat="46.213331"><ele>206.0</ele></trkpt>
<trkpt lon="1.115868" lat="46.213499"><ele>207.75</ele></trkpt>
<trkpt lon="1.112781" lat="46.214462"><ele>213.75</ele></trkpt>
<trkpt lon="1.112179" lat="46.214604"><ele>215.5</ele></trkpt>
<trkpt lon="1.111569" lat="46.214641"><ele>217.0</ele></trkpt>
<trkpt lon="1.111278" lat="46.214646"><ele>217.5</ele></trkpt>
<trkpt lon="1.110921" lat="46.214651"><ele>218.25</ele></trkpt>
<trkpt lon="1.109793" lat="46.214541"><ele>220.5</ele></trkpt>
<trkpt lon="1.108007" lat="46.214331"><ele>224.75</ele></trkpt>
<trkpt lon="1.106379" lat="46.214140"><ele>228.0</ele></trkpt>
<trkpt lon="1.102302" lat="46.213702"><ele>229.25</ele></trkpt>
<trkpt lon="1.100574" lat="46.213494"><ele>228.75</ele></trkpt>
<trkpt lon="1.097081" lat="46.213678"><ele>232.0</ele></trkpt>
<trkpt lon="1.096709" lat="46.213675"><ele>232.0</ele></trkpt>
<trkpt lon="1.096223" lat="46.213649"><ele>232.0</ele></trkpt>
<trkpt lon="1.095711" lat="46.213555"><ele>232.0</ele></trkpt>
<trkpt lon="1.095413" lat="46.213478"><ele>232.0</ele></trkpt>
<trkpt lon="1.094977" lat="46.213335"><ele>230.75</ele></trkpt>
<trkpt lon="1.094450" lat="46.213098"><ele>229.0</ele></trkpt>
<trkpt lon="1.094005" lat="46.212811"><ele>228.0</ele></trkpt>
<trkpt lon="1.093734" lat="46.212573"><ele>227.25</ele></trkpt>
<trkpt lon="1.091481" lat="46.210406"><ele>220.5</ele></trkpt>
<trkpt lon="1.088885" lat="46.207888"><ele>210.75</ele></trkpt>
<trkpt lon="1.088488" lat="46.207578"><ele>208.25</ele></trkpt>
<trkpt lon="1.088017" lat="46.207301"><ele>207.25</ele></trkpt>
<trkpt lon="1.087549" lat="46.207085"><ele>206.5</ele></trkpt>
<trkpt lon="1.087151" lat="46.208057"><ele>203.75</ele></trkpt>
<trkpt lon="1.086762" lat="46.208657"><ele>203.0</ele></trkpt>
<trkpt lon="1.086487" lat="46.208979"><ele>203.25</ele></trkpt>
<trkpt lon="1.086036" lat="46.209282"><ele>203.75</ele></trkpt>
<trkpt lon="1.085489" lat="46.209820"><ele>204.0</ele></trkpt>
<trkpt lon="1.085287" lat="46.209848"><ele>204.25</ele></trkpt>
<trkpt lon="1.084889" lat="46.210261"><ele>205.0</ele></trkpt>
<trkpt lon="1.084785" lat="46.210593"><ele>203.75</ele></trkpt>
<trkpt lon="1.084524" lat="46.210669"><ele>204.25</ele></trkpt>
<trkpt lon="1.084143" lat="46.210688"><ele>205.0</ele></trkpt>
<trkpt lon="1.083757" lat="46.210608"><ele>206.5</ele></trkpt>
<trkpt lon="1.082643" lat="46.210446"><ele>206.25</ele></trkpt>
<trkpt lon="1.082641" lat="46.210570"><ele>205.25</ele></trkpt>
<trkpt lon="1.082382" lat="46.211278"><ele>202.5</ele></trkpt>
<trkpt lon="1.082311" lat="46.211601"><ele>202.75</ele></trkpt>
<trkpt lon="1.082248" lat="46.211862"><ele>202.75</ele></trkpt>
<trkpt lon="1.082133" lat="46.212408"><ele>205.5</ele></trkpt>
<trkpt lon="1.081753" lat="46.212339"><ele>205.25</ele></trkpt>
<trkpt lon="1.081664" lat="46.212333"><ele>205.25</ele></trkpt>
<trkpt lon="1.081606" lat="46.212342"><ele>205.25</ele></trkpt>
<trkpt lon="1.081534" lat="46.212372"><ele>205.5</ele></trkpt>
<trkpt lon="1.081592" lat="46.212577"><ele>207.0</ele></trkpt>
<trkpt lon="1.081682" lat="46.212735"><ele>208.5</ele></trkpt>
<trkpt lon="1.081736" lat="46.212761"><ele>208.75</ele></trkpt>
<trkpt lon="1.081761" lat="46.212957"><ele>212.5</ele></trkpt>
<trkpt lon="1.081585" lat="46.212920"><ele>212.5</ele></trkpt>
<trkpt lon="1.081569" lat="46.212953"><ele>213.25</ele></trkpt>
<trkpt lon="1.081564" lat="46.213011"><ele>214.5</ele></trkpt>
<trkpt lon="1.081596" lat="46.213544"><ele>220.0</ele></trkpt>
<trkpt lon="1.081610" lat="46.214145"><ele>218.5</ele></trkpt>
<trkpt lon="1.081605" lat="46.214387"><ele>219.25</ele></trkpt>
<trkpt lon="1.081612" lat="46.214498"><ele>219.5</ele></trkpt>
<trkpt lon="1.081561" lat="46.214643"><ele>220.5</ele></trkpt>
  </trkseg></trk></gpx>
