<?xml version="1.0" encoding="UTF-8"?>
<gpx version="1.1" creator="compostel-brouter" xmlns="http://www.topografix.com/GPX/1/1">
  <metadata><name>FR-28-Thiviers</name></metadata>
  <trk><name>FR-28-Thiviers</name><trkseg>
<trkpt lon="0.980208" lat="45.653044"><ele>387.5</ele></trkpt>
<trkpt lon="0.980352" lat="45.652928"><ele>388.0</ele></trkpt>
<trkpt lon="0.980597" lat="45.652664"><ele>388.75</ele></trkpt>
<trkpt lon="0.980676" lat="45.652582"><ele>389.5</ele></trkpt>
<trkpt lon="0.980700" lat="45.652558"><ele>389.75</ele></trkpt>
<trkpt lon="0.980748" lat="45.652508"><ele>389.75</ele></trkpt>
<trkpt lon="0.980895" lat="45.652470"><ele>390.25</ele></trkpt>
<trkpt lon="0.980879" lat="45.652308"><ele>390.5</ele></trkpt>
<trkpt lon="0.980930" lat="45.652287"><ele>390.75</ele></trkpt>
<trkpt lon="0.981012" lat="45.652250"><ele>390.75</ele></trkpt>
<trkpt lon="0.981191" lat="45.652169"><ele>391.75</ele></trkpt>
<trkpt lon="0.981487" lat="45.652036"><ele>393.25</ele></trkpt>
<trkpt lon="0.981980" lat="45.651813"><ele>396.25</ele></trkpt>
<trkpt lon="0.982292" lat="45.651716"><ele>395.5</ele></trkpt>
<trkpt lon="0.984460" lat="45.651463"><ele>386.5</ele></trkpt>
<trkpt lon="0.984664" lat="45.651465"><ele>385.5</ele></trkpt>
<trkpt lon="0.984710" lat="45.651488"><ele>385.25</ele></trkpt>
<trkpt lon="0.984999" lat="45.651291"><ele>384.25</ele></trkpt>
<trkpt lon="0.985293" lat="45.651127"><ele>387.5</ele></trkpt>
<trkpt lon="0.985596" lat="45.650674"><ele>386.5</ele></trkpt>
<trkpt lon="0.985770" lat="45.650384"><ele>388.25</ele></trkpt>
<trkpt lon="0.985891" lat="45.650182"><ele>390.25</ele></trkpt>
<trkpt lon="0.986342" lat="45.649609"><ele>398.5</ele></trkpt>
<trkpt lon="0.986465" lat="45.649365"><ele>400.75</ele></trkpt>
<trkpt lon="0.986812" lat="45.648235"><ele>405.0</ele></trkpt>
<trkpt lon="0.987048" lat="45.647886"><ele>406.75</ele></trkpt>
<trkpt lon="0.987289" lat="45.647653"><ele>407.25</ele></trkpt>
<trkpt lon="0.987638" lat="45.647443"><ele>408.0</ele></trkpt>
<trkpt lon="0.987869" lat="45.647322"><ele>408.0</ele></trkpt>
<trkpt lon="0.987938" lat="45.647286"><ele>408.25</ele></trkpt>
<trkpt lon="0.988357" lat="45.647151"><ele>409.25</ele></trkpt>
<trkpt lon="0.989029" lat="45.646721"><ele>414.25</ele></trkpt>
<trkpt lon="0.990451" lat="45.646143"><ele>422.25</ele></trkpt>
<trkpt lon="0.990698" lat="45.646106"><ele>422.0</ele></trkpt>
<trkpt lon="0.991266" lat="45.645847"><ele>421.25</ele></trkpt>
<trkpt lon="0.991614" lat="45.645637"><ele>420.75</ele></trkpt>
<trkpt lon="0.992005" lat="45.645494"><ele>421.0</ele></trkpt>
<trkpt lon="0.992971" lat="45.644590"><ele>422.5</ele></trkpt>
<trkpt lon="0.993152" lat="45.644281"><ele>424.5</ele></trkpt>
<trkpt lon="0.993179" lat="45.643456"><ele>426.0</ele></trkpt>
<trkpt lon="0.993263" lat="45.642444"><ele>429.5</ele></trkpt>
<trkpt lon="0.993194" lat="45.641728"><ele>432.25</ele></trkpt>
<trkpt lon="0.993005" lat="45.640680"><ele>433.75</ele></trkpt>
<trkpt lon="0.993005" lat="45.640418"><ele>433.25</ele></trkpt>
<trkpt lon="0.993108" lat="45.640251"><ele>433.0</ele></trkpt>
<trkpt lon="0.993160" lat="45.640166"><ele>432.75</ele></trkpt>
<trkpt lon="0.994715" lat="45.639067"><ele>420.0</ele></trkpt>
<trkpt lon="0.995080" lat="45.638771"><ele>417.0</ele></trkpt>
<trkpt lon="0.995268" lat="45.638419"><ele>415.0</ele></trkpt>
<trkpt lon="0.995300" lat="45.638317"><ele>414.75</ele></trkpt>
<trkpt lon="0.995702" lat="45.638144"><ele>411.75</ele></trkpt>
<trkpt lon="0.996078" lat="45.637773"><ele>408.0</ele></trkpt>
<trkpt lon="0.996575" lat="45.637451"><ele>406.0</ele></trkpt>
<trkpt lon="0.996444" lat="45.637431"><ele>406.0</ele></trkpt>
<trkpt lon="0.996229" lat="45.637345"><ele>406.5</ele></trkpt>
<trkpt lon="0.996103" lat="45.637237"><ele>406.0</ele></trkpt>
<trkpt lon="0.996044" lat="45.637080"><ele>404.75</ele></trkpt>
<trkpt lon="0.998292" lat="45.635830"><ele>392.75</ele></trkpt>
<trkpt lon="0.998871" lat="45.635545"><ele>391.75</ele></trkpt>
<trkpt lon="0.999300" lat="45.635395"><ele>390.75</ele></trkpt>
<trkpt lon="1.001360" lat="45.634791"><ele>379.75</ele></trkpt>
<trkpt lon="1.004811" lat="45.633786"><ele>377.25</ele></trkpt>
<trkpt lon="1.004846" lat="45.633835"><ele>377.75</ele></trkpt>
<trkpt lon="1.005303" lat="45.633714"><ele>377.75</ele></trkpt>
<trkpt lon="1.005414" lat="45.633667"><ele>377.75</ele></trkpt>
<trkpt lon="1.005518" lat="45.633583"><ele>378.0</ele></trkpt>
<trkpt lon="1.005609" lat="45.633480"><ele>377.75</ele></trkpt>
<trkpt lon="1.005858" lat="45.633119"><ele>377.75</ele></trkpt>
<trkpt lon="1.005911" lat="45.633021"><ele>377.5</ele></trkpt>
<trkpt lon="1.005842" lat="45.632901"><ele>377.25</ele></trkpt>
<trkpt lon="1.005632" lat="45.632684"><ele>376.5</ele></trkpt>
<trkpt lon="1.005091" lat="45.632234"><ele>377.0</ele></trkpt>
<trkpt lon="1.005013" lat="45.632147"><ele>376.75</ele></trkpt>
<trkpt lon="1.005315" lat="45.631880"><ele>376.5</ele></trkpt>
<trkpt lon="1.005351" lat="45.631769"><ele>376.25</ele></trkpt>
<trkpt lon="1.005334" lat="45.631689"><ele>376.0</ele></trkpt>
<trkpt lon="1.005000" lat="45.631013"><ele>374.5</ele></trkpt>
<trkpt lon="1.004627" lat="45.630444"><ele>371.0</ele></trkpt>
<trkpt lon="1.004400" lat="45.629884"><ele>368.25</ele></trkpt>
<trkpt lon="1.004136" lat="45.629261"><ele>364.25</ele></trkpt>
<trkpt lon="1.004412" lat="45.629036"><ele>363.75</ele></trkpt>
<trkpt lon="1.004507" lat="45.628899"><ele>363.0</ele></trkpt>
<trkpt lon="1.004715" lat="45.628328"><ele>367.0</ele></trkpt>
<trkpt lon="1.004760" lat="45.628260"><ele>367.75</ele></trkpt>
<trkpt lon="1.004874" lat="45.628122"><ele>368.75</ele></trkpt>
<trkpt lon="1.005128" lat="45.627959"><ele>370.25</ele></trkpt>
<trkpt lon="1.005399" lat="45.627803"><ele>371.75</ele></trkpt>
<trkpt lon="1.005259" lat="45.627691"><ele>370.5</ele></trkpt>
<trkpt lon="1.004908" lat="45.627389"><ele>371.25</ele></trkpt>
<trkpt lon="1.004546" lat="45.627124"><ele>371.5</ele></trkpt>
<trkpt lon="1.004228" lat="45.626973"><ele>370.25</ele></trkpt>
<trkpt lon="1.003355" lat="45.626606"><ele>365.75</ele></trkpt>
<trkpt lon="1.003139" lat="45.626537"><ele>364.0</ele></trkpt>
<trkpt lon="1.002983" lat="45.626534"><ele>362.75</ele></trkpt>
<trkpt lon="1.002759" lat="45.626545"><ele>361.25</ele></trkpt>
<trkpt lon="1.002691" lat="45.626516"><ele>361.0</ele></trkpt>
<trkpt lon="1.002652" lat="45.626464"><ele>360.75</ele></trkpt>
<trkpt lon="1.002524" lat="45.625556"><ele>358.0</ele></trkpt>
<trkpt lon="1.002309" lat="45.625023"><ele>357.5</ele></trkpt>
<trkpt lon="1.002200" lat="45.624818"><ele>357.25</ele></trkpt>
<trkpt lon="1.002285" lat="45.624794"><ele>357.0</ele></trkpt>
<trkpt lon="1.002415" lat="45.624773"><ele>357.0</ele></trkpt>
<trkpt lon="1.003001" lat="45.624735"><ele>357.0</ele></trkpt>
<trkpt lon="1.003085" lat="45.624725"><ele>357.0</ele></trkpt>
<trkpt lon="1.003142" lat="45.624719"><ele>357.0</ele></trkpt>
<trkpt lon="1.003200" lat="45.624702"><ele>357.0</ele></trkpt>
<trkpt lon="1.003238" lat="45.624680"><ele>357.0</ele></trkpt>
<trkpt lon="1.003453" lat="45.624429"><ele>357.75</ele></trkpt>
<trkpt lon="1.003594" lat="45.624277"><ele>359.25</ele></trkpt>
<trkpt lon="1.003794" lat="45.624114"><ele>361.25</ele></trkpt>
<trkpt lon="1.004575" lat="45.623599"><ele>370.0</ele></trkpt>
<trkpt lon="1.004707" lat="45.623454"><ele>371.75</ele></trkpt>
<trkpt lon="1.004789" lat="45.623318"><ele>374.0</ele></trkpt>
<trkpt lon="1.004796" lat="45.623209"><ele>375.5</ele></trkpt>
<trkpt lon="1.004701" lat="45.623081"><ele>375.5</ele></trkpt>
<trkpt lon="1.004784" lat="45.622976"><ele>378.25</ele></trkpt>
<trkpt lon="1.004791" lat="45.622823"><ele>380.5</ele></trkpt>
<trkpt lon="1.004839" lat="45.622687"><ele>383.25</ele></trkpt>
<trkpt lon="1.004941" lat="45.622646"><ele>385.25</ele></trkpt>
<trkpt lon="1.005081" lat="45.622641"><ele>387.25</ele></trkpt>
<trkpt lon="1.005526" lat="45.622771"><ele>390.5</ele></trkpt>
<trkpt lon="1.005658" lat="45.622778"><ele>391.5</ele></trkpt>
<trkpt lon="1.005745" lat="45.622766"><ele>392.25</ele></trkpt>
<trkpt lon="1.006061" lat="45.622664"><ele>394.25</ele></trkpt>
<trkpt lon="1.007184" lat="45.622028"><ele>396.0</ele></trkpt>
<trkpt lon="1.007672" lat="45.621593"><ele>401.0</ele></trkpt>
<trkpt lon="1.007937" lat="45.621369"><ele>404.75</ele></trkpt>
<trkpt lon="1.008058" lat="45.621219"><ele>406.5</ele></trkpt>
<trkpt lon="1.008257" lat="45.620782"><ele>410.5</ele></trkpt>
<trkpt lon="1.008344" lat="45.620564"><ele>411.0</ele></trkpt>
<trkpt lon="1.008357" lat="45.620292"><ele>412.0</ele></trkpt>
<trkpt lon="1.008387" lat="45.620162"><ele>412.25</ele></trkpt>
<trkpt lon="1.008432" lat="45.619992"><ele>412.25</ele></trkpt>
<trkpt lon="1.008501" lat="45.619899"><ele>411.75</ele></trkpt>
<trkpt lon="1.008622" lat="45.619818"><ele>411.5</ele></trkpt>
<trkpt lon="1.008745" lat="45.619758"><ele>411.75</ele></trkpt>
<trkpt lon="1.009753" lat="45.619378"><ele>411.5</ele></trkpt>
<trkpt lon="1.009928" lat="45.619293"><ele>411.5</ele></trkpt>
<trkpt lon="1.010049" lat="45.619219"><ele>412.0</ele></trkpt>
<trkpt lon="1.010148" lat="45.619148"><ele>412.5</ele></trkpt>
<trkpt lon="1.010242" lat="45.619069"><ele>412.75</ele></trkpt>
<trkpt lon="1.010803" lat="45.618480"><ele>417.25</ele></trkpt>
<trkpt lon="1.010998" lat="45.618276"><ele>419.0</ele></trkpt>
<trkpt lon="1.011092" lat="45.618140"><ele>419.75</ele></trkpt>
<trkpt lon="1.011161" lat="45.618016"><ele>420.5</ele></trkpt>
<trkpt lon="1.011197" lat="45.617911"><ele>421.25</ele></trkpt>
<trkpt lon="1.011199" lat="45.617816"><ele>421.75</ele></trkpt>
<trkpt lon="1.011175" lat="45.617733"><ele>422.0</ele></trkpt>
<trkpt lon="1.011128" lat="45.617628"><ele>422.75</ele></trkpt>
<trkpt lon="1.011424" lat="45.617754"><ele>424.5</ele></trkpt>
<trkpt lon="1.011617" lat="45.617557"><ele>428.75</ele></trkpt>
<trkpt lon="1.011716" lat="45.617426"><ele>430.75</ele></trkpt>
<trkpt lon="1.011748" lat="45.617287"><ele>432.0</ele></trkpt>
<trkpt lon="1.011727" lat="45.616929"><ele>434.25</ele></trkpt>
<trkpt lon="1.011768" lat="45.616798"><ele>435.0</ele></trkpt>
<trkpt lon="1.011831" lat="45.616711"><ele>435.5</ele></trkpt>
<trkpt lon="1.012074" lat="45.616532"><ele>437.0</ele></trkpt>
<trkpt lon="1.012205" lat="45.616461"><ele>438.0</ele></trkpt>
<trkpt lon="1.012312" lat="45.616350"><ele>438.5</ele></trkpt>
<trkpt lon="1.012374" lat="45.616268"><ele>439.0</ele></trkpt>
<trkpt lon="1.012446" lat="45.616154"><ele>439.5</ele></trkpt>
<trkpt lon="1.012543" lat="45.616060"><ele>440.5</ele></trkpt>
<trkpt lon="1.012677" lat="45.615953"><ele>442.0</ele></trkpt>
<trkpt lon="1.012879" lat="45.615837"><ele>443.5</ele></trkpt>
<trkpt lon="1.013022" lat="45.615789"><ele>445.0</ele></trkpt>
<trkpt lon="1.013227" lat="45.615732"><ele>446.0</ele></trkpt>
<trkpt lon="1.013364" lat="45.615655"><ele>446.5</ele></trkpt>
<trkpt lon="1.013416" lat="45.615598"><ele>446.5</ele></trkpt>
<trkpt lon="1.013478" lat="45.615500"><ele>447.0</ele></trkpt>
<trkpt lon="1.013719" lat="45.615318"><ele>448.0</ele></trkpt>
<trkpt lon="1.013817" lat="45.615220"><ele>448.5</ele></trkpt>
<trkpt lon="1.013875" lat="45.615090"><ele>449.25</ele></trkpt>
<trkpt lon="1.014027" lat="45.614662"><ele>448.75</ele></trkpt>
<trkpt lon="1.014115" lat="45.614573"><ele>448.75</ele></trkpt>
<trkpt lon="1.014206" lat="45.614521"><ele>448.5</ele></trkpt>
<trkpt lon="1.014317" lat="45.614370"><ele>449.75</ele></trkpt>
<trkpt lon="1.014382" lat="45.614295"><ele>450.0</ele></trkpt>
<trkpt lon="1.014434" lat="45.614211"><ele>450.5</ele></trkpt>
<trkpt lon="1.014447" lat="45.614129"><ele>451.0</ele></trkpt>
<trkpt lon="1.014421" lat="45.613995"><ele>451.75</ele></trkpt>
<trkpt lon="1.014356" lat="45.613803"><ele>452.0</ele></trkpt>
<trkpt lon="1.014105" lat="45.613197"><ele>447.5</ele></trkpt>
<trkpt lon="1.014065" lat="45.613024"><ele>446.0</ele></trkpt>
<trkpt lon="1.014026" lat="45.612914"><ele>445.25</ele></trkpt>
<trkpt lon="1.013991" lat="45.612842"><ele>445.0</ele></trkpt>
<trkpt lon="1.013895" lat="45.612736"><ele>444.5</ele></trkpt>
<trkpt lon="1.013733" lat="45.612605"><ele>444.5</ele></trkpt>
<trkpt lon="1.013493" lat="45.612455"><ele>444.25</ele></trkpt>
<trkpt lon="1.013237" lat="45.612324"><ele>444.25</ele></trkpt>
<trkpt lon="1.013002" lat="45.612247"><ele>444.25</ele></trkpt>
<trkpt lon="1.012804" lat="45.612149"><ele>444.5</ele></trkpt>
<trkpt lon="1.012689" lat="45.612050"><ele>444.25</ele></trkpt>
<trkpt lon="1.012590" lat="45.611952"><ele>444.0</ele></trkpt>
<trkpt lon="1.012502" lat="45.611842"><ele>443.75</ele></trkpt>
<trkpt lon="1.012437" lat="45.611742"><ele>443.75</ele></trkpt>
<trkpt lon="1.012401" lat="45.611660"><ele>443.5</ele></trkpt>
<trkpt lon="1.012342" lat="45.611470"><ele>443.0</ele></trkpt>
<trkpt lon="1.012295" lat="45.611413"><ele>443.0</ele></trkpt>
<trkpt lon="1.012193" lat="45.611229"><ele>443.5</ele></trkpt>
<trkpt lon="1.011934" lat="45.610711"><ele>444.0</ele></trkpt>
<trkpt lon="1.011839" lat="45.610613"><ele>443.5</ele></trkpt>
<trkpt lon="1.010911" lat="45.610086"><ele>441.25</ele></trkpt>
<trkpt lon="1.010750" lat="45.609947"><ele>441.0</ele></trkpt>
<trkpt lon="1.010646" lat="45.609823"><ele>440.5</ele></trkpt>
<trkpt lon="1.010528" lat="45.609621"><ele>439.5</ele></trkpt>
<trkpt lon="1.010426" lat="45.609519"><ele>439.5</ele></trkpt>
<trkpt lon="1.010010" lat="45.609206"><ele>439.0</ele></trkpt>
<trkpt lon="1.009871" lat="45.609064"><ele>438.75</ele></trkpt>
<trkpt lon="1.009720" lat="45.608806"><ele>438.25</ele></trkpt>
<trkpt lon="1.009375" lat="45.607937"><ele>435.75</ele></trkpt>
<trkpt lon="1.008323" lat="45.607698"><ele>435.5</ele></trkpt>
<trkpt lon="1.008041" lat="45.607612"><ele>435.25</ele></trkpt>
<trkpt lon="1.007901" lat="45.607267"><ele>433.5</ele></trkpt>
<trkpt lon="1.007699" lat="45.606848"><ele>431.75</ele></trkpt>
<trkpt lon="1.007635" lat="45.606651"><ele>431.25</ele></trkpt>
<trkpt lon="1.007513" lat="45.606254"><ele>429.5</ele></trkpt>
<trkpt lon="1.007417" lat="45.606112"><ele>428.5</ele></trkpt>
<trkpt lon="1.008328" lat="45.605928"><ele>427.5</ele></trkpt>
<trkpt lon="1.009514" lat="45.605673"><ele>425.75</ele></trkpt>
<trkpt lon="1.009760" lat="45.605579"><ele>425.25</ele></trkpt>
<trkpt lon="1.009959" lat="45.605414"><ele>425.25</ele></trkpt>
<trkpt lon="1.010532" lat="45.604810"><ele>427.25</ele></trkpt>
<trkpt lon="1.010777" lat="45.604555"><ele>425.5</ele></trkpt>
<trkpt lon="1.010887" lat="45.604470"><ele>424.5</ele></trkpt>
<trkpt lon="1.010977" lat="45.604389"><ele>423.75</ele></trkpt>
<trkpt lon="1.011034" lat="45.604295"><ele>422.75</ele></trkpt>
<trkpt lon="1.011099" lat="45.604143"><ele>421.0</ele></trkpt>
<trkpt lon="1.011163" lat="45.604063"><ele>419.75</ele></trkpt>
<trkpt lon="1.011267" lat="45.603981"><ele>416.75</ele></trkpt>
<trkpt lon="1.011539" lat="45.603821"><ele>414.75</ele></trkpt>
<trkpt lon="1.011727" lat="45.603724"><ele>416.25</ele></trkpt>
<trkpt lon="1.011787" lat="45.603738"><ele>416.0</ele></trkpt>
<trkpt lon="1.012322" lat="45.603459"><ele>412.75</ele></trkpt>
<trkpt lon="1.012483" lat="45.603330"><ele>412.0</ele></trkpt>
<trkpt lon="1.012607" lat="45.603205"><ele>410.75</ele></trkpt>
<trkpt lon="1.012754" lat="45.602964"><ele>408.25</ele></trkpt>
<trkpt lon="1.012809" lat="45.602789"><ele>407.0</ele></trkpt>
<trkpt lon="1.012853" lat="45.602554"><ele>405.25</ele></trkpt>
<trkpt lon="1.012939" lat="45.602241"><ele>403.0</ele></trkpt>
<trkpt lon="1.013036" lat="45.602057"><ele>402.25</ele></trkpt>
<trkpt lon="1.013160" lat="45.601900"><ele>401.25</ele></trkpt>
<trkpt lon="1.013424" lat="45.601539"><ele>399.25</ele></trkpt>
<trkpt lon="1.013425" lat="45.601356"><ele>399.25</ele></trkpt>
<trkpt lon="1.013271" lat="45.601298"><ele>399.5</ele></trkpt>
<trkpt lon="1.012995" lat="45.601240"><ele>399.0</ele></trkpt>
<trkpt lon="1.012857" lat="45.601135"><ele>397.5</ele></trkpt>
<trkpt lon="1.012443" lat="45.600983"><ele>394.75</ele></trkpt>
<trkpt lon="1.011904" lat="45.600820"><ele>392.75</ele></trkpt>
<trkpt lon="1.011716" lat="45.600696"><ele>392.25</ele></trkpt>
<trkpt lon="1.011332" lat="45.600290"><ele>394.75</ele></trkpt>
<trkpt lon="1.011010" lat="45.599968"><ele>398.25</ele></trkpt>
<trkpt lon="1.010350" lat="45.599461"><ele>401.75</ele></trkpt>
<trkpt lon="1.010048" lat="45.599347"><ele>403.25</ele></trkpt>
<trkpt lon="1.009642" lat="45.599274"><ele>405.25</ele></trkpt>
<trkpt lon="1.009204" lat="45.599179"><ele>405.0</ele></trkpt>
<trkpt lon="1.009087" lat="45.599121"><ele>405.0</ele></trkpt>
<trkpt lon="1.008504" lat="45.598793"><ele>407.5</ele></trkpt>
<trkpt lon="1.008087" lat="45.598588"><ele>409.0</ele></trkpt>
<trkpt lon="1.008261" lat="45.597969"><ele>411.75</ele></trkpt>
<trkpt lon="1.008429" lat="45.597683"><ele>413.0</ele></trkpt>
<trkpt lon="1.008674" lat="45.597452"><ele>412.75</ele></trkpt>
<trkpt lon="1.009007" lat="45.597301"><ele>411.25</ele></trkpt>
<trkpt lon="1.009330" lat="45.597110"><ele>409.0</ele></trkpt>
<trkpt lon="1.009719" lat="45.596844"><ele>407.5</ele></trkpt>
<trkpt lon="1.010091" lat="45.596518"><ele>407.25</ele></trkpt>
<trkpt lon="1.010350" lat="45.596263"><ele>407.5</ele></trkpt>
<trkpt lon="1.010698" lat="45.596037"><ele>407.5</ele></trkpt>
<trkpt lon="1.010768" lat="45.595902"><ele>407.0</ele></trkpt>
<trkpt lon="1.010806" lat="45.595796"><ele>406.75</ele></trkpt>
<trkpt lon="1.010843" lat="45.595580"><ele>407.0</ele></trkpt>
<trkpt lon="1.010882" lat="45.595319"><ele>409.0</ele></trkpt>
<trkpt lon="1.010878" lat="45.595177"><ele>410.0</ele></trkpt>
<trkpt lon="1.010901" lat="45.594977"><ele>411.75</ele></trkpt>
<trkpt lon="1.010975" lat="45.594718"><ele>413.5</ele></trkpt>
<trkpt lon="1.011060" lat="45.594590"><ele>414.0</ele></trkpt>
<trkpt lon="1.011245" lat="45.594453"><ele>414.5</ele></trkpt>
<trkpt lon="1.011732" lat="45.594131"><ele>412.5</ele></trkpt>
<trkpt lon="1.011991" lat="45.593985"><ele>411.25</ele></trkpt>
<trkpt lon="1.012211" lat="45.593887"><ele>409.75</ele></trkpt>
<trkpt lon="1.012411" lat="45.593831"><ele>408.5</ele></trkpt>
<trkpt lon="1.012769" lat="45.593797"><ele>408.25</ele></trkpt>
<trkpt lon="1.013216" lat="45.593510"><ele>407.25</ele></trkpt>
<trkpt lon="1.013580" lat="45.593337"><ele>404.25</ele></trkpt>
<trkpt lon="1.014026" lat="45.592882"><ele>400.0</ele></trkpt>
<trkpt lon="1.014189" lat="45.592642"><ele>397.0</ele></trkpt>
<trkpt lon="1.014487" lat="45.592159"><ele>391.0</ele></trkpt>
<trkpt lon="1.014963" lat="45.591533"><ele>383.25</ele></trkpt>
<trkpt lon="1.015114" lat="45.591427"><ele>382.25</ele></trkpt>
<trkpt lon="1.015237" lat="45.591371"><ele>382.0</ele></trkpt>
<trkpt lon="1.015342" lat="45.591344"><ele>381.5</ele></trkpt>
<trkpt lon="1.015612" lat="45.591306"><ele>380.75</ele></trkpt>
<trkpt lon="1.016573" lat="45.591237"><ele>375.0</ele></trkpt>
<trkpt lon="1.017361" lat="45.591166"><ele>372.0</ele></trkpt>
<trkpt lon="1.017606" lat="45.591111"><ele>370.5</ele></trkpt>
<trkpt lon="1.018334" lat="45.591118"><ele>365.0</ele></trkpt>
<trkpt lon="1.019091" lat="45.591224"><ele>366.5</ele></trkpt>
<trkpt lon="1.019070" lat="45.591050"><ele>365.75</ele></trkpt>
<trkpt lon="1.019019" lat="45.590875"><ele>364.75</ele></trkpt>
<trkpt lon="1.018976" lat="45.590760"><ele>364.75</ele></trkpt>
<trkpt lon="1.018902" lat="45.590649"><ele>365.0</ele></trkpt>
<trkpt lon="1.019449" lat="45.590328"><ele>370.75</ele></trkpt>
<trkpt lon="1.019912" lat="45.590050"><ele>372.0</ele></trkpt>
<trkpt lon="1.020588" lat="45.589772"><ele>372.25</ele></trkpt>
<trkpt lon="1.021723" lat="45.589290"><ele>372.5</ele></trkpt>
<trkpt lon="1.022804" lat="45.588815"><ele>374.75</ele></trkpt>
<trkpt lon="1.023146" lat="45.588640"><ele>374.0</ele></trkpt>
<trkpt lon="1.023460" lat="45.588465"><ele>373.0</ele></trkpt>
<trkpt lon="1.023790" lat="45.588250"><ele>373.0</ele></trkpt>
<trkpt lon="1.024131" lat="45.587982"><ele>373.25</ele></trkpt>
<trkpt lon="1.024429" lat="45.587730"><ele>374.5</ele></trkpt>
<trkpt lon="1.024772" lat="45.587535"><ele>373.25</ele></trkpt>
<trkpt lon="1.025292" lat="45.587590"><ele>373.25</ele></trkpt>
<trkpt lon="1.025424" lat="45.587594"><ele>374.0</ele></trkpt>
<trkpt lon="1.025516" lat="45.587575"><ele>374.75</ele></trkpt>
<trkpt lon="1.025609" lat="45.587530"><ele>375.5</ele></trkpt>
<trkpt lon="1.025725" lat="45.587462"><ele>376.25</ele></trkpt>
<trkpt lon="1.025837" lat="45.587426"><ele>376.75</ele></trkpt>
<trkpt lon="1.026034" lat="45.587347"><ele>376.75</ele></trkpt>
<trkpt lon="1.026394" lat="45.587234"><ele>375.25</ele></trkpt>
<trkpt lon="1.027259" lat="45.587159"><ele>373.0</ele></trkpt>
<trkpt lon="1.027506" lat="45.587129"><ele>371.75</ele></trkpt>
<trkpt lon="1.027650" lat="45.587078"><ele>371.0</ele></trkpt>
<trkpt lon="1.027797" lat="45.586963"><ele>369.25</ele></trkpt>
<trkpt lon="1.027834" lat="45.586884"><ele>368.75</ele></trkpt>
<trkpt lon="1.027850" lat="45.586803"><ele>368.25</ele></trkpt>
<trkpt lon="1.027847" lat="45.586710"><ele>367.5</ele></trkpt>
<trkpt lon="1.027820" lat="45.586624"><ele>367.25</ele></trkpt>
<trkpt lon="1.027740" lat="45.586505"><ele>367.5</ele></trkpt>
<trkpt lon="1.027728" lat="45.586488"><ele>367.5</ele></trkpt>
<trkpt lon="1.027137" lat="45.585616"><ele>371.75</ele></trkpt>
<trkpt lon="1.026983" lat="45.585487"><ele>372.25</ele></trkpt>
<trkpt lon="1.026809" lat="45.585366"><ele>373.5</ele></trkpt>
<trkpt lon="1.026585" lat="45.585254"><ele>374.0</ele></trkpt>
<trkpt lon="1.026252" lat="45.585118"><ele>375.25</ele></trkpt>
<trkpt lon="1.026104" lat="45.585048"><ele>376.25</ele></trkpt>
<trkpt lon="1.026000" lat="45.584985"><ele>376.5</ele></trkpt>
<trkpt lon="1.025909" lat="45.584906"><ele>377.0</ele></trkpt>
<trkpt lon="1.025826" lat="45.584794"><ele>377.25</ele></trkpt>
<trkpt lon="1.025755" lat="45.584644"><ele>377.75</ele></trkpt>
<trkpt lon="1.025697" lat="45.584541"><ele>378.25</ele></trkpt>
<trkpt lon="1.025574" lat="45.584421"><ele>378.25</ele></trkpt>
<trkpt lon="1.026020" lat="45.584211"><ele>383.75</ele></trkpt>
<trkpt lon="1.026228" lat="45.584162"><ele>385.75</ele></trkpt>
<trkpt lon="1.026722" lat="45.584115"><ele>390.75</ele></trkpt>
<trkpt lon="1.026854" lat="45.584050"><ele>392.25</ele></trkpt>
<trkpt lon="1.026965" lat="45.583942"><ele>394.0</ele></trkpt>
<trkpt lon="1.027294" lat="45.583743"><ele>397.5</ele></trkpt>
<trkpt lon="1.027628" lat="45.583591"><ele>399.25</ele></trkpt>
<trkpt lon="1.028008" lat="45.583472"><ele>399.75</ele></trkpt>
<trkpt lon="1.028346" lat="45.583267"><ele>398.25</ele></trkpt>
<trkpt lon="1.028655" lat="45.583182"><ele>398.0</ele></trkpt>
<trkpt lon="1.029397" lat="45.583143"><ele>399.0</ele></trkpt>
<trkpt lon="1.029543" lat="45.583087"><ele>400.25</ele></trkpt>
<trkpt lon="1.030178" lat="45.582813"><ele>408.0</ele></trkpt>
<trkpt lon="1.030274" lat="45.582516"><ele>412.75</ele></trkpt>
<trkpt lon="1.030811" lat="45.582107"><ele>422.5</ele></trkpt>
<trkpt lon="1.030923" lat="45.581979"><ele>424.0</ele></trkpt>
<trkpt lon="1.030998" lat="45.581750"><ele>425.25</ele></trkpt>
<trkpt lon="1.031095" lat="45.581638"><ele>426.5</ele></trkpt>
<trkpt lon="1.031267" lat="45.581574"><ele>428.5</ele></trkpt>
<trkpt lon="1.031599" lat="45.581514"><ele>433.0</ele></trkpt>
<trkpt lon="1.031905" lat="45.581412"><ele>435.75</ele></trkpt>
<trkpt lon="1.032222" lat="45.581251"><ele>438.0</ele></trkpt>
<trkpt lon="1.033108" lat="45.580642"><ele>449.25</ele></trkpt>
<trkpt lon="1.033933" lat="45.580080"><ele>461.5</ele></trkpt>
<trkpt lon="1.034117" lat="45.579904"><ele>464.0</ele></trkpt>
<trkpt lon="1.034218" lat="45.579809"><ele>464.25</ele></trkpt>
<trkpt lon="1.034208" lat="45.579772"><ele>464.5</ele></trkpt>
<trkpt lon="1.034025" lat="45.579493"><ele>466.0</ele></trkpt>
<trkpt lon="1.033617" lat="45.578870"><ele>469.75</ele></trkpt>
<trkpt lon="1.033147" lat="45.578342"><ele>472.25</ele></trkpt>
<trkpt lon="1.032276" lat="45.577113"><ele>473.25</ele></trkpt>
<trkpt lon="1.031707" lat="45.575964"><ele>461.25</ele></trkpt>
<trkpt lon="1.031117" lat="45.574514"><ele>454.0</ele></trkpt>
<trkpt lon="1.031053" lat="45.574131"><ele>453.75</ele></trkpt>
<trkpt lon="1.031042" lat="45.573816"><ele>453.5</ele></trkpt>
<trkpt lon="1.031257" lat="45.573395"><ele>454.0</ele></trkpt>
<trkpt lon="1.031922" lat="45.572990"><ele>455.25</ele></trkpt>
<trkpt lon="1.032093" lat="45.572742"><ele>456.5</ele></trkpt>
<trkpt lon="1.032115" lat="45.572607"><ele>456.75</ele></trkpt>
<trkpt lon="1.031911" lat="45.572013"><ele>455.0</ele></trkpt>
<trkpt lon="1.031739" lat="45.571270"><ele>454.0</ele></trkpt>
<trkpt lon="1.031621" lat="45.570511"><ele>445.75</ele></trkpt>
<trkpt lon="1.031299" lat="45.570061"><ele>441.25</ele></trkpt>
<trkpt lon="1.030827" lat="45.569550"><ele>434.75</ele></trkpt>
<trkpt lon="1.030613" lat="45.568964"><ele>429.25</ele></trkpt>
<trkpt lon="1.030194" lat="45.568513"><ele>424.5</ele></trkpt>
<trkpt lon="1.029969" lat="45.568191"><ele>423.0</ele></trkpt>
<trkpt lon="1.029926" lat="45.567770"><ele>421.0</ele></trkpt>
<trkpt lon="1.029755" lat="45.567379"><ele>418.5</ele></trkpt>
<trkpt lon="1.029540" lat="45.566981"><ele>414.5</ele></trkpt>
<trkpt lon="1.029360" lat="45.566467"><ele>412.0</ele></trkpt>
<trkpt lon="1.028569" lat="45.565448"><ele>408.25</ele></trkpt>
<trkpt lon="1.027889" lat="45.564347"><ele>407.0</ele></trkpt>
<trkpt lon="1.027472" lat="45.563732"><ele>405.25</ele></trkpt>
<trkpt lon="1.026959" lat="45.564003"><ele>406.0</ele></trkpt>
<trkpt lon="1.026957" lat="45.563620"><ele>406.75</ele></trkpt>
<trkpt lon="1.026564" lat="45.562844"><ele>406.5</ele></trkpt>
<trkpt lon="1.025978" lat="45.561716"><ele>402.0</ele></trkpt>
<trkpt lon="1.025297" lat="45.560637"><ele>396.5</ele></trkpt>
<trkpt lon="1.025034" lat="45.560221"><ele>396.5</ele></trkpt>
<trkpt lon="1.024819" lat="45.559785"><ele>395.5</ele></trkpt>
<trkpt lon="1.024552" lat="45.559251"><ele>393.75</ele></trkpt>
<trkpt lon="1.024047" lat="45.558463"><ele>392.25</ele></trkpt>
<trkpt lon="1.023639" lat="45.558118"><ele>391.0</ele></trkpt>
<trkpt lon="1.023135" lat="45.557862"><ele>390.5</ele></trkpt>
<trkpt lon="1.022970" lat="45.557710"><ele>389.5</ele></trkpt>
<trkpt lon="1.022759" lat="45.557517"><ele>389.0</ele></trkpt>
<trkpt lon="1.022416" lat="45.557070"><ele>387.25</ele></trkpt>
<trkpt lon="1.021965" lat="45.556540"><ele>387.25</ele></trkpt>
<trkpt lon="1.021810" lat="45.556415"><ele>387.0</ele></trkpt>
<trkpt lon="1.021590" lat="45.556285"><ele>386.5</ele></trkpt>
<trkpt lon="1.020335" lat="45.555804"><ele>384.75</ele></trkpt>
<trkpt lon="1.019948" lat="45.555601"><ele>384.5</ele></trkpt>
<trkpt lon="1.019659" lat="45.555331"><ele>384.5</ele></trkpt>
<trkpt lon="1.019230" lat="45.554752"><ele>382.75</ele></trkpt>
<trkpt lon="1.018385" lat="45.553683"><ele>381.25</ele></trkpt>
<trkpt lon="1.017690" lat="45.552805"><ele>379.75</ele></trkpt>
<trkpt lon="1.017505" lat="45.552621"><ele>380.0</ele></trkpt>
<trkpt lon="1.017296" lat="45.552437"><ele>380.0</ele></trkpt>
<trkpt lon="1.015735" lat="45.551228"><ele>379.75</ele></trkpt>
<trkpt lon="1.015549" lat="45.551054"><ele>379.75</ele></trkpt>
<trkpt lon="1.015402" lat="45.550878"><ele>379.75</ele></trkpt>
<trkpt lon="1.015130" lat="45.550370"><ele>380.75</ele></trkpt>
<trkpt lon="1.014831" lat="45.549756"><ele>381.5</ele></trkpt>
<trkpt lon="1.014176" lat="45.548512"><ele>382.25</ele></trkpt>
<trkpt lon="1.013872" lat="45.547752"><ele>382.75</ele></trkpt>
<trkpt lon="1.013802" lat="45.547643"><ele>382.25</ele></trkpt>
<trkpt lon="1.013463" lat="45.547258"><ele>381.5</ele></trkpt>
<trkpt lon="1.013127" lat="45.546921"><ele>381.5</ele></trkpt>
<trkpt lon="1.013007" lat="45.546766"><ele>381.25</ele></trkpt>
<trkpt lon="1.011748" lat="45.544622"><ele>381.75</ele></trkpt>
<trkpt lon="1.011666" lat="45.544436"><ele>381.0</ele></trkpt>
<trkpt lon="1.011506" lat="45.543920"><ele>380.25</ele></trkpt>
<trkpt lon="1.011407" lat="45.543620"><ele>380.0</ele></trkpt>
<trkpt lon="1.011376" lat="45.543474"><ele>379.75</ele></trkpt>
<trkpt lon="1.011407" lat="45.543370"><ele>380.0</ele></trkpt>
<trkpt lon="1.011540" lat="45.543103"><ele>379.75</ele></trkpt>
<trkpt lon="1.011326" lat="45.543045"><ele>378.5</ele></trkpt>
<trkpt lon="1.011083" lat="45.542703"><ele>377.5</ele></trkpt>
<trkpt lon="1.011001" lat="45.542735"><ele>377.5</ele></trkpt>
<trkpt lon="1.010732" lat="45.542846"><ele>377.0</ele></trkpt>
<trkpt lon="1.010400" lat="45.543031"><ele>376.75</ele></trkpt>
<trkpt lon="1.010340" lat="45.542994"><ele>376.5</ele></trkpt>
<trkpt lon="1.009977" lat="45.542690"><ele>376.0</ele></trkpt>
<trkpt lon="1.009513" lat="45.542478"><ele>375.25</ele></trkpt>
<trkpt lon="1.008822" lat="45.542292"><ele>373.5</ele></trkpt>
<trkpt lon="1.008484" lat="45.542243"><ele>372.75</ele></trkpt>
<trkpt lon="1.008004" lat="45.542228"><ele>371.75</ele></trkpt>
<trkpt lon="1.007459" lat="45.542228"><ele>370.75</ele></trkpt>
<trkpt lon="1.006998" lat="45.542179"><ele>370.0</ele></trkpt>
<trkpt lon="1.006655" lat="45.542104"><ele>369.5</ele></trkpt>
<trkpt lon="1.006065" lat="45.541933"><ele>368.0</ele></trkpt>
<trkpt lon="1.002948" lat="45.541026"><ele>362.5</ele></trkpt>
<trkpt lon="1.002529" lat="45.540872"><ele>362.0</ele></trkpt>
<trkpt lon="1.001086" lat="45.540196"><ele>363.75</ele></trkpt>
<trkpt lon="1.000824" lat="45.540034"><ele>364.0</ele></trkpt>
<trkpt lon="1.000588" lat="45.539914"><ele>364.5</ele></trkpt>
<trkpt lon="1.000212" lat="45.539824"><ele>364.25</ele></trkpt>
<trkpt lon="0.999020" lat="45.539682"><ele>364.25</ele></trkpt>
<trkpt lon="0.998708" lat="45.539599"><ele>364.0</ele></trkpt>
<trkpt lon="0.998572" lat="45.539541"><ele>363.75</ele></trkpt>
<trkpt lon="0.998491" lat="45.539497"><ele>364.0</ele></trkpt>
<trkpt lon="0.998467" lat="45.539484"><ele>364.0</ele></trkpt>
<trkpt lon="0.998417" lat="45.539449"><ele>364.25</ele></trkpt>
<trkpt lon="0.998267" lat="45.539311"><ele>364.25</ele></trkpt>
<trkpt lon="0.998117" lat="45.539118"><ele>364.25</ele></trkpt>
<trkpt lon="0.997988" lat="45.538879"><ele>364.25</ele></trkpt>
<trkpt lon="0.997425" lat="45.537686"><ele>362.75</ele></trkpt>
<trkpt lon="0.997299" lat="45.537440"><ele>362.75</ele></trkpt>
<trkpt lon="0.997205" lat="45.537279"><ele>362.5</ele></trkpt>
<trkpt lon="0.997022" lat="45.537061"><ele>362.5</ele></trkpt>
<trkpt lon="0.996641" lat="45.536736"><ele>362.75</ele></trkpt>
<trkpt lon="0.996505" lat="45.536599"><ele>363.25</ele></trkpt>
<trkpt lon="0.996357" lat="45.536426"><ele>363.25</ele></trkpt>
<trkpt lon="0.996306" lat="45.536328"><ele>363.25</ele></trkpt>
<trkpt lon="0.996253" lat="45.536206"><ele>363.5</ele></trkpt>
<trkpt lon="0.996220" lat="45.536076"><ele>363.75</ele></trkpt>
<trkpt lon="0.996245" lat="45.535652"><ele>364.5</ele></trkpt>
<trkpt lon="0.996255" lat="45.535201"><ele>365.25</ele></trkpt>
<trkpt lon="0.996194" lat="45.534637"><ele>364.0</ele></trkpt>
<trkpt lon="0.996188" lat="45.534479"><ele>364.0</ele></trkpt>
<trkpt lon="0.996210" lat="45.534404"><ele>364.0</ele></trkpt>
<trkpt lon="0.996143" lat="45.534357"><ele>364.25</ele></trkpt>
<trkpt lon="0.996033" lat="45.534173"><ele>364.5</ele></trkpt>
<trkpt lon="0.996006" lat="45.533918"><ele>364.75</ele></trkpt>
<trkpt lon="0.995984" lat="45.533833"><ele>365.0</ele></trkpt>
<trkpt lon="0.995928" lat="45.533701"><ele>365.0</ele></trkpt>
<trkpt lon="0.995885" lat="45.533570"><ele>365.25</ele></trkpt>
<trkpt lon="0.995815" lat="45.533296"><ele>366.0</ele></trkpt>
<trkpt lon="0.995759" lat="45.533164"><ele>366.25</ele></trkpt>
<trkpt lon="0.995652" lat="45.532961"><ele>366.5</ele></trkpt>
<trkpt lon="0.995475" lat="45.532790"><ele>366.25</ele></trkpt>
<trkpt lon="0.995327" lat="45.532693"><ele>365.25</ele></trkpt>
<trkpt lon="0.995233" lat="45.532580"><ele>364.75</ele></trkpt>
<trkpt lon="0.994351" lat="45.531441"><ele>361.5</ele></trkpt>
<trkpt lon="0.993643" lat="45.530557"><ele>361.0</ele></trkpt>
<trkpt lon="0.993520" lat="45.530418"><ele>360.5</ele></trkpt>
<trkpt lon="0.993233" lat="45.530164"><ele>360.0</ele></trkpt>
<trkpt lon="0.993085" lat="45.529978"><ele>359.75</ele></trkpt>
<trkpt lon="0.992919" lat="45.529706"><ele>359.25</ele></trkpt>
<trkpt lon="0.992806" lat="45.529499"><ele>359.0</ele></trkpt>
<trkpt lon="0.992726" lat="45.529377"><ele>358.5</ele></trkpt>
<trkpt lon="0.992345" lat="45.529059"><ele>357.75</ele></trkpt>
<trkpt lon="0.992090" lat="45.528867"><ele>357.75</ele></trkpt>
<trkpt lon="0.991706" lat="45.528540"><ele>355.5</ele></trkpt>
<trkpt lon="0.991387" lat="45.528298"><ele>354.75</ele></trkpt>
<trkpt lon="0.990926" lat="45.527931"><ele>352.75</ele></trkpt>
<trkpt lon="0.990341" lat="45.527508"><ele>350.0</ele></trkpt>
<trkpt lon="0.990258" lat="45.527454"><ele>349.25</ele></trkpt>
<trkpt lon="0.990035" lat="45.527347"><ele>347.75</ele></trkpt>
<trkpt lon="0.989558" lat="45.527088"><ele>347.5</ele></trkpt>
<trkpt lon="0.989265" lat="45.526870"><ele>347.0</ele></trkpt>
<trkpt lon="0.989024" lat="45.526635"><ele>346.25</ele></trkpt>
<trkpt lon="0.988809" lat="45.526336"><ele>346.0</ele></trkpt>
<trkpt lon="0.988292" lat="45.525696"><ele>345.0</ele></trkpt>
<trkpt lon="0.988045" lat="45.525401"><ele>345.0</ele></trkpt>
<trkpt lon="0.987952" lat="45.525316"><ele>345.0</ele></trkpt>
<trkpt lon="0.987619" lat="45.524959"><ele>343.75</ele></trkpt>
<trkpt lon="0.987439" lat="45.524801"><ele>343.25</ele></trkpt>
<trkpt lon="0.987262" lat="45.524659"><ele>342.5</ele></trkpt>
<trkpt lon="0.987045" lat="45.524497"><ele>342.0</ele></trkpt>
<trkpt lon="0.986806" lat="45.524334"><ele>341.5</ele></trkpt>
<trkpt lon="0.986285" lat="45.523827"><ele>340.5</ele></trkpt>
<trkpt lon="0.986157" lat="45.523652"><ele>340.0</ele></trkpt>
<trkpt lon="0.985612" lat="45.523089"><ele>339.5</ele></trkpt>
<trkpt lon="0.985457" lat="45.522863"><ele>339.5</ele></trkpt>
<trkpt lon="0.985357" lat="45.522743"><ele>339.5</ele></trkpt>
<trkpt lon="0.985188" lat="45.522480"><ele>338.75</ele></trkpt>
<trkpt lon="0.985073" lat="45.522329"><ele>338.0</ele></trkpt>
<trkpt lon="0.985043" lat="45.522301"><ele>338.0</ele></trkpt>
<trkpt lon="0.984716" lat="45.521860"><ele>338.5</ele></trkpt>
<trkpt lon="0.984486" lat="45.521598"><ele>338.5</ele></trkpt>
<trkpt lon="0.984341" lat="45.521463"><ele>338.5</ele></trkpt>
<trkpt lon="0.984215" lat="45.521251"><ele>338.25</ele></trkpt>
<trkpt lon="0.984078" lat="45.521087"><ele>338.0</ele></trkpt>
<trkpt lon="0.983652" lat="45.520637"><ele>338.25</ele></trkpt>
<trkpt lon="0.983453" lat="45.520445"><ele>338.0</ele></trkpt>
<trkpt lon="0.982592" lat="45.519459"><ele>336.25</ele></trkpt>
<trkpt lon="0.982547" lat="45.519354"><ele>336.0</ele></trkpt>
<trkpt lon="0.982488" lat="45.519136"><ele>335.75</ele></trkpt>
<trkpt lon="0.982383" lat="45.518944"><ele>334.5</ele></trkpt>
<trkpt lon="0.982303" lat="45.518833"><ele>334.25</ele></trkpt>
<trkpt lon="0.981868" lat="45.518320"><ele>332.25</ele></trkpt>
<trkpt lon="0.981670" lat="45.518139"><ele>332.5</ele></trkpt>
<trkpt lon="0.981359" lat="45.517752"><ele>332.0</ele></trkpt>
<trkpt lon="0.981136" lat="45.517376"><ele>331.25</ele></trkpt>
<trkpt lon="0.980926" lat="45.517052"><ele>331.0</ele></trkpt>
<trkpt lon="0.980833" lat="45.516765"><ele>330.25</ele></trkpt>
<trkpt lon="0.980658" lat="45.516473"><ele>330.0</ele></trkpt>
<trkpt lon="0.980503" lat="45.516261"><ele>329.5</ele></trkpt>
<trkpt lon="0.980390" lat="45.516056"><ele>329.0</ele></trkpt>
<trkpt lon="0.980264" lat="45.515912"><ele>328.5</ele></trkpt>
<trkpt lon="0.980063" lat="45.515853"><ele>328.75</ele></trkpt>
<trkpt lon="0.979886" lat="45.515791"><ele>328.25</ele></trkpt>
<trkpt lon="0.979799" lat="45.515751"><ele>327.75</ele></trkpt>
<trkpt lon="0.979986" lat="45.515642"><ele>328.25</ele></trkpt>
<trkpt lon="0.980089" lat="45.515514"><ele>327.5</ele></trkpt>
<trkpt lon="0.980114" lat="45.515410"><ele>327.75</ele></trkpt>
<trkpt lon="0.980120" lat="45.515247"><ele>328.0</ele></trkpt>
<trkpt lon="0.980151" lat="45.514631"><ele>327.5</ele></trkpt>
<trkpt lon="0.980126" lat="45.514293"><ele>327.75</ele></trkpt>
<trkpt lon="0.980016" lat="45.514111"><ele>328.0</ele></trkpt>
<trkpt lon="0.979700" lat="45.513813"><ele>327.75</ele></trkpt>
<trkpt lon="0.979522" lat="45.513580"><ele>328.0</ele></trkpt>
<trkpt lon="0.979484" lat="45.513437"><ele>328.0</ele></trkpt>
<trkpt lon="0.979473" lat="45.513242"><ele>327.75</ele></trkpt>
<trkpt lon="0.979490" lat="45.513016"><ele>328.0</ele></trkpt>
<trkpt lon="0.979580" lat="45.512791"><ele>328.0</ele></trkpt>
<trkpt lon="0.979698" lat="45.512550"><ele>328.0</ele></trkpt>
<trkpt lon="0.979809" lat="45.512389"><ele>327.5</ele></trkpt>
<trkpt lon="0.979721" lat="45.512325"><ele>328.0</ele></trkpt>
<trkpt lon="0.979704" lat="45.512217"><ele>327.75</ele></trkpt>
<trkpt lon="0.979645" lat="45.512010"><ele>327.0</ele></trkpt>
<trkpt lon="0.979609" lat="45.511784"><ele>327.0</ele></trkpt>
<trkpt lon="0.979471" lat="45.511182"><ele>326.25</ele></trkpt>
<trkpt lon="0.979294" lat="45.510284"><ele>325.0</ele></trkpt>
<trkpt lon="0.979136" lat="45.509340"><ele>324.75</ele></trkpt>
<trkpt lon="0.978908" lat="45.508315"><ele>321.75</ele></trkpt>
<trkpt lon="0.978663" lat="45.507412"><ele>316.25</ele></trkpt>
<trkpt lon="0.978588" lat="45.507172"><ele>314.75</ele></trkpt>
<trkpt lon="0.978478" lat="45.506608"><ele>314.25</ele></trkpt>
<trkpt lon="0.978475" lat="45.506425"><ele>314.0</ele></trkpt>
<trkpt lon="0.978403" lat="45.506382"><ele>314.0</ele></trkpt>
<trkpt lon="0.978425" lat="45.506182"><ele>314.25</ele></trkpt>
<trkpt lon="0.978396" lat="45.505484"><ele>313.75</ele></trkpt>
<trkpt lon="0.978407" lat="45.504992"><ele>313.5</ele></trkpt>
<trkpt lon="0.978246" lat="45.504648"><ele>313.0</ele></trkpt>
<trkpt lon="0.978084" lat="45.504253"><ele>312.75</ele></trkpt>
<trkpt lon="0.978028" lat="45.503750"><ele>313.0</ele></trkpt>
<trkpt lon="0.977978" lat="45.503156"><ele>313.0</ele></trkpt>
<trkpt lon="0.977950" lat="45.502570"><ele>312.5</ele></trkpt>
<trkpt lon="0.977722" lat="45.501863"><ele>312.75</ele></trkpt>
<trkpt lon="0.977447" lat="45.500658"><ele>313.5</ele></trkpt>
<trkpt lon="0.977439" lat="45.500509"><ele>313.5</ele></trkpt>
<trkpt lon="0.977383" lat="45.499908"><ele>311.75</ele></trkpt>
<trkpt lon="0.977327" lat="45.499742"><ele>311.25</ele></trkpt>
<trkpt lon="0.977054" lat="45.498715"><ele>310.75</ele></trkpt>
<trkpt lon="0.976803" lat="45.498320"><ele>310.25</ele></trkpt>
<trkpt lon="0.976327" lat="45.497498"><ele>309.0</ele></trkpt>
<trkpt lon="0.975845" lat="45.496783"><ele>306.75</ele></trkpt>
<trkpt lon="0.975641" lat="45.496463"><ele>305.75</ele></trkpt>
<trkpt lon="0.975477" lat="45.496189"><ele>306.0</ele></trkpt>
<trkpt lon="0.975260" lat="45.495767"><ele>305.75</ele></trkpt>
<trkpt lon="0.975118" lat="45.495369"><ele>304.5</ele></trkpt>
<trkpt lon="0.974797" lat="45.494552"><ele>302.25</ele></trkpt>
<trkpt lon="0.974675" lat="45.494330"><ele>301.5</ele></trkpt>
<trkpt lon="0.974323" lat="45.493828"><ele>301.0</ele></trkpt>
<trkpt lon="0.974296" lat="45.493747"><ele>301.0</ele></trkpt>
<trkpt lon="0.974234" lat="45.493709"><ele>301.0</ele></trkpt>
<trkpt lon="0.973443" lat="45.492287"><ele>301.25</ele></trkpt>
<trkpt lon="0.973384" lat="45.492133"><ele>301.25</ele></trkpt>
<trkpt lon="0.973277" lat="45.491945"><ele>301.75</ele></trkpt>
<trkpt lon="0.973076" lat="45.491539"><ele>302.25</ele></trkpt>
<trkpt lon="0.972920" lat="45.491163"><ele>302.75</ele></trkpt>
<trkpt lon="0.972650" lat="45.490399"><ele>300.5</ele></trkpt>
<trkpt lon="0.972556" lat="45.490051"><ele>300.0</ele></trkpt>
<trkpt lon="0.972513" lat="45.489891"><ele>299.5</ele></trkpt>
<trkpt lon="0.972445" lat="45.489484"><ele>298.0</ele></trkpt>
<trkpt lon="0.972308" lat="45.489350"><ele>297.5</ele></trkpt>
<trkpt lon="0.972244" lat="45.489277"><ele>297.25</ele></trkpt>
<trkpt lon="0.972040" lat="45.489123"><ele>296.75</ele></trkpt>
<trkpt lon="0.971847" lat="45.488954"><ele>295.75</ele></trkpt>
<trkpt lon="0.971512" lat="45.488682"><ele>293.75</ele></trkpt>
<trkpt lon="0.971397" lat="45.488575"><ele>292.75</ele></trkpt>
<trkpt lon="0.971338" lat="45.488479"><ele>292.5</ele></trkpt>
<trkpt lon="0.971314" lat="45.488424"><ele>292.25</ele></trkpt>
<trkpt lon="0.971319" lat="45.488124"><ele>291.0</ele></trkpt>
<trkpt lon="0.971303" lat="45.488012"><ele>290.75</ele></trkpt>
<trkpt lon="0.971257" lat="45.487918"><ele>290.25</ele></trkpt>
<trkpt lon="0.971201" lat="45.487842"><ele>289.5</ele></trkpt>
<trkpt lon="0.971058" lat="45.487721"><ele>288.75</ele></trkpt>
<trkpt lon="0.970761" lat="45.487370"><ele>287.0</ele></trkpt>
<trkpt lon="0.970685" lat="45.487247"><ele>286.5</ele></trkpt>
<trkpt lon="0.970574" lat="45.486612"><ele>282.25</ele></trkpt>
<trkpt lon="0.970493" lat="45.486367"><ele>281.0</ele></trkpt>
<trkpt lon="0.970394" lat="45.486168"><ele>279.5</ele></trkpt>
<trkpt lon="0.970332" lat="45.486078"><ele>279.25</ele></trkpt>
<trkpt lon="0.970201" lat="45.485957"><ele>278.25</ele></trkpt>
<trkpt lon="0.969868" lat="45.485763"><ele>277.0</ele></trkpt>
<trkpt lon="0.969657" lat="45.485649"><ele>276.0</ele></trkpt>
<trkpt lon="0.969573" lat="45.485589"><ele>275.75</ele></trkpt>
<trkpt lon="0.967945" lat="45.484193"><ele>265.5</ele></trkpt>
<trkpt lon="0.967647" lat="45.483947"><ele>263.75</ele></trkpt>
<trkpt lon="0.967553" lat="45.483817"><ele>262.75</ele></trkpt>
<trkpt lon="0.967465" lat="45.483661"><ele>262.0</ele></trkpt>
<trkpt lon="0.966995" lat="45.482584"><ele>253.25</ele></trkpt>
<trkpt lon="0.966928" lat="45.482490"><ele>252.75</ele></trkpt>
<trkpt lon="0.966849" lat="45.482461"><ele>252.5</ele></trkpt>
<trkpt lon="0.966789" lat="45.482439"><ele>252.25</ele></trkpt>
<trkpt lon="0.966668" lat="45.482411"><ele>252.0</ele></trkpt>
<trkpt lon="0.966515" lat="45.482399"><ele>251.5</ele></trkpt>
<trkpt lon="0.966218" lat="45.482431"><ele>249.75</ele></trkpt>
<trkpt lon="0.965716" lat="45.482463"><ele>246.5</ele></trkpt>
<trkpt lon="0.965512" lat="45.482450"><ele>245.5</ele></trkpt>
<trkpt lon="0.965303" lat="45.482416"><ele>244.0</ele></trkpt>
<trkpt lon="0.965067" lat="45.482350"><ele>243.0</ele></trkpt>
<trkpt lon="0.964791" lat="45.482249"><ele>240.5</ele></trkpt>
<trkpt lon="0.964579" lat="45.482147"><ele>238.5</ele></trkpt>
<trkpt lon="0.964380" lat="45.482038"><ele>237.0</ele></trkpt>
<trkpt lon="0.964203" lat="45.481897"><ele>236.25</ele></trkpt>
<trkpt lon="0.964050" lat="45.481664"><ele>234.5</ele></trkpt>
<trkpt lon="0.963978" lat="45.481297"><ele>231.0</ele></trkpt>
<trkpt lon="0.963997" lat="45.481201"><ele>230.25</ele></trkpt>
<trkpt lon="0.964056" lat="45.481098"><ele>229.5</ele></trkpt>
<trkpt lon="0.964109" lat="45.480981"><ele>228.25</ele></trkpt>
<trkpt lon="0.964445" lat="45.480613"><ele>226.75</ele></trkpt>
<trkpt lon="0.964522" lat="45.480498"><ele>225.75</ele></trkpt>
<trkpt lon="0.964563" lat="45.480398"><ele>224.25</ele></trkpt>
<trkpt lon="0.964547" lat="45.480334"><ele>222.5</ele></trkpt>
<trkpt lon="0.964504" lat="45.480237"><ele>221.0</ele></trkpt>
<trkpt lon="0.964455" lat="45.480159"><ele>220.75</ele></trkpt>
<trkpt lon="0.964412" lat="45.480070"><ele>221.0</ele></trkpt>
<trkpt lon="0.964361" lat="45.479961"><ele>221.75</ele></trkpt>
<trkpt lon="0.964316" lat="45.479794"><ele>223.75</ele></trkpt>
<trkpt lon="0.964313" lat="45.479735"><ele>224.25</ele></trkpt>
<trkpt lon="0.964388" lat="45.479614"><ele>224.5</ele></trkpt>
<trkpt lon="0.965357" lat="45.478879"><ele>231.75</ele></trkpt>
<trkpt lon="0.965410" lat="45.478815"><ele>232.25</ele></trkpt>
<trkpt lon="0.965459" lat="45.478724"><ele>233.0</ele></trkpt>
<trkpt lon="0.965456" lat="45.478644"><ele>234.0</ele></trkpt>
<trkpt lon="0.965445" lat="45.478604"><ele>234.25</ele></trkpt>
<trkpt lon="0.965394" lat="45.478495"><ele>235.0</ele></trkpt>
<trkpt lon="0.965332" lat="45.478405"><ele>236.0</ele></trkpt>
<trkpt lon="0.964273" lat="45.477666"><ele>244.5</ele></trkpt>
<trkpt lon="0.964007" lat="45.477303"><ele>247.5</ele></trkpt>
<trkpt lon="0.963876" lat="45.477163"><ele>248.75</ele></trkpt>
<trkpt lon="0.963761" lat="45.477081"><ele>249.75</ele></trkpt>
<trkpt lon="0.963667" lat="45.477032"><ele>250.75</ele></trkpt>
<trkpt lon="0.963533" lat="45.476943"><ele>251.75</ele></trkpt>
<trkpt lon="0.963447" lat="45.476859"><ele>252.5</ele></trkpt>
<trkpt lon="0.963388" lat="45.476765"><ele>253.25</ele></trkpt>
<trkpt lon="0.963366" lat="45.476688"><ele>253.5</ele></trkpt>
<trkpt lon="0.963364" lat="45.476648"><ele>253.5</ele></trkpt>
<trkpt lon="0.963356" lat="45.476522"><ele>254.0</ele></trkpt>
<trkpt lon="0.963329" lat="45.476375"><ele>255.0</ele></trkpt>
<trkpt lon="0.963291" lat="45.476257"><ele>255.5</ele></trkpt>
<trkpt lon="0.963256" lat="45.476067"><ele>256.25</ele></trkpt>
<trkpt lon="0.963259" lat="45.475811"><ele>257.75</ele></trkpt>
<trkpt lon="0.963307" lat="45.475570"><ele>259.0</ele></trkpt>
<trkpt lon="0.963385" lat="45.475002"><ele>261.5</ele></trkpt>
<trkpt lon="0.963425" lat="45.474811"><ele>262.0</ele></trkpt>
<trkpt lon="0.963450" lat="45.474532"><ele>263.5</ele></trkpt>
<trkpt lon="0.963412" lat="45.474322"><ele>264.75</ele></trkpt>
<trkpt lon="0.963348" lat="45.474167"><ele>265.75</ele></trkpt>
<trkpt lon="0.963278" lat="45.474030"><ele>266.25</ele></trkpt>
<trkpt lon="0.963128" lat="45.473857"><ele>266.5</ele></trkpt>
<trkpt lon="0.962419" lat="45.473393"><ele>270.75</ele></trkpt>
<trkpt lon="0.961502" lat="45.472811"><ele>274.75</ele></trkpt>
<trkpt lon="0.959032" lat="45.471278"><ele>280.25</ele></trkpt>
<trkpt lon="0.958189" lat="45.470779"><ele>284.5</ele></trkpt>
<trkpt lon="0.957340" lat="45.470248"><ele>285.75</ele></trkpt>
<trkpt lon="0.956399" lat="45.469685"><ele>284.75</ele></trkpt>
<trkpt lon="0.956156" lat="45.469523"><ele>285.0</ele></trkpt>
<trkpt lon="0.955827" lat="45.469283"><ele>285.25</ele></trkpt>
<trkpt lon="0.955717" lat="45.469185"><ele>285.0</ele></trkpt>
<trkpt lon="0.955534" lat="45.468981"><ele>285.0</ele></trkpt>
<trkpt lon="0.955330" lat="45.468663"><ele>284.75</ele></trkpt>
<trkpt lon="0.955142" lat="45.468281"><ele>285.25</ele></trkpt>
<trkpt lon="0.955059" lat="45.468170"><ele>285.0</ele></trkpt>
<trkpt lon="0.954966" lat="45.468022"><ele>285.0</ele></trkpt>
<trkpt lon="0.954877" lat="45.467926"><ele>284.75</ele></trkpt>
<trkpt lon="0.954791" lat="45.467844"><ele>284.75</ele></trkpt>
<trkpt lon="0.954673" lat="45.467748"><ele>284.75</ele></trkpt>
<trkpt lon="0.954458" lat="45.467602"><ele>284.75</ele></trkpt>
<trkpt lon="0.954177" lat="45.467429"><ele>284.75</ele></trkpt>
<trkpt lon="0.953972" lat="45.467292"><ele>285.0</ele></trkpt>
<trkpt lon="0.953874" lat="45.467181"><ele>284.75</ele></trkpt>
<trkpt lon="0.953849" lat="45.467160"><ele>284.75</ele></trkpt>
<trkpt lon="0.953729" lat="45.467064"><ele>284.5</ele></trkpt>
<trkpt lon="0.953571" lat="45.466831"><ele>284.0</ele></trkpt>
<trkpt lon="0.953493" lat="45.466678"><ele>284.0</ele></trkpt>
<trkpt lon="0.952938" lat="45.465292"><ele>281.25</ele></trkpt>
<trkpt lon="0.952243" lat="45.463367"><ele>279.0</ele></trkpt>
<trkpt lon="0.952184" lat="45.463224"><ele>278.75</ele></trkpt>
<trkpt lon="0.952066" lat="45.462977"><ele>278.25</ele></trkpt>
<trkpt lon="0.951978" lat="45.462860"><ele>278.0</ele></trkpt>
<trkpt lon="0.951841" lat="45.462734"><ele>278.0</ele></trkpt>
<trkpt lon="0.951358" lat="45.462290"><ele>277.75</ele></trkpt>
<trkpt lon="0.950815" lat="45.461789"><ele>277.0</ele></trkpt>
<trkpt lon="0.950422" lat="45.461401"><ele>277.0</ele></trkpt>
<trkpt lon="0.949942" lat="45.461023"><ele>276.25</ele></trkpt>
<trkpt lon="0.949518" lat="45.460714"><ele>276.0</ele></trkpt>
<trkpt lon="0.948992" lat="45.460418"><ele>276.25</ele></trkpt>
<trkpt lon="0.948532" lat="45.460219"><ele>276.0</ele></trkpt>
<trkpt lon="0.948261" lat="45.460111"><ele>275.75</ele></trkpt>
<trkpt lon="0.948136" lat="45.460068"><ele>275.75</ele></trkpt>
<trkpt lon="0.948504" lat="45.458840"><ele>277.0</ele></trkpt>
<trkpt lon="0.948531" lat="45.458679"><ele>277.5</ele></trkpt>
<trkpt lon="0.948537" lat="45.458395"><ele>277.75</ele></trkpt>
<trkpt lon="0.948516" lat="45.458121"><ele>278.75</ele></trkpt>
<trkpt lon="0.948478" lat="45.457819"><ele>279.75</ele></trkpt>
<trkpt lon="0.948440" lat="45.457274"><ele>279.5</ele></trkpt>
<trkpt lon="0.948443" lat="45.456839"><ele>279.0</ele></trkpt>
<trkpt lon="0.948487" lat="45.456382"><ele>279.25</ele></trkpt>
<trkpt lon="0.948562" lat="45.455856"><ele>280.75</ele></trkpt>
<trkpt lon="0.948785" lat="45.454842"><ele>283.0</ele></trkpt>
<trkpt lon="0.948864" lat="45.454424"><ele>283.75</ele></trkpt>
<trkpt lon="0.948955" lat="45.454088"><ele>284.0</ele></trkpt>
<trkpt lon="0.949068" lat="45.453847"><ele>284.0</ele></trkpt>
<trkpt lon="0.949285" lat="45.453514"><ele>284.5</ele></trkpt>
<trkpt lon="0.949355" lat="45.453375"><ele>284.75</ele></trkpt>
<trkpt lon="0.949556" lat="45.452912"><ele>286.25</ele></trkpt>
<trkpt lon="0.949684" lat="45.452670"><ele>286.25</ele></trkpt>
<trkpt lon="0.949799" lat="45.452503"><ele>286.5</ele></trkpt>
<trkpt lon="0.950014" lat="45.452271"><ele>286.75</ele></trkpt>
<trkpt lon="0.950373" lat="45.451947"><ele>286.75</ele></trkpt>
<trkpt lon="0.950585" lat="45.451744"><ele>287.5</ele></trkpt>
<trkpt lon="0.950688" lat="45.451613"><ele>287.5</ele></trkpt>
<trkpt lon="0.950768" lat="45.451457"><ele>287.75</ele></trkpt>
<trkpt lon="0.950865" lat="45.451156"><ele>288.75</ele></trkpt>
<trkpt lon="0.950983" lat="45.450659"><ele>287.75</ele></trkpt>
<trkpt lon="0.950999" lat="45.450639"><ele>287.5</ele></trkpt>
<trkpt lon="0.951066" lat="45.450590"><ele>287.25</ele></trkpt>
<trkpt lon="0.951119" lat="45.450563"><ele>287.0</ele></trkpt>
<trkpt lon="0.950977" lat="45.450454"><ele>287.0</ele></trkpt>
<trkpt lon="0.950846" lat="45.450302"><ele>287.0</ele></trkpt>
<trkpt lon="0.950752" lat="45.450082"><ele>287.0</ele></trkpt>
<trkpt lon="0.950740" lat="45.449941"><ele>287.0</ele></trkpt>
<trkpt lon="0.950855" lat="45.450031"><ele>286.75</ele></trkpt>
<trkpt lon="0.950895" lat="45.450055"><ele>286.75</ele></trkpt>
<trkpt lon="0.951023" lat="45.449872"><ele>286.0</ele></trkpt>
<trkpt lon="0.951101" lat="45.449623"><ele>285.5</ele></trkpt>
<trkpt lon="0.951212" lat="45.449394"><ele>284.5</ele></trkpt>
<trkpt lon="0.951276" lat="45.449298"><ele>284.5</ele></trkpt>
<trkpt lon="0.951409" lat="45.449176"><ele>284.75</ele></trkpt>
<trkpt lon="0.951502" lat="45.449074"><ele>285.0</ele></trkpt>
<trkpt lon="0.951560" lat="45.448959"><ele>285.5</ele></trkpt>
<trkpt lon="0.951620" lat="45.448795"><ele>286.5</ele></trkpt>
<trkpt lon="0.951755" lat="45.448362"><ele>288.5</ele></trkpt>
<trkpt lon="0.951988" lat="45.447799"><ele>288.75</ele></trkpt>
<trkpt lon="0.952128" lat="45.447517"><ele>289.25</ele></trkpt>
<trkpt lon="0.952206" lat="45.447340"><ele>289.5</ele></trkpt>
<trkpt lon="0.952257" lat="45.447159"><ele>289.5</ele></trkpt>
<trkpt lon="0.952324" lat="45.446627"><ele>286.75</ele></trkpt>
<trkpt lon="0.952428" lat="45.446256"><ele>284.75</ele></trkpt>
<trkpt lon="0.952423" lat="45.446207"><ele>284.5</ele></trkpt>
<trkpt lon="0.952385" lat="45.446175"><ele>284.0</ele></trkpt>
<trkpt lon="0.952326" lat="45.446149"><ele>283.5</ele></trkpt>
<trkpt lon="0.952098" lat="45.446081"><ele>282.75</ele></trkpt>
<trkpt lon="0.951538" lat="45.445835"><ele>283.75</ele></trkpt>
<trkpt lon="0.951487" lat="45.445791"><ele>284.0</ele></trkpt>
<trkpt lon="0.951361" lat="45.445628"><ele>284.75</ele></trkpt>
<trkpt lon="0.951299" lat="45.445530"><ele>285.25</ele></trkpt>
<trkpt lon="0.951270" lat="45.445426"><ele>285.75</ele></trkpt>
<trkpt lon="0.951270" lat="45.445270"><ele>286.25</ele></trkpt>
<trkpt lon="0.951294" lat="45.445219"><ele>286.25</ele></trkpt>
<trkpt lon="0.951457" lat="45.445044"><ele>286.75</ele></trkpt>
<trkpt lon="0.951562" lat="45.444958"><ele>287.25</ele></trkpt>
<trkpt lon="0.951632" lat="45.444867"><ele>288.0</ele></trkpt>
<trkpt lon="0.951632" lat="45.444783"><ele>288.5</ele></trkpt>
<trkpt lon="0.951554" lat="45.444382"><ele>290.75</ele></trkpt>
<trkpt lon="0.951557" lat="45.444305"><ele>291.25</ele></trkpt>
<trkpt lon="0.951621" lat="45.444190"><ele>291.75</ele></trkpt>
<trkpt lon="0.951844" lat="45.443866"><ele>293.75</ele></trkpt>
<trkpt lon="0.951849" lat="45.443825"><ele>293.75</ele></trkpt>
<trkpt lon="0.951790" lat="45.443771"><ele>294.5</ele></trkpt>
<trkpt lon="0.951749" lat="45.443749"><ele>294.75</ele></trkpt>
<trkpt lon="0.951564" lat="45.443670"><ele>296.25</ele></trkpt>
<trkpt lon="0.951293" lat="45.443572"><ele>298.75</ele></trkpt>
<trkpt lon="0.951159" lat="45.443500"><ele>299.5</ele></trkpt>
<trkpt lon="0.951055" lat="45.443401"><ele>300.0</ele></trkpt>
<trkpt lon="0.950990" lat="45.443246"><ele>300.75</ele></trkpt>
<trkpt lon="0.950229" lat="45.442366"><ele>306.5</ele></trkpt>
<trkpt lon="0.949948" lat="45.442456"><ele>307.5</ele></trkpt>
<trkpt lon="0.949342" lat="45.442623"><ele>308.75</ele></trkpt>
<trkpt lon="0.948866" lat="45.442721"><ele>309.75</ele></trkpt>
<trkpt lon="0.948380" lat="45.442776"><ele>310.75</ele></trkpt>
<trkpt lon="0.946386" lat="45.442876"><ele>313.5</ele></trkpt>
<trkpt lon="0.946098" lat="45.442853"><ele>313.0</ele></trkpt>
<trkpt lon="0.945589" lat="45.442782"><ele>312.0</ele></trkpt>
<trkpt lon="0.945517" lat="45.442751"><ele>312.0</ele></trkpt>
<trkpt lon="0.945446" lat="45.442610"><ele>311.75</ele></trkpt>
<trkpt lon="0.945398" lat="45.442540"><ele>311.5</ele></trkpt>
<trkpt lon="0.945338" lat="45.442453"><ele>310.5</ele></trkpt>
<trkpt lon="0.945062" lat="45.442168"><ele>307.5</ele></trkpt>
<trkpt lon="0.942772" lat="45.439806"><ele>289.75</ele></trkpt>
<trkpt lon="0.942285" lat="45.439322"><ele>285.75</ele></trkpt>
<trkpt lon="0.941625" lat="45.438656"><ele>280.25</ele></trkpt>
<trkpt lon="0.940925" lat="45.437945"><ele>274.75</ele></trkpt>
<trkpt lon="0.939931" lat="45.436943"><ele>267.5</ele></trkpt>
<trkpt lon="0.938232" lat="45.435201"><ele>260.75</ele></trkpt>
<trkpt lon="0.937776" lat="45.434752"><ele>263.75</ele></trkpt>
<trkpt lon="0.936484" lat="45.433444"><ele>267.5</ele></trkpt>
<trkpt lon="0.936451" lat="45.433386"><ele>267.75</ele></trkpt>
<trkpt lon="0.935653" lat="45.432611"><ele>269.75</ele></trkpt>
<trkpt lon="0.935254" lat="45.432201"><ele>271.0</ele></trkpt>
<trkpt lon="0.934584" lat="45.431511"><ele>269.5</ele></trkpt>
<trkpt lon="0.934437" lat="45.431360"><ele>268.75</ele></trkpt>
<trkpt lon="0.934739" lat="45.431136"><ele>269.0</ele></trkpt>
<trkpt lon="0.935648" lat="45.430381"><ele>272.5</ele></trkpt>
<trkpt lon="0.936254" lat="45.429889"><ele>274.25</ele></trkpt>
<trkpt lon="0.936346" lat="45.429771"><ele>274.75</ele></trkpt>
<trkpt lon="0.936622" lat="45.429265"><ele>276.5</ele></trkpt>
<trkpt lon="0.936756" lat="45.428994"><ele>277.25</ele></trkpt>
<trkpt lon="0.936842" lat="45.428747"><ele>277.0</ele></trkpt>
<trkpt lon="0.936893" lat="45.428540"><ele>277.0</ele></trkpt>
<trkpt lon="0.936952" lat="45.427960"><ele>275.75</ele></trkpt>
<trkpt lon="0.936955" lat="45.427755"><ele>275.75</ele></trkpt>
<trkpt lon="0.936914" lat="45.427441"><ele>275.0</ele></trkpt>
<trkpt lon="0.936853" lat="45.427068"><ele>276.5</ele></trkpt>
<trkpt lon="0.936764" lat="45.426709"><ele>278.25</ele></trkpt>
<trkpt lon="0.936633" lat="45.426355"><ele>278.75</ele></trkpt>
<trkpt lon="0.936536" lat="45.426140"><ele>278.5</ele></trkpt>
<trkpt lon="0.936335" lat="45.425807"><ele>278.0</ele></trkpt>
<trkpt lon="0.936030" lat="45.425364"><ele>277.0</ele></trkpt>
<trkpt lon="0.936275" lat="45.425107"><ele>275.75</ele></trkpt>
<trkpt lon="0.937150" lat="45.424268"><ele>271.75</ele></trkpt>
<trkpt lon="0.937230" lat="45.424191"><ele>271.75</ele></trkpt>
<trkpt lon="0.937308" lat="45.424068"><ele>271.75</ele></trkpt>
<trkpt lon="0.937570" lat="45.423476"><ele>273.0</ele></trkpt>
<trkpt lon="0.937583" lat="45.423446"><ele>273.0</ele></trkpt>
<trkpt lon="0.936670" lat="45.423290"><ele>271.5</ele></trkpt>
<trkpt lon="0.936413" lat="45.423200"><ele>271.5</ele></trkpt>
<trkpt lon="0.936173" lat="45.423095"><ele>270.75</ele></trkpt>
<trkpt lon="0.935969" lat="45.422984"><ele>270.5</ele></trkpt>
<trkpt lon="0.935720" lat="45.422821"><ele>270.0</ele></trkpt>
<trkpt lon="0.935450" lat="45.422596"><ele>268.75</ele></trkpt>
<trkpt lon="0.935039" lat="45.422254"><ele>267.0</ele></trkpt>
<trkpt lon="0.934804" lat="45.422083"><ele>265.75</ele></trkpt>
<trkpt lon="0.934481" lat="45.421897"><ele>264.75</ele></trkpt>
<trkpt lon="0.934363" lat="45.421852"><ele>264.5</ele></trkpt>
<trkpt lon="0.934043" lat="45.421728"><ele>264.5</ele></trkpt>
<trkpt lon="0.933817" lat="45.421667"><ele>264.75</ele></trkpt>
<trkpt lon="0.933596" lat="45.421607"><ele>264.75</ele></trkpt>
<trkpt lon="0.933382" lat="45.421539"><ele>264.25</ele></trkpt>
<trkpt lon="0.932251" lat="45.421183"><ele>264.75</ele></trkpt>
<trkpt lon="0.932138" lat="45.421142"><ele>264.75</ele></trkpt>
<trkpt lon="0.932165" lat="45.421109"><ele>265.0</ele></trkpt>
<trkpt lon="0.932323" lat="45.420934"><ele>265.0</ele></trkpt>
<trkpt lon="0.932532" lat="45.420797"><ele>264.75</ele></trkpt>
<trkpt lon="0.932821" lat="45.420627"><ele>265.0</ele></trkpt>
<trkpt lon="0.933079" lat="45.420461"><ele>264.5</ele></trkpt>
<trkpt lon="0.933289" lat="45.420292"><ele>264.0</ele></trkpt>
<trkpt lon="0.933168" lat="45.420258"><ele>264.0</ele></trkpt>
<trkpt lon="0.932739" lat="45.420010"><ele>261.75</ele></trkpt>
<trkpt lon="0.932476" lat="45.419801"><ele>259.0</ele></trkpt>
<trkpt lon="0.932411" lat="45.419696"><ele>258.5</ele></trkpt>
<trkpt lon="0.932382" lat="45.419365"><ele>257.25</ele></trkpt>
<trkpt lon="0.932341" lat="45.419286"><ele>257.0</ele></trkpt>
<trkpt lon="0.932057" lat="45.419154"><ele>255.5</ele></trkpt>
<trkpt lon="0.931822" lat="45.418935"><ele>254.0</ele></trkpt>
<trkpt lon="0.931585" lat="45.418800"><ele>252.5</ele></trkpt>
<trkpt lon="0.931212" lat="45.418638"><ele>250.25</ele></trkpt>
<trkpt lon="0.931122" lat="45.418647"><ele>250.0</ele></trkpt>
<trkpt lon="0.930933" lat="45.418783"><ele>248.0</ele></trkpt>
<trkpt lon="0.930764" lat="45.418887"><ele>246.75</ele></trkpt>
<trkpt lon="0.930691" lat="45.418902"><ele>246.5</ele></trkpt>
<trkpt lon="0.930466" lat="45.418904"><ele>246.75</ele></trkpt>
<trkpt lon="0.930407" lat="45.418889"><ele>247.0</ele></trkpt>
<trkpt lon="0.930281" lat="45.418790"><ele>246.5</ele></trkpt>
<trkpt lon="0.929801" lat="45.418552"><ele>247.75</ele></trkpt>
<trkpt lon="0.929483" lat="45.418510"><ele>250.0</ele></trkpt>
<trkpt lon="0.929220" lat="45.418529"><ele>252.25</ele></trkpt>
<trkpt lon="0.929017" lat="45.418508"><ele>253.5</ele></trkpt>
<trkpt lon="0.928047" lat="45.418198"><ele>254.0</ele></trkpt>
<trkpt lon="0.927836" lat="45.418137"><ele>252.25</ele></trkpt>
<trkpt lon="0.927408" lat="45.418081"><ele>250.5</ele></trkpt>
<trkpt lon="0.927111" lat="45.418076"><ele>248.0</ele></trkpt>
<trkpt lon="0.926936" lat="45.418099"><ele>246.75</ele></trkpt>
<trkpt lon="0.926682" lat="45.418122"><ele>246.25</ele></trkpt>
<trkpt lon="0.926268" lat="45.418047"><ele>244.75</ele></trkpt>
<trkpt lon="0.926147" lat="45.418101"><ele>245.5</ele></trkpt>
<trkpt lon="0.926108" lat="45.418067"><ele>245.0</ele></trkpt>
<trkpt lon="0.925848" lat="45.417839"><ele>240.0</ele></trkpt>
<trkpt lon="0.925751" lat="45.417827"><ele>239.5</ele></trkpt>
<trkpt lon="0.925578" lat="45.417862"><ele>239.5</ele></trkpt>
<trkpt lon="0.925482" lat="45.417892"><ele>239.5</ele></trkpt>
<trkpt lon="0.925403" lat="45.417940"><ele>239.75</ele></trkpt>
<trkpt lon="0.924595" lat="45.418646"><ele>243.5</ele></trkpt>
<trkpt lon="0.924480" lat="45.418729"><ele>244.0</ele></trkpt>
<trkpt lon="0.924390" lat="45.418774"><ele>244.0</ele></trkpt>
<trkpt lon="0.924235" lat="45.418821"><ele>244.25</ele></trkpt>
<trkpt lon="0.924168" lat="45.418833"><ele>244.0</ele></trkpt>
<trkpt lon="0.923988" lat="45.418838"><ele>244.25</ele></trkpt>
<trkpt lon="0.923810" lat="45.418825"><ele>244.5</ele></trkpt>
<trkpt lon="0.923011" lat="45.418756"><ele>245.75</ele></trkpt>
<trkpt lon="0.923014" lat="45.418690"><ele>245.0</ele></trkpt>
<trkpt lon="0.922985" lat="45.418277"><ele>240.5</ele></trkpt>
<trkpt lon="0.922935" lat="45.418104"><ele>240.0</ele></trkpt>
<trkpt lon="0.922912" lat="45.417988"><ele>239.75</ele></trkpt>
<trkpt lon="0.922921" lat="45.417912"><ele>239.25</ele></trkpt>
<trkpt lon="0.922599" lat="45.417911"><ele>243.0</ele></trkpt>
<trkpt lon="0.922598" lat="45.417849"><ele>242.75</ele></trkpt>
<trkpt lon="0.922511" lat="45.417851"><ele>243.25</ele></trkpt>
<trkpt lon="0.922432" lat="45.417845"><ele>243.75</ele></trkpt>
<trkpt lon="0.922373" lat="45.417826"><ele>244.0</ele></trkpt>
<trkpt lon="0.922309" lat="45.417788"><ele>244.25</ele></trkpt>
<trkpt lon="0.922251" lat="45.417740"><ele>245.0</ele></trkpt>
<trkpt lon="0.922174" lat="45.417641"><ele>246.75</ele></trkpt>
<trkpt lon="0.922052" lat="45.417454"><ele>249.25</ele></trkpt>
<trkpt lon="0.922010" lat="45.417459"><ele>250.0</ele></trkpt>
<trkpt lon="0.921866" lat="45.417479"><ele>251.25</ele></trkpt>
<trkpt lon="0.921850" lat="45.417428"><ele>251.25</ele></trkpt>
<trkpt lon="0.921838" lat="45.417386"><ele>251.5</ele></trkpt>
<trkpt lon="0.921788" lat="45.417217"><ele>252.0</ele></trkpt>
<trkpt lon="0.921704" lat="45.416875"><ele>255.5</ele></trkpt>
<trkpt lon="0.921554" lat="45.416376"><ele>259.75</ele></trkpt>
<trkpt lon="0.921536" lat="45.416319"><ele>260.25</ele></trkpt>
<trkpt lon="0.921520" lat="45.416319"><ele>260.25</ele></trkpt>
<trkpt lon="0.921265" lat="45.416307"><ele>263.25</ele></trkpt>
<trkpt lon="0.921171" lat="45.416297"><ele>264.75</ele></trkpt>
<trkpt lon="0.921111" lat="45.416280"><ele>266.0</ele></trkpt>
<trkpt lon="0.920895" lat="45.416171"><ele>268.25</ele></trkpt>
<trkpt lon="0.920601" lat="45.415983"><ele>272.0</ele></trkpt>
<trkpt lon="0.920342" lat="45.415774"><ele>273.25</ele></trkpt>
  </trkseg></trk></gpx>
