<?xml version="1.0" encoding="UTF-8"?>
<gpx version="1.1" creator="compostel-brouter" xmlns="http://www.topografix.com/GPX/1/1">
  <metadata><name>FR-25-Oradour</name></metadata>
  <trk><name>FR-25-Oradour</name><trkseg>
<trkpt lon="1.049051" lat="46.122733"><ele>244.25</ele></trkpt>
<trkpt lon="1.049371" lat="46.122633"><ele>245.0</ele></trkpt>
<trkpt lon="1.049392" lat="46.122621"><ele>245.0</ele></trkpt>
<trkpt lon="1.049427" lat="46.122601"><ele>245.0</ele></trkpt>
<trkpt lon="1.049472" lat="46.122576"><ele>245.0</ele></trkpt>
<trkpt lon="1.049753" lat="46.122515"><ele>246.0</ele></trkpt>
<trkpt lon="1.050236" lat="46.122410"><ele>248.5</ele></trkpt>
<trkpt lon="1.050426" lat="46.122390"><ele>249.0</ele></trkpt>
<trkpt lon="1.051135" lat="46.122379"><ele>250.0</ele></trkpt>
<trkpt lon="1.052202" lat="46.122371"><ele>251.5</ele></trkpt>
<trkpt lon="1.052244" lat="46.122356"><ele>251.25</ele></trkpt>
<trkpt lon="1.052048" lat="46.122234"><ele>251.0</ele></trkpt>
<trkpt lon="1.051699" lat="46.122015"><ele>249.5</ele></trkpt>
<trkpt lon="1.051646" lat="46.121963"><ele>249.0</ele></trkpt>
<trkpt lon="1.051622" lat="46.121920"><ele>248.75</ele></trkpt>
<trkpt lon="1.051528" lat="46.121919"><ele>248.5</ele></trkpt>
<trkpt lon="1.051484" lat="46.121880"><ele>248.5</ele></trkpt>
<trkpt lon="1.051347" lat="46.121801"><ele>248.75</ele></trkpt>
<trkpt lon="1.051082" lat="46.121634"><ele>248.0</ele></trkpt>
<trkpt lon="1.050489" lat="46.121260"><ele>244.5</ele></trkpt>
<trkpt lon="1.050429" lat="46.121219"><ele>244.25</ele></trkpt>
<trkpt lon="1.050375" lat="46.121181"><ele>244.25</ele></trkpt>
<trkpt lon="1.050294" lat="46.121125"><ele>244.0</ele></trkpt>
<trkpt lon="1.050168" lat="46.121060"><ele>243.5</ele></trkpt>
<trkpt lon="1.050344" lat="46.120929"><ele>243.25</ele></trkpt>
<trkpt lon="1.050502" lat="46.120820"><ele>242.75</ele></trkpt>
<trkpt lon="1.050653" lat="46.120716"><ele>242.0</ele></trkpt>
<trkpt lon="1.050802" lat="46.120614"><ele>241.75</ele></trkpt>
<trkpt lon="1.050955" lat="46.120544"><ele>241.25</ele></trkpt>
<trkpt lon="1.051100" lat="46.120492"><ele>240.5</ele></trkpt>
<trkpt lon="1.050917" lat="46.120270"><ele>238.75</ele></trkpt>
<trkpt lon="1.050765" lat="46.120100"><ele>237.0</ele></trkpt>
<trkpt lon="1.049928" lat="46.119125"><ele>225.0</ele></trkpt>
<trkpt lon="1.049910" lat="46.119103"><ele>225.0</ele></trkpt>
<trkpt lon="1.049842" lat="46.119031"><ele>224.75</ele></trkpt>
<trkpt lon="1.049817" lat="46.119004"><ele>224.75</ele></trkpt>
<trkpt lon="1.050291" lat="46.118785"><ele>220.75</ele></trkpt>
<trkpt lon="1.050396" lat="46.118777"><ele>220.75</ele></trkpt>
<trkpt lon="1.050442" lat="46.118743"><ele>220.25</ele></trkpt>
<trkpt lon="1.050488" lat="46.118710"><ele>220.0</ele></trkpt>
<trkpt lon="1.050450" lat="46.118644"><ele>219.25</ele></trkpt>
<trkpt lon="1.050385" lat="46.118323"><ele>215.0</ele></trkpt>
<trkpt lon="1.049880" lat="46.117760"><ele>201.75</ele></trkpt>
<trkpt lon="1.049807" lat="46.117639"><ele>198.5</ele></trkpt>
<trkpt lon="1.049792" lat="46.117556"><ele>196.5</ele></trkpt>
<trkpt lon="1.049820" lat="46.117318"><ele>192.5</ele></trkpt>
<trkpt lon="1.049837" lat="46.117192"><ele>190.75</ele></trkpt>
<trkpt lon="1.049838" lat="46.117122"><ele>189.5</ele></trkpt>
<trkpt lon="1.049818" lat="46.117036"><ele>188.25</ele></trkpt>
<trkpt lon="1.049874" lat="46.116718"><ele>185.25</ele></trkpt>
<trkpt lon="1.049879" lat="46.116695"><ele>185.0</ele></trkpt>
<trkpt lon="1.049984" lat="46.116684"><ele>185.0</ele></trkpt>
<trkpt lon="1.049948" lat="46.116580"><ele>184.5</ele></trkpt>
<trkpt lon="1.049903" lat="46.116492"><ele>184.5</ele></trkpt>
<trkpt lon="1.049864" lat="46.116429"><ele>184.5</ele></trkpt>
<trkpt lon="1.049649" lat="46.116154"><ele>184.5</ele></trkpt>
<trkpt lon="1.049633" lat="46.116133"><ele>184.5</ele></trkpt>
<trkpt lon="1.049661" lat="46.116076"><ele>185.5</ele></trkpt>
<trkpt lon="1.049741" lat="46.116014"><ele>186.75</ele></trkpt>
<trkpt lon="1.049958" lat="46.115917"><ele>185.75</ele></trkpt>
<trkpt lon="1.050266" lat="46.115796"><ele>185.75</ele></trkpt>
<trkpt lon="1.050505" lat="46.115646"><ele>185.75</ele></trkpt>
<trkpt lon="1.050649" lat="46.115511"><ele>186.0</ele></trkpt>
<trkpt lon="1.050908" lat="46.115075"><ele>188.5</ele></trkpt>
<trkpt lon="1.051515" lat="46.114655"><ele>184.75</ele></trkpt>
<trkpt lon="1.051663" lat="46.114510"><ele>185.25</ele></trkpt>
<trkpt lon="1.051675" lat="46.114423"><ele>185.75</ele></trkpt>
<trkpt lon="1.051654" lat="46.113985"><ele>186.75</ele></trkpt>
<trkpt lon="1.051805" lat="46.113564"><ele>193.25</ele></trkpt>
<trkpt lon="1.051835" lat="46.113532"><ele>193.0</ele></trkpt>
<trkpt lon="1.051897" lat="46.113510"><ele>191.5</ele></trkpt>
<trkpt lon="1.051988" lat="46.113491"><ele>190.0</ele></trkpt>
<trkpt lon="1.052032" lat="46.113475"><ele>189.75</ele></trkpt>
<trkpt lon="1.052156" lat="46.113371"><ele>189.25</ele></trkpt>
<trkpt lon="1.052247" lat="46.113278"><ele>188.75</ele></trkpt>
<trkpt lon="1.052333" lat="46.113167"><ele>189.5</ele></trkpt>
<trkpt lon="1.052381" lat="46.113070"><ele>190.0</ele></trkpt>
<trkpt lon="1.052483" lat="46.112909"><ele>189.25</ele></trkpt>
<trkpt lon="1.052527" lat="46.112801"><ele>189.5</ele></trkpt>
<trkpt lon="1.052564" lat="46.112679"><ele>191.5</ele></trkpt>
<trkpt lon="1.052612" lat="46.112589"><ele>192.5</ele></trkpt>
<trkpt lon="1.052666" lat="46.112515"><ele>193.25</ele></trkpt>
<trkpt lon="1.053034" lat="46.112152"><ele>193.75</ele></trkpt>
<trkpt lon="1.053124" lat="46.112071"><ele>193.25</ele></trkpt>
<trkpt lon="1.053356" lat="46.111824"><ele>192.25</ele></trkpt>
<trkpt lon="1.053435" lat="46.111721"><ele>192.0</ele></trkpt>
<trkpt lon="1.053496" lat="46.111614"><ele>192.0</ele></trkpt>
<trkpt lon="1.053563" lat="46.111471"><ele>192.0</ele></trkpt>
<trkpt lon="1.053641" lat="46.111298"><ele>191.75</ele></trkpt>
<trkpt lon="1.053660" lat="46.111202"><ele>191.75</ele></trkpt>
<trkpt lon="1.053737" lat="46.111012"><ele>191.75</ele></trkpt>
<trkpt lon="1.053789" lat="46.110917"><ele>191.25</ele></trkpt>
<trkpt lon="1.053809" lat="46.110858"><ele>191.0</ele></trkpt>
<trkpt lon="1.053814" lat="46.110812"><ele>191.0</ele></trkpt>
<trkpt lon="1.053793" lat="46.110778"><ele>191.25</ele></trkpt>
<trkpt lon="1.053725" lat="46.110742"><ele>192.0</ele></trkpt>
<trkpt lon="1.053475" lat="46.110660"><ele>193.0</ele></trkpt>
<trkpt lon="1.053430" lat="46.110604"><ele>193.0</ele></trkpt>
<trkpt lon="1.053443" lat="46.110541"><ele>193.0</ele></trkpt>
<trkpt lon="1.053488" lat="46.110476"><ele>193.5</ele></trkpt>
<trkpt lon="1.053591" lat="46.110388"><ele>193.0</ele></trkpt>
<trkpt lon="1.053615" lat="46.110352"><ele>192.75</ele></trkpt>
<trkpt lon="1.053681" lat="46.110250"><ele>192.5</ele></trkpt>
<trkpt lon="1.053787" lat="46.109935"><ele>191.75</ele></trkpt>
<trkpt lon="1.053723" lat="46.109640"><ele>189.25</ele></trkpt>
<trkpt lon="1.053595" lat="46.109508"><ele>188.5</ele></trkpt>
<trkpt lon="1.053249" lat="46.109101"><ele>190.25</ele></trkpt>
<trkpt lon="1.053201" lat="46.109056"><ele>191.0</ele></trkpt>
<trkpt lon="1.053081" lat="46.108949"><ele>190.0</ele></trkpt>
<trkpt lon="1.052960" lat="46.108806"><ele>192.5</ele></trkpt>
<trkpt lon="1.052845" lat="46.108687"><ele>192.75</ele></trkpt>
<trkpt lon="1.052764" lat="46.108536"><ele>190.5</ele></trkpt>
<trkpt lon="1.052654" lat="46.108217"><ele>191.5</ele></trkpt>
<trkpt lon="1.052688" lat="46.107862"><ele>189.75</ele></trkpt>
<trkpt lon="1.052742" lat="46.107613"><ele>189.0</ele></trkpt>
<trkpt lon="1.052870" lat="46.106705"><ele>190.25</ele></trkpt>
<trkpt lon="1.053111" lat="46.106345"><ele>190.25</ele></trkpt>
<trkpt lon="1.053257" lat="46.106196"><ele>192.25</ele></trkpt>
<trkpt lon="1.053475" lat="46.106108"><ele>190.0</ele></trkpt>
<trkpt lon="1.053684" lat="46.106037"><ele>189.75</ele></trkpt>
<trkpt lon="1.053947" lat="46.105892"><ele>189.75</ele></trkpt>
<trkpt lon="1.054215" lat="46.105781"><ele>189.0</ele></trkpt>
<trkpt lon="1.054356" lat="46.105712"><ele>188.75</ele></trkpt>
<trkpt lon="1.054453" lat="46.105645"><ele>188.5</ele></trkpt>
<trkpt lon="1.054598" lat="46.105515"><ele>188.0</ele></trkpt>
<trkpt lon="1.054673" lat="46.105370"><ele>188.0</ele></trkpt>
<trkpt lon="1.054716" lat="46.105210"><ele>188.25</ele></trkpt>
<trkpt lon="1.054780" lat="46.105088"><ele>188.25</ele></trkpt>
<trkpt lon="1.054898" lat="46.104965"><ele>188.75</ele></trkpt>
<trkpt lon="1.055107" lat="46.104853"><ele>190.5</ele></trkpt>
<trkpt lon="1.055376" lat="46.104771"><ele>190.0</ele></trkpt>
<trkpt lon="1.055832" lat="46.104702"><ele>191.0</ele></trkpt>
<trkpt lon="1.055774" lat="46.104839"><ele>189.5</ele></trkpt>
<trkpt lon="1.055684" lat="46.105044"><ele>188.75</ele></trkpt>
<trkpt lon="1.055653" lat="46.105114"><ele>189.5</ele></trkpt>
<trkpt lon="1.055874" lat="46.105066"><ele>189.0</ele></trkpt>
<trkpt lon="1.055951" lat="46.105041"><ele>189.25</ele></trkpt>
<trkpt lon="1.056022" lat="46.105009"><ele>189.25</ele></trkpt>
<trkpt lon="1.056077" lat="46.104962"><ele>189.5</ele></trkpt>
<trkpt lon="1.056121" lat="46.104913"><ele>189.25</ele></trkpt>
<trkpt lon="1.056180" lat="46.104796"><ele>189.0</ele></trkpt>
<trkpt lon="1.056319" lat="46.104593"><ele>189.25</ele></trkpt>
<trkpt lon="1.056414" lat="46.104509"><ele>189.25</ele></trkpt>
<trkpt lon="1.056554" lat="46.104523"><ele>190.25</ele></trkpt>
<trkpt lon="1.056737" lat="46.104494"><ele>192.25</ele></trkpt>
<trkpt lon="1.056785" lat="46.104470"><ele>192.75</ele></trkpt>
<trkpt lon="1.057018" lat="46.104325"><ele>195.75</ele></trkpt>
<trkpt lon="1.057166" lat="46.104163"><ele>195.0</ele></trkpt>
<trkpt lon="1.057257" lat="46.104044"><ele>195.25</ele></trkpt>
<trkpt lon="1.057338" lat="46.104040"><ele>197.0</ele></trkpt>
<trkpt lon="1.057330" lat="46.103869"><ele>194.0</ele></trkpt>
<trkpt lon="1.057523" lat="46.103661"><ele>191.5</ele></trkpt>
<trkpt lon="1.057788" lat="46.103460"><ele>191.75</ele></trkpt>
<trkpt lon="1.058478" lat="46.102783"><ele>197.25</ele></trkpt>
<trkpt lon="1.058532" lat="46.102619"><ele>195.75</ele></trkpt>
<trkpt lon="1.058650" lat="46.102454"><ele>195.75</ele></trkpt>
<trkpt lon="1.058703" lat="46.102210"><ele>194.5</ele></trkpt>
<trkpt lon="1.058735" lat="46.101905"><ele>195.25</ele></trkpt>
<trkpt lon="1.058818" lat="46.101689"><ele>196.25</ele></trkpt>
<trkpt lon="1.058840" lat="46.101357"><ele>198.5</ele></trkpt>
<trkpt lon="1.058814" lat="46.100900"><ele>200.5</ele></trkpt>
<trkpt lon="1.058866" lat="46.100557"><ele>199.5</ele></trkpt>
<trkpt lon="1.058888" lat="46.100226"><ele>197.75</ele></trkpt>
<trkpt lon="1.058852" lat="46.099864"><ele>196.25</ele></trkpt>
<trkpt lon="1.058754" lat="46.099788"><ele>195.5</ele></trkpt>
<trkpt lon="1.058508" lat="46.099760"><ele>194.75</ele></trkpt>
<trkpt lon="1.058506" lat="46.099686"><ele>194.75</ele></trkpt>
<trkpt lon="1.058616" lat="46.099478"><ele>195.0</ele></trkpt>
<trkpt lon="1.059377" lat="46.098689"><ele>204.75</ele></trkpt>
<trkpt lon="1.059624" lat="46.098600"><ele>208.25</ele></trkpt>
<trkpt lon="1.059977" lat="46.098687"><ele>213.0</ele></trkpt>
<trkpt lon="1.060072" lat="46.098442"><ele>212.75</ele></trkpt>
<trkpt lon="1.060343" lat="46.098194"><ele>213.0</ele></trkpt>
<trkpt lon="1.060639" lat="46.098031"><ele>214.5</ele></trkpt>
<trkpt lon="1.060775" lat="46.097882"><ele>207.75</ele></trkpt>
<trkpt lon="1.061046" lat="46.097792"><ele>202.0</ele></trkpt>
<trkpt lon="1.061397" lat="46.097745"><ele>201.25</ele></trkpt>
<trkpt lon="1.061742" lat="46.097724"><ele>204.0</ele></trkpt>
<trkpt lon="1.062075" lat="46.097480"><ele>200.25</ele></trkpt>
<trkpt lon="1.062303" lat="46.097126"><ele>199.0</ele></trkpt>
<trkpt lon="1.062272" lat="46.096754"><ele>196.75</ele></trkpt>
<trkpt lon="1.062050" lat="46.096421"><ele>196.0</ele></trkpt>
<trkpt lon="1.061539" lat="46.095690"><ele>196.0</ele></trkpt>
<trkpt lon="1.061224" lat="46.095220"><ele>195.5</ele></trkpt>
<trkpt lon="1.060750" lat="46.093981"><ele>196.25</ele></trkpt>
<trkpt lon="1.060953" lat="46.093754"><ele>196.25</ele></trkpt>
<trkpt lon="1.061237" lat="46.093455"><ele>198.25</ele></trkpt>
<trkpt lon="1.061964" lat="46.092663"><ele>197.0</ele></trkpt>
<trkpt lon="1.062140" lat="46.092552"><ele>196.75</ele></trkpt>
<trkpt lon="1.062668" lat="46.092380"><ele>198.75</ele></trkpt>
<trkpt lon="1.063036" lat="46.092203"><ele>200.25</ele></trkpt>
<trkpt lon="1.063220" lat="46.092102"><ele>201.75</ele></trkpt>
<trkpt lon="1.063410" lat="46.091878"><ele>200.0</ele></trkpt>
<trkpt lon="1.063806" lat="46.091621"><ele>201.75</ele></trkpt>
<trkpt lon="1.063922" lat="46.091591"><ele>202.25</ele></trkpt>
<trkpt lon="1.064327" lat="46.091613"><ele>202.25</ele></trkpt>
<trkpt lon="1.064509" lat="46.091575"><ele>201.5</ele></trkpt>
<trkpt lon="1.064614" lat="46.091348"><ele>199.0</ele></trkpt>
<trkpt lon="1.064630" lat="46.091235"><ele>199.75</ele></trkpt>
<trkpt lon="1.064576" lat="46.091127"><ele>199.75</ele></trkpt>
<trkpt lon="1.064564" lat="46.091028"><ele>200.5</ele></trkpt>
<trkpt lon="1.064665" lat="46.090946"><ele>202.5</ele></trkpt>
<trkpt lon="1.064770" lat="46.090801"><ele>204.75</ele></trkpt>
<trkpt lon="1.064700" lat="46.090712"><ele>206.0</ele></trkpt>
<trkpt lon="1.064381" lat="46.090466"><ele>210.0</ele></trkpt>
<trkpt lon="1.064375" lat="46.090272"><ele>213.5</ele></trkpt>
<trkpt lon="1.065084" lat="46.089791"><ele>221.5</ele></trkpt>
<trkpt lon="1.065172" lat="46.089662"><ele>223.25</ele></trkpt>
<trkpt lon="1.065221" lat="46.089398"><ele>226.25</ele></trkpt>
<trkpt lon="1.065656" lat="46.088832"><ele>231.5</ele></trkpt>
<trkpt lon="1.065797" lat="46.088367"><ele>230.0</ele></trkpt>
<trkpt lon="1.066291" lat="46.087289"><ele>221.25</ele></trkpt>
<trkpt lon="1.066543" lat="46.087084"><ele>220.5</ele></trkpt>
<trkpt lon="1.067031" lat="46.086470"><ele>218.5</ele></trkpt>
<trkpt lon="1.067262" lat="46.085514"><ele>221.0</ele></trkpt>
<trkpt lon="1.067659" lat="46.085101"><ele>221.75</ele></trkpt>
<trkpt lon="1.068034" lat="46.084867"><ele>223.75</ele></trkpt>
<trkpt lon="1.068104" lat="46.084773"><ele>224.0</ele></trkpt>
<trkpt lon="1.068512" lat="46.084193"><ele>226.25</ele></trkpt>
<trkpt lon="1.068662" lat="46.083687"><ele>225.5</ele></trkpt>
<trkpt lon="1.068780" lat="46.083520"><ele>225.0</ele></trkpt>
<trkpt lon="1.068871" lat="46.083412"><ele>224.25</ele></trkpt>
<trkpt lon="1.069011" lat="46.083289"><ele>223.25</ele></trkpt>
<trkpt lon="1.069166" lat="46.083215"><ele>222.75</ele></trkpt>
<trkpt lon="1.069611" lat="46.083081"><ele>221.75</ele></trkpt>
<trkpt lon="1.069821" lat="46.083040"><ele>222.25</ele></trkpt>
<trkpt lon="1.070041" lat="46.083014"><ele>223.0</ele></trkpt>
<trkpt lon="1.070223" lat="46.082969"><ele>222.25</ele></trkpt>
<trkpt lon="1.070647" lat="46.082846"><ele>220.75</ele></trkpt>
<trkpt lon="1.070808" lat="46.082675"><ele>215.75</ele></trkpt>
<trkpt lon="1.071551" lat="46.082231"><ele>214.0</ele></trkpt>
<trkpt lon="1.071808" lat="46.082105"><ele>213.0</ele></trkpt>
<trkpt lon="1.072198" lat="46.082019"><ele>213.5</ele></trkpt>
<trkpt lon="1.072358" lat="46.081860"><ele>211.75</ele></trkpt>
<trkpt lon="1.072456" lat="46.081672"><ele>206.75</ele></trkpt>
<trkpt lon="1.072744" lat="46.081529"><ele>209.5</ele></trkpt>
<trkpt lon="1.072819" lat="46.081581"><ele>212.5</ele></trkpt>
<trkpt lon="1.073016" lat="46.081492"><ele>211.75</ele></trkpt>
<trkpt lon="1.073082" lat="46.081441"><ele>210.5</ele></trkpt>
<trkpt lon="1.073298" lat="46.081308"><ele>210.5</ele></trkpt>
<trkpt lon="1.073339" lat="46.081263"><ele>210.25</ele></trkpt>
<trkpt lon="1.073245" lat="46.081232"><ele>209.25</ele></trkpt>
<trkpt lon="1.073195" lat="46.081190"><ele>208.75</ele></trkpt>
<trkpt lon="1.073123" lat="46.081121"><ele>208.75</ele></trkpt>
<trkpt lon="1.073033" lat="46.081044"><ele>209.5</ele></trkpt>
<trkpt lon="1.072917" lat="46.080984"><ele>210.25</ele></trkpt>
<trkpt lon="1.071599" lat="46.080382"><ele>220.75</ele></trkpt>
<trkpt lon="1.071512" lat="46.080309"><ele>221.5</ele></trkpt>
<trkpt lon="1.071478" lat="46.080188"><ele>222.75</ele></trkpt>
<trkpt lon="1.072879" lat="46.078347"><ele>242.75</ele></trkpt>
<trkpt lon="1.072954" lat="46.078205"><ele>243.5</ele></trkpt>
<trkpt lon="1.073005" lat="46.077984"><ele>244.25</ele></trkpt>
<trkpt lon="1.073093" lat="46.077228"><ele>247.75</ele></trkpt>
<trkpt lon="1.073370" lat="46.076613"><ele>249.0</ele></trkpt>
<trkpt lon="1.073860" lat="46.076542"><ele>246.5</ele></trkpt>
<trkpt lon="1.074278" lat="46.076275"><ele>244.5</ele></trkpt>
<trkpt lon="1.074643" lat="46.075850"><ele>243.5</ele></trkpt>
<trkpt lon="1.075158" lat="46.075500"><ele>242.75</ele></trkpt>
<trkpt lon="1.075566" lat="46.075277"><ele>244.0</ele></trkpt>
<trkpt lon="1.075877" lat="46.075017"><ele>246.25</ele></trkpt>
<trkpt lon="1.076209" lat="46.074414"><ele>249.25</ele></trkpt>
<trkpt lon="1.076317" lat="46.073893"><ele>250.5</ele></trkpt>
<trkpt lon="1.077210" lat="46.072949"><ele>253.0</ele></trkpt>
<trkpt lon="1.077604" lat="46.072694"><ele>253.0</ele></trkpt>
<trkpt lon="1.077705" lat="46.072600"><ele>253.0</ele></trkpt>
<trkpt lon="1.078169" lat="46.071850"><ele>252.25</ele></trkpt>
<trkpt lon="1.078347" lat="46.070979"><ele>253.0</ele></trkpt>
<trkpt lon="1.078509" lat="46.070587"><ele>252.75</ele></trkpt>
<trkpt lon="1.078652" lat="46.070515"><ele>253.0</ele></trkpt>
<trkpt lon="1.079172" lat="46.070103"><ele>253.5</ele></trkpt>
<trkpt lon="1.079914" lat="46.069555"><ele>256.75</ele></trkpt>
<trkpt lon="1.080369" lat="46.069248"><ele>258.75</ele></trkpt>
<trkpt lon="1.081384" lat="46.068658"><ele>259.75</ele></trkpt>
<trkpt lon="1.082797" lat="46.067774"><ele>259.75</ele></trkpt>
<trkpt lon="1.083574" lat="46.067155"><ele>259.25</ele></trkpt>
<trkpt lon="1.083764" lat="46.067034"><ele>259.25</ele></trkpt>
<trkpt lon="1.083987" lat="46.066919"><ele>260.0</ele></trkpt>
<trkpt lon="1.084207" lat="46.066825"><ele>260.5</ele></trkpt>
<trkpt lon="1.084514" lat="46.066711"><ele>261.0</ele></trkpt>
<trkpt lon="1.085190" lat="46.066481"><ele>262.0</ele></trkpt>
<trkpt lon="1.085552" lat="46.066338"><ele>261.75</ele></trkpt>
<trkpt lon="1.085812" lat="46.066214"><ele>261.75</ele></trkpt>
<trkpt lon="1.086799" lat="46.065601"><ele>262.5</ele></trkpt>
<trkpt lon="1.087587" lat="46.065075"><ele>264.75</ele></trkpt>
<trkpt lon="1.087712" lat="46.064984"><ele>265.25</ele></trkpt>
<trkpt lon="1.088059" lat="46.064720"><ele>267.0</ele></trkpt>
<trkpt lon="1.089577" lat="46.063123"><ele>273.75</ele></trkpt>
<trkpt lon="1.090209" lat="46.062338"><ele>274.0</ele></trkpt>
<trkpt lon="1.090460" lat="46.062062"><ele>273.75</ele></trkpt>
<trkpt lon="1.090783" lat="46.061739"><ele>274.75</ele></trkpt>
<trkpt lon="1.091979" lat="46.060807"><ele>283.0</ele></trkpt>
<trkpt lon="1.092373" lat="46.060492"><ele>284.25</ele></trkpt>
<trkpt lon="1.092738" lat="46.060215"><ele>284.5</ele></trkpt>
<trkpt lon="1.092809" lat="46.060169"><ele>284.5</ele></trkpt>
<trkpt lon="1.092898" lat="46.060114"><ele>284.75</ele></trkpt>
<trkpt lon="1.093043" lat="46.060040"><ele>285.0</ele></trkpt>
<trkpt lon="1.093488" lat="46.059826"><ele>285.0</ele></trkpt>
<trkpt lon="1.093676" lat="46.059757"><ele>285.25</ele></trkpt>
<trkpt lon="1.095099" lat="46.059331"><ele>288.0</ele></trkpt>
<trkpt lon="1.095623" lat="46.059171"><ele>289.25</ele></trkpt>
<trkpt lon="1.095731" lat="46.059133"><ele>289.5</ele></trkpt>
<trkpt lon="1.095825" lat="46.059091"><ele>289.75</ele></trkpt>
<trkpt lon="1.096117" lat="46.058930"><ele>290.0</ele></trkpt>
<trkpt lon="1.096396" lat="46.058730"><ele>290.75</ele></trkpt>
<trkpt lon="1.097160" lat="46.058224"><ele>290.75</ele></trkpt>
<trkpt lon="1.101433" lat="46.055395"><ele>299.75</ele></trkpt>
<trkpt lon="1.103120" lat="46.053821"><ele>300.0</ele></trkpt>
<trkpt lon="1.104045" lat="46.052858"><ele>299.75</ele></trkpt>
<trkpt lon="1.104806" lat="46.053095"><ele>297.25</ele></trkpt>
<trkpt lon="1.108310" lat="46.053906"><ele>285.0</ele></trkpt>
<trkpt lon="1.109874" lat="46.053973"><ele>286.0</ele></trkpt>
<trkpt lon="1.112058" lat="46.054175"><ele>288.75</ele></trkpt>
<trkpt lon="1.113109" lat="46.054694"><ele>288.0</ele></trkpt>
<trkpt lon="1.113114" lat="46.054396"><ele>288.75</ele></trkpt>
<trkpt lon="1.113179" lat="46.053399"><ele>291.75</ele></trkpt>
<trkpt lon="1.113525" lat="46.052483"><ele>291.25</ele></trkpt>
<trkpt lon="1.114270" lat="46.051109"><ele>292.5</ele></trkpt>
<trkpt lon="1.115678" lat="46.049001"><ele>296.75</ele></trkpt>
<trkpt lon="1.115872" lat="46.049037"><ele>297.0</ele></trkpt>
<trkpt lon="1.118375" lat="46.046290"><ele>301.0</ele></trkpt>
<trkpt lon="1.119915" lat="46.044079"><ele>306.25</ele></trkpt>
<trkpt lon="1.119983" lat="46.043965"><ele>306.5</ele></trkpt>
<trkpt lon="1.120692" lat="46.042985"><ele>308.5</ele></trkpt>
<trkpt lon="1.120227" lat="46.042765"><ele>307.75</ele></trkpt>
<trkpt lon="1.120753" lat="46.042199"><ele>308.5</ele></trkpt>
<trkpt lon="1.120957" lat="46.041700"><ele>307.5</ele></trkpt>
<trkpt lon="1.118929" lat="46.040799"><ele>301.0</ele></trkpt>
<trkpt lon="1.118650" lat="46.040605"><ele>299.75</ele></trkpt>
<trkpt lon="1.118074" lat="46.040415"><ele>301.0</ele></trkpt>
<trkpt lon="1.117580" lat="46.040436"><ele>301.5</ele></trkpt>
<trkpt lon="1.117427" lat="46.040271"><ele>303.0</ele></trkpt>
<trkpt lon="1.117288" lat="46.039898"><ele>304.75</ele></trkpt>
<trkpt lon="1.117252" lat="46.039777"><ele>305.5</ele></trkpt>
<trkpt lon="1.116976" lat="46.038838"><ele>307.25</ele></trkpt>
<trkpt lon="1.117858" lat="46.038708"><ele>309.0</ele></trkpt>
<trkpt lon="1.117831" lat="46.038638"><ele>309.0</ele></trkpt>
<trkpt lon="1.116828" lat="46.036853"><ele>306.75</ele></trkpt>
<trkpt lon="1.116479" lat="46.036181"><ele>304.25</ele></trkpt>
<trkpt lon="1.115792" lat="46.035331"><ele>299.25</ele></trkpt>
<trkpt lon="1.115052" lat="46.034728"><ele>296.75</ele></trkpt>
<trkpt lon="1.114406" lat="46.034386"><ele>297.0</ele></trkpt>
<trkpt lon="1.114578" lat="46.033888"><ele>296.5</ele></trkpt>
<trkpt lon="1.113900" lat="46.033809"><ele>297.75</ele></trkpt>
<trkpt lon="1.112711" lat="46.033592"><ele>301.0</ele></trkpt>
<trkpt lon="1.111772" lat="46.033160"><ele>299.5</ele></trkpt>
<trkpt lon="1.110896" lat="46.032688"><ele>295.75</ele></trkpt>
<trkpt lon="1.110099" lat="46.032080"><ele>289.0</ele></trkpt>
<trkpt lon="1.109223" lat="46.031850"><ele>281.75</ele></trkpt>
<trkpt lon="1.108773" lat="46.031627"><ele>276.75</ele></trkpt>
<trkpt lon="1.108494" lat="46.031373"><ele>272.5</ele></trkpt>
<trkpt lon="1.108472" lat="46.030956"><ele>269.5</ele></trkpt>
<trkpt lon="1.108172" lat="46.030628"><ele>265.0</ele></trkpt>
<trkpt lon="1.108000" lat="46.030345"><ele>262.0</ele></trkpt>
<trkpt lon="1.107743" lat="46.029824"><ele>256.5</ele></trkpt>
<trkpt lon="1.107872" lat="46.029630"><ele>256.0</ele></trkpt>
<trkpt lon="1.108086" lat="46.029221"><ele>252.75</ele></trkpt>
<trkpt lon="1.106799" lat="46.029203"><ele>248.5</ele></trkpt>
<trkpt lon="1.106285" lat="46.029113"><ele>246.25</ele></trkpt>
<trkpt lon="1.104830" lat="46.028899"><ele>241.25</ele></trkpt>
<trkpt lon="1.104241" lat="46.028691"><ele>241.0</ele></trkpt>
<trkpt lon="1.104406" lat="46.028661"><ele>241.0</ele></trkpt>
<trkpt lon="1.104542" lat="46.028582"><ele>241.0</ele></trkpt>
<trkpt lon="1.104625" lat="46.028499"><ele>241.25</ele></trkpt>
<trkpt lon="1.106303" lat="46.026141"><ele>242.5</ele></trkpt>
<trkpt lon="1.106545" lat="46.025380"><ele>243.5</ele></trkpt>
<trkpt lon="1.106750" lat="46.025434"><ele>244.25</ele></trkpt>
<trkpt lon="1.106893" lat="46.024843"><ele>244.0</ele></trkpt>
<trkpt lon="1.106977" lat="46.024718"><ele>244.25</ele></trkpt>
<trkpt lon="1.107237" lat="46.024413"><ele>244.75</ele></trkpt>
<trkpt lon="1.107431" lat="46.024159"><ele>245.0</ele></trkpt>
<trkpt lon="1.107677" lat="46.023988"><ele>244.75</ele></trkpt>
<trkpt lon="1.108010" lat="46.023832"><ele>245.0</ele></trkpt>
<trkpt lon="1.108342" lat="46.023705"><ele>243.75</ele></trkpt>
<trkpt lon="1.108224" lat="46.023586"><ele>243.0</ele></trkpt>
<trkpt lon="1.107967" lat="46.023392"><ele>243.0</ele></trkpt>
<trkpt lon="1.107871" lat="46.023227"><ele>243.0</ele></trkpt>
<trkpt lon="1.107878" lat="46.023113"><ele>243.0</ele></trkpt>
<trkpt lon="1.107398" lat="46.023022"><ele>243.5</ele></trkpt>
<trkpt lon="1.106883" lat="46.022774"><ele>247.25</ele></trkpt>
<trkpt lon="1.106519" lat="46.022588"><ele>248.25</ele></trkpt>
<trkpt lon="1.105671" lat="46.021977"><ele>249.5</ele></trkpt>
<trkpt lon="1.105328" lat="46.021694"><ele>252.25</ele></trkpt>
<trkpt lon="1.104877" lat="46.021381"><ele>254.5</ele></trkpt>
<trkpt lon="1.104512" lat="46.021142"><ele>255.75</ele></trkpt>
<trkpt lon="1.104083" lat="46.020896"><ele>257.25</ele></trkpt>
<trkpt lon="1.103686" lat="46.020628"><ele>257.5</ele></trkpt>
<trkpt lon="1.103396" lat="46.020397"><ele>258.5</ele></trkpt>
<trkpt lon="1.103032" lat="46.020218"><ele>260.25</ele></trkpt>
<trkpt lon="1.102699" lat="46.019958"><ele>263.5</ele></trkpt>
<trkpt lon="1.102141" lat="46.019615"><ele>262.0</ele></trkpt>
<trkpt lon="1.102334" lat="46.019302"><ele>262.5</ele></trkpt>
<trkpt lon="1.102442" lat="46.019026"><ele>263.5</ele></trkpt>
<trkpt lon="1.102495" lat="46.018676"><ele>264.75</ele></trkpt>
<trkpt lon="1.102431" lat="46.018237"><ele>267.5</ele></trkpt>
<trkpt lon="1.102130" lat="46.017708"><ele>271.25</ele></trkpt>
<trkpt lon="1.101884" lat="46.017551"><ele>274.25</ele></trkpt>
<trkpt lon="1.101487" lat="46.017328"><ele>276.0</ele></trkpt>
<trkpt lon="1.100966" lat="46.016940"><ele>279.5</ele></trkpt>
<trkpt lon="1.101223" lat="46.016772"><ele>279.25</ele></trkpt>
<trkpt lon="1.101622" lat="46.016488"><ele>275.0</ele></trkpt>
<trkpt lon="1.101742" lat="46.016423"><ele>274.0</ele></trkpt>
<trkpt lon="1.101946" lat="46.016237"><ele>271.75</ele></trkpt>
<trkpt lon="1.102061" lat="46.016118"><ele>271.0</ele></trkpt>
<trkpt lon="1.102186" lat="46.016027"><ele>270.25</ele></trkpt>
<trkpt lon="1.102257" lat="46.015954"><ele>270.25</ele></trkpt>
<trkpt lon="1.101969" lat="46.015865"><ele>271.0</ele></trkpt>
<trkpt lon="1.101728" lat="46.015764"><ele>273.0</ele></trkpt>
<trkpt lon="1.101645" lat="46.015802"><ele>274.0</ele></trkpt>
<trkpt lon="1.101612" lat="46.015876"><ele>274.25</ele></trkpt>
<trkpt lon="1.101470" lat="46.015905"><ele>275.5</ele></trkpt>
<trkpt lon="1.101322" lat="46.015803"><ele>276.75</ele></trkpt>
<trkpt lon="1.101194" lat="46.015727"><ele>278.25</ele></trkpt>
<trkpt lon="1.100986" lat="46.015523"><ele>279.75</ele></trkpt>
<trkpt lon="1.100899" lat="46.015465"><ele>280.5</ele></trkpt>
<trkpt lon="1.100834" lat="46.015402"><ele>281.5</ele></trkpt>
<trkpt lon="1.100575" lat="46.015181"><ele>284.5</ele></trkpt>
<trkpt lon="1.100500" lat="46.015129"><ele>285.5</ele></trkpt>
<trkpt lon="1.100314" lat="46.015037"><ele>287.25</ele></trkpt>
<trkpt lon="1.100104" lat="46.014958"><ele>289.25</ele></trkpt>
<trkpt lon="1.099956" lat="46.014905"><ele>290.5</ele></trkpt>
<trkpt lon="1.099869" lat="46.014892"><ele>291.0</ele></trkpt>
<trkpt lon="1.098571" lat="46.014309"><ele>303.5</ele></trkpt>
<trkpt lon="1.098581" lat="46.014210"><ele>304.0</ele></trkpt>
<trkpt lon="1.098528" lat="46.014136"><ele>304.5</ele></trkpt>
<trkpt lon="1.098428" lat="46.014067"><ele>305.25</ele></trkpt>
<trkpt lon="1.098292" lat="46.014026"><ele>306.0</ele></trkpt>
<trkpt lon="1.098485" lat="46.013918"><ele>305.25</ele></trkpt>
<trkpt lon="1.098482" lat="46.013860"><ele>305.25</ele></trkpt>
<trkpt lon="1.098276" lat="46.013741"><ele>306.0</ele></trkpt>
<trkpt lon="1.098056" lat="46.013649"><ele>306.0</ele></trkpt>
<trkpt lon="1.097398" lat="46.013290"><ele>306.5</ele></trkpt>
<trkpt lon="1.097326" lat="46.013146"><ele>307.25</ele></trkpt>
<trkpt lon="1.097154" lat="46.012701"><ele>308.0</ele></trkpt>
<trkpt lon="1.096822" lat="46.012180"><ele>310.5</ele></trkpt>
<trkpt lon="1.096586" lat="46.011721"><ele>313.0</ele></trkpt>
<trkpt lon="1.096382" lat="46.011211"><ele>314.75</ele></trkpt>
<trkpt lon="1.096296" lat="46.011181"><ele>315.0</ele></trkpt>
<trkpt lon="1.096001" lat="46.011125"><ele>316.25</ele></trkpt>
<trkpt lon="1.095722" lat="46.011125"><ele>317.75</ele></trkpt>
<trkpt lon="1.095481" lat="46.011107"><ele>319.0</ele></trkpt>
<trkpt lon="1.095277" lat="46.011140"><ele>320.0</ele></trkpt>
<trkpt lon="1.095191" lat="46.011204"><ele>320.0</ele></trkpt>
<trkpt lon="1.095009" lat="46.011248"><ele>320.0</ele></trkpt>
<trkpt lon="1.094854" lat="46.011276"><ele>320.0</ele></trkpt>
<trkpt lon="1.094195" lat="46.010240"><ele>316.5</ele></trkpt>
<trkpt lon="1.093818" lat="46.009620"><ele>315.75</ele></trkpt>
<trkpt lon="1.093743" lat="46.009352"><ele>315.25</ele></trkpt>
<trkpt lon="1.093743" lat="46.009203"><ele>315.0</ele></trkpt>
<trkpt lon="1.093764" lat="46.009121"><ele>315.0</ele></trkpt>
<trkpt lon="1.093786" lat="46.009031"><ele>314.75</ele></trkpt>
<trkpt lon="1.093926" lat="46.008763"><ele>314.5</ele></trkpt>
<trkpt lon="1.094203" lat="46.008162"><ele>315.0</ele></trkpt>
<trkpt lon="1.094678" lat="46.006709"><ele>317.75</ele></trkpt>
<trkpt lon="1.094609" lat="46.006535"><ele>318.0</ele></trkpt>
<trkpt lon="1.094530" lat="46.006376"><ele>318.0</ele></trkpt>
<trkpt lon="1.093766" lat="46.005922"><ele>319.5</ele></trkpt>
<trkpt lon="1.093502" lat="46.005595"><ele>321.5</ele></trkpt>
<trkpt lon="1.093199" lat="46.004902"><ele>325.75</ele></trkpt>
<trkpt lon="1.093037" lat="46.004604"><ele>328.0</ele></trkpt>
<trkpt lon="1.092796" lat="46.004133"><ele>331.75</ele></trkpt>
<trkpt lon="1.092631" lat="46.003905"><ele>333.5</ele></trkpt>
<trkpt lon="1.092365" lat="46.003648"><ele>336.25</ele></trkpt>
<trkpt lon="1.091860" lat="46.003204"><ele>336.0</ele></trkpt>
<trkpt lon="1.091687" lat="46.003034"><ele>335.0</ele></trkpt>
<trkpt lon="1.090162" lat="46.001095"><ele>342.0</ele></trkpt>
<trkpt lon="1.090090" lat="46.000967"><ele>343.0</ele></trkpt>
<trkpt lon="1.090075" lat="46.000904"><ele>343.25</ele></trkpt>
<trkpt lon="1.090083" lat="46.000810"><ele>344.0</ele></trkpt>
<trkpt lon="1.090038" lat="46.000741"><ele>344.25</ele></trkpt>
<trkpt lon="1.090009" lat="46.000662"><ele>344.5</ele></trkpt>
<trkpt lon="1.090017" lat="46.000482"><ele>345.25</ele></trkpt>
<trkpt lon="1.090107" lat="46.000032"><ele>347.75</ele></trkpt>
<trkpt lon="1.090071" lat="45.999922"><ele>348.25</ele></trkpt>
<trkpt lon="1.089846" lat="45.999714"><ele>349.0</ele></trkpt>
<trkpt lon="1.089815" lat="45.999672"><ele>349.0</ele></trkpt>
<trkpt lon="1.089911" lat="45.999636"><ele>349.0</ele></trkpt>
<trkpt lon="1.089988" lat="45.999574"><ele>349.5</ele></trkpt>
<trkpt lon="1.090039" lat="45.999504"><ele>349.5</ele></trkpt>
<trkpt lon="1.090883" lat="45.997905"><ele>348.25</ele></trkpt>
<trkpt lon="1.090963" lat="45.997808"><ele>347.75</ele></trkpt>
<trkpt lon="1.090861" lat="45.997697"><ele>349.25</ele></trkpt>
<trkpt lon="1.090902" lat="45.997556"><ele>350.25</ele></trkpt>
<trkpt lon="1.091668" lat="45.996510"><ele>358.0</ele></trkpt>
<trkpt lon="1.092253" lat="45.995675"><ele>363.0</ele></trkpt>
<trkpt lon="1.092757" lat="45.995310"><ele>362.0</ele></trkpt>
<trkpt lon="1.092926" lat="45.994811"><ele>360.75</ele></trkpt>
<trkpt lon="1.092956" lat="45.994463"><ele>361.75</ele></trkpt>
<trkpt lon="1.092965" lat="45.994230"><ele>362.0</ele></trkpt>
<trkpt lon="1.093154" lat="45.994006"><ele>362.0</ele></trkpt>
<trkpt lon="1.094174" lat="45.992887"><ele>358.25</ele></trkpt>
<trkpt lon="1.094856" lat="45.992133"><ele>354.25</ele></trkpt>
<trkpt lon="1.094967" lat="45.992034"><ele>353.5</ele></trkpt>
<trkpt lon="1.094545" lat="45.992098"><ele>354.0</ele></trkpt>
<trkpt lon="1.094105" lat="45.992102"><ele>353.0</ele></trkpt>
<trkpt lon="1.093639" lat="45.992035"><ele>354.0</ele></trkpt>
<trkpt lon="1.093279" lat="45.991994"><ele>354.25</ele></trkpt>
<trkpt lon="1.092790" lat="45.992009"><ele>354.0</ele></trkpt>
<trkpt lon="1.091922" lat="45.991796"><ele>353.0</ele></trkpt>
<trkpt lon="1.087989" lat="45.990928"><ele>360.25</ele></trkpt>
<trkpt lon="1.086085" lat="45.990425"><ele>360.0</ele></trkpt>
<trkpt lon="1.084846" lat="45.989925"><ele>357.5</ele></trkpt>
<trkpt lon="1.083908" lat="45.989210"><ele>354.0</ele></trkpt>
<trkpt lon="1.082507" lat="45.987484"><ele>345.75</ele></trkpt>
<trkpt lon="1.082507" lat="45.987413"><ele>345.5</ele></trkpt>
<trkpt lon="1.082529" lat="45.986791"><ele>343.25</ele></trkpt>
<trkpt lon="1.082760" lat="45.985892"><ele>341.75</ele></trkpt>
<trkpt lon="1.082899" lat="45.985307"><ele>344.25</ele></trkpt>
<trkpt lon="1.082808" lat="45.985035"><ele>345.0</ele></trkpt>
<trkpt lon="1.082352" lat="45.984677"><ele>346.75</ele></trkpt>
<trkpt lon="1.081869" lat="45.984457"><ele>348.75</ele></trkpt>
<trkpt lon="1.081531" lat="45.984368"><ele>349.75</ele></trkpt>
<trkpt lon="1.081306" lat="45.984155"><ele>350.75</ele></trkpt>
<trkpt lon="1.080667" lat="45.983287"><ele>351.75</ele></trkpt>
<trkpt lon="1.080126" lat="45.982918"><ele>353.0</ele></trkpt>
<trkpt lon="1.079128" lat="45.982170"><ele>346.5</ele></trkpt>
<trkpt lon="1.078785" lat="45.982012"><ele>345.0</ele></trkpt>
<trkpt lon="1.078050" lat="45.981822"><ele>344.0</ele></trkpt>
<trkpt lon="1.076810" lat="45.981423"><ele>344.0</ele></trkpt>
<trkpt lon="1.076271" lat="45.981185"><ele>344.0</ele></trkpt>
<trkpt lon="1.075879" lat="45.980929"><ele>345.5</ele></trkpt>
<trkpt lon="1.076760" lat="45.980719"><ele>339.0</ele></trkpt>
<trkpt lon="1.076811" lat="45.980596"><ele>338.5</ele></trkpt>
<trkpt lon="1.076440" lat="45.979872"><ele>336.75</ele></trkpt>
<trkpt lon="1.076448" lat="45.979252"><ele>331.75</ele></trkpt>
<trkpt lon="1.076544" lat="45.978789"><ele>329.25</ele></trkpt>
<trkpt lon="1.076639" lat="45.978429"><ele>329.0</ele></trkpt>
<trkpt lon="1.077301" lat="45.977830"><ele>325.25</ele></trkpt>
<trkpt lon="1.078364" lat="45.976605"><ele>317.75</ele></trkpt>
<trkpt lon="1.078508" lat="45.976040"><ele>321.25</ele></trkpt>
<trkpt lon="1.078274" lat="45.975410"><ele>326.25</ele></trkpt>
<trkpt lon="1.078274" lat="45.974892"><ele>330.0</ele></trkpt>
<trkpt lon="1.078527" lat="45.974457"><ele>330.75</ele></trkpt>
<trkpt lon="1.078127" lat="45.973336"><ele>332.5</ele></trkpt>
<trkpt lon="1.078162" lat="45.973010"><ele>332.75</ele></trkpt>
<trkpt lon="1.078183" lat="45.972809"><ele>332.0</ele></trkpt>
<trkpt lon="1.077714" lat="45.971552"><ele>325.5</ele></trkpt>
<trkpt lon="1.077677" lat="45.971403"><ele>325.0</ele></trkpt>
<trkpt lon="1.077709" lat="45.971336"><ele>324.75</ele></trkpt>
<trkpt lon="1.078412" lat="45.970855"><ele>323.0</ele></trkpt>
<trkpt lon="1.078156" lat="45.970425"><ele>322.0</ele></trkpt>
<trkpt lon="1.078030" lat="45.970392"><ele>322.0</ele></trkpt>
<trkpt lon="1.077979" lat="45.970372"><ele>322.0</ele></trkpt>
<trkpt lon="1.078061" lat="45.970282"><ele>322.0</ele></trkpt>
<trkpt lon="1.077392" lat="45.969254"><ele>320.0</ele></trkpt>
<trkpt lon="1.076822" lat="45.968714"><ele>319.25</ele></trkpt>
<trkpt lon="1.076553" lat="45.968528"><ele>319.5</ele></trkpt>
<trkpt lon="1.074944" lat="45.967730"><ele>318.75</ele></trkpt>
<trkpt lon="1.074568" lat="45.967506"><ele>318.5</ele></trkpt>
<trkpt lon="1.074195" lat="45.967427"><ele>318.75</ele></trkpt>
<trkpt lon="1.072833" lat="45.967352"><ele>317.75</ele></trkpt>
<trkpt lon="1.071545" lat="45.967188"><ele>318.0</ele></trkpt>
<trkpt lon="1.071277" lat="45.967061"><ele>318.0</ele></trkpt>
<trkpt lon="1.070795" lat="45.966707"><ele>317.75</ele></trkpt>
<trkpt lon="1.070644" lat="45.966599"><ele>317.0</ele></trkpt>
<trkpt lon="1.070245" lat="45.966402"><ele>317.75</ele></trkpt>
<trkpt lon="1.069775" lat="45.966278"><ele>317.75</ele></trkpt>
<trkpt lon="1.069344" lat="45.966186"><ele>318.25</ele></trkpt>
<trkpt lon="1.068979" lat="45.966052"><ele>319.0</ele></trkpt>
<trkpt lon="1.068283" lat="45.965891"><ele>321.0</ele></trkpt>
<trkpt lon="1.066964" lat="45.964958"><ele>318.75</ele></trkpt>
<trkpt lon="1.064872" lat="45.963564"><ele>311.5</ele></trkpt>
<trkpt lon="1.064760" lat="45.963458"><ele>311.5</ele></trkpt>
<trkpt lon="1.062318" lat="45.962557"><ele>307.5</ele></trkpt>
<trkpt lon="1.062157" lat="45.962475"><ele>306.75</ele></trkpt>
<trkpt lon="1.062082" lat="45.962415"><ele>306.75</ele></trkpt>
<trkpt lon="1.061750" lat="45.962276"><ele>306.0</ele></trkpt>
<trkpt lon="1.061109" lat="45.961936"><ele>305.0</ele></trkpt>
<trkpt lon="1.056242" lat="45.959451"><ele>308.0</ele></trkpt>
<trkpt lon="1.054875" lat="45.958786"><ele>303.0</ele></trkpt>
<trkpt lon="1.054671" lat="45.958665"><ele>302.0</ele></trkpt>
<trkpt lon="1.054637" lat="45.958452"><ele>301.25</ele></trkpt>
<trkpt lon="1.054648" lat="45.958189"><ele>300.75</ele></trkpt>
<trkpt lon="1.054766" lat="45.957042"><ele>300.25</ele></trkpt>
<trkpt lon="1.055055" lat="45.956831"><ele>302.0</ele></trkpt>
<trkpt lon="1.055242" lat="45.956743"><ele>302.75</ele></trkpt>
<trkpt lon="1.055463" lat="45.956696"><ele>303.5</ele></trkpt>
<trkpt lon="1.056206" lat="45.956349"><ele>305.25</ele></trkpt>
<trkpt lon="1.056619" lat="45.956196"><ele>307.5</ele></trkpt>
<trkpt lon="1.057364" lat="45.955797"><ele>312.75</ele></trkpt>
<trkpt lon="1.057439" lat="45.955599"><ele>312.75</ele></trkpt>
<trkpt lon="1.057080" lat="45.955222"><ele>311.25</ele></trkpt>
<trkpt lon="1.056785" lat="45.954556"><ele>310.0</ele></trkpt>
<trkpt lon="1.056652" lat="45.953892"><ele>310.0</ele></trkpt>
<trkpt lon="1.056436" lat="45.953298"><ele>310.5</ele></trkpt>
<trkpt lon="1.056142" lat="45.952605"><ele>307.0</ele></trkpt>
<trkpt lon="1.056052" lat="45.952485"><ele>305.75</ele></trkpt>
<trkpt lon="1.055864" lat="45.952320"><ele>303.25</ele></trkpt>
<trkpt lon="1.055753" lat="45.952164"><ele>301.5</ele></trkpt>
<trkpt lon="1.055540" lat="45.951735"><ele>299.5</ele></trkpt>
<trkpt lon="1.055422" lat="45.951269"><ele>298.0</ele></trkpt>
<trkpt lon="1.055525" lat="45.950981"><ele>296.5</ele></trkpt>
<trkpt lon="1.055550" lat="45.950874"><ele>296.0</ele></trkpt>
<trkpt lon="1.055170" lat="45.950643"><ele>298.0</ele></trkpt>
<trkpt lon="1.054259" lat="45.950246"><ele>298.75</ele></trkpt>
<trkpt lon="1.053844" lat="45.950030"><ele>298.0</ele></trkpt>
<trkpt lon="1.053400" lat="45.949919"><ele>297.5</ele></trkpt>
<trkpt lon="1.052825" lat="45.949840"><ele>297.75</ele></trkpt>
<trkpt lon="1.052680" lat="45.949832"><ele>298.0</ele></trkpt>
<trkpt lon="1.051914" lat="45.949630"><ele>298.5</ele></trkpt>
<trkpt lon="1.051446" lat="45.949452"><ele>298.0</ele></trkpt>
<trkpt lon="1.050992" lat="45.949413"><ele>297.75</ele></trkpt>
<trkpt lon="1.050817" lat="45.949423"><ele>297.75</ele></trkpt>
<trkpt lon="1.050317" lat="45.949535"><ele>297.0</ele></trkpt>
<trkpt lon="1.050010" lat="45.949622"><ele>296.0</ele></trkpt>
<trkpt lon="1.049777" lat="45.949697"><ele>295.0</ele></trkpt>
<trkpt lon="1.049466" lat="45.949744"><ele>295.0</ele></trkpt>
<trkpt lon="1.049348" lat="45.949744"><ele>294.5</ele></trkpt>
<trkpt lon="1.047604" lat="45.949737"><ele>290.25</ele></trkpt>
<trkpt lon="1.047227" lat="45.949664"><ele>290.0</ele></trkpt>
<trkpt lon="1.047007" lat="45.949571"><ele>290.0</ele></trkpt>
<trkpt lon="1.045579" lat="45.949341"><ele>291.0</ele></trkpt>
<trkpt lon="1.044637" lat="45.949137"><ele>292.0</ele></trkpt>
<trkpt lon="1.044383" lat="45.949107"><ele>291.5</ele></trkpt>
<trkpt lon="1.044142" lat="45.949100"><ele>289.75</ele></trkpt>
<trkpt lon="1.043933" lat="45.949114"><ele>288.25</ele></trkpt>
<trkpt lon="1.043635" lat="45.949161"><ele>286.0</ele></trkpt>
<trkpt lon="1.043059" lat="45.949212"><ele>279.75</ele></trkpt>
<trkpt lon="1.042984" lat="45.949243"><ele>278.75</ele></trkpt>
<trkpt lon="1.042944" lat="45.949335"><ele>278.0</ele></trkpt>
<trkpt lon="1.042910" lat="45.949454"><ele>277.25</ele></trkpt>
<trkpt lon="1.042849" lat="45.949506"><ele>276.5</ele></trkpt>
<trkpt lon="1.041589" lat="45.948835"><ele>275.75</ele></trkpt>
<trkpt lon="1.041490" lat="45.948832"><ele>276.5</ele></trkpt>
<trkpt lon="1.041402" lat="45.948912"><ele>277.0</ele></trkpt>
<trkpt lon="1.041376" lat="45.948991"><ele>277.75</ele></trkpt>
<trkpt lon="1.041346" lat="45.949134"><ele>279.0</ele></trkpt>
<trkpt lon="1.041219" lat="45.949225"><ele>281.0</ele></trkpt>
<trkpt lon="1.041096" lat="45.949265"><ele>282.25</ele></trkpt>
<trkpt lon="1.040962" lat="45.949279"><ele>282.5</ele></trkpt>
<trkpt lon="1.040743" lat="45.949269"><ele>283.0</ele></trkpt>
<trkpt lon="1.040246" lat="45.949200"><ele>284.0</ele></trkpt>
<trkpt lon="1.039014" lat="45.949115"><ele>285.25</ele></trkpt>
<trkpt lon="1.038734" lat="45.949030"><ele>285.25</ele></trkpt>
<trkpt lon="1.038443" lat="45.948851"><ele>285.25</ele></trkpt>
<trkpt lon="1.038086" lat="45.948677"><ele>285.0</ele></trkpt>
<trkpt lon="1.037318" lat="45.948437"><ele>285.5</ele></trkpt>
<trkpt lon="1.037151" lat="45.948413"><ele>285.75</ele></trkpt>
<trkpt lon="1.037067" lat="45.948414"><ele>285.75</ele></trkpt>
<trkpt lon="1.035647" lat="45.948429"><ele>289.0</ele></trkpt>
<trkpt lon="1.035313" lat="45.946541"><ele>284.75</ele></trkpt>
<trkpt lon="1.035202" lat="45.945610"><ele>283.0</ele></trkpt>
<trkpt lon="1.035269" lat="45.944658"><ele>282.0</ele></trkpt>
<trkpt lon="1.035209" lat="45.943827"><ele>282.75</ele></trkpt>
<trkpt lon="1.035202" lat="45.943741"><ele>282.5</ele></trkpt>
<trkpt lon="1.035158" lat="45.943485"><ele>282.5</ele></trkpt>
<trkpt lon="1.035156" lat="45.943078"><ele>282.5</ele></trkpt>
<trkpt lon="1.035257" lat="45.942150"><ele>283.0</ele></trkpt>
<trkpt lon="1.035228" lat="45.941324"><ele>283.75</ele></trkpt>
<trkpt lon="1.035197" lat="45.941014"><ele>284.0</ele></trkpt>
<trkpt lon="1.035070" lat="45.940153"><ele>284.0</ele></trkpt>
<trkpt lon="1.035061" lat="45.940134"><ele>284.0</ele></trkpt>
<trkpt lon="1.034942" lat="45.938467"><ele>285.5</ele></trkpt>
<trkpt lon="1.035065" lat="45.938283"><ele>286.0</ele></trkpt>
<trkpt lon="1.035123" lat="45.938229"><ele>286.0</ele></trkpt>
<trkpt lon="1.035248" lat="45.938207"><ele>286.0</ele></trkpt>
<trkpt lon="1.035145" lat="45.937960"><ele>286.0</ele></trkpt>
<trkpt lon="1.035020" lat="45.937491"><ele>287.75</ele></trkpt>
<trkpt lon="1.034954" lat="45.937142"><ele>286.75</ele></trkpt>
<trkpt lon="1.034957" lat="45.937050"><ele>286.25</ele></trkpt>
<trkpt lon="1.034981" lat="45.936958"><ele>286.0</ele></trkpt>
<trkpt lon="1.035307" lat="45.936143"><ele>286.75</ele></trkpt>
<trkpt lon="1.035382" lat="45.935911"><ele>287.25</ele></trkpt>
<trkpt lon="1.035431" lat="45.935637"><ele>287.25</ele></trkpt>
<trkpt lon="1.035429" lat="45.935375"><ele>287.25</ele></trkpt>
<trkpt lon="1.035036" lat="45.935394"><ele>288.0</ele></trkpt>
<trkpt lon="1.034723" lat="45.935338"><ele>288.0</ele></trkpt>
<trkpt lon="1.034594" lat="45.935319"><ele>287.5</ele></trkpt>
<trkpt lon="1.034474" lat="45.935313"><ele>287.0</ele></trkpt>
<trkpt lon="1.034348" lat="45.935321"><ele>286.5</ele></trkpt>
<trkpt lon="1.034152" lat="45.935362"><ele>286.25</ele></trkpt>
<trkpt lon="1.033729" lat="45.935342"><ele>285.0</ele></trkpt>
<trkpt lon="1.033749" lat="45.935096"><ele>284.5</ele></trkpt>
<trkpt lon="1.033725" lat="45.935001"><ele>284.25</ele></trkpt>
<trkpt lon="1.033672" lat="45.934912"><ele>283.75</ele></trkpt>
<trkpt lon="1.033384" lat="45.934650"><ele>282.0</ele></trkpt>
<trkpt lon="1.033333" lat="45.934576"><ele>281.75</ele></trkpt>
<trkpt lon="1.033299" lat="45.934494"><ele>281.75</ele></trkpt>
<trkpt lon="1.033287" lat="45.934292"><ele>280.5</ele></trkpt>
<trkpt lon="1.033267" lat="45.934048"><ele>279.75</ele></trkpt>
<trkpt lon="1.033251" lat="45.933974"><ele>279.5</ele></trkpt>
<trkpt lon="1.033218" lat="45.933909"><ele>279.5</ele></trkpt>
<trkpt lon="1.033165" lat="45.933845"><ele>279.25</ele></trkpt>
<trkpt lon="1.033044" lat="45.933769"><ele>278.75</ele></trkpt>
<trkpt lon="1.032860" lat="45.933933"><ele>278.0</ele></trkpt>
  </trkseg></trk></gpx>
