<?xml version="1.0" encoding="UTF-8"?>
<gpx version="1.1" creator="compostel-brouter" xmlns="http://www.topografix.com/GPX/1/1">
  <metadata><name>FR-26-Limoges</name></metadata>
  <trk><name>FR-26-Limoges</name><trkseg>
<trkpt lon="1.032860" lat="45.933933"><ele>278.25</ele></trkpt>
<trkpt lon="1.033044" lat="45.933769"><ele>278.75</ele></trkpt>
<trkpt lon="1.033165" lat="45.933845"><ele>279.25</ele></trkpt>
<trkpt lon="1.033218" lat="45.933909"><ele>279.5</ele></trkpt>
<trkpt lon="1.033251" lat="45.933974"><ele>279.5</ele></trkpt>
<trkpt lon="1.033267" lat="45.934048"><ele>279.75</ele></trkpt>
<trkpt lon="1.033287" lat="45.934292"><ele>280.5</ele></trkpt>
<trkpt lon="1.033795" lat="45.934317"><ele>283.0</ele></trkpt>
<trkpt lon="1.033948" lat="45.934271"><ele>283.5</ele></trkpt>
<trkpt lon="1.034001" lat="45.934189"><ele>283.25</ele></trkpt>
<trkpt lon="1.034011" lat="45.934087"><ele>283.25</ele></trkpt>
<trkpt lon="1.034081" lat="45.934046"><ele>283.5</ele></trkpt>
<trkpt lon="1.034360" lat="45.934040"><ele>284.5</ele></trkpt>
<trkpt lon="1.034545" lat="45.934003"><ele>285.0</ele></trkpt>
<trkpt lon="1.034781" lat="45.933922"><ele>285.25</ele></trkpt>
<trkpt lon="1.034921" lat="45.933902"><ele>285.75</ele></trkpt>
<trkpt lon="1.034930" lat="45.933949"><ele>285.75</ele></trkpt>
<trkpt lon="1.035015" lat="45.934142"><ele>286.75</ele></trkpt>
<trkpt lon="1.035241" lat="45.934460"><ele>287.75</ele></trkpt>
<trkpt lon="1.035882" lat="45.934057"><ele>284.25</ele></trkpt>
<trkpt lon="1.036519" lat="45.933697"><ele>280.75</ele></trkpt>
<trkpt lon="1.037170" lat="45.933230"><ele>277.25</ele></trkpt>
<trkpt lon="1.037638" lat="45.932905"><ele>274.75</ele></trkpt>
<trkpt lon="1.038579" lat="45.932186"><ele>271.75</ele></trkpt>
<trkpt lon="1.039230" lat="45.931669"><ele>269.0</ele></trkpt>
<trkpt lon="1.039605" lat="45.931381"><ele>268.75</ele></trkpt>
<trkpt lon="1.039658" lat="45.931516"><ele>269.25</ele></trkpt>
<trkpt lon="1.039739" lat="45.931933"><ele>270.0</ele></trkpt>
<trkpt lon="1.039786" lat="45.932181"><ele>271.0</ele></trkpt>
<trkpt lon="1.039824" lat="45.932378"><ele>271.25</ele></trkpt>
<trkpt lon="1.039878" lat="45.932495"><ele>271.5</ele></trkpt>
<trkpt lon="1.039957" lat="45.932589"><ele>271.75</ele></trkpt>
<trkpt lon="1.040080" lat="45.932668"><ele>272.0</ele></trkpt>
<trkpt lon="1.040217" lat="45.932710"><ele>272.0</ele></trkpt>
<trkpt lon="1.040367" lat="45.932725"><ele>272.0</ele></trkpt>
<trkpt lon="1.040521" lat="45.932702"><ele>272.0</ele></trkpt>
<trkpt lon="1.040654" lat="45.932663"><ele>271.75</ele></trkpt>
<trkpt lon="1.040791" lat="45.932588"><ele>271.25</ele></trkpt>
<trkpt lon="1.040851" lat="45.932510"><ele>271.0</ele></trkpt>
<trkpt lon="1.040905" lat="45.932374"><ele>271.25</ele></trkpt>
<trkpt lon="1.040945" lat="45.931990"><ele>271.0</ele></trkpt>
<trkpt lon="1.040920" lat="45.931779"><ele>271.0</ele></trkpt>
<trkpt lon="1.040737" lat="45.931220"><ele>268.25</ele></trkpt>
<trkpt lon="1.040711" lat="45.931004"><ele>267.25</ele></trkpt>
<trkpt lon="1.040731" lat="45.930763"><ele>266.5</ele></trkpt>
<trkpt lon="1.041027" lat="45.930438"><ele>266.25</ele></trkpt>
<trkpt lon="1.041247" lat="45.930312"><ele>265.5</ele></trkpt>
<trkpt lon="1.041753" lat="45.930139"><ele>263.75</ele></trkpt>
<trkpt lon="1.042549" lat="45.929899"><ele>260.5</ele></trkpt>
<trkpt lon="1.043533" lat="45.929539"><ele>252.25</ele></trkpt>
<trkpt lon="1.043693" lat="45.929516"><ele>251.25</ele></trkpt>
<trkpt lon="1.043914" lat="45.929530"><ele>250.75</ele></trkpt>
<trkpt lon="1.044911" lat="45.929711"><ele>248.75</ele></trkpt>
<trkpt lon="1.045184" lat="45.929748"><ele>248.75</ele></trkpt>
<trkpt lon="1.045283" lat="45.929889"><ele>249.0</ele></trkpt>
<trkpt lon="1.045651" lat="45.930206"><ele>250.75</ele></trkpt>
<trkpt lon="1.046187" lat="45.930668"><ele>254.25</ele></trkpt>
<trkpt lon="1.046396" lat="45.930635"><ele>255.0</ele></trkpt>
<trkpt lon="1.046908" lat="45.930408"><ele>257.75</ele></trkpt>
<trkpt lon="1.047384" lat="45.930233"><ele>259.0</ele></trkpt>
<trkpt lon="1.047909" lat="45.930073"><ele>257.75</ele></trkpt>
<trkpt lon="1.048506" lat="45.929953"><ele>257.0</ele></trkpt>
<trkpt lon="1.048636" lat="45.929953"><ele>257.25</ele></trkpt>
<trkpt lon="1.048740" lat="45.930007"><ele>258.0</ele></trkpt>
<trkpt lon="1.049520" lat="45.930906"><ele>261.75</ele></trkpt>
<trkpt lon="1.050737" lat="45.931375"><ele>257.0</ele></trkpt>
<trkpt lon="1.050841" lat="45.931399"><ele>256.75</ele></trkpt>
<trkpt lon="1.050944" lat="45.931399"><ele>256.5</ele></trkpt>
<trkpt lon="1.052787" lat="45.930958"><ele>252.75</ele></trkpt>
<trkpt lon="1.052849" lat="45.930884"><ele>252.5</ele></trkpt>
<trkpt lon="1.053170" lat="45.930846"><ele>251.5</ele></trkpt>
<trkpt lon="1.053497" lat="45.930924"><ele>250.25</ele></trkpt>
<trkpt lon="1.054932" lat="45.930944"><ele>250.25</ele></trkpt>
<trkpt lon="1.055382" lat="45.930858"><ele>251.0</ele></trkpt>
<trkpt lon="1.056018" lat="45.930312"><ele>250.0</ele></trkpt>
<trkpt lon="1.056812" lat="45.930390"><ele>250.0</ele></trkpt>
<trkpt lon="1.058092" lat="45.930718"><ele>251.5</ele></trkpt>
<trkpt lon="1.058657" lat="45.930815"><ele>254.0</ele></trkpt>
<trkpt lon="1.059014" lat="45.930914"><ele>255.25</ele></trkpt>
<trkpt lon="1.059529" lat="45.930780"><ele>255.5</ele></trkpt>
<trkpt lon="1.059803" lat="45.930797"><ele>255.5</ele></trkpt>
<trkpt lon="1.060295" lat="45.930939"><ele>255.75</ele></trkpt>
<trkpt lon="1.060531" lat="45.931017"><ele>256.25</ele></trkpt>
<trkpt lon="1.061200" lat="45.930994"><ele>254.0</ele></trkpt>
<trkpt lon="1.061404" lat="45.931030"><ele>252.75</ele></trkpt>
<trkpt lon="1.062135" lat="45.931868"><ele>254.0</ele></trkpt>
<trkpt lon="1.062221" lat="45.932135"><ele>255.25</ele></trkpt>
<trkpt lon="1.062383" lat="45.931978"><ele>252.75</ele></trkpt>
<trkpt lon="1.062570" lat="45.931874"><ele>251.0</ele></trkpt>
<trkpt lon="1.062654" lat="45.931862"><ele>250.25</ele></trkpt>
<trkpt lon="1.062800" lat="45.931842"><ele>249.5</ele></trkpt>
<trkpt lon="1.062890" lat="45.931845"><ele>249.5</ele></trkpt>
<trkpt lon="1.063391" lat="45.931860"><ele>250.0</ele></trkpt>
<trkpt lon="1.063561" lat="45.931850"><ele>250.25</ele></trkpt>
<trkpt lon="1.063670" lat="45.931793"><ele>250.25</ele></trkpt>
<trkpt lon="1.063781" lat="45.931688"><ele>250.25</ele></trkpt>
<trkpt lon="1.063792" lat="45.931380"><ele>250.0</ele></trkpt>
<trkpt lon="1.063828" lat="45.931003"><ele>250.0</ele></trkpt>
<trkpt lon="1.063520" lat="45.929303"><ele>256.0</ele></trkpt>
<trkpt lon="1.063547" lat="45.929053"><ele>258.0</ele></trkpt>
<trkpt lon="1.063703" lat="45.928854"><ele>259.75</ele></trkpt>
<trkpt lon="1.064883" lat="45.927926"><ele>267.0</ele></trkpt>
<trkpt lon="1.065169" lat="45.927739"><ele>267.0</ele></trkpt>
<trkpt lon="1.065538" lat="45.927539"><ele>267.75</ele></trkpt>
<trkpt lon="1.065927" lat="45.927386"><ele>268.25</ele></trkpt>
<trkpt lon="1.066659" lat="45.927176"><ele>268.0</ele></trkpt>
<trkpt lon="1.066932" lat="45.927050"><ele>268.0</ele></trkpt>
<trkpt lon="1.068860" lat="45.927345"><ele>270.75</ele></trkpt>
<trkpt lon="1.069112" lat="45.927385"><ele>271.75</ele></trkpt>
<trkpt lon="1.069610" lat="45.927521"><ele>273.0</ele></trkpt>
<trkpt lon="1.069827" lat="45.927555"><ele>273.0</ele></trkpt>
<trkpt lon="1.069956" lat="45.927577"><ele>273.0</ele></trkpt>
<trkpt lon="1.070098" lat="45.927602"><ele>273.0</ele></trkpt>
<trkpt lon="1.070266" lat="45.927631"><ele>273.0</ele></trkpt>
<trkpt lon="1.070555" lat="45.927614"><ele>272.25</ele></trkpt>
<trkpt lon="1.071362" lat="45.927496"><ele>270.75</ele></trkpt>
<trkpt lon="1.072054" lat="45.927282"><ele>269.0</ele></trkpt>
<trkpt lon="1.072794" lat="45.927053"><ele>267.25</ele></trkpt>
<trkpt lon="1.073113" lat="45.926949"><ele>265.75</ele></trkpt>
<trkpt lon="1.075589" lat="45.925618"><ele>273.5</ele></trkpt>
<trkpt lon="1.076171" lat="45.925350"><ele>272.75</ele></trkpt>
<trkpt lon="1.076912" lat="45.925017"><ele>272.0</ele></trkpt>
<trkpt lon="1.077135" lat="45.924894"><ele>272.25</ele></trkpt>
<trkpt lon="1.078064" lat="45.924188"><ele>271.75</ele></trkpt>
<trkpt lon="1.078196" lat="45.924053"><ele>272.0</ele></trkpt>
<trkpt lon="1.078269" lat="45.923883"><ele>272.0</ele></trkpt>
<trkpt lon="1.078282" lat="45.923699"><ele>272.5</ele></trkpt>
<trkpt lon="1.078229" lat="45.923007"><ele>273.0</ele></trkpt>
<trkpt lon="1.078094" lat="45.921513"><ele>272.75</ele></trkpt>
<trkpt lon="1.078107" lat="45.921292"><ele>272.75</ele></trkpt>
<trkpt lon="1.078150" lat="45.921140"><ele>272.75</ele></trkpt>
<trkpt lon="1.078880" lat="45.919612"><ele>275.75</ele></trkpt>
<trkpt lon="1.078943" lat="45.919437"><ele>276.0</ele></trkpt>
<trkpt lon="1.078887" lat="45.918373"><ele>276.0</ele></trkpt>
<trkpt lon="1.078907" lat="45.917947"><ele>275.5</ele></trkpt>
<trkpt lon="1.078976" lat="45.917766"><ele>274.5</ele></trkpt>
<trkpt lon="1.079102" lat="45.917600"><ele>274.5</ele></trkpt>
<trkpt lon="1.079353" lat="45.917418"><ele>275.0</ele></trkpt>
<trkpt lon="1.080840" lat="45.916600"><ele>273.5</ele></trkpt>
<trkpt lon="1.081183" lat="45.916379"><ele>273.0</ele></trkpt>
<trkpt lon="1.081458" lat="45.916166"><ele>273.0</ele></trkpt>
<trkpt lon="1.081620" lat="45.916007"><ele>273.25</ele></trkpt>
<trkpt lon="1.081808" lat="45.915786"><ele>273.5</ele></trkpt>
<trkpt lon="1.082072" lat="45.915349"><ele>273.75</ele></trkpt>
<trkpt lon="1.082667" lat="45.914271"><ele>274.75</ele></trkpt>
<trkpt lon="1.082780" lat="45.914018"><ele>274.75</ele></trkpt>
<trkpt lon="1.082856" lat="45.913804"><ele>275.0</ele></trkpt>
<trkpt lon="1.082941" lat="45.913386"><ele>275.25</ele></trkpt>
<trkpt lon="1.083143" lat="45.911882"><ele>277.0</ele></trkpt>
<trkpt lon="1.083477" lat="45.909590"><ele>280.0</ele></trkpt>
<trkpt lon="1.083559" lat="45.909441"><ele>280.0</ele></trkpt>
<trkpt lon="1.083642" lat="45.909358"><ele>280.0</ele></trkpt>
<trkpt lon="1.083797" lat="45.909289"><ele>280.0</ele></trkpt>
<trkpt lon="1.084002" lat="45.909250"><ele>280.25</ele></trkpt>
<trkpt lon="1.084273" lat="45.909261"><ele>280.5</ele></trkpt>
<trkpt lon="1.085116" lat="45.909340"><ele>281.0</ele></trkpt>
<trkpt lon="1.085387" lat="45.909356"><ele>281.25</ele></trkpt>
<trkpt lon="1.085611" lat="45.909317"><ele>281.25</ele></trkpt>
<trkpt lon="1.085856" lat="45.909236"><ele>281.75</ele></trkpt>
<trkpt lon="1.087799" lat="45.908321"><ele>292.0</ele></trkpt>
<trkpt lon="1.089815" lat="45.907397"><ele>305.5</ele></trkpt>
<trkpt lon="1.090585" lat="45.907036"><ele>307.5</ele></trkpt>
<trkpt lon="1.090766" lat="45.906985"><ele>307.75</ele></trkpt>
<trkpt lon="1.090948" lat="45.906964"><ele>308.25</ele></trkpt>
<trkpt lon="1.091503" lat="45.907013"><ele>310.0</ele></trkpt>
<trkpt lon="1.091801" lat="45.906990"><ele>311.25</ele></trkpt>
<trkpt lon="1.092315" lat="45.906867"><ele>313.5</ele></trkpt>
<trkpt lon="1.092591" lat="45.906801"><ele>314.75</ele></trkpt>
<trkpt lon="1.092845" lat="45.906760"><ele>315.75</ele></trkpt>
<trkpt lon="1.093106" lat="45.906707"><ele>316.75</ele></trkpt>
<trkpt lon="1.093387" lat="45.906550"><ele>317.5</ele></trkpt>
<trkpt lon="1.094464" lat="45.905785"><ele>319.75</ele></trkpt>
<trkpt lon="1.094596" lat="45.905674"><ele>319.25</ele></trkpt>
<trkpt lon="1.094653" lat="45.905550"><ele>319.0</ele></trkpt>
<trkpt lon="1.094633" lat="45.905440"><ele>319.0</ele></trkpt>
<trkpt lon="1.094540" lat="45.905318"><ele>319.0</ele></trkpt>
<trkpt lon="1.093884" lat="45.904780"><ele>319.0</ele></trkpt>
<trkpt lon="1.099922" lat="45.902958"><ele>305.5</ele></trkpt>
<trkpt lon="1.099976" lat="45.902919"><ele>305.5</ele></trkpt>
<trkpt lon="1.100007" lat="45.902896"><ele>305.25</ele></trkpt>
<trkpt lon="1.100044" lat="45.902914"><ele>305.25</ele></trkpt>
<trkpt lon="1.100058" lat="45.902890"><ele>305.0</ele></trkpt>
<trkpt lon="1.100242" lat="45.901712"><ele>302.0</ele></trkpt>
<trkpt lon="1.100352" lat="45.901109"><ele>300.75</ele></trkpt>
<trkpt lon="1.100422" lat="45.900823"><ele>299.75</ele></trkpt>
<trkpt lon="1.100542" lat="45.900583"><ele>299.75</ele></trkpt>
<trkpt lon="1.100862" lat="45.900619"><ele>301.0</ele></trkpt>
<trkpt lon="1.102601" lat="45.900840"><ele>305.25</ele></trkpt>
<trkpt lon="1.103099" lat="45.900926"><ele>305.5</ele></trkpt>
<trkpt lon="1.103975" lat="45.901177"><ele>307.0</ele></trkpt>
<trkpt lon="1.104845" lat="45.901395"><ele>306.5</ele></trkpt>
<trkpt lon="1.105282" lat="45.901601"><ele>306.75</ele></trkpt>
<trkpt lon="1.105497" lat="45.901706"><ele>307.0</ele></trkpt>
<trkpt lon="1.105690" lat="45.901754"><ele>307.25</ele></trkpt>
<trkpt lon="1.106148" lat="45.901791"><ele>307.5</ele></trkpt>
<trkpt lon="1.106890" lat="45.901739"><ele>309.75</ele></trkpt>
<trkpt lon="1.107076" lat="45.901735"><ele>310.0</ele></trkpt>
<trkpt lon="1.107709" lat="45.901668"><ele>311.5</ele></trkpt>
<trkpt lon="1.108079" lat="45.901713"><ele>312.75</ele></trkpt>
<trkpt lon="1.108169" lat="45.901736"><ele>312.75</ele></trkpt>
<trkpt lon="1.108335" lat="45.901736"><ele>313.0</ele></trkpt>
<trkpt lon="1.110041" lat="45.901194"><ele>316.0</ele></trkpt>
<trkpt lon="1.110435" lat="45.901043"><ele>317.0</ele></trkpt>
<trkpt lon="1.110566" lat="45.901146"><ele>317.0</ele></trkpt>
<trkpt lon="1.111078" lat="45.901687"><ele>316.75</ele></trkpt>
<trkpt lon="1.111248" lat="45.901721"><ele>317.0</ele></trkpt>
<trkpt lon="1.114654" lat="45.901739"><ele>316.25</ele></trkpt>
<trkpt lon="1.117460" lat="45.902001"><ele>313.0</ele></trkpt>
<trkpt lon="1.119220" lat="45.901179"><ele>314.25</ele></trkpt>
<trkpt lon="1.119402" lat="45.901131"><ele>314.75</ele></trkpt>
<trkpt lon="1.119501" lat="45.901169"><ele>315.25</ele></trkpt>
<trkpt lon="1.119636" lat="45.900255"><ele>314.5</ele></trkpt>
<trkpt lon="1.119726" lat="45.899794"><ele>314.25</ele></trkpt>
<trkpt lon="1.120093" lat="45.899445"><ele>314.0</ele></trkpt>
<trkpt lon="1.120304" lat="45.899061"><ele>311.5</ele></trkpt>
<trkpt lon="1.120464" lat="45.898441"><ele>308.25</ele></trkpt>
<trkpt lon="1.121067" lat="45.897388"><ele>311.75</ele></trkpt>
<trkpt lon="1.121557" lat="45.896717"><ele>317.25</ele></trkpt>
<trkpt lon="1.121818" lat="45.896405"><ele>319.75</ele></trkpt>
<trkpt lon="1.121990" lat="45.896060"><ele>320.75</ele></trkpt>
<trkpt lon="1.121646" lat="45.895685"><ele>322.5</ele></trkpt>
<trkpt lon="1.121468" lat="45.895331"><ele>324.25</ele></trkpt>
<trkpt lon="1.121316" lat="45.894926"><ele>324.25</ele></trkpt>
<trkpt lon="1.121185" lat="45.894631"><ele>324.25</ele></trkpt>
<trkpt lon="1.120850" lat="45.894200"><ele>324.0</ele></trkpt>
<trkpt lon="1.120637" lat="45.893949"><ele>324.0</ele></trkpt>
<trkpt lon="1.120304" lat="45.893523"><ele>324.25</ele></trkpt>
<trkpt lon="1.120472" lat="45.893124"><ele>325.75</ele></trkpt>
<trkpt lon="1.120579" lat="45.892812"><ele>326.75</ele></trkpt>
<trkpt lon="1.120733" lat="45.892308"><ele>328.5</ele></trkpt>
<trkpt lon="1.121209" lat="45.891152"><ele>331.25</ele></trkpt>
<trkpt lon="1.121585" lat="45.891289"><ele>331.75</ele></trkpt>
<trkpt lon="1.121775" lat="45.891324"><ele>332.0</ele></trkpt>
<trkpt lon="1.121966" lat="45.891314"><ele>332.25</ele></trkpt>
<trkpt lon="1.123293" lat="45.891086"><ele>333.0</ele></trkpt>
<trkpt lon="1.123972" lat="45.890906"><ele>334.75</ele></trkpt>
<trkpt lon="1.124264" lat="45.890802"><ele>336.0</ele></trkpt>
<trkpt lon="1.126463" lat="45.889916"><ele>339.5</ele></trkpt>
<trkpt lon="1.126966" lat="45.889775"><ele>339.25</ele></trkpt>
<trkpt lon="1.127129" lat="45.889753"><ele>339.0</ele></trkpt>
<trkpt lon="1.129064" lat="45.889789"><ele>336.25</ele></trkpt>
<trkpt lon="1.129272" lat="45.889815"><ele>337.0</ele></trkpt>
<trkpt lon="1.129519" lat="45.889904"><ele>338.5</ele></trkpt>
<trkpt lon="1.129794" lat="45.890158"><ele>340.5</ele></trkpt>
<trkpt lon="1.130118" lat="45.890342"><ele>342.25</ele></trkpt>
<trkpt lon="1.130560" lat="45.890465"><ele>344.25</ele></trkpt>
<trkpt lon="1.132121" lat="45.889632"><ele>348.75</ele></trkpt>
<trkpt lon="1.132206" lat="45.889538"><ele>349.5</ele></trkpt>
<trkpt lon="1.132386" lat="45.889232"><ele>350.0</ele></trkpt>
<trkpt lon="1.132500" lat="45.889088"><ele>349.75</ele></trkpt>
<trkpt lon="1.132363" lat="45.888836"><ele>349.5</ele></trkpt>
<trkpt lon="1.132339" lat="45.888540"><ele>350.5</ele></trkpt>
<trkpt lon="1.132307" lat="45.888396"><ele>350.5</ele></trkpt>
<trkpt lon="1.132330" lat="45.888283"><ele>351.0</ele></trkpt>
<trkpt lon="1.132395" lat="45.888095"><ele>352.25</ele></trkpt>
<trkpt lon="1.132321" lat="45.887893"><ele>352.5</ele></trkpt>
<trkpt lon="1.132003" lat="45.887607"><ele>350.75</ele></trkpt>
<trkpt lon="1.131662" lat="45.887249"><ele>350.75</ele></trkpt>
<trkpt lon="1.131395" lat="45.887029"><ele>351.0</ele></trkpt>
<trkpt lon="1.131181" lat="45.886736"><ele>348.75</ele></trkpt>
<trkpt lon="1.131241" lat="45.886371"><ele>347.75</ele></trkpt>
<trkpt lon="1.131211" lat="45.886229"><ele>347.5</ele></trkpt>
<trkpt lon="1.131205" lat="45.886200"><ele>347.25</ele></trkpt>
<trkpt lon="1.131178" lat="45.886075"><ele>347.0</ele></trkpt>
<trkpt lon="1.131569" lat="45.885335"><ele>349.75</ele></trkpt>
<trkpt lon="1.132979" lat="45.885649"><ele>351.0</ele></trkpt>
<trkpt lon="1.133762" lat="45.885707"><ele>351.75</ele></trkpt>
<trkpt lon="1.134250" lat="45.885576"><ele>352.5</ele></trkpt>
<trkpt lon="1.135009" lat="45.885018"><ele>354.75</ele></trkpt>
<trkpt lon="1.135288" lat="45.884898"><ele>355.25</ele></trkpt>
<trkpt lon="1.135945" lat="45.884911"><ele>355.0</ele></trkpt>
<trkpt lon="1.136724" lat="45.884487"><ele>358.25</ele></trkpt>
<trkpt lon="1.137127" lat="45.884282"><ele>359.25</ele></trkpt>
<trkpt lon="1.137411" lat="45.884237"><ele>359.25</ele></trkpt>
<trkpt lon="1.137913" lat="45.884159"><ele>360.5</ele></trkpt>
<trkpt lon="1.138011" lat="45.884156"><ele>360.75</ele></trkpt>
<trkpt lon="1.138094" lat="45.884165"><ele>361.0</ele></trkpt>
<trkpt lon="1.138183" lat="45.884186"><ele>360.75</ele></trkpt>
<trkpt lon="1.138412" lat="45.884279"><ele>361.25</ele></trkpt>
<trkpt lon="1.139326" lat="45.884797"><ele>364.5</ele></trkpt>
<trkpt lon="1.139224" lat="45.884887"><ele>364.25</ele></trkpt>
<trkpt lon="1.139127" lat="45.885036"><ele>364.0</ele></trkpt>
<trkpt lon="1.138999" lat="45.885257"><ele>363.5</ele></trkpt>
<trkpt lon="1.138981" lat="45.885316"><ele>363.5</ele></trkpt>
<trkpt lon="1.138983" lat="45.885364"><ele>363.5</ele></trkpt>
<trkpt lon="1.139011" lat="45.885426"><ele>363.25</ele></trkpt>
<trkpt lon="1.139138" lat="45.885343"><ele>362.75</ele></trkpt>
<trkpt lon="1.139314" lat="45.885267"><ele>363.0</ele></trkpt>
<trkpt lon="1.139682" lat="45.885141"><ele>363.25</ele></trkpt>
<trkpt lon="1.142362" lat="45.884311"><ele>370.25</ele></trkpt>
<trkpt lon="1.142586" lat="45.884263"><ele>371.25</ele></trkpt>
<trkpt lon="1.143779" lat="45.884087"><ele>372.5</ele></trkpt>
<trkpt lon="1.144516" lat="45.883975"><ele>373.0</ele></trkpt>
<trkpt lon="1.145839" lat="45.883773"><ele>371.25</ele></trkpt>
<trkpt lon="1.147967" lat="45.883449"><ele>368.25</ele></trkpt>
<trkpt lon="1.148405" lat="45.883382"><ele>370.0</ele></trkpt>
<trkpt lon="1.148635" lat="45.883347"><ele>370.75</ele></trkpt>
<trkpt lon="1.148809" lat="45.883298"><ele>372.0</ele></trkpt>
<trkpt lon="1.148934" lat="45.883240"><ele>372.5</ele></trkpt>
<trkpt lon="1.149069" lat="45.883126"><ele>373.0</ele></trkpt>
<trkpt lon="1.150031" lat="45.882151"><ele>376.0</ele></trkpt>
<trkpt lon="1.150170" lat="45.882056"><ele>376.25</ele></trkpt>
<trkpt lon="1.150295" lat="45.881990"><ele>376.5</ele></trkpt>
<trkpt lon="1.150514" lat="45.881943"><ele>377.75</ele></trkpt>
<trkpt lon="1.151269" lat="45.881903"><ele>380.5</ele></trkpt>
<trkpt lon="1.151510" lat="45.881861"><ele>382.0</ele></trkpt>
<trkpt lon="1.151694" lat="45.881778"><ele>383.75</ele></trkpt>
<trkpt lon="1.152883" lat="45.881092"><ele>390.0</ele></trkpt>
<trkpt lon="1.152911" lat="45.880951"><ele>390.75</ele></trkpt>
<trkpt lon="1.153024" lat="45.879992"><ele>395.75</ele></trkpt>
<trkpt lon="1.153072" lat="45.879891"><ele>395.75</ele></trkpt>
<trkpt lon="1.153151" lat="45.879811"><ele>396.0</ele></trkpt>
<trkpt lon="1.153652" lat="45.879466"><ele>396.75</ele></trkpt>
<trkpt lon="1.155067" lat="45.877872"><ele>402.5</ele></trkpt>
<trkpt lon="1.155123" lat="45.877832"><ele>402.75</ele></trkpt>
<trkpt lon="1.155184" lat="45.877813"><ele>402.75</ele></trkpt>
<trkpt lon="1.158253" lat="45.877727"><ele>406.75</ele></trkpt>
<trkpt lon="1.158554" lat="45.877769"><ele>407.75</ele></trkpt>
<trkpt lon="1.161278" lat="45.878826"><ele>409.5</ele></trkpt>
<trkpt lon="1.163210" lat="45.878194"><ele>410.75</ele></trkpt>
<trkpt lon="1.163909" lat="45.877876"><ele>407.25</ele></trkpt>
<trkpt lon="1.164322" lat="45.877690"><ele>406.5</ele></trkpt>
<trkpt lon="1.164480" lat="45.877620"><ele>407.25</ele></trkpt>
<trkpt lon="1.165405" lat="45.877209"><ele>406.25</ele></trkpt>
<trkpt lon="1.166880" lat="45.876615"><ele>407.0</ele></trkpt>
<trkpt lon="1.167109" lat="45.876523"><ele>406.5</ele></trkpt>
<trkpt lon="1.168116" lat="45.876110"><ele>402.75</ele></trkpt>
<trkpt lon="1.169241" lat="45.875550"><ele>402.0</ele></trkpt>
<trkpt lon="1.169477" lat="45.875441"><ele>402.75</ele></trkpt>
<trkpt lon="1.169741" lat="45.875338"><ele>403.5</ele></trkpt>
<trkpt lon="1.171741" lat="45.874604"><ele>405.0</ele></trkpt>
<trkpt lon="1.175514" lat="45.873953"><ele>417.5</ele></trkpt>
<trkpt lon="1.175797" lat="45.873881"><ele>418.75</ele></trkpt>
<trkpt lon="1.177463" lat="45.873436"><ele>424.75</ele></trkpt>
<trkpt lon="1.177622" lat="45.873364"><ele>424.75</ele></trkpt>
<trkpt lon="1.177740" lat="45.873279"><ele>425.0</ele></trkpt>
<trkpt lon="1.177881" lat="45.873143"><ele>425.0</ele></trkpt>
<trkpt lon="1.178228" lat="45.872816"><ele>424.5</ele></trkpt>
<trkpt lon="1.178347" lat="45.872795"><ele>424.75</ele></trkpt>
<trkpt lon="1.178337" lat="45.872623"><ele>424.25</ele></trkpt>
<trkpt lon="1.178415" lat="45.872605"><ele>424.25</ele></trkpt>
<trkpt lon="1.178754" lat="45.872401"><ele>424.0</ele></trkpt>
<trkpt lon="1.179582" lat="45.871995"><ele>424.75</ele></trkpt>
<trkpt lon="1.179618" lat="45.872036"><ele>424.5</ele></trkpt>
<trkpt lon="1.180651" lat="45.873209"><ele>414.5</ele></trkpt>
<trkpt lon="1.180701" lat="45.873279"><ele>413.75</ele></trkpt>
<trkpt lon="1.180878" lat="45.873247"><ele>413.5</ele></trkpt>
<trkpt lon="1.181610" lat="45.873011"><ele>415.0</ele></trkpt>
<trkpt lon="1.182097" lat="45.872832"><ele>414.25</ele></trkpt>
<trkpt lon="1.182557" lat="45.872633"><ele>414.0</ele></trkpt>
<trkpt lon="1.182737" lat="45.872527"><ele>413.25</ele></trkpt>
<trkpt lon="1.182891" lat="45.872395"><ele>412.75</ele></trkpt>
<trkpt lon="1.183141" lat="45.872139"><ele>412.25</ele></trkpt>
<trkpt lon="1.183783" lat="45.871854"><ele>409.75</ele></trkpt>
<trkpt lon="1.183943" lat="45.871804"><ele>409.5</ele></trkpt>
<trkpt lon="1.184342" lat="45.872249"><ele>404.5</ele></trkpt>
<trkpt lon="1.184742" lat="45.872636"><ele>401.75</ele></trkpt>
<trkpt lon="1.185625" lat="45.873352"><ele>396.25</ele></trkpt>
<trkpt lon="1.186276" lat="45.873749"><ele>389.5</ele></trkpt>
<trkpt lon="1.186728" lat="45.873962"><ele>387.25</ele></trkpt>
<trkpt lon="1.187179" lat="45.874157"><ele>385.25</ele></trkpt>
<trkpt lon="1.187853" lat="45.874430"><ele>380.5</ele></trkpt>
<trkpt lon="1.190938" lat="45.875686"><ele>375.75</ele></trkpt>
<trkpt lon="1.191432" lat="45.875829"><ele>376.75</ele></trkpt>
<trkpt lon="1.191889" lat="45.875905"><ele>377.75</ele></trkpt>
<trkpt lon="1.192261" lat="45.875910"><ele>378.25</ele></trkpt>
<trkpt lon="1.192616" lat="45.875887"><ele>379.75</ele></trkpt>
<trkpt lon="1.193019" lat="45.875808"><ele>381.25</ele></trkpt>
<trkpt lon="1.193355" lat="45.875710"><ele>381.5</ele></trkpt>
<trkpt lon="1.194128" lat="45.875425"><ele>380.0</ele></trkpt>
<trkpt lon="1.194573" lat="45.875253"><ele>379.75</ele></trkpt>
<trkpt lon="1.194793" lat="45.875149"><ele>379.75</ele></trkpt>
<trkpt lon="1.195087" lat="45.874914"><ele>380.0</ele></trkpt>
<trkpt lon="1.195175" lat="45.874785"><ele>380.0</ele></trkpt>
<trkpt lon="1.197612" lat="45.874764"><ele>373.75</ele></trkpt>
<trkpt lon="1.197406" lat="45.874187"><ele>370.0</ele></trkpt>
<trkpt lon="1.197232" lat="45.873551"><ele>367.5</ele></trkpt>
<trkpt lon="1.197076" lat="45.873111"><ele>365.25</ele></trkpt>
<trkpt lon="1.197006" lat="45.873010"><ele>364.75</ele></trkpt>
<trkpt lon="1.196912" lat="45.872934"><ele>364.5</ele></trkpt>
<trkpt lon="1.196673" lat="45.872777"><ele>363.75</ele></trkpt>
<trkpt lon="1.196509" lat="45.872625"><ele>364.0</ele></trkpt>
<trkpt lon="1.196494" lat="45.872440"><ele>363.25</ele></trkpt>
<trkpt lon="1.196637" lat="45.872230"><ele>363.0</ele></trkpt>
<trkpt lon="1.196518" lat="45.872286"><ele>363.0</ele></trkpt>
<trkpt lon="1.195803" lat="45.872399"><ele>364.5</ele></trkpt>
<trkpt lon="1.196095" lat="45.871566"><ele>364.0</ele></trkpt>
<trkpt lon="1.195293" lat="45.870932"><ele>373.75</ele></trkpt>
<trkpt lon="1.194998" lat="45.870827"><ele>377.0</ele></trkpt>
<trkpt lon="1.194172" lat="45.870555"><ele>383.0</ele></trkpt>
<trkpt lon="1.193898" lat="45.870435"><ele>384.25</ele></trkpt>
<trkpt lon="1.193603" lat="45.870256"><ele>386.0</ele></trkpt>
<trkpt lon="1.193244" lat="45.869733"><ele>386.25</ele></trkpt>
<trkpt lon="1.193028" lat="45.869576"><ele>385.25</ele></trkpt>
<trkpt lon="1.192935" lat="45.869477"><ele>385.0</ele></trkpt>
<trkpt lon="1.192310" lat="45.868471"><ele>383.5</ele></trkpt>
<trkpt lon="1.191638" lat="45.868636"><ele>384.0</ele></trkpt>
<trkpt lon="1.190379" lat="45.867316"><ele>384.25</ele></trkpt>
<trkpt lon="1.189682" lat="45.866427"><ele>382.25</ele></trkpt>
<trkpt lon="1.189617" lat="45.866229"><ele>381.25</ele></trkpt>
<trkpt lon="1.189660" lat="45.865762"><ele>379.5</ele></trkpt>
<trkpt lon="1.189558" lat="45.865486"><ele>378.0</ele></trkpt>
<trkpt lon="1.189392" lat="45.865146"><ele>377.0</ele></trkpt>
<trkpt lon="1.189424" lat="45.864892"><ele>377.75</ele></trkpt>
<trkpt lon="1.189633" lat="45.864462"><ele>378.25</ele></trkpt>
<trkpt lon="1.190272" lat="45.863782"><ele>376.5</ele></trkpt>
<trkpt lon="1.190288" lat="45.863327"><ele>373.75</ele></trkpt>
<trkpt lon="1.190284" lat="45.862901"><ele>371.25</ele></trkpt>
<trkpt lon="1.190477" lat="45.862517"><ele>371.0</ele></trkpt>
<trkpt lon="1.191298" lat="45.861885"><ele>367.75</ele></trkpt>
<trkpt lon="1.192226" lat="45.861459"><ele>362.5</ele></trkpt>
<trkpt lon="1.192816" lat="45.861236"><ele>360.75</ele></trkpt>
<trkpt lon="1.193703" lat="45.861168"><ele>361.0</ele></trkpt>
<trkpt lon="1.193780" lat="45.861148"><ele>361.25</ele></trkpt>
<trkpt lon="1.193869" lat="45.861067"><ele>362.0</ele></trkpt>
<trkpt lon="1.193990" lat="45.860893"><ele>362.0</ele></trkpt>
<trkpt lon="1.194461" lat="45.860141"><ele>361.25</ele></trkpt>
<trkpt lon="1.194283" lat="45.859909"><ele>363.0</ele></trkpt>
<trkpt lon="1.193537" lat="45.859423"><ele>365.0</ele></trkpt>
<trkpt lon="1.193486" lat="45.859390"><ele>365.25</ele></trkpt>
<trkpt lon="1.193378" lat="45.859288"><ele>365.25</ele></trkpt>
<trkpt lon="1.193269" lat="45.859044"><ele>365.75</ele></trkpt>
<trkpt lon="1.193325" lat="45.858760"><ele>366.0</ele></trkpt>
<trkpt lon="1.193454" lat="45.858482"><ele>365.25</ele></trkpt>
<trkpt lon="1.193442" lat="45.858364"><ele>365.0</ele></trkpt>
<trkpt lon="1.193478" lat="45.858359"><ele>365.0</ele></trkpt>
<trkpt lon="1.193509" lat="45.858347"><ele>365.0</ele></trkpt>
<trkpt lon="1.193532" lat="45.858328"><ele>365.0</ele></trkpt>
<trkpt lon="1.193545" lat="45.858305"><ele>365.0</ele></trkpt>
<trkpt lon="1.193547" lat="45.858279"><ele>365.0</ele></trkpt>
<trkpt lon="1.193536" lat="45.858255"><ele>365.0</ele></trkpt>
<trkpt lon="1.193514" lat="45.858235"><ele>365.0</ele></trkpt>
<trkpt lon="1.193681" lat="45.858094"><ele>364.5</ele></trkpt>
<trkpt lon="1.193877" lat="45.858030"><ele>364.0</ele></trkpt>
<trkpt lon="1.194378" lat="45.857899"><ele>361.75</ele></trkpt>
<trkpt lon="1.194998" lat="45.857752"><ele>359.0</ele></trkpt>
<trkpt lon="1.195326" lat="45.857620"><ele>356.5</ele></trkpt>
<trkpt lon="1.197034" lat="45.857560"><ele>345.5</ele></trkpt>
<trkpt lon="1.197410" lat="45.857534"><ele>342.75</ele></trkpt>
<trkpt lon="1.198183" lat="45.857331"><ele>335.25</ele></trkpt>
<trkpt lon="1.198304" lat="45.857273"><ele>335.0</ele></trkpt>
<trkpt lon="1.198472" lat="45.857181"><ele>335.75</ele></trkpt>
<trkpt lon="1.198508" lat="45.857070"><ele>335.5</ele></trkpt>
<trkpt lon="1.198517" lat="45.856879"><ele>335.0</ele></trkpt>
<trkpt lon="1.198555" lat="45.856719"><ele>334.75</ele></trkpt>
<trkpt lon="1.198646" lat="45.856593"><ele>334.25</ele></trkpt>
<trkpt lon="1.198757" lat="45.856492"><ele>333.75</ele></trkpt>
<trkpt lon="1.198908" lat="45.856390"><ele>333.0</ele></trkpt>
<trkpt lon="1.200031" lat="45.855974"><ele>329.75</ele></trkpt>
<trkpt lon="1.202073" lat="45.855425"><ele>327.25</ele></trkpt>
<trkpt lon="1.202341" lat="45.855306"><ele>326.5</ele></trkpt>
<trkpt lon="1.202583" lat="45.855074"><ele>326.75</ele></trkpt>
<trkpt lon="1.203092" lat="45.854611"><ele>327.0</ele></trkpt>
<trkpt lon="1.203391" lat="45.854182"><ele>329.5</ele></trkpt>
<trkpt lon="1.203531" lat="45.854347"><ele>328.75</ele></trkpt>
<trkpt lon="1.204922" lat="45.853922"><ele>326.0</ele></trkpt>
<trkpt lon="1.205594" lat="45.853922"><ele>327.25</ele></trkpt>
<trkpt lon="1.205728" lat="45.853944"><ele>327.75</ele></trkpt>
<trkpt lon="1.206080" lat="45.854000"><ele>328.25</ele></trkpt>
<trkpt lon="1.206603" lat="45.854065"><ele>329.5</ele></trkpt>
<trkpt lon="1.207201" lat="45.854026"><ele>330.25</ele></trkpt>
<trkpt lon="1.207649" lat="45.853753"><ele>329.5</ele></trkpt>
<trkpt lon="1.208544" lat="45.853391"><ele>326.0</ele></trkpt>
<trkpt lon="1.209741" lat="45.852660"><ele>318.0</ele></trkpt>
<trkpt lon="1.210657" lat="45.852140"><ele>312.5</ele></trkpt>
<trkpt lon="1.211342" lat="45.852430"><ele>324.5</ele></trkpt>
<trkpt lon="1.211948" lat="45.852067"><ele>318.75</ele></trkpt>
<trkpt lon="1.212251" lat="45.852175"><ele>319.75</ele></trkpt>
<trkpt lon="1.212298" lat="45.851921"><ele>319.25</ele></trkpt>
<trkpt lon="1.212352" lat="45.851699"><ele>319.25</ele></trkpt>
<trkpt lon="1.212504" lat="45.851508"><ele>319.25</ele></trkpt>
<trkpt lon="1.215411" lat="45.851750"><ele>336.25</ele></trkpt>
<trkpt lon="1.215459" lat="45.851913"><ele>337.0</ele></trkpt>
<trkpt lon="1.215825" lat="45.851787"><ele>338.25</ele></trkpt>
<trkpt lon="1.216051" lat="45.851806"><ele>339.25</ele></trkpt>
<trkpt lon="1.216196" lat="45.851847"><ele>339.5</ele></trkpt>
<trkpt lon="1.216287" lat="45.851911"><ele>339.75</ele></trkpt>
<trkpt lon="1.216433" lat="45.851779"><ele>339.25</ele></trkpt>
<trkpt lon="1.216469" lat="45.851748"><ele>339.0</ele></trkpt>
<trkpt lon="1.216946" lat="45.851335"><ele>337.0</ele></trkpt>
<trkpt lon="1.216976" lat="45.851306"><ele>337.0</ele></trkpt>
<trkpt lon="1.217480" lat="45.850836"><ele>336.0</ele></trkpt>
<trkpt lon="1.217553" lat="45.850877"><ele>335.75</ele></trkpt>
<trkpt lon="1.217903" lat="45.850562"><ele>334.5</ele></trkpt>
<trkpt lon="1.218596" lat="45.850989"><ele>332.0</ele></trkpt>
<trkpt lon="1.218751" lat="45.850929"><ele>330.75</ele></trkpt>
<trkpt lon="1.218953" lat="45.850893"><ele>329.5</ele></trkpt>
<trkpt lon="1.219580" lat="45.850585"><ele>325.0</ele></trkpt>
<trkpt lon="1.219945" lat="45.850905"><ele>323.0</ele></trkpt>
<trkpt lon="1.220203" lat="45.850728"><ele>322.25</ele></trkpt>
<trkpt lon="1.220363" lat="45.850604"><ele>321.5</ele></trkpt>
<trkpt lon="1.220070" lat="45.850432"><ele>322.5</ele></trkpt>
<trkpt lon="1.219853" lat="45.850245"><ele>322.75</ele></trkpt>
<trkpt lon="1.219625" lat="45.850115"><ele>323.0</ele></trkpt>
<trkpt lon="1.219523" lat="45.850023"><ele>322.75</ele></trkpt>
<trkpt lon="1.219316" lat="45.849584"><ele>319.0</ele></trkpt>
<trkpt lon="1.219398" lat="45.849562"><ele>318.5</ele></trkpt>
<trkpt lon="1.219696" lat="45.849376"><ele>315.0</ele></trkpt>
<trkpt lon="1.219736" lat="45.849304"><ele>313.75</ele></trkpt>
<trkpt lon="1.219720" lat="45.849225"><ele>312.75</ele></trkpt>
<trkpt lon="1.219600" lat="45.849030"><ele>310.5</ele></trkpt>
<trkpt lon="1.219586" lat="45.848944"><ele>309.5</ele></trkpt>
<trkpt lon="1.219619" lat="45.848867"><ele>308.5</ele></trkpt>
<trkpt lon="1.219740" lat="45.848673"><ele>305.5</ele></trkpt>
<trkpt lon="1.219771" lat="45.848459"><ele>303.5</ele></trkpt>
<trkpt lon="1.219969" lat="45.848477"><ele>302.5</ele></trkpt>
<trkpt lon="1.220221" lat="45.848526"><ele>301.0</ele></trkpt>
<trkpt lon="1.220501" lat="45.848636"><ele>300.25</ele></trkpt>
<trkpt lon="1.220601" lat="45.848592"><ele>299.5</ele></trkpt>
<trkpt lon="1.221247" lat="45.848398"><ele>294.25</ele></trkpt>
<trkpt lon="1.221542" lat="45.848267"><ele>292.5</ele></trkpt>
<trkpt lon="1.221880" lat="45.848235"><ele>292.0</ele></trkpt>
<trkpt lon="1.221975" lat="45.848311"><ele>292.75</ele></trkpt>
<trkpt lon="1.223402" lat="45.847278"><ele>282.0</ele></trkpt>
<trkpt lon="1.223807" lat="45.847101"><ele>279.75</ele></trkpt>
<trkpt lon="1.224314" lat="45.847449"><ele>284.5</ele></trkpt>
<trkpt lon="1.224724" lat="45.847403"><ele>285.5</ele></trkpt>
<trkpt lon="1.224850" lat="45.847371"><ele>285.5</ele></trkpt>
<trkpt lon="1.224985" lat="45.847306"><ele>285.25</ele></trkpt>
<trkpt lon="1.225461" lat="45.847645"><ele>285.0</ele></trkpt>
<trkpt lon="1.225568" lat="45.847684"><ele>284.5</ele></trkpt>
<trkpt lon="1.225837" lat="45.847551"><ele>282.0</ele></trkpt>
<trkpt lon="1.225912" lat="45.847490"><ele>281.25</ele></trkpt>
<trkpt lon="1.225998" lat="45.847391"><ele>279.75</ele></trkpt>
<trkpt lon="1.226156" lat="45.847144"><ele>275.0</ele></trkpt>
<trkpt lon="1.226255" lat="45.847071"><ele>273.25</ele></trkpt>
<trkpt lon="1.226613" lat="45.847199"><ele>272.0</ele></trkpt>
<trkpt lon="1.226816" lat="45.847315"><ele>272.25</ele></trkpt>
<trkpt lon="1.227038" lat="45.847429"><ele>273.0</ele></trkpt>
<trkpt lon="1.227073" lat="45.847402"><ele>272.75</ele></trkpt>
<trkpt lon="1.227093" lat="45.847386"><ele>272.5</ele></trkpt>
<trkpt lon="1.227174" lat="45.847340"><ele>271.75</ele></trkpt>
<trkpt lon="1.227359" lat="45.847282"><ele>271.25</ele></trkpt>
<trkpt lon="1.227450" lat="45.847239"><ele>271.0</ele></trkpt>
<trkpt lon="1.227482" lat="45.847186"><ele>270.25</ele></trkpt>
<trkpt lon="1.227460" lat="45.847103"><ele>268.75</ele></trkpt>
<trkpt lon="1.227379" lat="45.847024"><ele>267.25</ele></trkpt>
<trkpt lon="1.227308" lat="45.846884"><ele>265.0</ele></trkpt>
<trkpt lon="1.227382" lat="45.846699"><ele>262.75</ele></trkpt>
<trkpt lon="1.227428" lat="45.846609"><ele>262.25</ele></trkpt>
<trkpt lon="1.227400" lat="45.846593"><ele>262.0</ele></trkpt>
<trkpt lon="1.227380" lat="45.846572"><ele>262.0</ele></trkpt>
<trkpt lon="1.227371" lat="45.846547"><ele>261.75</ele></trkpt>
<trkpt lon="1.227375" lat="45.846522"><ele>261.5</ele></trkpt>
<trkpt lon="1.227389" lat="45.846499"><ele>261.5</ele></trkpt>
<trkpt lon="1.227276" lat="45.846433"><ele>261.0</ele></trkpt>
<trkpt lon="1.227217" lat="45.846313"><ele>260.0</ele></trkpt>
<trkpt lon="1.227209" lat="45.846025"><ele>257.5</ele></trkpt>
<trkpt lon="1.227341" lat="45.845629"><ele>255.75</ele></trkpt>
<trkpt lon="1.227272" lat="45.845494"><ele>255.75</ele></trkpt>
<trkpt lon="1.227213" lat="45.845350"><ele>255.75</ele></trkpt>
<trkpt lon="1.227201" lat="45.845327"><ele>255.75</ele></trkpt>
<trkpt lon="1.227145" lat="45.845193"><ele>256.0</ele></trkpt>
<trkpt lon="1.227125" lat="45.845118"><ele>256.0</ele></trkpt>
<trkpt lon="1.227103" lat="45.845000"><ele>256.5</ele></trkpt>
<trkpt lon="1.227123" lat="45.844880"><ele>257.25</ele></trkpt>
<trkpt lon="1.227192" lat="45.844789"><ele>258.25</ele></trkpt>
<trkpt lon="1.227541" lat="45.844593"><ele>261.75</ele></trkpt>
<trkpt lon="1.227668" lat="45.844609"><ele>262.75</ele></trkpt>
<trkpt lon="1.227711" lat="45.844467"><ele>263.25</ele></trkpt>
<trkpt lon="1.227820" lat="45.844336"><ele>264.75</ele></trkpt>
<trkpt lon="1.227910" lat="45.844310"><ele>266.0</ele></trkpt>
<trkpt lon="1.228159" lat="45.844314"><ele>269.25</ele></trkpt>
<trkpt lon="1.228331" lat="45.844271"><ele>271.25</ele></trkpt>
<trkpt lon="1.228383" lat="45.844272"><ele>271.5</ele></trkpt>
<trkpt lon="1.228434" lat="45.844262"><ele>272.0</ele></trkpt>
<trkpt lon="1.228625" lat="45.844194"><ele>273.0</ele></trkpt>
<trkpt lon="1.228654" lat="45.844170"><ele>273.25</ele></trkpt>
<trkpt lon="1.228716" lat="45.844159"><ele>274.0</ele></trkpt>
<trkpt lon="1.228798" lat="45.844129"><ele>275.25</ele></trkpt>
<trkpt lon="1.228888" lat="45.844077"><ele>276.5</ele></trkpt>
<trkpt lon="1.228928" lat="45.844018"><ele>277.25</ele></trkpt>
<trkpt lon="1.228955" lat="45.843906"><ele>278.0</ele></trkpt>
<trkpt lon="1.228950" lat="45.843836"><ele>278.0</ele></trkpt>
<trkpt lon="1.228902" lat="45.843752"><ele>278.0</ele></trkpt>
<trkpt lon="1.228880" lat="45.843696"><ele>277.75</ele></trkpt>
<trkpt lon="1.228951" lat="45.843613"><ele>278.0</ele></trkpt>
<trkpt lon="1.229257" lat="45.843753"><ele>279.25</ele></trkpt>
<trkpt lon="1.229431" lat="45.843861"><ele>279.75</ele></trkpt>
<trkpt lon="1.229582" lat="45.843780"><ele>280.25</ele></trkpt>
<trkpt lon="1.229692" lat="45.843709"><ele>280.75</ele></trkpt>
<trkpt lon="1.229736" lat="45.843678"><ele>281.0</ele></trkpt>
<trkpt lon="1.229828" lat="45.843610"><ele>281.25</ele></trkpt>
<trkpt lon="1.229902" lat="45.843553"><ele>281.75</ele></trkpt>
<trkpt lon="1.229981" lat="45.843491"><ele>282.25</ele></trkpt>
<trkpt lon="1.229996" lat="45.843343"><ele>282.75</ele></trkpt>
<trkpt lon="1.229965" lat="45.843191"><ele>285.25</ele></trkpt>
<trkpt lon="1.229911" lat="45.843091"><ele>286.75</ele></trkpt>
<trkpt lon="1.229903" lat="45.842981"><ele>287.75</ele></trkpt>
<trkpt lon="1.230013" lat="45.842880"><ele>288.5</ele></trkpt>
<trkpt lon="1.230102" lat="45.842780"><ele>289.5</ele></trkpt>
<trkpt lon="1.230083" lat="45.842743"><ele>290.0</ele></trkpt>
<trkpt lon="1.230121" lat="45.842713"><ele>290.5</ele></trkpt>
<trkpt lon="1.230138" lat="45.842671"><ele>291.25</ele></trkpt>
<trkpt lon="1.230500" lat="45.842588"><ele>294.25</ele></trkpt>
<trkpt lon="1.230622" lat="45.842581"><ele>294.75</ele></trkpt>
<trkpt lon="1.230748" lat="45.842744"><ele>294.5</ele></trkpt>
<trkpt lon="1.230933" lat="45.842931"><ele>294.5</ele></trkpt>
<trkpt lon="1.230989" lat="45.842900"><ele>294.75</ele></trkpt>
<trkpt lon="1.231072" lat="45.842833"><ele>294.75</ele></trkpt>
<trkpt lon="1.231096" lat="45.842814"><ele>294.75</ele></trkpt>
<trkpt lon="1.231050" lat="45.842783"><ele>294.75</ele></trkpt>
<trkpt lon="1.231133" lat="45.842696"><ele>295.25</ele></trkpt>
<trkpt lon="1.231435" lat="45.842590"><ele>296.0</ele></trkpt>
<trkpt lon="1.231585" lat="45.842806"><ele>295.75</ele></trkpt>
<trkpt lon="1.231756" lat="45.842756"><ele>296.25</ele></trkpt>
<trkpt lon="1.231949" lat="45.842696"><ele>297.25</ele></trkpt>
<trkpt lon="1.232151" lat="45.842603"><ele>298.5</ele></trkpt>
<trkpt lon="1.232203" lat="45.842577"><ele>298.75</ele></trkpt>
<trkpt lon="1.232247" lat="45.842547"><ele>299.0</ele></trkpt>
<trkpt lon="1.232788" lat="45.842228"><ele>300.0</ele></trkpt>
<trkpt lon="1.233005" lat="45.842105"><ele>300.0</ele></trkpt>
<trkpt lon="1.233046" lat="45.842105"><ele>300.0</ele></trkpt>
<trkpt lon="1.233099" lat="45.842071"><ele>300.0</ele></trkpt>
<trkpt lon="1.233172" lat="45.842011"><ele>300.5</ele></trkpt>
<trkpt lon="1.233203" lat="45.841970"><ele>300.5</ele></trkpt>
<trkpt lon="1.233235" lat="45.841910"><ele>300.5</ele></trkpt>
<trkpt lon="1.233258" lat="45.841825"><ele>300.75</ele></trkpt>
<trkpt lon="1.233254" lat="45.841570"><ele>301.0</ele></trkpt>
<trkpt lon="1.233263" lat="45.841535"><ele>301.0</ele></trkpt>
<trkpt lon="1.233265" lat="45.841475"><ele>301.0</ele></trkpt>
<trkpt lon="1.233335" lat="45.841280"><ele>301.0</ele></trkpt>
<trkpt lon="1.233443" lat="45.841146"><ele>301.25</ele></trkpt>
<trkpt lon="1.233508" lat="45.841090"><ele>301.5</ele></trkpt>
<trkpt lon="1.233523" lat="45.841025"><ele>301.75</ele></trkpt>
<trkpt lon="1.233623" lat="45.840971"><ele>302.0</ele></trkpt>
<trkpt lon="1.233943" lat="45.840800"><ele>303.0</ele></trkpt>
<trkpt lon="1.233988" lat="45.840802"><ele>303.0</ele></trkpt>
<trkpt lon="1.234139" lat="45.840726"><ele>303.0</ele></trkpt>
<trkpt lon="1.234198" lat="45.840695"><ele>303.0</ele></trkpt>
<trkpt lon="1.234472" lat="45.840525"><ele>302.75</ele></trkpt>
<trkpt lon="1.234491" lat="45.840496"><ele>302.75</ele></trkpt>
<trkpt lon="1.234490" lat="45.840460"><ele>302.5</ele></trkpt>
<trkpt lon="1.234552" lat="45.840432"><ele>302.25</ele></trkpt>
<trkpt lon="1.234609" lat="45.840399"><ele>301.5</ele></trkpt>
<trkpt lon="1.234678" lat="45.840391"><ele>301.25</ele></trkpt>
<trkpt lon="1.235642" lat="45.839875"><ele>299.5</ele></trkpt>
<trkpt lon="1.236195" lat="45.839585"><ele>297.0</ele></trkpt>
<trkpt lon="1.236738" lat="45.839289"><ele>299.0</ele></trkpt>
<trkpt lon="1.236781" lat="45.839261"><ele>299.25</ele></trkpt>
<trkpt lon="1.236824" lat="45.839299"><ele>299.25</ele></trkpt>
<trkpt lon="1.236859" lat="45.839333"><ele>299.25</ele></trkpt>
<trkpt lon="1.236869" lat="45.839360"><ele>299.0</ele></trkpt>
<trkpt lon="1.236893" lat="45.839376"><ele>299.0</ele></trkpt>
<trkpt lon="1.236919" lat="45.839396"><ele>299.0</ele></trkpt>
<trkpt lon="1.237182" lat="45.839248"><ele>299.75</ele></trkpt>
<trkpt lon="1.237774" lat="45.838933"><ele>301.0</ele></trkpt>
<trkpt lon="1.238212" lat="45.838691"><ele>300.25</ele></trkpt>
<trkpt lon="1.238857" lat="45.838359"><ele>299.0</ele></trkpt>
<trkpt lon="1.238908" lat="45.838358"><ele>299.0</ele></trkpt>
<trkpt lon="1.238953" lat="45.838337"><ele>299.0</ele></trkpt>
<trkpt lon="1.239011" lat="45.838308"><ele>298.75</ele></trkpt>
<trkpt lon="1.239025" lat="45.838273"><ele>298.75</ele></trkpt>
<trkpt lon="1.239171" lat="45.838203"><ele>298.5</ele></trkpt>
<trkpt lon="1.239269" lat="45.838136"><ele>298.0</ele></trkpt>
<trkpt lon="1.239701" lat="45.837916"><ele>296.25</ele></trkpt>
<trkpt lon="1.239755" lat="45.837887"><ele>296.25</ele></trkpt>
<trkpt lon="1.240730" lat="45.837354"><ele>295.75</ele></trkpt>
<trkpt lon="1.241096" lat="45.837157"><ele>294.75</ele></trkpt>
<trkpt lon="1.241408" lat="45.837012"><ele>295.25</ele></trkpt>
<trkpt lon="1.241964" lat="45.836820"><ele>295.5</ele></trkpt>
<trkpt lon="1.242029" lat="45.836815"><ele>295.5</ele></trkpt>
<trkpt lon="1.242135" lat="45.836773"><ele>295.5</ele></trkpt>
<trkpt lon="1.242158" lat="45.836752"><ele>295.5</ele></trkpt>
<trkpt lon="1.242555" lat="45.836607"><ele>294.75</ele></trkpt>
<trkpt lon="1.242629" lat="45.836566"><ele>295.0</ele></trkpt>
<trkpt lon="1.242562" lat="45.836496"><ele>294.5</ele></trkpt>
<trkpt lon="1.242750" lat="45.836397"><ele>294.75</ele></trkpt>
<trkpt lon="1.243094" lat="45.836204"><ele>295.0</ele></trkpt>
<trkpt lon="1.243252" lat="45.836115"><ele>295.0</ele></trkpt>
<trkpt lon="1.243707" lat="45.835858"><ele>296.0</ele></trkpt>
<trkpt lon="1.243997" lat="45.835696"><ele>296.5</ele></trkpt>
<trkpt lon="1.244229" lat="45.835566"><ele>297.0</ele></trkpt>
<trkpt lon="1.244657" lat="45.835324"><ele>298.0</ele></trkpt>
<trkpt lon="1.244746" lat="45.835274"><ele>298.0</ele></trkpt>
<trkpt lon="1.245202" lat="45.835021"><ele>298.75</ele></trkpt>
<trkpt lon="1.245343" lat="45.834944"><ele>299.0</ele></trkpt>
<trkpt lon="1.245371" lat="45.834928"><ele>299.0</ele></trkpt>
<trkpt lon="1.245399" lat="45.834913"><ele>299.0</ele></trkpt>
<trkpt lon="1.245471" lat="45.834871"><ele>299.0</ele></trkpt>
<trkpt lon="1.245680" lat="45.834763"><ele>300.0</ele></trkpt>
<trkpt lon="1.246637" lat="45.834222"><ele>303.75</ele></trkpt>
<trkpt lon="1.246854" lat="45.834107"><ele>304.25</ele></trkpt>
<trkpt lon="1.246944" lat="45.834060"><ele>305.25</ele></trkpt>
<trkpt lon="1.247039" lat="45.834005"><ele>305.5</ele></trkpt>
<trkpt lon="1.247125" lat="45.833948"><ele>305.75</ele></trkpt>
<trkpt lon="1.247285" lat="45.833856"><ele>306.0</ele></trkpt>
<trkpt lon="1.247402" lat="45.833898"><ele>306.0</ele></trkpt>
<trkpt lon="1.247436" lat="45.833912"><ele>306.0</ele></trkpt>
<trkpt lon="1.248599" lat="45.834385"><ele>307.0</ele></trkpt>
<trkpt lon="1.248715" lat="45.834432"><ele>306.5</ele></trkpt>
<trkpt lon="1.248773" lat="45.834404"><ele>306.25</ele></trkpt>
<trkpt lon="1.248823" lat="45.834397"><ele>306.25</ele></trkpt>
<trkpt lon="1.248873" lat="45.834402"><ele>306.0</ele></trkpt>
<trkpt lon="1.248918" lat="45.834418"><ele>305.75</ele></trkpt>
<trkpt lon="1.249043" lat="45.834343"><ele>305.25</ele></trkpt>
<trkpt lon="1.249893" lat="45.833833"><ele>301.75</ele></trkpt>
<trkpt lon="1.249999" lat="45.833770"><ele>301.5</ele></trkpt>
<trkpt lon="1.251244" lat="45.833023"><ele>297.75</ele></trkpt>
<trkpt lon="1.251614" lat="45.832800"><ele>296.0</ele></trkpt>
<trkpt lon="1.251796" lat="45.832700"><ele>296.0</ele></trkpt>
<trkpt lon="1.251912" lat="45.832588"><ele>296.0</ele></trkpt>
<trkpt lon="1.252455" lat="45.832256"><ele>295.0</ele></trkpt>
<trkpt lon="1.252588" lat="45.832178"><ele>295.0</ele></trkpt>
<trkpt lon="1.252782" lat="45.832065"><ele>294.75</ele></trkpt>
<trkpt lon="1.252811" lat="45.832041"><ele>294.75</ele></trkpt>
<trkpt lon="1.252954" lat="45.831965"><ele>294.25</ele></trkpt>
<trkpt lon="1.252998" lat="45.831994"><ele>294.0</ele></trkpt>
<trkpt lon="1.253023" lat="45.831998"><ele>294.0</ele></trkpt>
<trkpt lon="1.253046" lat="45.831983"><ele>294.0</ele></trkpt>
<trkpt lon="1.253112" lat="45.831951"><ele>293.75</ele></trkpt>
<trkpt lon="1.253422" lat="45.831770"><ele>293.5</ele></trkpt>
<trkpt lon="1.253489" lat="45.831777"><ele>293.0</ele></trkpt>
<trkpt lon="1.253745" lat="45.831849"><ele>291.5</ele></trkpt>
<trkpt lon="1.253783" lat="45.831822"><ele>291.5</ele></trkpt>
<trkpt lon="1.253831" lat="45.831839"><ele>291.25</ele></trkpt>
<trkpt lon="1.253878" lat="45.831854"><ele>291.0</ele></trkpt>
<trkpt lon="1.253905" lat="45.831848"><ele>290.75</ele></trkpt>
<trkpt lon="1.254241" lat="45.831885"><ele>289.0</ele></trkpt>
<trkpt lon="1.254467" lat="45.832019"><ele>287.75</ele></trkpt>
<trkpt lon="1.254486" lat="45.832042"><ele>287.75</ele></trkpt>
<trkpt lon="1.254544" lat="45.832073"><ele>287.75</ele></trkpt>
<trkpt lon="1.254583" lat="45.832094"><ele>287.5</ele></trkpt>
<trkpt lon="1.254620" lat="45.832101"><ele>287.5</ele></trkpt>
<trkpt lon="1.254995" lat="45.832320"><ele>285.5</ele></trkpt>
<trkpt lon="1.255124" lat="45.832381"><ele>285.25</ele></trkpt>
<trkpt lon="1.255403" lat="45.832573"><ele>284.25</ele></trkpt>
<trkpt lon="1.255488" lat="45.832674"><ele>284.0</ele></trkpt>
<trkpt lon="1.255541" lat="45.832739"><ele>284.0</ele></trkpt>
<trkpt lon="1.255554" lat="45.832731"><ele>284.0</ele></trkpt>
<trkpt lon="1.255600" lat="45.832709"><ele>283.75</ele></trkpt>
<trkpt lon="1.255652" lat="45.832690"><ele>283.5</ele></trkpt>
<trkpt lon="1.255667" lat="45.832686"><ele>283.5</ele></trkpt>
<trkpt lon="1.255767" lat="45.832679"><ele>283.0</ele></trkpt>
<trkpt lon="1.255807" lat="45.832684"><ele>283.0</ele></trkpt>
<trkpt lon="1.255853" lat="45.832693"><ele>282.75</ele></trkpt>
<trkpt lon="1.255929" lat="45.832726"><ele>282.5</ele></trkpt>
<trkpt lon="1.255956" lat="45.832748"><ele>282.5</ele></trkpt>
<trkpt lon="1.255967" lat="45.832756"><ele>282.25</ele></trkpt>
<trkpt lon="1.255983" lat="45.832773"><ele>282.25</ele></trkpt>
<trkpt lon="1.255995" lat="45.832787"><ele>282.25</ele></trkpt>
<trkpt lon="1.256023" lat="45.832835"><ele>282.25</ele></trkpt>
<trkpt lon="1.256028" lat="45.832902"><ele>282.25</ele></trkpt>
<trkpt lon="1.256018" lat="45.832926"><ele>282.5</ele></trkpt>
<trkpt lon="1.256084" lat="45.832951"><ele>282.0</ele></trkpt>
<trkpt lon="1.257315" lat="45.833309"><ele>276.5</ele></trkpt>
<trkpt lon="1.257363" lat="45.833310"><ele>276.25</ele></trkpt>
<trkpt lon="1.257406" lat="45.833297"><ele>276.25</ele></trkpt>
<trkpt lon="1.257459" lat="45.833262"><ele>275.75</ele></trkpt>
<trkpt lon="1.257558" lat="45.833289"><ele>275.25</ele></trkpt>
<trkpt lon="1.257623" lat="45.833304"><ele>275.0</ele></trkpt>
<trkpt lon="1.257693" lat="45.833341"><ele>274.5</ele></trkpt>
<trkpt lon="1.257760" lat="45.833343"><ele>274.0</ele></trkpt>
<trkpt lon="1.257822" lat="45.833385"><ele>274.0</ele></trkpt>
<trkpt lon="1.257884" lat="45.833428"><ele>273.75</ele></trkpt>
<trkpt lon="1.257853" lat="45.833455"><ele>274.0</ele></trkpt>
<trkpt lon="1.257847" lat="45.833480"><ele>274.25</ele></trkpt>
<trkpt lon="1.257862" lat="45.833496"><ele>274.25</ele></trkpt>
<trkpt lon="1.258421" lat="45.833655"><ele>272.75</ele></trkpt>
<trkpt lon="1.259706" lat="45.834016"><ele>268.5</ele></trkpt>
<trkpt lon="1.259750" lat="45.834013"><ele>268.25</ele></trkpt>
<trkpt lon="1.259791" lat="45.833989"><ele>268.25</ele></trkpt>
<trkpt lon="1.259859" lat="45.833957"><ele>268.0</ele></trkpt>
<trkpt lon="1.259907" lat="45.833933"><ele>268.0</ele></trkpt>
<trkpt lon="1.259991" lat="45.834028"><ele>268.0</ele></trkpt>
<trkpt lon="1.260028" lat="45.834062"><ele>267.75</ele></trkpt>
<trkpt lon="1.260041" lat="45.834075"><ele>267.75</ele></trkpt>
<trkpt lon="1.260036" lat="45.834081"><ele>267.75</ele></trkpt>
<trkpt lon="1.260076" lat="45.834128"><ele>267.75</ele></trkpt>
<trkpt lon="1.260890" lat="45.834374"><ele>265.75</ele></trkpt>
<trkpt lon="1.260915" lat="45.834368"><ele>265.5</ele></trkpt>
<trkpt lon="1.261327" lat="45.833665"><ele>264.5</ele></trkpt>
  </trkseg></trk></gpx>
