<?xml version="1.0" encoding="UTF-8"?>
<gpx version="1.1" creator="compostel-brouter" xmlns="http://www.topografix.com/GPX/1/1">
  <metadata><name>FR-37-Sauveterre</name></metadata>
  <trk><name>FR-37-Sauveterre</name><trkseg>
<trkpt lon="-0.770824" lat="43.488570"><ele>74.75</ele></trkpt>
<trkpt lon="-0.771684" lat="43.488938"><ele>73.75</ele></trkpt>
<trkpt lon="-0.771743" lat="43.488985"><ele>73.75</ele></trkpt>
<trkpt lon="-0.771698" lat="43.489062"><ele>73.75</ele></trkpt>
<trkpt lon="-0.771584" lat="43.489133"><ele>74.25</ele></trkpt>
<trkpt lon="-0.771352" lat="43.489252"><ele>75.25</ele></trkpt>
<trkpt lon="-0.771591" lat="43.489451"><ele>76.75</ele></trkpt>
<trkpt lon="-0.771665" lat="43.489479"><ele>77.0</ele></trkpt>
<trkpt lon="-0.772328" lat="43.489937"><ele>77.0</ele></trkpt>
<trkpt lon="-0.772598" lat="43.489776"><ele>75.25</ele></trkpt>
<trkpt lon="-0.772629" lat="43.489756"><ele>75.0</ele></trkpt>
<trkpt lon="-0.773600" lat="43.489137"><ele>68.0</ele></trkpt>
<trkpt lon="-0.773632" lat="43.489115"><ele>67.75</ele></trkpt>
<trkpt lon="-0.774410" lat="43.488615"><ele>67.0</ele></trkpt>
<trkpt lon="-0.774604" lat="43.488492"><ele>67.0</ele></trkpt>
<trkpt lon="-0.774730" lat="43.488387"><ele>67.0</ele></trkpt>
<trkpt lon="-0.774770" lat="43.488320"><ele>67.0</ele></trkpt>
<trkpt lon="-0.775250" lat="43.487515"><ele>68.0</ele></trkpt>
<trkpt lon="-0.775281" lat="43.487463"><ele>67.75</ele></trkpt>
<trkpt lon="-0.775510" lat="43.486920"><ele>65.0</ele></trkpt>
<trkpt lon="-0.775767" lat="43.486376"><ele>59.75</ele></trkpt>
<trkpt lon="-0.776137" lat="43.486462"><ele>59.0</ele></trkpt>
<trkpt lon="-0.776908" lat="43.486642"><ele>57.5</ele></trkpt>
<trkpt lon="-0.776930" lat="43.486594"><ele>56.5</ele></trkpt>
<trkpt lon="-0.776950" lat="43.486547"><ele>55.25</ele></trkpt>
<trkpt lon="-0.776962" lat="43.486516"><ele>54.5</ele></trkpt>
<trkpt lon="-0.776967" lat="43.486501"><ele>54.25</ele></trkpt>
<trkpt lon="-0.776971" lat="43.486490"><ele>54.0</ele></trkpt>
<trkpt lon="-0.777091" lat="43.486087"><ele>52.5</ele></trkpt>
<trkpt lon="-0.777105" lat="43.486053"><ele>53.25</ele></trkpt>
<trkpt lon="-0.777203" lat="43.485816"><ele>58.75</ele></trkpt>
<trkpt lon="-0.777464" lat="43.485324"><ele>61.5</ele></trkpt>
<trkpt lon="-0.777560" lat="43.485108"><ele>63.5</ele></trkpt>
<trkpt lon="-0.777570" lat="43.485086"><ele>63.5</ele></trkpt>
<trkpt lon="-0.777735" lat="43.485133"><ele>64.25</ele></trkpt>
<trkpt lon="-0.778238" lat="43.485278"><ele>63.75</ele></trkpt>
<trkpt lon="-0.778456" lat="43.485344"><ele>63.5</ele></trkpt>
<trkpt lon="-0.778563" lat="43.485390"><ele>63.0</ele></trkpt>
<trkpt lon="-0.778848" lat="43.485522"><ele>63.0</ele></trkpt>
<trkpt lon="-0.778998" lat="43.485573"><ele>63.0</ele></trkpt>
<trkpt lon="-0.779183" lat="43.485614"><ele>63.25</ele></trkpt>
<trkpt lon="-0.779340" lat="43.485618"><ele>62.75</ele></trkpt>
<trkpt lon="-0.779395" lat="43.485609"><ele>62.75</ele></trkpt>
<trkpt lon="-0.779451" lat="43.485593"><ele>62.75</ele></trkpt>
<trkpt lon="-0.779544" lat="43.485555"><ele>63.0</ele></trkpt>
<trkpt lon="-0.779722" lat="43.485483"><ele>63.25</ele></trkpt>
<trkpt lon="-0.779756" lat="43.485471"><ele>63.25</ele></trkpt>
<trkpt lon="-0.779970" lat="43.485394"><ele>64.0</ele></trkpt>
<trkpt lon="-0.780187" lat="43.485343"><ele>64.75</ele></trkpt>
<trkpt lon="-0.780487" lat="43.485294"><ele>65.0</ele></trkpt>
<trkpt lon="-0.780678" lat="43.485271"><ele>65.0</ele></trkpt>
<trkpt lon="-0.780902" lat="43.485267"><ele>65.0</ele></trkpt>
<trkpt lon="-0.781330" lat="43.485304"><ele>66.0</ele></trkpt>
<trkpt lon="-0.781478" lat="43.485304"><ele>66.5</ele></trkpt>
<trkpt lon="-0.781978" lat="43.485213"><ele>70.25</ele></trkpt>
<trkpt lon="-0.782132" lat="43.485198"><ele>70.75</ele></trkpt>
<trkpt lon="-0.782286" lat="43.485197"><ele>71.25</ele></trkpt>
<trkpt lon="-0.782603" lat="43.485212"><ele>71.0</ele></trkpt>
<trkpt lon="-0.782854" lat="43.485215"><ele>71.25</ele></trkpt>
<trkpt lon="-0.783024" lat="43.485208"><ele>71.25</ele></trkpt>
<trkpt lon="-0.783500" lat="43.485145"><ele>72.75</ele></trkpt>
<trkpt lon="-0.783641" lat="43.485128"><ele>72.75</ele></trkpt>
<trkpt lon="-0.784126" lat="43.485078"><ele>74.75</ele></trkpt>
<trkpt lon="-0.784562" lat="43.485051"><ele>75.5</ele></trkpt>
<trkpt lon="-0.784899" lat="43.485046"><ele>76.0</ele></trkpt>
<trkpt lon="-0.785039" lat="43.485052"><ele>76.0</ele></trkpt>
<trkpt lon="-0.785190" lat="43.485059"><ele>76.5</ele></trkpt>
<trkpt lon="-0.785412" lat="43.485065"><ele>77.0</ele></trkpt>
<trkpt lon="-0.785734" lat="43.485065"><ele>77.25</ele></trkpt>
<trkpt lon="-0.787128" lat="43.485010"><ele>79.0</ele></trkpt>
<trkpt lon="-0.787458" lat="43.485017"><ele>79.75</ele></trkpt>
<trkpt lon="-0.787997" lat="43.485067"><ele>80.75</ele></trkpt>
<trkpt lon="-0.788226" lat="43.485087"><ele>81.25</ele></trkpt>
<trkpt lon="-0.788452" lat="43.485088"><ele>81.5</ele></trkpt>
<trkpt lon="-0.788705" lat="43.485049"><ele>81.25</ele></trkpt>
<trkpt lon="-0.788809" lat="43.485022"><ele>81.0</ele></trkpt>
<trkpt lon="-0.788907" lat="43.484998"><ele>80.75</ele></trkpt>
<trkpt lon="-0.789119" lat="43.484945"><ele>80.75</ele></trkpt>
<trkpt lon="-0.789352" lat="43.484866"><ele>81.25</ele></trkpt>
<trkpt lon="-0.789832" lat="43.484681"><ele>80.75</ele></trkpt>
<trkpt lon="-0.790615" lat="43.484347"><ele>83.25</ele></trkpt>
<trkpt lon="-0.791022" lat="43.484223"><ele>83.0</ele></trkpt>
<trkpt lon="-0.791576" lat="43.484069"><ele>82.75</ele></trkpt>
<trkpt lon="-0.791994" lat="43.483969"><ele>83.0</ele></trkpt>
<trkpt lon="-0.792256" lat="43.483926"><ele>83.5</ele></trkpt>
<trkpt lon="-0.792530" lat="43.483892"><ele>84.0</ele></trkpt>
<trkpt lon="-0.792826" lat="43.483864"><ele>85.25</ele></trkpt>
<trkpt lon="-0.792987" lat="43.483853"><ele>85.25</ele></trkpt>
<trkpt lon="-0.793263" lat="43.483839"><ele>86.25</ele></trkpt>
<trkpt lon="-0.793489" lat="43.483827"><ele>87.5</ele></trkpt>
<trkpt lon="-0.793674" lat="43.483817"><ele>88.75</ele></trkpt>
<trkpt lon="-0.793939" lat="43.483777"><ele>90.75</ele></trkpt>
<trkpt lon="-0.794189" lat="43.483697"><ele>91.5</ele></trkpt>
<trkpt lon="-0.794659" lat="43.483496"><ele>94.0</ele></trkpt>
<trkpt lon="-0.794770" lat="43.483469"><ele>94.0</ele></trkpt>
<trkpt lon="-0.794899" lat="43.483437"><ele>93.75</ele></trkpt>
<trkpt lon="-0.795113" lat="43.483405"><ele>93.0</ele></trkpt>
<trkpt lon="-0.795487" lat="43.483385"><ele>93.5</ele></trkpt>
<trkpt lon="-0.795684" lat="43.483397"><ele>93.75</ele></trkpt>
<trkpt lon="-0.795922" lat="43.483435"><ele>94.0</ele></trkpt>
<trkpt lon="-0.796490" lat="43.483599"><ele>95.25</ele></trkpt>
<trkpt lon="-0.796753" lat="43.483668"><ele>96.25</ele></trkpt>
<trkpt lon="-0.797087" lat="43.483716"><ele>95.75</ele></trkpt>
<trkpt lon="-0.797441" lat="43.483734"><ele>94.5</ele></trkpt>
<trkpt lon="-0.797759" lat="43.483718"><ele>93.75</ele></trkpt>
<trkpt lon="-0.798063" lat="43.483689"><ele>92.25</ele></trkpt>
<trkpt lon="-0.798642" lat="43.483597"><ele>92.0</ele></trkpt>
<trkpt lon="-0.798945" lat="43.483546"><ele>92.0</ele></trkpt>
<trkpt lon="-0.799134" lat="43.483490"><ele>92.25</ele></trkpt>
<trkpt lon="-0.799293" lat="43.483414"><ele>91.25</ele></trkpt>
<trkpt lon="-0.799461" lat="43.483298"><ele>89.25</ele></trkpt>
<trkpt lon="-0.800998" lat="43.481886"><ele>79.25</ele></trkpt>
<trkpt lon="-0.801334" lat="43.481655"><ele>80.25</ele></trkpt>
<trkpt lon="-0.801883" lat="43.481317"><ele>81.0</ele></trkpt>
<trkpt lon="-0.802313" lat="43.481112"><ele>80.0</ele></trkpt>
<trkpt lon="-0.802519" lat="43.480989"><ele>79.25</ele></trkpt>
<trkpt lon="-0.802663" lat="43.480876"><ele>78.5</ele></trkpt>
<trkpt lon="-0.802920" lat="43.480634"><ele>78.0</ele></trkpt>
<trkpt lon="-0.803234" lat="43.480299"><ele>76.75</ele></trkpt>
<trkpt lon="-0.803468" lat="43.480013"><ele>74.0</ele></trkpt>
<trkpt lon="-0.803764" lat="43.479615"><ele>72.0</ele></trkpt>
<trkpt lon="-0.803816" lat="43.479537"><ele>72.5</ele></trkpt>
<trkpt lon="-0.803900" lat="43.479409"><ele>72.75</ele></trkpt>
<trkpt lon="-0.803949" lat="43.479335"><ele>72.5</ele></trkpt>
<trkpt lon="-0.803955" lat="43.479327"><ele>72.5</ele></trkpt>
<trkpt lon="-0.804119" lat="43.479055"><ele>71.25</ele></trkpt>
<trkpt lon="-0.804260" lat="43.478803"><ele>69.5</ele></trkpt>
<trkpt lon="-0.804466" lat="43.478384"><ele>67.0</ele></trkpt>
<trkpt lon="-0.804614" lat="43.478103"><ele>66.75</ele></trkpt>
<trkpt lon="-0.804747" lat="43.477893"><ele>67.0</ele></trkpt>
<trkpt lon="-0.804947" lat="43.477658"><ele>67.0</ele></trkpt>
<trkpt lon="-0.805034" lat="43.477610"><ele>66.75</ele></trkpt>
<trkpt lon="-0.805198" lat="43.477558"><ele>66.25</ele></trkpt>
<trkpt lon="-0.805622" lat="43.477367"><ele>64.5</ele></trkpt>
<trkpt lon="-0.805687" lat="43.477331"><ele>63.75</ele></trkpt>
<trkpt lon="-0.805764" lat="43.477220"><ele>62.25</ele></trkpt>
<trkpt lon="-0.805928" lat="43.476937"><ele>62.0</ele></trkpt>
<trkpt lon="-0.805990" lat="43.476763"><ele>59.25</ele></trkpt>
<trkpt lon="-0.806038" lat="43.476428"><ele>54.5</ele></trkpt>
<trkpt lon="-0.806139" lat="43.476178"><ele>56.0</ele></trkpt>
<trkpt lon="-0.806168" lat="43.476144"><ele>56.25</ele></trkpt>
<trkpt lon="-0.806415" lat="43.475865"><ele>58.5</ele></trkpt>
<trkpt lon="-0.806752" lat="43.475428"><ele>61.0</ele></trkpt>
<trkpt lon="-0.806831" lat="43.475203"><ele>63.0</ele></trkpt>
<trkpt lon="-0.806849" lat="43.475157"><ele>63.25</ele></trkpt>
<trkpt lon="-0.806893" lat="43.475045"><ele>64.0</ele></trkpt>
<trkpt lon="-0.806922" lat="43.474905"><ele>64.75</ele></trkpt>
<trkpt lon="-0.806945" lat="43.474786"><ele>65.5</ele></trkpt>
<trkpt lon="-0.806999" lat="43.474429"><ele>68.25</ele></trkpt>
<trkpt lon="-0.807054" lat="43.474232"><ele>69.25</ele></trkpt>
<trkpt lon="-0.807184" lat="43.474009"><ele>72.0</ele></trkpt>
<trkpt lon="-0.807272" lat="43.473815"><ele>74.25</ele></trkpt>
<trkpt lon="-0.807309" lat="43.473595"><ele>76.5</ele></trkpt>
<trkpt lon="-0.807328" lat="43.473066"><ele>78.5</ele></trkpt>
<trkpt lon="-0.807455" lat="43.472131"><ele>80.25</ele></trkpt>
<trkpt lon="-0.807525" lat="43.471965"><ele>80.25</ele></trkpt>
<trkpt lon="-0.807621" lat="43.471832"><ele>81.25</ele></trkpt>
<trkpt lon="-0.807786" lat="43.471693"><ele>81.25</ele></trkpt>
<trkpt lon="-0.808089" lat="43.471361"><ele>81.0</ele></trkpt>
<trkpt lon="-0.808152" lat="43.471196"><ele>80.75</ele></trkpt>
<trkpt lon="-0.808158" lat="43.471005"><ele>81.25</ele></trkpt>
<trkpt lon="-0.808152" lat="43.470852"><ele>81.75</ele></trkpt>
<trkpt lon="-0.808179" lat="43.470680"><ele>83.25</ele></trkpt>
<trkpt lon="-0.808221" lat="43.470496"><ele>84.75</ele></trkpt>
<trkpt lon="-0.808282" lat="43.470389"><ele>85.0</ele></trkpt>
<trkpt lon="-0.808391" lat="43.470293"><ele>85.5</ele></trkpt>
<trkpt lon="-0.808772" lat="43.470009"><ele>89.0</ele></trkpt>
<trkpt lon="-0.809122" lat="43.469764"><ele>87.5</ele></trkpt>
<trkpt lon="-0.809365" lat="43.469536"><ele>85.75</ele></trkpt>
<trkpt lon="-0.809462" lat="43.469422"><ele>83.5</ele></trkpt>
<trkpt lon="-0.809530" lat="43.469307"><ele>82.0</ele></trkpt>
<trkpt lon="-0.809619" lat="43.469214"><ele>80.25</ele></trkpt>
<trkpt lon="-0.809767" lat="43.469121"><ele>79.0</ele></trkpt>
<trkpt lon="-0.809952" lat="43.469044"><ele>79.0</ele></trkpt>
<trkpt lon="-0.810209" lat="43.468950"><ele>77.0</ele></trkpt>
<trkpt lon="-0.810688" lat="43.468740"><ele>74.25</ele></trkpt>
<trkpt lon="-0.811290" lat="43.468467"><ele>72.25</ele></trkpt>
<trkpt lon="-0.811433" lat="43.468396"><ele>72.0</ele></trkpt>
<trkpt lon="-0.811587" lat="43.468251"><ele>72.0</ele></trkpt>
<trkpt lon="-0.811645" lat="43.468182"><ele>72.0</ele></trkpt>
<trkpt lon="-0.811716" lat="43.468055"><ele>72.25</ele></trkpt>
<trkpt lon="-0.811793" lat="43.467962"><ele>73.0</ele></trkpt>
<trkpt lon="-0.811933" lat="43.467842"><ele>73.0</ele></trkpt>
<trkpt lon="-0.811972" lat="43.467816"><ele>73.25</ele></trkpt>
<trkpt lon="-0.812473" lat="43.467501"><ele>74.75</ele></trkpt>
<trkpt lon="-0.812694" lat="43.467367"><ele>74.75</ele></trkpt>
<trkpt lon="-0.813038" lat="43.467142"><ele>75.5</ele></trkpt>
<trkpt lon="-0.813171" lat="43.467029"><ele>75.25</ele></trkpt>
<trkpt lon="-0.813336" lat="43.466894"><ele>75.0</ele></trkpt>
<trkpt lon="-0.813521" lat="43.466741"><ele>76.0</ele></trkpt>
<trkpt lon="-0.813999" lat="43.466412"><ele>78.0</ele></trkpt>
<trkpt lon="-0.814166" lat="43.466295"><ele>78.25</ele></trkpt>
<trkpt lon="-0.815404" lat="43.465530"><ele>81.0</ele></trkpt>
<trkpt lon="-0.816821" lat="43.464560"><ele>77.5</ele></trkpt>
<trkpt lon="-0.817522" lat="43.463801"><ele>79.5</ele></trkpt>
<trkpt lon="-0.817821" lat="43.463600"><ele>81.25</ele></trkpt>
<trkpt lon="-0.818069" lat="43.463496"><ele>83.75</ele></trkpt>
<trkpt lon="-0.818261" lat="43.463312"><ele>84.25</ele></trkpt>
<trkpt lon="-0.818517" lat="43.463137"><ele>85.5</ele></trkpt>
<trkpt lon="-0.819068" lat="43.462736"><ele>88.0</ele></trkpt>
<trkpt lon="-0.819380" lat="43.462509"><ele>88.25</ele></trkpt>
<trkpt lon="-0.819294" lat="43.462417"><ele>90.25</ele></trkpt>
<trkpt lon="-0.819067" lat="43.462272"><ele>92.0</ele></trkpt>
<trkpt lon="-0.818847" lat="43.462103"><ele>92.5</ele></trkpt>
<trkpt lon="-0.818327" lat="43.461302"><ele>90.75</ele></trkpt>
<trkpt lon="-0.818299" lat="43.461152"><ele>90.75</ele></trkpt>
<trkpt lon="-0.818061" lat="43.461091"><ele>90.0</ele></trkpt>
<trkpt lon="-0.817383" lat="43.460998"><ele>91.0</ele></trkpt>
<trkpt lon="-0.817295" lat="43.460889"><ele>91.75</ele></trkpt>
<trkpt lon="-0.816940" lat="43.460648"><ele>95.0</ele></trkpt>
<trkpt lon="-0.816574" lat="43.460416"><ele>97.5</ele></trkpt>
<trkpt lon="-0.816168" lat="43.460070"><ele>99.75</ele></trkpt>
<trkpt lon="-0.816047" lat="43.459942"><ele>100.5</ele></trkpt>
<trkpt lon="-0.815973" lat="43.459702"><ele>103.0</ele></trkpt>
<trkpt lon="-0.815975" lat="43.459486"><ele>104.25</ele></trkpt>
<trkpt lon="-0.816038" lat="43.459326"><ele>104.5</ele></trkpt>
<trkpt lon="-0.816584" lat="43.459297"><ele>109.25</ele></trkpt>
<trkpt lon="-0.816825" lat="43.459277"><ele>111.75</ele></trkpt>
<trkpt lon="-0.817204" lat="43.459175"><ele>116.5</ele></trkpt>
<trkpt lon="-0.818620" lat="43.458626"><ele>128.75</ele></trkpt>
<trkpt lon="-0.819032" lat="43.458439"><ele>130.75</ele></trkpt>
<trkpt lon="-0.819949" lat="43.458064"><ele>131.25</ele></trkpt>
<trkpt lon="-0.820951" lat="43.457715"><ele>127.25</ele></trkpt>
<trkpt lon="-0.821075" lat="43.457671"><ele>126.5</ele></trkpt>
<trkpt lon="-0.821212" lat="43.457578"><ele>126.0</ele></trkpt>
<trkpt lon="-0.821695" lat="43.457021"><ele>124.0</ele></trkpt>
<trkpt lon="-0.821837" lat="43.456820"><ele>124.75</ele></trkpt>
<trkpt lon="-0.821890" lat="43.456650"><ele>124.75</ele></trkpt>
<trkpt lon="-0.821959" lat="43.456224"><ele>124.5</ele></trkpt>
<trkpt lon="-0.822021" lat="43.456081"><ele>125.0</ele></trkpt>
<trkpt lon="-0.822127" lat="43.455930"><ele>125.25</ele></trkpt>
<trkpt lon="-0.822214" lat="43.455766"><ele>123.75</ele></trkpt>
<trkpt lon="-0.822442" lat="43.455593"><ele>122.25</ele></trkpt>
<trkpt lon="-0.822727" lat="43.455438"><ele>120.25</ele></trkpt>
<trkpt lon="-0.823262" lat="43.455232"><ele>116.25</ele></trkpt>
<trkpt lon="-0.823811" lat="43.455047"><ele>110.5</ele></trkpt>
<trkpt lon="-0.824082" lat="43.454988"><ele>109.0</ele></trkpt>
<trkpt lon="-0.824410" lat="43.454999"><ele>108.0</ele></trkpt>
<trkpt lon="-0.826135" lat="43.455219"><ele>100.75</ele></trkpt>
<trkpt lon="-0.826247" lat="43.455228"><ele>99.75</ele></trkpt>
<trkpt lon="-0.826323" lat="43.455226"><ele>99.25</ele></trkpt>
<trkpt lon="-0.826369" lat="43.455199"><ele>98.5</ele></trkpt>
<trkpt lon="-0.826579" lat="43.454835"><ele>97.25</ele></trkpt>
<trkpt lon="-0.826640" lat="43.454644"><ele>96.25</ele></trkpt>
<trkpt lon="-0.826690" lat="43.454246"><ele>94.25</ele></trkpt>
<trkpt lon="-0.827308" lat="43.453949"><ele>96.0</ele></trkpt>
<trkpt lon="-0.828380" lat="43.453961"><ele>97.75</ele></trkpt>
<trkpt lon="-0.829235" lat="43.453939"><ele>101.5</ele></trkpt>
<trkpt lon="-0.829752" lat="43.453860"><ele>102.5</ele></trkpt>
<trkpt lon="-0.830147" lat="43.453641"><ele>106.0</ele></trkpt>
<trkpt lon="-0.830334" lat="43.453530"><ele>108.25</ele></trkpt>
<trkpt lon="-0.830727" lat="43.453407"><ele>110.75</ele></trkpt>
<trkpt lon="-0.831429" lat="43.453246"><ele>113.75</ele></trkpt>
<trkpt lon="-0.831759" lat="43.453136"><ele>115.75</ele></trkpt>
<trkpt lon="-0.831907" lat="43.453028"><ele>117.5</ele></trkpt>
<trkpt lon="-0.831976" lat="43.452948"><ele>119.0</ele></trkpt>
<trkpt lon="-0.831913" lat="43.452856"><ele>121.25</ele></trkpt>
<trkpt lon="-0.831596" lat="43.452827"><ele>122.75</ele></trkpt>
<trkpt lon="-0.831141" lat="43.452747"><ele>124.5</ele></trkpt>
<trkpt lon="-0.830871" lat="43.452563"><ele>127.0</ele></trkpt>
<trkpt lon="-0.830833" lat="43.452476"><ele>128.25</ele></trkpt>
<trkpt lon="-0.830804" lat="43.452366"><ele>129.75</ele></trkpt>
<trkpt lon="-0.830813" lat="43.452264"><ele>131.25</ele></trkpt>
<trkpt lon="-0.830923" lat="43.452152"><ele>133.0</ele></trkpt>
<trkpt lon="-0.831246" lat="43.451984"><ele>135.5</ele></trkpt>
<trkpt lon="-0.831467" lat="43.451920"><ele>136.0</ele></trkpt>
<trkpt lon="-0.831982" lat="43.451647"><ele>139.0</ele></trkpt>
<trkpt lon="-0.832682" lat="43.451262"><ele>143.75</ele></trkpt>
<trkpt lon="-0.833134" lat="43.450985"><ele>144.25</ele></trkpt>
<trkpt lon="-0.833309" lat="43.450834"><ele>144.75</ele></trkpt>
<trkpt lon="-0.833399" lat="43.450777"><ele>144.75</ele></trkpt>
<trkpt lon="-0.833536" lat="43.450459"><ele>147.5</ele></trkpt>
<trkpt lon="-0.833712" lat="43.450196"><ele>149.75</ele></trkpt>
<trkpt lon="-0.833792" lat="43.449856"><ele>151.0</ele></trkpt>
<trkpt lon="-0.834971" lat="43.449234"><ele>156.5</ele></trkpt>
<trkpt lon="-0.835402" lat="43.449031"><ele>159.25</ele></trkpt>
<trkpt lon="-0.835229" lat="43.448426"><ele>166.0</ele></trkpt>
<trkpt lon="-0.835269" lat="43.448338"><ele>166.75</ele></trkpt>
<trkpt lon="-0.836102" lat="43.447499"><ele>171.75</ele></trkpt>
<trkpt lon="-0.836265" lat="43.447426"><ele>172.25</ele></trkpt>
<trkpt lon="-0.836502" lat="43.447415"><ele>173.5</ele></trkpt>
<trkpt lon="-0.836668" lat="43.447384"><ele>174.25</ele></trkpt>
<trkpt lon="-0.836799" lat="43.447274"><ele>175.25</ele></trkpt>
<trkpt lon="-0.836871" lat="43.446957"><ele>178.5</ele></trkpt>
<trkpt lon="-0.836822" lat="43.446771"><ele>179.5</ele></trkpt>
<trkpt lon="-0.836825" lat="43.446695"><ele>179.75</ele></trkpt>
<trkpt lon="-0.836697" lat="43.446630"><ele>179.25</ele></trkpt>
<trkpt lon="-0.836592" lat="43.446526"><ele>179.0</ele></trkpt>
<trkpt lon="-0.836544" lat="43.446410"><ele>179.75</ele></trkpt>
<trkpt lon="-0.836479" lat="43.446186"><ele>180.25</ele></trkpt>
<trkpt lon="-0.836359" lat="43.445154"><ele>174.25</ele></trkpt>
<trkpt lon="-0.836353" lat="43.445101"><ele>174.25</ele></trkpt>
<trkpt lon="-0.836348" lat="43.445051"><ele>174.0</ele></trkpt>
<trkpt lon="-0.836142" lat="43.444190"><ele>172.75</ele></trkpt>
<trkpt lon="-0.836041" lat="43.443952"><ele>173.5</ele></trkpt>
<trkpt lon="-0.835878" lat="43.443747"><ele>174.0</ele></trkpt>
<trkpt lon="-0.835329" lat="43.443338"><ele>173.75</ele></trkpt>
<trkpt lon="-0.835368" lat="43.443098"><ele>171.5</ele></trkpt>
<trkpt lon="-0.835453" lat="43.442845"><ele>169.75</ele></trkpt>
<trkpt lon="-0.835832" lat="43.442302"><ele>167.5</ele></trkpt>
<trkpt lon="-0.835934" lat="43.442088"><ele>166.75</ele></trkpt>
<trkpt lon="-0.835966" lat="43.442020"><ele>166.5</ele></trkpt>
<trkpt lon="-0.836673" lat="43.441602"><ele>163.25</ele></trkpt>
<trkpt lon="-0.837108" lat="43.441385"><ele>160.25</ele></trkpt>
<trkpt lon="-0.837438" lat="43.441272"><ele>157.75</ele></trkpt>
<trkpt lon="-0.838260" lat="43.441009"><ele>152.75</ele></trkpt>
<trkpt lon="-0.838626" lat="43.440897"><ele>150.25</ele></trkpt>
<trkpt lon="-0.838801" lat="43.440853"><ele>149.25</ele></trkpt>
<trkpt lon="-0.839047" lat="43.440789"><ele>147.5</ele></trkpt>
<trkpt lon="-0.839558" lat="43.440643"><ele>144.5</ele></trkpt>
<trkpt lon="-0.840414" lat="43.440393"><ele>138.75</ele></trkpt>
<trkpt lon="-0.841662" lat="43.439685"><ele>131.0</ele></trkpt>
<trkpt lon="-0.842462" lat="43.439197"><ele>123.25</ele></trkpt>
<trkpt lon="-0.843016" lat="43.438887"><ele>117.25</ele></trkpt>
<trkpt lon="-0.843867" lat="43.438360"><ele>107.25</ele></trkpt>
<trkpt lon="-0.844484" lat="43.438029"><ele>100.25</ele></trkpt>
<trkpt lon="-0.845923" lat="43.437535"><ele>81.5</ele></trkpt>
<trkpt lon="-0.846057" lat="43.437496"><ele>81.0</ele></trkpt>
<trkpt lon="-0.846196" lat="43.437563"><ele>80.75</ele></trkpt>
<trkpt lon="-0.846457" lat="43.437500"><ele>80.75</ele></trkpt>
<trkpt lon="-0.846629" lat="43.437481"><ele>80.0</ele></trkpt>
<trkpt lon="-0.846692" lat="43.437469"><ele>80.0</ele></trkpt>
<trkpt lon="-0.846748" lat="43.437422"><ele>80.0</ele></trkpt>
<trkpt lon="-0.846805" lat="43.437405"><ele>80.0</ele></trkpt>
<trkpt lon="-0.847053" lat="43.437369"><ele>79.75</ele></trkpt>
<trkpt lon="-0.847088" lat="43.437358"><ele>79.5</ele></trkpt>
<trkpt lon="-0.847211" lat="43.437295"><ele>79.5</ele></trkpt>
<trkpt lon="-0.847385" lat="43.437177"><ele>79.75</ele></trkpt>
<trkpt lon="-0.847479" lat="43.437117"><ele>79.5</ele></trkpt>
<trkpt lon="-0.847519" lat="43.437105"><ele>79.5</ele></trkpt>
<trkpt lon="-0.847557" lat="43.437104"><ele>79.25</ele></trkpt>
<trkpt lon="-0.847674" lat="43.437139"><ele>79.25</ele></trkpt>
<trkpt lon="-0.847744" lat="43.437107"><ele>79.0</ele></trkpt>
<trkpt lon="-0.848037" lat="43.436948"><ele>79.75</ele></trkpt>
<trkpt lon="-0.848387" lat="43.436814"><ele>79.25</ele></trkpt>
<trkpt lon="-0.848582" lat="43.436721"><ele>79.75</ele></trkpt>
<trkpt lon="-0.849118" lat="43.436464"><ele>81.5</ele></trkpt>
<trkpt lon="-0.849149" lat="43.436436"><ele>81.75</ele></trkpt>
<trkpt lon="-0.849139" lat="43.436399"><ele>81.75</ele></trkpt>
<trkpt lon="-0.849030" lat="43.436196"><ele>81.75</ele></trkpt>
<trkpt lon="-0.848948" lat="43.436025"><ele>81.75</ele></trkpt>
<trkpt lon="-0.848877" lat="43.435684"><ele>81.75</ele></trkpt>
<trkpt lon="-0.848941" lat="43.435462"><ele>81.75</ele></trkpt>
<trkpt lon="-0.849214" lat="43.435112"><ele>81.0</ele></trkpt>
<trkpt lon="-0.849310" lat="43.435024"><ele>81.5</ele></trkpt>
<trkpt lon="-0.850014" lat="43.435231"><ele>87.75</ele></trkpt>
<trkpt lon="-0.850221" lat="43.435267"><ele>90.25</ele></trkpt>
<trkpt lon="-0.855337" lat="43.434305"><ele>133.5</ele></trkpt>
<trkpt lon="-0.855872" lat="43.434182"><ele>136.0</ele></trkpt>
<trkpt lon="-0.856697" lat="43.434116"><ele>144.0</ele></trkpt>
<trkpt lon="-0.857410" lat="43.434297"><ele>145.25</ele></trkpt>
<trkpt lon="-0.857990" lat="43.434486"><ele>150.5</ele></trkpt>
<trkpt lon="-0.858358" lat="43.434699"><ele>156.5</ele></trkpt>
<trkpt lon="-0.858981" lat="43.435223"><ele>162.5</ele></trkpt>
<trkpt lon="-0.859188" lat="43.435562"><ele>165.0</ele></trkpt>
<trkpt lon="-0.859783" lat="43.435720"><ele>167.75</ele></trkpt>
<trkpt lon="-0.860060" lat="43.435772"><ele>169.0</ele></trkpt>
<trkpt lon="-0.860355" lat="43.435778"><ele>170.5</ele></trkpt>
<trkpt lon="-0.862042" lat="43.435714"><ele>182.5</ele></trkpt>
<trkpt lon="-0.862376" lat="43.435662"><ele>184.25</ele></trkpt>
<trkpt lon="-0.863285" lat="43.435405"><ele>186.0</ele></trkpt>
<trkpt lon="-0.863565" lat="43.435299"><ele>185.75</ele></trkpt>
<trkpt lon="-0.863836" lat="43.435179"><ele>186.5</ele></trkpt>
<trkpt lon="-0.865696" lat="43.434092"><ele>190.75</ele></trkpt>
<trkpt lon="-0.866085" lat="43.433852"><ele>192.0</ele></trkpt>
<trkpt lon="-0.866272" lat="43.433721"><ele>193.0</ele></trkpt>
<trkpt lon="-0.866421" lat="43.433567"><ele>193.0</ele></trkpt>
<trkpt lon="-0.866634" lat="43.433296"><ele>193.25</ele></trkpt>
<trkpt lon="-0.866741" lat="43.433128"><ele>192.75</ele></trkpt>
<trkpt lon="-0.866824" lat="43.432950"><ele>193.75</ele></trkpt>
<trkpt lon="-0.866914" lat="43.432527"><ele>196.5</ele></trkpt>
<trkpt lon="-0.866969" lat="43.432508"><ele>196.75</ele></trkpt>
<trkpt lon="-0.866929" lat="43.432415"><ele>196.5</ele></trkpt>
<trkpt lon="-0.866917" lat="43.432294"><ele>196.0</ele></trkpt>
<trkpt lon="-0.866973" lat="43.430813"><ele>192.0</ele></trkpt>
<trkpt lon="-0.867232" lat="43.430786"><ele>192.0</ele></trkpt>
<trkpt lon="-0.867378" lat="43.430520"><ele>192.0</ele></trkpt>
<trkpt lon="-0.867598" lat="43.430299"><ele>193.0</ele></trkpt>
<trkpt lon="-0.867826" lat="43.430161"><ele>192.75</ele></trkpt>
<trkpt lon="-0.867981" lat="43.430030"><ele>193.75</ele></trkpt>
<trkpt lon="-0.868158" lat="43.429820"><ele>195.5</ele></trkpt>
<trkpt lon="-0.868437" lat="43.429403"><ele>198.75</ele></trkpt>
<trkpt lon="-0.868612" lat="43.429159"><ele>200.75</ele></trkpt>
<trkpt lon="-0.868698" lat="43.429017"><ele>199.75</ele></trkpt>
<trkpt lon="-0.868920" lat="43.428768"><ele>196.75</ele></trkpt>
<trkpt lon="-0.869242" lat="43.428346"><ele>190.5</ele></trkpt>
<trkpt lon="-0.869459" lat="43.428108"><ele>186.25</ele></trkpt>
<trkpt lon="-0.869958" lat="43.427434"><ele>175.5</ele></trkpt>
<trkpt lon="-0.870194" lat="43.427188"><ele>172.0</ele></trkpt>
<trkpt lon="-0.870366" lat="43.427071"><ele>170.0</ele></trkpt>
<trkpt lon="-0.870583" lat="43.426979"><ele>167.75</ele></trkpt>
<trkpt lon="-0.871203" lat="43.426651"><ele>157.5</ele></trkpt>
<trkpt lon="-0.871522" lat="43.426444"><ele>152.25</ele></trkpt>
<trkpt lon="-0.871830" lat="43.426182"><ele>148.75</ele></trkpt>
<trkpt lon="-0.871923" lat="43.426139"><ele>148.0</ele></trkpt>
<trkpt lon="-0.872022" lat="43.426093"><ele>148.0</ele></trkpt>
<trkpt lon="-0.872193" lat="43.426013"><ele>149.25</ele></trkpt>
<trkpt lon="-0.872478" lat="43.425685"><ele>155.0</ele></trkpt>
<trkpt lon="-0.872928" lat="43.424872"><ele>170.25</ele></trkpt>
<trkpt lon="-0.873264" lat="43.424454"><ele>177.5</ele></trkpt>
<trkpt lon="-0.873593" lat="43.423926"><ele>187.25</ele></trkpt>
<trkpt lon="-0.873734" lat="43.423283"><ele>199.5</ele></trkpt>
<trkpt lon="-0.873819" lat="43.422874"><ele>208.5</ele></trkpt>
<trkpt lon="-0.873992" lat="43.422821"><ele>209.0</ele></trkpt>
<trkpt lon="-0.875038" lat="43.422187"><ele>198.5</ele></trkpt>
<trkpt lon="-0.875865" lat="43.421733"><ele>191.75</ele></trkpt>
<trkpt lon="-0.876433" lat="43.421303"><ele>188.25</ele></trkpt>
<trkpt lon="-0.876638" lat="43.421205"><ele>185.5</ele></trkpt>
<trkpt lon="-0.876990" lat="43.421098"><ele>180.75</ele></trkpt>
<trkpt lon="-0.877353" lat="43.420886"><ele>178.5</ele></trkpt>
<trkpt lon="-0.877848" lat="43.420366"><ele>173.75</ele></trkpt>
<trkpt lon="-0.878993" lat="43.419198"><ele>163.75</ele></trkpt>
<trkpt lon="-0.879219" lat="43.419008"><ele>162.75</ele></trkpt>
<trkpt lon="-0.879511" lat="43.418840"><ele>162.75</ele></trkpt>
<trkpt lon="-0.880316" lat="43.418504"><ele>158.25</ele></trkpt>
<trkpt lon="-0.880596" lat="43.418309"><ele>154.25</ele></trkpt>
<trkpt lon="-0.880722" lat="43.418181"><ele>152.5</ele></trkpt>
<trkpt lon="-0.880955" lat="43.417833"><ele>147.75</ele></trkpt>
<trkpt lon="-0.881859" lat="43.416697"><ele>132.5</ele></trkpt>
<trkpt lon="-0.882014" lat="43.416725"><ele>132.75</ele></trkpt>
<trkpt lon="-0.882195" lat="43.416638"><ele>133.25</ele></trkpt>
<trkpt lon="-0.882441" lat="43.416632"><ele>134.25</ele></trkpt>
<trkpt lon="-0.882596" lat="43.416590"><ele>135.5</ele></trkpt>
<trkpt lon="-0.882849" lat="43.416451"><ele>139.5</ele></trkpt>
<trkpt lon="-0.883045" lat="43.416381"><ele>143.0</ele></trkpt>
<trkpt lon="-0.883533" lat="43.416243"><ele>150.0</ele></trkpt>
<trkpt lon="-0.883935" lat="43.416116"><ele>156.25</ele></trkpt>
<trkpt lon="-0.884177" lat="43.416018"><ele>159.5</ele></trkpt>
<trkpt lon="-0.884509" lat="43.415849"><ele>163.0</ele></trkpt>
<trkpt lon="-0.884807" lat="43.415656"><ele>165.75</ele></trkpt>
<trkpt lon="-0.885306" lat="43.415298"><ele>172.75</ele></trkpt>
<trkpt lon="-0.885810" lat="43.414947"><ele>180.0</ele></trkpt>
<trkpt lon="-0.885840" lat="43.414933"><ele>180.5</ele></trkpt>
<trkpt lon="-0.885946" lat="43.414827"><ele>182.25</ele></trkpt>
<trkpt lon="-0.886058" lat="43.414542"><ele>186.0</ele></trkpt>
<trkpt lon="-0.886139" lat="43.414266"><ele>189.5</ele></trkpt>
<trkpt lon="-0.886174" lat="43.413968"><ele>193.75</ele></trkpt>
<trkpt lon="-0.886369" lat="43.413559"><ele>200.75</ele></trkpt>
<trkpt lon="-0.886466" lat="43.413377"><ele>202.75</ele></trkpt>
<trkpt lon="-0.887026" lat="43.412975"><ele>206.25</ele></trkpt>
<trkpt lon="-0.887098" lat="43.412882"><ele>205.75</ele></trkpt>
<trkpt lon="-0.887398" lat="43.412640"><ele>207.0</ele></trkpt>
<trkpt lon="-0.887784" lat="43.412527"><ele>207.25</ele></trkpt>
<trkpt lon="-0.888294" lat="43.412492"><ele>206.0</ele></trkpt>
<trkpt lon="-0.888664" lat="43.412578"><ele>206.25</ele></trkpt>
<trkpt lon="-0.888857" lat="43.412741"><ele>204.25</ele></trkpt>
<trkpt lon="-0.889093" lat="43.412749"><ele>206.0</ele></trkpt>
<trkpt lon="-0.889361" lat="43.412691"><ele>207.0</ele></trkpt>
<trkpt lon="-0.889674" lat="43.412474"><ele>206.75</ele></trkpt>
<trkpt lon="-0.890574" lat="43.411607"><ele>208.75</ele></trkpt>
<trkpt lon="-0.891024" lat="43.411484"><ele>209.5</ele></trkpt>
<trkpt lon="-0.891376" lat="43.411388"><ele>211.75</ele></trkpt>
<trkpt lon="-0.891880" lat="43.411314"><ele>213.5</ele></trkpt>
<trkpt lon="-0.892269" lat="43.411297"><ele>214.5</ele></trkpt>
<trkpt lon="-0.892545" lat="43.411303"><ele>214.0</ele></trkpt>
<trkpt lon="-0.892825" lat="43.411332"><ele>213.0</ele></trkpt>
<trkpt lon="-0.893118" lat="43.411390"><ele>210.0</ele></trkpt>
<trkpt lon="-0.894000" lat="43.411604"><ele>200.5</ele></trkpt>
<trkpt lon="-0.894248" lat="43.411630"><ele>198.75</ele></trkpt>
<trkpt lon="-0.894582" lat="43.411649"><ele>196.25</ele></trkpt>
<trkpt lon="-0.894553" lat="43.411549"><ele>195.25</ele></trkpt>
<trkpt lon="-0.894175" lat="43.411048"><ele>193.25</ele></trkpt>
<trkpt lon="-0.894165" lat="43.410694"><ele>191.5</ele></trkpt>
<trkpt lon="-0.894316" lat="43.410593"><ele>189.75</ele></trkpt>
<trkpt lon="-0.895209" lat="43.410305"><ele>182.25</ele></trkpt>
<trkpt lon="-0.896463" lat="43.409065"><ele>171.75</ele></trkpt>
<trkpt lon="-0.896959" lat="43.408527"><ele>170.75</ele></trkpt>
<trkpt lon="-0.897187" lat="43.408267"><ele>170.75</ele></trkpt>
<trkpt lon="-0.897378" lat="43.408008"><ele>172.75</ele></trkpt>
<trkpt lon="-0.897589" lat="43.407566"><ele>176.0</ele></trkpt>
<trkpt lon="-0.897804" lat="43.406720"><ele>187.5</ele></trkpt>
<trkpt lon="-0.897930" lat="43.406343"><ele>188.75</ele></trkpt>
<trkpt lon="-0.898104" lat="43.405993"><ele>188.0</ele></trkpt>
<trkpt lon="-0.898539" lat="43.405398"><ele>184.75</ele></trkpt>
<trkpt lon="-0.898918" lat="43.404313"><ele>171.0</ele></trkpt>
<trkpt lon="-0.899195" lat="43.403921"><ele>171.25</ele></trkpt>
<trkpt lon="-0.899520" lat="43.403641"><ele>173.25</ele></trkpt>
<trkpt lon="-0.899957" lat="43.403381"><ele>176.25</ele></trkpt>
<trkpt lon="-0.900120" lat="43.403229"><ele>178.0</ele></trkpt>
<trkpt lon="-0.900201" lat="43.403059"><ele>179.75</ele></trkpt>
<trkpt lon="-0.900253" lat="43.402854"><ele>179.75</ele></trkpt>
<trkpt lon="-0.900607" lat="43.402126"><ele>177.5</ele></trkpt>
<trkpt lon="-0.900626" lat="43.402083"><ele>177.25</ele></trkpt>
<trkpt lon="-0.901418" lat="43.402070"><ele>171.25</ele></trkpt>
<trkpt lon="-0.901670" lat="43.402048"><ele>169.5</ele></trkpt>
<trkpt lon="-0.902300" lat="43.401922"><ele>169.75</ele></trkpt>
<trkpt lon="-0.902636" lat="43.401900"><ele>171.75</ele></trkpt>
<trkpt lon="-0.902767" lat="43.401865"><ele>172.75</ele></trkpt>
<trkpt lon="-0.903022" lat="43.401665"><ele>174.75</ele></trkpt>
<trkpt lon="-0.902920" lat="43.401444"><ele>171.75</ele></trkpt>
<trkpt lon="-0.902958" lat="43.401343"><ele>170.0</ele></trkpt>
<trkpt lon="-0.903296" lat="43.401082"><ele>166.5</ele></trkpt>
<trkpt lon="-0.903835" lat="43.400680"><ele>162.75</ele></trkpt>
<trkpt lon="-0.904041" lat="43.400565"><ele>162.5</ele></trkpt>
<trkpt lon="-0.904167" lat="43.400417"><ele>161.0</ele></trkpt>
<trkpt lon="-0.904245" lat="43.400373"><ele>160.25</ele></trkpt>
<trkpt lon="-0.904387" lat="43.400355"><ele>160.25</ele></trkpt>
<trkpt lon="-0.904468" lat="43.400322"><ele>160.25</ele></trkpt>
<trkpt lon="-0.904570" lat="43.400201"><ele>158.75</ele></trkpt>
<trkpt lon="-0.904596" lat="43.400043"><ele>156.5</ele></trkpt>
<trkpt lon="-0.904773" lat="43.399913"><ele>155.5</ele></trkpt>
<trkpt lon="-0.904999" lat="43.399714"><ele>153.75</ele></trkpt>
<trkpt lon="-0.905291" lat="43.399480"><ele>152.5</ele></trkpt>
<trkpt lon="-0.905310" lat="43.399324"><ele>150.75</ele></trkpt>
<trkpt lon="-0.905345" lat="43.399225"><ele>149.75</ele></trkpt>
<trkpt lon="-0.905412" lat="43.399123"><ele>148.5</ele></trkpt>
<trkpt lon="-0.905463" lat="43.399001"><ele>146.25</ele></trkpt>
<trkpt lon="-0.905535" lat="43.398960"><ele>146.0</ele></trkpt>
<trkpt lon="-0.905693" lat="43.398926"><ele>146.0</ele></trkpt>
<trkpt lon="-0.905997" lat="43.398825"><ele>144.75</ele></trkpt>
<trkpt lon="-0.906326" lat="43.398679"><ele>141.0</ele></trkpt>
<trkpt lon="-0.906597" lat="43.398533"><ele>136.5</ele></trkpt>
<trkpt lon="-0.906970" lat="43.398400"><ele>131.25</ele></trkpt>
<trkpt lon="-0.907134" lat="43.398404"><ele>129.5</ele></trkpt>
<trkpt lon="-0.907528" lat="43.398546"><ele>126.25</ele></trkpt>
<trkpt lon="-0.907724" lat="43.398574"><ele>123.5</ele></trkpt>
<trkpt lon="-0.908008" lat="43.398558"><ele>119.75</ele></trkpt>
<trkpt lon="-0.908231" lat="43.398506"><ele>117.5</ele></trkpt>
<trkpt lon="-0.908381" lat="43.398383"><ele>117.0</ele></trkpt>
<trkpt lon="-0.908486" lat="43.398375"><ele>116.0</ele></trkpt>
<trkpt lon="-0.908633" lat="43.398404"><ele>114.5</ele></trkpt>
<trkpt lon="-0.908888" lat="43.398316"><ele>111.5</ele></trkpt>
<trkpt lon="-0.908998" lat="43.398324"><ele>110.25</ele></trkpt>
<trkpt lon="-0.909145" lat="43.398295"><ele>107.5</ele></trkpt>
<trkpt lon="-0.909376" lat="43.398383"><ele>105.0</ele></trkpt>
<trkpt lon="-0.909462" lat="43.398377"><ele>103.5</ele></trkpt>
<trkpt lon="-0.909580" lat="43.398276"><ele>100.75</ele></trkpt>
<trkpt lon="-0.909569" lat="43.398200"><ele>100.25</ele></trkpt>
<trkpt lon="-0.909470" lat="43.398088"><ele>100.0</ele></trkpt>
<trkpt lon="-0.909475" lat="43.398016"><ele>99.0</ele></trkpt>
<trkpt lon="-0.909620" lat="43.397833"><ele>95.75</ele></trkpt>
<trkpt lon="-0.909754" lat="43.397771"><ele>94.5</ele></trkpt>
<trkpt lon="-0.909845" lat="43.397666"><ele>94.25</ele></trkpt>
<trkpt lon="-0.909964" lat="43.397619"><ele>92.5</ele></trkpt>
<trkpt lon="-0.910141" lat="43.397455"><ele>91.0</ele></trkpt>
<trkpt lon="-0.910165" lat="43.397369"><ele>91.25</ele></trkpt>
<trkpt lon="-0.910149" lat="43.397178"><ele>91.75</ele></trkpt>
<trkpt lon="-0.910189" lat="43.396927"><ele>88.5</ele></trkpt>
<trkpt lon="-0.910098" lat="43.396722"><ele>89.25</ele></trkpt>
<trkpt lon="-0.910014" lat="43.396637"><ele>89.5</ele></trkpt>
<trkpt lon="-0.909998" lat="43.396564"><ele>89.5</ele></trkpt>
<trkpt lon="-0.910041" lat="43.396481"><ele>88.75</ele></trkpt>
<trkpt lon="-0.910269" lat="43.396307"><ele>87.25</ele></trkpt>
<trkpt lon="-0.910387" lat="43.396126"><ele>86.0</ele></trkpt>
<trkpt lon="-0.910425" lat="43.396003"><ele>85.25</ele></trkpt>
<trkpt lon="-0.910452" lat="43.395724"><ele>84.75</ele></trkpt>
<trkpt lon="-0.910570" lat="43.395498"><ele>83.5</ele></trkpt>
<trkpt lon="-0.910591" lat="43.395440"><ele>83.0</ele></trkpt>
<trkpt lon="-0.910543" lat="43.395227"><ele>82.25</ele></trkpt>
<trkpt lon="-0.910543" lat="43.395011"><ele>79.25</ele></trkpt>
<trkpt lon="-0.910570" lat="43.394904"><ele>78.75</ele></trkpt>
<trkpt lon="-0.910650" lat="43.394723"><ele>78.5</ele></trkpt>
<trkpt lon="-0.910658" lat="43.394476"><ele>77.25</ele></trkpt>
<trkpt lon="-0.910733" lat="43.394509"><ele>76.25</ele></trkpt>
<trkpt lon="-0.910783" lat="43.394525"><ele>75.75</ele></trkpt>
<trkpt lon="-0.910846" lat="43.394536"><ele>75.5</ele></trkpt>
<trkpt lon="-0.911008" lat="43.394544"><ele>78.75</ele></trkpt>
<trkpt lon="-0.911077" lat="43.394541"><ele>80.0</ele></trkpt>
<trkpt lon="-0.911176" lat="43.394529"><ele>81.25</ele></trkpt>
<trkpt lon="-0.911265" lat="43.394505"><ele>82.0</ele></trkpt>
<trkpt lon="-0.911335" lat="43.394477"><ele>82.5</ele></trkpt>
<trkpt lon="-0.911400" lat="43.394440"><ele>83.0</ele></trkpt>
<trkpt lon="-0.911480" lat="43.394361"><ele>83.5</ele></trkpt>
<trkpt lon="-0.911636" lat="43.394097"><ele>85.5</ele></trkpt>
<trkpt lon="-0.911702" lat="43.394046"><ele>86.25</ele></trkpt>
<trkpt lon="-0.911762" lat="43.394014"><ele>86.0</ele></trkpt>
<trkpt lon="-0.911853" lat="43.393992"><ele>86.0</ele></trkpt>
<trkpt lon="-0.911955" lat="43.393999"><ele>86.25</ele></trkpt>
<trkpt lon="-0.912103" lat="43.394035"><ele>85.0</ele></trkpt>
<trkpt lon="-0.912643" lat="43.394249"><ele>88.5</ele></trkpt>
<trkpt lon="-0.912964" lat="43.394327"><ele>86.75</ele></trkpt>
<trkpt lon="-0.913277" lat="43.394373"><ele>87.5</ele></trkpt>
<trkpt lon="-0.913730" lat="43.394415"><ele>88.75</ele></trkpt>
<trkpt lon="-0.914322" lat="43.394434"><ele>88.75</ele></trkpt>
<trkpt lon="-0.915685" lat="43.394429"><ele>87.0</ele></trkpt>
<trkpt lon="-0.915976" lat="43.394414"><ele>86.25</ele></trkpt>
<trkpt lon="-0.916251" lat="43.394368"><ele>85.5</ele></trkpt>
<trkpt lon="-0.917145" lat="43.394161"><ele>82.75</ele></trkpt>
<trkpt lon="-0.917546" lat="43.394091"><ele>83.25</ele></trkpt>
<trkpt lon="-0.917948" lat="43.394062"><ele>82.5</ele></trkpt>
<trkpt lon="-0.918285" lat="43.394050"><ele>81.5</ele></trkpt>
<trkpt lon="-0.918511" lat="43.394058"><ele>81.25</ele></trkpt>
<trkpt lon="-0.918595" lat="43.394061"><ele>81.0</ele></trkpt>
<trkpt lon="-0.918775" lat="43.394092"><ele>80.5</ele></trkpt>
<trkpt lon="-0.919001" lat="43.394150"><ele>80.0</ele></trkpt>
<trkpt lon="-0.919577" lat="43.394308"><ele>80.75</ele></trkpt>
<trkpt lon="-0.920935" lat="43.394702"><ele>81.0</ele></trkpt>
<trkpt lon="-0.921209" lat="43.394771"><ele>80.5</ele></trkpt>
<trkpt lon="-0.921406" lat="43.394805"><ele>80.5</ele></trkpt>
<trkpt lon="-0.921573" lat="43.394822"><ele>80.25</ele></trkpt>
<trkpt lon="-0.922314" lat="43.394850"><ele>79.75</ele></trkpt>
<trkpt lon="-0.922507" lat="43.394874"><ele>80.0</ele></trkpt>
<trkpt lon="-0.922631" lat="43.394724"><ele>79.0</ele></trkpt>
<trkpt lon="-0.922848" lat="43.394344"><ele>77.5</ele></trkpt>
<trkpt lon="-0.922900" lat="43.394110"><ele>77.0</ele></trkpt>
<trkpt lon="-0.923002" lat="43.394037"><ele>77.0</ele></trkpt>
<trkpt lon="-0.923273" lat="43.393994"><ele>76.5</ele></trkpt>
<trkpt lon="-0.924135" lat="43.393971"><ele>75.25</ele></trkpt>
<trkpt lon="-0.924295" lat="43.393942"><ele>75.0</ele></trkpt>
<trkpt lon="-0.924984" lat="43.393637"><ele>75.0</ele></trkpt>
<trkpt lon="-0.925992" lat="43.393064"><ele>73.0</ele></trkpt>
<trkpt lon="-0.926330" lat="43.392903"><ele>71.0</ele></trkpt>
<trkpt lon="-0.926613" lat="43.392838"><ele>69.0</ele></trkpt>
<trkpt lon="-0.927317" lat="43.392862"><ele>62.0</ele></trkpt>
<trkpt lon="-0.927432" lat="43.392864"><ele>61.0</ele></trkpt>
<trkpt lon="-0.927826" lat="43.393005"><ele>60.75</ele></trkpt>
<trkpt lon="-0.928381" lat="43.393067"><ele>57.75</ele></trkpt>
<trkpt lon="-0.928903" lat="43.393022"><ele>55.75</ele></trkpt>
<trkpt lon="-0.929192" lat="43.392912"><ele>55.5</ele></trkpt>
<trkpt lon="-0.929369" lat="43.392940"><ele>55.75</ele></trkpt>
<trkpt lon="-0.929694" lat="43.393050"><ele>55.0</ele></trkpt>
<trkpt lon="-0.929789" lat="43.393115"><ele>55.0</ele></trkpt>
<trkpt lon="-0.931141" lat="43.393855"><ele>55.0</ele></trkpt>
<trkpt lon="-0.931606" lat="43.394046"><ele>55.0</ele></trkpt>
<trkpt lon="-0.932295" lat="43.394307"><ele>55.0</ele></trkpt>
<trkpt lon="-0.932903" lat="43.394589"><ele>55.0</ele></trkpt>
<trkpt lon="-0.933504" lat="43.394949"><ele>55.5</ele></trkpt>
<trkpt lon="-0.933843" lat="43.395175"><ele>56.0</ele></trkpt>
<trkpt lon="-0.933922" lat="43.395263"><ele>56.5</ele></trkpt>
<trkpt lon="-0.933913" lat="43.395347"><ele>56.5</ele></trkpt>
<trkpt lon="-0.933709" lat="43.395615"><ele>57.0</ele></trkpt>
<trkpt lon="-0.933585" lat="43.395825"><ele>58.75</ele></trkpt>
<trkpt lon="-0.933815" lat="43.395803"><ele>57.25</ele></trkpt>
<trkpt lon="-0.934080" lat="43.395863"><ele>56.0</ele></trkpt>
<trkpt lon="-0.934423" lat="43.395970"><ele>55.0</ele></trkpt>
<trkpt lon="-0.935511" lat="43.396422"><ele>54.0</ele></trkpt>
<trkpt lon="-0.936238" lat="43.396646"><ele>53.0</ele></trkpt>
<trkpt lon="-0.937542" lat="43.397107"><ele>52.75</ele></trkpt>
<trkpt lon="-0.937869" lat="43.397227"><ele>52.5</ele></trkpt>
<trkpt lon="-0.938174" lat="43.397421"><ele>52.0</ele></trkpt>
<trkpt lon="-0.938654" lat="43.397728"><ele>52.25</ele></trkpt>
<trkpt lon="-0.938973" lat="43.397891"><ele>54.25</ele></trkpt>
<trkpt lon="-0.939100" lat="43.397938"><ele>54.75</ele></trkpt>
<trkpt lon="-0.939302" lat="43.398001"><ele>56.5</ele></trkpt>
<trkpt lon="-0.939229" lat="43.398024"><ele>56.5</ele></trkpt>
<trkpt lon="-0.938884" lat="43.398143"><ele>64.25</ele></trkpt>
<trkpt lon="-0.938751" lat="43.398205"><ele>67.0</ele></trkpt>
<trkpt lon="-0.938474" lat="43.398354"><ele>72.25</ele></trkpt>
<trkpt lon="-0.938388" lat="43.398361"><ele>71.5</ele></trkpt>
<trkpt lon="-0.938345" lat="43.398371"><ele>71.5</ele></trkpt>
<trkpt lon="-0.938323" lat="43.398398"><ele>72.75</ele></trkpt>
<trkpt lon="-0.938327" lat="43.398427"><ele>74.0</ele></trkpt>
<trkpt lon="-0.938337" lat="43.398452"><ele>75.0</ele></trkpt>
<trkpt lon="-0.938381" lat="43.398473"><ele>76.25</ele></trkpt>
<trkpt lon="-0.938452" lat="43.398461"><ele>76.25</ele></trkpt>
<trkpt lon="-0.938501" lat="43.398438"><ele>75.75</ele></trkpt>
<trkpt lon="-0.938572" lat="43.398426"><ele>76.0</ele></trkpt>
<trkpt lon="-0.938617" lat="43.398437"><ele>76.75</ele></trkpt>
<trkpt lon="-0.938641" lat="43.398496"><ele>78.75</ele></trkpt>
<trkpt lon="-0.938660" lat="43.398557"><ele>81.0</ele></trkpt>
<trkpt lon="-0.938739" lat="43.398765"><ele>83.25</ele></trkpt>
<trkpt lon="-0.938745" lat="43.398794"><ele>83.25</ele></trkpt>
<trkpt lon="-0.938757" lat="43.398847"><ele>83.25</ele></trkpt>
<trkpt lon="-0.938773" lat="43.399013"><ele>83.25</ele></trkpt>
<trkpt lon="-0.938779" lat="43.399078"><ele>83.0</ele></trkpt>
<trkpt lon="-0.938782" lat="43.399104"><ele>83.0</ele></trkpt>
<trkpt lon="-0.938784" lat="43.399125"><ele>83.0</ele></trkpt>
<trkpt lon="-0.939063" lat="43.399408"><ele>83.0</ele></trkpt>
<trkpt lon="-0.938981" lat="43.399479"><ele>83.0</ele></trkpt>
<trkpt lon="-0.938940" lat="43.399519"><ele>83.0</ele></trkpt>
<trkpt lon="-0.938931" lat="43.399527"><ele>83.0</ele></trkpt>
<trkpt lon="-0.938910" lat="43.399548"><ele>83.0</ele></trkpt>
<trkpt lon="-0.938886" lat="43.399571"><ele>83.0</ele></trkpt>
<trkpt lon="-0.938916" lat="43.399591"><ele>83.0</ele></trkpt>
<trkpt lon="-0.938931" lat="43.399610"><ele>83.0</ele></trkpt>
<trkpt lon="-0.938978" lat="43.399810"><ele>83.0</ele></trkpt>
<trkpt lon="-0.939034" lat="43.399803"><ele>83.0</ele></trkpt>
<trkpt lon="-0.939083" lat="43.399998"><ele>83.0</ele></trkpt>
<trkpt lon="-0.939116" lat="43.400148"><ele>83.0</ele></trkpt>
<trkpt lon="-0.939134" lat="43.400228"><ele>83.0</ele></trkpt>
<trkpt lon="-0.939144" lat="43.400270"><ele>83.0</ele></trkpt>
<trkpt lon="-0.939173" lat="43.400396"><ele>83.0</ele></trkpt>
<trkpt lon="-0.939288" lat="43.400883"><ele>83.0</ele></trkpt>
<trkpt lon="-0.939296" lat="43.400917"><ele>83.25</ele></trkpt>
<trkpt lon="-0.939306" lat="43.400958"><ele>83.25</ele></trkpt>
<trkpt lon="-0.939327" lat="43.401043"><ele>83.75</ele></trkpt>
<trkpt lon="-0.939375" lat="43.401042"><ele>83.75</ele></trkpt>
<trkpt lon="-0.939461" lat="43.401039"><ele>83.5</ele></trkpt>
<trkpt lon="-0.940272" lat="43.401010"><ele>82.75</ele></trkpt>
<trkpt lon="-0.940503" lat="43.401003"><ele>82.0</ele></trkpt>
<trkpt lon="-0.940929" lat="43.400987"><ele>82.5</ele></trkpt>
<trkpt lon="-0.941280" lat="43.400974"><ele>82.0</ele></trkpt>
<trkpt lon="-0.941358" lat="43.400972"><ele>82.0</ele></trkpt>
<trkpt lon="-0.941340" lat="43.400750"><ele>82.0</ele></trkpt>
<trkpt lon="-0.941912" lat="43.400723"><ele>82.0</ele></trkpt>
  </trkseg></trk></gpx>
