<?xml version="1.0" encoding="UTF-8"?>
<gpx version="1.1" creator="compostel-brouter" xmlns="http://www.topografix.com/GPX/1/1">
  <metadata><name>FR-32-Bazas</name></metadata>
  <trk><name>FR-32-Bazas</name><trkseg>
<trkpt lon="-0.036462" lat="44.581638"><ele>31.25</ele></trkpt>
<trkpt lon="-0.036299" lat="44.581556"><ele>33.75</ele></trkpt>
<trkpt lon="-0.035996" lat="44.581493"><ele>34.25</ele></trkpt>
<trkpt lon="-0.035880" lat="44.581482"><ele>34.5</ele></trkpt>
<trkpt lon="-0.035832" lat="44.581484"><ele>34.5</ele></trkpt>
<trkpt lon="-0.035663" lat="44.581424"><ele>34.75</ele></trkpt>
<trkpt lon="-0.035586" lat="44.581379"><ele>35.0</ele></trkpt>
<trkpt lon="-0.035373" lat="44.581196"><ele>34.5</ele></trkpt>
<trkpt lon="-0.035275" lat="44.581097"><ele>34.0</ele></trkpt>
<trkpt lon="-0.034612" lat="44.580496"><ele>32.0</ele></trkpt>
<trkpt lon="-0.034437" lat="44.580317"><ele>31.25</ele></trkpt>
<trkpt lon="-0.034391" lat="44.580253"><ele>31.0</ele></trkpt>
<trkpt lon="-0.034349" lat="44.580206"><ele>30.75</ele></trkpt>
<trkpt lon="-0.034317" lat="44.580163"><ele>30.75</ele></trkpt>
<trkpt lon="-0.034305" lat="44.580128"><ele>30.5</ele></trkpt>
<trkpt lon="-0.034309" lat="44.580088"><ele>30.25</ele></trkpt>
<trkpt lon="-0.034453" lat="44.579877"><ele>27.25</ele></trkpt>
<trkpt lon="-0.034499" lat="44.579775"><ele>25.75</ele></trkpt>
<trkpt lon="-0.034515" lat="44.579653"><ele>22.25</ele></trkpt>
<trkpt lon="-0.034282" lat="44.579640"><ele>21.75</ele></trkpt>
<trkpt lon="-0.034198" lat="44.579643"><ele>21.75</ele></trkpt>
<trkpt lon="-0.034186" lat="44.579614"><ele>21.0</ele></trkpt>
<trkpt lon="-0.034108" lat="44.579613"><ele>21.0</ele></trkpt>
<trkpt lon="-0.034107" lat="44.579546"><ele>19.5</ele></trkpt>
<trkpt lon="-0.034004" lat="44.579543"><ele>19.5</ele></trkpt>
<trkpt lon="-0.034013" lat="44.579468"><ele>18.0</ele></trkpt>
<trkpt lon="-0.034020" lat="44.579412"><ele>16.0</ele></trkpt>
<trkpt lon="-0.034224" lat="44.577927"><ele>13.0</ele></trkpt>
<trkpt lon="-0.034237" lat="44.577838"><ele>15.0</ele></trkpt>
<trkpt lon="-0.034293" lat="44.577419"><ele>16.25</ele></trkpt>
<trkpt lon="-0.034295" lat="44.577355"><ele>16.25</ele></trkpt>
<trkpt lon="-0.034275" lat="44.577277"><ele>16.0</ele></trkpt>
<trkpt lon="-0.034244" lat="44.577250"><ele>16.0</ele></trkpt>
<trkpt lon="-0.034179" lat="44.577215"><ele>15.75</ele></trkpt>
<trkpt lon="-0.034146" lat="44.577205"><ele>15.75</ele></trkpt>
<trkpt lon="-0.034103" lat="44.577191"><ele>15.5</ele></trkpt>
<trkpt lon="-0.033774" lat="44.577112"><ele>14.75</ele></trkpt>
<trkpt lon="-0.032935" lat="44.576921"><ele>15.0</ele></trkpt>
<trkpt lon="-0.032788" lat="44.576881"><ele>15.0</ele></trkpt>
<trkpt lon="-0.031930" lat="44.576619"><ele>15.5</ele></trkpt>
<trkpt lon="-0.031881" lat="44.576597"><ele>15.25</ele></trkpt>
<trkpt lon="-0.031837" lat="44.576567"><ele>15.0</ele></trkpt>
<trkpt lon="-0.031820" lat="44.576536"><ele>15.0</ele></trkpt>
<trkpt lon="-0.031818" lat="44.576487"><ele>15.0</ele></trkpt>
<trkpt lon="-0.031825" lat="44.576255"><ele>14.75</ele></trkpt>
<trkpt lon="-0.031822" lat="44.575996"><ele>14.5</ele></trkpt>
<trkpt lon="-0.032567" lat="44.575568"><ele>14.0</ele></trkpt>
<trkpt lon="-0.032720" lat="44.575516"><ele>14.0</ele></trkpt>
<trkpt lon="-0.032920" lat="44.575484"><ele>14.0</ele></trkpt>
<trkpt lon="-0.033582" lat="44.575467"><ele>14.0</ele></trkpt>
<trkpt lon="-0.033845" lat="44.575427"><ele>13.5</ele></trkpt>
<trkpt lon="-0.034442" lat="44.575303"><ele>13.75</ele></trkpt>
<trkpt lon="-0.034764" lat="44.575268"><ele>14.0</ele></trkpt>
<trkpt lon="-0.038102" lat="44.575130"><ele>13.0</ele></trkpt>
<trkpt lon="-0.038424" lat="44.575134"><ele>13.0</ele></trkpt>
<trkpt lon="-0.038771" lat="44.575177"><ele>13.0</ele></trkpt>
<trkpt lon="-0.039149" lat="44.574668"><ele>13.0</ele></trkpt>
<trkpt lon="-0.039210" lat="44.574560"><ele>13.0</ele></trkpt>
<trkpt lon="-0.039450" lat="44.574078"><ele>13.0</ele></trkpt>
<trkpt lon="-0.039693" lat="44.573505"><ele>13.0</ele></trkpt>
<trkpt lon="-0.039866" lat="44.573030"><ele>12.75</ele></trkpt>
<trkpt lon="-0.039872" lat="44.572442"><ele>12.0</ele></trkpt>
<trkpt lon="-0.039919" lat="44.571813"><ele>12.5</ele></trkpt>
<trkpt lon="-0.040068" lat="44.571377"><ele>13.0</ele></trkpt>
<trkpt lon="-0.040103" lat="44.571224"><ele>13.5</ele></trkpt>
<trkpt lon="-0.040240" lat="44.571237"><ele>13.5</ele></trkpt>
<trkpt lon="-0.040889" lat="44.571303"><ele>13.0</ele></trkpt>
<trkpt lon="-0.041481" lat="44.569429"><ele>13.75</ele></trkpt>
<trkpt lon="-0.041736" lat="44.568609"><ele>12.75</ele></trkpt>
<trkpt lon="-0.041876" lat="44.568194"><ele>12.0</ele></trkpt>
<trkpt lon="-0.041968" lat="44.567812"><ele>12.0</ele></trkpt>
<trkpt lon="-0.038765" lat="44.567268"><ele>13.0</ele></trkpt>
<trkpt lon="-0.039234" lat="44.565843"><ele>13.5</ele></trkpt>
<trkpt lon="-0.039897" lat="44.563668"><ele>14.25</ele></trkpt>
<trkpt lon="-0.039909" lat="44.563509"><ele>14.0</ele></trkpt>
<trkpt lon="-0.039806" lat="44.563454"><ele>14.25</ele></trkpt>
<trkpt lon="-0.038839" lat="44.563205"><ele>14.0</ele></trkpt>
<trkpt lon="-0.038750" lat="44.563139"><ele>14.0</ele></trkpt>
<trkpt lon="-0.038731" lat="44.563020"><ele>13.75</ele></trkpt>
<trkpt lon="-0.038679" lat="44.562186"><ele>15.75</ele></trkpt>
<trkpt lon="-0.038569" lat="44.562015"><ele>18.0</ele></trkpt>
<trkpt lon="-0.038530" lat="44.561947"><ele>18.75</ele></trkpt>
<trkpt lon="-0.038532" lat="44.561901"><ele>18.75</ele></trkpt>
<trkpt lon="-0.038560" lat="44.561824"><ele>18.25</ele></trkpt>
<trkpt lon="-0.038652" lat="44.561815"><ele>17.75</ele></trkpt>
<trkpt lon="-0.039071" lat="44.561641"><ele>17.0</ele></trkpt>
<trkpt lon="-0.039132" lat="44.561618"><ele>17.0</ele></trkpt>
<trkpt lon="-0.039508" lat="44.561522"><ele>16.5</ele></trkpt>
<trkpt lon="-0.039760" lat="44.561438"><ele>16.75</ele></trkpt>
<trkpt lon="-0.041095" lat="44.560975"><ele>16.0</ele></trkpt>
<trkpt lon="-0.042770" lat="44.560409"><ele>16.0</ele></trkpt>
<trkpt lon="-0.043427" lat="44.560176"><ele>16.0</ele></trkpt>
<trkpt lon="-0.043908" lat="44.560023"><ele>17.5</ele></trkpt>
<trkpt lon="-0.044193" lat="44.559939"><ele>17.0</ele></trkpt>
<trkpt lon="-0.044547" lat="44.559845"><ele>16.75</ele></trkpt>
<trkpt lon="-0.045144" lat="44.559700"><ele>17.25</ele></trkpt>
<trkpt lon="-0.045599" lat="44.559608"><ele>16.25</ele></trkpt>
<trkpt lon="-0.045895" lat="44.559558"><ele>16.0</ele></trkpt>
<trkpt lon="-0.046118" lat="44.559528"><ele>16.25</ele></trkpt>
<trkpt lon="-0.046969" lat="44.559443"><ele>18.0</ele></trkpt>
<trkpt lon="-0.047206" lat="44.559428"><ele>18.0</ele></trkpt>
<trkpt lon="-0.047513" lat="44.559419"><ele>18.0</ele></trkpt>
<trkpt lon="-0.047994" lat="44.559419"><ele>19.5</ele></trkpt>
<trkpt lon="-0.048294" lat="44.559367"><ele>16.5</ele></trkpt>
<trkpt lon="-0.049295" lat="44.559346"><ele>15.5</ele></trkpt>
<trkpt lon="-0.049643" lat="44.559326"><ele>15.75</ele></trkpt>
<trkpt lon="-0.050226" lat="44.559286"><ele>15.75</ele></trkpt>
<trkpt lon="-0.051171" lat="44.559197"><ele>16.5</ele></trkpt>
<trkpt lon="-0.051545" lat="44.559154"><ele>16.25</ele></trkpt>
<trkpt lon="-0.052676" lat="44.558992"><ele>15.75</ele></trkpt>
<trkpt lon="-0.053307" lat="44.558882"><ele>17.0</ele></trkpt>
<trkpt lon="-0.054231" lat="44.558674"><ele>16.25</ele></trkpt>
<trkpt lon="-0.055412" lat="44.558360"><ele>16.5</ele></trkpt>
<trkpt lon="-0.056912" lat="44.557901"><ele>16.0</ele></trkpt>
<trkpt lon="-0.058138" lat="44.557511"><ele>16.75</ele></trkpt>
<trkpt lon="-0.058875" lat="44.557306"><ele>16.5</ele></trkpt>
<trkpt lon="-0.059993" lat="44.557029"><ele>16.5</ele></trkpt>
<trkpt lon="-0.060514" lat="44.556902"><ele>16.25</ele></trkpt>
<trkpt lon="-0.060939" lat="44.556817"><ele>15.75</ele></trkpt>
<trkpt lon="-0.062125" lat="44.556601"><ele>16.75</ele></trkpt>
<trkpt lon="-0.062291" lat="44.556578"><ele>16.75</ele></trkpt>
<trkpt lon="-0.062448" lat="44.556569"><ele>17.75</ele></trkpt>
<trkpt lon="-0.062559" lat="44.556556"><ele>18.0</ele></trkpt>
<trkpt lon="-0.063085" lat="44.556466"><ele>16.0</ele></trkpt>
<trkpt lon="-0.063664" lat="44.556395"><ele>16.75</ele></trkpt>
<trkpt lon="-0.064717" lat="44.556308"><ele>17.0</ele></trkpt>
<trkpt lon="-0.065502" lat="44.556256"><ele>15.75</ele></trkpt>
<trkpt lon="-0.066309" lat="44.556220"><ele>15.75</ele></trkpt>
<trkpt lon="-0.069371" lat="44.556051"><ele>17.0</ele></trkpt>
<trkpt lon="-0.070368" lat="44.556006"><ele>16.25</ele></trkpt>
<trkpt lon="-0.075468" lat="44.555713"><ele>15.75</ele></trkpt>
<trkpt lon="-0.075797" lat="44.555652"><ele>16.75</ele></trkpt>
<trkpt lon="-0.075895" lat="44.555650"><ele>16.75</ele></trkpt>
<trkpt lon="-0.076224" lat="44.555672"><ele>16.25</ele></trkpt>
<trkpt lon="-0.079815" lat="44.555484"><ele>16.25</ele></trkpt>
<trkpt lon="-0.080778" lat="44.555426"><ele>15.75</ele></trkpt>
<trkpt lon="-0.084938" lat="44.555200"><ele>16.25</ele></trkpt>
<trkpt lon="-0.085463" lat="44.555166"><ele>16.0</ele></trkpt>
<trkpt lon="-0.086109" lat="44.555141"><ele>15.75</ele></trkpt>
<trkpt lon="-0.087917" lat="44.555035"><ele>16.5</ele></trkpt>
<trkpt lon="-0.088439" lat="44.555010"><ele>17.75</ele></trkpt>
<trkpt lon="-0.088604" lat="44.554993"><ele>17.75</ele></trkpt>
<trkpt lon="-0.088710" lat="44.554969"><ele>17.75</ele></trkpt>
<trkpt lon="-0.088820" lat="44.554935"><ele>17.75</ele></trkpt>
<trkpt lon="-0.088964" lat="44.554922"><ele>17.75</ele></trkpt>
<trkpt lon="-0.089008" lat="44.554922"><ele>17.75</ele></trkpt>
<trkpt lon="-0.089089" lat="44.554933"><ele>17.75</ele></trkpt>
<trkpt lon="-0.089231" lat="44.554976"><ele>17.75</ele></trkpt>
<trkpt lon="-0.089352" lat="44.555001"><ele>17.75</ele></trkpt>
<trkpt lon="-0.089349" lat="44.554967"><ele>17.75</ele></trkpt>
<trkpt lon="-0.089324" lat="44.554703"><ele>17.25</ele></trkpt>
<trkpt lon="-0.089321" lat="44.554675"><ele>17.0</ele></trkpt>
<trkpt lon="-0.091926" lat="44.554530"><ele>14.25</ele></trkpt>
<trkpt lon="-0.093063" lat="44.554474"><ele>15.0</ele></trkpt>
<trkpt lon="-0.093587" lat="44.554440"><ele>15.75</ele></trkpt>
<trkpt lon="-0.093753" lat="44.554429"><ele>15.75</ele></trkpt>
<trkpt lon="-0.093765" lat="44.554401"><ele>15.75</ele></trkpt>
<trkpt lon="-0.093774" lat="44.554370"><ele>15.75</ele></trkpt>
<trkpt lon="-0.093766" lat="44.554353"><ele>15.75</ele></trkpt>
<trkpt lon="-0.093564" lat="44.554164"><ele>15.75</ele></trkpt>
<trkpt lon="-0.093146" lat="44.553828"><ele>16.25</ele></trkpt>
<trkpt lon="-0.093012" lat="44.553765"><ele>16.25</ele></trkpt>
<trkpt lon="-0.092929" lat="44.553710"><ele>16.5</ele></trkpt>
<trkpt lon="-0.092917" lat="44.553608"><ele>17.0</ele></trkpt>
<trkpt lon="-0.092920" lat="44.553432"><ele>17.25</ele></trkpt>
<trkpt lon="-0.092970" lat="44.553082"><ele>18.25</ele></trkpt>
<trkpt lon="-0.093133" lat="44.552642"><ele>21.0</ele></trkpt>
<trkpt lon="-0.093212" lat="44.552530"><ele>22.0</ele></trkpt>
<trkpt lon="-0.093458" lat="44.552320"><ele>25.25</ele></trkpt>
<trkpt lon="-0.093816" lat="44.552021"><ele>29.75</ele></trkpt>
<trkpt lon="-0.094101" lat="44.551840"><ele>33.25</ele></trkpt>
<trkpt lon="-0.094294" lat="44.551742"><ele>34.5</ele></trkpt>
<trkpt lon="-0.094418" lat="44.551702"><ele>35.0</ele></trkpt>
<trkpt lon="-0.094728" lat="44.551635"><ele>37.25</ele></trkpt>
<trkpt lon="-0.095184" lat="44.551560"><ele>39.75</ele></trkpt>
<trkpt lon="-0.095234" lat="44.551527"><ele>40.25</ele></trkpt>
<trkpt lon="-0.095216" lat="44.551337"><ele>41.0</ele></trkpt>
<trkpt lon="-0.095182" lat="44.550011"><ele>45.5</ele></trkpt>
<trkpt lon="-0.095301" lat="44.550005"><ele>46.0</ele></trkpt>
<trkpt lon="-0.096531" lat="44.550074"><ele>46.25</ele></trkpt>
<trkpt lon="-0.096535" lat="44.550045"><ele>46.25</ele></trkpt>
<trkpt lon="-0.096544" lat="44.549989"><ele>46.5</ele></trkpt>
<trkpt lon="-0.096772" lat="44.549334"><ele>46.75</ele></trkpt>
<trkpt lon="-0.096881" lat="44.549082"><ele>46.75</ele></trkpt>
<trkpt lon="-0.097357" lat="44.548546"><ele>47.0</ele></trkpt>
<trkpt lon="-0.097421" lat="44.548454"><ele>47.5</ele></trkpt>
<trkpt lon="-0.097614" lat="44.548127"><ele>47.5</ele></trkpt>
<trkpt lon="-0.098263" lat="44.546656"><ele>46.0</ele></trkpt>
<trkpt lon="-0.098659" lat="44.546000"><ele>46.0</ele></trkpt>
<trkpt lon="-0.099059" lat="44.545221"><ele>46.0</ele></trkpt>
<trkpt lon="-0.099265" lat="44.544681"><ele>47.25</ele></trkpt>
<trkpt lon="-0.099368" lat="44.543913"><ele>46.25</ele></trkpt>
<trkpt lon="-0.099290" lat="44.543700"><ele>44.75</ele></trkpt>
<trkpt lon="-0.099179" lat="44.543553"><ele>43.75</ele></trkpt>
<trkpt lon="-0.098973" lat="44.543377"><ele>43.25</ele></trkpt>
<trkpt lon="-0.098862" lat="44.543340"><ele>43.0</ele></trkpt>
<trkpt lon="-0.098400" lat="44.543212"><ele>43.0</ele></trkpt>
<trkpt lon="-0.098191" lat="44.543124"><ele>43.5</ele></trkpt>
<trkpt lon="-0.098095" lat="44.543073"><ele>43.75</ele></trkpt>
<trkpt lon="-0.098137" lat="44.543019"><ele>44.0</ele></trkpt>
<trkpt lon="-0.098162" lat="44.542963"><ele>44.5</ele></trkpt>
<trkpt lon="-0.099246" lat="44.541903"><ele>48.25</ele></trkpt>
<trkpt lon="-0.099627" lat="44.541142"><ele>49.5</ele></trkpt>
<trkpt lon="-0.099984" lat="44.540495"><ele>50.0</ele></trkpt>
<trkpt lon="-0.100435" lat="44.539957"><ele>50.25</ele></trkpt>
<trkpt lon="-0.100595" lat="44.539817"><ele>50.25</ele></trkpt>
<trkpt lon="-0.100879" lat="44.539739"><ele>50.0</ele></trkpt>
<trkpt lon="-0.101975" lat="44.539259"><ele>52.0</ele></trkpt>
<trkpt lon="-0.102268" lat="44.539168"><ele>52.0</ele></trkpt>
<trkpt lon="-0.102529" lat="44.539177"><ele>52.0</ele></trkpt>
<trkpt lon="-0.102788" lat="44.539224"><ele>52.0</ele></trkpt>
<trkpt lon="-0.104411" lat="44.539600"><ele>52.0</ele></trkpt>
<trkpt lon="-0.105412" lat="44.537103"><ele>55.0</ele></trkpt>
<trkpt lon="-0.105634" lat="44.536523"><ele>55.0</ele></trkpt>
<trkpt lon="-0.105700" lat="44.536189"><ele>55.25</ele></trkpt>
<trkpt lon="-0.105762" lat="44.535691"><ele>55.0</ele></trkpt>
<trkpt lon="-0.105807" lat="44.535161"><ele>55.0</ele></trkpt>
<trkpt lon="-0.105870" lat="44.534347"><ele>57.0</ele></trkpt>
<trkpt lon="-0.105930" lat="44.533595"><ele>58.0</ele></trkpt>
<trkpt lon="-0.106031" lat="44.532493"><ele>57.75</ele></trkpt>
<trkpt lon="-0.106031" lat="44.531988"><ele>57.0</ele></trkpt>
<trkpt lon="-0.105949" lat="44.531538"><ele>56.0</ele></trkpt>
<trkpt lon="-0.105673" lat="44.530103"><ele>53.25</ele></trkpt>
<trkpt lon="-0.105681" lat="44.529946"><ele>52.75</ele></trkpt>
<trkpt lon="-0.105742" lat="44.529816"><ele>52.25</ele></trkpt>
<trkpt lon="-0.105867" lat="44.529681"><ele>52.0</ele></trkpt>
<trkpt lon="-0.106749" lat="44.528892"><ele>52.0</ele></trkpt>
<trkpt lon="-0.106921" lat="44.528720"><ele>52.5</ele></trkpt>
<trkpt lon="-0.107047" lat="44.528578"><ele>52.5</ele></trkpt>
<trkpt lon="-0.107125" lat="44.528436"><ele>52.75</ele></trkpt>
<trkpt lon="-0.107150" lat="44.528276"><ele>53.0</ele></trkpt>
<trkpt lon="-0.107189" lat="44.528122"><ele>53.0</ele></trkpt>
<trkpt lon="-0.107302" lat="44.527977"><ele>53.0</ele></trkpt>
<trkpt lon="-0.107483" lat="44.527814"><ele>53.0</ele></trkpt>
<trkpt lon="-0.107583" lat="44.527694"><ele>52.25</ele></trkpt>
<trkpt lon="-0.107613" lat="44.527562"><ele>52.0</ele></trkpt>
<trkpt lon="-0.107539" lat="44.527318"><ele>52.0</ele></trkpt>
<trkpt lon="-0.107500" lat="44.527146"><ele>51.75</ele></trkpt>
<trkpt lon="-0.107513" lat="44.526930"><ele>52.0</ele></trkpt>
<trkpt lon="-0.107595" lat="44.526666"><ele>52.0</ele></trkpt>
<trkpt lon="-0.107510" lat="44.526343"><ele>52.0</ele></trkpt>
<trkpt lon="-0.107536" lat="44.526308"><ele>52.25</ele></trkpt>
<trkpt lon="-0.108869" lat="44.524514"><ele>53.75</ele></trkpt>
<trkpt lon="-0.109409" lat="44.524190"><ele>54.0</ele></trkpt>
<trkpt lon="-0.109657" lat="44.524028"><ele>54.0</ele></trkpt>
<trkpt lon="-0.109881" lat="44.523818"><ele>54.0</ele></trkpt>
<trkpt lon="-0.109939" lat="44.523703"><ele>54.0</ele></trkpt>
<trkpt lon="-0.110096" lat="44.523326"><ele>53.75</ele></trkpt>
<trkpt lon="-0.110297" lat="44.522870"><ele>52.25</ele></trkpt>
<trkpt lon="-0.110311" lat="44.522839"><ele>52.0</ele></trkpt>
<trkpt lon="-0.110277" lat="44.522793"><ele>52.0</ele></trkpt>
<trkpt lon="-0.110262" lat="44.522773"><ele>51.75</ele></trkpt>
<trkpt lon="-0.110191" lat="44.522730"><ele>51.25</ele></trkpt>
<trkpt lon="-0.108958" lat="44.521862"><ele>43.5</ele></trkpt>
<trkpt lon="-0.108867" lat="44.521771"><ele>42.5</ele></trkpt>
<trkpt lon="-0.108790" lat="44.521636"><ele>41.0</ele></trkpt>
<trkpt lon="-0.108766" lat="44.521456"><ele>40.0</ele></trkpt>
<trkpt lon="-0.109782" lat="44.520295"><ele>38.5</ele></trkpt>
<trkpt lon="-0.110548" lat="44.519015"><ele>37.75</ele></trkpt>
<trkpt lon="-0.110782" lat="44.518808"><ele>38.0</ele></trkpt>
<trkpt lon="-0.111503" lat="44.518336"><ele>37.75</ele></trkpt>
<trkpt lon="-0.112424" lat="44.517436"><ele>38.5</ele></trkpt>
<trkpt lon="-0.113018" lat="44.516118"><ele>40.75</ele></trkpt>
<trkpt lon="-0.113493" lat="44.514505"><ele>41.25</ele></trkpt>
<trkpt lon="-0.113459" lat="44.514041"><ele>41.75</ele></trkpt>
<trkpt lon="-0.113300" lat="44.511930"><ele>42.75</ele></trkpt>
<trkpt lon="-0.113193" lat="44.510864"><ele>43.25</ele></trkpt>
<trkpt lon="-0.112937" lat="44.510417"><ele>43.5</ele></trkpt>
<trkpt lon="-0.111352" lat="44.508555"><ele>46.5</ele></trkpt>
<trkpt lon="-0.111235" lat="44.508146"><ele>47.5</ele></trkpt>
<trkpt lon="-0.111303" lat="44.507462"><ele>45.5</ele></trkpt>
<trkpt lon="-0.111328" lat="44.507123"><ele>45.75</ele></trkpt>
<trkpt lon="-0.111706" lat="44.506363"><ele>48.0</ele></trkpt>
<trkpt lon="-0.111905" lat="44.505913"><ele>48.25</ele></trkpt>
<trkpt lon="-0.111849" lat="44.505703"><ele>48.75</ele></trkpt>
<trkpt lon="-0.111606" lat="44.504149"><ele>48.25</ele></trkpt>
<trkpt lon="-0.111468" lat="44.503417"><ele>44.75</ele></trkpt>
<trkpt lon="-0.111444" lat="44.503169"><ele>44.0</ele></trkpt>
<trkpt lon="-0.111419" lat="44.502918"><ele>44.75</ele></trkpt>
<trkpt lon="-0.110893" lat="44.502076"><ele>45.25</ele></trkpt>
<trkpt lon="-0.110056" lat="44.501158"><ele>45.75</ele></trkpt>
<trkpt lon="-0.109348" lat="44.500561"><ele>46.25</ele></trkpt>
<trkpt lon="-0.109193" lat="44.500415"><ele>46.0</ele></trkpt>
<trkpt lon="-0.109238" lat="44.500354"><ele>46.5</ele></trkpt>
<trkpt lon="-0.109146" lat="44.500221"><ele>47.0</ele></trkpt>
<trkpt lon="-0.108958" lat="44.499895"><ele>47.5</ele></trkpt>
<trkpt lon="-0.108982" lat="44.499842"><ele>48.0</ele></trkpt>
<trkpt lon="-0.109315" lat="44.499731"><ele>50.25</ele></trkpt>
<trkpt lon="-0.110331" lat="44.499471"><ele>56.75</ele></trkpt>
<trkpt lon="-0.110174" lat="44.498929"><ele>56.5</ele></trkpt>
<trkpt lon="-0.110570" lat="44.498874"><ele>57.75</ele></trkpt>
<trkpt lon="-0.112454" lat="44.498640"><ele>62.75</ele></trkpt>
<trkpt lon="-0.114080" lat="44.498354"><ele>69.25</ele></trkpt>
<trkpt lon="-0.115905" lat="44.498278"><ele>75.25</ele></trkpt>
<trkpt lon="-0.116660" lat="44.498222"><ele>77.25</ele></trkpt>
<trkpt lon="-0.117461" lat="44.498302"><ele>80.5</ele></trkpt>
<trkpt lon="-0.117384" lat="44.498712"><ele>79.0</ele></trkpt>
<trkpt lon="-0.117426" lat="44.498802"><ele>79.0</ele></trkpt>
<trkpt lon="-0.117801" lat="44.498839"><ele>80.25</ele></trkpt>
<trkpt lon="-0.118070" lat="44.498891"><ele>81.0</ele></trkpt>
<trkpt lon="-0.118565" lat="44.499015"><ele>84.0</ele></trkpt>
<trkpt lon="-0.118659" lat="44.498843"><ele>85.25</ele></trkpt>
<trkpt lon="-0.120064" lat="44.496756"><ele>86.25</ele></trkpt>
<trkpt lon="-0.120204" lat="44.496384"><ele>89.0</ele></trkpt>
<trkpt lon="-0.120280" lat="44.495931"><ele>90.5</ele></trkpt>
<trkpt lon="-0.120300" lat="44.495815"><ele>91.0</ele></trkpt>
<trkpt lon="-0.120582" lat="44.494486"><ele>89.0</ele></trkpt>
<trkpt lon="-0.120828" lat="44.493895"><ele>88.0</ele></trkpt>
<trkpt lon="-0.121164" lat="44.493380"><ele>87.0</ele></trkpt>
<trkpt lon="-0.121437" lat="44.492809"><ele>86.0</ele></trkpt>
<trkpt lon="-0.121552" lat="44.491494"><ele>88.25</ele></trkpt>
<trkpt lon="-0.121661" lat="44.491254"><ele>89.75</ele></trkpt>
<trkpt lon="-0.121751" lat="44.491191"><ele>90.5</ele></trkpt>
<trkpt lon="-0.121885" lat="44.491181"><ele>91.25</ele></trkpt>
<trkpt lon="-0.122240" lat="44.491273"><ele>91.25</ele></trkpt>
<trkpt lon="-0.122729" lat="44.491349"><ele>92.75</ele></trkpt>
<trkpt lon="-0.123683" lat="44.491774"><ele>93.25</ele></trkpt>
<trkpt lon="-0.124632" lat="44.492219"><ele>95.25</ele></trkpt>
<trkpt lon="-0.125074" lat="44.492445"><ele>94.75</ele></trkpt>
<trkpt lon="-0.125474" lat="44.492620"><ele>94.75</ele></trkpt>
<trkpt lon="-0.126323" lat="44.493091"><ele>94.5</ele></trkpt>
<trkpt lon="-0.126607" lat="44.493264"><ele>94.25</ele></trkpt>
<trkpt lon="-0.127076" lat="44.493485"><ele>93.5</ele></trkpt>
<trkpt lon="-0.127228" lat="44.493539"><ele>93.5</ele></trkpt>
<trkpt lon="-0.127381" lat="44.493554"><ele>93.75</ele></trkpt>
<trkpt lon="-0.127529" lat="44.493547"><ele>94.5</ele></trkpt>
<trkpt lon="-0.127702" lat="44.493521"><ele>95.25</ele></trkpt>
<trkpt lon="-0.128473" lat="44.493318"><ele>100.5</ele></trkpt>
<trkpt lon="-0.128612" lat="44.493452"><ele>99.5</ele></trkpt>
<trkpt lon="-0.128662" lat="44.493567"><ele>98.5</ele></trkpt>
<trkpt lon="-0.128670" lat="44.493674"><ele>97.5</ele></trkpt>
<trkpt lon="-0.128650" lat="44.493791"><ele>96.0</ele></trkpt>
<trkpt lon="-0.128550" lat="44.494028"><ele>93.75</ele></trkpt>
<trkpt lon="-0.128548" lat="44.494130"><ele>93.0</ele></trkpt>
<trkpt lon="-0.128574" lat="44.494252"><ele>92.25</ele></trkpt>
<trkpt lon="-0.128655" lat="44.494356"><ele>91.5</ele></trkpt>
<trkpt lon="-0.128763" lat="44.494474"><ele>90.5</ele></trkpt>
<trkpt lon="-0.129230" lat="44.494881"><ele>88.25</ele></trkpt>
<trkpt lon="-0.129872" lat="44.495574"><ele>85.25</ele></trkpt>
<trkpt lon="-0.130003" lat="44.495697"><ele>84.25</ele></trkpt>
<trkpt lon="-0.130264" lat="44.495883"><ele>84.25</ele></trkpt>
<trkpt lon="-0.130659" lat="44.496067"><ele>83.75</ele></trkpt>
<trkpt lon="-0.131108" lat="44.496373"><ele>83.0</ele></trkpt>
<trkpt lon="-0.131326" lat="44.496496"><ele>80.5</ele></trkpt>
<trkpt lon="-0.131629" lat="44.496610"><ele>78.75</ele></trkpt>
<trkpt lon="-0.131904" lat="44.496703"><ele>79.0</ele></trkpt>
<trkpt lon="-0.132158" lat="44.496771"><ele>80.0</ele></trkpt>
<trkpt lon="-0.133125" lat="44.496920"><ele>85.25</ele></trkpt>
<trkpt lon="-0.133841" lat="44.496971"><ele>87.75</ele></trkpt>
<trkpt lon="-0.134249" lat="44.496956"><ele>88.75</ele></trkpt>
<trkpt lon="-0.135789" lat="44.496798"><ele>91.75</ele></trkpt>
<trkpt lon="-0.136303" lat="44.496772"><ele>92.75</ele></trkpt>
<trkpt lon="-0.136764" lat="44.496778"><ele>94.25</ele></trkpt>
<trkpt lon="-0.138757" lat="44.496946"><ele>97.75</ele></trkpt>
<trkpt lon="-0.139894" lat="44.497031"><ele>100.0</ele></trkpt>
<trkpt lon="-0.140436" lat="44.497057"><ele>100.75</ele></trkpt>
<trkpt lon="-0.141711" lat="44.496915"><ele>101.0</ele></trkpt>
<trkpt lon="-0.142908" lat="44.496969"><ele>102.0</ele></trkpt>
<trkpt lon="-0.143926" lat="44.497011"><ele>102.75</ele></trkpt>
<trkpt lon="-0.143974" lat="44.497013"><ele>102.75</ele></trkpt>
<trkpt lon="-0.144143" lat="44.497022"><ele>102.5</ele></trkpt>
<trkpt lon="-0.144627" lat="44.497082"><ele>102.5</ele></trkpt>
<trkpt lon="-0.146104" lat="44.497188"><ele>102.0</ele></trkpt>
<trkpt lon="-0.146098" lat="44.497270"><ele>101.75</ele></trkpt>
<trkpt lon="-0.146055" lat="44.497918"><ele>101.0</ele></trkpt>
<trkpt lon="-0.146040" lat="44.498145"><ele>101.0</ele></trkpt>
<trkpt lon="-0.146024" lat="44.498401"><ele>101.0</ele></trkpt>
<trkpt lon="-0.146546" lat="44.498425"><ele>101.0</ele></trkpt>
<trkpt lon="-0.147372" lat="44.498464"><ele>100.5</ele></trkpt>
<trkpt lon="-0.148164" lat="44.498470"><ele>100.25</ele></trkpt>
<trkpt lon="-0.148923" lat="44.498546"><ele>97.25</ele></trkpt>
<trkpt lon="-0.148849" lat="44.498063"><ele>96.25</ele></trkpt>
<trkpt lon="-0.148911" lat="44.497938"><ele>95.75</ele></trkpt>
<trkpt lon="-0.149054" lat="44.497885"><ele>95.0</ele></trkpt>
<trkpt lon="-0.149790" lat="44.497796"><ele>93.0</ele></trkpt>
<trkpt lon="-0.149857" lat="44.497791"><ele>93.25</ele></trkpt>
<trkpt lon="-0.149793" lat="44.498368"><ele>89.75</ele></trkpt>
<trkpt lon="-0.149865" lat="44.498364"><ele>89.75</ele></trkpt>
<trkpt lon="-0.150333" lat="44.498287"><ele>90.25</ele></trkpt>
<trkpt lon="-0.150690" lat="44.498193"><ele>91.75</ele></trkpt>
<trkpt lon="-0.150891" lat="44.498111"><ele>92.5</ele></trkpt>
<trkpt lon="-0.151014" lat="44.498017"><ele>92.0</ele></trkpt>
<trkpt lon="-0.151469" lat="44.498573"><ele>93.75</ele></trkpt>
<trkpt lon="-0.151694" lat="44.498651"><ele>94.0</ele></trkpt>
<trkpt lon="-0.152106" lat="44.498698"><ele>93.5</ele></trkpt>
<trkpt lon="-0.152149" lat="44.498637"><ele>92.5</ele></trkpt>
<trkpt lon="-0.152229" lat="44.498607"><ele>91.75</ele></trkpt>
<trkpt lon="-0.152393" lat="44.498592"><ele>90.75</ele></trkpt>
<trkpt lon="-0.152836" lat="44.498488"><ele>86.25</ele></trkpt>
<trkpt lon="-0.153080" lat="44.498482"><ele>83.25</ele></trkpt>
<trkpt lon="-0.153265" lat="44.498507"><ele>80.0</ele></trkpt>
<trkpt lon="-0.153495" lat="44.498599"><ele>77.5</ele></trkpt>
<trkpt lon="-0.154098" lat="44.499148"><ele>71.75</ele></trkpt>
<trkpt lon="-0.154675" lat="44.499659"><ele>61.5</ele></trkpt>
<trkpt lon="-0.155300" lat="44.500120"><ele>56.0</ele></trkpt>
<trkpt lon="-0.155517" lat="44.500396"><ele>53.5</ele></trkpt>
<trkpt lon="-0.155603" lat="44.500574"><ele>52.75</ele></trkpt>
<trkpt lon="-0.155789" lat="44.501141"><ele>50.25</ele></trkpt>
<trkpt lon="-0.155873" lat="44.501239"><ele>48.5</ele></trkpt>
<trkpt lon="-0.156054" lat="44.501187"><ele>46.25</ele></trkpt>
<trkpt lon="-0.157321" lat="44.500588"><ele>32.25</ele></trkpt>
<trkpt lon="-0.157922" lat="44.500315"><ele>27.5</ele></trkpt>
<trkpt lon="-0.158425" lat="44.500185"><ele>27.0</ele></trkpt>
<trkpt lon="-0.158434" lat="44.500183"><ele>27.0</ele></trkpt>
<trkpt lon="-0.158486" lat="44.500170"><ele>26.75</ele></trkpt>
<trkpt lon="-0.158494" lat="44.500168"><ele>26.75</ele></trkpt>
<trkpt lon="-0.158767" lat="44.500097"><ele>27.0</ele></trkpt>
<trkpt lon="-0.158924" lat="44.500022"><ele>27.25</ele></trkpt>
<trkpt lon="-0.158904" lat="44.499910"><ele>27.5</ele></trkpt>
<trkpt lon="-0.158497" lat="44.499478"><ele>27.75</ele></trkpt>
<trkpt lon="-0.158384" lat="44.499252"><ele>28.25</ele></trkpt>
<trkpt lon="-0.158379" lat="44.499006"><ele>28.75</ele></trkpt>
<trkpt lon="-0.159819" lat="44.499059"><ele>36.5</ele></trkpt>
<trkpt lon="-0.162117" lat="44.498825"><ele>41.75</ele></trkpt>
<trkpt lon="-0.162476" lat="44.498823"><ele>42.0</ele></trkpt>
<trkpt lon="-0.165306" lat="44.498805"><ele>44.5</ele></trkpt>
<trkpt lon="-0.165303" lat="44.498327"><ele>46.0</ele></trkpt>
<trkpt lon="-0.165613" lat="44.497585"><ele>46.5</ele></trkpt>
<trkpt lon="-0.165660" lat="44.497258"><ele>46.75</ele></trkpt>
<trkpt lon="-0.165507" lat="44.496657"><ele>46.75</ele></trkpt>
<trkpt lon="-0.165112" lat="44.495104"><ele>45.5</ele></trkpt>
<trkpt lon="-0.165008" lat="44.495070"><ele>45.5</ele></trkpt>
<trkpt lon="-0.164780" lat="44.494950"><ele>45.25</ele></trkpt>
<trkpt lon="-0.164639" lat="44.494812"><ele>45.25</ele></trkpt>
<trkpt lon="-0.164980" lat="44.494584"><ele>47.25</ele></trkpt>
<trkpt lon="-0.164921" lat="44.494352"><ele>47.5</ele></trkpt>
<trkpt lon="-0.164922" lat="44.494087"><ele>48.0</ele></trkpt>
<trkpt lon="-0.170519" lat="44.493837"><ele>71.0</ele></trkpt>
<trkpt lon="-0.173584" lat="44.493735"><ele>82.0</ele></trkpt>
<trkpt lon="-0.175267" lat="44.494346"><ele>87.5</ele></trkpt>
<trkpt lon="-0.175664" lat="44.494348"><ele>90.0</ele></trkpt>
<trkpt lon="-0.176312" lat="44.494349"><ele>92.0</ele></trkpt>
<trkpt lon="-0.178974" lat="44.494747"><ele>98.25</ele></trkpt>
<trkpt lon="-0.180287" lat="44.494804"><ele>99.75</ele></trkpt>
<trkpt lon="-0.182240" lat="44.494888"><ele>99.25</ele></trkpt>
<trkpt lon="-0.183510" lat="44.495092"><ele>98.75</ele></trkpt>
<trkpt lon="-0.184186" lat="44.495200"><ele>100.5</ele></trkpt>
<trkpt lon="-0.184708" lat="44.495284"><ele>101.0</ele></trkpt>
<trkpt lon="-0.187247" lat="44.495761"><ele>104.0</ele></trkpt>
<trkpt lon="-0.187571" lat="44.495822"><ele>104.0</ele></trkpt>
<trkpt lon="-0.187637" lat="44.495834"><ele>104.0</ele></trkpt>
<trkpt lon="-0.187969" lat="44.495857"><ele>104.0</ele></trkpt>
<trkpt lon="-0.188100" lat="44.495866"><ele>104.0</ele></trkpt>
<trkpt lon="-0.188446" lat="44.495875"><ele>103.5</ele></trkpt>
<trkpt lon="-0.189261" lat="44.495891"><ele>103.0</ele></trkpt>
<trkpt lon="-0.190048" lat="44.495905"><ele>102.5</ele></trkpt>
<trkpt lon="-0.190547" lat="44.495915"><ele>102.0</ele></trkpt>
<trkpt lon="-0.190803" lat="44.495920"><ele>102.0</ele></trkpt>
<trkpt lon="-0.190921" lat="44.495525"><ele>103.0</ele></trkpt>
<trkpt lon="-0.190940" lat="44.495372"><ele>103.0</ele></trkpt>
<trkpt lon="-0.190991" lat="44.494957"><ele>103.0</ele></trkpt>
<trkpt lon="-0.191102" lat="44.494674"><ele>104.0</ele></trkpt>
<trkpt lon="-0.192293" lat="44.493415"><ele>106.75</ele></trkpt>
<trkpt lon="-0.192684" lat="44.492809"><ele>107.75</ele></trkpt>
<trkpt lon="-0.192987" lat="44.492341"><ele>107.5</ele></trkpt>
<trkpt lon="-0.193276" lat="44.491893"><ele>108.25</ele></trkpt>
<trkpt lon="-0.193436" lat="44.491646"><ele>109.0</ele></trkpt>
<trkpt lon="-0.193855" lat="44.491108"><ele>109.0</ele></trkpt>
<trkpt lon="-0.194095" lat="44.490801"><ele>109.0</ele></trkpt>
<trkpt lon="-0.194332" lat="44.490497"><ele>109.25</ele></trkpt>
<trkpt lon="-0.194663" lat="44.490073"><ele>109.0</ele></trkpt>
<trkpt lon="-0.195381" lat="44.489169"><ele>109.25</ele></trkpt>
<trkpt lon="-0.195603" lat="44.488867"><ele>109.75</ele></trkpt>
<trkpt lon="-0.195833" lat="44.488768"><ele>109.5</ele></trkpt>
<trkpt lon="-0.195897" lat="44.488741"><ele>109.5</ele></trkpt>
<trkpt lon="-0.194369" lat="44.486697"><ele>106.0</ele></trkpt>
<trkpt lon="-0.194173" lat="44.486591"><ele>106.0</ele></trkpt>
<trkpt lon="-0.194182" lat="44.486523"><ele>106.0</ele></trkpt>
<trkpt lon="-0.193867" lat="44.485828"><ele>108.0</ele></trkpt>
<trkpt lon="-0.195825" lat="44.485513"><ele>108.75</ele></trkpt>
<trkpt lon="-0.195873" lat="44.485437"><ele>109.0</ele></trkpt>
<trkpt lon="-0.196140" lat="44.485016"><ele>109.0</ele></trkpt>
<trkpt lon="-0.196361" lat="44.484823"><ele>109.0</ele></trkpt>
<trkpt lon="-0.196566" lat="44.484606"><ele>109.25</ele></trkpt>
<trkpt lon="-0.197395" lat="44.482957"><ele>106.75</ele></trkpt>
<trkpt lon="-0.198457" lat="44.481521"><ele>102.25</ele></trkpt>
<trkpt lon="-0.198893" lat="44.480728"><ele>101.5</ele></trkpt>
<trkpt lon="-0.199457" lat="44.477950"><ele>87.0</ele></trkpt>
<trkpt lon="-0.199628" lat="44.477828"><ele>85.5</ele></trkpt>
<trkpt lon="-0.200125" lat="44.477481"><ele>81.25</ele></trkpt>
<trkpt lon="-0.200320" lat="44.477181"><ele>79.5</ele></trkpt>
<trkpt lon="-0.200543" lat="44.476880"><ele>77.75</ele></trkpt>
<trkpt lon="-0.200645" lat="44.476581"><ele>76.25</ele></trkpt>
<trkpt lon="-0.200912" lat="44.476108"><ele>73.0</ele></trkpt>
<trkpt lon="-0.201090" lat="44.476057"><ele>70.5</ele></trkpt>
<trkpt lon="-0.201321" lat="44.476061"><ele>68.75</ele></trkpt>
<trkpt lon="-0.201754" lat="44.476178"><ele>65.75</ele></trkpt>
<trkpt lon="-0.201807" lat="44.476192"><ele>65.25</ele></trkpt>
<trkpt lon="-0.202527" lat="44.476388"><ele>66.0</ele></trkpt>
<trkpt lon="-0.202835" lat="44.476439"><ele>69.0</ele></trkpt>
<trkpt lon="-0.203024" lat="44.476388"><ele>68.75</ele></trkpt>
<trkpt lon="-0.203157" lat="44.476247"><ele>68.25</ele></trkpt>
<trkpt lon="-0.203441" lat="44.475476"><ele>75.75</ele></trkpt>
<trkpt lon="-0.203636" lat="44.475069"><ele>79.75</ele></trkpt>
<trkpt lon="-0.204022" lat="44.474793"><ele>81.75</ele></trkpt>
<trkpt lon="-0.204560" lat="44.474487"><ele>84.75</ele></trkpt>
<trkpt lon="-0.205294" lat="44.474103"><ele>90.0</ele></trkpt>
<trkpt lon="-0.205540" lat="44.474034"><ele>91.25</ele></trkpt>
<trkpt lon="-0.206189" lat="44.473996"><ele>92.5</ele></trkpt>
<trkpt lon="-0.206418" lat="44.473940"><ele>93.5</ele></trkpt>
<trkpt lon="-0.206525" lat="44.473874"><ele>94.5</ele></trkpt>
<trkpt lon="-0.206639" lat="44.473736"><ele>96.0</ele></trkpt>
<trkpt lon="-0.206669" lat="44.473721"><ele>96.0</ele></trkpt>
<trkpt lon="-0.206699" lat="44.473722"><ele>96.0</ele></trkpt>
<trkpt lon="-0.206729" lat="44.473723"><ele>96.25</ele></trkpt>
<trkpt lon="-0.207825" lat="44.473457"><ele>99.5</ele></trkpt>
<trkpt lon="-0.208001" lat="44.473403"><ele>99.75</ele></trkpt>
<trkpt lon="-0.208095" lat="44.473359"><ele>100.0</ele></trkpt>
<trkpt lon="-0.208584" lat="44.473046"><ele>101.0</ele></trkpt>
<trkpt lon="-0.208692" lat="44.472967"><ele>101.5</ele></trkpt>
<trkpt lon="-0.208732" lat="44.472918"><ele>101.5</ele></trkpt>
<trkpt lon="-0.208751" lat="44.472878"><ele>101.75</ele></trkpt>
<trkpt lon="-0.208760" lat="44.472836"><ele>101.75</ele></trkpt>
<trkpt lon="-0.208741" lat="44.471853"><ele>104.25</ele></trkpt>
<trkpt lon="-0.208732" lat="44.471374"><ele>104.75</ele></trkpt>
<trkpt lon="-0.208934" lat="44.471371"><ele>104.75</ele></trkpt>
<trkpt lon="-0.209600" lat="44.471377"><ele>106.0</ele></trkpt>
<trkpt lon="-0.210619" lat="44.471341"><ele>107.0</ele></trkpt>
<trkpt lon="-0.210998" lat="44.471353"><ele>107.25</ele></trkpt>
<trkpt lon="-0.211244" lat="44.471375"><ele>106.75</ele></trkpt>
<trkpt lon="-0.211497" lat="44.471409"><ele>107.0</ele></trkpt>
<trkpt lon="-0.211727" lat="44.471449"><ele>106.75</ele></trkpt>
<trkpt lon="-0.211891" lat="44.471485"><ele>106.25</ele></trkpt>
<trkpt lon="-0.212137" lat="44.471555"><ele>106.5</ele></trkpt>
<trkpt lon="-0.212747" lat="44.471769"><ele>107.25</ele></trkpt>
<trkpt lon="-0.212868" lat="44.471823"><ele>107.25</ele></trkpt>
<trkpt lon="-0.212937" lat="44.471861"><ele>107.25</ele></trkpt>
<trkpt lon="-0.213204" lat="44.472044"><ele>107.25</ele></trkpt>
<trkpt lon="-0.213320" lat="44.472142"><ele>107.5</ele></trkpt>
<trkpt lon="-0.213479" lat="44.472282"><ele>108.0</ele></trkpt>
<trkpt lon="-0.213506" lat="44.472314"><ele>108.0</ele></trkpt>
<trkpt lon="-0.213625" lat="44.472240"><ele>108.0</ele></trkpt>
<trkpt lon="-0.213875" lat="44.471666"><ele>107.75</ele></trkpt>
<trkpt lon="-0.214122" lat="44.471139"><ele>107.0</ele></trkpt>
<trkpt lon="-0.214351" lat="44.470736"><ele>106.5</ele></trkpt>
<trkpt lon="-0.215231" lat="44.469664"><ele>103.75</ele></trkpt>
<trkpt lon="-0.215354" lat="44.469572"><ele>103.25</ele></trkpt>
<trkpt lon="-0.215610" lat="44.469342"><ele>103.0</ele></trkpt>
<trkpt lon="-0.215855" lat="44.469083"><ele>104.0</ele></trkpt>
<trkpt lon="-0.216046" lat="44.468840"><ele>104.75</ele></trkpt>
<trkpt lon="-0.216354" lat="44.468357"><ele>106.75</ele></trkpt>
<trkpt lon="-0.216692" lat="44.467795"><ele>107.75</ele></trkpt>
<trkpt lon="-0.217065" lat="44.467019"><ele>108.25</ele></trkpt>
<trkpt lon="-0.217188" lat="44.466670"><ele>108.0</ele></trkpt>
<trkpt lon="-0.217282" lat="44.466302"><ele>107.5</ele></trkpt>
<trkpt lon="-0.217368" lat="44.466084"><ele>106.75</ele></trkpt>
<trkpt lon="-0.217470" lat="44.465916"><ele>106.25</ele></trkpt>
<trkpt lon="-0.217806" lat="44.465220"><ele>102.5</ele></trkpt>
<trkpt lon="-0.217859" lat="44.465036"><ele>101.0</ele></trkpt>
<trkpt lon="-0.217773" lat="44.464320"><ele>98.75</ele></trkpt>
<trkpt lon="-0.218052" lat="44.463084"><ele>102.0</ele></trkpt>
<trkpt lon="-0.218058" lat="44.462839"><ele>101.0</ele></trkpt>
<trkpt lon="-0.217964" lat="44.462513"><ele>99.5</ele></trkpt>
<trkpt lon="-0.217680" lat="44.462216"><ele>96.5</ele></trkpt>
<trkpt lon="-0.217237" lat="44.461772"><ele>92.75</ele></trkpt>
<trkpt lon="-0.217055" lat="44.461211"><ele>91.75</ele></trkpt>
<trkpt lon="-0.217015" lat="44.461108"><ele>92.0</ele></trkpt>
<trkpt lon="-0.217028" lat="44.460903"><ele>94.0</ele></trkpt>
<trkpt lon="-0.217251" lat="44.460677"><ele>97.25</ele></trkpt>
<trkpt lon="-0.217698" lat="44.460384"><ele>99.25</ele></trkpt>
<trkpt lon="-0.217824" lat="44.460269"><ele>99.25</ele></trkpt>
<trkpt lon="-0.217881" lat="44.460154"><ele>99.5</ele></trkpt>
<trkpt lon="-0.217881" lat="44.460043"><ele>100.5</ele></trkpt>
<trkpt lon="-0.217838" lat="44.459932"><ele>101.0</ele></trkpt>
<trkpt lon="-0.217632" lat="44.459807"><ele>102.5</ele></trkpt>
<trkpt lon="-0.217033" lat="44.459526"><ele>106.25</ele></trkpt>
<trkpt lon="-0.216730" lat="44.459356"><ele>108.5</ele></trkpt>
<trkpt lon="-0.216532" lat="44.459147"><ele>109.5</ele></trkpt>
<trkpt lon="-0.216489" lat="44.458978"><ele>110.0</ele></trkpt>
<trkpt lon="-0.216490" lat="44.458822"><ele>110.5</ele></trkpt>
<trkpt lon="-0.216566" lat="44.458638"><ele>111.0</ele></trkpt>
<trkpt lon="-0.216703" lat="44.458486"><ele>111.75</ele></trkpt>
<trkpt lon="-0.217916" lat="44.457574"><ele>114.5</ele></trkpt>
<trkpt lon="-0.218760" lat="44.456812"><ele>117.5</ele></trkpt>
<trkpt lon="-0.218986" lat="44.456567"><ele>118.0</ele></trkpt>
<trkpt lon="-0.219024" lat="44.456437"><ele>118.25</ele></trkpt>
<trkpt lon="-0.218992" lat="44.456319"><ele>118.5</ele></trkpt>
<trkpt lon="-0.218925" lat="44.456215"><ele>118.75</ele></trkpt>
<trkpt lon="-0.217822" lat="44.455051"><ele>121.75</ele></trkpt>
<trkpt lon="-0.216840" lat="44.454453"><ele>123.0</ele></trkpt>
<trkpt lon="-0.216753" lat="44.454377"><ele>123.0</ele></trkpt>
<trkpt lon="-0.216701" lat="44.454300"><ele>123.0</ele></trkpt>
<trkpt lon="-0.216717" lat="44.454109"><ele>123.0</ele></trkpt>
<trkpt lon="-0.216765" lat="44.453917"><ele>123.5</ele></trkpt>
<trkpt lon="-0.217226" lat="44.452166"><ele>123.0</ele></trkpt>
<trkpt lon="-0.217763" lat="44.451104"><ele>124.0</ele></trkpt>
<trkpt lon="-0.217885" lat="44.450888"><ele>124.0</ele></trkpt>
<trkpt lon="-0.218002" lat="44.450783"><ele>123.75</ele></trkpt>
<trkpt lon="-0.218149" lat="44.450737"><ele>123.75</ele></trkpt>
<trkpt lon="-0.218389" lat="44.450748"><ele>124.0</ele></trkpt>
<trkpt lon="-0.219193" lat="44.450921"><ele>124.0</ele></trkpt>
<trkpt lon="-0.219404" lat="44.450915"><ele>124.0</ele></trkpt>
<trkpt lon="-0.219501" lat="44.450856"><ele>124.0</ele></trkpt>
<trkpt lon="-0.219597" lat="44.450777"><ele>124.0</ele></trkpt>
<trkpt lon="-0.219672" lat="44.450417"><ele>124.0</ele></trkpt>
<trkpt lon="-0.219737" lat="44.449555"><ele>123.0</ele></trkpt>
<trkpt lon="-0.219265" lat="44.448112"><ele>121.25</ele></trkpt>
<trkpt lon="-0.219340" lat="44.446802"><ele>118.75</ele></trkpt>
<trkpt lon="-0.219078" lat="44.445527"><ele>109.75</ele></trkpt>
<trkpt lon="-0.218653" lat="44.443746"><ele>103.0</ele></trkpt>
<trkpt lon="-0.218750" lat="44.442735"><ele>102.0</ele></trkpt>
<trkpt lon="-0.218718" lat="44.442317"><ele>102.0</ele></trkpt>
<trkpt lon="-0.218573" lat="44.441801"><ele>100.25</ele></trkpt>
<trkpt lon="-0.218718" lat="44.441655"><ele>100.25</ele></trkpt>
<trkpt lon="-0.218688" lat="44.441638"><ele>100.25</ele></trkpt>
<trkpt lon="-0.218282" lat="44.441412"><ele>98.75</ele></trkpt>
<trkpt lon="-0.217565" lat="44.440923"><ele>96.5</ele></trkpt>
<trkpt lon="-0.216934" lat="44.440175"><ele>96.5</ele></trkpt>
<trkpt lon="-0.216634" lat="44.439715"><ele>95.5</ele></trkpt>
<trkpt lon="-0.216442" lat="44.439252"><ele>94.25</ele></trkpt>
<trkpt lon="-0.216334" lat="44.438838"><ele>95.5</ele></trkpt>
<trkpt lon="-0.216237" lat="44.438336"><ele>94.5</ele></trkpt>
<trkpt lon="-0.216246" lat="44.438090"><ele>90.75</ele></trkpt>
<trkpt lon="-0.216261" lat="44.437905"><ele>90.25</ele></trkpt>
<trkpt lon="-0.216308" lat="44.437623"><ele>90.25</ele></trkpt>
<trkpt lon="-0.216439" lat="44.437153"><ele>91.75</ele></trkpt>
<trkpt lon="-0.216684" lat="44.436346"><ele>93.0</ele></trkpt>
<trkpt lon="-0.216776" lat="44.436159"><ele>93.25</ele></trkpt>
<trkpt lon="-0.217228" lat="44.435352"><ele>93.0</ele></trkpt>
<trkpt lon="-0.217598" lat="44.434659"><ele>93.5</ele></trkpt>
<trkpt lon="-0.217636" lat="44.434557"><ele>93.75</ele></trkpt>
<trkpt lon="-0.217618" lat="44.434501"><ele>93.75</ele></trkpt>
<trkpt lon="-0.217538" lat="44.434380"><ele>94.0</ele></trkpt>
<trkpt lon="-0.217503" lat="44.434314"><ele>94.0</ele></trkpt>
<trkpt lon="-0.217507" lat="44.434276"><ele>94.0</ele></trkpt>
<trkpt lon="-0.217640" lat="44.434051"><ele>94.0</ele></trkpt>
<trkpt lon="-0.217656" lat="44.433973"><ele>93.75</ele></trkpt>
<trkpt lon="-0.217621" lat="44.433776"><ele>94.0</ele></trkpt>
<trkpt lon="-0.217640" lat="44.433741"><ele>94.0</ele></trkpt>
<trkpt lon="-0.217958" lat="44.433326"><ele>93.5</ele></trkpt>
<trkpt lon="-0.218011" lat="44.433292"><ele>93.25</ele></trkpt>
<trkpt lon="-0.218245" lat="44.433260"><ele>93.0</ele></trkpt>
<trkpt lon="-0.218333" lat="44.433234"><ele>92.5</ele></trkpt>
<trkpt lon="-0.218416" lat="44.433154"><ele>91.25</ele></trkpt>
<trkpt lon="-0.218496" lat="44.433018"><ele>90.0</ele></trkpt>
<trkpt lon="-0.218592" lat="44.432799"><ele>92.5</ele></trkpt>
<trkpt lon="-0.218938" lat="44.432140"><ele>90.75</ele></trkpt>
<trkpt lon="-0.219052" lat="44.431967"><ele>89.25</ele></trkpt>
<trkpt lon="-0.219208" lat="44.431749"><ele>91.0</ele></trkpt>
<trkpt lon="-0.219177" lat="44.431730"><ele>91.25</ele></trkpt>
<trkpt lon="-0.219167" lat="44.431706"><ele>91.5</ele></trkpt>
<trkpt lon="-0.219391" lat="44.431360"><ele>90.5</ele></trkpt>
<trkpt lon="-0.219415" lat="44.431291"><ele>90.25</ele></trkpt>
<trkpt lon="-0.219495" lat="44.431173"><ele>89.75</ele></trkpt>
<trkpt lon="-0.219506" lat="44.431133"><ele>89.75</ele></trkpt>
<trkpt lon="-0.219490" lat="44.431120"><ele>89.5</ele></trkpt>
<trkpt lon="-0.219470" lat="44.431119"><ele>89.25</ele></trkpt>
<trkpt lon="-0.219452" lat="44.431129"><ele>89.25</ele></trkpt>
<trkpt lon="-0.219200" lat="44.431427"><ele>87.25</ele></trkpt>
<trkpt lon="-0.219315" lat="44.431121"><ele>87.0</ele></trkpt>
<trkpt lon="-0.219322" lat="44.431074"><ele>86.5</ele></trkpt>
<trkpt lon="-0.219319" lat="44.431044"><ele>86.0</ele></trkpt>
<trkpt lon="-0.219304" lat="44.431023"><ele>85.5</ele></trkpt>
<trkpt lon="-0.219272" lat="44.431001"><ele>84.75</ele></trkpt>
<trkpt lon="-0.219197" lat="44.430993"><ele>84.0</ele></trkpt>
<trkpt lon="-0.219142" lat="44.430967"><ele>83.25</ele></trkpt>
<trkpt lon="-0.218800" lat="44.430876"><ele>82.0</ele></trkpt>
<trkpt lon="-0.218692" lat="44.430820"><ele>81.25</ele></trkpt>
<trkpt lon="-0.218415" lat="44.430940"><ele>81.0</ele></trkpt>
<trkpt lon="-0.218269" lat="44.430922"><ele>80.25</ele></trkpt>
<trkpt lon="-0.218173" lat="44.430893"><ele>79.5</ele></trkpt>
<trkpt lon="-0.218070" lat="44.430939"><ele>79.25</ele></trkpt>
<trkpt lon="-0.217890" lat="44.430996"><ele>79.0</ele></trkpt>
<trkpt lon="-0.217713" lat="44.431037"><ele>79.0</ele></trkpt>
<trkpt lon="-0.216783" lat="44.431235"><ele>78.25</ele></trkpt>
<trkpt lon="-0.216622" lat="44.431277"><ele>78.25</ele></trkpt>
<trkpt lon="-0.216538" lat="44.431350"><ele>78.5</ele></trkpt>
<trkpt lon="-0.216523" lat="44.431391"><ele>79.0</ele></trkpt>
<trkpt lon="-0.216497" lat="44.431413"><ele>79.0</ele></trkpt>
<trkpt lon="-0.216462" lat="44.431428"><ele>79.25</ele></trkpt>
<trkpt lon="-0.216423" lat="44.431433"><ele>79.25</ele></trkpt>
<trkpt lon="-0.216370" lat="44.431425"><ele>79.25</ele></trkpt>
<trkpt lon="-0.216328" lat="44.431401"><ele>79.0</ele></trkpt>
<trkpt lon="-0.216236" lat="44.431386"><ele>78.75</ele></trkpt>
<trkpt lon="-0.216163" lat="44.431383"><ele>78.75</ele></trkpt>
<trkpt lon="-0.215212" lat="44.431565"><ele>84.0</ele></trkpt>
<trkpt lon="-0.215199" lat="44.431628"><ele>84.0</ele></trkpt>
<trkpt lon="-0.214574" lat="44.431555"><ele>85.25</ele></trkpt>
<trkpt lon="-0.214582" lat="44.431524"><ele>85.5</ele></trkpt>
<trkpt lon="-0.214079" lat="44.431478"><ele>85.25</ele></trkpt>
<trkpt lon="-0.214056" lat="44.431617"><ele>85.0</ele></trkpt>
<trkpt lon="-0.213621" lat="44.431566"><ele>84.0</ele></trkpt>
<trkpt lon="-0.213572" lat="44.431560"><ele>84.0</ele></trkpt>
<trkpt lon="-0.213514" lat="44.431513"><ele>84.0</ele></trkpt>
<trkpt lon="-0.213479" lat="44.431462"><ele>84.25</ele></trkpt>
<trkpt lon="-0.213443" lat="44.431600"><ele>84.0</ele></trkpt>
<trkpt lon="-0.213425" lat="44.431675"><ele>84.0</ele></trkpt>
<trkpt lon="-0.213386" lat="44.431877"><ele>83.75</ele></trkpt>
  </trkseg></trk></gpx>
