<?xml version="1.0" encoding="UTF-8"?>
<gpx version="1.1" creator="compostel-brouter" xmlns="http://www.topografix.com/GPX/1/1">
  <metadata><name>FR-38-Saint-Palais</name></metadata>
  <trk><name>FR-38-Saint-Palais</name><trkseg>
<trkpt lon="-0.941912" lat="43.400723"><ele>82.0</ele></trkpt>
<trkpt lon="-0.941340" lat="43.400750"><ele>82.0</ele></trkpt>
<trkpt lon="-0.941358" lat="43.400972"><ele>82.0</ele></trkpt>
<trkpt lon="-0.942333" lat="43.400936"><ele>81.75</ele></trkpt>
<trkpt lon="-0.942413" lat="43.400934"><ele>81.75</ele></trkpt>
<trkpt lon="-0.942999" lat="43.400919"><ele>81.0</ele></trkpt>
<trkpt lon="-0.943043" lat="43.400917"><ele>81.0</ele></trkpt>
<trkpt lon="-0.942995" lat="43.399897"><ele>81.0</ele></trkpt>
<trkpt lon="-0.942971" lat="43.399801"><ele>81.0</ele></trkpt>
<trkpt lon="-0.942948" lat="43.399753"><ele>81.0</ele></trkpt>
<trkpt lon="-0.943351" lat="43.399607"><ele>81.0</ele></trkpt>
<trkpt lon="-0.943286" lat="43.399501"><ele>81.0</ele></trkpt>
<trkpt lon="-0.943252" lat="43.399395"><ele>81.25</ele></trkpt>
<trkpt lon="-0.943134" lat="43.398864"><ele>81.25</ele></trkpt>
<trkpt lon="-0.943069" lat="43.398507"><ele>81.0</ele></trkpt>
<trkpt lon="-0.942927" lat="43.398027"><ele>79.5</ele></trkpt>
<trkpt lon="-0.942821" lat="43.397981"><ele>78.75</ele></trkpt>
<trkpt lon="-0.942756" lat="43.397944"><ele>78.25</ele></trkpt>
<trkpt lon="-0.942757" lat="43.397791"><ele>76.25</ele></trkpt>
<trkpt lon="-0.942807" lat="43.397717"><ele>75.0</ele></trkpt>
<trkpt lon="-0.942916" lat="43.397661"><ele>73.75</ele></trkpt>
<trkpt lon="-0.943127" lat="43.397618"><ele>72.5</ele></trkpt>
<trkpt lon="-0.943545" lat="43.397571"><ele>70.75</ele></trkpt>
<trkpt lon="-0.943847" lat="43.397548"><ele>70.25</ele></trkpt>
<trkpt lon="-0.944003" lat="43.397500"><ele>70.0</ele></trkpt>
<trkpt lon="-0.945143" lat="43.396877"><ele>68.25</ele></trkpt>
<trkpt lon="-0.945348" lat="43.396753"><ele>68.0</ele></trkpt>
<trkpt lon="-0.945608" lat="43.396549"><ele>67.75</ele></trkpt>
<trkpt lon="-0.945806" lat="43.396317"><ele>64.0</ele></trkpt>
<trkpt lon="-0.945442" lat="43.396233"><ele>61.25</ele></trkpt>
<trkpt lon="-0.945200" lat="43.396210"><ele>60.25</ele></trkpt>
<trkpt lon="-0.944985" lat="43.396206"><ele>60.25</ele></trkpt>
<trkpt lon="-0.944800" lat="43.396113"><ele>57.0</ele></trkpt>
<trkpt lon="-0.944910" lat="43.395997"><ele>55.75</ele></trkpt>
<trkpt lon="-0.944897" lat="43.395958"><ele>55.25</ele></trkpt>
<trkpt lon="-0.944872" lat="43.395907"><ele>54.75</ele></trkpt>
<trkpt lon="-0.944804" lat="43.395814"><ele>53.25</ele></trkpt>
<trkpt lon="-0.944881" lat="43.395840"><ele>54.0</ele></trkpt>
<trkpt lon="-0.945080" lat="43.395825"><ele>55.25</ele></trkpt>
<trkpt lon="-0.945114" lat="43.395749"><ele>55.0</ele></trkpt>
<trkpt lon="-0.945130" lat="43.395548"><ele>54.75</ele></trkpt>
<trkpt lon="-0.945090" lat="43.395354"><ele>54.5</ele></trkpt>
<trkpt lon="-0.944989" lat="43.395177"><ele>55.25</ele></trkpt>
<trkpt lon="-0.944817" lat="43.394827"><ele>54.0</ele></trkpt>
<trkpt lon="-0.944760" lat="43.394689"><ele>54.0</ele></trkpt>
<trkpt lon="-0.944441" lat="43.393937"><ele>54.25</ele></trkpt>
<trkpt lon="-0.944359" lat="43.393781"><ele>54.0</ele></trkpt>
<trkpt lon="-0.944127" lat="43.393446"><ele>57.75</ele></trkpt>
<trkpt lon="-0.944273" lat="43.393102"><ele>65.75</ele></trkpt>
<trkpt lon="-0.944346" lat="43.393143"><ele>64.75</ele></trkpt>
<trkpt lon="-0.944429" lat="43.393142"><ele>65.0</ele></trkpt>
<trkpt lon="-0.944506" lat="43.393095"><ele>66.0</ele></trkpt>
<trkpt lon="-0.944463" lat="43.393055"><ele>67.0</ele></trkpt>
<trkpt lon="-0.944421" lat="43.392986"><ele>67.0</ele></trkpt>
<trkpt lon="-0.944400" lat="43.392929"><ele>67.0</ele></trkpt>
<trkpt lon="-0.944468" lat="43.392555"><ele>67.5</ele></trkpt>
<trkpt lon="-0.944557" lat="43.392060"><ele>67.0</ele></trkpt>
<trkpt lon="-0.944534" lat="43.391861"><ele>67.25</ele></trkpt>
<trkpt lon="-0.944418" lat="43.391611"><ele>68.0</ele></trkpt>
<trkpt lon="-0.944394" lat="43.391342"><ele>68.0</ele></trkpt>
<trkpt lon="-0.944349" lat="43.391308"><ele>68.0</ele></trkpt>
<trkpt lon="-0.944188" lat="43.391250"><ele>68.0</ele></trkpt>
<trkpt lon="-0.943862" lat="43.391185"><ele>68.0</ele></trkpt>
<trkpt lon="-0.943316" lat="43.391078"><ele>68.0</ele></trkpt>
<trkpt lon="-0.942989" lat="43.390964"><ele>68.0</ele></trkpt>
<trkpt lon="-0.943054" lat="43.390575"><ele>68.75</ele></trkpt>
<trkpt lon="-0.943129" lat="43.390303"><ele>68.75</ele></trkpt>
<trkpt lon="-0.943136" lat="43.390274"><ele>69.0</ele></trkpt>
<trkpt lon="-0.943149" lat="43.390229"><ele>69.0</ele></trkpt>
<trkpt lon="-0.943279" lat="43.389961"><ele>69.0</ele></trkpt>
<trkpt lon="-0.943232" lat="43.389922"><ele>69.0</ele></trkpt>
<trkpt lon="-0.943295" lat="43.389780"><ele>68.75</ele></trkpt>
<trkpt lon="-0.943320" lat="43.389685"><ele>69.0</ele></trkpt>
<trkpt lon="-0.943314" lat="43.389610"><ele>69.25</ele></trkpt>
<trkpt lon="-0.943288" lat="43.389560"><ele>69.25</ele></trkpt>
<trkpt lon="-0.943242" lat="43.389501"><ele>69.5</ele></trkpt>
<trkpt lon="-0.943136" lat="43.389437"><ele>69.25</ele></trkpt>
<trkpt lon="-0.942943" lat="43.389360"><ele>69.0</ele></trkpt>
<trkpt lon="-0.942958" lat="43.389298"><ele>69.0</ele></trkpt>
<trkpt lon="-0.942859" lat="43.389267"><ele>69.0</ele></trkpt>
<trkpt lon="-0.942882" lat="43.389225"><ele>69.0</ele></trkpt>
<trkpt lon="-0.943106" lat="43.389281"><ele>69.0</ele></trkpt>
<trkpt lon="-0.943234" lat="43.389285"><ele>69.25</ele></trkpt>
<trkpt lon="-0.943353" lat="43.389261"><ele>69.25</ele></trkpt>
<trkpt lon="-0.943443" lat="43.389225"><ele>69.0</ele></trkpt>
<trkpt lon="-0.943513" lat="43.389210"><ele>69.0</ele></trkpt>
<trkpt lon="-0.943633" lat="43.389207"><ele>69.0</ele></trkpt>
<trkpt lon="-0.943713" lat="43.389198"><ele>69.0</ele></trkpt>
<trkpt lon="-0.943913" lat="43.389156"><ele>69.0</ele></trkpt>
<trkpt lon="-0.944055" lat="43.389099"><ele>69.0</ele></trkpt>
<trkpt lon="-0.944126" lat="43.389033"><ele>69.0</ele></trkpt>
<trkpt lon="-0.944163" lat="43.388979"><ele>69.0</ele></trkpt>
<trkpt lon="-0.944238" lat="43.389002"><ele>69.0</ele></trkpt>
<trkpt lon="-0.945161" lat="43.387591"><ele>69.0</ele></trkpt>
<trkpt lon="-0.945072" lat="43.387565"><ele>69.0</ele></trkpt>
<trkpt lon="-0.944920" lat="43.387521"><ele>69.0</ele></trkpt>
<trkpt lon="-0.945068" lat="43.387490"><ele>69.0</ele></trkpt>
<trkpt lon="-0.945336" lat="43.387140"><ele>69.0</ele></trkpt>
<trkpt lon="-0.945430" lat="43.387164"><ele>69.0</ele></trkpt>
<trkpt lon="-0.945491" lat="43.387180"><ele>69.0</ele></trkpt>
<trkpt lon="-0.945560" lat="43.387069"><ele>69.5</ele></trkpt>
<trkpt lon="-0.945753" lat="43.386812"><ele>69.0</ele></trkpt>
<trkpt lon="-0.946018" lat="43.386477"><ele>69.0</ele></trkpt>
<trkpt lon="-0.946498" lat="43.385964"><ele>69.0</ele></trkpt>
<trkpt lon="-0.946887" lat="43.385622"><ele>69.0</ele></trkpt>
<trkpt lon="-0.947817" lat="43.384873"><ele>69.0</ele></trkpt>
<trkpt lon="-0.947925" lat="43.384764"><ele>69.0</ele></trkpt>
<trkpt lon="-0.948062" lat="43.384594"><ele>69.0</ele></trkpt>
<trkpt lon="-0.948242" lat="43.384268"><ele>69.0</ele></trkpt>
<trkpt lon="-0.948634" lat="43.384456"><ele>68.75</ele></trkpt>
<trkpt lon="-0.948736" lat="43.384489"><ele>68.75</ele></trkpt>
<trkpt lon="-0.948902" lat="43.384520"><ele>68.5</ele></trkpt>
<trkpt lon="-0.949093" lat="43.384543"><ele>68.5</ele></trkpt>
<trkpt lon="-0.949232" lat="43.384493"><ele>68.5</ele></trkpt>
<trkpt lon="-0.949287" lat="43.384461"><ele>68.5</ele></trkpt>
<trkpt lon="-0.949391" lat="43.384342"><ele>68.25</ele></trkpt>
<trkpt lon="-0.949544" lat="43.384006"><ele>68.5</ele></trkpt>
<trkpt lon="-0.950099" lat="43.383203"><ele>65.0</ele></trkpt>
<trkpt lon="-0.950003" lat="43.383103"><ele>65.0</ele></trkpt>
<trkpt lon="-0.949832" lat="43.382915"><ele>65.5</ele></trkpt>
<trkpt lon="-0.949574" lat="43.382661"><ele>65.75</ele></trkpt>
<trkpt lon="-0.949831" lat="43.382410"><ele>65.0</ele></trkpt>
<trkpt lon="-0.949448" lat="43.382292"><ele>63.75</ele></trkpt>
<trkpt lon="-0.949605" lat="43.382041"><ele>63.75</ele></trkpt>
<trkpt lon="-0.949676" lat="43.381869"><ele>62.25</ele></trkpt>
<trkpt lon="-0.949719" lat="43.381726"><ele>60.0</ele></trkpt>
<trkpt lon="-0.949743" lat="43.381577"><ele>57.75</ele></trkpt>
<trkpt lon="-0.949750" lat="43.381342"><ele>55.5</ele></trkpt>
<trkpt lon="-0.949702" lat="43.381298"><ele>54.75</ele></trkpt>
<trkpt lon="-0.949706" lat="43.381183"><ele>52.25</ele></trkpt>
<trkpt lon="-0.949723" lat="43.380443"><ele>51.0</ele></trkpt>
<trkpt lon="-0.949727" lat="43.380211"><ele>52.75</ele></trkpt>
<trkpt lon="-0.949668" lat="43.380224"><ele>52.75</ele></trkpt>
<trkpt lon="-0.949357" lat="43.380291"><ele>52.5</ele></trkpt>
<trkpt lon="-0.949218" lat="43.380332"><ele>52.25</ele></trkpt>
<trkpt lon="-0.949137" lat="43.380363"><ele>52.0</ele></trkpt>
<trkpt lon="-0.949038" lat="43.380435"><ele>52.0</ele></trkpt>
<trkpt lon="-0.948904" lat="43.380593"><ele>51.0</ele></trkpt>
<trkpt lon="-0.948831" lat="43.380604"><ele>51.0</ele></trkpt>
<trkpt lon="-0.948732" lat="43.380587"><ele>51.0</ele></trkpt>
<trkpt lon="-0.948662" lat="43.380554"><ele>51.0</ele></trkpt>
<trkpt lon="-0.948606" lat="43.380517"><ele>51.0</ele></trkpt>
<trkpt lon="-0.948599" lat="43.380483"><ele>51.25</ele></trkpt>
<trkpt lon="-0.948617" lat="43.380323"><ele>51.75</ele></trkpt>
<trkpt lon="-0.948692" lat="43.380190"><ele>52.0</ele></trkpt>
<trkpt lon="-0.948710" lat="43.380123"><ele>52.0</ele></trkpt>
<trkpt lon="-0.948822" lat="43.380097"><ele>52.0</ele></trkpt>
<trkpt lon="-0.948903" lat="43.380047"><ele>52.0</ele></trkpt>
<trkpt lon="-0.948994" lat="43.379869"><ele>52.0</ele></trkpt>
<trkpt lon="-0.949062" lat="43.379771"><ele>52.0</ele></trkpt>
<trkpt lon="-0.949597" lat="43.379704"><ele>52.5</ele></trkpt>
<trkpt lon="-0.949670" lat="43.379695"><ele>52.75</ele></trkpt>
<trkpt lon="-0.949578" lat="43.379419"><ele>52.5</ele></trkpt>
<trkpt lon="-0.949515" lat="43.379282"><ele>53.75</ele></trkpt>
<trkpt lon="-0.949332" lat="43.378944"><ele>56.75</ele></trkpt>
<trkpt lon="-0.949212" lat="43.378747"><ele>58.75</ele></trkpt>
<trkpt lon="-0.949372" lat="43.378658"><ele>59.0</ele></trkpt>
<trkpt lon="-0.949459" lat="43.378623"><ele>58.75</ele></trkpt>
<trkpt lon="-0.949546" lat="43.378607"><ele>58.5</ele></trkpt>
<trkpt lon="-0.949718" lat="43.378605"><ele>58.0</ele></trkpt>
<trkpt lon="-0.949861" lat="43.378580"><ele>59.0</ele></trkpt>
<trkpt lon="-0.949979" lat="43.378534"><ele>60.5</ele></trkpt>
<trkpt lon="-0.950306" lat="43.378384"><ele>62.5</ele></trkpt>
<trkpt lon="-0.950569" lat="43.378234"><ele>65.25</ele></trkpt>
<trkpt lon="-0.950931" lat="43.378156"><ele>64.5</ele></trkpt>
<trkpt lon="-0.951746" lat="43.378085"><ele>64.75</ele></trkpt>
<trkpt lon="-0.952825" lat="43.378064"><ele>65.75</ele></trkpt>
<trkpt lon="-0.953073" lat="43.378046"><ele>66.0</ele></trkpt>
<trkpt lon="-0.953395" lat="43.378211"><ele>64.5</ele></trkpt>
<trkpt lon="-0.953793" lat="43.378438"><ele>63.25</ele></trkpt>
<trkpt lon="-0.954126" lat="43.378526"><ele>65.0</ele></trkpt>
<trkpt lon="-0.955094" lat="43.378456"><ele>59.75</ele></trkpt>
<trkpt lon="-0.955245" lat="43.378360"><ele>58.0</ele></trkpt>
<trkpt lon="-0.955730" lat="43.377901"><ele>54.75</ele></trkpt>
<trkpt lon="-0.955878" lat="43.377856"><ele>53.5</ele></trkpt>
<trkpt lon="-0.956020" lat="43.377860"><ele>53.5</ele></trkpt>
<trkpt lon="-0.956514" lat="43.377977"><ele>51.25</ele></trkpt>
<trkpt lon="-0.956791" lat="43.378059"><ele>52.75</ele></trkpt>
<trkpt lon="-0.957526" lat="43.378288"><ele>65.25</ele></trkpt>
<trkpt lon="-0.958137" lat="43.378682"><ele>66.25</ele></trkpt>
<trkpt lon="-0.958403" lat="43.378826"><ele>67.0</ele></trkpt>
<trkpt lon="-0.958485" lat="43.378738"><ele>67.0</ele></trkpt>
<trkpt lon="-0.958632" lat="43.378467"><ele>67.0</ele></trkpt>
<trkpt lon="-0.959183" lat="43.378093"><ele>67.0</ele></trkpt>
<trkpt lon="-0.959620" lat="43.377873"><ele>67.0</ele></trkpt>
<trkpt lon="-0.960215" lat="43.377659"><ele>67.0</ele></trkpt>
<trkpt lon="-0.960457" lat="43.377625"><ele>67.0</ele></trkpt>
<trkpt lon="-0.960594" lat="43.377770"><ele>67.0</ele></trkpt>
<trkpt lon="-0.960769" lat="43.377865"><ele>67.0</ele></trkpt>
<trkpt lon="-0.960968" lat="43.377887"><ele>67.0</ele></trkpt>
<trkpt lon="-0.962251" lat="43.377570"><ele>68.0</ele></trkpt>
<trkpt lon="-0.962553" lat="43.377534"><ele>69.0</ele></trkpt>
<trkpt lon="-0.963584" lat="43.377489"><ele>70.0</ele></trkpt>
<trkpt lon="-0.964258" lat="43.377430"><ele>71.5</ele></trkpt>
<trkpt lon="-0.964479" lat="43.377429"><ele>72.25</ele></trkpt>
<trkpt lon="-0.964698" lat="43.377345"><ele>73.0</ele></trkpt>
<trkpt lon="-0.964931" lat="43.377341"><ele>72.5</ele></trkpt>
<trkpt lon="-0.965136" lat="43.377387"><ele>73.25</ele></trkpt>
<trkpt lon="-0.965251" lat="43.377402"><ele>73.75</ele></trkpt>
<trkpt lon="-0.965439" lat="43.377368"><ele>75.0</ele></trkpt>
<trkpt lon="-0.965555" lat="43.377291"><ele>75.25</ele></trkpt>
<trkpt lon="-0.965684" lat="43.377185"><ele>76.25</ele></trkpt>
<trkpt lon="-0.965934" lat="43.377051"><ele>77.0</ele></trkpt>
<trkpt lon="-0.966344" lat="43.376853"><ele>78.5</ele></trkpt>
<trkpt lon="-0.967124" lat="43.376699"><ele>79.75</ele></trkpt>
<trkpt lon="-0.967565" lat="43.376618"><ele>80.5</ele></trkpt>
<trkpt lon="-0.968005" lat="43.376629"><ele>81.5</ele></trkpt>
<trkpt lon="-0.968281" lat="43.376587"><ele>86.25</ele></trkpt>
<trkpt lon="-0.968546" lat="43.376359"><ele>90.0</ele></trkpt>
<trkpt lon="-0.969480" lat="43.376101"><ele>99.25</ele></trkpt>
<trkpt lon="-0.970014" lat="43.376030"><ele>105.25</ele></trkpt>
<trkpt lon="-0.970581" lat="43.376230"><ele>112.0</ele></trkpt>
<trkpt lon="-0.970809" lat="43.376221"><ele>112.0</ele></trkpt>
<trkpt lon="-0.971035" lat="43.376124"><ele>112.75</ele></trkpt>
<trkpt lon="-0.971715" lat="43.375559"><ele>121.0</ele></trkpt>
<trkpt lon="-0.972071" lat="43.375241"><ele>128.75</ele></trkpt>
<trkpt lon="-0.972316" lat="43.375086"><ele>135.0</ele></trkpt>
<trkpt lon="-0.972560" lat="43.375103"><ele>136.75</ele></trkpt>
<trkpt lon="-0.973081" lat="43.375393"><ele>137.0</ele></trkpt>
<trkpt lon="-0.973277" lat="43.375542"><ele>136.25</ele></trkpt>
<trkpt lon="-0.973477" lat="43.375560"><ele>135.5</ele></trkpt>
<trkpt lon="-0.974192" lat="43.375428"><ele>132.5</ele></trkpt>
<trkpt lon="-0.974344" lat="43.375367"><ele>131.25</ele></trkpt>
<trkpt lon="-0.974471" lat="43.375288"><ele>130.0</ele></trkpt>
<trkpt lon="-0.974786" lat="43.375184"><ele>129.25</ele></trkpt>
<trkpt lon="-0.975005" lat="43.375104"><ele>129.0</ele></trkpt>
<trkpt lon="-0.975141" lat="43.375038"><ele>128.75</ele></trkpt>
<trkpt lon="-0.975343" lat="43.374805"><ele>129.25</ele></trkpt>
<trkpt lon="-0.975418" lat="43.374760"><ele>129.5</ele></trkpt>
<trkpt lon="-0.975546" lat="43.374736"><ele>129.75</ele></trkpt>
<trkpt lon="-0.975805" lat="43.374711"><ele>129.25</ele></trkpt>
<trkpt lon="-0.976376" lat="43.374672"><ele>125.25</ele></trkpt>
<trkpt lon="-0.976534" lat="43.374635"><ele>124.0</ele></trkpt>
<trkpt lon="-0.976759" lat="43.374492"><ele>122.75</ele></trkpt>
<trkpt lon="-0.977088" lat="43.374220"><ele>119.5</ele></trkpt>
<trkpt lon="-0.977406" lat="43.373903"><ele>116.5</ele></trkpt>
<trkpt lon="-0.977975" lat="43.373515"><ele>116.25</ele></trkpt>
<trkpt lon="-0.978279" lat="43.373430"><ele>115.0</ele></trkpt>
<trkpt lon="-0.978191" lat="43.373988"><ele>117.5</ele></trkpt>
<trkpt lon="-0.978185" lat="43.374147"><ele>118.75</ele></trkpt>
<trkpt lon="-0.978222" lat="43.374281"><ele>119.75</ele></trkpt>
<trkpt lon="-0.978292" lat="43.374414"><ele>121.75</ele></trkpt>
<trkpt lon="-0.979000" lat="43.375242"><ele>133.0</ele></trkpt>
<trkpt lon="-0.979193" lat="43.375431"><ele>134.75</ele></trkpt>
<trkpt lon="-0.979484" lat="43.375651"><ele>137.5</ele></trkpt>
<trkpt lon="-0.979960" lat="43.375951"><ele>142.75</ele></trkpt>
<trkpt lon="-0.980357" lat="43.376172"><ele>146.0</ele></trkpt>
<trkpt lon="-0.981137" lat="43.376463"><ele>144.0</ele></trkpt>
<trkpt lon="-0.981821" lat="43.376826"><ele>146.0</ele></trkpt>
<trkpt lon="-0.983113" lat="43.377762"><ele>148.5</ele></trkpt>
<trkpt lon="-0.983435" lat="43.377750"><ele>147.75</ele></trkpt>
<trkpt lon="-0.984104" lat="43.377604"><ele>143.75</ele></trkpt>
<trkpt lon="-0.984831" lat="43.377528"><ele>137.25</ele></trkpt>
<trkpt lon="-0.984957" lat="43.377456"><ele>135.0</ele></trkpt>
<trkpt lon="-0.985048" lat="43.377348"><ele>132.5</ele></trkpt>
<trkpt lon="-0.985174" lat="43.377037"><ele>126.25</ele></trkpt>
<trkpt lon="-0.985268" lat="43.376884"><ele>123.75</ele></trkpt>
<trkpt lon="-0.985651" lat="43.376483"><ele>114.0</ele></trkpt>
<trkpt lon="-0.985914" lat="43.376245"><ele>110.25</ele></trkpt>
<trkpt lon="-0.986786" lat="43.375728"><ele>97.75</ele></trkpt>
<trkpt lon="-0.986968" lat="43.375658"><ele>95.5</ele></trkpt>
<trkpt lon="-0.987225" lat="43.375666"><ele>92.5</ele></trkpt>
<trkpt lon="-0.988145" lat="43.375820"><ele>86.25</ele></trkpt>
<trkpt lon="-0.988542" lat="43.375912"><ele>85.5</ele></trkpt>
<trkpt lon="-0.989150" lat="43.376097"><ele>83.0</ele></trkpt>
<trkpt lon="-0.989923" lat="43.376300"><ele>82.5</ele></trkpt>
<trkpt lon="-0.990178" lat="43.376328"><ele>82.5</ele></trkpt>
<trkpt lon="-0.990789" lat="43.376403"><ele>85.25</ele></trkpt>
<trkpt lon="-0.991043" lat="43.376391"><ele>86.5</ele></trkpt>
<trkpt lon="-0.991562" lat="43.376333"><ele>89.0</ele></trkpt>
<trkpt lon="-0.991661" lat="43.376267"><ele>90.25</ele></trkpt>
<trkpt lon="-0.991696" lat="43.376152"><ele>91.5</ele></trkpt>
<trkpt lon="-0.992034" lat="43.375543"><ele>95.75</ele></trkpt>
<trkpt lon="-0.992193" lat="43.375239"><ele>97.75</ele></trkpt>
<trkpt lon="-0.992449" lat="43.375005"><ele>101.0</ele></trkpt>
<trkpt lon="-0.992691" lat="43.374805"><ele>100.75</ele></trkpt>
<trkpt lon="-0.993009" lat="43.374436"><ele>98.5</ele></trkpt>
<trkpt lon="-0.993139" lat="43.374395"><ele>99.75</ele></trkpt>
<trkpt lon="-0.993402" lat="43.374411"><ele>101.0</ele></trkpt>
<trkpt lon="-0.993593" lat="43.374391"><ele>101.25</ele></trkpt>
<trkpt lon="-0.994087" lat="43.374245"><ele>98.0</ele></trkpt>
<trkpt lon="-0.994457" lat="43.374096"><ele>96.5</ele></trkpt>
<trkpt lon="-0.994830" lat="43.373985"><ele>95.0</ele></trkpt>
<trkpt lon="-0.995246" lat="43.373872"><ele>92.75</ele></trkpt>
<trkpt lon="-0.995865" lat="43.373640"><ele>90.75</ele></trkpt>
<trkpt lon="-0.996994" lat="43.373326"><ele>86.25</ele></trkpt>
<trkpt lon="-0.997153" lat="43.373264"><ele>84.75</ele></trkpt>
<trkpt lon="-0.997231" lat="43.373149"><ele>84.0</ele></trkpt>
<trkpt lon="-0.997231" lat="43.372972"><ele>83.25</ele></trkpt>
<trkpt lon="-0.997172" lat="43.372833"><ele>81.5</ele></trkpt>
<trkpt lon="-0.997008" lat="43.372743"><ele>81.25</ele></trkpt>
<trkpt lon="-0.996903" lat="43.372648"><ele>82.0</ele></trkpt>
<trkpt lon="-0.996930" lat="43.372591"><ele>81.0</ele></trkpt>
<trkpt lon="-0.997330" lat="43.372451"><ele>80.5</ele></trkpt>
<trkpt lon="-0.997467" lat="43.372353"><ele>81.0</ele></trkpt>
<trkpt lon="-0.997633" lat="43.371860"><ele>83.0</ele></trkpt>
<trkpt lon="-0.998065" lat="43.371213"><ele>87.5</ele></trkpt>
<trkpt lon="-0.998157" lat="43.371133"><ele>88.25</ele></trkpt>
<trkpt lon="-0.998260" lat="43.371076"><ele>88.75</ele></trkpt>
<trkpt lon="-0.998393" lat="43.371015"><ele>89.25</ele></trkpt>
<trkpt lon="-0.998521" lat="43.370965"><ele>89.75</ele></trkpt>
<trkpt lon="-0.998657" lat="43.370944"><ele>90.25</ele></trkpt>
<trkpt lon="-0.998875" lat="43.370977"><ele>89.75</ele></trkpt>
<trkpt lon="-0.998957" lat="43.370991"><ele>90.75</ele></trkpt>
<trkpt lon="-0.999269" lat="43.371045"><ele>93.5</ele></trkpt>
<trkpt lon="-0.999387" lat="43.371090"><ele>93.75</ele></trkpt>
<trkpt lon="-0.999867" lat="43.371476"><ele>94.75</ele></trkpt>
<trkpt lon="-0.999948" lat="43.371549"><ele>95.5</ele></trkpt>
<trkpt lon="-1.000039" lat="43.371587"><ele>96.0</ele></trkpt>
<trkpt lon="-1.000189" lat="43.371607"><ele>97.0</ele></trkpt>
<trkpt lon="-1.000683" lat="43.371611"><ele>99.25</ele></trkpt>
<trkpt lon="-1.001144" lat="43.371659"><ele>101.25</ele></trkpt>
<trkpt lon="-1.001592" lat="43.371724"><ele>106.25</ele></trkpt>
<trkpt lon="-1.001677" lat="43.371736"><ele>106.75</ele></trkpt>
<trkpt lon="-1.001715" lat="43.371742"><ele>106.75</ele></trkpt>
<trkpt lon="-1.001778" lat="43.371580"><ele>107.5</ele></trkpt>
<trkpt lon="-1.001922" lat="43.371182"><ele>111.0</ele></trkpt>
<trkpt lon="-1.001982" lat="43.370941"><ele>113.0</ele></trkpt>
<trkpt lon="-1.002002" lat="43.370796"><ele>113.25</ele></trkpt>
<trkpt lon="-1.002002" lat="43.370676"><ele>112.25</ele></trkpt>
<trkpt lon="-1.001991" lat="43.370587"><ele>111.5</ele></trkpt>
<trkpt lon="-1.001965" lat="43.370515"><ele>110.75</ele></trkpt>
<trkpt lon="-1.001889" lat="43.370454"><ele>109.75</ele></trkpt>
<trkpt lon="-1.002071" lat="43.370206"><ele>109.0</ele></trkpt>
<trkpt lon="-1.002267" lat="43.369808"><ele>103.0</ele></trkpt>
<trkpt lon="-1.002351" lat="43.369687"><ele>100.75</ele></trkpt>
<trkpt lon="-1.002432" lat="43.369621"><ele>99.25</ele></trkpt>
<trkpt lon="-1.002523" lat="43.369579"><ele>98.25</ele></trkpt>
<trkpt lon="-1.002707" lat="43.369548"><ele>96.75</ele></trkpt>
<trkpt lon="-1.002877" lat="43.369488"><ele>96.25</ele></trkpt>
<trkpt lon="-1.003094" lat="43.369378"><ele>96.25</ele></trkpt>
<trkpt lon="-1.003322" lat="43.369240"><ele>95.5</ele></trkpt>
<trkpt lon="-1.003709" lat="43.369019"><ele>94.5</ele></trkpt>
<trkpt lon="-1.003884" lat="43.368931"><ele>93.5</ele></trkpt>
<trkpt lon="-1.003932" lat="43.368892"><ele>93.5</ele></trkpt>
<trkpt lon="-1.003980" lat="43.368826"><ele>93.75</ele></trkpt>
<trkpt lon="-1.004311" lat="43.368330"><ele>91.5</ele></trkpt>
<trkpt lon="-1.004325" lat="43.368247"><ele>92.0</ele></trkpt>
<trkpt lon="-1.004295" lat="43.368071"><ele>92.25</ele></trkpt>
<trkpt lon="-1.004219" lat="43.367895"><ele>91.75</ele></trkpt>
<trkpt lon="-1.004161" lat="43.367806"><ele>91.5</ele></trkpt>
<trkpt lon="-1.004095" lat="43.367573"><ele>89.75</ele></trkpt>
<trkpt lon="-1.004005" lat="43.366926"><ele>85.0</ele></trkpt>
<trkpt lon="-1.003969" lat="43.366738"><ele>83.25</ele></trkpt>
<trkpt lon="-1.003949" lat="43.366534"><ele>81.5</ele></trkpt>
<trkpt lon="-1.003984" lat="43.366313"><ele>80.0</ele></trkpt>
<trkpt lon="-1.004173" lat="43.365639"><ele>77.25</ele></trkpt>
<trkpt lon="-1.004181" lat="43.365544"><ele>76.75</ele></trkpt>
<trkpt lon="-1.004169" lat="43.365463"><ele>76.5</ele></trkpt>
<trkpt lon="-1.005315" lat="43.364847"><ele>70.0</ele></trkpt>
<trkpt lon="-1.006941" lat="43.364018"><ele>72.25</ele></trkpt>
<trkpt lon="-1.007097" lat="43.363949"><ele>72.25</ele></trkpt>
<trkpt lon="-1.008076" lat="43.363515"><ele>72.0</ele></trkpt>
<trkpt lon="-1.009466" lat="43.363095"><ele>68.0</ele></trkpt>
<trkpt lon="-1.009677" lat="43.363037"><ele>67.0</ele></trkpt>
<trkpt lon="-1.009935" lat="43.362983"><ele>66.5</ele></trkpt>
<trkpt lon="-1.010716" lat="43.362811"><ele>64.25</ele></trkpt>
<trkpt lon="-1.012274" lat="43.362507"><ele>64.0</ele></trkpt>
<trkpt lon="-1.013224" lat="43.362275"><ele>65.0</ele></trkpt>
<trkpt lon="-1.014138" lat="43.361966"><ele>61.25</ele></trkpt>
<trkpt lon="-1.014788" lat="43.361652"><ele>56.75</ele></trkpt>
<trkpt lon="-1.015245" lat="43.361365"><ele>56.75</ele></trkpt>
<trkpt lon="-1.016357" lat="43.360461"><ele>53.5</ele></trkpt>
<trkpt lon="-1.016678" lat="43.360194"><ele>52.25</ele></trkpt>
<trkpt lon="-1.017123" lat="43.359817"><ele>54.75</ele></trkpt>
<trkpt lon="-1.017653" lat="43.359360"><ele>55.25</ele></trkpt>
<trkpt lon="-1.017962" lat="43.359053"><ele>54.25</ele></trkpt>
<trkpt lon="-1.018510" lat="43.358414"><ele>51.75</ele></trkpt>
<trkpt lon="-1.018794" lat="43.357959"><ele>50.5</ele></trkpt>
<trkpt lon="-1.019207" lat="43.357148"><ele>49.5</ele></trkpt>
<trkpt lon="-1.020796" lat="43.353618"><ele>50.0</ele></trkpt>
<trkpt lon="-1.021509" lat="43.352088"><ele>50.0</ele></trkpt>
<trkpt lon="-1.021583" lat="43.351940"><ele>50.0</ele></trkpt>
<trkpt lon="-1.021543" lat="43.351818"><ele>50.0</ele></trkpt>
<trkpt lon="-1.021155" lat="43.351362"><ele>50.75</ele></trkpt>
<trkpt lon="-1.021101" lat="43.351278"><ele>51.0</ele></trkpt>
<trkpt lon="-1.021074" lat="43.351069"><ele>51.0</ele></trkpt>
<trkpt lon="-1.021053" lat="43.350753"><ele>51.0</ele></trkpt>
<trkpt lon="-1.021083" lat="43.350558"><ele>51.0</ele></trkpt>
<trkpt lon="-1.021079" lat="43.350112"><ele>51.5</ele></trkpt>
<trkpt lon="-1.021245" lat="43.349712"><ele>52.0</ele></trkpt>
<trkpt lon="-1.021239" lat="43.349664"><ele>52.0</ele></trkpt>
<trkpt lon="-1.021280" lat="43.349573"><ele>52.0</ele></trkpt>
<trkpt lon="-1.021346" lat="43.349453"><ele>52.0</ele></trkpt>
<trkpt lon="-1.021750" lat="43.348466"><ele>52.0</ele></trkpt>
<trkpt lon="-1.022165" lat="43.347681"><ele>49.5</ele></trkpt>
<trkpt lon="-1.022058" lat="43.347614"><ele>49.75</ele></trkpt>
<trkpt lon="-1.022118" lat="43.347553"><ele>49.25</ele></trkpt>
<trkpt lon="-1.022248" lat="43.347455"><ele>49.0</ele></trkpt>
<trkpt lon="-1.022444" lat="43.347345"><ele>49.5</ele></trkpt>
<trkpt lon="-1.022525" lat="43.347283"><ele>49.75</ele></trkpt>
<trkpt lon="-1.022607" lat="43.347194"><ele>50.5</ele></trkpt>
<trkpt lon="-1.022666" lat="43.347200"><ele>50.5</ele></trkpt>
<trkpt lon="-1.022849" lat="43.347182"><ele>51.0</ele></trkpt>
<trkpt lon="-1.023230" lat="43.347107"><ele>50.75</ele></trkpt>
<trkpt lon="-1.023830" lat="43.347036"><ele>50.0</ele></trkpt>
<trkpt lon="-1.023878" lat="43.346926"><ele>50.0</ele></trkpt>
<trkpt lon="-1.025663" lat="43.343039"><ele>43.75</ele></trkpt>
<trkpt lon="-1.025778" lat="43.342787"><ele>41.25</ele></trkpt>
<trkpt lon="-1.026065" lat="43.342199"><ele>40.75</ele></trkpt>
<trkpt lon="-1.026268" lat="43.341773"><ele>41.25</ele></trkpt>
<trkpt lon="-1.026754" lat="43.341017"><ele>41.0</ele></trkpt>
<trkpt lon="-1.026985" lat="43.340701"><ele>39.75</ele></trkpt>
<trkpt lon="-1.030508" lat="43.335994"><ele>43.0</ele></trkpt>
<trkpt lon="-1.030625" lat="43.335829"><ele>42.75</ele></trkpt>
<trkpt lon="-1.030663" lat="43.335777"><ele>43.0</ele></trkpt>
<trkpt lon="-1.031459" lat="43.334687"><ele>42.75</ele></trkpt>
<trkpt lon="-1.031438" lat="43.334554"><ele>43.25</ele></trkpt>
<trkpt lon="-1.031965" lat="43.333757"><ele>43.5</ele></trkpt>
<trkpt lon="-1.031831" lat="43.333625"><ele>44.0</ele></trkpt>
<trkpt lon="-1.031500" lat="43.333186"><ele>49.5</ele></trkpt>
<trkpt lon="-1.031468" lat="43.333114"><ele>49.75</ele></trkpt>
<trkpt lon="-1.031494" lat="43.333098"><ele>49.75</ele></trkpt>
<trkpt lon="-1.031549" lat="43.332934"><ele>50.25</ele></trkpt>
<trkpt lon="-1.031597" lat="43.332884"><ele>50.5</ele></trkpt>
<trkpt lon="-1.031761" lat="43.332340"><ele>51.5</ele></trkpt>
<trkpt lon="-1.031930" lat="43.331622"><ele>51.75</ele></trkpt>
<trkpt lon="-1.031378" lat="43.331487"><ele>48.25</ele></trkpt>
<trkpt lon="-1.031310" lat="43.331594"><ele>48.0</ele></trkpt>
<trkpt lon="-1.031270" lat="43.331574"><ele>47.75</ele></trkpt>
<trkpt lon="-1.031241" lat="43.331551"><ele>47.5</ele></trkpt>
<trkpt lon="-1.031239" lat="43.331510"><ele>47.5</ele></trkpt>
<trkpt lon="-1.031206" lat="43.330952"><ele>47.75</ele></trkpt>
<trkpt lon="-1.031297" lat="43.330574"><ele>47.25</ele></trkpt>
<trkpt lon="-1.031351" lat="43.330360"><ele>46.25</ele></trkpt>
<trkpt lon="-1.031456" lat="43.329940"><ele>46.25</ele></trkpt>
<trkpt lon="-1.031469" lat="43.329891"><ele>46.25</ele></trkpt>
<trkpt lon="-1.031524" lat="43.329448"><ele>45.25</ele></trkpt>
<trkpt lon="-1.031543" lat="43.329346"><ele>45.75</ele></trkpt>
<trkpt lon="-1.031546" lat="43.329269"><ele>45.75</ele></trkpt>
<trkpt lon="-1.031662" lat="43.328905"><ele>45.0</ele></trkpt>
<trkpt lon="-1.031795" lat="43.328576"><ele>46.0</ele></trkpt>
<trkpt lon="-1.031832" lat="43.328482"><ele>46.0</ele></trkpt>
<trkpt lon="-1.031941" lat="43.328015"><ele>45.75</ele></trkpt>
<trkpt lon="-1.031943" lat="43.327987"><ele>45.75</ele></trkpt>
<trkpt lon="-1.032063" lat="43.327716"><ele>46.25</ele></trkpt>
<trkpt lon="-1.032174" lat="43.327510"><ele>46.75</ele></trkpt>
<trkpt lon="-1.032276" lat="43.327348"><ele>47.0</ele></trkpt>
<trkpt lon="-1.032308" lat="43.327314"><ele>47.0</ele></trkpt>
<trkpt lon="-1.032342" lat="43.327265"><ele>47.0</ele></trkpt>
<trkpt lon="-1.032416" lat="43.327182"><ele>47.0</ele></trkpt>
<trkpt lon="-1.032439" lat="43.327172"><ele>47.0</ele></trkpt>
<trkpt lon="-1.032547" lat="43.327098"><ele>47.5</ele></trkpt>
<trkpt lon="-1.032594" lat="43.327071"><ele>47.5</ele></trkpt>
<trkpt lon="-1.032687" lat="43.326994"><ele>47.75</ele></trkpt>
<trkpt lon="-1.032843" lat="43.326886"><ele>48.0</ele></trkpt>
<trkpt lon="-1.033171" lat="43.326652"><ele>48.25</ele></trkpt>
<trkpt lon="-1.033245" lat="43.326595"><ele>48.75</ele></trkpt>
<trkpt lon="-1.033286" lat="43.326574"><ele>48.75</ele></trkpt>
<trkpt lon="-1.032886" lat="43.326326"><ele>47.25</ele></trkpt>
  </trkseg></trk></gpx>
