<?xml version="1.0" encoding="UTF-8"?>
<gpx version="1.1" creator="compostel-brouter" xmlns="http://www.topografix.com/GPX/1/1">
  <metadata><name>FR-39-Ostabat</name></metadata>
  <trk><name>FR-39-Ostabat</name><trkseg>
<trkpt lon="-1.032886" lat="43.326326"><ele>47.5</ele></trkpt>
<trkpt lon="-1.033286" lat="43.326574"><ele>48.75</ele></trkpt>
<trkpt lon="-1.033542" lat="43.326250"><ele>49.75</ele></trkpt>
<trkpt lon="-1.033788" lat="43.325921"><ele>50.0</ele></trkpt>
<trkpt lon="-1.033845" lat="43.325839"><ele>50.0</ele></trkpt>
<trkpt lon="-1.034057" lat="43.325208"><ele>51.0</ele></trkpt>
<trkpt lon="-1.034237" lat="43.324765"><ele>52.0</ele></trkpt>
<trkpt lon="-1.034612" lat="43.324008"><ele>53.25</ele></trkpt>
<trkpt lon="-1.034639" lat="43.323910"><ele>53.5</ele></trkpt>
<trkpt lon="-1.034449" lat="43.323819"><ele>53.5</ele></trkpt>
<trkpt lon="-1.033981" lat="43.323616"><ele>53.25</ele></trkpt>
<trkpt lon="-1.033037" lat="43.323217"><ele>51.5</ele></trkpt>
<trkpt lon="-1.032515" lat="43.323004"><ele>53.75</ele></trkpt>
<trkpt lon="-1.032530" lat="43.322971"><ele>53.75</ele></trkpt>
<trkpt lon="-1.032654" lat="43.322692"><ele>53.75</ele></trkpt>
<trkpt lon="-1.032656" lat="43.322542"><ele>54.25</ele></trkpt>
<trkpt lon="-1.032641" lat="43.322432"><ele>54.5</ele></trkpt>
<trkpt lon="-1.032612" lat="43.322199"><ele>55.5</ele></trkpt>
<trkpt lon="-1.032457" lat="43.321563"><ele>55.0</ele></trkpt>
<trkpt lon="-1.032296" lat="43.320826"><ele>56.0</ele></trkpt>
<trkpt lon="-1.032235" lat="43.320540"><ele>56.0</ele></trkpt>
<trkpt lon="-1.032218" lat="43.320442"><ele>56.25</ele></trkpt>
<trkpt lon="-1.032216" lat="43.320373"><ele>56.5</ele></trkpt>
<trkpt lon="-1.032235" lat="43.320290"><ele>56.75</ele></trkpt>
<trkpt lon="-1.032442" lat="43.319933"><ele>57.0</ele></trkpt>
<trkpt lon="-1.032479" lat="43.319837"><ele>57.0</ele></trkpt>
<trkpt lon="-1.032524" lat="43.319684"><ele>57.0</ele></trkpt>
<trkpt lon="-1.032534" lat="43.319560"><ele>57.5</ele></trkpt>
<trkpt lon="-1.032508" lat="43.319467"><ele>57.75</ele></trkpt>
<trkpt lon="-1.032471" lat="43.319403"><ele>58.25</ele></trkpt>
<trkpt lon="-1.032369" lat="43.319326"><ele>58.75</ele></trkpt>
<trkpt lon="-1.032193" lat="43.319246"><ele>59.5</ele></trkpt>
<trkpt lon="-1.031632" lat="43.319078"><ele>59.5</ele></trkpt>
<trkpt lon="-1.031496" lat="43.319030"><ele>60.25</ele></trkpt>
<trkpt lon="-1.031419" lat="43.318983"><ele>60.5</ele></trkpt>
<trkpt lon="-1.031364" lat="43.318928"><ele>60.75</ele></trkpt>
<trkpt lon="-1.031322" lat="43.318861"><ele>61.0</ele></trkpt>
<trkpt lon="-1.031302" lat="43.318786"><ele>61.25</ele></trkpt>
<trkpt lon="-1.031295" lat="43.318693"><ele>61.5</ele></trkpt>
<trkpt lon="-1.031308" lat="43.318605"><ele>62.0</ele></trkpt>
<trkpt lon="-1.031552" lat="43.318026"><ele>63.25</ele></trkpt>
<trkpt lon="-1.031749" lat="43.317556"><ele>66.0</ele></trkpt>
<trkpt lon="-1.031377" lat="43.317461"><ele>66.5</ele></trkpt>
<trkpt lon="-1.031202" lat="43.317406"><ele>66.5</ele></trkpt>
<trkpt lon="-1.031099" lat="43.317361"><ele>66.25</ele></trkpt>
<trkpt lon="-1.030903" lat="43.317249"><ele>65.5</ele></trkpt>
<trkpt lon="-1.030752" lat="43.317179"><ele>65.5</ele></trkpt>
<trkpt lon="-1.030557" lat="43.317108"><ele>66.75</ele></trkpt>
<trkpt lon="-1.030304" lat="43.317034"><ele>67.25</ele></trkpt>
<trkpt lon="-1.029410" lat="43.316800"><ele>66.75</ele></trkpt>
<trkpt lon="-1.029503" lat="43.316589"><ele>71.0</ele></trkpt>
<trkpt lon="-1.029621" lat="43.316277"><ele>79.25</ele></trkpt>
<trkpt lon="-1.029760" lat="43.315988"><ele>88.0</ele></trkpt>
<trkpt lon="-1.029910" lat="43.315582"><ele>99.5</ele></trkpt>
<trkpt lon="-1.030082" lat="43.315153"><ele>110.25</ele></trkpt>
<trkpt lon="-1.030275" lat="43.314723"><ele>121.0</ele></trkpt>
<trkpt lon="-1.030393" lat="43.314208"><ele>131.75</ele></trkpt>
<trkpt lon="-1.030758" lat="43.312288"><ele>146.75</ele></trkpt>
<trkpt lon="-1.030898" lat="43.311515"><ele>150.5</ele></trkpt>
<trkpt lon="-1.031230" lat="43.311125"><ele>147.75</ele></trkpt>
<trkpt lon="-1.031444" lat="43.310836"><ele>147.5</ele></trkpt>
<trkpt lon="-1.031649" lat="43.310852"><ele>149.75</ele></trkpt>
<trkpt lon="-1.031896" lat="43.310895"><ele>149.5</ele></trkpt>
<trkpt lon="-1.032032" lat="43.310882"><ele>149.25</ele></trkpt>
<trkpt lon="-1.032374" lat="43.310801"><ele>150.75</ele></trkpt>
<trkpt lon="-1.032533" lat="43.310788"><ele>151.25</ele></trkpt>
<trkpt lon="-1.032916" lat="43.310839"><ele>151.25</ele></trkpt>
<trkpt lon="-1.033388" lat="43.310942"><ele>152.0</ele></trkpt>
<trkpt lon="-1.033783" lat="43.311045"><ele>152.25</ele></trkpt>
<trkpt lon="-1.034160" lat="43.311109"><ele>153.0</ele></trkpt>
<trkpt lon="-1.034880" lat="43.311191"><ele>156.5</ele></trkpt>
<trkpt lon="-1.035369" lat="43.311234"><ele>157.25</ele></trkpt>
<trkpt lon="-1.035652" lat="43.311242"><ele>159.25</ele></trkpt>
<trkpt lon="-1.035935" lat="43.311208"><ele>162.75</ele></trkpt>
<trkpt lon="-1.036336" lat="43.311152"><ele>163.5</ele></trkpt>
<trkpt lon="-1.036404" lat="43.311137"><ele>163.5</ele></trkpt>
<trkpt lon="-1.036383" lat="43.310985"><ele>165.25</ele></trkpt>
<trkpt lon="-1.036224" lat="43.310754"><ele>169.5</ele></trkpt>
<trkpt lon="-1.036029" lat="43.310513"><ele>174.5</ele></trkpt>
<trkpt lon="-1.035793" lat="43.310192"><ele>182.5</ele></trkpt>
<trkpt lon="-1.035605" lat="43.310076"><ele>186.25</ele></trkpt>
<trkpt lon="-1.035245" lat="43.309900"><ele>192.5</ele></trkpt>
<trkpt lon="-1.034329" lat="43.309358"><ele>200.25</ele></trkpt>
<trkpt lon="-1.034016" lat="43.309112"><ele>201.25</ele></trkpt>
<trkpt lon="-1.033826" lat="43.308894"><ele>202.0</ele></trkpt>
<trkpt lon="-1.033663" lat="43.308657"><ele>204.75</ele></trkpt>
<trkpt lon="-1.033490" lat="43.308349"><ele>207.0</ele></trkpt>
<trkpt lon="-1.033299" lat="43.308346"><ele>210.0</ele></trkpt>
<trkpt lon="-1.032952" lat="43.308376"><ele>211.5</ele></trkpt>
<trkpt lon="-1.032771" lat="43.308386"><ele>211.25</ele></trkpt>
<trkpt lon="-1.032655" lat="43.308363"><ele>208.75</ele></trkpt>
<trkpt lon="-1.032630" lat="43.307946"><ele>217.0</ele></trkpt>
<trkpt lon="-1.032615" lat="43.307889"><ele>218.25</ele></trkpt>
<trkpt lon="-1.032262" lat="43.307762"><ele>223.25</ele></trkpt>
<trkpt lon="-1.031797" lat="43.307572"><ele>230.75</ele></trkpt>
<trkpt lon="-1.031264" lat="43.307335"><ele>242.75</ele></trkpt>
<trkpt lon="-1.031014" lat="43.307172"><ele>249.75</ele></trkpt>
<trkpt lon="-1.030918" lat="43.307099"><ele>252.0</ele></trkpt>
<trkpt lon="-1.030878" lat="43.306937"><ele>256.75</ele></trkpt>
<trkpt lon="-1.031027" lat="43.306740"><ele>259.75</ele></trkpt>
<trkpt lon="-1.031258" lat="43.306457"><ele>261.0</ele></trkpt>
<trkpt lon="-1.031215" lat="43.306332"><ele>262.5</ele></trkpt>
<trkpt lon="-1.031108" lat="43.306139"><ele>264.0</ele></trkpt>
<trkpt lon="-1.030950" lat="43.305769"><ele>262.5</ele></trkpt>
<trkpt lon="-1.030871" lat="43.305649"><ele>262.0</ele></trkpt>
<trkpt lon="-1.030903" lat="43.305611"><ele>261.75</ele></trkpt>
<trkpt lon="-1.031007" lat="43.305488"><ele>261.25</ele></trkpt>
<trkpt lon="-1.031250" lat="43.305230"><ele>259.5</ele></trkpt>
<trkpt lon="-1.031492" lat="43.304963"><ele>254.0</ele></trkpt>
<trkpt lon="-1.032610" lat="43.303679"><ele>223.5</ele></trkpt>
<trkpt lon="-1.032652" lat="43.303684"><ele>223.25</ele></trkpt>
<trkpt lon="-1.033318" lat="43.303834"><ele>218.0</ele></trkpt>
<trkpt lon="-1.033543" lat="43.303899"><ele>215.5</ele></trkpt>
<trkpt lon="-1.034962" lat="43.304451"><ele>198.25</ele></trkpt>
<trkpt lon="-1.035134" lat="43.304540"><ele>195.75</ele></trkpt>
<trkpt lon="-1.035204" lat="43.304618"><ele>194.5</ele></trkpt>
<trkpt lon="-1.035225" lat="43.304688"><ele>193.75</ele></trkpt>
<trkpt lon="-1.035234" lat="43.304813"><ele>192.25</ele></trkpt>
<trkpt lon="-1.035274" lat="43.304906"><ele>191.0</ele></trkpt>
<trkpt lon="-1.035351" lat="43.304966"><ele>189.5</ele></trkpt>
<trkpt lon="-1.035463" lat="43.305014"><ele>187.75</ele></trkpt>
<trkpt lon="-1.035586" lat="43.305022"><ele>186.25</ele></trkpt>
<trkpt lon="-1.035689" lat="43.304999"><ele>185.0</ele></trkpt>
<trkpt lon="-1.035944" lat="43.304912"><ele>182.5</ele></trkpt>
<trkpt lon="-1.036014" lat="43.304901"><ele>181.75</ele></trkpt>
<trkpt lon="-1.036117" lat="43.304907"><ele>180.5</ele></trkpt>
<trkpt lon="-1.036123" lat="43.304760"><ele>181.5</ele></trkpt>
<trkpt lon="-1.036109" lat="43.304589"><ele>182.75</ele></trkpt>
<trkpt lon="-1.036071" lat="43.304448"><ele>184.5</ele></trkpt>
<trkpt lon="-1.035831" lat="43.303892"><ele>189.0</ele></trkpt>
<trkpt lon="-1.035767" lat="43.303553"><ele>191.5</ele></trkpt>
<trkpt lon="-1.035642" lat="43.303246"><ele>192.0</ele></trkpt>
<trkpt lon="-1.035403" lat="43.302963"><ele>192.0</ele></trkpt>
<trkpt lon="-1.035373" lat="43.302911"><ele>191.75</ele></trkpt>
<trkpt lon="-1.035260" lat="43.302622"><ele>189.25</ele></trkpt>
<trkpt lon="-1.035248" lat="43.302542"><ele>188.75</ele></trkpt>
<trkpt lon="-1.035256" lat="43.302409"><ele>187.5</ele></trkpt>
<trkpt lon="-1.035246" lat="43.302322"><ele>186.75</ele></trkpt>
<trkpt lon="-1.035222" lat="43.302221"><ele>186.25</ele></trkpt>
<trkpt lon="-1.035121" lat="43.302027"><ele>185.25</ele></trkpt>
<trkpt lon="-1.034911" lat="43.301764"><ele>182.5</ele></trkpt>
<trkpt lon="-1.034832" lat="43.301625"><ele>180.5</ele></trkpt>
<trkpt lon="-1.034797" lat="43.301521"><ele>179.5</ele></trkpt>
<trkpt lon="-1.034769" lat="43.301356"><ele>178.0</ele></trkpt>
<trkpt lon="-1.034868" lat="43.300518"><ele>169.25</ele></trkpt>
<trkpt lon="-1.034902" lat="43.300335"><ele>167.0</ele></trkpt>
<trkpt lon="-1.034908" lat="43.300215"><ele>165.5</ele></trkpt>
<trkpt lon="-1.034892" lat="43.300145"><ele>164.75</ele></trkpt>
<trkpt lon="-1.034854" lat="43.300045"><ele>163.5</ele></trkpt>
<trkpt lon="-1.034756" lat="43.299866"><ele>161.0</ele></trkpt>
<trkpt lon="-1.034662" lat="43.299737"><ele>159.0</ele></trkpt>
<trkpt lon="-1.034504" lat="43.299507"><ele>156.5</ele></trkpt>
<trkpt lon="-1.034491" lat="43.299414"><ele>155.5</ele></trkpt>
<trkpt lon="-1.034518" lat="43.299334"><ele>154.5</ele></trkpt>
<trkpt lon="-1.034576" lat="43.299302"><ele>154.0</ele></trkpt>
<trkpt lon="-1.034619" lat="43.299265"><ele>153.75</ele></trkpt>
<trkpt lon="-1.034648" lat="43.299217"><ele>153.25</ele></trkpt>
<trkpt lon="-1.034678" lat="43.299126"><ele>152.25</ele></trkpt>
<trkpt lon="-1.034729" lat="43.299021"><ele>150.75</ele></trkpt>
<trkpt lon="-1.034787" lat="43.298977"><ele>150.5</ele></trkpt>
<trkpt lon="-1.034853" lat="43.298952"><ele>150.5</ele></trkpt>
<trkpt lon="-1.034941" lat="43.298958"><ele>151.0</ele></trkpt>
<trkpt lon="-1.035029" lat="43.298974"><ele>151.5</ele></trkpt>
<trkpt lon="-1.035475" lat="43.299181"><ele>151.5</ele></trkpt>
<trkpt lon="-1.035615" lat="43.299188"><ele>150.75</ele></trkpt>
<trkpt lon="-1.035703" lat="43.299143"><ele>150.25</ele></trkpt>
<trkpt lon="-1.035973" lat="43.298718"><ele>150.25</ele></trkpt>
<trkpt lon="-1.036236" lat="43.298414"><ele>151.0</ele></trkpt>
<trkpt lon="-1.036503" lat="43.297986"><ele>153.5</ele></trkpt>
<trkpt lon="-1.036955" lat="43.297402"><ele>159.0</ele></trkpt>
<trkpt lon="-1.037131" lat="43.297219"><ele>161.5</ele></trkpt>
<trkpt lon="-1.037159" lat="43.297144"><ele>162.75</ele></trkpt>
<trkpt lon="-1.037614" lat="43.296511"><ele>175.0</ele></trkpt>
<trkpt lon="-1.037662" lat="43.296426"><ele>176.5</ele></trkpt>
<trkpt lon="-1.037955" lat="43.295762"><ele>188.25</ele></trkpt>
<trkpt lon="-1.038191" lat="43.295374"><ele>195.5</ele></trkpt>
<trkpt lon="-1.039493" lat="43.293897"><ele>220.5</ele></trkpt>
<trkpt lon="-1.040214" lat="43.292813"><ele>239.5</ele></trkpt>
<trkpt lon="-1.040449" lat="43.292486"><ele>246.0</ele></trkpt>
<trkpt lon="-1.040753" lat="43.292168"><ele>253.5</ele></trkpt>
<trkpt lon="-1.041001" lat="43.291777"><ele>259.5</ele></trkpt>
<trkpt lon="-1.041009" lat="43.291700"><ele>260.0</ele></trkpt>
<trkpt lon="-1.041098" lat="43.290767"><ele>267.0</ele></trkpt>
<trkpt lon="-1.041377" lat="43.290044"><ele>273.5</ele></trkpt>
<trkpt lon="-1.041563" lat="43.289454"><ele>278.5</ele></trkpt>
<trkpt lon="-1.041895" lat="43.288801"><ele>282.5</ele></trkpt>
<trkpt lon="-1.041977" lat="43.288580"><ele>283.75</ele></trkpt>
<trkpt lon="-1.041972" lat="43.288329"><ele>284.75</ele></trkpt>
<trkpt lon="-1.041935" lat="43.288001"><ele>285.0</ele></trkpt>
<trkpt lon="-1.042025" lat="43.287652"><ele>284.25</ele></trkpt>
<trkpt lon="-1.042068" lat="43.286944"><ele>279.5</ele></trkpt>
<trkpt lon="-1.042161" lat="43.286169"><ele>276.25</ele></trkpt>
<trkpt lon="-1.042281" lat="43.285890"><ele>275.5</ele></trkpt>
<trkpt lon="-1.042599" lat="43.285448"><ele>277.25</ele></trkpt>
<trkpt lon="-1.043329" lat="43.284563"><ele>286.25</ele></trkpt>
<trkpt lon="-1.043638" lat="43.284129"><ele>291.0</ele></trkpt>
<trkpt lon="-1.043576" lat="43.284071"><ele>291.0</ele></trkpt>
<trkpt lon="-1.043273" lat="43.283938"><ele>290.0</ele></trkpt>
<trkpt lon="-1.043167" lat="43.283874"><ele>289.0</ele></trkpt>
<trkpt lon="-1.043076" lat="43.283735"><ele>287.5</ele></trkpt>
<trkpt lon="-1.043092" lat="43.283498"><ele>286.5</ele></trkpt>
<trkpt lon="-1.043274" lat="43.282975"><ele>283.0</ele></trkpt>
<trkpt lon="-1.043316" lat="43.282871"><ele>281.5</ele></trkpt>
<trkpt lon="-1.043473" lat="43.282684"><ele>280.0</ele></trkpt>
<trkpt lon="-1.043603" lat="43.282416"><ele>276.0</ele></trkpt>
<trkpt lon="-1.044213" lat="43.281672"><ele>265.75</ele></trkpt>
<trkpt lon="-1.044484" lat="43.281479"><ele>264.0</ele></trkpt>
<trkpt lon="-1.044730" lat="43.281247"><ele>259.75</ele></trkpt>
<trkpt lon="-1.044976" lat="43.281054"><ele>256.5</ele></trkpt>
<trkpt lon="-1.045004" lat="43.280687"><ele>249.75</ele></trkpt>
<trkpt lon="-1.045008" lat="43.280407"><ele>247.25</ele></trkpt>
<trkpt lon="-1.044984" lat="43.280081"><ele>246.0</ele></trkpt>
<trkpt lon="-1.044405" lat="43.279248"><ele>249.5</ele></trkpt>
<trkpt lon="-1.044196" lat="43.279044"><ele>248.5</ele></trkpt>
<trkpt lon="-1.043745" lat="43.278455"><ele>238.0</ele></trkpt>
<trkpt lon="-1.043498" lat="43.278222"><ele>233.25</ele></trkpt>
<trkpt lon="-1.043230" lat="43.277937"><ele>228.25</ele></trkpt>
<trkpt lon="-1.043302" lat="43.277701"><ele>225.25</ele></trkpt>
<trkpt lon="-1.043740" lat="43.276945"><ele>209.5</ele></trkpt>
<trkpt lon="-1.043793" lat="43.276697"><ele>204.5</ele></trkpt>
<trkpt lon="-1.043880" lat="43.276541"><ele>201.5</ele></trkpt>
<trkpt lon="-1.043911" lat="43.276451"><ele>200.0</ele></trkpt>
<trkpt lon="-1.043878" lat="43.276433"><ele>199.5</ele></trkpt>
<trkpt lon="-1.044034" lat="43.276309"><ele>197.25</ele></trkpt>
<trkpt lon="-1.044261" lat="43.275999"><ele>192.5</ele></trkpt>
<trkpt lon="-1.044410" lat="43.275733"><ele>187.75</ele></trkpt>
<trkpt lon="-1.044503" lat="43.275538"><ele>184.25</ele></trkpt>
<trkpt lon="-1.044579" lat="43.275416"><ele>181.5</ele></trkpt>
<trkpt lon="-1.044678" lat="43.275323"><ele>179.0</ele></trkpt>
<trkpt lon="-1.044874" lat="43.275184"><ele>175.0</ele></trkpt>
<trkpt lon="-1.044949" lat="43.275141"><ele>173.75</ele></trkpt>
<trkpt lon="-1.045024" lat="43.275107"><ele>172.5</ele></trkpt>
<trkpt lon="-1.045097" lat="43.275092"><ele>171.5</ele></trkpt>
<trkpt lon="-1.045175" lat="43.275085"><ele>170.75</ele></trkpt>
<trkpt lon="-1.045240" lat="43.275087"><ele>170.25</ele></trkpt>
<trkpt lon="-1.045629" lat="43.275142"><ele>166.75</ele></trkpt>
<trkpt lon="-1.045695" lat="43.275136"><ele>165.75</ele></trkpt>
<trkpt lon="-1.045748" lat="43.275105"><ele>164.75</ele></trkpt>
<trkpt lon="-1.045775" lat="43.275057"><ele>164.25</ele></trkpt>
<trkpt lon="-1.045780" lat="43.274936"><ele>163.0</ele></trkpt>
<trkpt lon="-1.045838" lat="43.274654"><ele>160.25</ele></trkpt>
<trkpt lon="-1.045884" lat="43.274492"><ele>158.25</ele></trkpt>
<trkpt lon="-1.045975" lat="43.274317"><ele>156.5</ele></trkpt>
<trkpt lon="-1.046064" lat="43.274207"><ele>154.75</ele></trkpt>
<trkpt lon="-1.046209" lat="43.273810"><ele>152.75</ele></trkpt>
<trkpt lon="-1.046443" lat="43.272963"><ele>150.0</ele></trkpt>
<trkpt lon="-1.046480" lat="43.272895"><ele>150.25</ele></trkpt>
<trkpt lon="-1.046607" lat="43.272770"><ele>151.0</ele></trkpt>
<trkpt lon="-1.046674" lat="43.272718"><ele>151.5</ele></trkpt>
<trkpt lon="-1.047226" lat="43.272635"><ele>150.5</ele></trkpt>
<trkpt lon="-1.047494" lat="43.272605"><ele>148.75</ele></trkpt>
<trkpt lon="-1.047591" lat="43.272578"><ele>148.25</ele></trkpt>
<trkpt lon="-1.048045" lat="43.272357"><ele>147.0</ele></trkpt>
<trkpt lon="-1.048210" lat="43.272223"><ele>145.75</ele></trkpt>
<trkpt lon="-1.048288" lat="43.272175"><ele>144.25</ele></trkpt>
<trkpt lon="-1.048426" lat="43.272072"><ele>142.25</ele></trkpt>
<trkpt lon="-1.048459" lat="43.272021"><ele>141.5</ele></trkpt>
<trkpt lon="-1.048557" lat="43.271975"><ele>140.0</ele></trkpt>
<trkpt lon="-1.048655" lat="43.271970"><ele>138.75</ele></trkpt>
<trkpt lon="-1.048911" lat="43.271974"><ele>136.0</ele></trkpt>
<trkpt lon="-1.049152" lat="43.271924"><ele>132.75</ele></trkpt>
<trkpt lon="-1.049392" lat="43.271912"><ele>129.5</ele></trkpt>
<trkpt lon="-1.049659" lat="43.271903"><ele>126.25</ele></trkpt>
<trkpt lon="-1.049724" lat="43.271890"><ele>125.5</ele></trkpt>
<trkpt lon="-1.049769" lat="43.271866"><ele>124.25</ele></trkpt>
<trkpt lon="-1.049808" lat="43.271835"><ele>123.25</ele></trkpt>
<trkpt lon="-1.049890" lat="43.271755"><ele>121.25</ele></trkpt>
<trkpt lon="-1.049923" lat="43.271691"><ele>120.25</ele></trkpt>
<trkpt lon="-1.049973" lat="43.271532"><ele>118.25</ele></trkpt>
<trkpt lon="-1.050050" lat="43.271171"><ele>114.5</ele></trkpt>
<trkpt lon="-1.050057" lat="43.271019"><ele>115.25</ele></trkpt>
<trkpt lon="-1.050058" lat="43.270876"><ele>117.0</ele></trkpt>
<trkpt lon="-1.050007" lat="43.270814"><ele>117.75</ele></trkpt>
<trkpt lon="-1.049962" lat="43.270788"><ele>118.5</ele></trkpt>
<trkpt lon="-1.049329" lat="43.270622"><ele>124.5</ele></trkpt>
<trkpt lon="-1.049290" lat="43.270600"><ele>125.25</ele></trkpt>
<trkpt lon="-1.049203" lat="43.270502"><ele>128.75</ele></trkpt>
<trkpt lon="-1.049192" lat="43.270484"><ele>129.5</ele></trkpt>
<trkpt lon="-1.049205" lat="43.270449"><ele>130.75</ele></trkpt>
<trkpt lon="-1.049227" lat="43.270433"><ele>131.25</ele></trkpt>
<trkpt lon="-1.050750" lat="43.269815"><ele>149.75</ele></trkpt>
<trkpt lon="-1.050803" lat="43.269799"><ele>150.0</ele></trkpt>
<trkpt lon="-1.050864" lat="43.269791"><ele>150.5</ele></trkpt>
<trkpt lon="-1.051529" lat="43.269799"><ele>156.75</ele></trkpt>
<trkpt lon="-1.052054" lat="43.269759"><ele>163.0</ele></trkpt>
<trkpt lon="-1.052419" lat="43.269714"><ele>165.25</ele></trkpt>
<trkpt lon="-1.052820" lat="43.269951"><ele>171.25</ele></trkpt>
<trkpt lon="-1.053409" lat="43.270029"><ele>175.25</ele></trkpt>
<trkpt lon="-1.053815" lat="43.269939"><ele>176.75</ele></trkpt>
<trkpt lon="-1.053997" lat="43.269773"><ele>177.0</ele></trkpt>
<trkpt lon="-1.054342" lat="43.269401"><ele>178.5</ele></trkpt>
<trkpt lon="-1.054651" lat="43.269186"><ele>180.5</ele></trkpt>
<trkpt lon="-1.055132" lat="43.269026"><ele>182.5</ele></trkpt>
<trkpt lon="-1.055401" lat="43.268816"><ele>184.0</ele></trkpt>
<trkpt lon="-1.055530" lat="43.268939"><ele>184.5</ele></trkpt>
<trkpt lon="-1.057311" lat="43.269962"><ele>183.25</ele></trkpt>
<trkpt lon="-1.057592" lat="43.270041"><ele>185.5</ele></trkpt>
<trkpt lon="-1.058424" lat="43.270067"><ele>190.25</ele></trkpt>
<trkpt lon="-1.058702" lat="43.270109"><ele>191.0</ele></trkpt>
<trkpt lon="-1.058933" lat="43.270185"><ele>191.25</ele></trkpt>
<trkpt lon="-1.059185" lat="43.270348"><ele>190.25</ele></trkpt>
<trkpt lon="-1.059311" lat="43.270513"><ele>190.0</ele></trkpt>
<trkpt lon="-1.059671" lat="43.271067"><ele>188.0</ele></trkpt>
<trkpt lon="-1.059794" lat="43.271196"><ele>187.25</ele></trkpt>
<trkpt lon="-1.059835" lat="43.271215"><ele>187.25</ele></trkpt>
<trkpt lon="-1.059960" lat="43.271274"><ele>187.0</ele></trkpt>
<trkpt lon="-1.060129" lat="43.271324"><ele>187.75</ele></trkpt>
<trkpt lon="-1.060389" lat="43.271335"><ele>188.75</ele></trkpt>
<trkpt lon="-1.061185" lat="43.271277"><ele>189.25</ele></trkpt>
<trkpt lon="-1.062205" lat="43.271440"><ele>189.5</ele></trkpt>
<trkpt lon="-1.062543" lat="43.271376"><ele>191.25</ele></trkpt>
<trkpt lon="-1.063073" lat="43.271266"><ele>195.5</ele></trkpt>
<trkpt lon="-1.063586" lat="43.271144"><ele>203.5</ele></trkpt>
<trkpt lon="-1.063797" lat="43.271140"><ele>206.5</ele></trkpt>
<trkpt lon="-1.063938" lat="43.271156"><ele>208.25</ele></trkpt>
<trkpt lon="-1.064387" lat="43.271431"><ele>213.75</ele></trkpt>
<trkpt lon="-1.064544" lat="43.271498"><ele>214.75</ele></trkpt>
<trkpt lon="-1.064928" lat="43.271589"><ele>217.0</ele></trkpt>
<trkpt lon="-1.065317" lat="43.271656"><ele>219.25</ele></trkpt>
<trkpt lon="-1.065539" lat="43.271683"><ele>220.5</ele></trkpt>
<trkpt lon="-1.065717" lat="43.271679"><ele>222.0</ele></trkpt>
<trkpt lon="-1.065842" lat="43.271640"><ele>223.25</ele></trkpt>
<trkpt lon="-1.066134" lat="43.271447"><ele>227.0</ele></trkpt>
<trkpt lon="-1.066258" lat="43.271372"><ele>228.25</ele></trkpt>
<trkpt lon="-1.066507" lat="43.271282"><ele>230.25</ele></trkpt>
<trkpt lon="-1.066685" lat="43.271203"><ele>232.5</ele></trkpt>
<trkpt lon="-1.067199" lat="43.270825"><ele>237.5</ele></trkpt>
<trkpt lon="-1.067388" lat="43.270738"><ele>238.5</ele></trkpt>
<trkpt lon="-1.067561" lat="43.270691"><ele>240.0</ele></trkpt>
<trkpt lon="-1.067642" lat="43.270687"><ele>240.75</ele></trkpt>
<trkpt lon="-1.067724" lat="43.270774"><ele>242.75</ele></trkpt>
<trkpt lon="-1.068026" lat="43.271463"><ele>249.25</ele></trkpt>
<trkpt lon="-1.068178" lat="43.271577"><ele>250.25</ele></trkpt>
<trkpt lon="-1.068513" lat="43.271798"><ele>251.5</ele></trkpt>
<trkpt lon="-1.068702" lat="43.271975"><ele>252.25</ele></trkpt>
<trkpt lon="-1.068938" lat="43.272316"><ele>255.0</ele></trkpt>
<trkpt lon="-1.069171" lat="43.272607"><ele>258.5</ele></trkpt>
<trkpt lon="-1.069304" lat="43.272732"><ele>259.75</ele></trkpt>
<trkpt lon="-1.069723" lat="43.273003"><ele>263.5</ele></trkpt>
<trkpt lon="-1.069900" lat="43.273182"><ele>265.0</ele></trkpt>
<trkpt lon="-1.070040" lat="43.273417"><ele>264.75</ele></trkpt>
<trkpt lon="-1.070158" lat="43.273584"><ele>266.75</ele></trkpt>
<trkpt lon="-1.070217" lat="43.273747"><ele>266.5</ele></trkpt>
<trkpt lon="-1.070248" lat="43.273847"><ele>266.25</ele></trkpt>
<trkpt lon="-1.070239" lat="43.273994"><ele>265.5</ele></trkpt>
<trkpt lon="-1.070208" lat="43.274125"><ele>265.5</ele></trkpt>
<trkpt lon="-1.070248" lat="43.274224"><ele>266.25</ele></trkpt>
<trkpt lon="-1.070401" lat="43.274346"><ele>267.75</ele></trkpt>
<trkpt lon="-1.070525" lat="43.274423"><ele>268.75</ele></trkpt>
<trkpt lon="-1.070581" lat="43.274432"><ele>269.25</ele></trkpt>
<trkpt lon="-1.070618" lat="43.274401"><ele>270.0</ele></trkpt>
<trkpt lon="-1.070630" lat="43.274346"><ele>271.0</ele></trkpt>
<trkpt lon="-1.070612" lat="43.274195"><ele>273.5</ele></trkpt>
<trkpt lon="-1.070612" lat="43.274007"><ele>275.0</ele></trkpt>
<trkpt lon="-1.070649" lat="43.273829"><ele>276.5</ele></trkpt>
<trkpt lon="-1.070691" lat="43.273359"><ele>282.0</ele></trkpt>
<trkpt lon="-1.070658" lat="43.273003"><ele>286.5</ele></trkpt>
<trkpt lon="-1.070648" lat="43.272711"><ele>290.5</ele></trkpt>
<trkpt lon="-1.070780" lat="43.272300"><ele>295.75</ele></trkpt>
<trkpt lon="-1.070967" lat="43.271890"><ele>303.25</ele></trkpt>
<trkpt lon="-1.071474" lat="43.270826"><ele>321.5</ele></trkpt>
<trkpt lon="-1.071508" lat="43.270842"><ele>322.0</ele></trkpt>
<trkpt lon="-1.071548" lat="43.270851"><ele>322.5</ele></trkpt>
<trkpt lon="-1.071632" lat="43.270860"><ele>323.75</ele></trkpt>
<trkpt lon="-1.072087" lat="43.270936"><ele>324.75</ele></trkpt>
<trkpt lon="-1.072308" lat="43.270997"><ele>322.0</ele></trkpt>
<trkpt lon="-1.072496" lat="43.271022"><ele>320.0</ele></trkpt>
<trkpt lon="-1.072594" lat="43.271028"><ele>318.5</ele></trkpt>
<trkpt lon="-1.072696" lat="43.271045"><ele>316.25</ele></trkpt>
<trkpt lon="-1.072773" lat="43.271048"><ele>315.0</ele></trkpt>
<trkpt lon="-1.072828" lat="43.271038"><ele>314.25</ele></trkpt>
<trkpt lon="-1.072879" lat="43.271020"><ele>313.75</ele></trkpt>
<trkpt lon="-1.072937" lat="43.271014"><ele>312.75</ele></trkpt>
<trkpt lon="-1.073139" lat="43.270955"><ele>309.5</ele></trkpt>
<trkpt lon="-1.073225" lat="43.270913"><ele>308.5</ele></trkpt>
<trkpt lon="-1.073277" lat="43.270880"><ele>308.0</ele></trkpt>
<trkpt lon="-1.073357" lat="43.270858"><ele>306.5</ele></trkpt>
<trkpt lon="-1.073390" lat="43.270836"><ele>306.0</ele></trkpt>
<trkpt lon="-1.073419" lat="43.270839"><ele>305.0</ele></trkpt>
<trkpt lon="-1.073466" lat="43.270830"><ele>303.75</ele></trkpt>
<trkpt lon="-1.073538" lat="43.270807"><ele>302.5</ele></trkpt>
<trkpt lon="-1.073595" lat="43.270811"><ele>300.5</ele></trkpt>
<trkpt lon="-1.073700" lat="43.270781"><ele>299.0</ele></trkpt>
<trkpt lon="-1.073730" lat="43.270762"><ele>299.0</ele></trkpt>
<trkpt lon="-1.073767" lat="43.270751"><ele>298.5</ele></trkpt>
<trkpt lon="-1.073881" lat="43.270742"><ele>296.0</ele></trkpt>
<trkpt lon="-1.074037" lat="43.270667"><ele>296.5</ele></trkpt>
<trkpt lon="-1.074068" lat="43.270637"><ele>297.0</ele></trkpt>
<trkpt lon="-1.074224" lat="43.270586"><ele>295.25</ele></trkpt>
<trkpt lon="-1.074542" lat="43.270429"><ele>293.0</ele></trkpt>
<trkpt lon="-1.074563" lat="43.270405"><ele>293.0</ele></trkpt>
<trkpt lon="-1.074618" lat="43.270376"><ele>292.25</ele></trkpt>
<trkpt lon="-1.074649" lat="43.270344"><ele>292.0</ele></trkpt>
<trkpt lon="-1.074692" lat="43.270320"><ele>291.0</ele></trkpt>
<trkpt lon="-1.074749" lat="43.270235"><ele>291.75</ele></trkpt>
<trkpt lon="-1.074756" lat="43.270205"><ele>292.75</ele></trkpt>
<trkpt lon="-1.074783" lat="43.270181"><ele>292.75</ele></trkpt>
<trkpt lon="-1.074909" lat="43.270141"><ele>290.25</ele></trkpt>
<trkpt lon="-1.074974" lat="43.270112"><ele>289.75</ele></trkpt>
<trkpt lon="-1.075071" lat="43.270089"><ele>288.5</ele></trkpt>
<trkpt lon="-1.075158" lat="43.270048"><ele>288.5</ele></trkpt>
<trkpt lon="-1.075231" lat="43.270004"><ele>289.0</ele></trkpt>
<trkpt lon="-1.075283" lat="43.269964"><ele>289.0</ele></trkpt>
<trkpt lon="-1.075329" lat="43.269940"><ele>288.5</ele></trkpt>
<trkpt lon="-1.075479" lat="43.269835"><ele>287.25</ele></trkpt>
<trkpt lon="-1.075549" lat="43.269770"><ele>287.25</ele></trkpt>
<trkpt lon="-1.075626" lat="43.269720"><ele>286.5</ele></trkpt>
<trkpt lon="-1.075665" lat="43.269680"><ele>286.25</ele></trkpt>
<trkpt lon="-1.075717" lat="43.269641"><ele>285.75</ele></trkpt>
<trkpt lon="-1.075801" lat="43.269603"><ele>284.25</ele></trkpt>
<trkpt lon="-1.075840" lat="43.269556"><ele>284.75</ele></trkpt>
<trkpt lon="-1.075857" lat="43.269528"><ele>285.5</ele></trkpt>
<trkpt lon="-1.075922" lat="43.269470"><ele>287.0</ele></trkpt>
<trkpt lon="-1.076010" lat="43.269434"><ele>287.5</ele></trkpt>
<trkpt lon="-1.076098" lat="43.269424"><ele>287.25</ele></trkpt>
<trkpt lon="-1.076192" lat="43.269423"><ele>288.75</ele></trkpt>
<trkpt lon="-1.076490" lat="43.269489"><ele>290.75</ele></trkpt>
<trkpt lon="-1.076671" lat="43.269539"><ele>292.5</ele></trkpt>
<trkpt lon="-1.076801" lat="43.269550"><ele>295.25</ele></trkpt>
<trkpt lon="-1.076832" lat="43.269539"><ele>296.5</ele></trkpt>
<trkpt lon="-1.076825" lat="43.269517"><ele>297.25</ele></trkpt>
<trkpt lon="-1.076773" lat="43.269485"><ele>297.5</ele></trkpt>
<trkpt lon="-1.076677" lat="43.269446"><ele>297.0</ele></trkpt>
<trkpt lon="-1.076581" lat="43.269379"><ele>298.75</ele></trkpt>
<trkpt lon="-1.076146" lat="43.269182"><ele>303.5</ele></trkpt>
<trkpt lon="-1.076040" lat="43.269109"><ele>305.25</ele></trkpt>
<trkpt lon="-1.075973" lat="43.269047"><ele>306.5</ele></trkpt>
<trkpt lon="-1.075950" lat="43.269016"><ele>307.5</ele></trkpt>
<trkpt lon="-1.075938" lat="43.268960"><ele>309.5</ele></trkpt>
<trkpt lon="-1.075946" lat="43.268931"><ele>310.75</ele></trkpt>
<trkpt lon="-1.075969" lat="43.268930"><ele>311.25</ele></trkpt>
<trkpt lon="-1.076055" lat="43.268949"><ele>311.75</ele></trkpt>
<trkpt lon="-1.076088" lat="43.268948"><ele>312.25</ele></trkpt>
<trkpt lon="-1.076104" lat="43.268934"><ele>313.0</ele></trkpt>
<trkpt lon="-1.076105" lat="43.268922"><ele>313.5</ele></trkpt>
<trkpt lon="-1.076068" lat="43.268865"><ele>315.0</ele></trkpt>
<trkpt lon="-1.076071" lat="43.268835"><ele>315.75</ele></trkpt>
<trkpt lon="-1.076026" lat="43.268759"><ele>317.25</ele></trkpt>
<trkpt lon="-1.076025" lat="43.268711"><ele>318.5</ele></trkpt>
<trkpt lon="-1.076037" lat="43.268624"><ele>321.25</ele></trkpt>
<trkpt lon="-1.076106" lat="43.268579"><ele>323.25</ele></trkpt>
<trkpt lon="-1.076120" lat="43.268552"><ele>324.0</ele></trkpt>
<trkpt lon="-1.076230" lat="43.268526"><ele>326.0</ele></trkpt>
<trkpt lon="-1.076327" lat="43.268456"><ele>328.75</ele></trkpt>
<trkpt lon="-1.076297" lat="43.268417"><ele>329.0</ele></trkpt>
<trkpt lon="-1.076268" lat="43.268403"><ele>329.0</ele></trkpt>
<trkpt lon="-1.076129" lat="43.268293"><ele>328.5</ele></trkpt>
<trkpt lon="-1.076116" lat="43.268252"><ele>328.75</ele></trkpt>
<trkpt lon="-1.076117" lat="43.268224"><ele>329.25</ele></trkpt>
<trkpt lon="-1.076253" lat="43.268177"><ele>331.5</ele></trkpt>
<trkpt lon="-1.076554" lat="43.268109"><ele>336.0</ele></trkpt>
<trkpt lon="-1.076682" lat="43.268085"><ele>337.75</ele></trkpt>
<trkpt lon="-1.076753" lat="43.268059"><ele>338.75</ele></trkpt>
<trkpt lon="-1.076817" lat="43.268048"><ele>339.5</ele></trkpt>
<trkpt lon="-1.076934" lat="43.268014"><ele>341.0</ele></trkpt>
<trkpt lon="-1.076999" lat="43.268003"><ele>341.75</ele></trkpt>
<trkpt lon="-1.077051" lat="43.267984"><ele>342.25</ele></trkpt>
<trkpt lon="-1.077088" lat="43.267958"><ele>342.75</ele></trkpt>
<trkpt lon="-1.077145" lat="43.267942"><ele>343.5</ele></trkpt>
<trkpt lon="-1.077233" lat="43.267907"><ele>344.5</ele></trkpt>
<trkpt lon="-1.077407" lat="43.267858"><ele>345.5</ele></trkpt>
<trkpt lon="-1.077867" lat="43.267698"><ele>347.75</ele></trkpt>
<trkpt lon="-1.078139" lat="43.267616"><ele>348.25</ele></trkpt>
<trkpt lon="-1.078525" lat="43.267462"><ele>349.0</ele></trkpt>
<trkpt lon="-1.078835" lat="43.267353"><ele>350.25</ele></trkpt>
<trkpt lon="-1.079091" lat="43.267320"><ele>351.5</ele></trkpt>
<trkpt lon="-1.079736" lat="43.267268"><ele>358.75</ele></trkpt>
<trkpt lon="-1.080223" lat="43.267248"><ele>365.25</ele></trkpt>
<trkpt lon="-1.081402" lat="43.267158"><ele>376.25</ele></trkpt>
<trkpt lon="-1.081642" lat="43.267135"><ele>376.5</ele></trkpt>
<trkpt lon="-1.081719" lat="43.267116"><ele>377.0</ele></trkpt>
<trkpt lon="-1.081965" lat="43.267025"><ele>380.75</ele></trkpt>
<trkpt lon="-1.082168" lat="43.266932"><ele>384.25</ele></trkpt>
<trkpt lon="-1.082715" lat="43.266639"><ele>390.25</ele></trkpt>
<trkpt lon="-1.083229" lat="43.266260"><ele>387.0</ele></trkpt>
<trkpt lon="-1.083264" lat="43.266222"><ele>386.25</ele></trkpt>
<trkpt lon="-1.083283" lat="43.266181"><ele>385.75</ele></trkpt>
<trkpt lon="-1.083291" lat="43.266133"><ele>385.5</ele></trkpt>
<trkpt lon="-1.083345" lat="43.265678"><ele>382.25</ele></trkpt>
<trkpt lon="-1.083326" lat="43.265540"><ele>381.75</ele></trkpt>
<trkpt lon="-1.083305" lat="43.265431"><ele>380.75</ele></trkpt>
<trkpt lon="-1.083222" lat="43.265234"><ele>379.5</ele></trkpt>
<trkpt lon="-1.083122" lat="43.264894"><ele>379.0</ele></trkpt>
<trkpt lon="-1.083089" lat="43.264741"><ele>379.75</ele></trkpt>
<trkpt lon="-1.083079" lat="43.264536"><ele>382.0</ele></trkpt>
<trkpt lon="-1.083078" lat="43.264471"><ele>382.5</ele></trkpt>
<trkpt lon="-1.083124" lat="43.264377"><ele>383.75</ele></trkpt>
<trkpt lon="-1.083426" lat="43.264022"><ele>389.25</ele></trkpt>
<trkpt lon="-1.083517" lat="43.263878"><ele>391.25</ele></trkpt>
<trkpt lon="-1.083783" lat="43.263561"><ele>394.0</ele></trkpt>
<trkpt lon="-1.083844" lat="43.263497"><ele>394.25</ele></trkpt>
<trkpt lon="-1.084223" lat="43.263164"><ele>394.5</ele></trkpt>
<trkpt lon="-1.084545" lat="43.262848"><ele>395.0</ele></trkpt>
<trkpt lon="-1.084690" lat="43.262744"><ele>395.0</ele></trkpt>
<trkpt lon="-1.084882" lat="43.262632"><ele>395.75</ele></trkpt>
<trkpt lon="-1.085250" lat="43.262472"><ele>397.0</ele></trkpt>
<trkpt lon="-1.085655" lat="43.262274"><ele>397.0</ele></trkpt>
<trkpt lon="-1.085699" lat="43.262246"><ele>397.25</ele></trkpt>
<trkpt lon="-1.085847" lat="43.262115"><ele>397.5</ele></trkpt>
<trkpt lon="-1.085909" lat="43.262073"><ele>397.5</ele></trkpt>
<trkpt lon="-1.086066" lat="43.261990"><ele>397.75</ele></trkpt>
<trkpt lon="-1.086587" lat="43.261782"><ele>398.0</ele></trkpt>
<trkpt lon="-1.086741" lat="43.261729"><ele>398.0</ele></trkpt>
<trkpt lon="-1.087088" lat="43.261630"><ele>397.0</ele></trkpt>
<trkpt lon="-1.087292" lat="43.261577"><ele>396.25</ele></trkpt>
<trkpt lon="-1.087431" lat="43.261549"><ele>395.75</ele></trkpt>
<trkpt lon="-1.088321" lat="43.260828"><ele>381.0</ele></trkpt>
<trkpt lon="-1.089360" lat="43.259744"><ele>348.25</ele></trkpt>
<trkpt lon="-1.089423" lat="43.259431"><ele>341.75</ele></trkpt>
<trkpt lon="-1.089489" lat="43.259214"><ele>337.5</ele></trkpt>
<trkpt lon="-1.089893" lat="43.258847"><ele>330.75</ele></trkpt>
<trkpt lon="-1.090156" lat="43.258492"><ele>326.75</ele></trkpt>
<trkpt lon="-1.090129" lat="43.258207"><ele>324.75</ele></trkpt>
<trkpt lon="-1.089847" lat="43.258234"><ele>322.75</ele></trkpt>
<trkpt lon="-1.088318" lat="43.258516"><ele>315.75</ele></trkpt>
<trkpt lon="-1.087834" lat="43.258565"><ele>315.25</ele></trkpt>
<trkpt lon="-1.086230" lat="43.258467"><ele>308.5</ele></trkpt>
<trkpt lon="-1.085169" lat="43.258312"><ele>302.5</ele></trkpt>
<trkpt lon="-1.084621" lat="43.258362"><ele>300.25</ele></trkpt>
<trkpt lon="-1.084166" lat="43.258523"><ele>297.75</ele></trkpt>
<trkpt lon="-1.083811" lat="43.258702"><ele>295.5</ele></trkpt>
<trkpt lon="-1.082949" lat="43.259039"><ele>288.0</ele></trkpt>
<trkpt lon="-1.082314" lat="43.259135"><ele>281.25</ele></trkpt>
  </trkseg></trk></gpx>
