<?xml version="1.0" encoding="UTF-8"?>
<gpx version="1.1" creator="compostel-brouter" xmlns="http://www.topografix.com/GPX/1/1">
  <metadata><name>FR-33-Captieux</name></metadata>
  <trk><name>FR-33-Captieux</name><trkseg>
<trkpt lon="-0.213386" lat="44.431877"><ele>83.75</ele></trkpt>
<trkpt lon="-0.213425" lat="44.431675"><ele>84.0</ele></trkpt>
<trkpt lon="-0.213443" lat="44.431600"><ele>84.0</ele></trkpt>
<trkpt lon="-0.213479" lat="44.431462"><ele>84.25</ele></trkpt>
<trkpt lon="-0.213514" lat="44.431513"><ele>84.0</ele></trkpt>
<trkpt lon="-0.213572" lat="44.431560"><ele>84.0</ele></trkpt>
<trkpt lon="-0.213621" lat="44.431566"><ele>84.0</ele></trkpt>
<trkpt lon="-0.214056" lat="44.431617"><ele>85.0</ele></trkpt>
<trkpt lon="-0.214079" lat="44.431478"><ele>85.25</ele></trkpt>
<trkpt lon="-0.214582" lat="44.431524"><ele>85.5</ele></trkpt>
<trkpt lon="-0.214574" lat="44.431555"><ele>85.25</ele></trkpt>
<trkpt lon="-0.215199" lat="44.431628"><ele>84.0</ele></trkpt>
<trkpt lon="-0.215212" lat="44.431565"><ele>84.0</ele></trkpt>
<trkpt lon="-0.216163" lat="44.431383"><ele>78.75</ele></trkpt>
<trkpt lon="-0.216236" lat="44.431386"><ele>78.75</ele></trkpt>
<trkpt lon="-0.216328" lat="44.431401"><ele>79.0</ele></trkpt>
<trkpt lon="-0.216370" lat="44.431425"><ele>79.25</ele></trkpt>
<trkpt lon="-0.216423" lat="44.431433"><ele>79.25</ele></trkpt>
<trkpt lon="-0.216462" lat="44.431428"><ele>79.25</ele></trkpt>
<trkpt lon="-0.216497" lat="44.431413"><ele>79.0</ele></trkpt>
<trkpt lon="-0.216523" lat="44.431391"><ele>79.0</ele></trkpt>
<trkpt lon="-0.216538" lat="44.431350"><ele>78.5</ele></trkpt>
<trkpt lon="-0.216622" lat="44.431277"><ele>78.25</ele></trkpt>
<trkpt lon="-0.216783" lat="44.431235"><ele>78.25</ele></trkpt>
<trkpt lon="-0.217713" lat="44.431037"><ele>79.0</ele></trkpt>
<trkpt lon="-0.217890" lat="44.430996"><ele>79.0</ele></trkpt>
<trkpt lon="-0.218070" lat="44.430939"><ele>79.25</ele></trkpt>
<trkpt lon="-0.218173" lat="44.430893"><ele>79.5</ele></trkpt>
<trkpt lon="-0.218260" lat="44.430854"><ele>79.75</ele></trkpt>
<trkpt lon="-0.218673" lat="44.430613"><ele>81.0</ele></trkpt>
<trkpt lon="-0.219051" lat="44.430412"><ele>79.25</ele></trkpt>
<trkpt lon="-0.219124" lat="44.430385"><ele>79.0</ele></trkpt>
<trkpt lon="-0.219268" lat="44.430362"><ele>78.75</ele></trkpt>
<trkpt lon="-0.219515" lat="44.430331"><ele>78.5</ele></trkpt>
<trkpt lon="-0.219649" lat="44.430303"><ele>78.25</ele></trkpt>
<trkpt lon="-0.219778" lat="44.430243"><ele>78.5</ele></trkpt>
<trkpt lon="-0.219939" lat="44.430123"><ele>79.0</ele></trkpt>
<trkpt lon="-0.220121" lat="44.430010"><ele>77.25</ele></trkpt>
<trkpt lon="-0.220202" lat="44.429987"><ele>77.0</ele></trkpt>
<trkpt lon="-0.220212" lat="44.429960"><ele>77.25</ele></trkpt>
<trkpt lon="-0.220200" lat="44.429909"><ele>77.5</ele></trkpt>
<trkpt lon="-0.220210" lat="44.429814"><ele>78.0</ele></trkpt>
<trkpt lon="-0.220226" lat="44.429725"><ele>78.75</ele></trkpt>
<trkpt lon="-0.220084" lat="44.429630"><ele>81.75</ele></trkpt>
<trkpt lon="-0.220079" lat="44.429605"><ele>82.75</ele></trkpt>
<trkpt lon="-0.220095" lat="44.429595"><ele>83.0</ele></trkpt>
<trkpt lon="-0.220298" lat="44.429567"><ele>84.25</ele></trkpt>
<trkpt lon="-0.220404" lat="44.429524"><ele>85.0</ele></trkpt>
<trkpt lon="-0.220530" lat="44.429450"><ele>86.0</ele></trkpt>
<trkpt lon="-0.220630" lat="44.429355"><ele>87.75</ele></trkpt>
<trkpt lon="-0.220831" lat="44.429110"><ele>90.25</ele></trkpt>
<trkpt lon="-0.220927" lat="44.428990"><ele>92.25</ele></trkpt>
<trkpt lon="-0.221006" lat="44.428842"><ele>93.5</ele></trkpt>
<trkpt lon="-0.221116" lat="44.428605"><ele>92.0</ele></trkpt>
<trkpt lon="-0.221181" lat="44.428415"><ele>93.25</ele></trkpt>
<trkpt lon="-0.221190" lat="44.428346"><ele>93.75</ele></trkpt>
<trkpt lon="-0.221183" lat="44.428291"><ele>94.0</ele></trkpt>
<trkpt lon="-0.221261" lat="44.428149"><ele>95.0</ele></trkpt>
<trkpt lon="-0.221321" lat="44.427928"><ele>96.0</ele></trkpt>
<trkpt lon="-0.221369" lat="44.427565"><ele>96.75</ele></trkpt>
<trkpt lon="-0.221374" lat="44.427439"><ele>97.25</ele></trkpt>
<trkpt lon="-0.221391" lat="44.427317"><ele>98.25</ele></trkpt>
<trkpt lon="-0.221537" lat="44.427371"><ele>98.0</ele></trkpt>
<trkpt lon="-0.221536" lat="44.427232"><ele>98.75</ele></trkpt>
<trkpt lon="-0.221553" lat="44.427191"><ele>99.0</ele></trkpt>
<trkpt lon="-0.221605" lat="44.427178"><ele>99.0</ele></trkpt>
<trkpt lon="-0.221982" lat="44.427181"><ele>99.0</ele></trkpt>
<trkpt lon="-0.222076" lat="44.427162"><ele>98.5</ele></trkpt>
<trkpt lon="-0.222115" lat="44.427134"><ele>98.5</ele></trkpt>
<trkpt lon="-0.222145" lat="44.427092"><ele>98.5</ele></trkpt>
<trkpt lon="-0.222312" lat="44.426735"><ele>99.5</ele></trkpt>
<trkpt lon="-0.222477" lat="44.426539"><ele>98.5</ele></trkpt>
<trkpt lon="-0.222495" lat="44.426484"><ele>98.25</ele></trkpt>
<trkpt lon="-0.222458" lat="44.426446"><ele>98.25</ele></trkpt>
<trkpt lon="-0.222378" lat="44.426388"><ele>98.75</ele></trkpt>
<trkpt lon="-0.222122" lat="44.426242"><ele>98.75</ele></trkpt>
<trkpt lon="-0.221343" lat="44.425747"><ele>100.75</ele></trkpt>
<trkpt lon="-0.221297" lat="44.425704"><ele>100.75</ele></trkpt>
<trkpt lon="-0.221222" lat="44.425347"><ele>100.75</ele></trkpt>
<trkpt lon="-0.221031" lat="44.424572"><ele>102.25</ele></trkpt>
<trkpt lon="-0.220869" lat="44.423850"><ele>103.75</ele></trkpt>
<trkpt lon="-0.220786" lat="44.423460"><ele>103.5</ele></trkpt>
<trkpt lon="-0.220668" lat="44.422772"><ele>103.0</ele></trkpt>
<trkpt lon="-0.220642" lat="44.422429"><ele>104.5</ele></trkpt>
<trkpt lon="-0.220634" lat="44.421612"><ele>105.75</ele></trkpt>
<trkpt lon="-0.220691" lat="44.421153"><ele>105.0</ele></trkpt>
<trkpt lon="-0.220824" lat="44.420396"><ele>109.5</ele></trkpt>
<trkpt lon="-0.220872" lat="44.420258"><ele>109.75</ele></trkpt>
<trkpt lon="-0.220895" lat="44.420130"><ele>110.25</ele></trkpt>
<trkpt lon="-0.220883" lat="44.420092"><ele>110.5</ele></trkpt>
<trkpt lon="-0.220695" lat="44.419934"><ele>111.0</ele></trkpt>
<trkpt lon="-0.220693" lat="44.419907"><ele>111.0</ele></trkpt>
<trkpt lon="-0.220797" lat="44.419827"><ele>111.0</ele></trkpt>
<trkpt lon="-0.220877" lat="44.419755"><ele>110.5</ele></trkpt>
<trkpt lon="-0.220958" lat="44.419658"><ele>110.0</ele></trkpt>
<trkpt lon="-0.221015" lat="44.419576"><ele>110.0</ele></trkpt>
<trkpt lon="-0.221051" lat="44.419172"><ele>110.5</ele></trkpt>
<trkpt lon="-0.221222" lat="44.418272"><ele>112.0</ele></trkpt>
<trkpt lon="-0.221448" lat="44.417409"><ele>112.75</ele></trkpt>
<trkpt lon="-0.221473" lat="44.417316"><ele>113.25</ele></trkpt>
<trkpt lon="-0.221522" lat="44.417130"><ele>114.5</ele></trkpt>
<trkpt lon="-0.221782" lat="44.416002"><ele>117.25</ele></trkpt>
<trkpt lon="-0.222024" lat="44.415168"><ele>120.5</ele></trkpt>
<trkpt lon="-0.222442" lat="44.414136"><ele>121.25</ele></trkpt>
<trkpt lon="-0.222575" lat="44.413774"><ele>122.25</ele></trkpt>
<trkpt lon="-0.222715" lat="44.413298"><ele>122.5</ele></trkpt>
<trkpt lon="-0.222877" lat="44.412827"><ele>123.75</ele></trkpt>
<trkpt lon="-0.223089" lat="44.412300"><ele>123.75</ele></trkpt>
<trkpt lon="-0.223317" lat="44.411599"><ele>124.25</ele></trkpt>
<trkpt lon="-0.223661" lat="44.410743"><ele>125.0</ele></trkpt>
<trkpt lon="-0.223881" lat="44.410083"><ele>125.0</ele></trkpt>
<trkpt lon="-0.224330" lat="44.408953"><ele>125.0</ele></trkpt>
<trkpt lon="-0.224505" lat="44.408403"><ele>124.25</ele></trkpt>
<trkpt lon="-0.224550" lat="44.408236"><ele>124.25</ele></trkpt>
<trkpt lon="-0.224797" lat="44.407590"><ele>125.0</ele></trkpt>
<trkpt lon="-0.225026" lat="44.406937"><ele>124.0</ele></trkpt>
<trkpt lon="-0.225162" lat="44.406574"><ele>124.25</ele></trkpt>
<trkpt lon="-0.225159" lat="44.406551"><ele>124.25</ele></trkpt>
<trkpt lon="-0.225140" lat="44.406531"><ele>124.25</ele></trkpt>
<trkpt lon="-0.225006" lat="44.406462"><ele>124.0</ele></trkpt>
<trkpt lon="-0.224902" lat="44.406413"><ele>124.0</ele></trkpt>
<trkpt lon="-0.224875" lat="44.406394"><ele>124.0</ele></trkpt>
<trkpt lon="-0.224872" lat="44.406367"><ele>124.0</ele></trkpt>
<trkpt lon="-0.224884" lat="44.406344"><ele>124.0</ele></trkpt>
<trkpt lon="-0.224916" lat="44.406317"><ele>124.0</ele></trkpt>
<trkpt lon="-0.225032" lat="44.406281"><ele>124.0</ele></trkpt>
<trkpt lon="-0.225093" lat="44.406253"><ele>124.0</ele></trkpt>
<trkpt lon="-0.225165" lat="44.406202"><ele>124.0</ele></trkpt>
<trkpt lon="-0.225474" lat="44.405693"><ele>123.25</ele></trkpt>
<trkpt lon="-0.225659" lat="44.405276"><ele>122.5</ele></trkpt>
<trkpt lon="-0.225789" lat="44.404873"><ele>122.0</ele></trkpt>
<trkpt lon="-0.226285" lat="44.403254"><ele>117.75</ele></trkpt>
<trkpt lon="-0.226303" lat="44.403193"><ele>117.5</ele></trkpt>
<trkpt lon="-0.226545" lat="44.402557"><ele>117.5</ele></trkpt>
<trkpt lon="-0.226943" lat="44.401454"><ele>116.0</ele></trkpt>
<trkpt lon="-0.227613" lat="44.399878"><ele>115.25</ele></trkpt>
<trkpt lon="-0.228264" lat="44.398503"><ele>111.5</ele></trkpt>
<trkpt lon="-0.228579" lat="44.397978"><ele>111.0</ele></trkpt>
<trkpt lon="-0.229483" lat="44.396652"><ele>109.0</ele></trkpt>
<trkpt lon="-0.229740" lat="44.396328"><ele>108.25</ele></trkpt>
<trkpt lon="-0.231073" lat="44.394759"><ele>105.5</ele></trkpt>
<trkpt lon="-0.231371" lat="44.394393"><ele>104.25</ele></trkpt>
<trkpt lon="-0.231739" lat="44.394006"><ele>103.5</ele></trkpt>
<trkpt lon="-0.232141" lat="44.393469"><ele>99.25</ele></trkpt>
<trkpt lon="-0.232525" lat="44.393049"><ele>100.5</ele></trkpt>
<trkpt lon="-0.233131" lat="44.392313"><ele>102.0</ele></trkpt>
<trkpt lon="-0.233411" lat="44.391934"><ele>104.0</ele></trkpt>
<trkpt lon="-0.233577" lat="44.391639"><ele>103.75</ele></trkpt>
<trkpt lon="-0.233760" lat="44.391280"><ele>103.5</ele></trkpt>
<trkpt lon="-0.233909" lat="44.390935"><ele>103.25</ele></trkpt>
<trkpt lon="-0.234052" lat="44.390456"><ele>102.0</ele></trkpt>
<trkpt lon="-0.234130" lat="44.390040"><ele>100.0</ele></trkpt>
<trkpt lon="-0.234165" lat="44.389615"><ele>98.5</ele></trkpt>
<trkpt lon="-0.234172" lat="44.389069"><ele>97.0</ele></trkpt>
<trkpt lon="-0.234061" lat="44.388286"><ele>95.0</ele></trkpt>
<trkpt lon="-0.233707" lat="44.387286"><ele>90.75</ele></trkpt>
<trkpt lon="-0.233523" lat="44.386889"><ele>91.25</ele></trkpt>
<trkpt lon="-0.233302" lat="44.386542"><ele>90.5</ele></trkpt>
<trkpt lon="-0.232723" lat="44.385810"><ele>91.75</ele></trkpt>
<trkpt lon="-0.231454" lat="44.384617"><ele>89.75</ele></trkpt>
<trkpt lon="-0.230618" lat="44.383747"><ele>87.0</ele></trkpt>
<trkpt lon="-0.230443" lat="44.383440"><ele>87.0</ele></trkpt>
<trkpt lon="-0.230285" lat="44.383184"><ele>87.0</ele></trkpt>
<trkpt lon="-0.230262" lat="44.383135"><ele>86.75</ele></trkpt>
<trkpt lon="-0.229846" lat="44.382262"><ele>84.75</ele></trkpt>
<trkpt lon="-0.229703" lat="44.381817"><ele>83.75</ele></trkpt>
<trkpt lon="-0.229596" lat="44.381290"><ele>82.25</ele></trkpt>
<trkpt lon="-0.229553" lat="44.380879"><ele>82.0</ele></trkpt>
<trkpt lon="-0.229518" lat="44.380381"><ele>81.5</ele></trkpt>
<trkpt lon="-0.229534" lat="44.379183"><ele>80.5</ele></trkpt>
<trkpt lon="-0.229531" lat="44.378234"><ele>79.0</ele></trkpt>
<trkpt lon="-0.229561" lat="44.377854"><ele>78.0</ele></trkpt>
<trkpt lon="-0.229598" lat="44.377435"><ele>77.0</ele></trkpt>
<trkpt lon="-0.229837" lat="44.376673"><ele>76.75</ele></trkpt>
<trkpt lon="-0.229963" lat="44.376377"><ele>78.5</ele></trkpt>
<trkpt lon="-0.230082" lat="44.376150"><ele>78.5</ele></trkpt>
<trkpt lon="-0.230153" lat="44.376005"><ele>78.75</ele></trkpt>
<trkpt lon="-0.230227" lat="44.375864"><ele>80.0</ele></trkpt>
<trkpt lon="-0.230343" lat="44.375743"><ele>79.0</ele></trkpt>
<trkpt lon="-0.230494" lat="44.375648"><ele>79.75</ele></trkpt>
<trkpt lon="-0.230673" lat="44.375567"><ele>82.25</ele></trkpt>
<trkpt lon="-0.231213" lat="44.375383"><ele>80.0</ele></trkpt>
<trkpt lon="-0.231662" lat="44.375234"><ele>81.5</ele></trkpt>
<trkpt lon="-0.232100" lat="44.375070"><ele>81.75</ele></trkpt>
<trkpt lon="-0.232181" lat="44.374993"><ele>82.75</ele></trkpt>
<trkpt lon="-0.232220" lat="44.374918"><ele>82.0</ele></trkpt>
<trkpt lon="-0.232198" lat="44.374823"><ele>81.0</ele></trkpt>
<trkpt lon="-0.232080" lat="44.374712"><ele>80.25</ele></trkpt>
<trkpt lon="-0.231894" lat="44.374585"><ele>79.25</ele></trkpt>
<trkpt lon="-0.231770" lat="44.374438"><ele>79.0</ele></trkpt>
<trkpt lon="-0.231710" lat="44.374309"><ele>78.5</ele></trkpt>
<trkpt lon="-0.231695" lat="44.374188"><ele>77.75</ele></trkpt>
<trkpt lon="-0.231726" lat="44.374017"><ele>76.5</ele></trkpt>
<trkpt lon="-0.231885" lat="44.373772"><ele>75.25</ele></trkpt>
<trkpt lon="-0.232635" lat="44.372981"><ele>72.5</ele></trkpt>
<trkpt lon="-0.235260" lat="44.370169"><ele>65.25</ele></trkpt>
<trkpt lon="-0.235650" lat="44.369764"><ele>60.75</ele></trkpt>
<trkpt lon="-0.236022" lat="44.369379"><ele>61.75</ele></trkpt>
<trkpt lon="-0.236057" lat="44.369342"><ele>62.75</ele></trkpt>
<trkpt lon="-0.237114" lat="44.368227"><ele>66.25</ele></trkpt>
<trkpt lon="-0.237484" lat="44.367835"><ele>66.5</ele></trkpt>
<trkpt lon="-0.238326" lat="44.366878"><ele>68.0</ele></trkpt>
<trkpt lon="-0.239131" lat="44.366026"><ele>68.0</ele></trkpt>
<trkpt lon="-0.240133" lat="44.364940"><ele>68.0</ele></trkpt>
<trkpt lon="-0.240746" lat="44.364291"><ele>68.0</ele></trkpt>
<trkpt lon="-0.240872" lat="44.364238"><ele>68.0</ele></trkpt>
<trkpt lon="-0.240967" lat="44.364185"><ele>68.0</ele></trkpt>
<trkpt lon="-0.241028" lat="44.364136"><ele>68.0</ele></trkpt>
<trkpt lon="-0.241161" lat="44.363990"><ele>68.0</ele></trkpt>
<trkpt lon="-0.241279" lat="44.363831"><ele>68.5</ele></trkpt>
<trkpt lon="-0.241308" lat="44.363829"><ele>68.75</ele></trkpt>
<trkpt lon="-0.241329" lat="44.363837"><ele>68.75</ele></trkpt>
<trkpt lon="-0.241425" lat="44.364011"><ele>68.75</ele></trkpt>
<trkpt lon="-0.241447" lat="44.364027"><ele>68.75</ele></trkpt>
<trkpt lon="-0.241470" lat="44.364028"><ele>68.5</ele></trkpt>
<trkpt lon="-0.241552" lat="44.364002"><ele>68.25</ele></trkpt>
<trkpt lon="-0.241625" lat="44.363976"><ele>68.0</ele></trkpt>
<trkpt lon="-0.241632" lat="44.363965"><ele>68.0</ele></trkpt>
<trkpt lon="-0.241456" lat="44.363633"><ele>68.75</ele></trkpt>
<trkpt lon="-0.241452" lat="44.363602"><ele>68.75</ele></trkpt>
<trkpt lon="-0.241479" lat="44.363573"><ele>68.5</ele></trkpt>
<trkpt lon="-0.242323" lat="44.362677"><ele>68.25</ele></trkpt>
<trkpt lon="-0.242670" lat="44.362295"><ele>69.0</ele></trkpt>
<trkpt lon="-0.244270" lat="44.360314"><ele>71.0</ele></trkpt>
<trkpt lon="-0.244796" lat="44.359597"><ele>70.25</ele></trkpt>
<trkpt lon="-0.245375" lat="44.358757"><ele>71.5</ele></trkpt>
<trkpt lon="-0.245992" lat="44.357737"><ele>72.0</ele></trkpt>
<trkpt lon="-0.246566" lat="44.356632"><ele>72.0</ele></trkpt>
<trkpt lon="-0.247043" lat="44.355616"><ele>73.0</ele></trkpt>
<trkpt lon="-0.247499" lat="44.354523"><ele>73.0</ele></trkpt>
<trkpt lon="-0.247827" lat="44.353567"><ele>74.0</ele></trkpt>
<trkpt lon="-0.248073" lat="44.352797"><ele>74.75</ele></trkpt>
<trkpt lon="-0.248315" lat="44.351719"><ele>74.75</ele></trkpt>
<trkpt lon="-0.248551" lat="44.350468"><ele>75.75</ele></trkpt>
<trkpt lon="-0.248685" lat="44.349413"><ele>76.0</ele></trkpt>
<trkpt lon="-0.248749" lat="44.348512"><ele>76.0</ele></trkpt>
<trkpt lon="-0.248957" lat="44.346132"><ele>78.5</ele></trkpt>
<trkpt lon="-0.249001" lat="44.345554"><ele>78.5</ele></trkpt>
<trkpt lon="-0.249602" lat="44.337981"><ele>87.0</ele></trkpt>
<trkpt lon="-0.249753" lat="44.335940"><ele>88.5</ele></trkpt>
<trkpt lon="-0.249758" lat="44.335882"><ele>88.75</ele></trkpt>
<trkpt lon="-0.249768" lat="44.335790"><ele>89.0</ele></trkpt>
<trkpt lon="-0.249988" lat="44.332175"><ele>91.0</ele></trkpt>
<trkpt lon="-0.250106" lat="44.331178"><ele>91.5</ele></trkpt>
<trkpt lon="-0.250198" lat="44.330568"><ele>91.0</ele></trkpt>
<trkpt lon="-0.250294" lat="44.328925"><ele>90.75</ele></trkpt>
<trkpt lon="-0.250523" lat="44.325903"><ele>92.0</ele></trkpt>
<trkpt lon="-0.250530" lat="44.325802"><ele>92.0</ele></trkpt>
<trkpt lon="-0.250544" lat="44.325678"><ele>92.0</ele></trkpt>
<trkpt lon="-0.250573" lat="44.325414"><ele>91.75</ele></trkpt>
<trkpt lon="-0.250815" lat="44.322347"><ele>91.75</ele></trkpt>
<trkpt lon="-0.251061" lat="44.319250"><ele>92.0</ele></trkpt>
<trkpt lon="-0.251131" lat="44.318022"><ele>92.75</ele></trkpt>
<trkpt lon="-0.251271" lat="44.316157"><ele>92.0</ele></trkpt>
<trkpt lon="-0.251340" lat="44.315508"><ele>92.0</ele></trkpt>
<trkpt lon="-0.251549" lat="44.312601"><ele>90.0</ele></trkpt>
<trkpt lon="-0.251554" lat="44.312521"><ele>89.5</ele></trkpt>
<trkpt lon="-0.251614" lat="44.311700"><ele>92.0</ele></trkpt>
<trkpt lon="-0.251651" lat="44.311025"><ele>92.75</ele></trkpt>
<trkpt lon="-0.251845" lat="44.309800"><ele>93.0</ele></trkpt>
<trkpt lon="-0.252048" lat="44.308710"><ele>93.25</ele></trkpt>
<trkpt lon="-0.252225" lat="44.307866"><ele>93.75</ele></trkpt>
<trkpt lon="-0.252332" lat="44.307579"><ele>93.75</ele></trkpt>
<trkpt lon="-0.252313" lat="44.307537"><ele>94.0</ele></trkpt>
<trkpt lon="-0.252287" lat="44.307508"><ele>94.0</ele></trkpt>
<trkpt lon="-0.252050" lat="44.307417"><ele>94.5</ele></trkpt>
<trkpt lon="-0.251895" lat="44.307358"><ele>94.25</ele></trkpt>
<trkpt lon="-0.251877" lat="44.307314"><ele>94.25</ele></trkpt>
<trkpt lon="-0.251895" lat="44.307274"><ele>94.0</ele></trkpt>
<trkpt lon="-0.252492" lat="44.306183"><ele>94.0</ele></trkpt>
<trkpt lon="-0.252501" lat="44.306138"><ele>94.0</ele></trkpt>
<trkpt lon="-0.252497" lat="44.306041"><ele>94.0</ele></trkpt>
<trkpt lon="-0.252518" lat="44.305998"><ele>94.0</ele></trkpt>
<trkpt lon="-0.252861" lat="44.305544"><ele>94.0</ele></trkpt>
<trkpt lon="-0.253373" lat="44.303497"><ele>94.75</ele></trkpt>
<trkpt lon="-0.253556" lat="44.302718"><ele>95.75</ele></trkpt>
<trkpt lon="-0.254006" lat="44.301051"><ele>95.5</ele></trkpt>
<trkpt lon="-0.254151" lat="44.300483"><ele>96.0</ele></trkpt>
<trkpt lon="-0.254567" lat="44.299001"><ele>96.75</ele></trkpt>
<trkpt lon="-0.254597" lat="44.298948"><ele>96.75</ele></trkpt>
<trkpt lon="-0.254664" lat="44.298906"><ele>96.75</ele></trkpt>
<trkpt lon="-0.254638" lat="44.298830"><ele>96.75</ele></trkpt>
<trkpt lon="-0.254625" lat="44.298734"><ele>96.75</ele></trkpt>
<trkpt lon="-0.254714" lat="44.298279"><ele>97.0</ele></trkpt>
<trkpt lon="-0.255040" lat="44.297093"><ele>97.0</ele></trkpt>
<trkpt lon="-0.255142" lat="44.296686"><ele>97.0</ele></trkpt>
<trkpt lon="-0.255136" lat="44.296517"><ele>97.5</ele></trkpt>
<trkpt lon="-0.255240" lat="44.296434"><ele>97.75</ele></trkpt>
<trkpt lon="-0.255440" lat="44.295948"><ele>97.5</ele></trkpt>
<trkpt lon="-0.255686" lat="44.295772"><ele>97.5</ele></trkpt>
<trkpt lon="-0.255703" lat="44.295722"><ele>97.5</ele></trkpt>
<trkpt lon="-0.255525" lat="44.295627"><ele>97.75</ele></trkpt>
<trkpt lon="-0.255499" lat="44.295604"><ele>97.75</ele></trkpt>
<trkpt lon="-0.255505" lat="44.295566"><ele>97.75</ele></trkpt>
<trkpt lon="-0.255596" lat="44.295435"><ele>98.0</ele></trkpt>
<trkpt lon="-0.255940" lat="44.295284"><ele>97.5</ele></trkpt>
<trkpt lon="-0.256084" lat="44.295138"><ele>97.5</ele></trkpt>
<trkpt lon="-0.256456" lat="44.293647"><ele>97.75</ele></trkpt>
<trkpt lon="-0.256470" lat="44.293560"><ele>97.75</ele></trkpt>
<trkpt lon="-0.256467" lat="44.293499"><ele>97.75</ele></trkpt>
<trkpt lon="-0.256521" lat="44.293416"><ele>97.75</ele></trkpt>
<trkpt lon="-0.256499" lat="44.293331"><ele>98.0</ele></trkpt>
<trkpt lon="-0.256734" lat="44.292439"><ele>97.25</ele></trkpt>
<trkpt lon="-0.257455" lat="44.292375"><ele>98.0</ele></trkpt>
<trkpt lon="-0.257699" lat="44.292408"><ele>97.75</ele></trkpt>
<trkpt lon="-0.257784" lat="44.292426"><ele>97.5</ele></trkpt>
<trkpt lon="-0.259050" lat="44.292708"><ele>97.0</ele></trkpt>
<trkpt lon="-0.259457" lat="44.292800"><ele>97.0</ele></trkpt>
<trkpt lon="-0.260452" lat="44.293036"><ele>96.0</ele></trkpt>
<trkpt lon="-0.260622" lat="44.293078"><ele>95.75</ele></trkpt>
<trkpt lon="-0.261005" lat="44.293186"><ele>94.5</ele></trkpt>
<trkpt lon="-0.261057" lat="44.293201"><ele>94.5</ele></trkpt>
<trkpt lon="-0.261109" lat="44.293105"><ele>94.0</ele></trkpt>
<trkpt lon="-0.261145" lat="44.293053"><ele>94.0</ele></trkpt>
<trkpt lon="-0.261610" lat="44.293080"><ele>93.25</ele></trkpt>
<trkpt lon="-0.261661" lat="44.293032"><ele>93.0</ele></trkpt>
<trkpt lon="-0.261818" lat="44.292889"><ele>92.25</ele></trkpt>
<trkpt lon="-0.262119" lat="44.292735"><ele>90.75</ele></trkpt>
<trkpt lon="-0.262649" lat="44.292533"><ele>89.25</ele></trkpt>
<trkpt lon="-0.262694" lat="44.292473"><ele>89.0</ele></trkpt>
<trkpt lon="-0.262787" lat="44.292502"><ele>88.75</ele></trkpt>
<trkpt lon="-0.262922" lat="44.292529"><ele>88.25</ele></trkpt>
<trkpt lon="-0.263111" lat="44.292551"><ele>88.0</ele></trkpt>
<trkpt lon="-0.263287" lat="44.292566"><ele>88.75</ele></trkpt>
<trkpt lon="-0.263456" lat="44.292567"><ele>89.5</ele></trkpt>
<trkpt lon="-0.263700" lat="44.292549"><ele>90.75</ele></trkpt>
<trkpt lon="-0.264569" lat="44.292492"><ele>93.25</ele></trkpt>
<trkpt lon="-0.264831" lat="44.292491"><ele>94.25</ele></trkpt>
<trkpt lon="-0.264966" lat="44.292509"><ele>94.75</ele></trkpt>
<trkpt lon="-0.265107" lat="44.292566"><ele>95.25</ele></trkpt>
<trkpt lon="-0.265337" lat="44.292693"><ele>95.75</ele></trkpt>
<trkpt lon="-0.265380" lat="44.292679"><ele>95.75</ele></trkpt>
<trkpt lon="-0.265453" lat="44.292683"><ele>96.0</ele></trkpt>
<trkpt lon="-0.265612" lat="44.292708"><ele>96.0</ele></trkpt>
<trkpt lon="-0.266142" lat="44.292838"><ele>95.0</ele></trkpt>
<trkpt lon="-0.266366" lat="44.292909"><ele>95.0</ele></trkpt>
<trkpt lon="-0.266522" lat="44.292967"><ele>95.0</ele></trkpt>
<trkpt lon="-0.266767" lat="44.293097"><ele>94.5</ele></trkpt>
<trkpt lon="-0.266921" lat="44.293170"><ele>94.0</ele></trkpt>
<trkpt lon="-0.267154" lat="44.293230"><ele>94.25</ele></trkpt>
<trkpt lon="-0.267723" lat="44.293466"><ele>94.0</ele></trkpt>
<trkpt lon="-0.268748" lat="44.293872"><ele>94.0</ele></trkpt>
<trkpt lon="-0.269660" lat="44.294345"><ele>93.5</ele></trkpt>
<trkpt lon="-0.270631" lat="44.294936"><ele>93.0</ele></trkpt>
<trkpt lon="-0.271666" lat="44.295508"><ele>92.0</ele></trkpt>
<trkpt lon="-0.271803" lat="44.295635"><ele>91.5</ele></trkpt>
<trkpt lon="-0.271890" lat="44.295644"><ele>91.0</ele></trkpt>
<trkpt lon="-0.272031" lat="44.295722"><ele>90.5</ele></trkpt>
<trkpt lon="-0.272185" lat="44.295681"><ele>89.5</ele></trkpt>
<trkpt lon="-0.272240" lat="44.295634"><ele>89.25</ele></trkpt>
<trkpt lon="-0.272267" lat="44.295587"><ele>89.0</ele></trkpt>
<trkpt lon="-0.272288" lat="44.295528"><ele>89.0</ele></trkpt>
<trkpt lon="-0.272443" lat="44.294928"><ele>87.5</ele></trkpt>
<trkpt lon="-0.272364" lat="44.294244"><ele>92.5</ele></trkpt>
  </trkseg></trk></gpx>
