<?xml version="1.0" encoding="UTF-8"?>
<gpx version="1.1" creator="compostel-brouter" xmlns="http://www.topografix.com/GPX/1/1">
  <metadata><name>FR-31-La-Reole</name></metadata>
  <trk><name>FR-31-La-Reole</name><trkseg>
<trkpt lon="0.215728" lat="44.943662"><ele>86.5</ele></trkpt>
<trkpt lon="0.215723" lat="44.943659"><ele>86.5</ele></trkpt>
<trkpt lon="0.215433" lat="44.943511"><ele>85.5</ele></trkpt>
<trkpt lon="0.215047" lat="44.943351"><ele>85.0</ele></trkpt>
<trkpt lon="0.214661" lat="44.943161"><ele>84.75</ele></trkpt>
<trkpt lon="0.214537" lat="44.943063"><ele>84.5</ele></trkpt>
<trkpt lon="0.214430" lat="44.942934"><ele>83.5</ele></trkpt>
<trkpt lon="0.214355" lat="44.942812"><ele>82.75</ele></trkpt>
<trkpt lon="0.214328" lat="44.942709"><ele>82.25</ele></trkpt>
<trkpt lon="0.214215" lat="44.942391"><ele>81.0</ele></trkpt>
<trkpt lon="0.214103" lat="44.942179"><ele>81.0</ele></trkpt>
<trkpt lon="0.213874" lat="44.941810"><ele>81.25</ele></trkpt>
<trkpt lon="0.213693" lat="44.941488"><ele>81.5</ele></trkpt>
<trkpt lon="0.213674" lat="44.941445"><ele>81.75</ele></trkpt>
<trkpt lon="0.213711" lat="44.941096"><ele>83.5</ele></trkpt>
<trkpt lon="0.213754" lat="44.940773"><ele>85.75</ele></trkpt>
<trkpt lon="0.213813" lat="44.940492"><ele>87.5</ele></trkpt>
<trkpt lon="0.213867" lat="44.940397"><ele>88.0</ele></trkpt>
<trkpt lon="0.213938" lat="44.940327"><ele>88.25</ele></trkpt>
<trkpt lon="0.213974" lat="44.940291"><ele>88.5</ele></trkpt>
<trkpt lon="0.214119" lat="44.940188"><ele>88.0</ele></trkpt>
<trkpt lon="0.214296" lat="44.940010"><ele>87.75</ele></trkpt>
<trkpt lon="0.214805" lat="44.939471"><ele>86.25</ele></trkpt>
<trkpt lon="0.215181" lat="44.938692"><ele>83.75</ele></trkpt>
<trkpt lon="0.215304" lat="44.938392"><ele>82.5</ele></trkpt>
<trkpt lon="0.215331" lat="44.938183"><ele>81.5</ele></trkpt>
<trkpt lon="0.215267" lat="44.937952"><ele>81.25</ele></trkpt>
<trkpt lon="0.215160" lat="44.937716"><ele>81.5</ele></trkpt>
<trkpt lon="0.215064" lat="44.937569"><ele>81.75</ele></trkpt>
<trkpt lon="0.214963" lat="44.937414"><ele>81.75</ele></trkpt>
<trkpt lon="0.214834" lat="44.937186"><ele>81.0</ele></trkpt>
<trkpt lon="0.214314" lat="44.935967"><ele>73.25</ele></trkpt>
<trkpt lon="0.214121" lat="44.935432"><ele>71.5</ele></trkpt>
<trkpt lon="0.213836" lat="44.934745"><ele>65.25</ele></trkpt>
<trkpt lon="0.213783" lat="44.934494"><ele>63.25</ele></trkpt>
<trkpt lon="0.213777" lat="44.934312"><ele>62.25</ele></trkpt>
<trkpt lon="0.213788" lat="44.934152"><ele>61.5</ele></trkpt>
<trkpt lon="0.213810" lat="44.934008"><ele>61.5</ele></trkpt>
<trkpt lon="0.213879" lat="44.933844"><ele>61.75</ele></trkpt>
<trkpt lon="0.214019" lat="44.933658"><ele>61.5</ele></trkpt>
<trkpt lon="0.214142" lat="44.933556"><ele>61.0</ele></trkpt>
<trkpt lon="0.214312" lat="44.933452"><ele>60.0</ele></trkpt>
<trkpt lon="0.215390" lat="44.933144"><ele>55.5</ele></trkpt>
<trkpt lon="0.215599" lat="44.933079"><ele>53.75</ele></trkpt>
<trkpt lon="0.215873" lat="44.932882"><ele>51.5</ele></trkpt>
<trkpt lon="0.216007" lat="44.932726"><ele>50.0</ele></trkpt>
<trkpt lon="0.216055" lat="44.932641"><ele>49.5</ele></trkpt>
<trkpt lon="0.216104" lat="44.932555"><ele>48.25</ele></trkpt>
<trkpt lon="0.216211" lat="44.932316"><ele>46.75</ele></trkpt>
<trkpt lon="0.216286" lat="44.931986"><ele>46.5</ele></trkpt>
<trkpt lon="0.216653" lat="44.931239"><ele>46.5</ele></trkpt>
<trkpt lon="0.216681" lat="44.931183"><ele>46.5</ele></trkpt>
<trkpt lon="0.216739" lat="44.931065"><ele>46.5</ele></trkpt>
<trkpt lon="0.216765" lat="44.930928"><ele>47.0</ele></trkpt>
<trkpt lon="0.216739" lat="44.930825"><ele>47.5</ele></trkpt>
<trkpt lon="0.216658" lat="44.930670"><ele>48.5</ele></trkpt>
<trkpt lon="0.216481" lat="44.930430"><ele>49.25</ele></trkpt>
<trkpt lon="0.215875" lat="44.929678"><ele>52.0</ele></trkpt>
<trkpt lon="0.215703" lat="44.929439"><ele>53.25</ele></trkpt>
<trkpt lon="0.215644" lat="44.929302"><ele>54.0</ele></trkpt>
<trkpt lon="0.215617" lat="44.929207"><ele>54.5</ele></trkpt>
<trkpt lon="0.215628" lat="44.928976"><ele>55.75</ele></trkpt>
<trkpt lon="0.215666" lat="44.928885"><ele>56.25</ele></trkpt>
<trkpt lon="0.215757" lat="44.928729"><ele>57.75</ele></trkpt>
<trkpt lon="0.216197" lat="44.928277"><ele>61.0</ele></trkpt>
<trkpt lon="0.216299" lat="44.928117"><ele>62.0</ele></trkpt>
<trkpt lon="0.216347" lat="44.928015"><ele>63.0</ele></trkpt>
<trkpt lon="0.216347" lat="44.927916"><ele>63.75</ele></trkpt>
<trkpt lon="0.216325" lat="44.927810"><ele>64.5</ele></trkpt>
<trkpt lon="0.216261" lat="44.927726"><ele>64.75</ele></trkpt>
<trkpt lon="0.216143" lat="44.927624"><ele>65.5</ele></trkpt>
<trkpt lon="0.215500" lat="44.927199"><ele>65.75</ele></trkpt>
<trkpt lon="0.214695" lat="44.926701"><ele>65.75</ele></trkpt>
<trkpt lon="0.214164" lat="44.926412"><ele>66.75</ele></trkpt>
<trkpt lon="0.213321" lat="44.925975"><ele>66.75</ele></trkpt>
<trkpt lon="0.213241" lat="44.925899"><ele>67.0</ele></trkpt>
<trkpt lon="0.213193" lat="44.925797"><ele>67.25</ele></trkpt>
<trkpt lon="0.213193" lat="44.925706"><ele>67.25</ele></trkpt>
<trkpt lon="0.213327" lat="44.925106"><ele>68.25</ele></trkpt>
<trkpt lon="0.213343" lat="44.924969"><ele>68.0</ele></trkpt>
<trkpt lon="0.213321" lat="44.924840"><ele>67.75</ele></trkpt>
<trkpt lon="0.213279" lat="44.924730"><ele>67.75</ele></trkpt>
<trkpt lon="0.213182" lat="44.924566"><ele>67.75</ele></trkpt>
<trkpt lon="0.213016" lat="44.924399"><ele>68.0</ele></trkpt>
<trkpt lon="0.212796" lat="44.924236"><ele>68.5</ele></trkpt>
<trkpt lon="0.212431" lat="44.924012"><ele>70.75</ele></trkpt>
<trkpt lon="0.211852" lat="44.923639"><ele>74.0</ele></trkpt>
<trkpt lon="0.211562" lat="44.923431"><ele>75.5</ele></trkpt>
<trkpt lon="0.211165" lat="44.923119"><ele>77.5</ele></trkpt>
<trkpt lon="0.210752" lat="44.922770"><ele>79.0</ele></trkpt>
<trkpt lon="0.210419" lat="44.922439"><ele>79.25</ele></trkpt>
<trkpt lon="0.210103" lat="44.922246"><ele>79.25</ele></trkpt>
<trkpt lon="0.209829" lat="44.922151"><ele>79.25</ele></trkpt>
<trkpt lon="0.209214" lat="44.921953"><ele>77.25</ele></trkpt>
<trkpt lon="0.209411" lat="44.921820"><ele>77.75</ele></trkpt>
<trkpt lon="0.209741" lat="44.921621"><ele>78.5</ele></trkpt>
<trkpt lon="0.210033" lat="44.921494"><ele>78.25</ele></trkpt>
<trkpt lon="0.210387" lat="44.921383"><ele>79.5</ele></trkpt>
<trkpt lon="0.211444" lat="44.921201"><ele>81.25</ele></trkpt>
<trkpt lon="0.211975" lat="44.921148"><ele>81.5</ele></trkpt>
<trkpt lon="0.212837" lat="44.921081"><ele>82.75</ele></trkpt>
<trkpt lon="0.213190" lat="44.921072"><ele>84.25</ele></trkpt>
<trkpt lon="0.213389" lat="44.921066"><ele>84.5</ele></trkpt>
<trkpt lon="0.213545" lat="44.921040"><ele>84.5</ele></trkpt>
<trkpt lon="0.213684" lat="44.921002"><ele>84.5</ele></trkpt>
<trkpt lon="0.213851" lat="44.920926"><ele>84.0</ele></trkpt>
<trkpt lon="0.214146" lat="44.920755"><ele>83.75</ele></trkpt>
<trkpt lon="0.215459" lat="44.920104"><ele>83.25</ele></trkpt>
<trkpt lon="0.216007" lat="44.919796"><ele>83.25</ele></trkpt>
<trkpt lon="0.216312" lat="44.919526"><ele>83.0</ele></trkpt>
<trkpt lon="0.216697" lat="44.919301"><ele>82.75</ele></trkpt>
<trkpt lon="0.217013" lat="44.919132"><ele>81.5</ele></trkpt>
<trkpt lon="0.217307" lat="44.918906"><ele>81.75</ele></trkpt>
<trkpt lon="0.217668" lat="44.918555"><ele>82.0</ele></trkpt>
<trkpt lon="0.217807" lat="44.918408"><ele>82.5</ele></trkpt>
<trkpt lon="0.217863" lat="44.918340"><ele>82.5</ele></trkpt>
<trkpt lon="0.217925" lat="44.918298"><ele>82.25</ele></trkpt>
<trkpt lon="0.218821" lat="44.917892"><ele>82.5</ele></trkpt>
<trkpt lon="0.219325" lat="44.917662"><ele>83.0</ele></trkpt>
<trkpt lon="0.219618" lat="44.917521"><ele>83.75</ele></trkpt>
<trkpt lon="0.220639" lat="44.917069"><ele>83.75</ele></trkpt>
<trkpt lon="0.220934" lat="44.916883"><ele>83.5</ele></trkpt>
<trkpt lon="0.221195" lat="44.916676"><ele>83.75</ele></trkpt>
<trkpt lon="0.221567" lat="44.916332"><ele>82.25</ele></trkpt>
<trkpt lon="0.221903" lat="44.915998"><ele>81.75</ele></trkpt>
<trkpt lon="0.222042" lat="44.915827"><ele>82.0</ele></trkpt>
<trkpt lon="0.222080" lat="44.915766"><ele>82.0</ele></trkpt>
<trkpt lon="0.222192" lat="44.915508"><ele>83.0</ele></trkpt>
<trkpt lon="0.222412" lat="44.914708"><ele>85.25</ele></trkpt>
<trkpt lon="0.222471" lat="44.914581"><ele>85.5</ele></trkpt>
<trkpt lon="0.222589" lat="44.914418"><ele>85.5</ele></trkpt>
<trkpt lon="0.223102" lat="44.913817"><ele>86.5</ele></trkpt>
<trkpt lon="0.223354" lat="44.913571"><ele>87.0</ele></trkpt>
<trkpt lon="0.223595" lat="44.913386"><ele>87.5</ele></trkpt>
<trkpt lon="0.223775" lat="44.913274"><ele>87.75</ele></trkpt>
<trkpt lon="0.224030" lat="44.913145"><ele>89.0</ele></trkpt>
<trkpt lon="0.224357" lat="44.913039"><ele>89.25</ele></trkpt>
<trkpt lon="0.224719" lat="44.912911"><ele>90.5</ele></trkpt>
<trkpt lon="0.225379" lat="44.912604"><ele>91.5</ele></trkpt>
<trkpt lon="0.225459" lat="44.912581"><ele>91.5</ele></trkpt>
<trkpt lon="0.225529" lat="44.912570"><ele>91.5</ele></trkpt>
<trkpt lon="0.225626" lat="44.912571"><ele>91.5</ele></trkpt>
<trkpt lon="0.226420" lat="44.912676"><ele>90.25</ele></trkpt>
<trkpt lon="0.226640" lat="44.912668"><ele>89.25</ele></trkpt>
<trkpt lon="0.226782" lat="44.912644"><ele>89.0</ele></trkpt>
<trkpt lon="0.226910" lat="44.912604"><ele>88.5</ele></trkpt>
<trkpt lon="0.227098" lat="44.912522"><ele>88.25</ele></trkpt>
<trkpt lon="0.227903" lat="44.912045"><ele>89.75</ele></trkpt>
<trkpt lon="0.228077" lat="44.911948"><ele>89.75</ele></trkpt>
<trkpt lon="0.228209" lat="44.911886"><ele>89.75</ele></trkpt>
<trkpt lon="0.228557" lat="44.911772"><ele>90.0</ele></trkpt>
<trkpt lon="0.228729" lat="44.911701"><ele>90.25</ele></trkpt>
<trkpt lon="0.228944" lat="44.911584"><ele>90.5</ele></trkpt>
<trkpt lon="0.229166" lat="44.911441"><ele>91.5</ele></trkpt>
<trkpt lon="0.229268" lat="44.911335"><ele>91.75</ele></trkpt>
<trkpt lon="0.229351" lat="44.911217"><ele>91.75</ele></trkpt>
<trkpt lon="0.229544" lat="44.910849"><ele>93.5</ele></trkpt>
<trkpt lon="0.229619" lat="44.910742"><ele>93.5</ele></trkpt>
<trkpt lon="0.229743" lat="44.910613"><ele>93.75</ele></trkpt>
<trkpt lon="0.229850" lat="44.910484"><ele>95.0</ele></trkpt>
<trkpt lon="0.230003" lat="44.910199"><ele>97.25</ele></trkpt>
<trkpt lon="0.230282" lat="44.909802"><ele>99.5</ele></trkpt>
<trkpt lon="0.230424" lat="44.909549"><ele>101.0</ele></trkpt>
<trkpt lon="0.230542" lat="44.909376"><ele>102.0</ele></trkpt>
<trkpt lon="0.230625" lat="44.909289"><ele>102.25</ele></trkpt>
<trkpt lon="0.230690" lat="44.909253"><ele>102.25</ele></trkpt>
<trkpt lon="0.230754" lat="44.909240"><ele>102.0</ele></trkpt>
<trkpt lon="0.231069" lat="44.909307"><ele>102.0</ele></trkpt>
<trkpt lon="0.231201" lat="44.909313"><ele>102.0</ele></trkpt>
<trkpt lon="0.231678" lat="44.909299"><ele>102.5</ele></trkpt>
<trkpt lon="0.231866" lat="44.909304"><ele>103.0</ele></trkpt>
<trkpt lon="0.232230" lat="44.909332"><ele>103.5</ele></trkpt>
<trkpt lon="0.232136" lat="44.909218"><ele>103.0</ele></trkpt>
<trkpt lon="0.232028" lat="44.908893"><ele>101.5</ele></trkpt>
<trkpt lon="0.232109" lat="44.908380"><ele>99.0</ele></trkpt>
<trkpt lon="0.232305" lat="44.907813"><ele>97.0</ele></trkpt>
<trkpt lon="0.232530" lat="44.907246"><ele>95.75</ele></trkpt>
<trkpt lon="0.232580" lat="44.906951"><ele>93.75</ele></trkpt>
<trkpt lon="0.232563" lat="44.906818"><ele>93.25</ele></trkpt>
<trkpt lon="0.232508" lat="44.906673"><ele>92.75</ele></trkpt>
<trkpt lon="0.232462" lat="44.906512"><ele>92.5</ele></trkpt>
<trkpt lon="0.231508" lat="44.904651"><ele>84.25</ele></trkpt>
<trkpt lon="0.231156" lat="44.904381"><ele>82.0</ele></trkpt>
<trkpt lon="0.230720" lat="44.904204"><ele>80.5</ele></trkpt>
<trkpt lon="0.230274" lat="44.903659"><ele>73.5</ele></trkpt>
<trkpt lon="0.230126" lat="44.901759"><ele>67.25</ele></trkpt>
<trkpt lon="0.229977" lat="44.901297"><ele>71.5</ele></trkpt>
<trkpt lon="0.230342" lat="44.899100"><ele>83.0</ele></trkpt>
<trkpt lon="0.230429" lat="44.898695"><ele>86.25</ele></trkpt>
<trkpt lon="0.230337" lat="44.897528"><ele>87.5</ele></trkpt>
<trkpt lon="0.230459" lat="44.896031"><ele>89.5</ele></trkpt>
<trkpt lon="0.230680" lat="44.894850"><ele>90.0</ele></trkpt>
<trkpt lon="0.230981" lat="44.893423"><ele>95.5</ele></trkpt>
<trkpt lon="0.231025" lat="44.893303"><ele>95.5</ele></trkpt>
<trkpt lon="0.230554" lat="44.893250"><ele>97.25</ele></trkpt>
<trkpt lon="0.229993" lat="44.893146"><ele>96.25</ele></trkpt>
<trkpt lon="0.229726" lat="44.893103"><ele>93.75</ele></trkpt>
<trkpt lon="0.229453" lat="44.893085"><ele>92.0</ele></trkpt>
<trkpt lon="0.229177" lat="44.893086"><ele>90.0</ele></trkpt>
<trkpt lon="0.228490" lat="44.893117"><ele>86.75</ele></trkpt>
<trkpt lon="0.228260" lat="44.893144"><ele>85.75</ele></trkpt>
<trkpt lon="0.228011" lat="44.893128"><ele>84.75</ele></trkpt>
<trkpt lon="0.227943" lat="44.893112"><ele>84.5</ele></trkpt>
<trkpt lon="0.227827" lat="44.893064"><ele>84.0</ele></trkpt>
<trkpt lon="0.227775" lat="44.893032"><ele>84.0</ele></trkpt>
<trkpt lon="0.227116" lat="44.892625"><ele>86.0</ele></trkpt>
<trkpt lon="0.226783" lat="44.892445"><ele>86.75</ele></trkpt>
<trkpt lon="0.225960" lat="44.892071"><ele>88.75</ele></trkpt>
<trkpt lon="0.225740" lat="44.891949"><ele>89.25</ele></trkpt>
<trkpt lon="0.225645" lat="44.891879"><ele>89.75</ele></trkpt>
<trkpt lon="0.225301" lat="44.891561"><ele>90.75</ele></trkpt>
<trkpt lon="0.225135" lat="44.891389"><ele>91.5</ele></trkpt>
<trkpt lon="0.225000" lat="44.891213"><ele>93.25</ele></trkpt>
<trkpt lon="0.224710" lat="44.890763"><ele>96.5</ele></trkpt>
<trkpt lon="0.224566" lat="44.890570"><ele>98.25</ele></trkpt>
<trkpt lon="0.224156" lat="44.890103"><ele>103.75</ele></trkpt>
<trkpt lon="0.223229" lat="44.889232"><ele>103.0</ele></trkpt>
<trkpt lon="0.223054" lat="44.889014"><ele>102.25</ele></trkpt>
<trkpt lon="0.222888" lat="44.888708"><ele>102.5</ele></trkpt>
<trkpt lon="0.222804" lat="44.888483"><ele>103.5</ele></trkpt>
<trkpt lon="0.222741" lat="44.888251"><ele>105.0</ele></trkpt>
<trkpt lon="0.222720" lat="44.888142"><ele>106.5</ele></trkpt>
<trkpt lon="0.222714" lat="44.888110"><ele>107.0</ele></trkpt>
<trkpt lon="0.222074" lat="44.887459"><ele>122.75</ele></trkpt>
<trkpt lon="0.221674" lat="44.887111"><ele>131.5</ele></trkpt>
<trkpt lon="0.221113" lat="44.886566"><ele>144.25</ele></trkpt>
<trkpt lon="0.220983" lat="44.886464"><ele>146.5</ele></trkpt>
<trkpt lon="0.220826" lat="44.886295"><ele>148.25</ele></trkpt>
<trkpt lon="0.220792" lat="44.886058"><ele>148.0</ele></trkpt>
<trkpt lon="0.220824" lat="44.885662"><ele>145.5</ele></trkpt>
<trkpt lon="0.221080" lat="44.885161"><ele>144.5</ele></trkpt>
<trkpt lon="0.222224" lat="44.883666"><ele>145.25</ele></trkpt>
<trkpt lon="0.222676" lat="44.883339"><ele>143.25</ele></trkpt>
<trkpt lon="0.223441" lat="44.882751"><ele>137.0</ele></trkpt>
<trkpt lon="0.224132" lat="44.882278"><ele>134.0</ele></trkpt>
<trkpt lon="0.224206" lat="44.882227"><ele>134.0</ele></trkpt>
<trkpt lon="0.224483" lat="44.881905"><ele>133.0</ele></trkpt>
<trkpt lon="0.224643" lat="44.881638"><ele>133.0</ele></trkpt>
<trkpt lon="0.224873" lat="44.880989"><ele>131.25</ele></trkpt>
<trkpt lon="0.224987" lat="44.880526"><ele>130.0</ele></trkpt>
<trkpt lon="0.225011" lat="44.880269"><ele>129.75</ele></trkpt>
<trkpt lon="0.225056" lat="44.880073"><ele>130.25</ele></trkpt>
<trkpt lon="0.225004" lat="44.879694"><ele>132.0</ele></trkpt>
<trkpt lon="0.225066" lat="44.879212"><ele>131.25</ele></trkpt>
<trkpt lon="0.225035" lat="44.879108"><ele>131.25</ele></trkpt>
<trkpt lon="0.224897" lat="44.878964"><ele>131.5</ele></trkpt>
<trkpt lon="0.224782" lat="44.878873"><ele>131.5</ele></trkpt>
<trkpt lon="0.223850" lat="44.878441"><ele>133.75</ele></trkpt>
<trkpt lon="0.223728" lat="44.878373"><ele>134.25</ele></trkpt>
<trkpt lon="0.223651" lat="44.878233"><ele>134.75</ele></trkpt>
<trkpt lon="0.223593" lat="44.877820"><ele>134.0</ele></trkpt>
<trkpt lon="0.223560" lat="44.877561"><ele>133.0</ele></trkpt>
<trkpt lon="0.223546" lat="44.877374"><ele>132.0</ele></trkpt>
<trkpt lon="0.223482" lat="44.876948"><ele>131.0</ele></trkpt>
<trkpt lon="0.223447" lat="44.876595"><ele>131.0</ele></trkpt>
<trkpt lon="0.223482" lat="44.876513"><ele>131.25</ele></trkpt>
<trkpt lon="0.223571" lat="44.876470"><ele>131.0</ele></trkpt>
<trkpt lon="0.223690" lat="44.876443"><ele>130.5</ele></trkpt>
<trkpt lon="0.223868" lat="44.876364"><ele>130.0</ele></trkpt>
<trkpt lon="0.223899" lat="44.876313"><ele>129.75</ele></trkpt>
<trkpt lon="0.223934" lat="44.876184"><ele>129.75</ele></trkpt>
<trkpt lon="0.223916" lat="44.875947"><ele>129.75</ele></trkpt>
<trkpt lon="0.223965" lat="44.875767"><ele>129.5</ele></trkpt>
<trkpt lon="0.224000" lat="44.875509"><ele>129.75</ele></trkpt>
<trkpt lon="0.224005" lat="44.875410"><ele>130.0</ele></trkpt>
<trkpt lon="0.223977" lat="44.875282"><ele>130.5</ele></trkpt>
<trkpt lon="0.223917" lat="44.875111"><ele>131.5</ele></trkpt>
<trkpt lon="0.223909" lat="44.875030"><ele>131.5</ele></trkpt>
<trkpt lon="0.223877" lat="44.874889"><ele>131.5</ele></trkpt>
<trkpt lon="0.223901" lat="44.874597"><ele>130.75</ele></trkpt>
<trkpt lon="0.223957" lat="44.874420"><ele>129.75</ele></trkpt>
<trkpt lon="0.223988" lat="44.874361"><ele>129.0</ele></trkpt>
<trkpt lon="0.224076" lat="44.874244"><ele>127.25</ele></trkpt>
<trkpt lon="0.224648" lat="44.873610"><ele>116.75</ele></trkpt>
<trkpt lon="0.224896" lat="44.873682"><ele>115.0</ele></trkpt>
<trkpt lon="0.224659" lat="44.873588"><ele>116.25</ele></trkpt>
<trkpt lon="0.224250" lat="44.873376"><ele>119.25</ele></trkpt>
<trkpt lon="0.223979" lat="44.873129"><ele>120.25</ele></trkpt>
<trkpt lon="0.223749" lat="44.873000"><ele>121.5</ele></trkpt>
<trkpt lon="0.223054" lat="44.872707"><ele>127.5</ele></trkpt>
<trkpt lon="0.222939" lat="44.872629"><ele>128.0</ele></trkpt>
<trkpt lon="0.222845" lat="44.872531"><ele>128.25</ele></trkpt>
<trkpt lon="0.222603" lat="44.872239"><ele>130.75</ele></trkpt>
<trkpt lon="0.222291" lat="44.871863"><ele>134.0</ele></trkpt>
<trkpt lon="0.222069" lat="44.871680"><ele>135.5</ele></trkpt>
<trkpt lon="0.221845" lat="44.871566"><ele>136.75</ele></trkpt>
<trkpt lon="0.221544" lat="44.871449"><ele>138.0</ele></trkpt>
<trkpt lon="0.221116" lat="44.871287"><ele>139.0</ele></trkpt>
<trkpt lon="0.220725" lat="44.871171"><ele>136.5</ele></trkpt>
<trkpt lon="0.220927" lat="44.870952"><ele>137.0</ele></trkpt>
<trkpt lon="0.221001" lat="44.869989"><ele>132.5</ele></trkpt>
<trkpt lon="0.220779" lat="44.869157"><ele>130.75</ele></trkpt>
<trkpt lon="0.220753" lat="44.868806"><ele>132.0</ele></trkpt>
<trkpt lon="0.220810" lat="44.868535"><ele>135.0</ele></trkpt>
<trkpt lon="0.220846" lat="44.868364"><ele>137.25</ele></trkpt>
<trkpt lon="0.220792" lat="44.868226"><ele>139.75</ele></trkpt>
<trkpt lon="0.220606" lat="44.868132"><ele>142.25</ele></trkpt>
<trkpt lon="0.220472" lat="44.867936"><ele>146.0</ele></trkpt>
<trkpt lon="0.220170" lat="44.866834"><ele>157.25</ele></trkpt>
<trkpt lon="0.220001" lat="44.866623"><ele>160.0</ele></trkpt>
<trkpt lon="0.219952" lat="44.866450"><ele>160.75</ele></trkpt>
<trkpt lon="0.220010" lat="44.866062"><ele>163.0</ele></trkpt>
<trkpt lon="0.220117" lat="44.865779"><ele>162.0</ele></trkpt>
<trkpt lon="0.220552" lat="44.865672"><ele>156.0</ele></trkpt>
<trkpt lon="0.220819" lat="44.865540"><ele>153.0</ele></trkpt>
<trkpt lon="0.220934" lat="44.865439"><ele>151.75</ele></trkpt>
<trkpt lon="0.222081" lat="44.864670"><ele>140.5</ele></trkpt>
<trkpt lon="0.221406" lat="44.864325"><ele>139.5</ele></trkpt>
<trkpt lon="0.219890" lat="44.863748"><ele>140.5</ele></trkpt>
<trkpt lon="0.218751" lat="44.863491"><ele>141.0</ele></trkpt>
<trkpt lon="0.218939" lat="44.862853"><ele>131.0</ele></trkpt>
<trkpt lon="0.218878" lat="44.862767"><ele>129.75</ele></trkpt>
<trkpt lon="0.218766" lat="44.862740"><ele>129.25</ele></trkpt>
<trkpt lon="0.218757" lat="44.862548"><ele>126.25</ele></trkpt>
<trkpt lon="0.218654" lat="44.862399"><ele>123.75</ele></trkpt>
<trkpt lon="0.218282" lat="44.862348"><ele>125.0</ele></trkpt>
<trkpt lon="0.218235" lat="44.862348"><ele>125.25</ele></trkpt>
<trkpt lon="0.218419" lat="44.861120"><ele>107.75</ele></trkpt>
<trkpt lon="0.218638" lat="44.861158"><ele>107.5</ele></trkpt>
<trkpt lon="0.218974" lat="44.861245"><ele>109.25</ele></trkpt>
<trkpt lon="0.219163" lat="44.861288"><ele>110.25</ele></trkpt>
<trkpt lon="0.219140" lat="44.860905"><ele>107.25</ele></trkpt>
<trkpt lon="0.219185" lat="44.860727"><ele>106.25</ele></trkpt>
<trkpt lon="0.219237" lat="44.860453"><ele>105.25</ele></trkpt>
<trkpt lon="0.219291" lat="44.860109"><ele>104.25</ele></trkpt>
<trkpt lon="0.219357" lat="44.859620"><ele>102.0</ele></trkpt>
<trkpt lon="0.219351" lat="44.859489"><ele>101.25</ele></trkpt>
<trkpt lon="0.219187" lat="44.859469"><ele>101.0</ele></trkpt>
<trkpt lon="0.218462" lat="44.859233"><ele>95.5</ele></trkpt>
<trkpt lon="0.218404" lat="44.859159"><ele>94.75</ele></trkpt>
<trkpt lon="0.217945" lat="44.859105"><ele>95.25</ele></trkpt>
<trkpt lon="0.217863" lat="44.859089"><ele>95.5</ele></trkpt>
<trkpt lon="0.217650" lat="44.859048"><ele>96.5</ele></trkpt>
<trkpt lon="0.217079" lat="44.858888"><ele>101.5</ele></trkpt>
<trkpt lon="0.215666" lat="44.858550"><ele>117.75</ele></trkpt>
<trkpt lon="0.215564" lat="44.858496"><ele>118.75</ele></trkpt>
<trkpt lon="0.215517" lat="44.858407"><ele>119.25</ele></trkpt>
<trkpt lon="0.215513" lat="44.858187"><ele>119.75</ele></trkpt>
<trkpt lon="0.215492" lat="44.858091"><ele>120.0</ele></trkpt>
<trkpt lon="0.215385" lat="44.857992"><ele>120.5</ele></trkpt>
<trkpt lon="0.215435" lat="44.857909"><ele>120.25</ele></trkpt>
<trkpt lon="0.215439" lat="44.857638"><ele>120.0</ele></trkpt>
<trkpt lon="0.215458" lat="44.857393"><ele>119.75</ele></trkpt>
<trkpt lon="0.215478" lat="44.857236"><ele>119.25</ele></trkpt>
<trkpt lon="0.215513" lat="44.857131"><ele>119.0</ele></trkpt>
<trkpt lon="0.215549" lat="44.857019"><ele>119.0</ele></trkpt>
<trkpt lon="0.216016" lat="44.856076"><ele>117.0</ele></trkpt>
<trkpt lon="0.216186" lat="44.855196"><ele>113.75</ele></trkpt>
<trkpt lon="0.216182" lat="44.855024"><ele>113.25</ele></trkpt>
<trkpt lon="0.216161" lat="44.854978"><ele>113.0</ele></trkpt>
<trkpt lon="0.216261" lat="44.854901"><ele>113.0</ele></trkpt>
<trkpt lon="0.216333" lat="44.854429"><ele>110.75</ele></trkpt>
<trkpt lon="0.216378" lat="44.854027"><ele>108.0</ele></trkpt>
<trkpt lon="0.216517" lat="44.853710"><ele>106.0</ele></trkpt>
<trkpt lon="0.216625" lat="44.853287"><ele>101.5</ele></trkpt>
<trkpt lon="0.216718" lat="44.852461"><ele>98.5</ele></trkpt>
<trkpt lon="0.216737" lat="44.852175"><ele>97.5</ele></trkpt>
<trkpt lon="0.216799" lat="44.851913"><ele>97.5</ele></trkpt>
<trkpt lon="0.217226" lat="44.851117"><ele>94.0</ele></trkpt>
<trkpt lon="0.217260" lat="44.850890"><ele>90.5</ele></trkpt>
<trkpt lon="0.217268" lat="44.850837"><ele>89.5</ele></trkpt>
<trkpt lon="0.217076" lat="44.850640"><ele>86.5</ele></trkpt>
<trkpt lon="0.217018" lat="44.850453"><ele>82.75</ele></trkpt>
<trkpt lon="0.216930" lat="44.850285"><ele>80.25</ele></trkpt>
<trkpt lon="0.216894" lat="44.850127"><ele>77.0</ele></trkpt>
<trkpt lon="0.216733" lat="44.849982"><ele>73.25</ele></trkpt>
<trkpt lon="0.216634" lat="44.849906"><ele>71.0</ele></trkpt>
<trkpt lon="0.216656" lat="44.849831"><ele>68.0</ele></trkpt>
<trkpt lon="0.216673" lat="44.849657"><ele>62.0</ele></trkpt>
<trkpt lon="0.216768" lat="44.849258"><ele>52.75</ele></trkpt>
<trkpt lon="0.217031" lat="44.848515"><ele>36.75</ele></trkpt>
<trkpt lon="0.217223" lat="44.848097"><ele>31.5</ele></trkpt>
<trkpt lon="0.217335" lat="44.847771"><ele>27.75</ele></trkpt>
<trkpt lon="0.217666" lat="44.846486"><ele>23.25</ele></trkpt>
<trkpt lon="0.217696" lat="44.846273"><ele>22.5</ele></trkpt>
<trkpt lon="0.217805" lat="44.846131"><ele>22.0</ele></trkpt>
<trkpt lon="0.218065" lat="44.846193"><ele>22.25</ele></trkpt>
<trkpt lon="0.218246" lat="44.846257"><ele>22.5</ele></trkpt>
<trkpt lon="0.218279" lat="44.846185"><ele>21.75</ele></trkpt>
<trkpt lon="0.218292" lat="44.846155"><ele>21.5</ele></trkpt>
<trkpt lon="0.218463" lat="44.845783"><ele>17.25</ele></trkpt>
<trkpt lon="0.218673" lat="44.845323"><ele>15.25</ele></trkpt>
<trkpt lon="0.218835" lat="44.844969"><ele>14.25</ele></trkpt>
<trkpt lon="0.218440" lat="44.844931"><ele>13.5</ele></trkpt>
<trkpt lon="0.218042" lat="44.844882"><ele>13.25</ele></trkpt>
<trkpt lon="0.217567" lat="44.844833"><ele>13.0</ele></trkpt>
<trkpt lon="0.216981" lat="44.844723"><ele>13.75</ele></trkpt>
<trkpt lon="0.216409" lat="44.844601"><ele>12.25</ele></trkpt>
<trkpt lon="0.216043" lat="44.844558"><ele>12.0</ele></trkpt>
<trkpt lon="0.215495" lat="44.844530"><ele>12.5</ele></trkpt>
<trkpt lon="0.215379" lat="44.844537"><ele>13.5</ele></trkpt>
<trkpt lon="0.215300" lat="44.844563"><ele>14.5</ele></trkpt>
<trkpt lon="0.215161" lat="44.844527"><ele>14.75</ele></trkpt>
<trkpt lon="0.214894" lat="44.844376"><ele>14.25</ele></trkpt>
<trkpt lon="0.214716" lat="44.844291"><ele>13.0</ele></trkpt>
<trkpt lon="0.214382" lat="44.844181"><ele>12.0</ele></trkpt>
<trkpt lon="0.213893" lat="44.844095"><ele>13.75</ele></trkpt>
<trkpt lon="0.213594" lat="44.844025"><ele>11.0</ele></trkpt>
<trkpt lon="0.212938" lat="44.843810"><ele>13.5</ele></trkpt>
<trkpt lon="0.212908" lat="44.843819"><ele>14.0</ele></trkpt>
<trkpt lon="0.212661" lat="44.843819"><ele>15.5</ele></trkpt>
<trkpt lon="0.212602" lat="44.843830"><ele>16.0</ele></trkpt>
<trkpt lon="0.211103" lat="44.843228"><ele>15.75</ele></trkpt>
<trkpt lon="0.210570" lat="44.843217"><ele>16.5</ele></trkpt>
<trkpt lon="0.210532" lat="44.843173"><ele>16.25</ele></trkpt>
<trkpt lon="0.210504" lat="44.843143"><ele>16.0</ele></trkpt>
<trkpt lon="0.210549" lat="44.843089"><ele>15.25</ele></trkpt>
<trkpt lon="0.210723" lat="44.842900"><ele>15.5</ele></trkpt>
<trkpt lon="0.211218" lat="44.842398"><ele>16.25</ele></trkpt>
<trkpt lon="0.211232" lat="44.842383"><ele>16.25</ele></trkpt>
<trkpt lon="0.211884" lat="44.841723"><ele>17.25</ele></trkpt>
<trkpt lon="0.211985" lat="44.841613"><ele>17.25</ele></trkpt>
<trkpt lon="0.212470" lat="44.841092"><ele>17.75</ele></trkpt>
<trkpt lon="0.212537" lat="44.841072"><ele>17.5</ele></trkpt>
<trkpt lon="0.212641" lat="44.841074"><ele>17.5</ele></trkpt>
<trkpt lon="0.212820" lat="44.841095"><ele>17.75</ele></trkpt>
<trkpt lon="0.212917" lat="44.841053"><ele>17.5</ele></trkpt>
<trkpt lon="0.213527" lat="44.840855"><ele>17.25</ele></trkpt>
<trkpt lon="0.213613" lat="44.840848"><ele>17.0</ele></trkpt>
<trkpt lon="0.213727" lat="44.840710"><ele>17.0</ele></trkpt>
<trkpt lon="0.214085" lat="44.840343"><ele>17.0</ele></trkpt>
<trkpt lon="0.214192" lat="44.840203"><ele>16.75</ele></trkpt>
<trkpt lon="0.214339" lat="44.839894"><ele>17.0</ele></trkpt>
<trkpt lon="0.214550" lat="44.839441"><ele>16.5</ele></trkpt>
<trkpt lon="0.214751" lat="44.839004"><ele>16.75</ele></trkpt>
<trkpt lon="0.215608" lat="44.839146"><ele>17.0</ele></trkpt>
<trkpt lon="0.216348" lat="44.839269"><ele>17.0</ele></trkpt>
<trkpt lon="0.216644" lat="44.838481"><ele>17.25</ele></trkpt>
<trkpt lon="0.216578" lat="44.838468"><ele>17.25</ele></trkpt>
<trkpt lon="0.216623" lat="44.838327"><ele>17.75</ele></trkpt>
<trkpt lon="0.216650" lat="44.838255"><ele>17.5</ele></trkpt>
<trkpt lon="0.216857" lat="44.837661"><ele>17.0</ele></trkpt>
<trkpt lon="0.216796" lat="44.837395"><ele>17.0</ele></trkpt>
<trkpt lon="0.217132" lat="44.837318"><ele>17.0</ele></trkpt>
<trkpt lon="0.217105" lat="44.837028"><ele>18.25</ele></trkpt>
<trkpt lon="0.217178" lat="44.836993"><ele>18.5</ele></trkpt>
<trkpt lon="0.217706" lat="44.836976"><ele>18.75</ele></trkpt>
<trkpt lon="0.218177" lat="44.836965"><ele>17.75</ele></trkpt>
<trkpt lon="0.218282" lat="44.836991"><ele>17.75</ele></trkpt>
<trkpt lon="0.218266" lat="44.836889"><ele>17.75</ele></trkpt>
<trkpt lon="0.218272" lat="44.836748"><ele>17.75</ele></trkpt>
<trkpt lon="0.218341" lat="44.836659"><ele>18.0</ele></trkpt>
<trkpt lon="0.218308" lat="44.836636"><ele>17.75</ele></trkpt>
<trkpt lon="0.218293" lat="44.836608"><ele>17.75</ele></trkpt>
<trkpt lon="0.218320" lat="44.836322"><ele>17.75</ele></trkpt>
<trkpt lon="0.218365" lat="44.835882"><ele>17.75</ele></trkpt>
<trkpt lon="0.218379" lat="44.835826"><ele>18.0</ele></trkpt>
<trkpt lon="0.218366" lat="44.835754"><ele>18.0</ele></trkpt>
<trkpt lon="0.218375" lat="44.835628"><ele>18.0</ele></trkpt>
<trkpt lon="0.218394" lat="44.835559"><ele>18.0</ele></trkpt>
<trkpt lon="0.218424" lat="44.835523"><ele>18.0</ele></trkpt>
<trkpt lon="0.218459" lat="44.835494"><ele>18.0</ele></trkpt>
<trkpt lon="0.218427" lat="44.835315"><ele>18.0</ele></trkpt>
<trkpt lon="0.218477" lat="44.834803"><ele>18.0</ele></trkpt>
<trkpt lon="0.218479" lat="44.834686"><ele>18.0</ele></trkpt>
<trkpt lon="0.218482" lat="44.834586"><ele>18.0</ele></trkpt>
<trkpt lon="0.218516" lat="44.834580"><ele>18.0</ele></trkpt>
<trkpt lon="0.218545" lat="44.834566"><ele>18.0</ele></trkpt>
<trkpt lon="0.218566" lat="44.834546"><ele>18.0</ele></trkpt>
<trkpt lon="0.218578" lat="44.834522"><ele>18.0</ele></trkpt>
<trkpt lon="0.218577" lat="44.834495"><ele>18.0</ele></trkpt>
<trkpt lon="0.218564" lat="44.834470"><ele>18.0</ele></trkpt>
<trkpt lon="0.218540" lat="44.834450"><ele>18.0</ele></trkpt>
<trkpt lon="0.218494" lat="44.834434"><ele>18.0</ele></trkpt>
<trkpt lon="0.218504" lat="44.834406"><ele>18.0</ele></trkpt>
<trkpt lon="0.218523" lat="44.834252"><ele>18.0</ele></trkpt>
<trkpt lon="0.218639" lat="44.833093"><ele>18.0</ele></trkpt>
<trkpt lon="0.218659" lat="44.832897"><ele>18.0</ele></trkpt>
<trkpt lon="0.218710" lat="44.832270"><ele>18.75</ele></trkpt>
<trkpt lon="0.218772" lat="44.831709"><ele>19.0</ele></trkpt>
<trkpt lon="0.218909" lat="44.830216"><ele>19.0</ele></trkpt>
<trkpt lon="0.218960" lat="44.829698"><ele>19.0</ele></trkpt>
<trkpt lon="0.218970" lat="44.829590"><ele>19.0</ele></trkpt>
<trkpt lon="0.219039" lat="44.828694"><ele>19.0</ele></trkpt>
<trkpt lon="0.219077" lat="44.828208"><ele>19.0</ele></trkpt>
<trkpt lon="0.219136" lat="44.827683"><ele>19.75</ele></trkpt>
<trkpt lon="0.219139" lat="44.827637"><ele>19.75</ele></trkpt>
<trkpt lon="0.219230" lat="44.827383"><ele>19.75</ele></trkpt>
<trkpt lon="0.219267" lat="44.827333"><ele>19.75</ele></trkpt>
<trkpt lon="0.219311" lat="44.827280"><ele>19.75</ele></trkpt>
<trkpt lon="0.219377" lat="44.827228"><ele>19.75</ele></trkpt>
<trkpt lon="0.219446" lat="44.827211"><ele>20.0</ele></trkpt>
<trkpt lon="0.219509" lat="44.827185"><ele>20.0</ele></trkpt>
<trkpt lon="0.219564" lat="44.827151"><ele>20.25</ele></trkpt>
<trkpt lon="0.219610" lat="44.827111"><ele>20.25</ele></trkpt>
<trkpt lon="0.219644" lat="44.827066"><ele>20.5</ele></trkpt>
<trkpt lon="0.219666" lat="44.827014"><ele>20.5</ele></trkpt>
<trkpt lon="0.219674" lat="44.826960"><ele>20.75</ele></trkpt>
<trkpt lon="0.219668" lat="44.826907"><ele>20.75</ele></trkpt>
<trkpt lon="0.219647" lat="44.826855"><ele>20.75</ele></trkpt>
<trkpt lon="0.219589" lat="44.826785"><ele>20.5</ele></trkpt>
<trkpt lon="0.219550" lat="44.826755"><ele>20.5</ele></trkpt>
<trkpt lon="0.219714" lat="44.826610"><ele>20.75</ele></trkpt>
<trkpt lon="0.219956" lat="44.826426"><ele>20.0</ele></trkpt>
<trkpt lon="0.220125" lat="44.826325"><ele>20.0</ele></trkpt>
<trkpt lon="0.220363" lat="44.826243"><ele>20.0</ele></trkpt>
<trkpt lon="0.221203" lat="44.826080"><ele>20.0</ele></trkpt>
<trkpt lon="0.221321" lat="44.826036"><ele>20.0</ele></trkpt>
<trkpt lon="0.221334" lat="44.825992"><ele>20.0</ele></trkpt>
<trkpt lon="0.221371" lat="44.825967"><ele>20.0</ele></trkpt>
<trkpt lon="0.221421" lat="44.825959"><ele>20.0</ele></trkpt>
<trkpt lon="0.221366" lat="44.825701"><ele>20.25</ele></trkpt>
<trkpt lon="0.221357" lat="44.825655"><ele>20.5</ele></trkpt>
<trkpt lon="0.221312" lat="44.825544"><ele>20.5</ele></trkpt>
<trkpt lon="0.221293" lat="44.825440"><ele>20.75</ele></trkpt>
<trkpt lon="0.221222" lat="44.825161"><ele>21.0</ele></trkpt>
<trkpt lon="0.221225" lat="44.825138"><ele>21.0</ele></trkpt>
<trkpt lon="0.221228" lat="44.825119"><ele>21.0</ele></trkpt>
<trkpt lon="0.221299" lat="44.825036"><ele>20.75</ele></trkpt>
<trkpt lon="0.222143" lat="44.824954"><ele>20.25</ele></trkpt>
<trkpt lon="0.223807" lat="44.824750"><ele>21.0</ele></trkpt>
<trkpt lon="0.223904" lat="44.824461"><ele>21.75</ele></trkpt>
<trkpt lon="0.223948" lat="44.824380"><ele>22.0</ele></trkpt>
<trkpt lon="0.224108" lat="44.824322"><ele>22.25</ele></trkpt>
<trkpt lon="0.222032" lat="44.824545"><ele>22.25</ele></trkpt>
<trkpt lon="0.220984" lat="44.824656"><ele>21.75</ele></trkpt>
<trkpt lon="0.220523" lat="44.824718"><ele>21.75</ele></trkpt>
<trkpt lon="0.220346" lat="44.824750"><ele>21.0</ele></trkpt>
<trkpt lon="0.219708" lat="44.824866"><ele>21.0</ele></trkpt>
<trkpt lon="0.219618" lat="44.824880"><ele>21.0</ele></trkpt>
<trkpt lon="0.219367" lat="44.824893"><ele>21.0</ele></trkpt>
<trkpt lon="0.219370" lat="44.824859"><ele>21.0</ele></trkpt>
<trkpt lon="0.219095" lat="44.824856"><ele>20.5</ele></trkpt>
<trkpt lon="0.218684" lat="44.824903"><ele>20.0</ele></trkpt>
<trkpt lon="0.216580" lat="44.824987"><ele>19.0</ele></trkpt>
<trkpt lon="0.216375" lat="44.824968"><ele>19.0</ele></trkpt>
<trkpt lon="0.216256" lat="44.824920"><ele>19.0</ele></trkpt>
<trkpt lon="0.215622" lat="44.824397"><ele>19.0</ele></trkpt>
<trkpt lon="0.215417" lat="44.824251"><ele>19.0</ele></trkpt>
<trkpt lon="0.215095" lat="44.824119"><ele>18.25</ele></trkpt>
<trkpt lon="0.214390" lat="44.823989"><ele>18.75</ele></trkpt>
<trkpt lon="0.214339" lat="44.823962"><ele>18.5</ele></trkpt>
<trkpt lon="0.214305" lat="44.823894"><ele>18.5</ele></trkpt>
<trkpt lon="0.214275" lat="44.823705"><ele>18.75</ele></trkpt>
<trkpt lon="0.214251" lat="44.823622"><ele>18.75</ele></trkpt>
<trkpt lon="0.214288" lat="44.823396"><ele>19.25</ele></trkpt>
<trkpt lon="0.214344" lat="44.823153"><ele>19.75</ele></trkpt>
<trkpt lon="0.214456" lat="44.822899"><ele>21.0</ele></trkpt>
<trkpt lon="0.214586" lat="44.822660"><ele>23.5</ele></trkpt>
<trkpt lon="0.214739" lat="44.822413"><ele>25.25</ele></trkpt>
<trkpt lon="0.214827" lat="44.822383"><ele>26.25</ele></trkpt>
<trkpt lon="0.215479" lat="44.822397"><ele>27.75</ele></trkpt>
<trkpt lon="0.215614" lat="44.822399"><ele>28.0</ele></trkpt>
<trkpt lon="0.215980" lat="44.822354"><ele>28.5</ele></trkpt>
<trkpt lon="0.216345" lat="44.822325"><ele>28.75</ele></trkpt>
<trkpt lon="0.217002" lat="44.822303"><ele>30.0</ele></trkpt>
<trkpt lon="0.217316" lat="44.822318"><ele>30.0</ele></trkpt>
<trkpt lon="0.218951" lat="44.822529"><ele>29.75</ele></trkpt>
<trkpt lon="0.219078" lat="44.822512"><ele>29.25</ele></trkpt>
<trkpt lon="0.219044" lat="44.822392"><ele>29.75</ele></trkpt>
<trkpt lon="0.219016" lat="44.822221"><ele>30.5</ele></trkpt>
<trkpt lon="0.219007" lat="44.821742"><ele>31.5</ele></trkpt>
<trkpt lon="0.219015" lat="44.821254"><ele>33.25</ele></trkpt>
<trkpt lon="0.218999" lat="44.820841"><ele>35.75</ele></trkpt>
<trkpt lon="0.218881" lat="44.820074"><ele>42.5</ele></trkpt>
<trkpt lon="0.218254" lat="44.818691"><ele>61.5</ele></trkpt>
<trkpt lon="0.217894" lat="44.818231"><ele>71.5</ele></trkpt>
<trkpt lon="0.217550" lat="44.817865"><ele>78.75</ele></trkpt>
<trkpt lon="0.217280" lat="44.817639"><ele>81.75</ele></trkpt>
<trkpt lon="0.217149" lat="44.817576"><ele>82.75</ele></trkpt>
<trkpt lon="0.216639" lat="44.817474"><ele>85.0</ele></trkpt>
<trkpt lon="0.216515" lat="44.816371"><ele>87.0</ele></trkpt>
<trkpt lon="0.216471" lat="44.816202"><ele>87.5</ele></trkpt>
<trkpt lon="0.216340" lat="44.816041"><ele>88.5</ele></trkpt>
<trkpt lon="0.216266" lat="44.816014"><ele>89.25</ele></trkpt>
<trkpt lon="0.215867" lat="44.815671"><ele>93.75</ele></trkpt>
<trkpt lon="0.215632" lat="44.815493"><ele>97.25</ele></trkpt>
<trkpt lon="0.215488" lat="44.815405"><ele>99.0</ele></trkpt>
<trkpt lon="0.214841" lat="44.815235"><ele>101.5</ele></trkpt>
<trkpt lon="0.214480" lat="44.815122"><ele>101.5</ele></trkpt>
<trkpt lon="0.214383" lat="44.815073"><ele>101.0</ele></trkpt>
<trkpt lon="0.214337" lat="44.815005"><ele>100.5</ele></trkpt>
<trkpt lon="0.214311" lat="44.814917"><ele>100.5</ele></trkpt>
<trkpt lon="0.214446" lat="44.814614"><ele>100.5</ele></trkpt>
<trkpt lon="0.214573" lat="44.814402"><ele>100.0</ele></trkpt>
<trkpt lon="0.214739" lat="44.814211"><ele>99.25</ele></trkpt>
<trkpt lon="0.215195" lat="44.813725"><ele>98.0</ele></trkpt>
<trkpt lon="0.215582" lat="44.813158"><ele>95.75</ele></trkpt>
<trkpt lon="0.215852" lat="44.812796"><ele>94.0</ele></trkpt>
<trkpt lon="0.216865" lat="44.811377"><ele>89.5</ele></trkpt>
<trkpt lon="0.217099" lat="44.810909"><ele>89.5</ele></trkpt>
<trkpt lon="0.217203" lat="44.810459"><ele>90.75</ele></trkpt>
<trkpt lon="0.217290" lat="44.809905"><ele>94.0</ele></trkpt>
<trkpt lon="0.217803" lat="44.808837"><ele>98.25</ele></trkpt>
<trkpt lon="0.218357" lat="44.807683"><ele>101.0</ele></trkpt>
<trkpt lon="0.218348" lat="44.807587"><ele>101.0</ele></trkpt>
<trkpt lon="0.218454" lat="44.807005"><ele>101.75</ele></trkpt>
<trkpt lon="0.218432" lat="44.806583"><ele>102.5</ele></trkpt>
<trkpt lon="0.218438" lat="44.806187"><ele>102.25</ele></trkpt>
<trkpt lon="0.218493" lat="44.805292"><ele>100.5</ele></trkpt>
<trkpt lon="0.218291" lat="44.804617"><ele>95.0</ele></trkpt>
<trkpt lon="0.218045" lat="44.804199"><ele>91.0</ele></trkpt>
<trkpt lon="0.217870" lat="44.804020"><ele>90.25</ele></trkpt>
<trkpt lon="0.217673" lat="44.803869"><ele>89.75</ele></trkpt>
<trkpt lon="0.217482" lat="44.803648"><ele>88.25</ele></trkpt>
<trkpt lon="0.217489" lat="44.803467"><ele>87.75</ele></trkpt>
<trkpt lon="0.216932" lat="44.803236"><ele>87.25</ele></trkpt>
<trkpt lon="0.216083" lat="44.802850"><ele>85.75</ele></trkpt>
<trkpt lon="0.215836" lat="44.802701"><ele>85.25</ele></trkpt>
<trkpt lon="0.215783" lat="44.802637"><ele>85.0</ele></trkpt>
<trkpt lon="0.215822" lat="44.802316"><ele>85.75</ele></trkpt>
<trkpt lon="0.215859" lat="44.802154"><ele>86.0</ele></trkpt>
<trkpt lon="0.215926" lat="44.801926"><ele>86.25</ele></trkpt>
<trkpt lon="0.215923" lat="44.801638"><ele>86.25</ele></trkpt>
<trkpt lon="0.215815" lat="44.800704"><ele>86.75</ele></trkpt>
<trkpt lon="0.215825" lat="44.800650"><ele>86.75</ele></trkpt>
<trkpt lon="0.215864" lat="44.800620"><ele>87.0</ele></trkpt>
<trkpt lon="0.215785" lat="44.800528"><ele>86.75</ele></trkpt>
<trkpt lon="0.215809" lat="44.800184"><ele>84.25</ele></trkpt>
<trkpt lon="0.215779" lat="44.799841"><ele>81.0</ele></trkpt>
<trkpt lon="0.215757" lat="44.799733"><ele>79.5</ele></trkpt>
<trkpt lon="0.215622" lat="44.799644"><ele>78.75</ele></trkpt>
<trkpt lon="0.214884" lat="44.799520"><ele>76.75</ele></trkpt>
<trkpt lon="0.214267" lat="44.799434"><ele>75.25</ele></trkpt>
<trkpt lon="0.213846" lat="44.799218"><ele>72.5</ele></trkpt>
<trkpt lon="0.213481" lat="44.798950"><ele>67.75</ele></trkpt>
<trkpt lon="0.213364" lat="44.798753"><ele>65.5</ele></trkpt>
<trkpt lon="0.213364" lat="44.798537"><ele>63.0</ele></trkpt>
<trkpt lon="0.213334" lat="44.798369"><ele>61.25</ele></trkpt>
<trkpt lon="0.213405" lat="44.798342"><ele>61.25</ele></trkpt>
<trkpt lon="0.213469" lat="44.798281"><ele>61.25</ele></trkpt>
<trkpt lon="0.213515" lat="44.798183"><ele>61.25</ele></trkpt>
<trkpt lon="0.213524" lat="44.798045"><ele>60.75</ele></trkpt>
<trkpt lon="0.213498" lat="44.797879"><ele>60.5</ele></trkpt>
<trkpt lon="0.213453" lat="44.797724"><ele>60.0</ele></trkpt>
<trkpt lon="0.213423" lat="44.797586"><ele>59.5</ele></trkpt>
<trkpt lon="0.212828" lat="44.797254"><ele>58.0</ele></trkpt>
<trkpt lon="0.212651" lat="44.797161"><ele>58.0</ele></trkpt>
<trkpt lon="0.210818" lat="44.796258"><ele>59.25</ele></trkpt>
<trkpt lon="0.211259" lat="44.795914"><ele>59.0</ele></trkpt>
<trkpt lon="0.211396" lat="44.795579"><ele>59.75</ele></trkpt>
<trkpt lon="0.211377" lat="44.795434"><ele>60.25</ele></trkpt>
<trkpt lon="0.210883" lat="44.794764"><ele>62.75</ele></trkpt>
<trkpt lon="0.210834" lat="44.794492"><ele>63.75</ele></trkpt>
<trkpt lon="0.210730" lat="44.794135"><ele>65.0</ele></trkpt>
<trkpt lon="0.210470" lat="44.793766"><ele>66.25</ele></trkpt>
<trkpt lon="0.210418" lat="44.793637"><ele>66.75</ele></trkpt>
<trkpt lon="0.209994" lat="44.793105"><ele>72.25</ele></trkpt>
<trkpt lon="0.209690" lat="44.792695"><ele>76.75</ele></trkpt>
<trkpt lon="0.209457" lat="44.791699"><ele>87.5</ele></trkpt>
<trkpt lon="0.209327" lat="44.791290"><ele>89.25</ele></trkpt>
<trkpt lon="0.209266" lat="44.791029"><ele>91.25</ele></trkpt>
<trkpt lon="0.208837" lat="44.790284"><ele>97.0</ele></trkpt>
<trkpt lon="0.209129" lat="44.790162"><ele>97.75</ele></trkpt>
<trkpt lon="0.209422" lat="44.790081"><ele>97.75</ele></trkpt>
<trkpt lon="0.209359" lat="44.790033"><ele>98.0</ele></trkpt>
<trkpt lon="0.208817" lat="44.790168"><ele>98.25</ele></trkpt>
<trkpt lon="0.208149" lat="44.789597"><ele>103.25</ele></trkpt>
<trkpt lon="0.208105" lat="44.789374"><ele>104.75</ele></trkpt>
<trkpt lon="0.208105" lat="44.789172"><ele>104.75</ele></trkpt>
<trkpt lon="0.208059" lat="44.789102"><ele>105.0</ele></trkpt>
<trkpt lon="0.207973" lat="44.789081"><ele>105.5</ele></trkpt>
<trkpt lon="0.207616" lat="44.789054"><ele>106.25</ele></trkpt>
<trkpt lon="0.207539" lat="44.789024"><ele>106.5</ele></trkpt>
<trkpt lon="0.207003" lat="44.788275"><ele>108.5</ele></trkpt>
<trkpt lon="0.206352" lat="44.787488"><ele>112.0</ele></trkpt>
<trkpt lon="0.206415" lat="44.787394"><ele>111.75</ele></trkpt>
<trkpt lon="0.206361" lat="44.787290"><ele>112.0</ele></trkpt>
<trkpt lon="0.206258" lat="44.787123"><ele>112.25</ele></trkpt>
<trkpt lon="0.206099" lat="44.787037"><ele>113.0</ele></trkpt>
<trkpt lon="0.205731" lat="44.786531"><ele>114.0</ele></trkpt>
<trkpt lon="0.207420" lat="44.786288"><ele>103.5</ele></trkpt>
<trkpt lon="0.206819" lat="44.785286"><ele>106.75</ele></trkpt>
<trkpt lon="0.205349" lat="44.783389"><ele>109.75</ele></trkpt>
<trkpt lon="0.204975" lat="44.782931"><ele>110.25</ele></trkpt>
<trkpt lon="0.204161" lat="44.782037"><ele>112.25</ele></trkpt>
<trkpt lon="0.203967" lat="44.782285"><ele>112.0</ele></trkpt>
<trkpt lon="0.203829" lat="44.782425"><ele>111.5</ele></trkpt>
<trkpt lon="0.203762" lat="44.782457"><ele>111.25</ele></trkpt>
<trkpt lon="0.203613" lat="44.782503"><ele>110.0</ele></trkpt>
<trkpt lon="0.203513" lat="44.782496"><ele>110.25</ele></trkpt>
<trkpt lon="0.203297" lat="44.782356"><ele>111.25</ele></trkpt>
<trkpt lon="0.203061" lat="44.782138"><ele>110.25</ele></trkpt>
<trkpt lon="0.202756" lat="44.781759"><ele>109.25</ele></trkpt>
<trkpt lon="0.202068" lat="44.780503"><ele>111.75</ele></trkpt>
<trkpt lon="0.201889" lat="44.780052"><ele>110.0</ele></trkpt>
<trkpt lon="0.201362" lat="44.778521"><ele>95.5</ele></trkpt>
<trkpt lon="0.199804" lat="44.776523"><ele>83.5</ele></trkpt>
<trkpt lon="0.199660" lat="44.775573"><ele>77.75</ele></trkpt>
<trkpt lon="0.199432" lat="44.775152"><ele>72.75</ele></trkpt>
<trkpt lon="0.199570" lat="44.774878"><ele>72.0</ele></trkpt>
<trkpt lon="0.199915" lat="44.774662"><ele>71.5</ele></trkpt>
<trkpt lon="0.200218" lat="44.774486"><ele>71.5</ele></trkpt>
<trkpt lon="0.200326" lat="44.774281"><ele>69.5</ele></trkpt>
<trkpt lon="0.200390" lat="44.773952"><ele>66.0</ele></trkpt>
<trkpt lon="0.200441" lat="44.773802"><ele>65.25</ele></trkpt>
<trkpt lon="0.200461" lat="44.773730"><ele>65.0</ele></trkpt>
<trkpt lon="0.200312" lat="44.773645"><ele>64.0</ele></trkpt>
<trkpt lon="0.200336" lat="44.773499"><ele>64.0</ele></trkpt>
<trkpt lon="0.200407" lat="44.773395"><ele>64.0</ele></trkpt>
<trkpt lon="0.199273" lat="44.772585"><ele>63.0</ele></trkpt>
<trkpt lon="0.199146" lat="44.772390"><ele>63.25</ele></trkpt>
<trkpt lon="0.198992" lat="44.772220"><ele>64.0</ele></trkpt>
<trkpt lon="0.198951" lat="44.772175"><ele>64.5</ele></trkpt>
<trkpt lon="0.198902" lat="44.772120"><ele>65.25</ele></trkpt>
<trkpt lon="0.198461" lat="44.772428"><ele>65.25</ele></trkpt>
<trkpt lon="0.198122" lat="44.772702"><ele>65.25</ele></trkpt>
<trkpt lon="0.197688" lat="44.773111"><ele>64.5</ele></trkpt>
<trkpt lon="0.197362" lat="44.773323"><ele>64.0</ele></trkpt>
<trkpt lon="0.196989" lat="44.773468"><ele>63.75</ele></trkpt>
<trkpt lon="0.196718" lat="44.773527"><ele>64.0</ele></trkpt>
<trkpt lon="0.195931" lat="44.773699"><ele>63.0</ele></trkpt>
<trkpt lon="0.195678" lat="44.773620"><ele>62.75</ele></trkpt>
<trkpt lon="0.195424" lat="44.773382"><ele>63.0</ele></trkpt>
<trkpt lon="0.195261" lat="44.773147"><ele>63.0</ele></trkpt>
<trkpt lon="0.195041" lat="44.773008"><ele>63.75</ele></trkpt>
<trkpt lon="0.194921" lat="44.772950"><ele>63.75</ele></trkpt>
<trkpt lon="0.194773" lat="44.772756"><ele>64.0</ele></trkpt>
<trkpt lon="0.194648" lat="44.772573"><ele>64.0</ele></trkpt>
<trkpt lon="0.193342" lat="44.771479"><ele>67.0</ele></trkpt>
<trkpt lon="0.192448" lat="44.770931"><ele>67.5</ele></trkpt>
<trkpt lon="0.192122" lat="44.770676"><ele>67.5</ele></trkpt>
<trkpt lon="0.191804" lat="44.770450"><ele>67.5</ele></trkpt>
<trkpt lon="0.191397" lat="44.770272"><ele>67.0</ele></trkpt>
<trkpt lon="0.191167" lat="44.770114"><ele>68.5</ele></trkpt>
<trkpt lon="0.190971" lat="44.769931"><ele>69.0</ele></trkpt>
<trkpt lon="0.191059" lat="44.769748"><ele>71.5</ele></trkpt>
<trkpt lon="0.191130" lat="44.769666"><ele>72.25</ele></trkpt>
<trkpt lon="0.191181" lat="44.769609"><ele>72.5</ele></trkpt>
<trkpt lon="0.191258" lat="44.769422"><ele>73.5</ele></trkpt>
<trkpt lon="0.191397" lat="44.769126"><ele>74.25</ele></trkpt>
<trkpt lon="0.191628" lat="44.768751"><ele>76.5</ele></trkpt>
<trkpt lon="0.192180" lat="44.768071"><ele>80.0</ele></trkpt>
<trkpt lon="0.192180" lat="44.768004"><ele>80.25</ele></trkpt>
<trkpt lon="0.192116" lat="44.767962"><ele>80.5</ele></trkpt>
<trkpt lon="0.191944" lat="44.767878"><ele>81.5</ele></trkpt>
<trkpt lon="0.191936" lat="44.767821"><ele>81.75</ele></trkpt>
<trkpt lon="0.192835" lat="44.764786"><ele>93.5</ele></trkpt>
<trkpt lon="0.192876" lat="44.764768"><ele>93.25</ele></trkpt>
<trkpt lon="0.192938" lat="44.764766"><ele>93.25</ele></trkpt>
<trkpt lon="0.193332" lat="44.764830"><ele>91.5</ele></trkpt>
<trkpt lon="0.193390" lat="44.764821"><ele>91.25</ele></trkpt>
<trkpt lon="0.193432" lat="44.764792"><ele>91.25</ele></trkpt>
<trkpt lon="0.193867" lat="44.763780"><ele>94.75</ele></trkpt>
<trkpt lon="0.194047" lat="44.763519"><ele>96.25</ele></trkpt>
<trkpt lon="0.193996" lat="44.763472"><ele>96.5</ele></trkpt>
<trkpt lon="0.193436" lat="44.763194"><ele>99.25</ele></trkpt>
<trkpt lon="0.193310" lat="44.763184"><ele>100.0</ele></trkpt>
<trkpt lon="0.193234" lat="44.763289"><ele>99.75</ele></trkpt>
<trkpt lon="0.193135" lat="44.763464"><ele>99.75</ele></trkpt>
<trkpt lon="0.193039" lat="44.763466"><ele>100.5</ele></trkpt>
<trkpt lon="0.192105" lat="44.763183"><ele>104.5</ele></trkpt>
<trkpt lon="0.192116" lat="44.763143"><ele>104.75</ele></trkpt>
<trkpt lon="0.192654" lat="44.762026"><ele>106.75</ele></trkpt>
<trkpt lon="0.191701" lat="44.761547"><ele>106.5</ele></trkpt>
<trkpt lon="0.191088" lat="44.761214"><ele>106.75</ele></trkpt>
<trkpt lon="0.190694" lat="44.760983"><ele>107.75</ele></trkpt>
<trkpt lon="0.190205" lat="44.760452"><ele>111.75</ele></trkpt>
<trkpt lon="0.189866" lat="44.760028"><ele>113.75</ele></trkpt>
<trkpt lon="0.189772" lat="44.759778"><ele>114.0</ele></trkpt>
<trkpt lon="0.189785" lat="44.758470"><ele>114.0</ele></trkpt>
<trkpt lon="0.189704" lat="44.757777"><ele>113.75</ele></trkpt>
<trkpt lon="0.189511" lat="44.757537"><ele>113.0</ele></trkpt>
<trkpt lon="0.189458" lat="44.757470"><ele>113.0</ele></trkpt>
<trkpt lon="0.189394" lat="44.757381"><ele>113.25</ele></trkpt>
<trkpt lon="0.189247" lat="44.756963"><ele>114.0</ele></trkpt>
<trkpt lon="0.188694" lat="44.755413"><ele>113.25</ele></trkpt>
<trkpt lon="0.188290" lat="44.754363"><ele>114.0</ele></trkpt>
<trkpt lon="0.188078" lat="44.753973"><ele>114.75</ele></trkpt>
<trkpt lon="0.187430" lat="44.753134"><ele>115.5</ele></trkpt>
<trkpt lon="0.187399" lat="44.753074"><ele>115.5</ele></trkpt>
<trkpt lon="0.187400" lat="44.753029"><ele>115.5</ele></trkpt>
<trkpt lon="0.187356" lat="44.753008"><ele>115.5</ele></trkpt>
<trkpt lon="0.186722" lat="44.752116"><ele>116.25</ele></trkpt>
<trkpt lon="0.186051" lat="44.751240"><ele>119.5</ele></trkpt>
<trkpt lon="0.185743" lat="44.750547"><ele>120.5</ele></trkpt>
<trkpt lon="0.185091" lat="44.750035"><ele>121.75</ele></trkpt>
<trkpt lon="0.184446" lat="44.749086"><ele>124.25</ele></trkpt>
<trkpt lon="0.183664" lat="44.748168"><ele>123.25</ele></trkpt>
<trkpt lon="0.183139" lat="44.747230"><ele>122.25</ele></trkpt>
<trkpt lon="0.182259" lat="44.746714"><ele>122.5</ele></trkpt>
<trkpt lon="0.181698" lat="44.746409"><ele>124.0</ele></trkpt>
<trkpt lon="0.181167" lat="44.746082"><ele>124.5</ele></trkpt>
<trkpt lon="0.180692" lat="44.745745"><ele>124.5</ele></trkpt>
<trkpt lon="0.180257" lat="44.745463"><ele>124.5</ele></trkpt>
<trkpt lon="0.180238" lat="44.745425"><ele>124.5</ele></trkpt>
<trkpt lon="0.179869" lat="44.745002"><ele>124.25</ele></trkpt>
<trkpt lon="0.179713" lat="44.744842"><ele>123.75</ele></trkpt>
<trkpt lon="0.179542" lat="44.744579"><ele>123.25</ele></trkpt>
<trkpt lon="0.179048" lat="44.743550"><ele>121.5</ele></trkpt>
<trkpt lon="0.178573" lat="44.742858"><ele>120.5</ele></trkpt>
<trkpt lon="0.178166" lat="44.742472"><ele>119.75</ele></trkpt>
<trkpt lon="0.177704" lat="44.742013"><ele>117.75</ele></trkpt>
<trkpt lon="0.177716" lat="44.741954"><ele>117.75</ele></trkpt>
<trkpt lon="0.177603" lat="44.741891"><ele>118.0</ele></trkpt>
<trkpt lon="0.177435" lat="44.741773"><ele>117.75</ele></trkpt>
<trkpt lon="0.177287" lat="44.741641"><ele>118.0</ele></trkpt>
<trkpt lon="0.176708" lat="44.741091"><ele>118.75</ele></trkpt>
<trkpt lon="0.175988" lat="44.740601"><ele>120.0</ele></trkpt>
<trkpt lon="0.175836" lat="44.740490"><ele>120.0</ele></trkpt>
<trkpt lon="0.174067" lat="44.738484"><ele>121.5</ele></trkpt>
<trkpt lon="0.174801" lat="44.738157"><ele>122.5</ele></trkpt>
<trkpt lon="0.175204" lat="44.737814"><ele>122.75</ele></trkpt>
<trkpt lon="0.175703" lat="44.737324"><ele>122.0</ele></trkpt>
<trkpt lon="0.175888" lat="44.737143"><ele>122.0</ele></trkpt>
<trkpt lon="0.176647" lat="44.736210"><ele>121.25</ele></trkpt>
<trkpt lon="0.177429" lat="44.735140"><ele>121.25</ele></trkpt>
<trkpt lon="0.179215" lat="44.732637"><ele>122.75</ele></trkpt>
<trkpt lon="0.178104" lat="44.732037"><ele>124.5</ele></trkpt>
<trkpt lon="0.177523" lat="44.731553"><ele>125.0</ele></trkpt>
<trkpt lon="0.177286" lat="44.731443"><ele>125.0</ele></trkpt>
<trkpt lon="0.176857" lat="44.731164"><ele>123.75</ele></trkpt>
<trkpt lon="0.175742" lat="44.730232"><ele>117.75</ele></trkpt>
<trkpt lon="0.174029" lat="44.728851"><ele>115.75</ele></trkpt>
<trkpt lon="0.173867" lat="44.728748"><ele>115.25</ele></trkpt>
<trkpt lon="0.173363" lat="44.728530"><ele>113.25</ele></trkpt>
<trkpt lon="0.172937" lat="44.728451"><ele>112.0</ele></trkpt>
<trkpt lon="0.172715" lat="44.728439"><ele>111.75</ele></trkpt>
<trkpt lon="0.172096" lat="44.728321"><ele>112.25</ele></trkpt>
<trkpt lon="0.168266" lat="44.725247"><ele>117.0</ele></trkpt>
<trkpt lon="0.169130" lat="44.721900"><ele>115.0</ele></trkpt>
<trkpt lon="0.169372" lat="44.719978"><ele>114.75</ele></trkpt>
<trkpt lon="0.169395" lat="44.719917"><ele>115.0</ele></trkpt>
<trkpt lon="0.169116" lat="44.719141"><ele>113.0</ele></trkpt>
<trkpt lon="0.167508" lat="44.716305"><ele>108.25</ele></trkpt>
<trkpt lon="0.167022" lat="44.715478"><ele>111.25</ele></trkpt>
<trkpt lon="0.166769" lat="44.714914"><ele>113.5</ele></trkpt>
<trkpt lon="0.166720" lat="44.714574"><ele>113.0</ele></trkpt>
<trkpt lon="0.166620" lat="44.714309"><ele>112.75</ele></trkpt>
<trkpt lon="0.165539" lat="44.712896"><ele>109.5</ele></trkpt>
<trkpt lon="0.165440" lat="44.712593"><ele>110.0</ele></trkpt>
<trkpt lon="0.165441" lat="44.711930"><ele>110.25</ele></trkpt>
<trkpt lon="0.165243" lat="44.710657"><ele>108.5</ele></trkpt>
<trkpt lon="0.165092" lat="44.710293"><ele>107.25</ele></trkpt>
<trkpt lon="0.163988" lat="44.708837"><ele>106.25</ele></trkpt>
<trkpt lon="0.163754" lat="44.708316"><ele>108.25</ele></trkpt>
<trkpt lon="0.163295" lat="44.707168"><ele>111.5</ele></trkpt>
<trkpt lon="0.163104" lat="44.706588"><ele>114.25</ele></trkpt>
<trkpt lon="0.163038" lat="44.705518"><ele>114.75</ele></trkpt>
<trkpt lon="0.162938" lat="44.704840"><ele>115.0</ele></trkpt>
<trkpt lon="0.162660" lat="44.703920"><ele>111.5</ele></trkpt>
<trkpt lon="0.162480" lat="44.703272"><ele>108.0</ele></trkpt>
<trkpt lon="0.162445" lat="44.703172"><ele>108.0</ele></trkpt>
<trkpt lon="0.162315" lat="44.702605"><ele>107.0</ele></trkpt>
<trkpt lon="0.162291" lat="44.702042"><ele>108.5</ele></trkpt>
<trkpt lon="0.162235" lat="44.701766"><ele>109.5</ele></trkpt>
<trkpt lon="0.162255" lat="44.701224"><ele>111.0</ele></trkpt>
<trkpt lon="0.162169" lat="44.700696"><ele>111.25</ele></trkpt>
<trkpt lon="0.161978" lat="44.700246"><ele>112.0</ele></trkpt>
<trkpt lon="0.161605" lat="44.699546"><ele>113.75</ele></trkpt>
<trkpt lon="0.161415" lat="44.699189"><ele>114.0</ele></trkpt>
<trkpt lon="0.160445" lat="44.697796"><ele>114.0</ele></trkpt>
<trkpt lon="0.160281" lat="44.697459"><ele>114.0</ele></trkpt>
<trkpt lon="0.160102" lat="44.696662"><ele>110.5</ele></trkpt>
<trkpt lon="0.159994" lat="44.696305"><ele>108.5</ele></trkpt>
<trkpt lon="0.159822" lat="44.696048"><ele>107.0</ele></trkpt>
<trkpt lon="0.159305" lat="44.695584"><ele>106.0</ele></trkpt>
<trkpt lon="0.158240" lat="44.694681"><ele>106.0</ele></trkpt>
<trkpt lon="0.158071" lat="44.694470"><ele>106.0</ele></trkpt>
<trkpt lon="0.157770" lat="44.693868"><ele>105.75</ele></trkpt>
<trkpt lon="0.157620" lat="44.693585"><ele>104.25</ele></trkpt>
<trkpt lon="0.157470" lat="44.693402"><ele>103.5</ele></trkpt>
<trkpt lon="0.157309" lat="44.693326"><ele>103.5</ele></trkpt>
<trkpt lon="0.156826" lat="44.693319"><ele>103.75</ele></trkpt>
<trkpt lon="0.156339" lat="44.693329"><ele>104.0</ele></trkpt>
<trkpt lon="0.155810" lat="44.693348"><ele>104.0</ele></trkpt>
<trkpt lon="0.155505" lat="44.693386"><ele>105.0</ele></trkpt>
<trkpt lon="0.155244" lat="44.693437"><ele>105.0</ele></trkpt>
<trkpt lon="0.154984" lat="44.693508"><ele>105.25</ele></trkpt>
<trkpt lon="0.154787" lat="44.693514"><ele>105.25</ele></trkpt>
<trkpt lon="0.154670" lat="44.693450"><ele>105.75</ele></trkpt>
<trkpt lon="0.154607" lat="44.693297"><ele>106.25</ele></trkpt>
<trkpt lon="0.154562" lat="44.693086"><ele>106.75</ele></trkpt>
<trkpt lon="0.154455" lat="44.693004"><ele>106.75</ele></trkpt>
<trkpt lon="0.154185" lat="44.692997"><ele>106.75</ele></trkpt>
<trkpt lon="0.152902" lat="44.693055"><ele>106.25</ele></trkpt>
<trkpt lon="0.152588" lat="44.693055"><ele>106.0</ele></trkpt>
<trkpt lon="0.152292" lat="44.692972"><ele>106.75</ele></trkpt>
<trkpt lon="0.151879" lat="44.692838"><ele>106.0</ele></trkpt>
<trkpt lon="0.151394" lat="44.692736"><ele>104.75</ele></trkpt>
<trkpt lon="0.150586" lat="44.692672"><ele>99.5</ele></trkpt>
<trkpt lon="0.150138" lat="44.692678"><ele>97.0</ele></trkpt>
<trkpt lon="0.149517" lat="44.692843"><ele>91.25</ele></trkpt>
<trkpt lon="0.149526" lat="44.692607"><ele>93.25</ele></trkpt>
<trkpt lon="0.149490" lat="44.692180"><ele>96.5</ele></trkpt>
<trkpt lon="0.149477" lat="44.691564"><ele>98.5</ele></trkpt>
<trkpt lon="0.149504" lat="44.691293"><ele>98.5</ele></trkpt>
<trkpt lon="0.149612" lat="44.691012"><ele>98.25</ele></trkpt>
<trkpt lon="0.149916" lat="44.690490"><ele>95.0</ele></trkpt>
<trkpt lon="0.149962" lat="44.690397"><ele>94.0</ele></trkpt>
<trkpt lon="0.150077" lat="44.690388"><ele>93.0</ele></trkpt>
<trkpt lon="0.150452" lat="44.690109"><ele>86.75</ele></trkpt>
<trkpt lon="0.150744" lat="44.689707"><ele>78.0</ele></trkpt>
<trkpt lon="0.150937" lat="44.689527"><ele>74.0</ele></trkpt>
<trkpt lon="0.151858" lat="44.688923"><ele>64.25</ele></trkpt>
<trkpt lon="0.152684" lat="44.688419"><ele>59.25</ele></trkpt>
<trkpt lon="0.153464" lat="44.687991"><ele>56.25</ele></trkpt>
<trkpt lon="0.154715" lat="44.687335"><ele>51.0</ele></trkpt>
<trkpt lon="0.154645" lat="44.687245"><ele>51.25</ele></trkpt>
<trkpt lon="0.154638" lat="44.687141"><ele>52.0</ele></trkpt>
<trkpt lon="0.154515" lat="44.686443"><ele>58.5</ele></trkpt>
<trkpt lon="0.154463" lat="44.686328"><ele>60.0</ele></trkpt>
<trkpt lon="0.154382" lat="44.686241"><ele>61.5</ele></trkpt>
<trkpt lon="0.154317" lat="44.686199"><ele>62.0</ele></trkpt>
<trkpt lon="0.154082" lat="44.686073"><ele>63.75</ele></trkpt>
<trkpt lon="0.153771" lat="44.685850"><ele>68.25</ele></trkpt>
<trkpt lon="0.153584" lat="44.685669"><ele>71.0</ele></trkpt>
<trkpt lon="0.153508" lat="44.685574"><ele>73.0</ele></trkpt>
<trkpt lon="0.153394" lat="44.685459"><ele>75.0</ele></trkpt>
<trkpt lon="0.153308" lat="44.685401"><ele>76.0</ele></trkpt>
<trkpt lon="0.153118" lat="44.685338"><ele>76.75</ele></trkpt>
<trkpt lon="0.152994" lat="44.685290"><ele>77.5</ele></trkpt>
<trkpt lon="0.152889" lat="44.685241"><ele>77.25</ele></trkpt>
<trkpt lon="0.152842" lat="44.685172"><ele>77.5</ele></trkpt>
<trkpt lon="0.152629" lat="44.685183"><ele>77.5</ele></trkpt>
<trkpt lon="0.152154" lat="44.685230"><ele>79.25</ele></trkpt>
<trkpt lon="0.151056" lat="44.685198"><ele>84.75</ele></trkpt>
<trkpt lon="0.150848" lat="44.685179"><ele>86.75</ele></trkpt>
<trkpt lon="0.150272" lat="44.685043"><ele>90.75</ele></trkpt>
<trkpt lon="0.149994" lat="44.685003"><ele>91.0</ele></trkpt>
<trkpt lon="0.148991" lat="44.684948"><ele>89.5</ele></trkpt>
<trkpt lon="0.148451" lat="44.684863"><ele>88.5</ele></trkpt>
<trkpt lon="0.148012" lat="44.684757"><ele>88.25</ele></trkpt>
<trkpt lon="0.147789" lat="44.684670"><ele>88.75</ele></trkpt>
<trkpt lon="0.147528" lat="44.684544"><ele>89.0</ele></trkpt>
<trkpt lon="0.147282" lat="44.684493"><ele>88.75</ele></trkpt>
<trkpt lon="0.147079" lat="44.684489"><ele>89.75</ele></trkpt>
<trkpt lon="0.146977" lat="44.684499"><ele>90.5</ele></trkpt>
<trkpt lon="0.146228" lat="44.684230"><ele>88.25</ele></trkpt>
<trkpt lon="0.146048" lat="44.684101"><ele>87.75</ele></trkpt>
<trkpt lon="0.145866" lat="44.683670"><ele>87.0</ele></trkpt>
<trkpt lon="0.145678" lat="44.683299"><ele>83.5</ele></trkpt>
<trkpt lon="0.145232" lat="44.682561"><ele>75.75</ele></trkpt>
<trkpt lon="0.145177" lat="44.682367"><ele>74.25</ele></trkpt>
<trkpt lon="0.144867" lat="44.681806"><ele>65.75</ele></trkpt>
<trkpt lon="0.144557" lat="44.681499"><ele>61.0</ele></trkpt>
<trkpt lon="0.144240" lat="44.681232"><ele>57.0</ele></trkpt>
<trkpt lon="0.144059" lat="44.681182"><ele>55.0</ele></trkpt>
<trkpt lon="0.143627" lat="44.681090"><ele>49.75</ele></trkpt>
<trkpt lon="0.143355" lat="44.680998"><ele>47.5</ele></trkpt>
<trkpt lon="0.142552" lat="44.680675"><ele>44.25</ele></trkpt>
<trkpt lon="0.142356" lat="44.680623"><ele>43.75</ele></trkpt>
<trkpt lon="0.142210" lat="44.680623"><ele>43.25</ele></trkpt>
<trkpt lon="0.142096" lat="44.680646"><ele>43.5</ele></trkpt>
<trkpt lon="0.141196" lat="44.681168"><ele>42.25</ele></trkpt>
<trkpt lon="0.141105" lat="44.681172"><ele>41.75</ele></trkpt>
<trkpt lon="0.141000" lat="44.681139"><ele>41.0</ele></trkpt>
<trkpt lon="0.140114" lat="44.680568"><ele>39.25</ele></trkpt>
<trkpt lon="0.139925" lat="44.680396"><ele>39.25</ele></trkpt>
<trkpt lon="0.139437" lat="44.679816"><ele>41.25</ele></trkpt>
<trkpt lon="0.139135" lat="44.679516"><ele>40.75</ele></trkpt>
<trkpt lon="0.138284" lat="44.678911"><ele>39.0</ele></trkpt>
<trkpt lon="0.137419" lat="44.678346"><ele>42.5</ele></trkpt>
<trkpt lon="0.137322" lat="44.678229"><ele>41.75</ele></trkpt>
<trkpt lon="0.137028" lat="44.677882"><ele>40.5</ele></trkpt>
<trkpt lon="0.136727" lat="44.677547"><ele>39.25</ele></trkpt>
<trkpt lon="0.136341" lat="44.677182"><ele>38.0</ele></trkpt>
<trkpt lon="0.136259" lat="44.677021"><ele>38.5</ele></trkpt>
<trkpt lon="0.135995" lat="44.676981"><ele>38.75</ele></trkpt>
<trkpt lon="0.135966" lat="44.676864"><ele>39.25</ele></trkpt>
<trkpt lon="0.135314" lat="44.676013"><ele>44.75</ele></trkpt>
<trkpt lon="0.135269" lat="44.675905"><ele>45.25</ele></trkpt>
<trkpt lon="0.135037" lat="44.675345"><ele>45.0</ele></trkpt>
<trkpt lon="0.134992" lat="44.675234"><ele>44.75</ele></trkpt>
<trkpt lon="0.134897" lat="44.674879"><ele>44.0</ele></trkpt>
<trkpt lon="0.134404" lat="44.672955"><ele>41.25</ele></trkpt>
<trkpt lon="0.133230" lat="44.673102"><ele>38.75</ele></trkpt>
<trkpt lon="0.132550" lat="44.673200"><ele>37.0</ele></trkpt>
<trkpt lon="0.132244" lat="44.673227"><ele>35.75</ele></trkpt>
<trkpt lon="0.131959" lat="44.673231"><ele>35.25</ele></trkpt>
<trkpt lon="0.130452" lat="44.673200"><ele>28.25</ele></trkpt>
<trkpt lon="0.130329" lat="44.673216"><ele>28.0</ele></trkpt>
<trkpt lon="0.130195" lat="44.673254"><ele>27.5</ele></trkpt>
<trkpt lon="0.130078" lat="44.673299"><ele>26.5</ele></trkpt>
<trkpt lon="0.130036" lat="44.673334"><ele>26.25</ele></trkpt>
<trkpt lon="0.129964" lat="44.673410"><ele>26.5</ele></trkpt>
<trkpt lon="0.129803" lat="44.673517"><ele>27.75</ele></trkpt>
<trkpt lon="0.129357" lat="44.673639"><ele>28.0</ele></trkpt>
<trkpt lon="0.129050" lat="44.673699"><ele>28.5</ele></trkpt>
<trkpt lon="0.128994" lat="44.673696"><ele>28.5</ele></trkpt>
<trkpt lon="0.129139" lat="44.673173"><ele>28.5</ele></trkpt>
<trkpt lon="0.129175" lat="44.673006"><ele>28.75</ele></trkpt>
<trkpt lon="0.129183" lat="44.672872"><ele>28.75</ele></trkpt>
<trkpt lon="0.129152" lat="44.672723"><ele>28.75</ele></trkpt>
<trkpt lon="0.128884" lat="44.671979"><ele>28.0</ele></trkpt>
<trkpt lon="0.128792" lat="44.671615"><ele>28.0</ele></trkpt>
<trkpt lon="0.128691" lat="44.670942"><ele>28.0</ele></trkpt>
<trkpt lon="0.128651" lat="44.670130"><ele>28.75</ele></trkpt>
<trkpt lon="0.128680" lat="44.669795"><ele>27.25</ele></trkpt>
<trkpt lon="0.128709" lat="44.669703"><ele>27.25</ele></trkpt>
<trkpt lon="0.128813" lat="44.669180"><ele>27.0</ele></trkpt>
<trkpt lon="0.128930" lat="44.668647"><ele>27.0</ele></trkpt>
<trkpt lon="0.129005" lat="44.668455"><ele>26.5</ele></trkpt>
<trkpt lon="0.129113" lat="44.668310"><ele>26.5</ele></trkpt>
<trkpt lon="0.129246" lat="44.668186"><ele>26.5</ele></trkpt>
<trkpt lon="0.129424" lat="44.668062"><ele>27.75</ele></trkpt>
<trkpt lon="0.129813" lat="44.667777"><ele>26.0</ele></trkpt>
<trkpt lon="0.130169" lat="44.667534"><ele>26.0</ele></trkpt>
<trkpt lon="0.130330" lat="44.667397"><ele>26.0</ele></trkpt>
<trkpt lon="0.130479" lat="44.667238"><ele>26.0</ele></trkpt>
<trkpt lon="0.130579" lat="44.667043"><ele>26.0</ele></trkpt>
<trkpt lon="0.130618" lat="44.666857"><ele>26.0</ele></trkpt>
<trkpt lon="0.130644" lat="44.666686"><ele>26.0</ele></trkpt>
<trkpt lon="0.130616" lat="44.666518"><ele>26.0</ele></trkpt>
<trkpt lon="0.130540" lat="44.666357"><ele>26.0</ele></trkpt>
<trkpt lon="0.130417" lat="44.666186"><ele>26.0</ele></trkpt>
<trkpt lon="0.129189" lat="44.664837"><ele>26.5</ele></trkpt>
<trkpt lon="0.128653" lat="44.663986"><ele>27.25</ele></trkpt>
<trkpt lon="0.128528" lat="44.663842"><ele>27.75</ele></trkpt>
<trkpt lon="0.128345" lat="44.663674"><ele>27.75</ele></trkpt>
<trkpt lon="0.127946" lat="44.663332"><ele>30.25</ele></trkpt>
<trkpt lon="0.127893" lat="44.663352"><ele>30.5</ele></trkpt>
<trkpt lon="0.127644" lat="44.663401"><ele>31.0</ele></trkpt>
<trkpt lon="0.127301" lat="44.663431"><ele>31.25</ele></trkpt>
<trkpt lon="0.127014" lat="44.663438"><ele>31.0</ele></trkpt>
<trkpt lon="0.126754" lat="44.663435"><ele>31.5</ele></trkpt>
<trkpt lon="0.125846" lat="44.663343"><ele>31.75</ele></trkpt>
<trkpt lon="0.125158" lat="44.663283"><ele>32.0</ele></trkpt>
<trkpt lon="0.124664" lat="44.663315"><ele>32.25</ele></trkpt>
<trkpt lon="0.124069" lat="44.663402"><ele>33.25</ele></trkpt>
<trkpt lon="0.123685" lat="44.663448"><ele>34.25</ele></trkpt>
<trkpt lon="0.123407" lat="44.663460"><ele>34.5</ele></trkpt>
<trkpt lon="0.119966" lat="44.663390"><ele>34.0</ele></trkpt>
<trkpt lon="0.119827" lat="44.663399"><ele>34.0</ele></trkpt>
<trkpt lon="0.119701" lat="44.663413"><ele>34.0</ele></trkpt>
<trkpt lon="0.119489" lat="44.663460"><ele>34.0</ele></trkpt>
<trkpt lon="0.118340" lat="44.663738"><ele>33.0</ele></trkpt>
<trkpt lon="0.117615" lat="44.663921"><ele>33.0</ele></trkpt>
<trkpt lon="0.117502" lat="44.663939"><ele>33.0</ele></trkpt>
<trkpt lon="0.117437" lat="44.663934"><ele>32.75</ele></trkpt>
<trkpt lon="0.117375" lat="44.663917"><ele>32.5</ele></trkpt>
<trkpt lon="0.117339" lat="44.663885"><ele>32.25</ele></trkpt>
<trkpt lon="0.117321" lat="44.663846"><ele>32.25</ele></trkpt>
<trkpt lon="0.116679" lat="44.661856"><ele>33.0</ele></trkpt>
<trkpt lon="0.116650" lat="44.661818"><ele>32.75</ele></trkpt>
<trkpt lon="0.116615" lat="44.661791"><ele>32.75</ele></trkpt>
<trkpt lon="0.116541" lat="44.661754"><ele>32.5</ele></trkpt>
<trkpt lon="0.116472" lat="44.661742"><ele>32.25</ele></trkpt>
<trkpt lon="0.116396" lat="44.661741"><ele>32.0</ele></trkpt>
<trkpt lon="0.115642" lat="44.661783"><ele>31.0</ele></trkpt>
<trkpt lon="0.115530" lat="44.661785"><ele>31.0</ele></trkpt>
<trkpt lon="0.115333" lat="44.661773"><ele>31.0</ele></trkpt>
<trkpt lon="0.114393" lat="44.661598"><ele>30.75</ele></trkpt>
<trkpt lon="0.114018" lat="44.661515"><ele>30.0</ele></trkpt>
<trkpt lon="0.113778" lat="44.661538"><ele>30.0</ele></trkpt>
<trkpt lon="0.113523" lat="44.661581"><ele>30.0</ele></trkpt>
<trkpt lon="0.113040" lat="44.661667"><ele>29.75</ele></trkpt>
<trkpt lon="0.112603" lat="44.661718"><ele>29.25</ele></trkpt>
<trkpt lon="0.112163" lat="44.661748"><ele>29.0</ele></trkpt>
<trkpt lon="0.112019" lat="44.661750"><ele>29.0</ele></trkpt>
<trkpt lon="0.111643" lat="44.661717"><ele>28.75</ele></trkpt>
<trkpt lon="0.111405" lat="44.661723"><ele>28.75</ele></trkpt>
<trkpt lon="0.110872" lat="44.661752"><ele>28.0</ele></trkpt>
<trkpt lon="0.110205" lat="44.661765"><ele>28.0</ele></trkpt>
<trkpt lon="0.109577" lat="44.661770"><ele>28.0</ele></trkpt>
<trkpt lon="0.109315" lat="44.661763"><ele>28.0</ele></trkpt>
<trkpt lon="0.109201" lat="44.661899"><ele>28.0</ele></trkpt>
<trkpt lon="0.108562" lat="44.662609"><ele>28.0</ele></trkpt>
<trkpt lon="0.108378" lat="44.662787"><ele>27.75</ele></trkpt>
<trkpt lon="0.108273" lat="44.662862"><ele>27.75</ele></trkpt>
<trkpt lon="0.108147" lat="44.662921"><ele>27.75</ele></trkpt>
<trkpt lon="0.108082" lat="44.662937"><ele>27.75</ele></trkpt>
<trkpt lon="0.108050" lat="44.662945"><ele>28.0</ele></trkpt>
<trkpt lon="0.107949" lat="44.662952"><ele>28.0</ele></trkpt>
<trkpt lon="0.107870" lat="44.662944"><ele>28.0</ele></trkpt>
<trkpt lon="0.107799" lat="44.662928"><ele>28.0</ele></trkpt>
<trkpt lon="0.107462" lat="44.662825"><ele>27.75</ele></trkpt>
<trkpt lon="0.107382" lat="44.662809"><ele>27.75</ele></trkpt>
<trkpt lon="0.107183" lat="44.662812"><ele>27.75</ele></trkpt>
<trkpt lon="0.106205" lat="44.662933"><ele>27.0</ele></trkpt>
<trkpt lon="0.106109" lat="44.662914"><ele>27.0</ele></trkpt>
<trkpt lon="0.105988" lat="44.662889"><ele>27.0</ele></trkpt>
<trkpt lon="0.105340" lat="44.662377"><ele>27.0</ele></trkpt>
<trkpt lon="0.104857" lat="44.661874"><ele>26.0</ele></trkpt>
<trkpt lon="0.104797" lat="44.661822"><ele>26.0</ele></trkpt>
<trkpt lon="0.104853" lat="44.660723"><ele>27.0</ele></trkpt>
<trkpt lon="0.104829" lat="44.660581"><ele>26.75</ele></trkpt>
<trkpt lon="0.104609" lat="44.660554"><ele>27.0</ele></trkpt>
<trkpt lon="0.103536" lat="44.660649"><ele>27.0</ele></trkpt>
<trkpt lon="0.102343" lat="44.660624"><ele>26.0</ele></trkpt>
<trkpt lon="0.101543" lat="44.660619"><ele>25.75</ele></trkpt>
<trkpt lon="0.101312" lat="44.660559"><ele>26.0</ele></trkpt>
<trkpt lon="0.101059" lat="44.660470"><ele>26.0</ele></trkpt>
<trkpt lon="0.100793" lat="44.660303"><ele>26.0</ele></trkpt>
<trkpt lon="0.100026" lat="44.659738"><ele>26.0</ele></trkpt>
<trkpt lon="0.099939" lat="44.659622"><ele>26.0</ele></trkpt>
<trkpt lon="0.099864" lat="44.659412"><ele>26.0</ele></trkpt>
<trkpt lon="0.099779" lat="44.659324"><ele>26.0</ele></trkpt>
<trkpt lon="0.099465" lat="44.659181"><ele>26.0</ele></trkpt>
<trkpt lon="0.099050" lat="44.659004"><ele>26.0</ele></trkpt>
<trkpt lon="0.098601" lat="44.658835"><ele>26.0</ele></trkpt>
<trkpt lon="0.097854" lat="44.658517"><ele>26.25</ele></trkpt>
<trkpt lon="0.097427" lat="44.658424"><ele>26.25</ele></trkpt>
<trkpt lon="0.096403" lat="44.658238"><ele>25.25</ele></trkpt>
<trkpt lon="0.096079" lat="44.658141"><ele>25.0</ele></trkpt>
<trkpt lon="0.094837" lat="44.657554"><ele>25.25</ele></trkpt>
<trkpt lon="0.093917" lat="44.657045"><ele>25.0</ele></trkpt>
<trkpt lon="0.093325" lat="44.656703"><ele>24.75</ele></trkpt>
<trkpt lon="0.092923" lat="44.656539"><ele>25.0</ele></trkpt>
<trkpt lon="0.091970" lat="44.656295"><ele>24.25</ele></trkpt>
<trkpt lon="0.091577" lat="44.656135"><ele>24.5</ele></trkpt>
<trkpt lon="0.090274" lat="44.655372"><ele>24.25</ele></trkpt>
<trkpt lon="0.090128" lat="44.655198"><ele>24.5</ele></trkpt>
<trkpt lon="0.089880" lat="44.654875"><ele>24.25</ele></trkpt>
<trkpt lon="0.089766" lat="44.654778"><ele>24.25</ele></trkpt>
<trkpt lon="0.088663" lat="44.653962"><ele>25.5</ele></trkpt>
<trkpt lon="0.088153" lat="44.653537"><ele>25.25</ele></trkpt>
<trkpt lon="0.088111" lat="44.653585"><ele>24.0</ele></trkpt>
<trkpt lon="0.088076" lat="44.653639"><ele>23.25</ele></trkpt>
<trkpt lon="0.088003" lat="44.653613"><ele>22.5</ele></trkpt>
<trkpt lon="0.087512" lat="44.653274"><ele>23.5</ele></trkpt>
<trkpt lon="0.087237" lat="44.653252"><ele>25.0</ele></trkpt>
<trkpt lon="0.086787" lat="44.653310"><ele>23.75</ele></trkpt>
<trkpt lon="0.086158" lat="44.653529"><ele>22.25</ele></trkpt>
<trkpt lon="0.085913" lat="44.653574"><ele>21.5</ele></trkpt>
<trkpt lon="0.085659" lat="44.653583"><ele>22.5</ele></trkpt>
<trkpt lon="0.085350" lat="44.653579"><ele>23.25</ele></trkpt>
<trkpt lon="0.084919" lat="44.653561"><ele>23.25</ele></trkpt>
<trkpt lon="0.084788" lat="44.653547"><ele>23.0</ele></trkpt>
<trkpt lon="0.084713" lat="44.653446"><ele>24.25</ele></trkpt>
<trkpt lon="0.084557" lat="44.653164"><ele>29.75</ele></trkpt>
<trkpt lon="0.084541" lat="44.653093"><ele>31.25</ele></trkpt>
<trkpt lon="0.084459" lat="44.652915"><ele>34.5</ele></trkpt>
<trkpt lon="0.084392" lat="44.652856"><ele>35.5</ele></trkpt>
<trkpt lon="0.084363" lat="44.652789"><ele>36.75</ele></trkpt>
<trkpt lon="0.084388" lat="44.652734"><ele>38.25</ele></trkpt>
<trkpt lon="0.084504" lat="44.652653"><ele>40.25</ele></trkpt>
<trkpt lon="0.084742" lat="44.652521"><ele>43.25</ele></trkpt>
<trkpt lon="0.084754" lat="44.652482"><ele>44.5</ele></trkpt>
<trkpt lon="0.084717" lat="44.652453"><ele>45.75</ele></trkpt>
<trkpt lon="0.084650" lat="44.652436"><ele>46.75</ele></trkpt>
<trkpt lon="0.084544" lat="44.652442"><ele>47.0</ele></trkpt>
<trkpt lon="0.084202" lat="44.652478"><ele>48.5</ele></trkpt>
<trkpt lon="0.084111" lat="44.652473"><ele>49.5</ele></trkpt>
<trkpt lon="0.084067" lat="44.652465"><ele>50.25</ele></trkpt>
<trkpt lon="0.084058" lat="44.652448"><ele>51.0</ele></trkpt>
<trkpt lon="0.084073" lat="44.652427"><ele>51.75</ele></trkpt>
<trkpt lon="0.084197" lat="44.652379"><ele>52.5</ele></trkpt>
<trkpt lon="0.084347" lat="44.652337"><ele>53.25</ele></trkpt>
<trkpt lon="0.084523" lat="44.652314"><ele>53.0</ele></trkpt>
<trkpt lon="0.084642" lat="44.652285"><ele>53.0</ele></trkpt>
<trkpt lon="0.084692" lat="44.652257"><ele>53.75</ele></trkpt>
<trkpt lon="0.084708" lat="44.652223"><ele>55.0</ele></trkpt>
<trkpt lon="0.084674" lat="44.652207"><ele>55.75</ele></trkpt>
<trkpt lon="0.084605" lat="44.652198"><ele>56.75</ele></trkpt>
<trkpt lon="0.084470" lat="44.652219"><ele>57.75</ele></trkpt>
<trkpt lon="0.084324" lat="44.652190"><ele>59.0</ele></trkpt>
<trkpt lon="0.084182" lat="44.652187"><ele>59.5</ele></trkpt>
<trkpt lon="0.083844" lat="44.652269"><ele>60.5</ele></trkpt>
<trkpt lon="0.083692" lat="44.652359"><ele>59.0</ele></trkpt>
<trkpt lon="0.083661" lat="44.652374"><ele>58.75</ele></trkpt>
<trkpt lon="0.083589" lat="44.652377"><ele>59.75</ele></trkpt>
<trkpt lon="0.083522" lat="44.652407"><ele>59.5</ele></trkpt>
<trkpt lon="0.083277" lat="44.652516"><ele>59.75</ele></trkpt>
<trkpt lon="0.083132" lat="44.652555"><ele>59.5</ele></trkpt>
<trkpt lon="0.082961" lat="44.652601"><ele>59.0</ele></trkpt>
<trkpt lon="0.082820" lat="44.652628"><ele>59.25</ele></trkpt>
<trkpt lon="0.082559" lat="44.652674"><ele>60.0</ele></trkpt>
<trkpt lon="0.082278" lat="44.652694"><ele>60.5</ele></trkpt>
<trkpt lon="0.082091" lat="44.652708"><ele>60.0</ele></trkpt>
<trkpt lon="0.081887" lat="44.652713"><ele>59.5</ele></trkpt>
<trkpt lon="0.081611" lat="44.652737"><ele>59.5</ele></trkpt>
<trkpt lon="0.081322" lat="44.652787"><ele>58.5</ele></trkpt>
<trkpt lon="0.080794" lat="44.652854"><ele>58.0</ele></trkpt>
<trkpt lon="0.080599" lat="44.652857"><ele>57.5</ele></trkpt>
<trkpt lon="0.080454" lat="44.652849"><ele>57.5</ele></trkpt>
<trkpt lon="0.080240" lat="44.652816"><ele>57.75</ele></trkpt>
<trkpt lon="0.080079" lat="44.652777"><ele>57.0</ele></trkpt>
<trkpt lon="0.079841" lat="44.652685"><ele>54.75</ele></trkpt>
<trkpt lon="0.079796" lat="44.652652"><ele>54.5</ele></trkpt>
<trkpt lon="0.079765" lat="44.652586"><ele>55.0</ele></trkpt>
<trkpt lon="0.079761" lat="44.652519"><ele>56.25</ele></trkpt>
<trkpt lon="0.079710" lat="44.652271"><ele>58.25</ele></trkpt>
<trkpt lon="0.079285" lat="44.652132"><ele>55.75</ele></trkpt>
<trkpt lon="0.079201" lat="44.652105"><ele>56.0</ele></trkpt>
<trkpt lon="0.079094" lat="44.652043"><ele>56.0</ele></trkpt>
<trkpt lon="0.079030" lat="44.651992"><ele>55.75</ele></trkpt>
<trkpt lon="0.078992" lat="44.651896"><ele>56.25</ele></trkpt>
<trkpt lon="0.079032" lat="44.651608"><ele>58.0</ele></trkpt>
<trkpt lon="0.079083" lat="44.651530"><ele>58.25</ele></trkpt>
<trkpt lon="0.079087" lat="44.651481"><ele>58.0</ele></trkpt>
<trkpt lon="0.078931" lat="44.651226"><ele>55.0</ele></trkpt>
<trkpt lon="0.078838" lat="44.651112"><ele>53.5</ele></trkpt>
<trkpt lon="0.078780" lat="44.651073"><ele>53.5</ele></trkpt>
<trkpt lon="0.078745" lat="44.650980"><ele>54.0</ele></trkpt>
<trkpt lon="0.078670" lat="44.650892"><ele>54.0</ele></trkpt>
<trkpt lon="0.078186" lat="44.650563"><ele>56.5</ele></trkpt>
<trkpt lon="0.077580" lat="44.650286"><ele>56.25</ele></trkpt>
<trkpt lon="0.077383" lat="44.650172"><ele>56.25</ele></trkpt>
<trkpt lon="0.075721" lat="44.648930"><ele>56.0</ele></trkpt>
<trkpt lon="0.075067" lat="44.648399"><ele>57.0</ele></trkpt>
<trkpt lon="0.074986" lat="44.648286"><ele>56.25</ele></trkpt>
<trkpt lon="0.074968" lat="44.648190"><ele>55.25</ele></trkpt>
<trkpt lon="0.074928" lat="44.648191"><ele>54.5</ele></trkpt>
<trkpt lon="0.074851" lat="44.648219"><ele>53.0</ele></trkpt>
<trkpt lon="0.074769" lat="44.648236"><ele>51.5</ele></trkpt>
<trkpt lon="0.074712" lat="44.648236"><ele>50.25</ele></trkpt>
<trkpt lon="0.074707" lat="44.648207"><ele>50.0</ele></trkpt>
<trkpt lon="0.074682" lat="44.648170"><ele>49.25</ele></trkpt>
<trkpt lon="0.074639" lat="44.648143"><ele>48.0</ele></trkpt>
<trkpt lon="0.074616" lat="44.648150"><ele>47.25</ele></trkpt>
<trkpt lon="0.074565" lat="44.648244"><ele>45.75</ele></trkpt>
<trkpt lon="0.074507" lat="44.648270"><ele>44.0</ele></trkpt>
<trkpt lon="0.074442" lat="44.648130"><ele>42.5</ele></trkpt>
<trkpt lon="0.074411" lat="44.648087"><ele>42.25</ele></trkpt>
<trkpt lon="0.074368" lat="44.648051"><ele>41.5</ele></trkpt>
<trkpt lon="0.074164" lat="44.648011"><ele>38.0</ele></trkpt>
<trkpt lon="0.073997" lat="44.647966"><ele>37.0</ele></trkpt>
<trkpt lon="0.073737" lat="44.647914"><ele>35.25</ele></trkpt>
<trkpt lon="0.073733" lat="44.647977"><ele>35.0</ele></trkpt>
<trkpt lon="0.073656" lat="44.647993"><ele>34.5</ele></trkpt>
<trkpt lon="0.073678" lat="44.647821"><ele>35.25</ele></trkpt>
<trkpt lon="0.073681" lat="44.647628"><ele>35.0</ele></trkpt>
<trkpt lon="0.073783" lat="44.647412"><ele>35.0</ele></trkpt>
<trkpt lon="0.073812" lat="44.647382"><ele>34.75</ele></trkpt>
<trkpt lon="0.073780" lat="44.647351"><ele>34.5</ele></trkpt>
<trkpt lon="0.073548" lat="44.647126"><ele>32.25</ele></trkpt>
<trkpt lon="0.073427" lat="44.647036"><ele>31.5</ele></trkpt>
<trkpt lon="0.073333" lat="44.646982"><ele>31.5</ele></trkpt>
<trkpt lon="0.073237" lat="44.646937"><ele>31.5</ele></trkpt>
<trkpt lon="0.073025" lat="44.646858"><ele>30.5</ele></trkpt>
<trkpt lon="0.072786" lat="44.646785"><ele>29.0</ele></trkpt>
<trkpt lon="0.072800" lat="44.646717"><ele>29.0</ele></trkpt>
<trkpt lon="0.072803" lat="44.646410"><ele>29.0</ele></trkpt>
<trkpt lon="0.072716" lat="44.646076"><ele>29.75</ele></trkpt>
<trkpt lon="0.072269" lat="44.645116"><ele>30.75</ele></trkpt>
<trkpt lon="0.071864" lat="44.643577"><ele>33.0</ele></trkpt>
<trkpt lon="0.071627" lat="44.642914"><ele>32.5</ele></trkpt>
<trkpt lon="0.071527" lat="44.642830"><ele>32.75</ele></trkpt>
<trkpt lon="0.071334" lat="44.642769"><ele>33.0</ele></trkpt>
<trkpt lon="0.070331" lat="44.642630"><ele>34.75</ele></trkpt>
<trkpt lon="0.070055" lat="44.642527"><ele>35.75</ele></trkpt>
<trkpt lon="0.069981" lat="44.642426"><ele>36.25</ele></trkpt>
<trkpt lon="0.069882" lat="44.641565"><ele>44.25</ele></trkpt>
<trkpt lon="0.069901" lat="44.641457"><ele>45.25</ele></trkpt>
<trkpt lon="0.070108" lat="44.640876"><ele>50.0</ele></trkpt>
<trkpt lon="0.070251" lat="44.640697"><ele>51.25</ele></trkpt>
<trkpt lon="0.070745" lat="44.640246"><ele>55.0</ele></trkpt>
<trkpt lon="0.070793" lat="44.640144"><ele>55.5</ele></trkpt>
<trkpt lon="0.070816" lat="44.640023"><ele>56.0</ele></trkpt>
<trkpt lon="0.070396" lat="44.638758"><ele>65.25</ele></trkpt>
<trkpt lon="0.069655" lat="44.635357"><ele>69.75</ele></trkpt>
<trkpt lon="0.069609" lat="44.635145"><ele>69.5</ele></trkpt>
<trkpt lon="0.069594" lat="44.635129"><ele>69.5</ele></trkpt>
<trkpt lon="0.068721" lat="44.635367"><ele>67.25</ele></trkpt>
<trkpt lon="0.068432" lat="44.635305"><ele>68.25</ele></trkpt>
<trkpt lon="0.067715" lat="44.635017"><ele>71.75</ele></trkpt>
<trkpt lon="0.067333" lat="44.634830"><ele>73.25</ele></trkpt>
<trkpt lon="0.066295" lat="44.634073"><ele>77.75</ele></trkpt>
<trkpt lon="0.065743" lat="44.633414"><ele>79.25</ele></trkpt>
<trkpt lon="0.063898" lat="44.632236"><ele>79.75</ele></trkpt>
<trkpt lon="0.063717" lat="44.632137"><ele>79.75</ele></trkpt>
<trkpt lon="0.063399" lat="44.632024"><ele>79.75</ele></trkpt>
<trkpt lon="0.062847" lat="44.631862"><ele>80.5</ele></trkpt>
<trkpt lon="0.062037" lat="44.631663"><ele>81.25</ele></trkpt>
<trkpt lon="0.061348" lat="44.631534"><ele>82.25</ele></trkpt>
<trkpt lon="0.059816" lat="44.631305"><ele>82.5</ele></trkpt>
<trkpt lon="0.059440" lat="44.631301"><ele>82.25</ele></trkpt>
<trkpt lon="0.058773" lat="44.631379"><ele>80.5</ele></trkpt>
<trkpt lon="0.058046" lat="44.630848"><ele>82.0</ele></trkpt>
<trkpt lon="0.057786" lat="44.630633"><ele>81.25</ele></trkpt>
<trkpt lon="0.057271" lat="44.630075"><ele>80.75</ele></trkpt>
<trkpt lon="0.056638" lat="44.629331"><ele>81.75</ele></trkpt>
<trkpt lon="0.055830" lat="44.628355"><ele>77.0</ele></trkpt>
<trkpt lon="0.055256" lat="44.627424"><ele>72.75</ele></trkpt>
<trkpt lon="0.054398" lat="44.626243"><ele>65.0</ele></trkpt>
<trkpt lon="0.053993" lat="44.625652"><ele>62.5</ele></trkpt>
<trkpt lon="0.053819" lat="44.625316"><ele>61.0</ele></trkpt>
<trkpt lon="0.053583" lat="44.624835"><ele>57.25</ele></trkpt>
<trkpt lon="0.053352" lat="44.624328"><ele>50.5</ele></trkpt>
<trkpt lon="0.053237" lat="44.624186"><ele>47.75</ele></trkpt>
<trkpt lon="0.052592" lat="44.623846"><ele>41.5</ele></trkpt>
<trkpt lon="0.052194" lat="44.623385"><ele>35.25</ele></trkpt>
<trkpt lon="0.051820" lat="44.622976"><ele>32.25</ele></trkpt>
<trkpt lon="0.051530" lat="44.622762"><ele>31.25</ele></trkpt>
<trkpt lon="0.051208" lat="44.622602"><ele>30.5</ele></trkpt>
<trkpt lon="0.051037" lat="44.622527"><ele>30.5</ele></trkpt>
<trkpt lon="0.050103" lat="44.622120"><ele>31.75</ele></trkpt>
<trkpt lon="0.048378" lat="44.621414"><ele>43.0</ele></trkpt>
<trkpt lon="0.047423" lat="44.621101"><ele>49.5</ele></trkpt>
<trkpt lon="0.045835" lat="44.620605"><ele>59.0</ele></trkpt>
<trkpt lon="0.044117" lat="44.620005"><ele>73.0</ele></trkpt>
<trkpt lon="0.043795" lat="44.619875"><ele>74.75</ele></trkpt>
<trkpt lon="0.043022" lat="44.619364"><ele>77.25</ele></trkpt>
<trkpt lon="0.042615" lat="44.619043"><ele>80.0</ele></trkpt>
<trkpt lon="0.041863" lat="44.618241"><ele>82.75</ele></trkpt>
<trkpt lon="0.041158" lat="44.617481"><ele>87.0</ele></trkpt>
<trkpt lon="0.040846" lat="44.617107"><ele>89.5</ele></trkpt>
<trkpt lon="0.040707" lat="44.616740"><ele>89.0</ele></trkpt>
<trkpt lon="0.040557" lat="44.616381"><ele>88.0</ele></trkpt>
<trkpt lon="0.040750" lat="44.615549"><ele>88.25</ele></trkpt>
<trkpt lon="0.040771" lat="44.615320"><ele>88.75</ele></trkpt>
<trkpt lon="0.040685" lat="44.615030"><ele>89.25</ele></trkpt>
<trkpt lon="0.040428" lat="44.614518"><ele>90.0</ele></trkpt>
<trkpt lon="0.040310" lat="44.614197"><ele>90.0</ele></trkpt>
<trkpt lon="0.039871" lat="44.612901"><ele>88.25</ele></trkpt>
<trkpt lon="0.039532" lat="44.612383"><ele>88.0</ele></trkpt>
<trkpt lon="0.039092" lat="44.611733"><ele>87.0</ele></trkpt>
<trkpt lon="0.038854" lat="44.611470"><ele>87.75</ele></trkpt>
<trkpt lon="0.038136" lat="44.610899"><ele>90.25</ele></trkpt>
<trkpt lon="0.037972" lat="44.610726"><ele>90.5</ele></trkpt>
<trkpt lon="0.036535" lat="44.609122"><ele>86.0</ele></trkpt>
<trkpt lon="0.035798" lat="44.608375"><ele>87.5</ele></trkpt>
<trkpt lon="0.035252" lat="44.607620"><ele>90.0</ele></trkpt>
<trkpt lon="0.034906" lat="44.607020"><ele>91.25</ele></trkpt>
<trkpt lon="0.034869" lat="44.606979"><ele>91.75</ele></trkpt>
<trkpt lon="0.033715" lat="44.605695"><ele>95.5</ele></trkpt>
<trkpt lon="0.032924" lat="44.605029"><ele>99.75</ele></trkpt>
<trkpt lon="0.032573" lat="44.604442"><ele>103.0</ele></trkpt>
<trkpt lon="0.032398" lat="44.603527"><ele>108.0</ele></trkpt>
<trkpt lon="0.032372" lat="44.603392"><ele>108.25</ele></trkpt>
<trkpt lon="0.032270" lat="44.602486"><ele>101.75</ele></trkpt>
<trkpt lon="0.031775" lat="44.601887"><ele>100.0</ele></trkpt>
<trkpt lon="0.031696" lat="44.601697"><ele>99.75</ele></trkpt>
<trkpt lon="0.031564" lat="44.601690"><ele>100.25</ele></trkpt>
<trkpt lon="0.031174" lat="44.601591"><ele>102.5</ele></trkpt>
<trkpt lon="0.030802" lat="44.601416"><ele>103.25</ele></trkpt>
<trkpt lon="0.028547" lat="44.599401"><ele>111.5</ele></trkpt>
<trkpt lon="0.028298" lat="44.599178"><ele>112.0</ele></trkpt>
<trkpt lon="0.027295" lat="44.598273"><ele>111.25</ele></trkpt>
<trkpt lon="0.027163" lat="44.598099"><ele>111.5</ele></trkpt>
<trkpt lon="0.026236" lat="44.597519"><ele>112.75</ele></trkpt>
<trkpt lon="0.025294" lat="44.597229"><ele>112.75</ele></trkpt>
<trkpt lon="0.024870" lat="44.596943"><ele>112.0</ele></trkpt>
<trkpt lon="0.024546" lat="44.597032"><ele>111.25</ele></trkpt>
<trkpt lon="0.023194" lat="44.597215"><ele>103.5</ele></trkpt>
<trkpt lon="0.022014" lat="44.597124"><ele>98.25</ele></trkpt>
<trkpt lon="0.021263" lat="44.596696"><ele>100.5</ele></trkpt>
<trkpt lon="0.018216" lat="44.597032"><ele>102.0</ele></trkpt>
<trkpt lon="0.018077" lat="44.596779"><ele>103.5</ele></trkpt>
<trkpt lon="0.017006" lat="44.597002"><ele>102.75</ele></trkpt>
<trkpt lon="0.016451" lat="44.596333"><ele>104.0</ele></trkpt>
<trkpt lon="0.015675" lat="44.596416"><ele>103.0</ele></trkpt>
<trkpt lon="0.015101" lat="44.596240"><ele>101.75</ele></trkpt>
<trkpt lon="0.014539" lat="44.596221"><ele>100.5</ele></trkpt>
<trkpt lon="0.014448" lat="44.596082"><ele>99.5</ele></trkpt>
<trkpt lon="0.013939" lat="44.595831"><ele>97.75</ele></trkpt>
<trkpt lon="0.012712" lat="44.595496"><ele>97.0</ele></trkpt>
<trkpt lon="0.012033" lat="44.595580"><ele>96.0</ele></trkpt>
<trkpt lon="0.010754" lat="44.595654"><ele>95.5</ele></trkpt>
<trkpt lon="0.010588" lat="44.595429"><ele>94.0</ele></trkpt>
<trkpt lon="0.009591" lat="44.595197"><ele>93.0</ele></trkpt>
<trkpt lon="0.008980" lat="44.595125"><ele>93.25</ele></trkpt>
<trkpt lon="0.008237" lat="44.595277"><ele>91.75</ele></trkpt>
<trkpt lon="0.008064" lat="44.595031"><ele>89.25</ele></trkpt>
<trkpt lon="0.007804" lat="44.594489"><ele>86.25</ele></trkpt>
<trkpt lon="0.007076" lat="44.594603"><ele>86.0</ele></trkpt>
<trkpt lon="0.006457" lat="44.594725"><ele>85.5</ele></trkpt>
<trkpt lon="0.006180" lat="44.594825"><ele>85.0</ele></trkpt>
<trkpt lon="0.005832" lat="44.594966"><ele>82.75</ele></trkpt>
<trkpt lon="0.005574" lat="44.595088"><ele>81.25</ele></trkpt>
<trkpt lon="0.005357" lat="44.595227"><ele>80.75</ele></trkpt>
<trkpt lon="0.004941" lat="44.595508"><ele>80.25</ele></trkpt>
<trkpt lon="0.004026" lat="44.594624"><ele>71.75</ele></trkpt>
<trkpt lon="0.003538" lat="44.594173"><ele>67.75</ele></trkpt>
<trkpt lon="0.003417" lat="44.594064"><ele>67.0</ele></trkpt>
<trkpt lon="0.002661" lat="44.593447"><ele>62.75</ele></trkpt>
<trkpt lon="0.002580" lat="44.593332"><ele>62.25</ele></trkpt>
<trkpt lon="0.002519" lat="44.593222"><ele>62.0</ele></trkpt>
<trkpt lon="0.002438" lat="44.593027"><ele>61.5</ele></trkpt>
<trkpt lon="0.002291" lat="44.592588"><ele>61.0</ele></trkpt>
<trkpt lon="0.002219" lat="44.592437"><ele>61.0</ele></trkpt>
<trkpt lon="0.002093" lat="44.592250"><ele>62.0</ele></trkpt>
<trkpt lon="0.001959" lat="44.592103"><ele>62.25</ele></trkpt>
<trkpt lon="0.001763" lat="44.591946"><ele>63.25</ele></trkpt>
<trkpt lon="0.001535" lat="44.591784"><ele>64.75</ele></trkpt>
<trkpt lon="0.001226" lat="44.591578"><ele>66.25</ele></trkpt>
<trkpt lon="0.000897" lat="44.591383"><ele>67.25</ele></trkpt>
<trkpt lon="0.000443" lat="44.591195"><ele>68.0</ele></trkpt>
<trkpt lon="0.000158" lat="44.591111"><ele>68.75</ele></trkpt>
<trkpt lon="-0.000142" lat="44.591067"><ele>70.75</ele></trkpt>
<trkpt lon="-0.000670" lat="44.591010"><ele>74.5</ele></trkpt>
<trkpt lon="-0.001070" lat="44.590986"><ele>77.75</ele></trkpt>
<trkpt lon="-0.001692" lat="44.590938"><ele>81.5</ele></trkpt>
<trkpt lon="-0.001893" lat="44.590895"><ele>82.25</ele></trkpt>
<trkpt lon="-0.002054" lat="44.590814"><ele>83.0</ele></trkpt>
<trkpt lon="-0.002210" lat="44.590666"><ele>84.25</ele></trkpt>
<trkpt lon="-0.002679" lat="44.590092"><ele>89.25</ele></trkpt>
<trkpt lon="-0.002736" lat="44.590001"><ele>89.75</ele></trkpt>
<trkpt lon="-0.002824" lat="44.589813"><ele>93.0</ele></trkpt>
<trkpt lon="-0.002901" lat="44.589417"><ele>97.0</ele></trkpt>
<trkpt lon="-0.003022" lat="44.589098"><ele>98.5</ele></trkpt>
<trkpt lon="-0.003079" lat="44.589031"><ele>98.5</ele></trkpt>
<trkpt lon="-0.003414" lat="44.588839"><ele>98.5</ele></trkpt>
<trkpt lon="-0.003873" lat="44.588603"><ele>98.75</ele></trkpt>
<trkpt lon="-0.004090" lat="44.588504"><ele>100.0</ele></trkpt>
<trkpt lon="-0.004753" lat="44.588334"><ele>102.0</ele></trkpt>
<trkpt lon="-0.005453" lat="44.588169"><ele>104.0</ele></trkpt>
<trkpt lon="-0.006396" lat="44.588011"><ele>103.25</ele></trkpt>
<trkpt lon="-0.006638" lat="44.587931"><ele>103.0</ele></trkpt>
<trkpt lon="-0.006880" lat="44.587707"><ele>101.0</ele></trkpt>
<trkpt lon="-0.007094" lat="44.587484"><ele>98.75</ele></trkpt>
<trkpt lon="-0.007195" lat="44.587390"><ele>97.0</ele></trkpt>
<trkpt lon="-0.007370" lat="44.587447"><ele>97.25</ele></trkpt>
<trkpt lon="-0.007777" lat="44.587544"><ele>97.25</ele></trkpt>
<trkpt lon="-0.009534" lat="44.587487"><ele>108.75</ele></trkpt>
<trkpt lon="-0.009822" lat="44.587426"><ele>114.75</ele></trkpt>
<trkpt lon="-0.010323" lat="44.587285"><ele>121.75</ele></trkpt>
<trkpt lon="-0.010850" lat="44.587173"><ele>126.75</ele></trkpt>
<trkpt lon="-0.011508" lat="44.587139"><ele>129.5</ele></trkpt>
<trkpt lon="-0.012026" lat="44.587124"><ele>129.25</ele></trkpt>
<trkpt lon="-0.012175" lat="44.587119"><ele>128.5</ele></trkpt>
<trkpt lon="-0.012454" lat="44.587048"><ele>127.25</ele></trkpt>
<trkpt lon="-0.012796" lat="44.586871"><ele>124.0</ele></trkpt>
<trkpt lon="-0.012871" lat="44.586658"><ele>123.5</ele></trkpt>
<trkpt lon="-0.012970" lat="44.586516"><ele>123.25</ele></trkpt>
<trkpt lon="-0.013160" lat="44.586353"><ele>122.0</ele></trkpt>
<trkpt lon="-0.013569" lat="44.586163"><ele>119.25</ele></trkpt>
<trkpt lon="-0.014483" lat="44.585804"><ele>116.0</ele></trkpt>
<trkpt lon="-0.014769" lat="44.585653"><ele>115.25</ele></trkpt>
<trkpt lon="-0.015396" lat="44.585219"><ele>114.75</ele></trkpt>
<trkpt lon="-0.015824" lat="44.584944"><ele>112.75</ele></trkpt>
<trkpt lon="-0.016376" lat="44.584505"><ele>111.0</ele></trkpt>
<trkpt lon="-0.016755" lat="44.584240"><ele>108.5</ele></trkpt>
<trkpt lon="-0.016906" lat="44.584133"><ele>109.25</ele></trkpt>
<trkpt lon="-0.017112" lat="44.584083"><ele>110.0</ele></trkpt>
<trkpt lon="-0.018845" lat="44.583558"><ele>106.5</ele></trkpt>
<trkpt lon="-0.018996" lat="44.583935"><ele>104.0</ele></trkpt>
<trkpt lon="-0.019148" lat="44.584080"><ele>100.75</ele></trkpt>
<trkpt lon="-0.021336" lat="44.584702"><ele>79.25</ele></trkpt>
<trkpt lon="-0.021989" lat="44.584833"><ele>78.5</ele></trkpt>
<trkpt lon="-0.022725" lat="44.584905"><ele>74.75</ele></trkpt>
<trkpt lon="-0.023327" lat="44.584810"><ele>73.0</ele></trkpt>
<trkpt lon="-0.023839" lat="44.584753"><ele>70.75</ele></trkpt>
<trkpt lon="-0.024236" lat="44.584680"><ele>69.25</ele></trkpt>
<trkpt lon="-0.024358" lat="44.584581"><ele>70.5</ele></trkpt>
<trkpt lon="-0.024477" lat="44.584292"><ele>73.75</ele></trkpt>
<trkpt lon="-0.024635" lat="44.584073"><ele>74.5</ele></trkpt>
<trkpt lon="-0.024799" lat="44.584032"><ele>74.25</ele></trkpt>
<trkpt lon="-0.025721" lat="44.583937"><ele>73.75</ele></trkpt>
<trkpt lon="-0.026450" lat="44.583985"><ele>74.0</ele></trkpt>
<trkpt lon="-0.027002" lat="44.584099"><ele>74.25</ele></trkpt>
<trkpt lon="-0.027097" lat="44.584107"><ele>74.5</ele></trkpt>
<trkpt lon="-0.027492" lat="44.584123"><ele>75.25</ele></trkpt>
<trkpt lon="-0.027786" lat="44.584145"><ele>75.25</ele></trkpt>
<trkpt lon="-0.029616" lat="44.584056"><ele>66.25</ele></trkpt>
<trkpt lon="-0.030750" lat="44.583985"><ele>60.0</ele></trkpt>
<trkpt lon="-0.031037" lat="44.583893"><ele>57.5</ele></trkpt>
<trkpt lon="-0.031736" lat="44.583663"><ele>54.0</ele></trkpt>
<trkpt lon="-0.032158" lat="44.583527"><ele>51.5</ele></trkpt>
<trkpt lon="-0.032485" lat="44.583419"><ele>50.25</ele></trkpt>
<trkpt lon="-0.032758" lat="44.583324"><ele>47.0</ele></trkpt>
<trkpt lon="-0.033290" lat="44.583131"><ele>45.0</ele></trkpt>
<trkpt lon="-0.033567" lat="44.583105"><ele>42.75</ele></trkpt>
<trkpt lon="-0.033667" lat="44.583095"><ele>42.5</ele></trkpt>
<trkpt lon="-0.033789" lat="44.583080"><ele>42.5</ele></trkpt>
<trkpt lon="-0.034084" lat="44.583046"><ele>43.0</ele></trkpt>
<trkpt lon="-0.034203" lat="44.583033"><ele>42.75</ele></trkpt>
<trkpt lon="-0.034888" lat="44.582971"><ele>41.5</ele></trkpt>
<trkpt lon="-0.034874" lat="44.582884"><ele>41.25</ele></trkpt>
<trkpt lon="-0.035151" lat="44.582830"><ele>40.25</ele></trkpt>
<trkpt lon="-0.035345" lat="44.582732"><ele>39.0</ele></trkpt>
<trkpt lon="-0.035569" lat="44.582536"><ele>36.75</ele></trkpt>
<trkpt lon="-0.035587" lat="44.582454"><ele>36.5</ele></trkpt>
<trkpt lon="-0.035328" lat="44.582390"><ele>37.25</ele></trkpt>
<trkpt lon="-0.035300" lat="44.582363"><ele>37.25</ele></trkpt>
<trkpt lon="-0.035410" lat="44.582075"><ele>35.0</ele></trkpt>
<trkpt lon="-0.035440" lat="44.581951"><ele>33.75</ele></trkpt>
<trkpt lon="-0.035442" lat="44.581936"><ele>33.75</ele></trkpt>
<trkpt lon="-0.035442" lat="44.581923"><ele>33.75</ele></trkpt>
<trkpt lon="-0.035594" lat="44.581933"><ele>32.75</ele></trkpt>
<trkpt lon="-0.035591" lat="44.581893"><ele>33.0</ele></trkpt>
<trkpt lon="-0.035587" lat="44.581828"><ele>33.5</ele></trkpt>
<trkpt lon="-0.035526" lat="44.581601"><ele>35.0</ele></trkpt>
<trkpt lon="-0.035832" lat="44.581484"><ele>34.5</ele></trkpt>
<trkpt lon="-0.035880" lat="44.581482"><ele>34.5</ele></trkpt>
<trkpt lon="-0.035996" lat="44.581493"><ele>34.25</ele></trkpt>
<trkpt lon="-0.036299" lat="44.581556"><ele>33.75</ele></trkpt>
<trkpt lon="-0.036462" lat="44.581638"><ele>28.0</ele></trkpt>
  </trkseg></trk></gpx>
