<?xml version="1.0" encoding="UTF-8"?>
<gpx version="1.1" creator="compostel-brouter" xmlns="http://www.topografix.com/GPX/1/1">
  <metadata><name>FR-36-Orthez</name></metadata>
  <trk><name>FR-36-Orthez</name><trkseg>
<trkpt lon="-0.573497" lat="43.758366"><ele>99.75</ele></trkpt>
<trkpt lon="-0.573217" lat="43.758310"><ele>100.25</ele></trkpt>
<trkpt lon="-0.572080" lat="43.758074"><ele>101.0</ele></trkpt>
<trkpt lon="-0.572045" lat="43.757762"><ele>100.25</ele></trkpt>
<trkpt lon="-0.571992" lat="43.757558"><ele>100.75</ele></trkpt>
<trkpt lon="-0.571945" lat="43.757399"><ele>101.25</ele></trkpt>
<trkpt lon="-0.571915" lat="43.757328"><ele>101.5</ele></trkpt>
<trkpt lon="-0.571769" lat="43.756986"><ele>102.0</ele></trkpt>
<trkpt lon="-0.571616" lat="43.756660"><ele>102.0</ele></trkpt>
<trkpt lon="-0.571426" lat="43.756350"><ele>102.0</ele></trkpt>
<trkpt lon="-0.571366" lat="43.756251"><ele>102.0</ele></trkpt>
<trkpt lon="-0.572007" lat="43.756030"><ele>101.0</ele></trkpt>
<trkpt lon="-0.571865" lat="43.755465"><ele>101.25</ele></trkpt>
<trkpt lon="-0.571757" lat="43.755275"><ele>101.25</ele></trkpt>
<trkpt lon="-0.571742" lat="43.755214"><ele>101.25</ele></trkpt>
<trkpt lon="-0.571752" lat="43.755167"><ele>101.25</ele></trkpt>
<trkpt lon="-0.571793" lat="43.755126"><ele>101.25</ele></trkpt>
<trkpt lon="-0.571825" lat="43.755093"><ele>101.5</ele></trkpt>
<trkpt lon="-0.572187" lat="43.755102"><ele>102.0</ele></trkpt>
<trkpt lon="-0.572365" lat="43.755107"><ele>101.5</ele></trkpt>
<trkpt lon="-0.572878" lat="43.755125"><ele>101.25</ele></trkpt>
<trkpt lon="-0.573179" lat="43.755158"><ele>101.25</ele></trkpt>
<trkpt lon="-0.573729" lat="43.755267"><ele>100.75</ele></trkpt>
<trkpt lon="-0.573817" lat="43.755287"><ele>101.0</ele></trkpt>
<trkpt lon="-0.574213" lat="43.754536"><ele>98.25</ele></trkpt>
<trkpt lon="-0.574487" lat="43.753980"><ele>96.25</ele></trkpt>
<trkpt lon="-0.574515" lat="43.753924"><ele>96.0</ele></trkpt>
<trkpt lon="-0.574416" lat="43.753903"><ele>96.0</ele></trkpt>
<trkpt lon="-0.574214" lat="43.753869"><ele>95.75</ele></trkpt>
<trkpt lon="-0.574088" lat="43.753849"><ele>96.0</ele></trkpt>
<trkpt lon="-0.574210" lat="43.753551"><ele>95.5</ele></trkpt>
<trkpt lon="-0.574296" lat="43.753337"><ele>95.0</ele></trkpt>
<trkpt lon="-0.574373" lat="43.753173"><ele>95.0</ele></trkpt>
<trkpt lon="-0.574420" lat="43.753107"><ele>95.0</ele></trkpt>
<trkpt lon="-0.574488" lat="43.753044"><ele>95.0</ele></trkpt>
<trkpt lon="-0.574561" lat="43.752989"><ele>95.25</ele></trkpt>
<trkpt lon="-0.574987" lat="43.752695"><ele>96.0</ele></trkpt>
<trkpt lon="-0.575173" lat="43.752610"><ele>95.75</ele></trkpt>
<trkpt lon="-0.575875" lat="43.752414"><ele>95.5</ele></trkpt>
<trkpt lon="-0.576314" lat="43.752252"><ele>95.75</ele></trkpt>
<trkpt lon="-0.577292" lat="43.751753"><ele>96.5</ele></trkpt>
<trkpt lon="-0.577442" lat="43.751676"><ele>96.0</ele></trkpt>
<trkpt lon="-0.578200" lat="43.751298"><ele>95.5</ele></trkpt>
<trkpt lon="-0.578903" lat="43.751098"><ele>93.75</ele></trkpt>
<trkpt lon="-0.579264" lat="43.751026"><ele>93.75</ele></trkpt>
<trkpt lon="-0.580320" lat="43.750851"><ele>93.0</ele></trkpt>
<trkpt lon="-0.580096" lat="43.750270"><ele>89.5</ele></trkpt>
<trkpt lon="-0.580549" lat="43.750135"><ele>87.25</ele></trkpt>
<trkpt lon="-0.580637" lat="43.750099"><ele>87.25</ele></trkpt>
<trkpt lon="-0.580530" lat="43.749730"><ele>82.0</ele></trkpt>
<trkpt lon="-0.580574" lat="43.749656"><ele>81.0</ele></trkpt>
<trkpt lon="-0.580442" lat="43.749263"><ele>76.0</ele></trkpt>
<trkpt lon="-0.580421" lat="43.749177"><ele>75.0</ele></trkpt>
<trkpt lon="-0.580423" lat="43.749104"><ele>75.5</ele></trkpt>
<trkpt lon="-0.580452" lat="43.749065"><ele>76.0</ele></trkpt>
<trkpt lon="-0.580564" lat="43.749020"><ele>76.5</ele></trkpt>
<trkpt lon="-0.580940" lat="43.748985"><ele>75.25</ele></trkpt>
<trkpt lon="-0.581258" lat="43.748968"><ele>74.0</ele></trkpt>
<trkpt lon="-0.581434" lat="43.748943"><ele>73.0</ele></trkpt>
<trkpt lon="-0.581727" lat="43.748852"><ele>71.75</ele></trkpt>
<trkpt lon="-0.582063" lat="43.748766"><ele>70.25</ele></trkpt>
<trkpt lon="-0.582315" lat="43.748636"><ele>69.25</ele></trkpt>
<trkpt lon="-0.582588" lat="43.748537"><ele>68.5</ele></trkpt>
<trkpt lon="-0.582852" lat="43.748409"><ele>69.0</ele></trkpt>
<trkpt lon="-0.583054" lat="43.748343"><ele>67.75</ele></trkpt>
<trkpt lon="-0.583478" lat="43.748282"><ele>65.5</ele></trkpt>
<trkpt lon="-0.584161" lat="43.748285"><ele>62.25</ele></trkpt>
<trkpt lon="-0.584255" lat="43.748254"><ele>62.25</ele></trkpt>
<trkpt lon="-0.584399" lat="43.748123"><ele>62.75</ele></trkpt>
<trkpt lon="-0.584490" lat="43.748007"><ele>62.75</ele></trkpt>
<trkpt lon="-0.584584" lat="43.747902"><ele>62.5</ele></trkpt>
<trkpt lon="-0.584634" lat="43.747856"><ele>62.25</ele></trkpt>
<trkpt lon="-0.584737" lat="43.747806"><ele>61.75</ele></trkpt>
<trkpt lon="-0.584859" lat="43.747763"><ele>61.5</ele></trkpt>
<trkpt lon="-0.585041" lat="43.747722"><ele>61.25</ele></trkpt>
<trkpt lon="-0.585306" lat="43.747676"><ele>60.5</ele></trkpt>
<trkpt lon="-0.585759" lat="43.747645"><ele>59.5</ele></trkpt>
<trkpt lon="-0.586172" lat="43.747666"><ele>58.0</ele></trkpt>
<trkpt lon="-0.586426" lat="43.747669"><ele>57.5</ele></trkpt>
<trkpt lon="-0.586738" lat="43.747661"><ele>57.0</ele></trkpt>
<trkpt lon="-0.586732" lat="43.747597"><ele>57.0</ele></trkpt>
<trkpt lon="-0.586740" lat="43.747422"><ele>58.0</ele></trkpt>
<trkpt lon="-0.586775" lat="43.747347"><ele>58.75</ele></trkpt>
<trkpt lon="-0.586813" lat="43.747296"><ele>59.25</ele></trkpt>
<trkpt lon="-0.587135" lat="43.747052"><ele>61.5</ele></trkpt>
<trkpt lon="-0.587379" lat="43.746829"><ele>62.5</ele></trkpt>
<trkpt lon="-0.587564" lat="43.746713"><ele>63.0</ele></trkpt>
<trkpt lon="-0.587636" lat="43.746649"><ele>63.0</ele></trkpt>
<trkpt lon="-0.587663" lat="43.746597"><ele>63.0</ele></trkpt>
<trkpt lon="-0.587687" lat="43.746514"><ele>63.0</ele></trkpt>
<trkpt lon="-0.587701" lat="43.746190"><ele>63.25</ele></trkpt>
<trkpt lon="-0.587626" lat="43.745770"><ele>63.0</ele></trkpt>
<trkpt lon="-0.587618" lat="43.745624"><ele>63.0</ele></trkpt>
<trkpt lon="-0.587634" lat="43.745556"><ele>63.0</ele></trkpt>
<trkpt lon="-0.587666" lat="43.745483"><ele>62.75</ele></trkpt>
<trkpt lon="-0.587709" lat="43.745413"><ele>62.5</ele></trkpt>
<trkpt lon="-0.587891" lat="43.745252"><ele>62.0</ele></trkpt>
<trkpt lon="-0.588178" lat="43.745027"><ele>61.5</ele></trkpt>
<trkpt lon="-0.588449" lat="43.744830"><ele>61.0</ele></trkpt>
<trkpt lon="-0.588583" lat="43.744745"><ele>61.0</ele></trkpt>
<trkpt lon="-0.588707" lat="43.744683"><ele>60.75</ele></trkpt>
<trkpt lon="-0.588808" lat="43.744642"><ele>60.75</ele></trkpt>
<trkpt lon="-0.588935" lat="43.744607"><ele>60.25</ele></trkpt>
<trkpt lon="-0.589184" lat="43.744570"><ele>59.75</ele></trkpt>
<trkpt lon="-0.589380" lat="43.744529"><ele>59.0</ele></trkpt>
<trkpt lon="-0.589970" lat="43.744365"><ele>55.75</ele></trkpt>
<trkpt lon="-0.590914" lat="43.744152"><ele>48.25</ele></trkpt>
<trkpt lon="-0.591062" lat="43.744072"><ele>48.5</ele></trkpt>
<trkpt lon="-0.591281" lat="43.743907"><ele>46.75</ele></trkpt>
<trkpt lon="-0.591461" lat="43.743822"><ele>46.25</ele></trkpt>
<trkpt lon="-0.592234" lat="43.743594"><ele>45.0</ele></trkpt>
<trkpt lon="-0.592370" lat="43.743547"><ele>45.0</ele></trkpt>
<trkpt lon="-0.592440" lat="43.743520"><ele>45.0</ele></trkpt>
<trkpt lon="-0.592486" lat="43.743481"><ele>45.0</ele></trkpt>
<trkpt lon="-0.592518" lat="43.743439"><ele>45.0</ele></trkpt>
<trkpt lon="-0.592668" lat="43.743504"><ele>45.0</ele></trkpt>
<trkpt lon="-0.594528" lat="43.740954"><ele>42.0</ele></trkpt>
<trkpt lon="-0.595910" lat="43.739074"><ele>41.0</ele></trkpt>
<trkpt lon="-0.596358" lat="43.738513"><ele>40.5</ele></trkpt>
<trkpt lon="-0.596458" lat="43.738468"><ele>39.75</ele></trkpt>
<trkpt lon="-0.596544" lat="43.738540"><ele>39.5</ele></trkpt>
<trkpt lon="-0.596835" lat="43.738899"><ele>39.0</ele></trkpt>
<trkpt lon="-0.597169" lat="43.739150"><ele>40.75</ele></trkpt>
<trkpt lon="-0.597669" lat="43.739367"><ele>40.5</ele></trkpt>
<trkpt lon="-0.598217" lat="43.739508"><ele>40.0</ele></trkpt>
<trkpt lon="-0.598832" lat="43.739591"><ele>39.5</ele></trkpt>
<trkpt lon="-0.599147" lat="43.739656"><ele>40.5</ele></trkpt>
<trkpt lon="-0.599622" lat="43.739833"><ele>40.0</ele></trkpt>
<trkpt lon="-0.600271" lat="43.738928"><ele>40.0</ele></trkpt>
<trkpt lon="-0.600326" lat="43.738839"><ele>40.0</ele></trkpt>
<trkpt lon="-0.600465" lat="43.738651"><ele>40.25</ele></trkpt>
<trkpt lon="-0.600730" lat="43.738315"><ele>39.0</ele></trkpt>
<trkpt lon="-0.601037" lat="43.738069"><ele>39.25</ele></trkpt>
<trkpt lon="-0.601234" lat="43.737979"><ele>39.25</ele></trkpt>
<trkpt lon="-0.601381" lat="43.737943"><ele>39.5</ele></trkpt>
<trkpt lon="-0.601538" lat="43.737913"><ele>39.0</ele></trkpt>
<trkpt lon="-0.601617" lat="43.737907"><ele>39.0</ele></trkpt>
<trkpt lon="-0.602111" lat="43.737898"><ele>38.75</ele></trkpt>
<trkpt lon="-0.602766" lat="43.737912"><ele>38.75</ele></trkpt>
<trkpt lon="-0.603347" lat="43.737977"><ele>39.25</ele></trkpt>
<trkpt lon="-0.604078" lat="43.738077"><ele>40.0</ele></trkpt>
<trkpt lon="-0.604641" lat="43.738214"><ele>38.75</ele></trkpt>
<trkpt lon="-0.605278" lat="43.738345"><ele>39.75</ele></trkpt>
<trkpt lon="-0.605906" lat="43.738523"><ele>39.0</ele></trkpt>
<trkpt lon="-0.606015" lat="43.738523"><ele>39.0</ele></trkpt>
<trkpt lon="-0.606090" lat="43.738476"><ele>38.5</ele></trkpt>
<trkpt lon="-0.606146" lat="43.738250"><ele>38.0</ele></trkpt>
<trkpt lon="-0.606153" lat="43.738110"><ele>40.0</ele></trkpt>
<trkpt lon="-0.605983" lat="43.737182"><ele>44.75</ele></trkpt>
<trkpt lon="-0.605783" lat="43.736129"><ele>42.25</ele></trkpt>
<trkpt lon="-0.605696" lat="43.735945"><ele>42.25</ele></trkpt>
<trkpt lon="-0.605581" lat="43.735758"><ele>41.75</ele></trkpt>
<trkpt lon="-0.605420" lat="43.735520"><ele>42.25</ele></trkpt>
<trkpt lon="-0.605292" lat="43.735331"><ele>42.75</ele></trkpt>
<trkpt lon="-0.605430" lat="43.735265"><ele>42.25</ele></trkpt>
<trkpt lon="-0.606172" lat="43.735197"><ele>41.0</ele></trkpt>
<trkpt lon="-0.607241" lat="43.735169"><ele>41.0</ele></trkpt>
<trkpt lon="-0.607465" lat="43.735140"><ele>41.25</ele></trkpt>
<trkpt lon="-0.607830" lat="43.735012"><ele>42.0</ele></trkpt>
<trkpt lon="-0.608216" lat="43.734835"><ele>41.75</ele></trkpt>
<trkpt lon="-0.608418" lat="43.734706"><ele>42.25</ele></trkpt>
<trkpt lon="-0.608565" lat="43.734525"><ele>42.75</ele></trkpt>
<trkpt lon="-0.608731" lat="43.734301"><ele>43.5</ele></trkpt>
<trkpt lon="-0.608861" lat="43.734243"><ele>44.5</ele></trkpt>
<trkpt lon="-0.608901" lat="43.734224"><ele>44.75</ele></trkpt>
<trkpt lon="-0.609089" lat="43.734222"><ele>45.5</ele></trkpt>
<trkpt lon="-0.611534" lat="43.734464"><ele>56.25</ele></trkpt>
<trkpt lon="-0.611754" lat="43.734469"><ele>57.0</ele></trkpt>
<trkpt lon="-0.611917" lat="43.734436"><ele>58.0</ele></trkpt>
<trkpt lon="-0.611983" lat="43.734363"><ele>59.25</ele></trkpt>
<trkpt lon="-0.612244" lat="43.734498"><ele>59.25</ele></trkpt>
<trkpt lon="-0.613528" lat="43.734627"><ele>59.0</ele></trkpt>
<trkpt lon="-0.613917" lat="43.734688"><ele>58.25</ele></trkpt>
<trkpt lon="-0.614201" lat="43.734672"><ele>58.5</ele></trkpt>
<trkpt lon="-0.614475" lat="43.734794"><ele>58.75</ele></trkpt>
<trkpt lon="-0.614717" lat="43.734794"><ele>59.5</ele></trkpt>
<trkpt lon="-0.615148" lat="43.735015"><ele>62.75</ele></trkpt>
<trkpt lon="-0.615569" lat="43.735076"><ele>64.0</ele></trkpt>
<trkpt lon="-0.616253" lat="43.735007"><ele>68.25</ele></trkpt>
<trkpt lon="-0.617021" lat="43.734954"><ele>73.75</ele></trkpt>
<trkpt lon="-0.617505" lat="43.735000"><ele>76.0</ele></trkpt>
<trkpt lon="-0.618289" lat="43.734996"><ele>79.75</ele></trkpt>
<trkpt lon="-0.618222" lat="43.734858"><ele>79.25</ele></trkpt>
<trkpt lon="-0.618212" lat="43.734689"><ele>78.75</ele></trkpt>
<trkpt lon="-0.618303" lat="43.734348"><ele>76.5</ele></trkpt>
<trkpt lon="-0.618450" lat="43.733879"><ele>77.5</ele></trkpt>
<trkpt lon="-0.618560" lat="43.733687"><ele>78.75</ele></trkpt>
<trkpt lon="-0.618710" lat="43.733565"><ele>80.5</ele></trkpt>
<trkpt lon="-0.619448" lat="43.733333"><ele>84.0</ele></trkpt>
<trkpt lon="-0.619614" lat="43.733215"><ele>85.25</ele></trkpt>
<trkpt lon="-0.619703" lat="43.733075"><ele>86.0</ele></trkpt>
<trkpt lon="-0.619759" lat="43.732846"><ele>88.25</ele></trkpt>
<trkpt lon="-0.619778" lat="43.732610"><ele>91.5</ele></trkpt>
<trkpt lon="-0.619727" lat="43.732433"><ele>93.5</ele></trkpt>
<trkpt lon="-0.619650" lat="43.732361"><ele>94.75</ele></trkpt>
<trkpt lon="-0.619415" lat="43.732294"><ele>95.5</ele></trkpt>
<trkpt lon="-0.619832" lat="43.732323"><ele>95.0</ele></trkpt>
<trkpt lon="-0.620575" lat="43.732253"><ele>97.0</ele></trkpt>
<trkpt lon="-0.621326" lat="43.732238"><ele>100.0</ele></trkpt>
<trkpt lon="-0.621664" lat="43.732259"><ele>100.75</ele></trkpt>
<trkpt lon="-0.622769" lat="43.732536"><ele>101.75</ele></trkpt>
<trkpt lon="-0.623702" lat="43.732548"><ele>100.25</ele></trkpt>
<trkpt lon="-0.623724" lat="43.732486"><ele>100.5</ele></trkpt>
<trkpt lon="-0.623823" lat="43.732282"><ele>99.5</ele></trkpt>
<trkpt lon="-0.623815" lat="43.732150"><ele>99.0</ele></trkpt>
<trkpt lon="-0.623764" lat="43.731982"><ele>98.0</ele></trkpt>
<trkpt lon="-0.623624" lat="43.731786"><ele>96.5</ele></trkpt>
<trkpt lon="-0.623431" lat="43.731579"><ele>94.25</ele></trkpt>
<trkpt lon="-0.623160" lat="43.731404"><ele>92.25</ele></trkpt>
<trkpt lon="-0.622517" lat="43.731007"><ele>88.0</ele></trkpt>
<trkpt lon="-0.622425" lat="43.730895"><ele>86.25</ele></trkpt>
<trkpt lon="-0.622396" lat="43.730790"><ele>85.0</ele></trkpt>
<trkpt lon="-0.622321" lat="43.730271"><ele>81.5</ele></trkpt>
<trkpt lon="-0.622321" lat="43.729924"><ele>81.0</ele></trkpt>
<trkpt lon="-0.622401" lat="43.729524"><ele>81.5</ele></trkpt>
<trkpt lon="-0.622634" lat="43.728616"><ele>85.75</ele></trkpt>
<trkpt lon="-0.622787" lat="43.728232"><ele>89.5</ele></trkpt>
<trkpt lon="-0.623001" lat="43.727815"><ele>95.0</ele></trkpt>
<trkpt lon="-0.623026" lat="43.727709"><ele>95.75</ele></trkpt>
<trkpt lon="-0.623002" lat="43.727060"><ele>101.0</ele></trkpt>
<trkpt lon="-0.623010" lat="43.727004"><ele>101.25</ele></trkpt>
<trkpt lon="-0.623027" lat="43.726953"><ele>101.25</ele></trkpt>
<trkpt lon="-0.623057" lat="43.726896"><ele>101.75</ele></trkpt>
<trkpt lon="-0.623098" lat="43.726848"><ele>102.0</ele></trkpt>
<trkpt lon="-0.623190" lat="43.726769"><ele>102.5</ele></trkpt>
<trkpt lon="-0.623339" lat="43.726680"><ele>102.5</ele></trkpt>
<trkpt lon="-0.623523" lat="43.726592"><ele>104.0</ele></trkpt>
<trkpt lon="-0.623665" lat="43.726504"><ele>105.75</ele></trkpt>
<trkpt lon="-0.623759" lat="43.726431"><ele>107.0</ele></trkpt>
<trkpt lon="-0.623833" lat="43.726346"><ele>107.75</ele></trkpt>
<trkpt lon="-0.624016" lat="43.726065"><ele>109.5</ele></trkpt>
<trkpt lon="-0.624184" lat="43.725868"><ele>110.25</ele></trkpt>
<trkpt lon="-0.624280" lat="43.725723"><ele>110.5</ele></trkpt>
<trkpt lon="-0.624329" lat="43.725631"><ele>111.0</ele></trkpt>
<trkpt lon="-0.624369" lat="43.725530"><ele>111.5</ele></trkpt>
<trkpt lon="-0.624400" lat="43.725400"><ele>111.25</ele></trkpt>
<trkpt lon="-0.624440" lat="43.725021"><ele>110.0</ele></trkpt>
<trkpt lon="-0.624464" lat="43.724951"><ele>109.5</ele></trkpt>
<trkpt lon="-0.624500" lat="43.724878"><ele>109.0</ele></trkpt>
<trkpt lon="-0.624572" lat="43.724768"><ele>108.0</ele></trkpt>
<trkpt lon="-0.624683" lat="43.724624"><ele>107.5</ele></trkpt>
<trkpt lon="-0.625094" lat="43.724184"><ele>108.25</ele></trkpt>
<trkpt lon="-0.625569" lat="43.723714"><ele>113.25</ele></trkpt>
<trkpt lon="-0.625682" lat="43.723632"><ele>113.75</ele></trkpt>
<trkpt lon="-0.625786" lat="43.723575"><ele>114.25</ele></trkpt>
<trkpt lon="-0.625935" lat="43.723516"><ele>115.0</ele></trkpt>
<trkpt lon="-0.626130" lat="43.723460"><ele>116.0</ele></trkpt>
<trkpt lon="-0.626748" lat="43.723317"><ele>114.0</ele></trkpt>
<trkpt lon="-0.627531" lat="43.723109"><ele>114.5</ele></trkpt>
<trkpt lon="-0.628234" lat="43.722887"><ele>115.25</ele></trkpt>
<trkpt lon="-0.628450" lat="43.722804"><ele>115.75</ele></trkpt>
<trkpt lon="-0.628527" lat="43.722772"><ele>116.0</ele></trkpt>
<trkpt lon="-0.629261" lat="43.722402"><ele>118.5</ele></trkpt>
<trkpt lon="-0.629637" lat="43.722202"><ele>119.5</ele></trkpt>
<trkpt lon="-0.629946" lat="43.722024"><ele>120.0</ele></trkpt>
<trkpt lon="-0.630849" lat="43.721361"><ele>111.25</ele></trkpt>
<trkpt lon="-0.632039" lat="43.720564"><ele>102.25</ele></trkpt>
<trkpt lon="-0.632427" lat="43.720286"><ele>100.0</ele></trkpt>
<trkpt lon="-0.633050" lat="43.719813"><ele>97.5</ele></trkpt>
<trkpt lon="-0.633782" lat="43.719213"><ele>94.75</ele></trkpt>
<trkpt lon="-0.633899" lat="43.719132"><ele>94.75</ele></trkpt>
<trkpt lon="-0.634564" lat="43.718109"><ele>98.5</ele></trkpt>
<trkpt lon="-0.634607" lat="43.717968"><ele>98.5</ele></trkpt>
<trkpt lon="-0.634598" lat="43.717828"><ele>98.0</ele></trkpt>
<trkpt lon="-0.634445" lat="43.717174"><ele>90.75</ele></trkpt>
<trkpt lon="-0.634297" lat="43.716963"><ele>89.5</ele></trkpt>
<trkpt lon="-0.633954" lat="43.716597"><ele>88.25</ele></trkpt>
<trkpt lon="-0.633944" lat="43.716572"><ele>88.5</ele></trkpt>
<trkpt lon="-0.633986" lat="43.716507"><ele>88.75</ele></trkpt>
<trkpt lon="-0.633848" lat="43.715627"><ele>93.75</ele></trkpt>
<trkpt lon="-0.633769" lat="43.714940"><ele>98.0</ele></trkpt>
<trkpt lon="-0.633792" lat="43.714198"><ele>104.5</ele></trkpt>
<trkpt lon="-0.633859" lat="43.713946"><ele>108.0</ele></trkpt>
<trkpt lon="-0.633921" lat="43.713821"><ele>109.25</ele></trkpt>
<trkpt lon="-0.634042" lat="43.713698"><ele>110.0</ele></trkpt>
<trkpt lon="-0.634185" lat="43.713620"><ele>111.0</ele></trkpt>
<trkpt lon="-0.634745" lat="43.713470"><ele>112.5</ele></trkpt>
<trkpt lon="-0.635342" lat="43.713628"><ele>114.75</ele></trkpt>
<trkpt lon="-0.635476" lat="43.713658"><ele>114.75</ele></trkpt>
<trkpt lon="-0.635781" lat="43.713655"><ele>115.5</ele></trkpt>
<trkpt lon="-0.636145" lat="43.713626"><ele>114.75</ele></trkpt>
<trkpt lon="-0.636315" lat="43.713592"><ele>114.25</ele></trkpt>
<trkpt lon="-0.636497" lat="43.713499"><ele>113.0</ele></trkpt>
<trkpt lon="-0.636624" lat="43.713479"><ele>112.25</ele></trkpt>
<trkpt lon="-0.637327" lat="43.713432"><ele>109.0</ele></trkpt>
<trkpt lon="-0.637476" lat="43.713439"><ele>108.25</ele></trkpt>
<trkpt lon="-0.639290" lat="43.713685"><ele>107.0</ele></trkpt>
<trkpt lon="-0.640356" lat="43.713822"><ele>106.0</ele></trkpt>
<trkpt lon="-0.641075" lat="43.713957"><ele>107.5</ele></trkpt>
<trkpt lon="-0.641240" lat="43.713968"><ele>107.5</ele></trkpt>
<trkpt lon="-0.641362" lat="43.713942"><ele>107.75</ele></trkpt>
<trkpt lon="-0.641652" lat="43.713922"><ele>107.75</ele></trkpt>
<trkpt lon="-0.641706" lat="43.713903"><ele>108.0</ele></trkpt>
<trkpt lon="-0.641867" lat="43.713782"><ele>108.5</ele></trkpt>
<trkpt lon="-0.641971" lat="43.713743"><ele>109.0</ele></trkpt>
<trkpt lon="-0.642337" lat="43.713703"><ele>109.25</ele></trkpt>
<trkpt lon="-0.642551" lat="43.713707"><ele>110.0</ele></trkpt>
<trkpt lon="-0.642640" lat="43.713698"><ele>110.25</ele></trkpt>
<trkpt lon="-0.642807" lat="43.713633"><ele>110.75</ele></trkpt>
<trkpt lon="-0.642929" lat="43.713577"><ele>110.5</ele></trkpt>
<trkpt lon="-0.643318" lat="43.713518"><ele>110.25</ele></trkpt>
<trkpt lon="-0.643444" lat="43.713514"><ele>110.25</ele></trkpt>
<trkpt lon="-0.643603" lat="43.713544"><ele>110.75</ele></trkpt>
<trkpt lon="-0.643697" lat="43.713537"><ele>111.0</ele></trkpt>
<trkpt lon="-0.643804" lat="43.713484"><ele>111.0</ele></trkpt>
<trkpt lon="-0.643892" lat="43.713399"><ele>111.0</ele></trkpt>
<trkpt lon="-0.643964" lat="43.713296"><ele>110.75</ele></trkpt>
<trkpt lon="-0.644026" lat="43.713268"><ele>110.75</ele></trkpt>
<trkpt lon="-0.644244" lat="43.713221"><ele>111.25</ele></trkpt>
<trkpt lon="-0.644229" lat="43.713195"><ele>111.0</ele></trkpt>
<trkpt lon="-0.643883" lat="43.712618"><ele>101.0</ele></trkpt>
<trkpt lon="-0.643444" lat="43.711841"><ele>86.75</ele></trkpt>
<trkpt lon="-0.643309" lat="43.711572"><ele>82.75</ele></trkpt>
<trkpt lon="-0.643159" lat="43.711064"><ele>77.0</ele></trkpt>
<trkpt lon="-0.643110" lat="43.711005"><ele>76.5</ele></trkpt>
<trkpt lon="-0.642986" lat="43.710926"><ele>76.25</ele></trkpt>
<trkpt lon="-0.642943" lat="43.710863"><ele>76.0</ele></trkpt>
<trkpt lon="-0.642927" lat="43.710767"><ele>76.0</ele></trkpt>
<trkpt lon="-0.642916" lat="43.710531"><ele>76.0</ele></trkpt>
<trkpt lon="-0.642920" lat="43.709622"><ele>86.25</ele></trkpt>
<trkpt lon="-0.642893" lat="43.708757"><ele>98.5</ele></trkpt>
<trkpt lon="-0.642882" lat="43.708653"><ele>100.0</ele></trkpt>
<trkpt lon="-0.642855" lat="43.708568"><ele>100.75</ele></trkpt>
<trkpt lon="-0.642730" lat="43.708317"><ele>102.0</ele></trkpt>
<trkpt lon="-0.642722" lat="43.708267"><ele>102.0</ele></trkpt>
<trkpt lon="-0.642692" lat="43.708246"><ele>102.25</ele></trkpt>
<trkpt lon="-0.642671" lat="43.708217"><ele>102.25</ele></trkpt>
<trkpt lon="-0.642656" lat="43.708169"><ele>102.25</ele></trkpt>
<trkpt lon="-0.642635" lat="43.708053"><ele>102.5</ele></trkpt>
<trkpt lon="-0.642635" lat="43.707888"><ele>102.0</ele></trkpt>
<trkpt lon="-0.642675" lat="43.707740"><ele>101.5</ele></trkpt>
<trkpt lon="-0.642846" lat="43.707361"><ele>99.75</ele></trkpt>
<trkpt lon="-0.643015" lat="43.706952"><ele>99.25</ele></trkpt>
<trkpt lon="-0.643072" lat="43.706768"><ele>100.25</ele></trkpt>
<trkpt lon="-0.643088" lat="43.706680"><ele>100.75</ele></trkpt>
<trkpt lon="-0.643092" lat="43.706590"><ele>101.25</ele></trkpt>
<trkpt lon="-0.643084" lat="43.706381"><ele>102.0</ele></trkpt>
<trkpt lon="-0.643091" lat="43.706279"><ele>103.5</ele></trkpt>
<trkpt lon="-0.643110" lat="43.706165"><ele>105.0</ele></trkpt>
<trkpt lon="-0.643187" lat="43.705848"><ele>105.5</ele></trkpt>
<trkpt lon="-0.643188" lat="43.705777"><ele>105.0</ele></trkpt>
<trkpt lon="-0.643167" lat="43.705725"><ele>104.75</ele></trkpt>
<trkpt lon="-0.643141" lat="43.705691"><ele>104.75</ele></trkpt>
<trkpt lon="-0.642531" lat="43.705058"><ele>93.5</ele></trkpt>
<trkpt lon="-0.642471" lat="43.704980"><ele>91.75</ele></trkpt>
<trkpt lon="-0.642425" lat="43.704902"><ele>91.5</ele></trkpt>
<trkpt lon="-0.642260" lat="43.704538"><ele>88.25</ele></trkpt>
<trkpt lon="-0.642238" lat="43.704459"><ele>87.25</ele></trkpt>
<trkpt lon="-0.642236" lat="43.704334"><ele>86.0</ele></trkpt>
<trkpt lon="-0.642350" lat="43.703876"><ele>79.75</ele></trkpt>
<trkpt lon="-0.642681" lat="43.702676"><ele>66.25</ele></trkpt>
<trkpt lon="-0.643062" lat="43.702741"><ele>65.0</ele></trkpt>
<trkpt lon="-0.643276" lat="43.702475"><ele>65.0</ele></trkpt>
<trkpt lon="-0.644562" lat="43.701300"><ele>63.0</ele></trkpt>
<trkpt lon="-0.644624" lat="43.701243"><ele>63.25</ele></trkpt>
<trkpt lon="-0.644647" lat="43.701222"><ele>63.25</ele></trkpt>
<trkpt lon="-0.645697" lat="43.700502"><ele>64.0</ele></trkpt>
<trkpt lon="-0.645843" lat="43.700416"><ele>64.0</ele></trkpt>
<trkpt lon="-0.646043" lat="43.700363"><ele>64.0</ele></trkpt>
<trkpt lon="-0.646500" lat="43.700315"><ele>63.5</ele></trkpt>
<trkpt lon="-0.646824" lat="43.700267"><ele>63.5</ele></trkpt>
<trkpt lon="-0.647152" lat="43.700158"><ele>64.0</ele></trkpt>
<trkpt lon="-0.647330" lat="43.700024"><ele>64.0</ele></trkpt>
<trkpt lon="-0.648034" lat="43.699158"><ele>67.0</ele></trkpt>
<trkpt lon="-0.648184" lat="43.699026"><ele>67.75</ele></trkpt>
<trkpt lon="-0.648445" lat="43.698925"><ele>68.75</ele></trkpt>
<trkpt lon="-0.648689" lat="43.698883"><ele>69.0</ele></trkpt>
<trkpt lon="-0.649023" lat="43.698907"><ele>69.5</ele></trkpt>
<trkpt lon="-0.649994" lat="43.699024"><ele>71.25</ele></trkpt>
<trkpt lon="-0.650122" lat="43.699011"><ele>71.25</ele></trkpt>
<trkpt lon="-0.650241" lat="43.698969"><ele>71.0</ele></trkpt>
<trkpt lon="-0.650347" lat="43.698839"><ele>71.25</ele></trkpt>
<trkpt lon="-0.650931" lat="43.697783"><ele>73.5</ele></trkpt>
<trkpt lon="-0.651160" lat="43.697484"><ele>72.75</ele></trkpt>
<trkpt lon="-0.651777" lat="43.696896"><ele>71.75</ele></trkpt>
<trkpt lon="-0.651884" lat="43.696831"><ele>71.75</ele></trkpt>
<trkpt lon="-0.652002" lat="43.696706"><ele>72.5</ele></trkpt>
<trkpt lon="-0.652157" lat="43.696626"><ele>72.25</ele></trkpt>
<trkpt lon="-0.652297" lat="43.696555"><ele>72.75</ele></trkpt>
<trkpt lon="-0.652603" lat="43.696353"><ele>73.5</ele></trkpt>
<trkpt lon="-0.652796" lat="43.696161"><ele>74.0</ele></trkpt>
<trkpt lon="-0.652901" lat="43.695969"><ele>75.25</ele></trkpt>
<trkpt lon="-0.653024" lat="43.695540"><ele>75.5</ele></trkpt>
<trkpt lon="-0.653150" lat="43.695352"><ele>77.25</ele></trkpt>
<trkpt lon="-0.653408" lat="43.695141"><ele>77.25</ele></trkpt>
<trkpt lon="-0.653724" lat="43.694988"><ele>77.5</ele></trkpt>
<trkpt lon="-0.653928" lat="43.694881"><ele>78.25</ele></trkpt>
<trkpt lon="-0.654196" lat="43.694687"><ele>78.5</ele></trkpt>
<trkpt lon="-0.654096" lat="43.694538"><ele>80.75</ele></trkpt>
<trkpt lon="-0.653996" lat="43.694336"><ele>82.5</ele></trkpt>
<trkpt lon="-0.653888" lat="43.693677"><ele>85.0</ele></trkpt>
<trkpt lon="-0.653885" lat="43.693492"><ele>85.0</ele></trkpt>
<trkpt lon="-0.653892" lat="43.693431"><ele>84.75</ele></trkpt>
<trkpt lon="-0.654066" lat="43.692888"><ele>84.25</ele></trkpt>
<trkpt lon="-0.654082" lat="43.692850"><ele>84.25</ele></trkpt>
<trkpt lon="-0.654006" lat="43.692824"><ele>84.0</ele></trkpt>
<trkpt lon="-0.654190" lat="43.692400"><ele>87.5</ele></trkpt>
<trkpt lon="-0.654451" lat="43.691991"><ele>92.25</ele></trkpt>
<trkpt lon="-0.655639" lat="43.691176"><ele>107.0</ele></trkpt>
<trkpt lon="-0.655983" lat="43.691010"><ele>108.25</ele></trkpt>
<trkpt lon="-0.656401" lat="43.690932"><ele>108.75</ele></trkpt>
<trkpt lon="-0.658134" lat="43.690812"><ele>112.25</ele></trkpt>
<trkpt lon="-0.658705" lat="43.690704"><ele>114.0</ele></trkpt>
<trkpt lon="-0.659826" lat="43.690814"><ele>114.25</ele></trkpt>
<trkpt lon="-0.660049" lat="43.690829"><ele>115.0</ele></trkpt>
<trkpt lon="-0.660223" lat="43.690810"><ele>115.0</ele></trkpt>
<trkpt lon="-0.660413" lat="43.690738"><ele>115.5</ele></trkpt>
<trkpt lon="-0.660703" lat="43.690558"><ele>115.25</ele></trkpt>
<trkpt lon="-0.661065" lat="43.690249"><ele>114.25</ele></trkpt>
<trkpt lon="-0.661572" lat="43.689650"><ele>114.5</ele></trkpt>
<trkpt lon="-0.662216" lat="43.689047"><ele>113.25</ele></trkpt>
<trkpt lon="-0.662803" lat="43.688550"><ele>113.25</ele></trkpt>
<trkpt lon="-0.663340" lat="43.688196"><ele>114.5</ele></trkpt>
<trkpt lon="-0.663667" lat="43.687945"><ele>113.5</ele></trkpt>
<trkpt lon="-0.664083" lat="43.687600"><ele>112.25</ele></trkpt>
<trkpt lon="-0.664557" lat="43.687146"><ele>113.25</ele></trkpt>
<trkpt lon="-0.665098" lat="43.686689"><ele>115.5</ele></trkpt>
<trkpt lon="-0.665815" lat="43.686045"><ele>112.5</ele></trkpt>
<trkpt lon="-0.666261" lat="43.686181"><ele>112.25</ele></trkpt>
<trkpt lon="-0.667501" lat="43.686275"><ele>112.0</ele></trkpt>
<trkpt lon="-0.667894" lat="43.685635"><ele>110.0</ele></trkpt>
<trkpt lon="-0.668775" lat="43.684298"><ele>118.25</ele></trkpt>
<trkpt lon="-0.668915" lat="43.684035"><ele>119.25</ele></trkpt>
<trkpt lon="-0.669137" lat="43.684025"><ele>119.25</ele></trkpt>
<trkpt lon="-0.670831" lat="43.683917"><ele>121.0</ele></trkpt>
<trkpt lon="-0.673084" lat="43.683946"><ele>120.0</ele></trkpt>
<trkpt lon="-0.674063" lat="43.683965"><ele>119.75</ele></trkpt>
<trkpt lon="-0.674578" lat="43.683892"><ele>118.5</ele></trkpt>
<trkpt lon="-0.675040" lat="43.683760"><ele>118.5</ele></trkpt>
<trkpt lon="-0.675209" lat="43.683690"><ele>118.0</ele></trkpt>
<trkpt lon="-0.675367" lat="43.683572"><ele>118.25</ele></trkpt>
<trkpt lon="-0.675517" lat="43.683387"><ele>119.0</ele></trkpt>
<trkpt lon="-0.675667" lat="43.683116"><ele>120.5</ele></trkpt>
<trkpt lon="-0.675925" lat="43.682584"><ele>121.75</ele></trkpt>
<trkpt lon="-0.676097" lat="43.682363"><ele>122.0</ele></trkpt>
<trkpt lon="-0.676180" lat="43.682287"><ele>121.75</ele></trkpt>
<trkpt lon="-0.676405" lat="43.682177"><ele>121.0</ele></trkpt>
<trkpt lon="-0.677153" lat="43.681870"><ele>120.5</ele></trkpt>
<trkpt lon="-0.677765" lat="43.681585"><ele>119.5</ele></trkpt>
<trkpt lon="-0.678872" lat="43.681017"><ele>118.5</ele></trkpt>
<trkpt lon="-0.681622" lat="43.679725"><ele>106.25</ele></trkpt>
<trkpt lon="-0.682134" lat="43.679471"><ele>105.25</ele></trkpt>
<trkpt lon="-0.682543" lat="43.679249"><ele>104.75</ele></trkpt>
<trkpt lon="-0.683480" lat="43.678282"><ele>101.0</ele></trkpt>
<trkpt lon="-0.683859" lat="43.678022"><ele>99.75</ele></trkpt>
<trkpt lon="-0.685377" lat="43.677157"><ele>97.0</ele></trkpt>
<trkpt lon="-0.685587" lat="43.677000"><ele>96.75</ele></trkpt>
<trkpt lon="-0.685650" lat="43.676952"><ele>96.75</ele></trkpt>
<trkpt lon="-0.685462" lat="43.676882"><ele>97.25</ele></trkpt>
<trkpt lon="-0.684729" lat="43.676723"><ele>98.0</ele></trkpt>
<trkpt lon="-0.683035" lat="43.676429"><ele>94.0</ele></trkpt>
<trkpt lon="-0.682948" lat="43.676393"><ele>94.0</ele></trkpt>
<trkpt lon="-0.682859" lat="43.676345"><ele>93.75</ele></trkpt>
<trkpt lon="-0.682605" lat="43.676178"><ele>94.5</ele></trkpt>
<trkpt lon="-0.682463" lat="43.676103"><ele>95.25</ele></trkpt>
<trkpt lon="-0.681167" lat="43.675560"><ele>97.0</ele></trkpt>
<trkpt lon="-0.680604" lat="43.675318"><ele>96.0</ele></trkpt>
<trkpt lon="-0.678390" lat="43.674236"><ele>94.0</ele></trkpt>
<trkpt lon="-0.678274" lat="43.674195"><ele>94.0</ele></trkpt>
<trkpt lon="-0.678113" lat="43.674159"><ele>93.75</ele></trkpt>
<trkpt lon="-0.677486" lat="43.674042"><ele>95.0</ele></trkpt>
<trkpt lon="-0.676990" lat="43.673957"><ele>93.5</ele></trkpt>
<trkpt lon="-0.676759" lat="43.673934"><ele>92.5</ele></trkpt>
<trkpt lon="-0.675922" lat="43.673904"><ele>88.25</ele></trkpt>
<trkpt lon="-0.675815" lat="43.673881"><ele>88.0</ele></trkpt>
<trkpt lon="-0.675725" lat="43.673840"><ele>88.0</ele></trkpt>
<trkpt lon="-0.675639" lat="43.673777"><ele>87.5</ele></trkpt>
<trkpt lon="-0.675061" lat="43.673194"><ele>80.0</ele></trkpt>
<trkpt lon="-0.674992" lat="43.673155"><ele>79.5</ele></trkpt>
<trkpt lon="-0.674920" lat="43.673146"><ele>79.5</ele></trkpt>
<trkpt lon="-0.674836" lat="43.673146"><ele>79.5</ele></trkpt>
<trkpt lon="-0.674161" lat="43.673238"><ele>79.5</ele></trkpt>
<trkpt lon="-0.674086" lat="43.673228"><ele>79.5</ele></trkpt>
<trkpt lon="-0.674016" lat="43.673192"><ele>79.25</ele></trkpt>
<trkpt lon="-0.673976" lat="43.673146"><ele>79.25</ele></trkpt>
<trkpt lon="-0.673956" lat="43.673080"><ele>79.0</ele></trkpt>
<trkpt lon="-0.673947" lat="43.672902"><ele>79.0</ele></trkpt>
<trkpt lon="-0.673964" lat="43.672768"><ele>79.0</ele></trkpt>
<trkpt lon="-0.673996" lat="43.672685"><ele>79.0</ele></trkpt>
<trkpt lon="-0.674088" lat="43.672562"><ele>79.0</ele></trkpt>
<trkpt lon="-0.674143" lat="43.672505"><ele>79.0</ele></trkpt>
<trkpt lon="-0.674293" lat="43.672420"><ele>79.75</ele></trkpt>
<trkpt lon="-0.674331" lat="43.672343"><ele>80.5</ele></trkpt>
<trkpt lon="-0.674328" lat="43.672280"><ele>81.0</ele></trkpt>
<trkpt lon="-0.674299" lat="43.672240"><ele>81.75</ele></trkpt>
<trkpt lon="-0.674230" lat="43.672171"><ele>82.75</ele></trkpt>
<trkpt lon="-0.674091" lat="43.672084"><ele>84.0</ele></trkpt>
<trkpt lon="-0.673496" lat="43.671857"><ele>91.25</ele></trkpt>
<trkpt lon="-0.673643" lat="43.671795"><ele>92.0</ele></trkpt>
<trkpt lon="-0.673566" lat="43.671713"><ele>94.0</ele></trkpt>
<trkpt lon="-0.673519" lat="43.671639"><ele>95.5</ele></trkpt>
<trkpt lon="-0.673357" lat="43.671343"><ele>97.5</ele></trkpt>
<trkpt lon="-0.673213" lat="43.671109"><ele>100.75</ele></trkpt>
<trkpt lon="-0.673130" lat="43.670932"><ele>101.25</ele></trkpt>
<trkpt lon="-0.673104" lat="43.670893"><ele>101.25</ele></trkpt>
<trkpt lon="-0.672851" lat="43.670437"><ele>101.75</ele></trkpt>
<trkpt lon="-0.672727" lat="43.670172"><ele>101.0</ele></trkpt>
<trkpt lon="-0.672634" lat="43.670028"><ele>100.5</ele></trkpt>
<trkpt lon="-0.672592" lat="43.669980"><ele>100.25</ele></trkpt>
<trkpt lon="-0.672549" lat="43.669908"><ele>99.75</ele></trkpt>
<trkpt lon="-0.673816" lat="43.669629"><ele>97.5</ele></trkpt>
<trkpt lon="-0.674266" lat="43.669512"><ele>96.75</ele></trkpt>
<trkpt lon="-0.675725" lat="43.669408"><ele>96.75</ele></trkpt>
<trkpt lon="-0.675862" lat="43.669440"><ele>96.75</ele></trkpt>
<trkpt lon="-0.675915" lat="43.669460"><ele>96.75</ele></trkpt>
<trkpt lon="-0.676074" lat="43.669294"><ele>95.5</ele></trkpt>
<trkpt lon="-0.676488" lat="43.668782"><ele>93.25</ele></trkpt>
<trkpt lon="-0.676821" lat="43.668402"><ele>91.25</ele></trkpt>
<trkpt lon="-0.677141" lat="43.668172"><ele>88.75</ele></trkpt>
<trkpt lon="-0.677511" lat="43.667974"><ele>86.25</ele></trkpt>
<trkpt lon="-0.679121" lat="43.667357"><ele>77.0</ele></trkpt>
<trkpt lon="-0.679461" lat="43.667179"><ele>75.0</ele></trkpt>
<trkpt lon="-0.679747" lat="43.666992"><ele>73.75</ele></trkpt>
<trkpt lon="-0.679992" lat="43.666774"><ele>73.5</ele></trkpt>
<trkpt lon="-0.680146" lat="43.666578"><ele>72.0</ele></trkpt>
<trkpt lon="-0.680283" lat="43.666340"><ele>70.5</ele></trkpt>
<trkpt lon="-0.680616" lat="43.665598"><ele>66.5</ele></trkpt>
<trkpt lon="-0.680916" lat="43.664891"><ele>63.25</ele></trkpt>
<trkpt lon="-0.681813" lat="43.662803"><ele>59.0</ele></trkpt>
<trkpt lon="-0.681903" lat="43.662587"><ele>60.0</ele></trkpt>
<trkpt lon="-0.682206" lat="43.661889"><ele>60.75</ele></trkpt>
<trkpt lon="-0.682235" lat="43.661813"><ele>60.5</ele></trkpt>
<trkpt lon="-0.682376" lat="43.661453"><ele>59.75</ele></trkpt>
<trkpt lon="-0.682434" lat="43.661229"><ele>60.25</ele></trkpt>
<trkpt lon="-0.682432" lat="43.661106"><ele>60.75</ele></trkpt>
<trkpt lon="-0.682406" lat="43.660972"><ele>60.75</ele></trkpt>
<trkpt lon="-0.682513" lat="43.660883"><ele>61.75</ele></trkpt>
<trkpt lon="-0.682597" lat="43.660801"><ele>61.5</ele></trkpt>
<trkpt lon="-0.682995" lat="43.660244"><ele>63.75</ele></trkpt>
<trkpt lon="-0.683051" lat="43.660146"><ele>64.25</ele></trkpt>
<trkpt lon="-0.683085" lat="43.660068"><ele>64.75</ele></trkpt>
<trkpt lon="-0.683140" lat="43.659777"><ele>66.5</ele></trkpt>
<trkpt lon="-0.683260" lat="43.659399"><ele>69.0</ele></trkpt>
<trkpt lon="-0.683273" lat="43.659256"><ele>70.5</ele></trkpt>
<trkpt lon="-0.683262" lat="43.659172"><ele>71.25</ele></trkpt>
<trkpt lon="-0.683204" lat="43.658981"><ele>73.75</ele></trkpt>
<trkpt lon="-0.682993" lat="43.658586"><ele>80.25</ele></trkpt>
<trkpt lon="-0.682970" lat="43.658515"><ele>81.25</ele></trkpt>
<trkpt lon="-0.682971" lat="43.658437"><ele>82.5</ele></trkpt>
<trkpt lon="-0.682984" lat="43.658378"><ele>83.25</ele></trkpt>
<trkpt lon="-0.683011" lat="43.658319"><ele>84.0</ele></trkpt>
<trkpt lon="-0.683156" lat="43.658081"><ele>87.25</ele></trkpt>
<trkpt lon="-0.683191" lat="43.658005"><ele>87.75</ele></trkpt>
<trkpt lon="-0.683256" lat="43.657716"><ele>90.0</ele></trkpt>
<trkpt lon="-0.683260" lat="43.657634"><ele>91.0</ele></trkpt>
<trkpt lon="-0.683251" lat="43.657588"><ele>91.5</ele></trkpt>
<trkpt lon="-0.683242" lat="43.657544"><ele>92.0</ele></trkpt>
<trkpt lon="-0.683200" lat="43.657437"><ele>93.25</ele></trkpt>
<trkpt lon="-0.682928" lat="43.656917"><ele>97.75</ele></trkpt>
<trkpt lon="-0.682901" lat="43.656853"><ele>98.25</ele></trkpt>
<trkpt lon="-0.682890" lat="43.656799"><ele>99.0</ele></trkpt>
<trkpt lon="-0.682892" lat="43.656737"><ele>99.75</ele></trkpt>
<trkpt lon="-0.682915" lat="43.656673"><ele>100.25</ele></trkpt>
<trkpt lon="-0.683115" lat="43.656388"><ele>100.0</ele></trkpt>
<trkpt lon="-0.683164" lat="43.656299"><ele>101.25</ele></trkpt>
<trkpt lon="-0.683187" lat="43.656210"><ele>102.0</ele></trkpt>
<trkpt lon="-0.683234" lat="43.655901"><ele>103.5</ele></trkpt>
<trkpt lon="-0.683273" lat="43.655814"><ele>103.75</ele></trkpt>
<trkpt lon="-0.683311" lat="43.655762"><ele>104.25</ele></trkpt>
<trkpt lon="-0.683485" lat="43.655645"><ele>105.5</ele></trkpt>
<trkpt lon="-0.683585" lat="43.655594"><ele>105.5</ele></trkpt>
<trkpt lon="-0.684109" lat="43.655371"><ele>110.5</ele></trkpt>
<trkpt lon="-0.684185" lat="43.655317"><ele>111.25</ele></trkpt>
<trkpt lon="-0.684265" lat="43.655253"><ele>112.5</ele></trkpt>
<trkpt lon="-0.684323" lat="43.655177"><ele>113.75</ele></trkpt>
<trkpt lon="-0.684383" lat="43.655041"><ele>115.5</ele></trkpt>
<trkpt lon="-0.684388" lat="43.654983"><ele>116.0</ele></trkpt>
<trkpt lon="-0.684378" lat="43.654965"><ele>116.25</ele></trkpt>
<trkpt lon="-0.684360" lat="43.654934"><ele>116.5</ele></trkpt>
<trkpt lon="-0.685405" lat="43.655011"><ele>120.0</ele></trkpt>
<trkpt lon="-0.685501" lat="43.655009"><ele>120.0</ele></trkpt>
<trkpt lon="-0.685578" lat="43.654994"><ele>120.0</ele></trkpt>
<trkpt lon="-0.685680" lat="43.654874"><ele>120.5</ele></trkpt>
<trkpt lon="-0.685799" lat="43.654724"><ele>120.25</ele></trkpt>
<trkpt lon="-0.685885" lat="43.654646"><ele>120.0</ele></trkpt>
<trkpt lon="-0.685951" lat="43.654617"><ele>120.25</ele></trkpt>
<trkpt lon="-0.686212" lat="43.654569"><ele>120.0</ele></trkpt>
<trkpt lon="-0.686255" lat="43.654548"><ele>119.75</ele></trkpt>
<trkpt lon="-0.686283" lat="43.654513"><ele>119.5</ele></trkpt>
<trkpt lon="-0.686417" lat="43.654489"><ele>119.0</ele></trkpt>
<trkpt lon="-0.686550" lat="43.654452"><ele>117.75</ele></trkpt>
<trkpt lon="-0.686785" lat="43.654463"><ele>117.0</ele></trkpt>
<trkpt lon="-0.686962" lat="43.654498"><ele>116.75</ele></trkpt>
<trkpt lon="-0.686981" lat="43.654466"><ele>116.75</ele></trkpt>
<trkpt lon="-0.687028" lat="43.654402"><ele>117.25</ele></trkpt>
<trkpt lon="-0.687200" lat="43.654258"><ele>118.0</ele></trkpt>
<trkpt lon="-0.687438" lat="43.653901"><ele>121.0</ele></trkpt>
<trkpt lon="-0.687516" lat="43.653818"><ele>121.0</ele></trkpt>
<trkpt lon="-0.687576" lat="43.653761"><ele>121.0</ele></trkpt>
<trkpt lon="-0.687746" lat="43.653627"><ele>120.0</ele></trkpt>
<trkpt lon="-0.687852" lat="43.653560"><ele>119.75</ele></trkpt>
<trkpt lon="-0.688242" lat="43.653347"><ele>118.5</ele></trkpt>
<trkpt lon="-0.688295" lat="43.653303"><ele>118.25</ele></trkpt>
<trkpt lon="-0.688726" lat="43.652990"><ele>116.5</ele></trkpt>
<trkpt lon="-0.688897" lat="43.652888"><ele>116.0</ele></trkpt>
<trkpt lon="-0.688946" lat="43.652849"><ele>115.75</ele></trkpt>
<trkpt lon="-0.689014" lat="43.652774"><ele>115.5</ele></trkpt>
<trkpt lon="-0.689029" lat="43.652732"><ele>114.75</ele></trkpt>
<trkpt lon="-0.689024" lat="43.652675"><ele>114.0</ele></trkpt>
<trkpt lon="-0.689156" lat="43.652626"><ele>112.25</ele></trkpt>
<trkpt lon="-0.689357" lat="43.652620"><ele>110.25</ele></trkpt>
<trkpt lon="-0.689530" lat="43.652718"><ele>108.0</ele></trkpt>
<trkpt lon="-0.689792" lat="43.652779"><ele>103.0</ele></trkpt>
<trkpt lon="-0.690072" lat="43.652735"><ele>100.25</ele></trkpt>
<trkpt lon="-0.690422" lat="43.652265"><ele>94.25</ele></trkpt>
<trkpt lon="-0.690529" lat="43.651859"><ele>88.75</ele></trkpt>
<trkpt lon="-0.690688" lat="43.651734"><ele>86.5</ele></trkpt>
<trkpt lon="-0.690880" lat="43.651616"><ele>83.0</ele></trkpt>
<trkpt lon="-0.690908" lat="43.651427"><ele>81.75</ele></trkpt>
<trkpt lon="-0.690889" lat="43.651133"><ele>79.0</ele></trkpt>
<trkpt lon="-0.691323" lat="43.650369"><ele>77.5</ele></trkpt>
<trkpt lon="-0.691571" lat="43.649876"><ele>76.0</ele></trkpt>
<trkpt lon="-0.691767" lat="43.649139"><ele>75.75</ele></trkpt>
<trkpt lon="-0.691972" lat="43.648092"><ele>73.0</ele></trkpt>
<trkpt lon="-0.691941" lat="43.647587"><ele>72.0</ele></trkpt>
<trkpt lon="-0.691944" lat="43.647131"><ele>71.5</ele></trkpt>
<trkpt lon="-0.692015" lat="43.646658"><ele>72.75</ele></trkpt>
<trkpt lon="-0.691978" lat="43.646417"><ele>74.25</ele></trkpt>
<trkpt lon="-0.691969" lat="43.646355"><ele>75.0</ele></trkpt>
<trkpt lon="-0.691796" lat="43.645695"><ele>83.25</ele></trkpt>
<trkpt lon="-0.691325" lat="43.644627"><ele>88.25</ele></trkpt>
<trkpt lon="-0.691185" lat="43.644346"><ele>90.25</ele></trkpt>
<trkpt lon="-0.691117" lat="43.644112"><ele>93.0</ele></trkpt>
<trkpt lon="-0.691071" lat="43.643675"><ele>100.0</ele></trkpt>
<trkpt lon="-0.690987" lat="43.643309"><ele>104.5</ele></trkpt>
<trkpt lon="-0.691400" lat="43.642700"><ele>108.0</ele></trkpt>
<trkpt lon="-0.691386" lat="43.642567"><ele>108.75</ele></trkpt>
<trkpt lon="-0.691304" lat="43.642435"><ele>110.0</ele></trkpt>
<trkpt lon="-0.690672" lat="43.641938"><ele>116.5</ele></trkpt>
<trkpt lon="-0.690241" lat="43.641413"><ele>118.75</ele></trkpt>
<trkpt lon="-0.690225" lat="43.641327"><ele>118.25</ele></trkpt>
<trkpt lon="-0.690241" lat="43.641213"><ele>117.75</ele></trkpt>
<trkpt lon="-0.690676" lat="43.640843"><ele>119.25</ele></trkpt>
<trkpt lon="-0.690916" lat="43.640136"><ele>126.25</ele></trkpt>
<trkpt lon="-0.691567" lat="43.639569"><ele>124.25</ele></trkpt>
<trkpt lon="-0.691744" lat="43.639330"><ele>123.0</ele></trkpt>
<trkpt lon="-0.691771" lat="43.639229"><ele>123.5</ele></trkpt>
<trkpt lon="-0.691861" lat="43.638991"><ele>123.75</ele></trkpt>
<trkpt lon="-0.691868" lat="43.638961"><ele>123.75</ele></trkpt>
<trkpt lon="-0.692246" lat="43.638783"><ele>122.25</ele></trkpt>
<trkpt lon="-0.692447" lat="43.638653"><ele>122.0</ele></trkpt>
<trkpt lon="-0.693851" lat="43.637216"><ele>121.5</ele></trkpt>
<trkpt lon="-0.693661" lat="43.637138"><ele>120.0</ele></trkpt>
<trkpt lon="-0.693624" lat="43.637029"><ele>119.25</ele></trkpt>
<trkpt lon="-0.693633" lat="43.636793"><ele>118.25</ele></trkpt>
<trkpt lon="-0.693606" lat="43.636527"><ele>116.75</ele></trkpt>
<trkpt lon="-0.693482" lat="43.636300"><ele>113.75</ele></trkpt>
<trkpt lon="-0.693265" lat="43.636180"><ele>109.0</ele></trkpt>
<trkpt lon="-0.692961" lat="43.636143"><ele>105.25</ele></trkpt>
<trkpt lon="-0.693087" lat="43.635872"><ele>104.75</ele></trkpt>
<trkpt lon="-0.693168" lat="43.635773"><ele>105.5</ele></trkpt>
<trkpt lon="-0.693309" lat="43.635651"><ele>106.5</ele></trkpt>
<trkpt lon="-0.693695" lat="43.635370"><ele>113.5</ele></trkpt>
<trkpt lon="-0.694046" lat="43.635052"><ele>118.75</ele></trkpt>
<trkpt lon="-0.694172" lat="43.634973"><ele>120.75</ele></trkpt>
<trkpt lon="-0.694544" lat="43.634804"><ele>124.25</ele></trkpt>
<trkpt lon="-0.694615" lat="43.634789"><ele>124.25</ele></trkpt>
<trkpt lon="-0.694722" lat="43.634792"><ele>124.5</ele></trkpt>
<trkpt lon="-0.694929" lat="43.634838"><ele>124.0</ele></trkpt>
<trkpt lon="-0.694952" lat="43.634513"><ele>124.5</ele></trkpt>
<trkpt lon="-0.694955" lat="43.634479"><ele>124.75</ele></trkpt>
<trkpt lon="-0.694996" lat="43.634431"><ele>124.75</ele></trkpt>
<trkpt lon="-0.694982" lat="43.634367"><ele>124.5</ele></trkpt>
<trkpt lon="-0.694940" lat="43.634284"><ele>124.0</ele></trkpt>
<trkpt lon="-0.694901" lat="43.634246"><ele>123.75</ele></trkpt>
<trkpt lon="-0.694791" lat="43.634270"><ele>123.5</ele></trkpt>
<trkpt lon="-0.694775" lat="43.634220"><ele>123.25</ele></trkpt>
<trkpt lon="-0.694755" lat="43.634150"><ele>123.0</ele></trkpt>
<trkpt lon="-0.694752" lat="43.634138"><ele>123.0</ele></trkpt>
<trkpt lon="-0.694749" lat="43.634125"><ele>122.75</ele></trkpt>
<trkpt lon="-0.694734" lat="43.634064"><ele>122.5</ele></trkpt>
<trkpt lon="-0.694717" lat="43.633989"><ele>122.25</ele></trkpt>
<trkpt lon="-0.694784" lat="43.633986"><ele>122.5</ele></trkpt>
<trkpt lon="-0.695106" lat="43.633943"><ele>122.75</ele></trkpt>
<trkpt lon="-0.695076" lat="43.633766"><ele>121.5</ele></trkpt>
<trkpt lon="-0.695054" lat="43.633732"><ele>121.5</ele></trkpt>
<trkpt lon="-0.695072" lat="43.633724"><ele>121.25</ele></trkpt>
<trkpt lon="-0.695370" lat="43.633683"><ele>118.25</ele></trkpt>
<trkpt lon="-0.695489" lat="43.633604"><ele>115.0</ele></trkpt>
<trkpt lon="-0.695497" lat="43.633574"><ele>114.25</ele></trkpt>
<trkpt lon="-0.695475" lat="43.633516"><ele>113.75</ele></trkpt>
<trkpt lon="-0.695465" lat="43.633379"><ele>111.5</ele></trkpt>
<trkpt lon="-0.695382" lat="43.633176"><ele>109.5</ele></trkpt>
<trkpt lon="-0.695282" lat="43.632855"><ele>107.5</ele></trkpt>
<trkpt lon="-0.695253" lat="43.632825"><ele>107.5</ele></trkpt>
<trkpt lon="-0.695157" lat="43.632654"><ele>109.0</ele></trkpt>
<trkpt lon="-0.695107" lat="43.632546"><ele>110.5</ele></trkpt>
<trkpt lon="-0.695042" lat="43.632371"><ele>113.0</ele></trkpt>
<trkpt lon="-0.694965" lat="43.632249"><ele>114.5</ele></trkpt>
<trkpt lon="-0.694917" lat="43.632149"><ele>115.75</ele></trkpt>
<trkpt lon="-0.694891" lat="43.632028"><ele>117.5</ele></trkpt>
<trkpt lon="-0.694893" lat="43.631988"><ele>118.0</ele></trkpt>
<trkpt lon="-0.694961" lat="43.631915"><ele>119.0</ele></trkpt>
<trkpt lon="-0.695001" lat="43.631875"><ele>119.25</ele></trkpt>
<trkpt lon="-0.694898" lat="43.631748"><ele>120.25</ele></trkpt>
<trkpt lon="-0.695029" lat="43.631678"><ele>120.75</ele></trkpt>
<trkpt lon="-0.695214" lat="43.631516"><ele>121.75</ele></trkpt>
<trkpt lon="-0.695391" lat="43.631312"><ele>122.0</ele></trkpt>
<trkpt lon="-0.695497" lat="43.631165"><ele>122.0</ele></trkpt>
<trkpt lon="-0.695533" lat="43.631099"><ele>122.0</ele></trkpt>
<trkpt lon="-0.695548" lat="43.631013"><ele>121.5</ele></trkpt>
<trkpt lon="-0.695519" lat="43.630913"><ele>121.5</ele></trkpt>
<trkpt lon="-0.695484" lat="43.630845"><ele>121.75</ele></trkpt>
<trkpt lon="-0.695468" lat="43.630812"><ele>121.75</ele></trkpt>
<trkpt lon="-0.695218" lat="43.630469"><ele>119.75</ele></trkpt>
<trkpt lon="-0.694604" lat="43.629769"><ele>116.5</ele></trkpt>
<trkpt lon="-0.694492" lat="43.629476"><ele>114.0</ele></trkpt>
<trkpt lon="-0.694453" lat="43.629206"><ele>111.25</ele></trkpt>
<trkpt lon="-0.694527" lat="43.628908"><ele>110.25</ele></trkpt>
<trkpt lon="-0.694758" lat="43.628310"><ele>105.75</ele></trkpt>
<trkpt lon="-0.695057" lat="43.627308"><ele>99.25</ele></trkpt>
<trkpt lon="-0.695078" lat="43.626998"><ele>98.25</ele></trkpt>
<trkpt lon="-0.694370" lat="43.625718"><ele>89.75</ele></trkpt>
<trkpt lon="-0.694316" lat="43.625549"><ele>88.75</ele></trkpt>
<trkpt lon="-0.694296" lat="43.625403"><ele>88.25</ele></trkpt>
<trkpt lon="-0.694317" lat="43.625235"><ele>87.5</ele></trkpt>
<trkpt lon="-0.694338" lat="43.625165"><ele>86.75</ele></trkpt>
<trkpt lon="-0.694386" lat="43.625070"><ele>85.75</ele></trkpt>
<trkpt lon="-0.694499" lat="43.624920"><ele>84.75</ele></trkpt>
<trkpt lon="-0.694692" lat="43.624722"><ele>83.75</ele></trkpt>
<trkpt lon="-0.694824" lat="43.624611"><ele>83.25</ele></trkpt>
<trkpt lon="-0.695135" lat="43.624390"><ele>81.5</ele></trkpt>
<trkpt lon="-0.695529" lat="43.624165"><ele>79.0</ele></trkpt>
<trkpt lon="-0.695921" lat="43.623974"><ele>77.75</ele></trkpt>
<trkpt lon="-0.696411" lat="43.623815"><ele>74.25</ele></trkpt>
<trkpt lon="-0.696886" lat="43.623724"><ele>73.25</ele></trkpt>
<trkpt lon="-0.697579" lat="43.623643"><ele>69.75</ele></trkpt>
<trkpt lon="-0.698884" lat="43.623532"><ele>63.25</ele></trkpt>
<trkpt lon="-0.700368" lat="43.623417"><ele>56.0</ele></trkpt>
<trkpt lon="-0.700885" lat="43.623312"><ele>53.5</ele></trkpt>
<trkpt lon="-0.701368" lat="43.623174"><ele>51.75</ele></trkpt>
<trkpt lon="-0.701757" lat="43.623017"><ele>50.75</ele></trkpt>
<trkpt lon="-0.702296" lat="43.622736"><ele>48.75</ele></trkpt>
<trkpt lon="-0.705035" lat="43.621148"><ele>43.0</ele></trkpt>
<trkpt lon="-0.705976" lat="43.620601"><ele>41.5</ele></trkpt>
<trkpt lon="-0.706515" lat="43.620290"><ele>41.0</ele></trkpt>
<trkpt lon="-0.707755" lat="43.619574"><ele>39.5</ele></trkpt>
<trkpt lon="-0.711730" lat="43.617235"><ele>38.75</ele></trkpt>
<trkpt lon="-0.714311" lat="43.615737"><ele>38.25</ele></trkpt>
<trkpt lon="-0.714626" lat="43.615551"><ele>38.75</ele></trkpt>
<trkpt lon="-0.716764" lat="43.614328"><ele>38.0</ele></trkpt>
<trkpt lon="-0.718274" lat="43.613436"><ele>38.0</ele></trkpt>
<trkpt lon="-0.722488" lat="43.611001"><ele>41.0</ele></trkpt>
<trkpt lon="-0.722707" lat="43.610843"><ele>41.0</ele></trkpt>
<trkpt lon="-0.722830" lat="43.610879"><ele>41.0</ele></trkpt>
<trkpt lon="-0.722987" lat="43.610858"><ele>41.0</ele></trkpt>
<trkpt lon="-0.723307" lat="43.610682"><ele>41.75</ele></trkpt>
<trkpt lon="-0.723579" lat="43.610582"><ele>42.0</ele></trkpt>
<trkpt lon="-0.724061" lat="43.610482"><ele>42.75</ele></trkpt>
<trkpt lon="-0.724334" lat="43.610289"><ele>45.75</ele></trkpt>
<trkpt lon="-0.724396" lat="43.610221"><ele>46.5</ele></trkpt>
<trkpt lon="-0.724636" lat="43.610047"><ele>48.5</ele></trkpt>
<trkpt lon="-0.724778" lat="43.609932"><ele>49.0</ele></trkpt>
<trkpt lon="-0.724947" lat="43.609863"><ele>49.25</ele></trkpt>
<trkpt lon="-0.725390" lat="43.609772"><ele>55.75</ele></trkpt>
<trkpt lon="-0.725875" lat="43.609712"><ele>61.5</ele></trkpt>
<trkpt lon="-0.726318" lat="43.609638"><ele>67.25</ele></trkpt>
<trkpt lon="-0.726492" lat="43.609641"><ele>69.0</ele></trkpt>
<trkpt lon="-0.726695" lat="43.609697"><ele>71.0</ele></trkpt>
<trkpt lon="-0.726802" lat="43.609733"><ele>71.5</ele></trkpt>
<trkpt lon="-0.726993" lat="43.609743"><ele>72.25</ele></trkpt>
<trkpt lon="-0.727092" lat="43.609737"><ele>72.75</ele></trkpt>
<trkpt lon="-0.727632" lat="43.609601"><ele>74.0</ele></trkpt>
<trkpt lon="-0.728190" lat="43.609445"><ele>74.75</ele></trkpt>
<trkpt lon="-0.728539" lat="43.609360"><ele>74.5</ele></trkpt>
<trkpt lon="-0.729354" lat="43.609236"><ele>76.25</ele></trkpt>
<trkpt lon="-0.729975" lat="43.609128"><ele>77.0</ele></trkpt>
<trkpt lon="-0.730237" lat="43.609043"><ele>76.5</ele></trkpt>
<trkpt lon="-0.730568" lat="43.608851"><ele>76.0</ele></trkpt>
<trkpt lon="-0.732462" lat="43.607757"><ele>79.0</ele></trkpt>
<trkpt lon="-0.734187" lat="43.606704"><ele>80.0</ele></trkpt>
<trkpt lon="-0.735913" lat="43.604666"><ele>80.0</ele></trkpt>
<trkpt lon="-0.736093" lat="43.604319"><ele>79.5</ele></trkpt>
<trkpt lon="-0.736147" lat="43.603981"><ele>78.75</ele></trkpt>
<trkpt lon="-0.736055" lat="43.603528"><ele>79.0</ele></trkpt>
<trkpt lon="-0.736026" lat="43.603103"><ele>80.0</ele></trkpt>
<trkpt lon="-0.736155" lat="43.602862"><ele>80.0</ele></trkpt>
<trkpt lon="-0.736430" lat="43.602581"><ele>81.0</ele></trkpt>
<trkpt lon="-0.736742" lat="43.602382"><ele>81.25</ele></trkpt>
<trkpt lon="-0.737576" lat="43.602183"><ele>81.75</ele></trkpt>
<trkpt lon="-0.738197" lat="43.601978"><ele>81.5</ele></trkpt>
<trkpt lon="-0.738533" lat="43.601828"><ele>82.0</ele></trkpt>
<trkpt lon="-0.738804" lat="43.601475"><ele>82.0</ele></trkpt>
<trkpt lon="-0.739091" lat="43.600703"><ele>82.0</ele></trkpt>
<trkpt lon="-0.739498" lat="43.600024"><ele>82.0</ele></trkpt>
<trkpt lon="-0.739594" lat="43.599602"><ele>83.0</ele></trkpt>
<trkpt lon="-0.739573" lat="43.599080"><ele>83.0</ele></trkpt>
<trkpt lon="-0.739483" lat="43.598787"><ele>82.5</ele></trkpt>
<trkpt lon="-0.739419" lat="43.598522"><ele>82.0</ele></trkpt>
<trkpt lon="-0.739457" lat="43.598000"><ele>82.0</ele></trkpt>
<trkpt lon="-0.739482" lat="43.597770"><ele>82.0</ele></trkpt>
<trkpt lon="-0.739590" lat="43.597592"><ele>82.25</ele></trkpt>
<trkpt lon="-0.740427" lat="43.597088"><ele>81.25</ele></trkpt>
<trkpt lon="-0.741208" lat="43.596216"><ele>81.5</ele></trkpt>
<trkpt lon="-0.741296" lat="43.596071"><ele>81.0</ele></trkpt>
<trkpt lon="-0.741413" lat="43.595926"><ele>79.75</ele></trkpt>
<trkpt lon="-0.741522" lat="43.595833"><ele>79.75</ele></trkpt>
<trkpt lon="-0.741590" lat="43.595784"><ele>80.25</ele></trkpt>
<trkpt lon="-0.741712" lat="43.595724"><ele>80.25</ele></trkpt>
<trkpt lon="-0.741971" lat="43.595631"><ele>76.75</ele></trkpt>
<trkpt lon="-0.742202" lat="43.595533"><ele>71.25</ele></trkpt>
<trkpt lon="-0.742530" lat="43.595417"><ele>70.25</ele></trkpt>
<trkpt lon="-0.742905" lat="43.595244"><ele>66.0</ele></trkpt>
<trkpt lon="-0.743082" lat="43.595059"><ele>62.5</ele></trkpt>
<trkpt lon="-0.743180" lat="43.594894"><ele>60.5</ele></trkpt>
<trkpt lon="-0.743198" lat="43.594864"><ele>60.25</ele></trkpt>
<trkpt lon="-0.743306" lat="43.594481"><ele>55.5</ele></trkpt>
<trkpt lon="-0.743352" lat="43.594281"><ele>53.75</ele></trkpt>
<trkpt lon="-0.743605" lat="43.594098"><ele>52.75</ele></trkpt>
<trkpt lon="-0.744014" lat="43.593930"><ele>50.5</ele></trkpt>
<trkpt lon="-0.744363" lat="43.593795"><ele>49.25</ele></trkpt>
<trkpt lon="-0.744473" lat="43.593735"><ele>48.75</ele></trkpt>
<trkpt lon="-0.744569" lat="43.593668"><ele>48.5</ele></trkpt>
<trkpt lon="-0.744890" lat="43.593357"><ele>47.0</ele></trkpt>
<trkpt lon="-0.745221" lat="43.592954"><ele>46.0</ele></trkpt>
<trkpt lon="-0.745244" lat="43.592785"><ele>46.0</ele></trkpt>
<trkpt lon="-0.745246" lat="43.592677"><ele>45.75</ele></trkpt>
<trkpt lon="-0.745248" lat="43.592565"><ele>45.75</ele></trkpt>
<trkpt lon="-0.745248" lat="43.592515"><ele>45.75</ele></trkpt>
<trkpt lon="-0.745647" lat="43.592500"><ele>45.75</ele></trkpt>
<trkpt lon="-0.745686" lat="43.592498"><ele>45.75</ele></trkpt>
<trkpt lon="-0.745698" lat="43.592230"><ele>44.5</ele></trkpt>
<trkpt lon="-0.745708" lat="43.592166"><ele>44.0</ele></trkpt>
<trkpt lon="-0.745625" lat="43.592128"><ele>44.0</ele></trkpt>
<trkpt lon="-0.745497" lat="43.592093"><ele>44.0</ele></trkpt>
<trkpt lon="-0.745518" lat="43.591998"><ele>43.25</ele></trkpt>
<trkpt lon="-0.745512" lat="43.591887"><ele>43.0</ele></trkpt>
<trkpt lon="-0.745475" lat="43.591723"><ele>43.25</ele></trkpt>
<trkpt lon="-0.745435" lat="43.591617"><ele>43.25</ele></trkpt>
<trkpt lon="-0.745364" lat="43.591518"><ele>43.25</ele></trkpt>
<trkpt lon="-0.745262" lat="43.591451"><ele>43.0</ele></trkpt>
<trkpt lon="-0.745159" lat="43.591431"><ele>43.0</ele></trkpt>
<trkpt lon="-0.745089" lat="43.591391"><ele>43.0</ele></trkpt>
<trkpt lon="-0.745010" lat="43.591289"><ele>43.0</ele></trkpt>
<trkpt lon="-0.744958" lat="43.591128"><ele>43.0</ele></trkpt>
<trkpt lon="-0.744956" lat="43.591013"><ele>43.0</ele></trkpt>
<trkpt lon="-0.744991" lat="43.590919"><ele>43.0</ele></trkpt>
<trkpt lon="-0.745067" lat="43.590820"><ele>42.5</ele></trkpt>
<trkpt lon="-0.745242" lat="43.590664"><ele>40.75</ele></trkpt>
<trkpt lon="-0.745194" lat="43.590636"><ele>41.0</ele></trkpt>
<trkpt lon="-0.744081" lat="43.589612"><ele>41.75</ele></trkpt>
<trkpt lon="-0.744459" lat="43.589516"><ele>42.25</ele></trkpt>
<trkpt lon="-0.744518" lat="43.589501"><ele>42.75</ele></trkpt>
<trkpt lon="-0.745167" lat="43.589312"><ele>43.0</ele></trkpt>
<trkpt lon="-0.745586" lat="43.589200"><ele>43.75</ele></trkpt>
<trkpt lon="-0.745780" lat="43.589134"><ele>43.75</ele></trkpt>
<trkpt lon="-0.745999" lat="43.589114"><ele>44.0</ele></trkpt>
<trkpt lon="-0.746342" lat="43.589103"><ele>43.75</ele></trkpt>
<trkpt lon="-0.746589" lat="43.589130"><ele>43.75</ele></trkpt>
<trkpt lon="-0.746744" lat="43.589165"><ele>44.0</ele></trkpt>
<trkpt lon="-0.746895" lat="43.589227"><ele>43.75</ele></trkpt>
<trkpt lon="-0.747202" lat="43.589343"><ele>43.75</ele></trkpt>
<trkpt lon="-0.747201" lat="43.589310"><ele>43.75</ele></trkpt>
<trkpt lon="-0.747233" lat="43.589261"><ele>44.0</ele></trkpt>
<trkpt lon="-0.747285" lat="43.589218"><ele>44.0</ele></trkpt>
<trkpt lon="-0.747376" lat="43.589173"><ele>44.0</ele></trkpt>
<trkpt lon="-0.747091" lat="43.588924"><ele>44.0</ele></trkpt>
<trkpt lon="-0.746678" lat="43.588483"><ele>44.0</ele></trkpt>
<trkpt lon="-0.746497" lat="43.588272"><ele>44.0</ele></trkpt>
<trkpt lon="-0.745789" lat="43.587962"><ele>44.25</ele></trkpt>
<trkpt lon="-0.744894" lat="43.587449"><ele>44.25</ele></trkpt>
<trkpt lon="-0.743720" lat="43.586751"><ele>45.25</ele></trkpt>
<trkpt lon="-0.743576" lat="43.586420"><ele>46.75</ele></trkpt>
<trkpt lon="-0.742937" lat="43.585539"><ele>47.0</ele></trkpt>
<trkpt lon="-0.742710" lat="43.585100"><ele>47.0</ele></trkpt>
<trkpt lon="-0.742599" lat="43.584815"><ele>47.75</ele></trkpt>
<trkpt lon="-0.742066" lat="43.583603"><ele>47.25</ele></trkpt>
<trkpt lon="-0.742050" lat="43.583461"><ele>47.5</ele></trkpt>
<trkpt lon="-0.742077" lat="43.583367"><ele>47.75</ele></trkpt>
<trkpt lon="-0.742145" lat="43.583215"><ele>48.25</ele></trkpt>
<trkpt lon="-0.742056" lat="43.583250"><ele>47.75</ele></trkpt>
<trkpt lon="-0.741954" lat="43.583260"><ele>47.25</ele></trkpt>
<trkpt lon="-0.741844" lat="43.583231"><ele>46.75</ele></trkpt>
<trkpt lon="-0.741568" lat="43.583089"><ele>45.5</ele></trkpt>
<trkpt lon="-0.741102" lat="43.583006"><ele>45.0</ele></trkpt>
<trkpt lon="-0.740920" lat="43.582967"><ele>45.0</ele></trkpt>
<trkpt lon="-0.739976" lat="43.582672"><ele>46.0</ele></trkpt>
<trkpt lon="-0.739713" lat="43.582559"><ele>45.75</ele></trkpt>
<trkpt lon="-0.739198" lat="43.582324"><ele>45.75</ele></trkpt>
<trkpt lon="-0.738793" lat="43.582109"><ele>46.0</ele></trkpt>
<trkpt lon="-0.738704" lat="43.582077"><ele>46.0</ele></trkpt>
<trkpt lon="-0.737843" lat="43.581817"><ele>46.25</ele></trkpt>
<trkpt lon="-0.737519" lat="43.581695"><ele>46.0</ele></trkpt>
<trkpt lon="-0.737328" lat="43.581590"><ele>46.0</ele></trkpt>
<trkpt lon="-0.736958" lat="43.581306"><ele>46.0</ele></trkpt>
<trkpt lon="-0.736714" lat="43.581050"><ele>46.0</ele></trkpt>
<trkpt lon="-0.736146" lat="43.580358"><ele>46.0</ele></trkpt>
<trkpt lon="-0.736030" lat="43.580204"><ele>46.25</ele></trkpt>
<trkpt lon="-0.735649" lat="43.579552"><ele>46.75</ele></trkpt>
<trkpt lon="-0.735239" lat="43.579079"><ele>46.5</ele></trkpt>
<trkpt lon="-0.735145" lat="43.578895"><ele>45.0</ele></trkpt>
<trkpt lon="-0.735124" lat="43.578720"><ele>44.75</ele></trkpt>
<trkpt lon="-0.735129" lat="43.578559"><ele>44.75</ele></trkpt>
<trkpt lon="-0.735177" lat="43.578263"><ele>45.0</ele></trkpt>
<trkpt lon="-0.735183" lat="43.578156"><ele>45.25</ele></trkpt>
<trkpt lon="-0.735175" lat="43.577999"><ele>45.0</ele></trkpt>
<trkpt lon="-0.735204" lat="43.577828"><ele>45.5</ele></trkpt>
<trkpt lon="-0.735376" lat="43.577138"><ele>47.75</ele></trkpt>
<trkpt lon="-0.735680" lat="43.576212"><ele>48.0</ele></trkpt>
<trkpt lon="-0.735703" lat="43.576066"><ele>48.0</ele></trkpt>
<trkpt lon="-0.735804" lat="43.575676"><ele>48.75</ele></trkpt>
<trkpt lon="-0.735802" lat="43.575126"><ele>48.25</ele></trkpt>
<trkpt lon="-0.735807" lat="43.575013"><ele>47.75</ele></trkpt>
<trkpt lon="-0.735857" lat="43.574877"><ele>47.5</ele></trkpt>
<trkpt lon="-0.735875" lat="43.574764"><ele>47.25</ele></trkpt>
<trkpt lon="-0.735792" lat="43.574455"><ele>49.75</ele></trkpt>
<trkpt lon="-0.735819" lat="43.574341"><ele>50.5</ele></trkpt>
<trkpt lon="-0.736415" lat="43.573982"><ele>51.25</ele></trkpt>
<trkpt lon="-0.736447" lat="43.573951"><ele>51.25</ele></trkpt>
<trkpt lon="-0.736526" lat="43.573895"><ele>51.25</ele></trkpt>
<trkpt lon="-0.736568" lat="43.573838"><ele>51.5</ele></trkpt>
<trkpt lon="-0.736628" lat="43.573335"><ele>52.0</ele></trkpt>
<trkpt lon="-0.736675" lat="43.573202"><ele>52.5</ele></trkpt>
<trkpt lon="-0.737051" lat="43.572555"><ele>53.25</ele></trkpt>
<trkpt lon="-0.737427" lat="43.572068"><ele>53.5</ele></trkpt>
<trkpt lon="-0.737461" lat="43.571965"><ele>53.25</ele></trkpt>
<trkpt lon="-0.737477" lat="43.571821"><ele>53.0</ele></trkpt>
<trkpt lon="-0.737463" lat="43.571512"><ele>53.5</ele></trkpt>
<trkpt lon="-0.737439" lat="43.571373"><ele>54.0</ele></trkpt>
<trkpt lon="-0.737250" lat="43.570293"><ele>55.0</ele></trkpt>
<trkpt lon="-0.737289" lat="43.570041"><ele>55.0</ele></trkpt>
<trkpt lon="-0.737395" lat="43.569448"><ele>56.0</ele></trkpt>
<trkpt lon="-0.737391" lat="43.569215"><ele>56.5</ele></trkpt>
<trkpt lon="-0.737357" lat="43.568973"><ele>56.75</ele></trkpt>
<trkpt lon="-0.737289" lat="43.568741"><ele>57.0</ele></trkpt>
<trkpt lon="-0.737187" lat="43.568391"><ele>57.75</ele></trkpt>
<trkpt lon="-0.737161" lat="43.568203"><ele>58.25</ele></trkpt>
<trkpt lon="-0.737172" lat="43.568114"><ele>58.75</ele></trkpt>
<trkpt lon="-0.737305" lat="43.567753"><ele>59.25</ele></trkpt>
<trkpt lon="-0.737458" lat="43.567470"><ele>61.25</ele></trkpt>
<trkpt lon="-0.738052" lat="43.566735"><ele>71.5</ele></trkpt>
<trkpt lon="-0.738117" lat="43.566542"><ele>73.0</ele></trkpt>
<trkpt lon="-0.738055" lat="43.565662"><ele>76.0</ele></trkpt>
<trkpt lon="-0.738046" lat="43.565084"><ele>77.0</ele></trkpt>
<trkpt lon="-0.737869" lat="43.564043"><ele>77.0</ele></trkpt>
<trkpt lon="-0.737854" lat="43.563443"><ele>77.5</ele></trkpt>
<trkpt lon="-0.737823" lat="43.563291"><ele>78.0</ele></trkpt>
<trkpt lon="-0.737755" lat="43.563149"><ele>78.0</ele></trkpt>
<trkpt lon="-0.737333" lat="43.562644"><ele>78.0</ele></trkpt>
<trkpt lon="-0.737395" lat="43.562609"><ele>78.0</ele></trkpt>
<trkpt lon="-0.737526" lat="43.562458"><ele>78.0</ele></trkpt>
<trkpt lon="-0.737731" lat="43.561889"><ele>79.0</ele></trkpt>
<trkpt lon="-0.738009" lat="43.560623"><ele>79.0</ele></trkpt>
<trkpt lon="-0.738064" lat="43.560290"><ele>79.0</ele></trkpt>
<trkpt lon="-0.738198" lat="43.559882"><ele>79.5</ele></trkpt>
<trkpt lon="-0.738332" lat="43.559150"><ele>80.0</ele></trkpt>
<trkpt lon="-0.738472" lat="43.558526"><ele>80.5</ele></trkpt>
<trkpt lon="-0.738624" lat="43.558123"><ele>79.75</ele></trkpt>
<trkpt lon="-0.738782" lat="43.557803"><ele>80.0</ele></trkpt>
<trkpt lon="-0.738891" lat="43.556927"><ele>81.0</ele></trkpt>
<trkpt lon="-0.738928" lat="43.556868"><ele>81.0</ele></trkpt>
<trkpt lon="-0.738985" lat="43.556371"><ele>82.0</ele></trkpt>
<trkpt lon="-0.739034" lat="43.556306"><ele>82.0</ele></trkpt>
<trkpt lon="-0.739906" lat="43.556353"><ele>82.0</ele></trkpt>
<trkpt lon="-0.740123" lat="43.556088"><ele>83.0</ele></trkpt>
<trkpt lon="-0.740632" lat="43.555584"><ele>84.75</ele></trkpt>
<trkpt lon="-0.741450" lat="43.554774"><ele>87.75</ele></trkpt>
<trkpt lon="-0.742117" lat="43.554476"><ele>88.0</ele></trkpt>
<trkpt lon="-0.742237" lat="43.554384"><ele>88.0</ele></trkpt>
<trkpt lon="-0.743080" lat="43.553117"><ele>88.25</ele></trkpt>
<trkpt lon="-0.743903" lat="43.551935"><ele>88.0</ele></trkpt>
<trkpt lon="-0.744273" lat="43.551323"><ele>87.0</ele></trkpt>
<trkpt lon="-0.744513" lat="43.551044"><ele>87.0</ele></trkpt>
<trkpt lon="-0.745290" lat="43.549543"><ele>89.5</ele></trkpt>
<trkpt lon="-0.745436" lat="43.549104"><ele>90.5</ele></trkpt>
<trkpt lon="-0.745531" lat="43.548909"><ele>90.75</ele></trkpt>
<trkpt lon="-0.745872" lat="43.548628"><ele>92.0</ele></trkpt>
<trkpt lon="-0.746463" lat="43.548070"><ele>94.75</ele></trkpt>
<trkpt lon="-0.746668" lat="43.547974"><ele>95.25</ele></trkpt>
<trkpt lon="-0.747309" lat="43.547384"><ele>99.25</ele></trkpt>
<trkpt lon="-0.748822" lat="43.546487"><ele>113.5</ele></trkpt>
<trkpt lon="-0.749058" lat="43.546364"><ele>114.0</ele></trkpt>
<trkpt lon="-0.749149" lat="43.546271"><ele>114.25</ele></trkpt>
<trkpt lon="-0.748835" lat="43.545727"><ele>118.25</ele></trkpt>
<trkpt lon="-0.748604" lat="43.545122"><ele>119.25</ele></trkpt>
<trkpt lon="-0.748273" lat="43.544473"><ele>117.25</ele></trkpt>
<trkpt lon="-0.748101" lat="43.543988"><ele>117.25</ele></trkpt>
<trkpt lon="-0.748106" lat="43.543924"><ele>117.25</ele></trkpt>
<trkpt lon="-0.746699" lat="43.542922"><ele>122.75</ele></trkpt>
<trkpt lon="-0.746278" lat="43.542495"><ele>121.75</ele></trkpt>
<trkpt lon="-0.746038" lat="43.542144"><ele>120.0</ele></trkpt>
<trkpt lon="-0.745845" lat="43.541726"><ele>118.25</ele></trkpt>
<trkpt lon="-0.745475" lat="43.540736"><ele>120.0</ele></trkpt>
<trkpt lon="-0.745442" lat="43.540718"><ele>120.25</ele></trkpt>
<trkpt lon="-0.745783" lat="43.539738"><ele>123.75</ele></trkpt>
<trkpt lon="-0.746305" lat="43.538857"><ele>127.25</ele></trkpt>
<trkpt lon="-0.746446" lat="43.538714"><ele>129.25</ele></trkpt>
<trkpt lon="-0.746609" lat="43.538611"><ele>129.25</ele></trkpt>
<trkpt lon="-0.746685" lat="43.538525"><ele>129.75</ele></trkpt>
<trkpt lon="-0.746842" lat="43.538284"><ele>132.5</ele></trkpt>
<trkpt lon="-0.747085" lat="43.537998"><ele>134.25</ele></trkpt>
<trkpt lon="-0.747285" lat="43.537781"><ele>134.5</ele></trkpt>
<trkpt lon="-0.747457" lat="43.537517"><ele>135.5</ele></trkpt>
<trkpt lon="-0.747596" lat="43.537174"><ele>136.25</ele></trkpt>
<trkpt lon="-0.747800" lat="43.536556"><ele>135.5</ele></trkpt>
<trkpt lon="-0.747982" lat="43.536229"><ele>135.25</ele></trkpt>
<trkpt lon="-0.748193" lat="43.536034"><ele>135.25</ele></trkpt>
<trkpt lon="-0.748563" lat="43.535825"><ele>135.25</ele></trkpt>
<trkpt lon="-0.749014" lat="43.535701"><ele>137.0</ele></trkpt>
<trkpt lon="-0.749205" lat="43.535560"><ele>137.5</ele></trkpt>
<trkpt lon="-0.749341" lat="43.535378"><ele>137.5</ele></trkpt>
<trkpt lon="-0.749484" lat="43.535024"><ele>138.25</ele></trkpt>
<trkpt lon="-0.749500" lat="43.534779"><ele>138.0</ele></trkpt>
<trkpt lon="-0.749452" lat="43.534483"><ele>137.0</ele></trkpt>
<trkpt lon="-0.749334" lat="43.533954"><ele>138.5</ele></trkpt>
<trkpt lon="-0.749361" lat="43.533803"><ele>138.5</ele></trkpt>
<trkpt lon="-0.749551" lat="43.533182"><ele>143.0</ele></trkpt>
<trkpt lon="-0.749667" lat="43.532815"><ele>147.25</ele></trkpt>
<trkpt lon="-0.749763" lat="43.532609"><ele>148.0</ele></trkpt>
<trkpt lon="-0.750128" lat="43.532087"><ele>151.0</ele></trkpt>
<trkpt lon="-0.750273" lat="43.531765"><ele>152.5</ele></trkpt>
<trkpt lon="-0.750359" lat="43.531469"><ele>153.5</ele></trkpt>
<trkpt lon="-0.750493" lat="43.530925"><ele>157.5</ele></trkpt>
<trkpt lon="-0.750664" lat="43.530399"><ele>157.75</ele></trkpt>
<trkpt lon="-0.750900" lat="43.529795"><ele>154.5</ele></trkpt>
<trkpt lon="-0.750944" lat="43.529751"><ele>153.75</ele></trkpt>
<trkpt lon="-0.750978" lat="43.529721"><ele>153.25</ele></trkpt>
<trkpt lon="-0.750888" lat="43.529588"><ele>154.25</ele></trkpt>
<trkpt lon="-0.750809" lat="43.529439"><ele>155.25</ele></trkpt>
<trkpt lon="-0.750787" lat="43.529051"><ele>156.5</ele></trkpt>
<trkpt lon="-0.750738" lat="43.528862"><ele>157.0</ele></trkpt>
<trkpt lon="-0.750627" lat="43.528678"><ele>155.75</ele></trkpt>
<trkpt lon="-0.749835" lat="43.527536"><ele>148.25</ele></trkpt>
<trkpt lon="-0.749037" lat="43.526432"><ele>141.25</ele></trkpt>
<trkpt lon="-0.748986" lat="43.526328"><ele>141.25</ele></trkpt>
<trkpt lon="-0.748977" lat="43.526240"><ele>141.25</ele></trkpt>
<trkpt lon="-0.748934" lat="43.526232"><ele>141.5</ele></trkpt>
<trkpt lon="-0.748859" lat="43.526119"><ele>142.25</ele></trkpt>
<trkpt lon="-0.748832" lat="43.526052"><ele>143.0</ele></trkpt>
<trkpt lon="-0.748767" lat="43.525585"><ele>146.75</ele></trkpt>
<trkpt lon="-0.748628" lat="43.525231"><ele>147.75</ele></trkpt>
<trkpt lon="-0.747988" lat="43.524200"><ele>153.0</ele></trkpt>
<trkpt lon="-0.747909" lat="43.524006"><ele>153.25</ele></trkpt>
<trkpt lon="-0.747898" lat="43.523473"><ele>152.75</ele></trkpt>
<trkpt lon="-0.747805" lat="43.523317"><ele>152.25</ele></trkpt>
<trkpt lon="-0.747457" lat="43.523149"><ele>152.5</ele></trkpt>
<trkpt lon="-0.747301" lat="43.522963"><ele>152.75</ele></trkpt>
<trkpt lon="-0.747045" lat="43.522166"><ele>152.75</ele></trkpt>
<trkpt lon="-0.746963" lat="43.521998"><ele>152.75</ele></trkpt>
<trkpt lon="-0.746727" lat="43.521808"><ele>153.25</ele></trkpt>
<trkpt lon="-0.746096" lat="43.521590"><ele>154.75</ele></trkpt>
<trkpt lon="-0.745327" lat="43.521170"><ele>154.75</ele></trkpt>
<trkpt lon="-0.744721" lat="43.520672"><ele>153.75</ele></trkpt>
<trkpt lon="-0.744554" lat="43.520480"><ele>152.5</ele></trkpt>
<trkpt lon="-0.744883" lat="43.519379"><ele>150.75</ele></trkpt>
<trkpt lon="-0.744782" lat="43.519330"><ele>150.5</ele></trkpt>
<trkpt lon="-0.744399" lat="43.519019"><ele>150.75</ele></trkpt>
<trkpt lon="-0.743960" lat="43.518517"><ele>151.75</ele></trkpt>
<trkpt lon="-0.743826" lat="43.518302"><ele>153.5</ele></trkpt>
<trkpt lon="-0.743343" lat="43.517242"><ele>160.75</ele></trkpt>
<trkpt lon="-0.743274" lat="43.517099"><ele>162.0</ele></trkpt>
<trkpt lon="-0.743067" lat="43.516830"><ele>163.25</ele></trkpt>
<trkpt lon="-0.742977" lat="43.516688"><ele>163.25</ele></trkpt>
<trkpt lon="-0.742976" lat="43.516394"><ele>163.25</ele></trkpt>
<trkpt lon="-0.743064" lat="43.516317"><ele>164.25</ele></trkpt>
<trkpt lon="-0.743514" lat="43.515970"><ele>166.5</ele></trkpt>
<trkpt lon="-0.743629" lat="43.515893"><ele>166.75</ele></trkpt>
<trkpt lon="-0.744137" lat="43.515726"><ele>170.5</ele></trkpt>
<trkpt lon="-0.744340" lat="43.515628"><ele>172.5</ele></trkpt>
<trkpt lon="-0.744652" lat="43.515329"><ele>175.75</ele></trkpt>
<trkpt lon="-0.744841" lat="43.515145"><ele>175.5</ele></trkpt>
<trkpt lon="-0.744859" lat="43.515114"><ele>175.25</ele></trkpt>
<trkpt lon="-0.744894" lat="43.515055"><ele>175.0</ele></trkpt>
<trkpt lon="-0.744894" lat="43.514935"><ele>173.75</ele></trkpt>
<trkpt lon="-0.744827" lat="43.514665"><ele>168.75</ele></trkpt>
<trkpt lon="-0.744808" lat="43.514527"><ele>166.25</ele></trkpt>
<trkpt lon="-0.744836" lat="43.514425"><ele>164.25</ele></trkpt>
<trkpt lon="-0.744947" lat="43.514302"><ele>162.75</ele></trkpt>
<trkpt lon="-0.745385" lat="43.513779"><ele>157.5</ele></trkpt>
<trkpt lon="-0.745803" lat="43.513466"><ele>156.5</ele></trkpt>
<trkpt lon="-0.746785" lat="43.512876"><ele>158.0</ele></trkpt>
<trkpt lon="-0.747846" lat="43.512127"><ele>162.5</ele></trkpt>
<trkpt lon="-0.748261" lat="43.511900"><ele>163.25</ele></trkpt>
<trkpt lon="-0.748787" lat="43.511747"><ele>164.25</ele></trkpt>
<trkpt lon="-0.749636" lat="43.511434"><ele>170.25</ele></trkpt>
<trkpt lon="-0.750135" lat="43.511043"><ele>172.5</ele></trkpt>
<trkpt lon="-0.750807" lat="43.510585"><ele>163.0</ele></trkpt>
<trkpt lon="-0.751093" lat="43.510454"><ele>158.25</ele></trkpt>
<trkpt lon="-0.751444" lat="43.510139"><ele>152.75</ele></trkpt>
<trkpt lon="-0.752022" lat="43.509715"><ele>148.0</ele></trkpt>
<trkpt lon="-0.752124" lat="43.509502"><ele>145.5</ele></trkpt>
<trkpt lon="-0.752216" lat="43.509462"><ele>146.0</ele></trkpt>
<trkpt lon="-0.752992" lat="43.509119"><ele>146.5</ele></trkpt>
<trkpt lon="-0.753991" lat="43.508792"><ele>147.5</ele></trkpt>
<trkpt lon="-0.754272" lat="43.508647"><ele>148.5</ele></trkpt>
<trkpt lon="-0.754343" lat="43.508565"><ele>149.0</ele></trkpt>
<trkpt lon="-0.754428" lat="43.508468"><ele>148.75</ele></trkpt>
<trkpt lon="-0.754575" lat="43.508217"><ele>149.25</ele></trkpt>
<trkpt lon="-0.754682" lat="43.507966"><ele>148.75</ele></trkpt>
<trkpt lon="-0.754696" lat="43.507789"><ele>148.5</ele></trkpt>
<trkpt lon="-0.754586" lat="43.507499"><ele>148.25</ele></trkpt>
<trkpt lon="-0.754151" lat="43.506867"><ele>148.75</ele></trkpt>
<trkpt lon="-0.753803" lat="43.506610"><ele>147.0</ele></trkpt>
<trkpt lon="-0.753625" lat="43.506444"><ele>146.75</ele></trkpt>
<trkpt lon="-0.753529" lat="43.505959"><ele>141.75</ele></trkpt>
<trkpt lon="-0.753373" lat="43.505785"><ele>140.5</ele></trkpt>
<trkpt lon="-0.753351" lat="43.505729"><ele>140.0</ele></trkpt>
<trkpt lon="-0.753320" lat="43.505653"><ele>139.5</ele></trkpt>
<trkpt lon="-0.753301" lat="43.505488"><ele>138.0</ele></trkpt>
<trkpt lon="-0.753295" lat="43.504912"><ele>129.5</ele></trkpt>
<trkpt lon="-0.753324" lat="43.504728"><ele>127.0</ele></trkpt>
<trkpt lon="-0.753506" lat="43.504456"><ele>121.75</ele></trkpt>
<trkpt lon="-0.753869" lat="43.503633"><ele>111.25</ele></trkpt>
<trkpt lon="-0.754184" lat="43.502921"><ele>104.75</ele></trkpt>
<trkpt lon="-0.754218" lat="43.502865"><ele>104.25</ele></trkpt>
<trkpt lon="-0.754560" lat="43.502291"><ele>100.5</ele></trkpt>
<trkpt lon="-0.754735" lat="43.501998"><ele>99.25</ele></trkpt>
<trkpt lon="-0.755217" lat="43.501292"><ele>99.25</ele></trkpt>
<trkpt lon="-0.755453" lat="43.500762"><ele>99.5</ele></trkpt>
<trkpt lon="-0.755851" lat="43.500096"><ele>102.0</ele></trkpt>
<trkpt lon="-0.756435" lat="43.499461"><ele>107.0</ele></trkpt>
<trkpt lon="-0.756798" lat="43.499103"><ele>107.0</ele></trkpt>
<trkpt lon="-0.756968" lat="43.498935"><ele>106.5</ele></trkpt>
<trkpt lon="-0.757334" lat="43.498670"><ele>107.5</ele></trkpt>
<trkpt lon="-0.757685" lat="43.498392"><ele>107.75</ele></trkpt>
<trkpt lon="-0.758292" lat="43.497909"><ele>105.25</ele></trkpt>
<trkpt lon="-0.758604" lat="43.497688"><ele>104.25</ele></trkpt>
<trkpt lon="-0.759386" lat="43.497247"><ele>101.5</ele></trkpt>
<trkpt lon="-0.759526" lat="43.497173"><ele>101.0</ele></trkpt>
<trkpt lon="-0.759885" lat="43.497021"><ele>100.5</ele></trkpt>
<trkpt lon="-0.760318" lat="43.496670"><ele>101.25</ele></trkpt>
<trkpt lon="-0.760700" lat="43.496362"><ele>104.5</ele></trkpt>
<trkpt lon="-0.760799" lat="43.496281"><ele>105.25</ele></trkpt>
<trkpt lon="-0.761041" lat="43.496086"><ele>106.25</ele></trkpt>
<trkpt lon="-0.762565" lat="43.495025"><ele>109.5</ele></trkpt>
<trkpt lon="-0.763051" lat="43.494725"><ele>110.75</ele></trkpt>
<trkpt lon="-0.763315" lat="43.494610"><ele>111.5</ele></trkpt>
<trkpt lon="-0.763907" lat="43.494291"><ele>114.5</ele></trkpt>
<trkpt lon="-0.764229" lat="43.494101"><ele>116.25</ele></trkpt>
<trkpt lon="-0.764710" lat="43.493792"><ele>117.25</ele></trkpt>
<trkpt lon="-0.765070" lat="43.493472"><ele>115.0</ele></trkpt>
<trkpt lon="-0.765945" lat="43.493020"><ele>109.5</ele></trkpt>
<trkpt lon="-0.766031" lat="43.492976"><ele>109.25</ele></trkpt>
<trkpt lon="-0.766312" lat="43.492827"><ele>107.5</ele></trkpt>
<trkpt lon="-0.766571" lat="43.492699"><ele>106.0</ele></trkpt>
<trkpt lon="-0.766681" lat="43.492647"><ele>105.25</ele></trkpt>
<trkpt lon="-0.767537" lat="43.492236"><ele>104.5</ele></trkpt>
<trkpt lon="-0.768322" lat="43.491923"><ele>103.75</ele></trkpt>
<trkpt lon="-0.768775" lat="43.491759"><ele>103.25</ele></trkpt>
<trkpt lon="-0.768890" lat="43.491716"><ele>103.25</ele></trkpt>
<trkpt lon="-0.769365" lat="43.491505"><ele>104.25</ele></trkpt>
<trkpt lon="-0.769668" lat="43.491413"><ele>102.5</ele></trkpt>
<trkpt lon="-0.769845" lat="43.491359"><ele>101.5</ele></trkpt>
<trkpt lon="-0.770903" lat="43.490833"><ele>91.25</ele></trkpt>
<trkpt lon="-0.770931" lat="43.490815"><ele>91.0</ele></trkpt>
<trkpt lon="-0.772328" lat="43.489937"><ele>77.0</ele></trkpt>
<trkpt lon="-0.771665" lat="43.489479"><ele>77.0</ele></trkpt>
<trkpt lon="-0.771591" lat="43.489451"><ele>76.75</ele></trkpt>
<trkpt lon="-0.771352" lat="43.489252"><ele>75.25</ele></trkpt>
<trkpt lon="-0.771584" lat="43.489133"><ele>74.25</ele></trkpt>
<trkpt lon="-0.771698" lat="43.489062"><ele>73.75</ele></trkpt>
<trkpt lon="-0.771743" lat="43.488985"><ele>73.75</ele></trkpt>
<trkpt lon="-0.771684" lat="43.488938"><ele>73.75</ele></trkpt>
<trkpt lon="-0.770824" lat="43.488570"><ele>76.25</ele></trkpt>
  </trkseg></trk></gpx>
