<?xml version="1.0" encoding="UTF-8"?>
<gpx version="1.1" creator="compostel-brouter" xmlns="http://www.topografix.com/GPX/1/1">
  <metadata><name>PC-04-Fuente-De</name></metadata>
  <trk><name>PC-04-Fuente-De</name><trkseg>
<trkpt lon="-4.629744" lat="43.155625"><ele>338.25</ele></trkpt>
<trkpt lon="-4.629596" lat="43.155758"><ele>343.0</ele></trkpt>
<trkpt lon="-4.629546" lat="43.155779"><ele>344.25</ele></trkpt>
<trkpt lon="-4.629504" lat="43.155766"><ele>344.5</ele></trkpt>
<trkpt lon="-4.629418" lat="43.155623"><ele>342.0</ele></trkpt>
<trkpt lon="-4.629371" lat="43.155616"><ele>341.5</ele></trkpt>
<trkpt lon="-4.629322" lat="43.155608"><ele>340.75</ele></trkpt>
<trkpt lon="-4.628936" lat="43.155621"><ele>335.0</ele></trkpt>
<trkpt lon="-4.628691" lat="43.155609"><ele>330.25</ele></trkpt>
<trkpt lon="-4.628408" lat="43.155558"><ele>324.5</ele></trkpt>
<trkpt lon="-4.628078" lat="43.155446"><ele>320.0</ele></trkpt>
<trkpt lon="-4.627994" lat="43.155401"><ele>318.0</ele></trkpt>
<trkpt lon="-4.627856" lat="43.155366"><ele>316.5</ele></trkpt>
<trkpt lon="-4.627653" lat="43.155363"><ele>315.25</ele></trkpt>
<trkpt lon="-4.627514" lat="43.155349"><ele>313.5</ele></trkpt>
<trkpt lon="-4.627055" lat="43.155254"><ele>301.25</ele></trkpt>
<trkpt lon="-4.626938" lat="43.155260"><ele>299.5</ele></trkpt>
<trkpt lon="-4.626673" lat="43.155157"><ele>294.25</ele></trkpt>
<trkpt lon="-4.626616" lat="43.155170"><ele>293.75</ele></trkpt>
<trkpt lon="-4.626328" lat="43.155311"><ele>293.75</ele></trkpt>
<trkpt lon="-4.625857" lat="43.155518"><ele>293.5</ele></trkpt>
<trkpt lon="-4.625652" lat="43.155543"><ele>293.25</ele></trkpt>
<trkpt lon="-4.625487" lat="43.155546"><ele>292.25</ele></trkpt>
<trkpt lon="-4.625166" lat="43.155528"><ele>289.75</ele></trkpt>
<trkpt lon="-4.625047" lat="43.155524"><ele>289.0</ele></trkpt>
<trkpt lon="-4.625064" lat="43.155456"><ele>288.25</ele></trkpt>
<trkpt lon="-4.625112" lat="43.155206"><ele>287.25</ele></trkpt>
<trkpt lon="-4.625141" lat="43.155062"><ele>289.0</ele></trkpt>
<trkpt lon="-4.625152" lat="43.155007"><ele>289.75</ele></trkpt>
<trkpt lon="-4.625211" lat="43.154887"><ele>290.25</ele></trkpt>
<trkpt lon="-4.625248" lat="43.154812"><ele>290.5</ele></trkpt>
<trkpt lon="-4.625284" lat="43.154762"><ele>290.75</ele></trkpt>
<trkpt lon="-4.625336" lat="43.154699"><ele>291.0</ele></trkpt>
<trkpt lon="-4.625400" lat="43.154637"><ele>291.0</ele></trkpt>
<trkpt lon="-4.625432" lat="43.154606"><ele>291.0</ele></trkpt>
<trkpt lon="-4.625437" lat="43.154583"><ele>291.0</ele></trkpt>
<trkpt lon="-4.625454" lat="43.154511"><ele>291.0</ele></trkpt>
<trkpt lon="-4.625443" lat="43.154343"><ele>291.0</ele></trkpt>
<trkpt lon="-4.625432" lat="43.154272"><ele>291.0</ele></trkpt>
<trkpt lon="-4.625530" lat="43.154262"><ele>291.0</ele></trkpt>
<trkpt lon="-4.626266" lat="43.154196"><ele>293.25</ele></trkpt>
<trkpt lon="-4.626445" lat="43.154180"><ele>294.0</ele></trkpt>
<trkpt lon="-4.626611" lat="43.154165"><ele>294.75</ele></trkpt>
<trkpt lon="-4.626915" lat="43.154125"><ele>295.75</ele></trkpt>
<trkpt lon="-4.626938" lat="43.154105"><ele>295.75</ele></trkpt>
<trkpt lon="-4.628112" lat="43.154001"><ele>292.75</ele></trkpt>
<trkpt lon="-4.629585" lat="43.153884"><ele>295.5</ele></trkpt>
<trkpt lon="-4.630147" lat="43.153874"><ele>295.75</ele></trkpt>
<trkpt lon="-4.630435" lat="43.153878"><ele>296.5</ele></trkpt>
<trkpt lon="-4.630528" lat="43.153887"><ele>296.75</ele></trkpt>
<trkpt lon="-4.630602" lat="43.153914"><ele>297.0</ele></trkpt>
<trkpt lon="-4.630730" lat="43.153917"><ele>297.5</ele></trkpt>
<trkpt lon="-4.630768" lat="43.153908"><ele>297.5</ele></trkpt>
<trkpt lon="-4.630827" lat="43.153888"><ele>297.75</ele></trkpt>
<trkpt lon="-4.631310" lat="43.153903"><ele>297.5</ele></trkpt>
<trkpt lon="-4.631314" lat="43.153863"><ele>298.0</ele></trkpt>
<trkpt lon="-4.631320" lat="43.153807"><ele>299.0</ele></trkpt>
<trkpt lon="-4.631602" lat="43.153811"><ele>301.25</ele></trkpt>
<trkpt lon="-4.631715" lat="43.153834"><ele>301.75</ele></trkpt>
<trkpt lon="-4.632208" lat="43.153881"><ele>305.0</ele></trkpt>
<trkpt lon="-4.632346" lat="43.153884"><ele>305.75</ele></trkpt>
<trkpt lon="-4.632468" lat="43.153879"><ele>306.75</ele></trkpt>
<trkpt lon="-4.632577" lat="43.153867"><ele>307.25</ele></trkpt>
<trkpt lon="-4.632659" lat="43.153846"><ele>307.75</ele></trkpt>
<trkpt lon="-4.632724" lat="43.153807"><ele>308.5</ele></trkpt>
<trkpt lon="-4.632772" lat="43.153786"><ele>309.0</ele></trkpt>
<trkpt lon="-4.633166" lat="43.153669"><ele>310.5</ele></trkpt>
<trkpt lon="-4.633408" lat="43.153595"><ele>313.0</ele></trkpt>
<trkpt lon="-4.633601" lat="43.153555"><ele>313.75</ele></trkpt>
<trkpt lon="-4.633835" lat="43.153492"><ele>315.25</ele></trkpt>
<trkpt lon="-4.634367" lat="43.153392"><ele>318.5</ele></trkpt>
<trkpt lon="-4.634640" lat="43.153407"><ele>320.0</ele></trkpt>
<trkpt lon="-4.635099" lat="43.153466"><ele>323.0</ele></trkpt>
<trkpt lon="-4.635359" lat="43.153492"><ele>325.5</ele></trkpt>
<trkpt lon="-4.635655" lat="43.153552"><ele>326.75</ele></trkpt>
<trkpt lon="-4.635827" lat="43.153595"><ele>328.25</ele></trkpt>
<trkpt lon="-4.635951" lat="43.153636"><ele>328.25</ele></trkpt>
<trkpt lon="-4.636301" lat="43.153774"><ele>329.0</ele></trkpt>
<trkpt lon="-4.636559" lat="43.153847"><ele>330.75</ele></trkpt>
<trkpt lon="-4.636670" lat="43.153875"><ele>331.0</ele></trkpt>
<trkpt lon="-4.637005" lat="43.153914"><ele>332.5</ele></trkpt>
<trkpt lon="-4.637735" lat="43.153953"><ele>337.5</ele></trkpt>
<trkpt lon="-4.638055" lat="43.153959"><ele>339.0</ele></trkpt>
<trkpt lon="-4.638258" lat="43.153958"><ele>340.25</ele></trkpt>
<trkpt lon="-4.638570" lat="43.153971"><ele>343.0</ele></trkpt>
<trkpt lon="-4.638757" lat="43.153998"><ele>345.25</ele></trkpt>
<trkpt lon="-4.639046" lat="43.154079"><ele>347.75</ele></trkpt>
<trkpt lon="-4.639399" lat="43.154206"><ele>351.0</ele></trkpt>
<trkpt lon="-4.639563" lat="43.154297"><ele>350.75</ele></trkpt>
<trkpt lon="-4.639686" lat="43.154353"><ele>351.5</ele></trkpt>
<trkpt lon="-4.639929" lat="43.154515"><ele>349.75</ele></trkpt>
<trkpt lon="-4.640179" lat="43.154660"><ele>350.25</ele></trkpt>
<trkpt lon="-4.640259" lat="43.154688"><ele>350.75</ele></trkpt>
<trkpt lon="-4.640419" lat="43.154752"><ele>350.75</ele></trkpt>
<trkpt lon="-4.640513" lat="43.154771"><ele>351.5</ele></trkpt>
<trkpt lon="-4.641268" lat="43.154867"><ele>356.0</ele></trkpt>
<trkpt lon="-4.641490" lat="43.154893"><ele>358.25</ele></trkpt>
<trkpt lon="-4.641642" lat="43.154901"><ele>359.5</ele></trkpt>
<trkpt lon="-4.641773" lat="43.154888"><ele>360.25</ele></trkpt>
<trkpt lon="-4.641954" lat="43.154853"><ele>361.5</ele></trkpt>
<trkpt lon="-4.642122" lat="43.154791"><ele>363.0</ele></trkpt>
<trkpt lon="-4.642274" lat="43.154724"><ele>365.0</ele></trkpt>
<trkpt lon="-4.643045" lat="43.154341"><ele>373.0</ele></trkpt>
<trkpt lon="-4.644466" lat="43.153651"><ele>389.5</ele></trkpt>
<trkpt lon="-4.644541" lat="43.153624"><ele>390.25</ele></trkpt>
<trkpt lon="-4.644585" lat="43.153632"><ele>389.75</ele></trkpt>
<trkpt lon="-4.644628" lat="43.153641"><ele>389.5</ele></trkpt>
<trkpt lon="-4.644684" lat="43.153655"><ele>389.0</ele></trkpt>
<trkpt lon="-4.644782" lat="43.153640"><ele>389.25</ele></trkpt>
<trkpt lon="-4.644873" lat="43.153617"><ele>389.25</ele></trkpt>
<trkpt lon="-4.644970" lat="43.153612"><ele>389.0</ele></trkpt>
<trkpt lon="-4.645102" lat="43.153642"><ele>391.5</ele></trkpt>
<trkpt lon="-4.645142" lat="43.153690"><ele>392.5</ele></trkpt>
<trkpt lon="-4.645235" lat="43.153849"><ele>393.25</ele></trkpt>
<trkpt lon="-4.645421" lat="43.153972"><ele>398.25</ele></trkpt>
<trkpt lon="-4.645581" lat="43.154036"><ele>401.25</ele></trkpt>
<trkpt lon="-4.645684" lat="43.154063"><ele>401.5</ele></trkpt>
<trkpt lon="-4.645807" lat="43.154080"><ele>401.75</ele></trkpt>
<trkpt lon="-4.645948" lat="43.154085"><ele>402.75</ele></trkpt>
<trkpt lon="-4.646168" lat="43.154043"><ele>404.25</ele></trkpt>
<trkpt lon="-4.646236" lat="43.154010"><ele>404.75</ele></trkpt>
<trkpt lon="-4.646272" lat="43.153977"><ele>405.5</ele></trkpt>
<trkpt lon="-4.646280" lat="43.153942"><ele>406.0</ele></trkpt>
<trkpt lon="-4.646261" lat="43.153903"><ele>407.0</ele></trkpt>
<trkpt lon="-4.646165" lat="43.153852"><ele>409.0</ele></trkpt>
<trkpt lon="-4.646011" lat="43.153821"><ele>409.75</ele></trkpt>
<trkpt lon="-4.645884" lat="43.153776"><ele>410.0</ele></trkpt>
<trkpt lon="-4.645825" lat="43.153748"><ele>410.25</ele></trkpt>
<trkpt lon="-4.645807" lat="43.153728"><ele>410.75</ele></trkpt>
<trkpt lon="-4.645805" lat="43.153708"><ele>411.0</ele></trkpt>
<trkpt lon="-4.646013" lat="43.153726"><ele>412.75</ele></trkpt>
<trkpt lon="-4.646117" lat="43.153714"><ele>414.25</ele></trkpt>
<trkpt lon="-4.646214" lat="43.153685"><ele>415.5</ele></trkpt>
<trkpt lon="-4.647704" lat="43.152908"><ele>433.0</ele></trkpt>
<trkpt lon="-4.647886" lat="43.152777"><ele>434.25</ele></trkpt>
<trkpt lon="-4.648126" lat="43.152438"><ele>440.5</ele></trkpt>
<trkpt lon="-4.648215" lat="43.152369"><ele>441.0</ele></trkpt>
<trkpt lon="-4.648305" lat="43.152322"><ele>441.25</ele></trkpt>
<trkpt lon="-4.648393" lat="43.152297"><ele>442.0</ele></trkpt>
<trkpt lon="-4.648767" lat="43.152248"><ele>446.0</ele></trkpt>
<trkpt lon="-4.648904" lat="43.152212"><ele>448.5</ele></trkpt>
<trkpt lon="-4.649567" lat="43.151976"><ele>454.0</ele></trkpt>
<trkpt lon="-4.649723" lat="43.151893"><ele>457.75</ele></trkpt>
<trkpt lon="-4.649957" lat="43.151737"><ele>459.5</ele></trkpt>
<trkpt lon="-4.650506" lat="43.151229"><ele>466.5</ele></trkpt>
<trkpt lon="-4.650748" lat="43.151063"><ele>470.5</ele></trkpt>
<trkpt lon="-4.651170" lat="43.150842"><ele>473.0</ele></trkpt>
<trkpt lon="-4.651374" lat="43.150715"><ele>475.25</ele></trkpt>
<trkpt lon="-4.651595" lat="43.150539"><ele>479.25</ele></trkpt>
<trkpt lon="-4.651685" lat="43.150486"><ele>480.0</ele></trkpt>
<trkpt lon="-4.651792" lat="43.150454"><ele>481.0</ele></trkpt>
<trkpt lon="-4.651846" lat="43.150454"><ele>481.25</ele></trkpt>
<trkpt lon="-4.652081" lat="43.150483"><ele>484.5</ele></trkpt>
<trkpt lon="-4.652486" lat="43.150552"><ele>488.75</ele></trkpt>
<trkpt lon="-4.652519" lat="43.150530"><ele>489.25</ele></trkpt>
<trkpt lon="-4.652602" lat="43.150482"><ele>489.75</ele></trkpt>
<trkpt lon="-4.652677" lat="43.150436"><ele>490.25</ele></trkpt>
<trkpt lon="-4.653328" lat="43.150194"><ele>494.0</ele></trkpt>
<trkpt lon="-4.653427" lat="43.150176"><ele>495.0</ele></trkpt>
<trkpt lon="-4.653507" lat="43.150179"><ele>495.75</ele></trkpt>
<trkpt lon="-4.653585" lat="43.150201"><ele>496.25</ele></trkpt>
<trkpt lon="-4.653684" lat="43.150295"><ele>496.25</ele></trkpt>
<trkpt lon="-4.653753" lat="43.150258"><ele>497.0</ele></trkpt>
<trkpt lon="-4.653791" lat="43.150415"><ele>497.25</ele></trkpt>
<trkpt lon="-4.653792" lat="43.150614"><ele>499.5</ele></trkpt>
<trkpt lon="-4.653718" lat="43.150788"><ele>502.25</ele></trkpt>
<trkpt lon="-4.653674" lat="43.150857"><ele>502.25</ele></trkpt>
<trkpt lon="-4.653623" lat="43.150921"><ele>502.0</ele></trkpt>
<trkpt lon="-4.653319" lat="43.151235"><ele>500.75</ele></trkpt>
<trkpt lon="-4.653171" lat="43.151376"><ele>499.25</ele></trkpt>
<trkpt lon="-4.652985" lat="43.151538"><ele>500.25</ele></trkpt>
<trkpt lon="-4.652666" lat="43.151757"><ele>499.5</ele></trkpt>
<trkpt lon="-4.652448" lat="43.151888"><ele>498.0</ele></trkpt>
<trkpt lon="-4.652319" lat="43.152000"><ele>500.25</ele></trkpt>
<trkpt lon="-4.652215" lat="43.152108"><ele>500.25</ele></trkpt>
<trkpt lon="-4.652160" lat="43.152174"><ele>500.0</ele></trkpt>
<trkpt lon="-4.652034" lat="43.152356"><ele>501.25</ele></trkpt>
<trkpt lon="-4.651895" lat="43.152538"><ele>501.25</ele></trkpt>
<trkpt lon="-4.651804" lat="43.152640"><ele>502.25</ele></trkpt>
<trkpt lon="-4.651402" lat="43.153034"><ele>499.75</ele></trkpt>
<trkpt lon="-4.651292" lat="43.153148"><ele>500.5</ele></trkpt>
<trkpt lon="-4.651166" lat="43.153255"><ele>500.5</ele></trkpt>
<trkpt lon="-4.650790" lat="43.153521"><ele>496.75</ele></trkpt>
<trkpt lon="-4.650705" lat="43.153590"><ele>496.75</ele></trkpt>
<trkpt lon="-4.650590" lat="43.153696"><ele>495.0</ele></trkpt>
<trkpt lon="-4.650556" lat="43.153725"><ele>494.75</ele></trkpt>
<trkpt lon="-4.650842" lat="43.153818"><ele>495.75</ele></trkpt>
<trkpt lon="-4.651176" lat="43.153905"><ele>493.0</ele></trkpt>
<trkpt lon="-4.651535" lat="43.153981"><ele>491.75</ele></trkpt>
<trkpt lon="-4.651820" lat="43.154021"><ele>491.0</ele></trkpt>
<trkpt lon="-4.651885" lat="43.154018"><ele>491.0</ele></trkpt>
<trkpt lon="-4.651943" lat="43.154004"><ele>491.25</ele></trkpt>
<trkpt lon="-4.652258" lat="43.153863"><ele>490.0</ele></trkpt>
<trkpt lon="-4.652429" lat="43.153817"><ele>490.25</ele></trkpt>
<trkpt lon="-4.652603" lat="43.153792"><ele>490.25</ele></trkpt>
<trkpt lon="-4.652844" lat="43.153781"><ele>490.0</ele></trkpt>
<trkpt lon="-4.653051" lat="43.153781"><ele>490.0</ele></trkpt>
<trkpt lon="-4.653251" lat="43.153800"><ele>489.0</ele></trkpt>
<trkpt lon="-4.653381" lat="43.153825"><ele>488.75</ele></trkpt>
<trkpt lon="-4.653494" lat="43.153871"><ele>488.5</ele></trkpt>
<trkpt lon="-4.653672" lat="43.153966"><ele>486.25</ele></trkpt>
<trkpt lon="-4.653820" lat="43.154010"><ele>486.0</ele></trkpt>
<trkpt lon="-4.653880" lat="43.154022"><ele>486.0</ele></trkpt>
<trkpt lon="-4.653953" lat="43.154028"><ele>485.25</ele></trkpt>
<trkpt lon="-4.654129" lat="43.154029"><ele>483.25</ele></trkpt>
<trkpt lon="-4.654723" lat="43.153967"><ele>477.75</ele></trkpt>
<trkpt lon="-4.654803" lat="43.153938"><ele>477.25</ele></trkpt>
<trkpt lon="-4.654930" lat="43.153812"><ele>476.5</ele></trkpt>
<trkpt lon="-4.654980" lat="43.153694"><ele>475.25</ele></trkpt>
<trkpt lon="-4.655058" lat="43.153355"><ele>474.5</ele></trkpt>
<trkpt lon="-4.655189" lat="43.153302"><ele>472.75</ele></trkpt>
<trkpt lon="-4.655256" lat="43.153321"><ele>470.75</ele></trkpt>
<trkpt lon="-4.655634" lat="43.153655"><ele>464.75</ele></trkpt>
<trkpt lon="-4.655769" lat="43.153840"><ele>460.0</ele></trkpt>
<trkpt lon="-4.655952" lat="43.153936"><ele>459.5</ele></trkpt>
<trkpt lon="-4.656110" lat="43.154002"><ele>459.0</ele></trkpt>
<trkpt lon="-4.656343" lat="43.154137"><ele>454.25</ele></trkpt>
<trkpt lon="-4.656401" lat="43.154161"><ele>453.75</ele></trkpt>
<trkpt lon="-4.656460" lat="43.154169"><ele>451.75</ele></trkpt>
<trkpt lon="-4.656539" lat="43.154152"><ele>450.25</ele></trkpt>
<trkpt lon="-4.656729" lat="43.154021"><ele>450.5</ele></trkpt>
<trkpt lon="-4.656922" lat="43.153906"><ele>449.0</ele></trkpt>
<trkpt lon="-4.657331" lat="43.153712"><ele>446.25</ele></trkpt>
<trkpt lon="-4.657467" lat="43.153698"><ele>444.5</ele></trkpt>
<trkpt lon="-4.657532" lat="43.153712"><ele>444.5</ele></trkpt>
<trkpt lon="-4.657563" lat="43.153756"><ele>443.75</ele></trkpt>
<trkpt lon="-4.657586" lat="43.153844"><ele>440.75</ele></trkpt>
<trkpt lon="-4.657886" lat="43.154643"><ele>426.5</ele></trkpt>
<trkpt lon="-4.658060" lat="43.155018"><ele>421.5</ele></trkpt>
<trkpt lon="-4.658148" lat="43.155154"><ele>419.5</ele></trkpt>
<trkpt lon="-4.658332" lat="43.155350"><ele>415.5</ele></trkpt>
<trkpt lon="-4.658734" lat="43.155583"><ele>410.75</ele></trkpt>
<trkpt lon="-4.659879" lat="43.156101"><ele>401.0</ele></trkpt>
<trkpt lon="-4.660127" lat="43.156164"><ele>397.25</ele></trkpt>
<trkpt lon="-4.660333" lat="43.156173"><ele>394.0</ele></trkpt>
<trkpt lon="-4.660517" lat="43.156134"><ele>391.75</ele></trkpt>
<trkpt lon="-4.660684" lat="43.156060"><ele>389.75</ele></trkpt>
<trkpt lon="-4.660822" lat="43.155961"><ele>387.0</ele></trkpt>
<trkpt lon="-4.660931" lat="43.155895"><ele>386.25</ele></trkpt>
<trkpt lon="-4.660964" lat="43.155797"><ele>387.5</ele></trkpt>
<trkpt lon="-4.661036" lat="43.155775"><ele>387.25</ele></trkpt>
<trkpt lon="-4.661134" lat="43.155761"><ele>387.25</ele></trkpt>
<trkpt lon="-4.661302" lat="43.155783"><ele>389.0</ele></trkpt>
<trkpt lon="-4.661511" lat="43.155904"><ele>392.0</ele></trkpt>
<trkpt lon="-4.661711" lat="43.156059"><ele>394.5</ele></trkpt>
<trkpt lon="-4.661939" lat="43.156214"><ele>391.25</ele></trkpt>
<trkpt lon="-4.662041" lat="43.156294"><ele>389.25</ele></trkpt>
<trkpt lon="-4.662295" lat="43.156330"><ele>389.75</ele></trkpt>
<trkpt lon="-4.662491" lat="43.156369"><ele>388.5</ele></trkpt>
<trkpt lon="-4.662910" lat="43.156475"><ele>385.25</ele></trkpt>
<trkpt lon="-4.663222" lat="43.156449"><ele>386.75</ele></trkpt>
<trkpt lon="-4.663758" lat="43.156417"><ele>380.75</ele></trkpt>
<trkpt lon="-4.664157" lat="43.156328"><ele>377.5</ele></trkpt>
<trkpt lon="-4.664603" lat="43.156245"><ele>374.25</ele></trkpt>
<trkpt lon="-4.664942" lat="43.156255"><ele>368.25</ele></trkpt>
<trkpt lon="-4.665196" lat="43.156262"><ele>365.0</ele></trkpt>
<trkpt lon="-4.665729" lat="43.156483"><ele>356.0</ele></trkpt>
<trkpt lon="-4.666180" lat="43.156618"><ele>352.0</ele></trkpt>
<trkpt lon="-4.666301" lat="43.156591"><ele>352.5</ele></trkpt>
<trkpt lon="-4.666714" lat="43.156508"><ele>352.75</ele></trkpt>
<trkpt lon="-4.666905" lat="43.156457"><ele>352.0</ele></trkpt>
<trkpt lon="-4.666994" lat="43.156428"><ele>351.75</ele></trkpt>
<trkpt lon="-4.667089" lat="43.156380"><ele>352.25</ele></trkpt>
<trkpt lon="-4.667323" lat="43.156482"><ele>352.0</ele></trkpt>
<trkpt lon="-4.667544" lat="43.156563"><ele>352.75</ele></trkpt>
<trkpt lon="-4.667601" lat="43.156599"><ele>353.25</ele></trkpt>
<trkpt lon="-4.667852" lat="43.156643"><ele>355.25</ele></trkpt>
<trkpt lon="-4.668023" lat="43.156665"><ele>356.5</ele></trkpt>
<trkpt lon="-4.668110" lat="43.156670"><ele>357.5</ele></trkpt>
<trkpt lon="-4.668264" lat="43.156629"><ele>358.0</ele></trkpt>
<trkpt lon="-4.668937" lat="43.156428"><ele>358.75</ele></trkpt>
<trkpt lon="-4.669118" lat="43.156367"><ele>358.5</ele></trkpt>
<trkpt lon="-4.669109" lat="43.156563"><ele>361.75</ele></trkpt>
<trkpt lon="-4.669081" lat="43.156745"><ele>368.75</ele></trkpt>
<trkpt lon="-4.669373" lat="43.156764"><ele>371.5</ele></trkpt>
<trkpt lon="-4.669717" lat="43.156764"><ele>375.75</ele></trkpt>
<trkpt lon="-4.670022" lat="43.156779"><ele>377.25</ele></trkpt>
<trkpt lon="-4.670211" lat="43.156849"><ele>378.75</ele></trkpt>
<trkpt lon="-4.670293" lat="43.157081"><ele>384.0</ele></trkpt>
<trkpt lon="-4.670366" lat="43.157215"><ele>388.25</ele></trkpt>
<trkpt lon="-4.670406" lat="43.157219"><ele>389.0</ele></trkpt>
<trkpt lon="-4.670447" lat="43.157211"><ele>389.75</ele></trkpt>
<trkpt lon="-4.670577" lat="43.157108"><ele>390.0</ele></trkpt>
<trkpt lon="-4.670754" lat="43.157059"><ele>394.25</ele></trkpt>
<trkpt lon="-4.670797" lat="43.157014"><ele>394.0</ele></trkpt>
<trkpt lon="-4.670854" lat="43.156986"><ele>394.25</ele></trkpt>
<trkpt lon="-4.670888" lat="43.156988"><ele>394.5</ele></trkpt>
<trkpt lon="-4.670923" lat="43.157021"><ele>396.0</ele></trkpt>
<trkpt lon="-4.670927" lat="43.157059"><ele>397.5</ele></trkpt>
<trkpt lon="-4.670903" lat="43.157105"><ele>399.0</ele></trkpt>
<trkpt lon="-4.670807" lat="43.157181"><ele>399.75</ele></trkpt>
<trkpt lon="-4.670703" lat="43.157236"><ele>398.0</ele></trkpt>
<trkpt lon="-4.670616" lat="43.157321"><ele>399.25</ele></trkpt>
<trkpt lon="-4.670465" lat="43.157578"><ele>404.0</ele></trkpt>
<trkpt lon="-4.670446" lat="43.157735"><ele>406.75</ele></trkpt>
<trkpt lon="-4.670442" lat="43.157924"><ele>410.5</ele></trkpt>
<trkpt lon="-4.670453" lat="43.157941"><ele>411.0</ele></trkpt>
<trkpt lon="-4.670478" lat="43.157940"><ele>411.75</ele></trkpt>
<trkpt lon="-4.670494" lat="43.157928"><ele>412.0</ele></trkpt>
<trkpt lon="-4.670591" lat="43.157689"><ele>411.25</ele></trkpt>
<trkpt lon="-4.670736" lat="43.157515"><ele>414.0</ele></trkpt>
<trkpt lon="-4.670788" lat="43.157487"><ele>415.25</ele></trkpt>
<trkpt lon="-4.670864" lat="43.157468"><ele>416.5</ele></trkpt>
<trkpt lon="-4.670978" lat="43.157485"><ele>418.75</ele></trkpt>
<trkpt lon="-4.671090" lat="43.157490"><ele>420.25</ele></trkpt>
<trkpt lon="-4.671276" lat="43.157486"><ele>421.25</ele></trkpt>
<trkpt lon="-4.671410" lat="43.157517"><ele>424.25</ele></trkpt>
<trkpt lon="-4.671515" lat="43.157551"><ele>427.25</ele></trkpt>
<trkpt lon="-4.671615" lat="43.157592"><ele>430.0</ele></trkpt>
<trkpt lon="-4.671652" lat="43.157589"><ele>430.0</ele></trkpt>
<trkpt lon="-4.671686" lat="43.157576"><ele>430.25</ele></trkpt>
<trkpt lon="-4.671703" lat="43.157503"><ele>428.0</ele></trkpt>
<trkpt lon="-4.671678" lat="43.157355"><ele>426.5</ele></trkpt>
<trkpt lon="-4.671700" lat="43.157279"><ele>427.5</ele></trkpt>
<trkpt lon="-4.671744" lat="43.157191"><ele>428.75</ele></trkpt>
<trkpt lon="-4.671906" lat="43.157079"><ele>432.5</ele></trkpt>
<trkpt lon="-4.672015" lat="43.156965"><ele>432.75</ele></trkpt>
<trkpt lon="-4.672182" lat="43.156861"><ele>434.5</ele></trkpt>
<trkpt lon="-4.672489" lat="43.156802"><ele>437.0</ele></trkpt>
<trkpt lon="-4.672639" lat="43.156805"><ele>439.0</ele></trkpt>
<trkpt lon="-4.672710" lat="43.156787"><ele>439.25</ele></trkpt>
<trkpt lon="-4.672932" lat="43.156709"><ele>441.0</ele></trkpt>
<trkpt lon="-4.673120" lat="43.156632"><ele>442.75</ele></trkpt>
<trkpt lon="-4.673305" lat="43.156602"><ele>444.0</ele></trkpt>
<trkpt lon="-4.673399" lat="43.156601"><ele>445.25</ele></trkpt>
<trkpt lon="-4.673462" lat="43.156615"><ele>446.5</ele></trkpt>
<trkpt lon="-4.673632" lat="43.156635"><ele>449.0</ele></trkpt>
<trkpt lon="-4.673701" lat="43.156667"><ele>450.75</ele></trkpt>
<trkpt lon="-4.673783" lat="43.156687"><ele>452.5</ele></trkpt>
<trkpt lon="-4.673960" lat="43.156624"><ele>454.0</ele></trkpt>
<trkpt lon="-4.674117" lat="43.156609"><ele>457.5</ele></trkpt>
<trkpt lon="-4.674233" lat="43.156629"><ele>459.75</ele></trkpt>
<trkpt lon="-4.674500" lat="43.156629"><ele>462.75</ele></trkpt>
<trkpt lon="-4.674691" lat="43.156486"><ele>462.5</ele></trkpt>
<trkpt lon="-4.674795" lat="43.156455"><ele>463.5</ele></trkpt>
<trkpt lon="-4.674982" lat="43.156413"><ele>464.5</ele></trkpt>
<trkpt lon="-4.675144" lat="43.156385"><ele>466.25</ele></trkpt>
<trkpt lon="-4.675236" lat="43.156360"><ele>467.25</ele></trkpt>
<trkpt lon="-4.675333" lat="43.156292"><ele>467.75</ele></trkpt>
<trkpt lon="-4.675384" lat="43.156232"><ele>467.75</ele></trkpt>
<trkpt lon="-4.675440" lat="43.156170"><ele>468.25</ele></trkpt>
<trkpt lon="-4.675527" lat="43.156108"><ele>470.0</ele></trkpt>
<trkpt lon="-4.675709" lat="43.156011"><ele>472.0</ele></trkpt>
<trkpt lon="-4.675888" lat="43.155958"><ele>474.5</ele></trkpt>
<trkpt lon="-4.676088" lat="43.155855"><ele>475.75</ele></trkpt>
<trkpt lon="-4.676281" lat="43.155773"><ele>476.0</ele></trkpt>
<trkpt lon="-4.676556" lat="43.155803"><ele>478.5</ele></trkpt>
<trkpt lon="-4.676626" lat="43.155798"><ele>478.75</ele></trkpt>
<trkpt lon="-4.676687" lat="43.155771"><ele>478.75</ele></trkpt>
<trkpt lon="-4.676929" lat="43.155556"><ele>474.0</ele></trkpt>
<trkpt lon="-4.677086" lat="43.155357"><ele>469.75</ele></trkpt>
<trkpt lon="-4.677250" lat="43.155184"><ele>465.5</ele></trkpt>
<trkpt lon="-4.677414" lat="43.155060"><ele>461.75</ele></trkpt>
<trkpt lon="-4.677502" lat="43.155045"><ele>461.0</ele></trkpt>
<trkpt lon="-4.677676" lat="43.154905"><ele>458.5</ele></trkpt>
<trkpt lon="-4.677872" lat="43.154777"><ele>456.0</ele></trkpt>
<trkpt lon="-4.678100" lat="43.154708"><ele>454.25</ele></trkpt>
<trkpt lon="-4.678335" lat="43.154690"><ele>452.0</ele></trkpt>
<trkpt lon="-4.678669" lat="43.154745"><ele>450.25</ele></trkpt>
<trkpt lon="-4.678836" lat="43.154840"><ele>449.75</ele></trkpt>
<trkpt lon="-4.679575" lat="43.155198"><ele>447.5</ele></trkpt>
<trkpt lon="-4.679778" lat="43.155331"><ele>446.75</ele></trkpt>
<trkpt lon="-4.679948" lat="43.155472"><ele>446.5</ele></trkpt>
<trkpt lon="-4.680059" lat="43.155508"><ele>446.25</ele></trkpt>
<trkpt lon="-4.680154" lat="43.155474"><ele>444.75</ele></trkpt>
<trkpt lon="-4.680166" lat="43.155409"><ele>442.0</ele></trkpt>
<trkpt lon="-4.680282" lat="43.155351"><ele>438.25</ele></trkpt>
<trkpt lon="-4.680522" lat="43.155390"><ele>436.5</ele></trkpt>
<trkpt lon="-4.680653" lat="43.155472"><ele>435.25</ele></trkpt>
<trkpt lon="-4.680999" lat="43.155857"><ele>430.5</ele></trkpt>
<trkpt lon="-4.681120" lat="43.155944"><ele>430.0</ele></trkpt>
<trkpt lon="-4.681411" lat="43.156102"><ele>425.0</ele></trkpt>
<trkpt lon="-4.681723" lat="43.156242"><ele>419.5</ele></trkpt>
<trkpt lon="-4.681893" lat="43.156305"><ele>417.5</ele></trkpt>
<trkpt lon="-4.682049" lat="43.156306"><ele>415.0</ele></trkpt>
<trkpt lon="-4.682290" lat="43.156266"><ele>411.0</ele></trkpt>
<trkpt lon="-4.682544" lat="43.156213"><ele>407.75</ele></trkpt>
<trkpt lon="-4.682803" lat="43.156150"><ele>404.0</ele></trkpt>
<trkpt lon="-4.682856" lat="43.156131"><ele>403.25</ele></trkpt>
<trkpt lon="-4.683493" lat="43.155891"><ele>398.0</ele></trkpt>
<trkpt lon="-4.683680" lat="43.155787"><ele>396.25</ele></trkpt>
<trkpt lon="-4.683776" lat="43.155716"><ele>395.5</ele></trkpt>
<trkpt lon="-4.683825" lat="43.155738"><ele>395.25</ele></trkpt>
<trkpt lon="-4.684000" lat="43.155855"><ele>394.0</ele></trkpt>
<trkpt lon="-4.684099" lat="43.155908"><ele>393.0</ele></trkpt>
<trkpt lon="-4.684407" lat="43.155881"><ele>390.25</ele></trkpt>
<trkpt lon="-4.684535" lat="43.155903"><ele>389.25</ele></trkpt>
<trkpt lon="-4.684638" lat="43.155950"><ele>389.5</ele></trkpt>
<trkpt lon="-4.684680" lat="43.155968"><ele>389.75</ele></trkpt>
<trkpt lon="-4.684789" lat="43.155973"><ele>390.0</ele></trkpt>
<trkpt lon="-4.684886" lat="43.155978"><ele>390.25</ele></trkpt>
<trkpt lon="-4.685344" lat="43.156155"><ele>391.5</ele></trkpt>
<trkpt lon="-4.685446" lat="43.156164"><ele>391.0</ele></trkpt>
<trkpt lon="-4.685588" lat="43.156143"><ele>389.75</ele></trkpt>
<trkpt lon="-4.685866" lat="43.156155"><ele>389.75</ele></trkpt>
<trkpt lon="-4.686253" lat="43.156039"><ele>390.0</ele></trkpt>
<trkpt lon="-4.686324" lat="43.156030"><ele>390.25</ele></trkpt>
<trkpt lon="-4.686449" lat="43.156014"><ele>390.25</ele></trkpt>
<trkpt lon="-4.686643" lat="43.155961"><ele>389.75</ele></trkpt>
<trkpt lon="-4.686968" lat="43.155927"><ele>389.75</ele></trkpt>
<trkpt lon="-4.687178" lat="43.155942"><ele>390.75</ele></trkpt>
<trkpt lon="-4.687488" lat="43.155876"><ele>392.0</ele></trkpt>
<trkpt lon="-4.687709" lat="43.155811"><ele>391.25</ele></trkpt>
<trkpt lon="-4.687939" lat="43.155753"><ele>391.75</ele></trkpt>
<trkpt lon="-4.688113" lat="43.155716"><ele>392.25</ele></trkpt>
<trkpt lon="-4.688280" lat="43.155724"><ele>393.0</ele></trkpt>
<trkpt lon="-4.688549" lat="43.155675"><ele>392.75</ele></trkpt>
<trkpt lon="-4.688789" lat="43.155714"><ele>396.25</ele></trkpt>
<trkpt lon="-4.688874" lat="43.155746"><ele>399.25</ele></trkpt>
<trkpt lon="-4.689247" lat="43.155709"><ele>405.0</ele></trkpt>
<trkpt lon="-4.689380" lat="43.155561"><ele>396.75</ele></trkpt>
<trkpt lon="-4.689598" lat="43.155402"><ele>399.75</ele></trkpt>
<trkpt lon="-4.689726" lat="43.155227"><ele>396.5</ele></trkpt>
<trkpt lon="-4.689767" lat="43.155111"><ele>396.5</ele></trkpt>
<trkpt lon="-4.689901" lat="43.155070"><ele>400.5</ele></trkpt>
<trkpt lon="-4.689942" lat="43.155029"><ele>401.25</ele></trkpt>
<trkpt lon="-4.689997" lat="43.155029"><ele>403.0</ele></trkpt>
<trkpt lon="-4.690077" lat="43.155222"><ele>408.25</ele></trkpt>
<trkpt lon="-4.690196" lat="43.155281"><ele>413.0</ele></trkpt>
<trkpt lon="-4.690329" lat="43.155273"><ele>417.75</ele></trkpt>
<trkpt lon="-4.690424" lat="43.155310"><ele>420.75</ele></trkpt>
<trkpt lon="-4.690632" lat="43.155314"><ele>429.0</ele></trkpt>
<trkpt lon="-4.690683" lat="43.155266"><ele>432.0</ele></trkpt>
<trkpt lon="-4.690630" lat="43.155159"><ele>432.0</ele></trkpt>
<trkpt lon="-4.690693" lat="43.155106"><ele>435.5</ele></trkpt>
<trkpt lon="-4.690789" lat="43.154958"><ele>440.0</ele></trkpt>
<trkpt lon="-4.690969" lat="43.154782"><ele>445.5</ele></trkpt>
<trkpt lon="-4.691138" lat="43.154593"><ele>450.0</ele></trkpt>
<trkpt lon="-4.691291" lat="43.154484"><ele>454.5</ele></trkpt>
<trkpt lon="-4.691482" lat="43.154375"><ele>458.0</ele></trkpt>
<trkpt lon="-4.691615" lat="43.154259"><ele>459.0</ele></trkpt>
<trkpt lon="-4.691966" lat="43.153982"><ele>463.5</ele></trkpt>
<trkpt lon="-4.692255" lat="43.153844"><ele>466.25</ele></trkpt>
<trkpt lon="-4.692444" lat="43.153835"><ele>466.5</ele></trkpt>
<trkpt lon="-4.692572" lat="43.153878"><ele>467.5</ele></trkpt>
<trkpt lon="-4.693313" lat="43.153900"><ele>456.75</ele></trkpt>
<trkpt lon="-4.693485" lat="43.153941"><ele>455.5</ele></trkpt>
<trkpt lon="-4.693599" lat="43.154004"><ele>456.25</ele></trkpt>
<trkpt lon="-4.693688" lat="43.154072"><ele>459.25</ele></trkpt>
<trkpt lon="-4.693742" lat="43.154067"><ele>459.75</ele></trkpt>
<trkpt lon="-4.693779" lat="43.154021"><ele>459.25</ele></trkpt>
<trkpt lon="-4.693875" lat="43.153905"><ele>459.5</ele></trkpt>
<trkpt lon="-4.694044" lat="43.153808"><ele>463.5</ele></trkpt>
<trkpt lon="-4.694161" lat="43.153653"><ele>465.25</ele></trkpt>
<trkpt lon="-4.694170" lat="43.153534"><ele>465.5</ele></trkpt>
<trkpt lon="-4.694236" lat="43.153430"><ele>468.0</ele></trkpt>
<trkpt lon="-4.694364" lat="43.153348"><ele>470.5</ele></trkpt>
<trkpt lon="-4.694443" lat="43.153312"><ele>471.5</ele></trkpt>
<trkpt lon="-4.694458" lat="43.153403"><ele>473.0</ele></trkpt>
<trkpt lon="-4.694543" lat="43.153517"><ele>475.0</ele></trkpt>
<trkpt lon="-4.694714" lat="43.153599"><ele>477.5</ele></trkpt>
<trkpt lon="-4.694939" lat="43.153652"><ele>480.0</ele></trkpt>
<trkpt lon="-4.695548" lat="43.153745"><ele>485.0</ele></trkpt>
<trkpt lon="-4.695761" lat="43.153734"><ele>485.75</ele></trkpt>
<trkpt lon="-4.695949" lat="43.153694"><ele>485.5</ele></trkpt>
<trkpt lon="-4.696153" lat="43.153623"><ele>486.0</ele></trkpt>
<trkpt lon="-4.696299" lat="43.153534"><ele>486.75</ele></trkpt>
<trkpt lon="-4.696415" lat="43.153426"><ele>488.5</ele></trkpt>
<trkpt lon="-4.696841" lat="43.152979"><ele>494.75</ele></trkpt>
<trkpt lon="-4.697103" lat="43.152735"><ele>496.25</ele></trkpt>
<trkpt lon="-4.697380" lat="43.152526"><ele>497.0</ele></trkpt>
<trkpt lon="-4.698113" lat="43.152047"><ele>501.25</ele></trkpt>
<trkpt lon="-4.698396" lat="43.151923"><ele>503.25</ele></trkpt>
<trkpt lon="-4.698822" lat="43.151796"><ele>506.25</ele></trkpt>
<trkpt lon="-4.699056" lat="43.151745"><ele>508.75</ele></trkpt>
<trkpt lon="-4.699519" lat="43.151685"><ele>513.0</ele></trkpt>
<trkpt lon="-4.699954" lat="43.151638"><ele>515.75</ele></trkpt>
<trkpt lon="-4.700176" lat="43.151632"><ele>517.25</ele></trkpt>
<trkpt lon="-4.700272" lat="43.151640"><ele>518.0</ele></trkpt>
<trkpt lon="-4.700382" lat="43.151573"><ele>516.75</ele></trkpt>
<trkpt lon="-4.701357" lat="43.151661"><ele>522.5</ele></trkpt>
<trkpt lon="-4.701606" lat="43.151762"><ele>526.0</ele></trkpt>
<trkpt lon="-4.701653" lat="43.151790"><ele>526.75</ele></trkpt>
<trkpt lon="-4.701976" lat="43.151893"><ele>526.75</ele></trkpt>
<trkpt lon="-4.702434" lat="43.152114"><ele>523.25</ele></trkpt>
<trkpt lon="-4.703937" lat="43.153184"><ele>505.25</ele></trkpt>
<trkpt lon="-4.704985" lat="43.153549"><ele>492.0</ele></trkpt>
<trkpt lon="-4.705281" lat="43.153630"><ele>497.5</ele></trkpt>
<trkpt lon="-4.705811" lat="43.153585"><ele>503.0</ele></trkpt>
<trkpt lon="-4.705682" lat="43.153482"><ele>506.75</ele></trkpt>
<trkpt lon="-4.705242" lat="43.152804"><ele>521.5</ele></trkpt>
<trkpt lon="-4.705565" lat="43.152495"><ele>531.0</ele></trkpt>
<trkpt lon="-4.705917" lat="43.152298"><ele>533.25</ele></trkpt>
<trkpt lon="-4.706220" lat="43.152222"><ele>536.5</ele></trkpt>
<trkpt lon="-4.706979" lat="43.152223"><ele>547.5</ele></trkpt>
<trkpt lon="-4.707479" lat="43.152175"><ele>555.5</ele></trkpt>
<trkpt lon="-4.707584" lat="43.152109"><ele>558.5</ele></trkpt>
<trkpt lon="-4.707435" lat="43.151820"><ele>562.0</ele></trkpt>
<trkpt lon="-4.707492" lat="43.151631"><ele>567.0</ele></trkpt>
<trkpt lon="-4.707687" lat="43.151353"><ele>573.75</ele></trkpt>
<trkpt lon="-4.707781" lat="43.151316"><ele>576.25</ele></trkpt>
<trkpt lon="-4.707891" lat="43.151309"><ele>577.5</ele></trkpt>
<trkpt lon="-4.708073" lat="43.151276"><ele>579.75</ele></trkpt>
<trkpt lon="-4.708109" lat="43.151260"><ele>580.5</ele></trkpt>
<trkpt lon="-4.708195" lat="43.151222"><ele>582.5</ele></trkpt>
<trkpt lon="-4.708239" lat="43.151203"><ele>583.5</ele></trkpt>
<trkpt lon="-4.708288" lat="43.151201"><ele>584.25</ele></trkpt>
<trkpt lon="-4.708486" lat="43.151191"><ele>586.5</ele></trkpt>
<trkpt lon="-4.708671" lat="43.151203"><ele>589.0</ele></trkpt>
<trkpt lon="-4.708369" lat="43.151060"><ele>589.25</ele></trkpt>
<trkpt lon="-4.708279" lat="43.150959"><ele>591.5</ele></trkpt>
<trkpt lon="-4.708152" lat="43.150891"><ele>592.0</ele></trkpt>
<trkpt lon="-4.708074" lat="43.150838"><ele>593.0</ele></trkpt>
<trkpt lon="-4.707893" lat="43.150705"><ele>598.0</ele></trkpt>
<trkpt lon="-4.707785" lat="43.150616"><ele>601.25</ele></trkpt>
<trkpt lon="-4.707505" lat="43.150505"><ele>599.25</ele></trkpt>
<trkpt lon="-4.707443" lat="43.150487"><ele>599.0</ele></trkpt>
<trkpt lon="-4.707365" lat="43.150416"><ele>600.5</ele></trkpt>
<trkpt lon="-4.707331" lat="43.150344"><ele>602.25</ele></trkpt>
<trkpt lon="-4.707324" lat="43.150269"><ele>604.5</ele></trkpt>
<trkpt lon="-4.707352" lat="43.150194"><ele>606.0</ele></trkpt>
<trkpt lon="-4.707486" lat="43.150026"><ele>611.25</ele></trkpt>
<trkpt lon="-4.707539" lat="43.149936"><ele>613.25</ele></trkpt>
<trkpt lon="-4.707570" lat="43.149777"><ele>615.0</ele></trkpt>
<trkpt lon="-4.707554" lat="43.149695"><ele>615.75</ele></trkpt>
<trkpt lon="-4.707393" lat="43.149355"><ele>619.25</ele></trkpt>
<trkpt lon="-4.707374" lat="43.149257"><ele>620.25</ele></trkpt>
<trkpt lon="-4.707374" lat="43.149146"><ele>622.0</ele></trkpt>
<trkpt lon="-4.707390" lat="43.149076"><ele>623.0</ele></trkpt>
<trkpt lon="-4.707545" lat="43.148867"><ele>628.0</ele></trkpt>
<trkpt lon="-4.707595" lat="43.148758"><ele>629.5</ele></trkpt>
<trkpt lon="-4.707676" lat="43.148629"><ele>632.25</ele></trkpt>
<trkpt lon="-4.707744" lat="43.148563"><ele>634.25</ele></trkpt>
<trkpt lon="-4.707869" lat="43.148391"><ele>637.75</ele></trkpt>
<trkpt lon="-4.707999" lat="43.148318"><ele>640.0</ele></trkpt>
<trkpt lon="-4.708139" lat="43.148216"><ele>638.5</ele></trkpt>
<trkpt lon="-4.708285" lat="43.148157"><ele>638.25</ele></trkpt>
<trkpt lon="-4.708661" lat="43.147975"><ele>639.25</ele></trkpt>
<trkpt lon="-4.708938" lat="43.147794"><ele>639.0</ele></trkpt>
<trkpt lon="-4.709056" lat="43.147705"><ele>639.25</ele></trkpt>
<trkpt lon="-4.709339" lat="43.147603"><ele>641.5</ele></trkpt>
<trkpt lon="-4.709470" lat="43.147513"><ele>641.5</ele></trkpt>
<trkpt lon="-4.709517" lat="43.147460"><ele>641.75</ele></trkpt>
<trkpt lon="-4.709490" lat="43.147365"><ele>641.0</ele></trkpt>
<trkpt lon="-4.709589" lat="43.147431"><ele>642.5</ele></trkpt>
<trkpt lon="-4.709650" lat="43.147498"><ele>643.75</ele></trkpt>
<trkpt lon="-4.709846" lat="43.147679"><ele>649.75</ele></trkpt>
<trkpt lon="-4.709870" lat="43.147731"><ele>651.0</ele></trkpt>
<trkpt lon="-4.709857" lat="43.147764"><ele>651.5</ele></trkpt>
<trkpt lon="-4.709815" lat="43.147802"><ele>652.25</ele></trkpt>
<trkpt lon="-4.709707" lat="43.147849"><ele>653.0</ele></trkpt>
<trkpt lon="-4.709628" lat="43.147944"><ele>655.0</ele></trkpt>
<trkpt lon="-4.709595" lat="43.148011"><ele>656.5</ele></trkpt>
<trkpt lon="-4.709574" lat="43.148087"><ele>658.25</ele></trkpt>
<trkpt lon="-4.709576" lat="43.148165"><ele>659.5</ele></trkpt>
<trkpt lon="-4.709593" lat="43.148298"><ele>662.0</ele></trkpt>
<trkpt lon="-4.709690" lat="43.148490"><ele>664.75</ele></trkpt>
<trkpt lon="-4.709749" lat="43.148559"><ele>665.5</ele></trkpt>
<trkpt lon="-4.710006" lat="43.148775"><ele>669.25</ele></trkpt>
<trkpt lon="-4.710174" lat="43.148927"><ele>671.0</ele></trkpt>
<trkpt lon="-4.710250" lat="43.148982"><ele>672.25</ele></trkpt>
<trkpt lon="-4.710372" lat="43.149034"><ele>674.25</ele></trkpt>
<trkpt lon="-4.710465" lat="43.149030"><ele>675.5</ele></trkpt>
<trkpt lon="-4.710600" lat="43.148989"><ele>677.5</ele></trkpt>
<trkpt lon="-4.710701" lat="43.148977"><ele>679.0</ele></trkpt>
<trkpt lon="-4.711069" lat="43.148967"><ele>683.75</ele></trkpt>
<trkpt lon="-4.711327" lat="43.148974"><ele>685.25</ele></trkpt>
<trkpt lon="-4.711404" lat="43.148952"><ele>685.75</ele></trkpt>
<trkpt lon="-4.711447" lat="43.148939"><ele>685.75</ele></trkpt>
<trkpt lon="-4.711633" lat="43.148925"><ele>686.5</ele></trkpt>
<trkpt lon="-4.711824" lat="43.148922"><ele>687.25</ele></trkpt>
<trkpt lon="-4.712062" lat="43.148955"><ele>688.25</ele></trkpt>
<trkpt lon="-4.712351" lat="43.148969"><ele>691.25</ele></trkpt>
<trkpt lon="-4.712593" lat="43.149034"><ele>694.25</ele></trkpt>
<trkpt lon="-4.712908" lat="43.149082"><ele>698.25</ele></trkpt>
<trkpt lon="-4.712980" lat="43.149074"><ele>699.0</ele></trkpt>
<trkpt lon="-4.713054" lat="43.149029"><ele>699.75</ele></trkpt>
<trkpt lon="-4.713102" lat="43.148985"><ele>700.75</ele></trkpt>
<trkpt lon="-4.713182" lat="43.148962"><ele>702.0</ele></trkpt>
<trkpt lon="-4.713284" lat="43.148958"><ele>703.25</ele></trkpt>
<trkpt lon="-4.713435" lat="43.149010"><ele>705.25</ele></trkpt>
<trkpt lon="-4.713601" lat="43.149089"><ele>707.75</ele></trkpt>
<trkpt lon="-4.713701" lat="43.149123"><ele>709.0</ele></trkpt>
<trkpt lon="-4.713815" lat="43.149142"><ele>710.25</ele></trkpt>
<trkpt lon="-4.713983" lat="43.149135"><ele>712.75</ele></trkpt>
<trkpt lon="-4.714152" lat="43.149107"><ele>716.0</ele></trkpt>
<trkpt lon="-4.714262" lat="43.149067"><ele>718.25</ele></trkpt>
<trkpt lon="-4.714352" lat="43.149008"><ele>720.25</ele></trkpt>
<trkpt lon="-4.714411" lat="43.148946"><ele>721.75</ele></trkpt>
<trkpt lon="-4.714513" lat="43.148877"><ele>724.0</ele></trkpt>
<trkpt lon="-4.714601" lat="43.148846"><ele>725.25</ele></trkpt>
<trkpt lon="-4.714710" lat="43.148827"><ele>727.25</ele></trkpt>
<trkpt lon="-4.714967" lat="43.148755"><ele>731.75</ele></trkpt>
<trkpt lon="-4.715082" lat="43.148709"><ele>733.25</ele></trkpt>
<trkpt lon="-4.715185" lat="43.148654"><ele>734.0</ele></trkpt>
<trkpt lon="-4.715257" lat="43.148652"><ele>735.25</ele></trkpt>
<trkpt lon="-4.715298" lat="43.148669"><ele>736.25</ele></trkpt>
<trkpt lon="-4.715368" lat="43.148756"><ele>739.0</ele></trkpt>
<trkpt lon="-4.715398" lat="43.148813"><ele>740.25</ele></trkpt>
<trkpt lon="-4.715437" lat="43.148839"><ele>741.25</ele></trkpt>
<trkpt lon="-4.715480" lat="43.148837"><ele>742.25</ele></trkpt>
<trkpt lon="-4.715555" lat="43.148922"><ele>744.25</ele></trkpt>
<trkpt lon="-4.715626" lat="43.149033"><ele>747.75</ele></trkpt>
<trkpt lon="-4.715664" lat="43.149142"><ele>749.75</ele></trkpt>
<trkpt lon="-4.715803" lat="43.149258"><ele>753.0</ele></trkpt>
<trkpt lon="-4.716212" lat="43.149269"><ele>757.5</ele></trkpt>
<trkpt lon="-4.716595" lat="43.149405"><ele>761.75</ele></trkpt>
<trkpt lon="-4.716683" lat="43.149573"><ele>763.75</ele></trkpt>
<trkpt lon="-4.716938" lat="43.150287"><ele>774.75</ele></trkpt>
<trkpt lon="-4.717019" lat="43.150573"><ele>778.75</ele></trkpt>
<trkpt lon="-4.717180" lat="43.150893"><ele>782.5</ele></trkpt>
<trkpt lon="-4.717344" lat="43.151104"><ele>785.0</ele></trkpt>
<trkpt lon="-4.717655" lat="43.151206"><ele>791.75</ele></trkpt>
<trkpt lon="-4.717967" lat="43.151319"><ele>796.5</ele></trkpt>
<trkpt lon="-4.718250" lat="43.151516"><ele>800.0</ele></trkpt>
<trkpt lon="-4.718432" lat="43.151690"><ele>802.75</ele></trkpt>
<trkpt lon="-4.718492" lat="43.152038"><ele>809.0</ele></trkpt>
<trkpt lon="-4.718614" lat="43.152178"><ele>812.0</ele></trkpt>
<trkpt lon="-4.718721" lat="43.152224"><ele>814.25</ele></trkpt>
<trkpt lon="-4.718911" lat="43.152169"><ele>818.5</ele></trkpt>
<trkpt lon="-4.719130" lat="43.152045"><ele>823.0</ele></trkpt>
<trkpt lon="-4.719446" lat="43.151890"><ele>829.25</ele></trkpt>
<trkpt lon="-4.719620" lat="43.151818"><ele>835.25</ele></trkpt>
<trkpt lon="-4.719722" lat="43.151712"><ele>838.75</ele></trkpt>
<trkpt lon="-4.719655" lat="43.151615"><ele>838.75</ele></trkpt>
<trkpt lon="-4.719690" lat="43.151474"><ele>844.75</ele></trkpt>
<trkpt lon="-4.719776" lat="43.151412"><ele>850.0</ele></trkpt>
<trkpt lon="-4.719824" lat="43.151388"><ele>852.5</ele></trkpt>
<trkpt lon="-4.719958" lat="43.151497"><ele>853.75</ele></trkpt>
<trkpt lon="-4.720055" lat="43.151589"><ele>854.25</ele></trkpt>
<trkpt lon="-4.720129" lat="43.151680"><ele>853.5</ele></trkpt>
<trkpt lon="-4.720179" lat="43.151792"><ele>854.0</ele></trkpt>
<trkpt lon="-4.720179" lat="43.151851"><ele>853.5</ele></trkpt>
<trkpt lon="-4.720148" lat="43.151926"><ele>851.5</ele></trkpt>
<trkpt lon="-4.720157" lat="43.152054"><ele>852.5</ele></trkpt>
<trkpt lon="-4.720181" lat="43.152126"><ele>853.75</ele></trkpt>
<trkpt lon="-4.720210" lat="43.152279"><ele>856.75</ele></trkpt>
<trkpt lon="-4.720212" lat="43.152350"><ele>858.5</ele></trkpt>
<trkpt lon="-4.720205" lat="43.152403"><ele>859.75</ele></trkpt>
<trkpt lon="-4.720167" lat="43.152507"><ele>860.75</ele></trkpt>
<trkpt lon="-4.720169" lat="43.152786"><ele>866.75</ele></trkpt>
<trkpt lon="-4.720179" lat="43.152873"><ele>867.75</ele></trkpt>
<trkpt lon="-4.720282" lat="43.153203"><ele>873.0</ele></trkpt>
<trkpt lon="-4.720361" lat="43.153364"><ele>877.5</ele></trkpt>
<trkpt lon="-4.720384" lat="43.153432"><ele>879.5</ele></trkpt>
<trkpt lon="-4.720389" lat="43.153534"><ele>881.0</ele></trkpt>
<trkpt lon="-4.720363" lat="43.153625"><ele>881.5</ele></trkpt>
<trkpt lon="-4.720299" lat="43.153793"><ele>883.25</ele></trkpt>
<trkpt lon="-4.720282" lat="43.153888"><ele>885.0</ele></trkpt>
<trkpt lon="-4.720284" lat="43.154006"><ele>887.25</ele></trkpt>
<trkpt lon="-4.720308" lat="43.154081"><ele>889.0</ele></trkpt>
<trkpt lon="-4.720329" lat="43.154127"><ele>890.5</ele></trkpt>
<trkpt lon="-4.720380" lat="43.154176"><ele>892.25</ele></trkpt>
<trkpt lon="-4.720456" lat="43.154212"><ele>893.25</ele></trkpt>
<trkpt lon="-4.720658" lat="43.154240"><ele>897.5</ele></trkpt>
<trkpt lon="-4.720828" lat="43.154309"><ele>899.25</ele></trkpt>
<trkpt lon="-4.721098" lat="43.154399"><ele>902.0</ele></trkpt>
<trkpt lon="-4.721208" lat="43.154442"><ele>903.5</ele></trkpt>
<trkpt lon="-4.721464" lat="43.154474"><ele>907.5</ele></trkpt>
<trkpt lon="-4.721617" lat="43.154474"><ele>909.75</ele></trkpt>
<trkpt lon="-4.721979" lat="43.154452"><ele>915.5</ele></trkpt>
<trkpt lon="-4.722103" lat="43.154437"><ele>916.25</ele></trkpt>
<trkpt lon="-4.722344" lat="43.154373"><ele>919.0</ele></trkpt>
<trkpt lon="-4.722938" lat="43.154157"><ele>923.0</ele></trkpt>
<trkpt lon="-4.723392" lat="43.154001"><ele>926.5</ele></trkpt>
<trkpt lon="-4.723581" lat="43.153918"><ele>928.75</ele></trkpt>
<trkpt lon="-4.723720" lat="43.153872"><ele>930.5</ele></trkpt>
<trkpt lon="-4.723838" lat="43.153844"><ele>931.25</ele></trkpt>
<trkpt lon="-4.723943" lat="43.153804"><ele>932.75</ele></trkpt>
<trkpt lon="-4.724026" lat="43.153781"><ele>933.75</ele></trkpt>
<trkpt lon="-4.724283" lat="43.153754"><ele>935.0</ele></trkpt>
<trkpt lon="-4.724802" lat="43.153750"><ele>942.5</ele></trkpt>
<trkpt lon="-4.725118" lat="43.153790"><ele>945.25</ele></trkpt>
<trkpt lon="-4.725190" lat="43.153783"><ele>945.75</ele></trkpt>
<trkpt lon="-4.725290" lat="43.153764"><ele>946.5</ele></trkpt>
<trkpt lon="-4.725357" lat="43.153746"><ele>947.0</ele></trkpt>
<trkpt lon="-4.725464" lat="43.153705"><ele>948.0</ele></trkpt>
<trkpt lon="-4.725548" lat="43.153665"><ele>949.25</ele></trkpt>
<trkpt lon="-4.725730" lat="43.153601"><ele>952.5</ele></trkpt>
<trkpt lon="-4.725953" lat="43.153479"><ele>957.75</ele></trkpt>
<trkpt lon="-4.726025" lat="43.153433"><ele>959.5</ele></trkpt>
<trkpt lon="-4.726080" lat="43.153409"><ele>960.5</ele></trkpt>
<trkpt lon="-4.726125" lat="43.153402"><ele>961.0</ele></trkpt>
<trkpt lon="-4.726214" lat="43.153404"><ele>962.0</ele></trkpt>
<trkpt lon="-4.726321" lat="43.153415"><ele>963.0</ele></trkpt>
<trkpt lon="-4.726766" lat="43.153429"><ele>972.25</ele></trkpt>
<trkpt lon="-4.727025" lat="43.153463"><ele>976.5</ele></trkpt>
<trkpt lon="-4.727251" lat="43.153506"><ele>978.75</ele></trkpt>
<trkpt lon="-4.727342" lat="43.153538"><ele>980.25</ele></trkpt>
<trkpt lon="-4.727410" lat="43.153588"><ele>980.75</ele></trkpt>
<trkpt lon="-4.727477" lat="43.153687"><ele>981.0</ele></trkpt>
<trkpt lon="-4.727522" lat="43.153729"><ele>981.25</ele></trkpt>
<trkpt lon="-4.727583" lat="43.153754"><ele>982.25</ele></trkpt>
<trkpt lon="-4.727661" lat="43.153765"><ele>984.0</ele></trkpt>
<trkpt lon="-4.727747" lat="43.153794"><ele>984.75</ele></trkpt>
<trkpt lon="-4.728176" lat="43.153813"><ele>990.5</ele></trkpt>
<trkpt lon="-4.728410" lat="43.153815"><ele>995.25</ele></trkpt>
<trkpt lon="-4.728473" lat="43.153806"><ele>997.0</ele></trkpt>
<trkpt lon="-4.728549" lat="43.153804"><ele>998.75</ele></trkpt>
<trkpt lon="-4.728618" lat="43.153811"><ele>1000.0</ele></trkpt>
<trkpt lon="-4.728977" lat="43.153890"><ele>1002.5</ele></trkpt>
<trkpt lon="-4.729229" lat="43.153959"><ele>1004.25</ele></trkpt>
<trkpt lon="-4.729441" lat="43.153968"><ele>1006.5</ele></trkpt>
<trkpt lon="-4.729513" lat="43.153964"><ele>1007.25</ele></trkpt>
<trkpt lon="-4.729875" lat="43.153850"><ele>1012.75</ele></trkpt>
<trkpt lon="-4.729939" lat="43.153821"><ele>1013.75</ele></trkpt>
<trkpt lon="-4.730123" lat="43.153714"><ele>1016.25</ele></trkpt>
<trkpt lon="-4.730179" lat="43.153666"><ele>1017.0</ele></trkpt>
<trkpt lon="-4.730207" lat="43.153606"><ele>1018.0</ele></trkpt>
<trkpt lon="-4.730217" lat="43.153556"><ele>1019.75</ele></trkpt>
<trkpt lon="-4.730209" lat="43.153504"><ele>1021.5</ele></trkpt>
<trkpt lon="-4.730152" lat="43.153460"><ele>1023.25</ele></trkpt>
<trkpt lon="-4.730105" lat="43.153439"><ele>1024.25</ele></trkpt>
<trkpt lon="-4.730045" lat="43.153419"><ele>1025.25</ele></trkpt>
<trkpt lon="-4.729920" lat="43.153407"><ele>1026.5</ele></trkpt>
<trkpt lon="-4.729793" lat="43.153417"><ele>1026.5</ele></trkpt>
<trkpt lon="-4.729557" lat="43.153454"><ele>1028.0</ele></trkpt>
<trkpt lon="-4.729463" lat="43.153455"><ele>1029.5</ele></trkpt>
<trkpt lon="-4.729367" lat="43.153439"><ele>1030.5</ele></trkpt>
<trkpt lon="-4.729186" lat="43.153378"><ele>1033.5</ele></trkpt>
<trkpt lon="-4.728989" lat="43.153298"><ele>1035.25</ele></trkpt>
<trkpt lon="-4.728839" lat="43.153206"><ele>1036.75</ele></trkpt>
<trkpt lon="-4.728733" lat="43.153115"><ele>1038.0</ele></trkpt>
<trkpt lon="-4.728472" lat="43.152937"><ele>1039.75</ele></trkpt>
<trkpt lon="-4.728253" lat="43.152745"><ele>1041.75</ele></trkpt>
<trkpt lon="-4.727575" lat="43.152175"><ele>1045.75</ele></trkpt>
<trkpt lon="-4.727106" lat="43.151889"><ele>1050.75</ele></trkpt>
<trkpt lon="-4.726950" lat="43.151782"><ele>1051.75</ele></trkpt>
<trkpt lon="-4.726864" lat="43.151711"><ele>1053.0</ele></trkpt>
<trkpt lon="-4.726779" lat="43.151622"><ele>1054.25</ele></trkpt>
<trkpt lon="-4.726722" lat="43.151505"><ele>1055.0</ele></trkpt>
<trkpt lon="-4.726747" lat="43.151369"><ele>1058.5</ele></trkpt>
<trkpt lon="-4.726790" lat="43.151296"><ele>1059.5</ele></trkpt>
<trkpt lon="-4.726845" lat="43.151238"><ele>1060.5</ele></trkpt>
<trkpt lon="-4.726905" lat="43.151210"><ele>1062.0</ele></trkpt>
<trkpt lon="-4.727008" lat="43.151192"><ele>1064.25</ele></trkpt>
<trkpt lon="-4.727159" lat="43.151182"><ele>1067.25</ele></trkpt>
<trkpt lon="-4.727664" lat="43.151181"><ele>1076.25</ele></trkpt>
<trkpt lon="-4.727795" lat="43.151172"><ele>1078.75</ele></trkpt>
<trkpt lon="-4.727888" lat="43.151156"><ele>1080.5</ele></trkpt>
<trkpt lon="-4.728082" lat="43.151095"><ele>1084.5</ele></trkpt>
<trkpt lon="-4.728289" lat="43.151047"><ele>1089.75</ele></trkpt>
<trkpt lon="-4.728362" lat="43.151009"><ele>1091.75</ele></trkpt>
<trkpt lon="-4.728434" lat="43.150958"><ele>1093.75</ele></trkpt>
<trkpt lon="-4.728479" lat="43.150895"><ele>1094.75</ele></trkpt>
<trkpt lon="-4.728544" lat="43.150668"><ele>1096.75</ele></trkpt>
<trkpt lon="-4.728640" lat="43.150528"><ele>1100.0</ele></trkpt>
<trkpt lon="-4.728664" lat="43.150475"><ele>1101.0</ele></trkpt>
<trkpt lon="-4.728662" lat="43.150378"><ele>1100.75</ele></trkpt>
<trkpt lon="-4.728676" lat="43.150280"><ele>1101.0</ele></trkpt>
<trkpt lon="-4.728707" lat="43.150223"><ele>1101.0</ele></trkpt>
<trkpt lon="-4.728788" lat="43.150192"><ele>1102.75</ele></trkpt>
<trkpt lon="-4.728913" lat="43.150128"><ele>1105.25</ele></trkpt>
<trkpt lon="-4.729073" lat="43.150058"><ele>1108.0</ele></trkpt>
<trkpt lon="-4.729246" lat="43.149960"><ele>1109.0</ele></trkpt>
<trkpt lon="-4.729465" lat="43.149885"><ele>1111.0</ele></trkpt>
<trkpt lon="-4.729590" lat="43.149873"><ele>1112.5</ele></trkpt>
<trkpt lon="-4.729686" lat="43.149873"><ele>1113.75</ele></trkpt>
<trkpt lon="-4.729770" lat="43.149881"><ele>1115.25</ele></trkpt>
<trkpt lon="-4.730128" lat="43.149951"><ele>1121.75</ele></trkpt>
<trkpt lon="-4.730284" lat="43.149969"><ele>1123.75</ele></trkpt>
<trkpt lon="-4.730633" lat="43.150056"><ele>1131.25</ele></trkpt>
<trkpt lon="-4.730867" lat="43.150075"><ele>1135.25</ele></trkpt>
<trkpt lon="-4.730987" lat="43.150070"><ele>1137.0</ele></trkpt>
<trkpt lon="-4.731080" lat="43.150080"><ele>1138.75</ele></trkpt>
<trkpt lon="-4.731153" lat="43.150099"><ele>1140.75</ele></trkpt>
<trkpt lon="-4.731202" lat="43.150135"><ele>1143.25</ele></trkpt>
<trkpt lon="-4.731222" lat="43.150187"><ele>1145.25</ele></trkpt>
<trkpt lon="-4.731219" lat="43.150233"><ele>1146.75</ele></trkpt>
<trkpt lon="-4.731045" lat="43.150598"><ele>1152.75</ele></trkpt>
<trkpt lon="-4.731030" lat="43.150676"><ele>1154.0</ele></trkpt>
<trkpt lon="-4.731062" lat="43.150724"><ele>1155.0</ele></trkpt>
<trkpt lon="-4.731098" lat="43.150751"><ele>1155.5</ele></trkpt>
<trkpt lon="-4.731159" lat="43.150778"><ele>1156.75</ele></trkpt>
<trkpt lon="-4.731224" lat="43.150778"><ele>1157.75</ele></trkpt>
<trkpt lon="-4.731289" lat="43.150758"><ele>1158.75</ele></trkpt>
<trkpt lon="-4.731354" lat="43.150703"><ele>1159.75</ele></trkpt>
<trkpt lon="-4.731468" lat="43.150584"><ele>1161.75</ele></trkpt>
<trkpt lon="-4.731645" lat="43.150499"><ele>1164.25</ele></trkpt>
<trkpt lon="-4.731827" lat="43.150375"><ele>1168.5</ele></trkpt>
<trkpt lon="-4.732141" lat="43.150152"><ele>1175.0</ele></trkpt>
<trkpt lon="-4.732412" lat="43.149937"><ele>1179.75</ele></trkpt>
<trkpt lon="-4.732541" lat="43.149857"><ele>1183.0</ele></trkpt>
<trkpt lon="-4.732641" lat="43.149749"><ele>1185.0</ele></trkpt>
<trkpt lon="-4.732665" lat="43.149618"><ele>1187.0</ele></trkpt>
<trkpt lon="-4.732657" lat="43.149443"><ele>1189.5</ele></trkpt>
<trkpt lon="-4.732645" lat="43.149378"><ele>1190.5</ele></trkpt>
<trkpt lon="-4.732636" lat="43.149174"><ele>1194.75</ele></trkpt>
<trkpt lon="-4.732617" lat="43.149123"><ele>1195.0</ele></trkpt>
<trkpt lon="-4.732614" lat="43.149035"><ele>1196.75</ele></trkpt>
<trkpt lon="-4.732665" lat="43.149006"><ele>1198.75</ele></trkpt>
<trkpt lon="-4.732717" lat="43.149012"><ele>1200.25</ele></trkpt>
<trkpt lon="-4.732895" lat="43.149082"><ele>1203.5</ele></trkpt>
<trkpt lon="-4.733029" lat="43.149115"><ele>1206.0</ele></trkpt>
<trkpt lon="-4.733114" lat="43.149121"><ele>1207.0</ele></trkpt>
<trkpt lon="-4.733169" lat="43.149113"><ele>1207.5</ele></trkpt>
<trkpt lon="-4.733253" lat="43.149085"><ele>1209.0</ele></trkpt>
<trkpt lon="-4.733318" lat="43.149047"><ele>1210.25</ele></trkpt>
<trkpt lon="-4.733358" lat="43.149002"><ele>1212.0</ele></trkpt>
<trkpt lon="-4.733371" lat="43.148941"><ele>1213.5</ele></trkpt>
<trkpt lon="-4.733352" lat="43.148902"><ele>1214.0</ele></trkpt>
<trkpt lon="-4.733327" lat="43.148747"><ele>1215.5</ele></trkpt>
<trkpt lon="-4.733340" lat="43.148689"><ele>1216.0</ele></trkpt>
<trkpt lon="-4.733378" lat="43.148654"><ele>1216.75</ele></trkpt>
<trkpt lon="-4.733492" lat="43.148641"><ele>1218.0</ele></trkpt>
<trkpt lon="-4.733741" lat="43.148658"><ele>1219.5</ele></trkpt>
<trkpt lon="-4.733851" lat="43.148675"><ele>1220.25</ele></trkpt>
<trkpt lon="-4.733973" lat="43.148705"><ele>1222.0</ele></trkpt>
<trkpt lon="-4.734280" lat="43.148811"><ele>1227.5</ele></trkpt>
<trkpt lon="-4.734405" lat="43.148832"><ele>1229.5</ele></trkpt>
<trkpt lon="-4.734555" lat="43.148847"><ele>1231.5</ele></trkpt>
<trkpt lon="-4.734741" lat="43.148854"><ele>1233.75</ele></trkpt>
<trkpt lon="-4.734852" lat="43.148864"><ele>1235.0</ele></trkpt>
<trkpt lon="-4.735191" lat="43.148866"><ele>1238.75</ele></trkpt>
<trkpt lon="-4.735426" lat="43.148859"><ele>1242.0</ele></trkpt>
<trkpt lon="-4.735826" lat="43.148877"><ele>1248.75</ele></trkpt>
<trkpt lon="-4.735989" lat="43.148876"><ele>1250.5</ele></trkpt>
<trkpt lon="-4.736165" lat="43.148864"><ele>1252.75</ele></trkpt>
<trkpt lon="-4.736235" lat="43.148854"><ele>1254.0</ele></trkpt>
<trkpt lon="-4.736433" lat="43.148834"><ele>1256.75</ele></trkpt>
<trkpt lon="-4.736742" lat="43.148831"><ele>1259.5</ele></trkpt>
<trkpt lon="-4.736835" lat="43.148817"><ele>1260.5</ele></trkpt>
<trkpt lon="-4.737137" lat="43.148738"><ele>1264.5</ele></trkpt>
<trkpt lon="-4.737362" lat="43.148689"><ele>1267.75</ele></trkpt>
<trkpt lon="-4.737446" lat="43.148676"><ele>1269.0</ele></trkpt>
<trkpt lon="-4.737637" lat="43.148683"><ele>1271.5</ele></trkpt>
<trkpt lon="-4.737742" lat="43.148698"><ele>1272.75</ele></trkpt>
<trkpt lon="-4.737814" lat="43.148708"><ele>1273.75</ele></trkpt>
<trkpt lon="-4.737905" lat="43.148690"><ele>1275.0</ele></trkpt>
<trkpt lon="-4.738069" lat="43.148648"><ele>1277.0</ele></trkpt>
<trkpt lon="-4.738390" lat="43.148531"><ele>1278.5</ele></trkpt>
<trkpt lon="-4.738452" lat="43.148519"><ele>1278.5</ele></trkpt>
<trkpt lon="-4.738544" lat="43.148500"><ele>1278.25</ele></trkpt>
<trkpt lon="-4.738580" lat="43.148495"><ele>1278.25</ele></trkpt>
<trkpt lon="-4.738737" lat="43.148472"><ele>1277.75</ele></trkpt>
<trkpt lon="-4.739611" lat="43.148428"><ele>1279.0</ele></trkpt>
<trkpt lon="-4.739766" lat="43.148405"><ele>1278.75</ele></trkpt>
<trkpt lon="-4.739989" lat="43.148350"><ele>1277.5</ele></trkpt>
<trkpt lon="-4.740145" lat="43.148318"><ele>1276.25</ele></trkpt>
<trkpt lon="-4.740486" lat="43.148289"><ele>1274.5</ele></trkpt>
<trkpt lon="-4.740769" lat="43.148284"><ele>1274.0</ele></trkpt>
<trkpt lon="-4.740961" lat="43.148292"><ele>1275.25</ele></trkpt>
<trkpt lon="-4.741093" lat="43.148289"><ele>1276.0</ele></trkpt>
<trkpt lon="-4.741294" lat="43.148295"><ele>1277.0</ele></trkpt>
<trkpt lon="-4.741529" lat="43.148274"><ele>1278.5</ele></trkpt>
<trkpt lon="-4.741852" lat="43.148218"><ele>1280.25</ele></trkpt>
<trkpt lon="-4.742107" lat="43.148195"><ele>1281.5</ele></trkpt>
<trkpt lon="-4.742348" lat="43.148181"><ele>1282.5</ele></trkpt>
<trkpt lon="-4.742929" lat="43.148210"><ele>1285.25</ele></trkpt>
<trkpt lon="-4.743251" lat="43.148210"><ele>1284.25</ele></trkpt>
<trkpt lon="-4.743377" lat="43.148228"><ele>1284.25</ele></trkpt>
<trkpt lon="-4.743495" lat="43.148275"><ele>1284.75</ele></trkpt>
<trkpt lon="-4.743584" lat="43.148295"><ele>1284.25</ele></trkpt>
<trkpt lon="-4.743685" lat="43.148287"><ele>1285.25</ele></trkpt>
<trkpt lon="-4.743755" lat="43.148262"><ele>1285.75</ele></trkpt>
<trkpt lon="-4.744113" lat="43.148096"><ele>1287.25</ele></trkpt>
<trkpt lon="-4.744272" lat="43.148040"><ele>1287.5</ele></trkpt>
<trkpt lon="-4.744570" lat="43.147972"><ele>1289.0</ele></trkpt>
<trkpt lon="-4.744781" lat="43.147966"><ele>1290.25</ele></trkpt>
<trkpt lon="-4.744918" lat="43.147983"><ele>1290.25</ele></trkpt>
<trkpt lon="-4.745039" lat="43.148008"><ele>1290.5</ele></trkpt>
<trkpt lon="-4.745234" lat="43.148070"><ele>1291.5</ele></trkpt>
<trkpt lon="-4.745599" lat="43.148206"><ele>1294.0</ele></trkpt>
<trkpt lon="-4.745744" lat="43.148270"><ele>1295.25</ele></trkpt>
<trkpt lon="-4.745949" lat="43.148340"><ele>1296.5</ele></trkpt>
<trkpt lon="-4.746071" lat="43.148393"><ele>1298.0</ele></trkpt>
<trkpt lon="-4.746177" lat="43.148457"><ele>1300.5</ele></trkpt>
<trkpt lon="-4.746255" lat="43.148491"><ele>1301.5</ele></trkpt>
<trkpt lon="-4.746389" lat="43.148518"><ele>1301.75</ele></trkpt>
<trkpt lon="-4.746589" lat="43.148545"><ele>1303.5</ele></trkpt>
<trkpt lon="-4.746818" lat="43.148548"><ele>1304.75</ele></trkpt>
<trkpt lon="-4.747039" lat="43.148538"><ele>1308.5</ele></trkpt>
<trkpt lon="-4.747112" lat="43.148498"><ele>1309.5</ele></trkpt>
<trkpt lon="-4.747190" lat="43.148429"><ele>1309.5</ele></trkpt>
<trkpt lon="-4.747243" lat="43.148351"><ele>1308.5</ele></trkpt>
<trkpt lon="-4.747311" lat="43.148163"><ele>1310.0</ele></trkpt>
<trkpt lon="-4.747348" lat="43.148111"><ele>1311.25</ele></trkpt>
<trkpt lon="-4.747372" lat="43.148056"><ele>1312.0</ele></trkpt>
<trkpt lon="-4.747408" lat="43.148015"><ele>1312.75</ele></trkpt>
<trkpt lon="-4.747527" lat="43.147910"><ele>1316.0</ele></trkpt>
<trkpt lon="-4.747576" lat="43.147694"><ele>1313.75</ele></trkpt>
<trkpt lon="-4.747628" lat="43.147637"><ele>1314.75</ele></trkpt>
<trkpt lon="-4.747756" lat="43.147593"><ele>1317.75</ele></trkpt>
<trkpt lon="-4.747910" lat="43.147569"><ele>1319.25</ele></trkpt>
<trkpt lon="-4.747994" lat="43.147581"><ele>1320.25</ele></trkpt>
<trkpt lon="-4.748087" lat="43.147625"><ele>1322.0</ele></trkpt>
<trkpt lon="-4.748155" lat="43.147695"><ele>1323.5</ele></trkpt>
<trkpt lon="-4.748252" lat="43.147847"><ele>1327.0</ele></trkpt>
<trkpt lon="-4.748445" lat="43.148084"><ele>1331.75</ele></trkpt>
<trkpt lon="-4.748534" lat="43.148186"><ele>1333.75</ele></trkpt>
<trkpt lon="-4.748625" lat="43.148274"><ele>1334.75</ele></trkpt>
<trkpt lon="-4.748729" lat="43.148343"><ele>1336.75</ele></trkpt>
<trkpt lon="-4.748951" lat="43.148467"><ele>1341.5</ele></trkpt>
<trkpt lon="-4.749063" lat="43.148485"><ele>1343.5</ele></trkpt>
<trkpt lon="-4.749159" lat="43.148482"><ele>1344.5</ele></trkpt>
<trkpt lon="-4.749354" lat="43.148428"><ele>1347.25</ele></trkpt>
<trkpt lon="-4.749466" lat="43.148384"><ele>1349.0</ele></trkpt>
<trkpt lon="-4.749547" lat="43.148332"><ele>1350.5</ele></trkpt>
<trkpt lon="-4.749614" lat="43.148262"><ele>1352.0</ele></trkpt>
<trkpt lon="-4.749692" lat="43.148165"><ele>1353.5</ele></trkpt>
<trkpt lon="-4.749952" lat="43.147933"><ele>1359.0</ele></trkpt>
<trkpt lon="-4.749991" lat="43.147844"><ele>1359.25</ele></trkpt>
<trkpt lon="-4.750050" lat="43.147631"><ele>1361.0</ele></trkpt>
<trkpt lon="-4.750094" lat="43.147528"><ele>1362.75</ele></trkpt>
<trkpt lon="-4.750154" lat="43.147444"><ele>1363.75</ele></trkpt>
<trkpt lon="-4.750244" lat="43.147360"><ele>1365.75</ele></trkpt>
<trkpt lon="-4.750327" lat="43.147261"><ele>1366.75</ele></trkpt>
<trkpt lon="-4.750424" lat="43.147161"><ele>1368.25</ele></trkpt>
<trkpt lon="-4.750502" lat="43.147062"><ele>1369.5</ele></trkpt>
<trkpt lon="-4.750582" lat="43.146940"><ele>1370.5</ele></trkpt>
<trkpt lon="-4.750660" lat="43.146847"><ele>1370.5</ele></trkpt>
<trkpt lon="-4.750869" lat="43.146677"><ele>1371.75</ele></trkpt>
<trkpt lon="-4.751062" lat="43.146513"><ele>1371.75</ele></trkpt>
<trkpt lon="-4.751166" lat="43.146450"><ele>1371.5</ele></trkpt>
<trkpt lon="-4.751276" lat="43.146415"><ele>1371.5</ele></trkpt>
<trkpt lon="-4.751432" lat="43.146390"><ele>1372.25</ele></trkpt>
<trkpt lon="-4.751555" lat="43.146365"><ele>1372.75</ele></trkpt>
<trkpt lon="-4.751634" lat="43.146349"><ele>1373.25</ele></trkpt>
<trkpt lon="-4.752039" lat="43.146290"><ele>1376.5</ele></trkpt>
<trkpt lon="-4.752270" lat="43.146241"><ele>1377.25</ele></trkpt>
<trkpt lon="-4.752426" lat="43.146215"><ele>1377.0</ele></trkpt>
<trkpt lon="-4.752608" lat="43.146198"><ele>1376.5</ele></trkpt>
<trkpt lon="-4.752805" lat="43.146192"><ele>1375.75</ele></trkpt>
<trkpt lon="-4.753397" lat="43.146189"><ele>1374.75</ele></trkpt>
<trkpt lon="-4.753851" lat="43.146202"><ele>1373.25</ele></trkpt>
<trkpt lon="-4.753992" lat="43.146200"><ele>1372.75</ele></trkpt>
<trkpt lon="-4.754114" lat="43.146185"><ele>1372.25</ele></trkpt>
<trkpt lon="-4.754231" lat="43.146157"><ele>1372.0</ele></trkpt>
<trkpt lon="-4.754333" lat="43.146121"><ele>1372.25</ele></trkpt>
<trkpt lon="-4.754423" lat="43.146075"><ele>1372.5</ele></trkpt>
<trkpt lon="-4.754557" lat="43.145986"><ele>1374.25</ele></trkpt>
<trkpt lon="-4.754629" lat="43.145915"><ele>1375.0</ele></trkpt>
<trkpt lon="-4.754708" lat="43.145820"><ele>1375.75</ele></trkpt>
<trkpt lon="-4.754777" lat="43.145684"><ele>1377.25</ele></trkpt>
<trkpt lon="-4.754812" lat="43.145653"><ele>1378.0</ele></trkpt>
<trkpt lon="-4.754853" lat="43.145642"><ele>1378.5</ele></trkpt>
<trkpt lon="-4.755695" lat="43.145647"><ele>1388.25</ele></trkpt>
<trkpt lon="-4.756100" lat="43.145682"><ele>1386.75</ele></trkpt>
<trkpt lon="-4.756618" lat="43.145693"><ele>1388.75</ele></trkpt>
<trkpt lon="-4.756831" lat="43.145706"><ele>1389.0</ele></trkpt>
<trkpt lon="-4.756985" lat="43.145746"><ele>1389.75</ele></trkpt>
<trkpt lon="-4.757373" lat="43.145818"><ele>1390.75</ele></trkpt>
<trkpt lon="-4.757601" lat="43.145875"><ele>1392.25</ele></trkpt>
<trkpt lon="-4.757846" lat="43.145949"><ele>1394.0</ele></trkpt>
<trkpt lon="-4.758011" lat="43.146003"><ele>1395.5</ele></trkpt>
<trkpt lon="-4.758190" lat="43.146011"><ele>1396.75</ele></trkpt>
<trkpt lon="-4.758477" lat="43.145975"><ele>1396.75</ele></trkpt>
<trkpt lon="-4.758566" lat="43.145949"><ele>1396.25</ele></trkpt>
<trkpt lon="-4.758747" lat="43.145921"><ele>1396.5</ele></trkpt>
<trkpt lon="-4.759135" lat="43.145948"><ele>1400.75</ele></trkpt>
<trkpt lon="-4.759543" lat="43.146008"><ele>1403.75</ele></trkpt>
<trkpt lon="-4.759657" lat="43.146003"><ele>1404.75</ele></trkpt>
<trkpt lon="-4.759731" lat="43.146006"><ele>1405.5</ele></trkpt>
<trkpt lon="-4.759842" lat="43.146032"><ele>1406.5</ele></trkpt>
<trkpt lon="-4.759989" lat="43.146077"><ele>1408.5</ele></trkpt>
<trkpt lon="-4.760083" lat="43.146114"><ele>1410.25</ele></trkpt>
<trkpt lon="-4.760221" lat="43.146132"><ele>1411.5</ele></trkpt>
<trkpt lon="-4.760553" lat="43.146147"><ele>1415.25</ele></trkpt>
<trkpt lon="-4.760778" lat="43.146165"><ele>1418.0</ele></trkpt>
<trkpt lon="-4.761281" lat="43.146255"><ele>1420.75</ele></trkpt>
<trkpt lon="-4.761761" lat="43.146310"><ele>1425.75</ele></trkpt>
<trkpt lon="-4.762114" lat="43.146286"><ele>1429.0</ele></trkpt>
<trkpt lon="-4.762268" lat="43.146248"><ele>1431.0</ele></trkpt>
<trkpt lon="-4.762415" lat="43.146204"><ele>1433.75</ele></trkpt>
<trkpt lon="-4.762556" lat="43.146129"><ele>1436.0</ele></trkpt>
<trkpt lon="-4.762641" lat="43.146097"><ele>1436.25</ele></trkpt>
<trkpt lon="-4.762759" lat="43.146088"><ele>1437.25</ele></trkpt>
<trkpt lon="-4.762939" lat="43.146115"><ele>1439.5</ele></trkpt>
<trkpt lon="-4.763038" lat="43.146107"><ele>1439.75</ele></trkpt>
<trkpt lon="-4.763121" lat="43.146072"><ele>1440.5</ele></trkpt>
<trkpt lon="-4.763231" lat="43.146001"><ele>1441.75</ele></trkpt>
<trkpt lon="-4.763298" lat="43.145946"><ele>1443.0</ele></trkpt>
<trkpt lon="-4.763402" lat="43.145768"><ele>1443.25</ele></trkpt>
<trkpt lon="-4.763449" lat="43.145719"><ele>1444.0</ele></trkpt>
<trkpt lon="-4.763581" lat="43.145649"><ele>1446.25</ele></trkpt>
<trkpt lon="-4.764177" lat="43.145417"><ele>1453.0</ele></trkpt>
<trkpt lon="-4.764353" lat="43.145378"><ele>1455.25</ele></trkpt>
<trkpt lon="-4.764588" lat="43.145367"><ele>1457.0</ele></trkpt>
<trkpt lon="-4.764748" lat="43.145387"><ele>1458.75</ele></trkpt>
<trkpt lon="-4.764892" lat="43.145424"><ele>1460.5</ele></trkpt>
<trkpt lon="-4.765035" lat="43.145446"><ele>1462.75</ele></trkpt>
<trkpt lon="-4.765110" lat="43.145440"><ele>1464.25</ele></trkpt>
<trkpt lon="-4.765147" lat="43.145426"><ele>1464.5</ele></trkpt>
<trkpt lon="-4.765231" lat="43.145377"><ele>1464.0</ele></trkpt>
<trkpt lon="-4.765332" lat="43.145308"><ele>1462.0</ele></trkpt>
<trkpt lon="-4.765399" lat="43.145279"><ele>1460.75</ele></trkpt>
<trkpt lon="-4.765627" lat="43.145253"><ele>1461.5</ele></trkpt>
<trkpt lon="-4.765830" lat="43.145212"><ele>1460.25</ele></trkpt>
<trkpt lon="-4.766038" lat="43.145155"><ele>1460.75</ele></trkpt>
<trkpt lon="-4.766292" lat="43.145021"><ele>1458.0</ele></trkpt>
<trkpt lon="-4.766399" lat="43.144987"><ele>1459.0</ele></trkpt>
<trkpt lon="-4.766453" lat="43.144990"><ele>1458.75</ele></trkpt>
<trkpt lon="-4.766557" lat="43.144994"><ele>1457.75</ele></trkpt>
<trkpt lon="-4.767100" lat="43.145221"><ele>1453.25</ele></trkpt>
<trkpt lon="-4.767223" lat="43.145268"><ele>1452.5</ele></trkpt>
<trkpt lon="-4.767381" lat="43.145315"><ele>1451.5</ele></trkpt>
<trkpt lon="-4.767491" lat="43.145338"><ele>1450.25</ele></trkpt>
<trkpt lon="-4.767674" lat="43.145336"><ele>1449.75</ele></trkpt>
<trkpt lon="-4.767765" lat="43.145325"><ele>1449.5</ele></trkpt>
<trkpt lon="-4.767857" lat="43.145323"><ele>1449.25</ele></trkpt>
<trkpt lon="-4.768020" lat="43.145330"><ele>1448.5</ele></trkpt>
<trkpt lon="-4.768255" lat="43.145394"><ele>1445.0</ele></trkpt>
<trkpt lon="-4.768362" lat="43.145461"><ele>1444.75</ele></trkpt>
<trkpt lon="-4.768472" lat="43.145501"><ele>1444.0</ele></trkpt>
<trkpt lon="-4.768633" lat="43.145532"><ele>1442.5</ele></trkpt>
<trkpt lon="-4.768830" lat="43.145551"><ele>1439.75</ele></trkpt>
<trkpt lon="-4.769037" lat="43.145641"><ele>1437.0</ele></trkpt>
<trkpt lon="-4.769141" lat="43.145661"><ele>1434.0</ele></trkpt>
<trkpt lon="-4.769195" lat="43.145972"><ele>1438.0</ele></trkpt>
<trkpt lon="-4.769268" lat="43.146026"><ele>1437.0</ele></trkpt>
<trkpt lon="-4.769423" lat="43.146062"><ele>1432.0</ele></trkpt>
<trkpt lon="-4.769516" lat="43.146123"><ele>1431.0</ele></trkpt>
<trkpt lon="-4.769573" lat="43.146244"><ele>1428.0</ele></trkpt>
<trkpt lon="-4.769481" lat="43.146501"><ele>1432.5</ele></trkpt>
<trkpt lon="-4.769520" lat="43.146581"><ele>1432.0</ele></trkpt>
<trkpt lon="-4.769654" lat="43.146645"><ele>1429.75</ele></trkpt>
<trkpt lon="-4.769796" lat="43.146663"><ele>1426.75</ele></trkpt>
<trkpt lon="-4.769870" lat="43.146690"><ele>1426.0</ele></trkpt>
<trkpt lon="-4.770086" lat="43.146870"><ele>1428.0</ele></trkpt>
<trkpt lon="-4.770228" lat="43.146949"><ele>1425.5</ele></trkpt>
<trkpt lon="-4.770507" lat="43.147121"><ele>1421.25</ele></trkpt>
<trkpt lon="-4.770662" lat="43.147195"><ele>1420.25</ele></trkpt>
<trkpt lon="-4.770840" lat="43.147253"><ele>1420.0</ele></trkpt>
<trkpt lon="-4.771165" lat="43.147396"><ele>1422.5</ele></trkpt>
<trkpt lon="-4.771614" lat="43.147498"><ele>1421.75</ele></trkpt>
<trkpt lon="-4.771765" lat="43.147583"><ele>1420.5</ele></trkpt>
<trkpt lon="-4.771825" lat="43.147678"><ele>1421.25</ele></trkpt>
<trkpt lon="-4.771913" lat="43.147771"><ele>1421.5</ele></trkpt>
<trkpt lon="-4.772234" lat="43.148045"><ele>1424.75</ele></trkpt>
<trkpt lon="-4.772299" lat="43.148194"><ele>1422.75</ele></trkpt>
<trkpt lon="-4.772421" lat="43.148248"><ele>1419.75</ele></trkpt>
<trkpt lon="-4.772584" lat="43.148212"><ele>1418.25</ele></trkpt>
<trkpt lon="-4.772662" lat="43.148284"><ele>1414.0</ele></trkpt>
<trkpt lon="-4.772605" lat="43.148491"><ele>1408.5</ele></trkpt>
<trkpt lon="-4.772612" lat="43.148806"><ele>1398.5</ele></trkpt>
<trkpt lon="-4.772697" lat="43.149007"><ele>1392.25</ele></trkpt>
<trkpt lon="-4.772761" lat="43.149219"><ele>1389.75</ele></trkpt>
<trkpt lon="-4.772938" lat="43.149405"><ele>1388.5</ele></trkpt>
<trkpt lon="-4.773030" lat="43.149405"><ele>1384.0</ele></trkpt>
<trkpt lon="-4.773072" lat="43.149286"><ele>1379.5</ele></trkpt>
<trkpt lon="-4.773207" lat="43.149245"><ele>1376.25</ele></trkpt>
<trkpt lon="-4.773327" lat="43.149193"><ele>1374.75</ele></trkpt>
<trkpt lon="-4.773419" lat="43.149116"><ele>1374.25</ele></trkpt>
<trkpt lon="-4.773596" lat="43.149100"><ele>1371.25</ele></trkpt>
<trkpt lon="-4.773787" lat="43.149116"><ele>1368.0</ele></trkpt>
<trkpt lon="-4.773929" lat="43.149157"><ele>1364.75</ele></trkpt>
<trkpt lon="-4.773989" lat="43.149224"><ele>1363.5</ele></trkpt>
<trkpt lon="-4.774097" lat="43.149373"><ele>1360.5</ele></trkpt>
<trkpt lon="-4.774183" lat="43.149522"><ele>1355.25</ele></trkpt>
<trkpt lon="-4.774249" lat="43.149717"><ele>1348.75</ele></trkpt>
<trkpt lon="-4.774341" lat="43.149663"><ele>1350.25</ele></trkpt>
<trkpt lon="-4.774850" lat="43.149432"><ele>1347.25</ele></trkpt>
<trkpt lon="-4.775031" lat="43.149341"><ele>1349.0</ele></trkpt>
<trkpt lon="-4.775157" lat="43.149227"><ele>1348.75</ele></trkpt>
<trkpt lon="-4.775356" lat="43.149142"><ele>1345.25</ele></trkpt>
<trkpt lon="-4.775430" lat="43.149093"><ele>1346.25</ele></trkpt>
<trkpt lon="-4.775454" lat="43.149061"><ele>1345.5</ele></trkpt>
<trkpt lon="-4.775470" lat="43.149016"><ele>1344.25</ele></trkpt>
<trkpt lon="-4.775459" lat="43.148976"><ele>1342.75</ele></trkpt>
<trkpt lon="-4.775499" lat="43.148971"><ele>1342.5</ele></trkpt>
<trkpt lon="-4.775587" lat="43.148966"><ele>1343.0</ele></trkpt>
<trkpt lon="-4.775645" lat="43.148887"><ele>1340.0</ele></trkpt>
<trkpt lon="-4.775765" lat="43.148823"><ele>1338.0</ele></trkpt>
<trkpt lon="-4.775866" lat="43.148783"><ele>1337.25</ele></trkpt>
<trkpt lon="-4.775980" lat="43.148768"><ele>1340.5</ele></trkpt>
<trkpt lon="-4.776072" lat="43.148681"><ele>1332.75</ele></trkpt>
<trkpt lon="-4.776289" lat="43.148600"><ele>1326.25</ele></trkpt>
<trkpt lon="-4.777013" lat="43.148369"><ele>1328.25</ele></trkpt>
<trkpt lon="-4.777759" lat="43.148295"><ele>1333.75</ele></trkpt>
<trkpt lon="-4.778082" lat="43.148233"><ele>1331.25</ele></trkpt>
<trkpt lon="-4.778349" lat="43.148295"><ele>1340.75</ele></trkpt>
<trkpt lon="-4.778708" lat="43.148393"><ele>1353.25</ele></trkpt>
<trkpt lon="-4.779015" lat="43.148433"><ele>1356.0</ele></trkpt>
<trkpt lon="-4.779198" lat="43.148534"><ele>1364.5</ele></trkpt>
<trkpt lon="-4.779427" lat="43.148612"><ele>1369.0</ele></trkpt>
<trkpt lon="-4.779713" lat="43.148562"><ele>1374.25</ele></trkpt>
<trkpt lon="-4.779851" lat="43.148518"><ele>1380.75</ele></trkpt>
<trkpt lon="-4.780049" lat="43.148408"><ele>1388.25</ele></trkpt>
<trkpt lon="-4.780366" lat="43.148134"><ele>1397.5</ele></trkpt>
<trkpt lon="-4.780521" lat="43.148115"><ele>1401.75</ele></trkpt>
<trkpt lon="-4.780834" lat="43.148034"><ele>1405.25</ele></trkpt>
<trkpt lon="-4.781563" lat="43.147873"><ele>1412.5</ele></trkpt>
<trkpt lon="-4.781900" lat="43.147856"><ele>1414.0</ele></trkpt>
<trkpt lon="-4.782223" lat="43.147818"><ele>1420.0</ele></trkpt>
<trkpt lon="-4.782615" lat="43.147756"><ele>1426.25</ele></trkpt>
<trkpt lon="-4.783108" lat="43.147650"><ele>1438.75</ele></trkpt>
<trkpt lon="-4.783446" lat="43.147490"><ele>1445.25</ele></trkpt>
<trkpt lon="-4.783563" lat="43.147269"><ele>1446.5</ele></trkpt>
<trkpt lon="-4.783767" lat="43.146991"><ele>1460.75</ele></trkpt>
<trkpt lon="-4.783811" lat="43.146742"><ele>1470.75</ele></trkpt>
<trkpt lon="-4.784169" lat="43.146776"><ele>1480.0</ele></trkpt>
<trkpt lon="-4.784594" lat="43.146875"><ele>1496.75</ele></trkpt>
<trkpt lon="-4.784836" lat="43.146922"><ele>1504.5</ele></trkpt>
<trkpt lon="-4.785050" lat="43.146973"><ele>1509.0</ele></trkpt>
<trkpt lon="-4.785345" lat="43.147004"><ele>1513.0</ele></trkpt>
<trkpt lon="-4.785800" lat="43.147082"><ele>1523.75</ele></trkpt>
<trkpt lon="-4.785914" lat="43.147110"><ele>1527.5</ele></trkpt>
<trkpt lon="-4.786100" lat="43.147175"><ele>1532.5</ele></trkpt>
<trkpt lon="-4.786277" lat="43.147164"><ele>1535.5</ele></trkpt>
<trkpt lon="-4.786343" lat="43.147102"><ele>1536.0</ele></trkpt>
<trkpt lon="-4.786445" lat="43.147102"><ele>1538.5</ele></trkpt>
<trkpt lon="-4.786955" lat="43.147157"><ele>1550.0</ele></trkpt>
<trkpt lon="-4.787388" lat="43.147277"><ele>1563.75</ele></trkpt>
<trkpt lon="-4.787602" lat="43.147293"><ele>1571.0</ele></trkpt>
<trkpt lon="-4.787822" lat="43.147340"><ele>1578.0</ele></trkpt>
<trkpt lon="-4.788262" lat="43.147449"><ele>1590.5</ele></trkpt>
<trkpt lon="-4.788478" lat="43.147564"><ele>1598.25</ele></trkpt>
<trkpt lon="-4.789020" lat="43.147752"><ele>1613.5</ele></trkpt>
<trkpt lon="-4.789400" lat="43.147892"><ele>1627.25</ele></trkpt>
<trkpt lon="-4.789560" lat="43.147907"><ele>1631.75</ele></trkpt>
<trkpt lon="-4.789809" lat="43.147900"><ele>1637.5</ele></trkpt>
<trkpt lon="-4.790097" lat="43.147931"><ele>1644.0</ele></trkpt>
<trkpt lon="-4.790671" lat="43.148134"><ele>1659.0</ele></trkpt>
<trkpt lon="-4.790790" lat="43.148135"><ele>1662.5</ele></trkpt>
<trkpt lon="-4.791218" lat="43.148119"><ele>1671.25</ele></trkpt>
<trkpt lon="-4.791486" lat="43.148095"><ele>1677.25</ele></trkpt>
<trkpt lon="-4.791771" lat="43.148048"><ele>1683.75</ele></trkpt>
<trkpt lon="-4.792173" lat="43.148060"><ele>1693.0</ele></trkpt>
<trkpt lon="-4.792646" lat="43.148116"><ele>1709.25</ele></trkpt>
<trkpt lon="-4.792711" lat="43.148190"><ele>1711.75</ele></trkpt>
<trkpt lon="-4.792850" lat="43.148178"><ele>1714.75</ele></trkpt>
<trkpt lon="-4.792951" lat="43.148232"><ele>1717.25</ele></trkpt>
<trkpt lon="-4.793446" lat="43.148350"><ele>1727.25</ele></trkpt>
<trkpt lon="-4.793831" lat="43.148334"><ele>1736.5</ele></trkpt>
<trkpt lon="-4.794158" lat="43.148350"><ele>1746.75</ele></trkpt>
<trkpt lon="-4.795005" lat="43.148549"><ele>1770.5</ele></trkpt>
<trkpt lon="-4.795270" lat="43.148602"><ele>1775.75</ele></trkpt>
<trkpt lon="-4.795681" lat="43.148642"><ele>1780.25</ele></trkpt>
<trkpt lon="-4.795852" lat="43.148648"><ele>1778.25</ele></trkpt>
<trkpt lon="-4.796046" lat="43.148682"><ele>1775.25</ele></trkpt>
<trkpt lon="-4.796385" lat="43.148780"><ele>1766.5</ele></trkpt>
<trkpt lon="-4.796529" lat="43.148847"><ele>1760.0</ele></trkpt>
<trkpt lon="-4.796607" lat="43.148946"><ele>1758.25</ele></trkpt>
<trkpt lon="-4.796661" lat="43.148983"><ele>1757.25</ele></trkpt>
<trkpt lon="-4.796803" lat="43.149034"><ele>1752.75</ele></trkpt>
<trkpt lon="-4.797005" lat="43.149087"><ele>1745.5</ele></trkpt>
<trkpt lon="-4.797183" lat="43.149227"><ele>1741.0</ele></trkpt>
<trkpt lon="-4.797284" lat="43.149328"><ele>1737.5</ele></trkpt>
<trkpt lon="-4.797444" lat="43.149440"><ele>1730.75</ele></trkpt>
<trkpt lon="-4.797584" lat="43.149568"><ele>1726.25</ele></trkpt>
<trkpt lon="-4.797853" lat="43.149736"><ele>1716.0</ele></trkpt>
<trkpt lon="-4.797938" lat="43.149779"><ele>1713.5</ele></trkpt>
<trkpt lon="-4.798052" lat="43.149794"><ele>1708.75</ele></trkpt>
<trkpt lon="-4.798106" lat="43.149828"><ele>1707.0</ele></trkpt>
<trkpt lon="-4.798132" lat="43.149883"><ele>1707.75</ele></trkpt>
<trkpt lon="-4.798354" lat="43.149981"><ele>1701.0</ele></trkpt>
<trkpt lon="-4.798435" lat="43.150023"><ele>1700.0</ele></trkpt>
<trkpt lon="-4.798553" lat="43.150053"><ele>1696.75</ele></trkpt>
<trkpt lon="-4.798647" lat="43.150096"><ele>1695.0</ele></trkpt>
<trkpt lon="-4.798747" lat="43.150121"><ele>1690.75</ele></trkpt>
<trkpt lon="-4.798817" lat="43.150123"><ele>1686.5</ele></trkpt>
<trkpt lon="-4.798866" lat="43.150098"><ele>1682.75</ele></trkpt>
<trkpt lon="-4.798892" lat="43.150107"><ele>1681.5</ele></trkpt>
<trkpt lon="-4.798936" lat="43.150149"><ele>1679.75</ele></trkpt>
<trkpt lon="-4.798975" lat="43.150207"><ele>1678.5</ele></trkpt>
<trkpt lon="-4.799011" lat="43.150230"><ele>1676.5</ele></trkpt>
<trkpt lon="-4.799032" lat="43.150264"><ele>1675.5</ele></trkpt>
<trkpt lon="-4.799086" lat="43.150304"><ele>1674.75</ele></trkpt>
<trkpt lon="-4.799127" lat="43.150375"><ele>1679.25</ele></trkpt>
<trkpt lon="-4.799306" lat="43.150449"><ele>1670.0</ele></trkpt>
<trkpt lon="-4.799365" lat="43.150507"><ele>1667.75</ele></trkpt>
<trkpt lon="-4.799427" lat="43.150553"><ele>1662.75</ele></trkpt>
<trkpt lon="-4.799520" lat="43.150603"><ele>1667.5</ele></trkpt>
<trkpt lon="-4.799606" lat="43.150639"><ele>1666.0</ele></trkpt>
<trkpt lon="-4.799712" lat="43.150673"><ele>1657.25</ele></trkpt>
<trkpt lon="-4.799763" lat="43.150707"><ele>1656.0</ele></trkpt>
<trkpt lon="-4.799931" lat="43.150796"><ele>1649.75</ele></trkpt>
<trkpt lon="-4.799962" lat="43.150830"><ele>1649.25</ele></trkpt>
<trkpt lon="-4.800118" lat="43.150894"><ele>1645.0</ele></trkpt>
<trkpt lon="-4.800151" lat="43.150960"><ele>1648.5</ele></trkpt>
<trkpt lon="-4.800231" lat="43.150958"><ele>1643.25</ele></trkpt>
<trkpt lon="-4.800296" lat="43.150937"><ele>1638.25</ele></trkpt>
<trkpt lon="-4.800373" lat="43.150952"><ele>1636.0</ele></trkpt>
<trkpt lon="-4.800459" lat="43.150986"><ele>1634.25</ele></trkpt>
<trkpt lon="-4.800588" lat="43.151130"><ele>1639.0</ele></trkpt>
<trkpt lon="-4.800774" lat="43.151109"><ele>1630.25</ele></trkpt>
<trkpt lon="-4.800906" lat="43.151064"><ele>1626.0</ele></trkpt>
<trkpt lon="-4.801069" lat="43.150996"><ele>1620.25</ele></trkpt>
<trkpt lon="-4.801190" lat="43.150992"><ele>1619.5</ele></trkpt>
<trkpt lon="-4.801291" lat="43.150952"><ele>1616.75</ele></trkpt>
<trkpt lon="-4.801433" lat="43.150907"><ele>1613.75</ele></trkpt>
<trkpt lon="-4.801560" lat="43.150845"><ele>1611.0</ele></trkpt>
<trkpt lon="-4.801614" lat="43.150841"><ele>1611.5</ele></trkpt>
<trkpt lon="-4.801663" lat="43.150820"><ele>1610.75</ele></trkpt>
<trkpt lon="-4.801622" lat="43.150786"><ele>1607.75</ele></trkpt>
<trkpt lon="-4.801526" lat="43.150773"><ele>1605.25</ele></trkpt>
<trkpt lon="-4.801423" lat="43.150746"><ele>1601.5</ele></trkpt>
<trkpt lon="-4.801391" lat="43.150729"><ele>1599.75</ele></trkpt>
<trkpt lon="-4.801343" lat="43.150730"><ele>1599.75</ele></trkpt>
<trkpt lon="-4.801287" lat="43.150714"><ele>1598.5</ele></trkpt>
<trkpt lon="-4.801271" lat="43.150701"><ele>1597.5</ele></trkpt>
<trkpt lon="-4.801205" lat="43.150674"><ele>1595.75</ele></trkpt>
<trkpt lon="-4.801093" lat="43.150660"><ele>1595.5</ele></trkpt>
<trkpt lon="-4.801074" lat="43.150644"><ele>1595.0</ele></trkpt>
<trkpt lon="-4.801052" lat="43.150607"><ele>1593.25</ele></trkpt>
<trkpt lon="-4.801012" lat="43.150575"><ele>1592.25</ele></trkpt>
<trkpt lon="-4.800972" lat="43.150527"><ele>1590.5</ele></trkpt>
<trkpt lon="-4.800966" lat="43.150495"><ele>1588.75</ele></trkpt>
<trkpt lon="-4.800901" lat="43.150373"><ele>1584.0</ele></trkpt>
<trkpt lon="-4.800873" lat="43.150334"><ele>1583.0</ele></trkpt>
<trkpt lon="-4.800864" lat="43.150287"><ele>1580.75</ele></trkpt>
<trkpt lon="-4.800760" lat="43.150226"><ele>1581.75</ele></trkpt>
<trkpt lon="-4.800716" lat="43.150177"><ele>1581.25</ele></trkpt>
<trkpt lon="-4.800705" lat="43.150158"><ele>1580.75</ele></trkpt>
<trkpt lon="-4.800714" lat="43.150125"><ele>1579.0</ele></trkpt>
<trkpt lon="-4.800701" lat="43.150103"><ele>1578.5</ele></trkpt>
<trkpt lon="-4.800719" lat="43.150089"><ele>1577.25</ele></trkpt>
<trkpt lon="-4.800710" lat="43.150055"><ele>1576.0</ele></trkpt>
<trkpt lon="-4.800720" lat="43.149994"><ele>1573.25</ele></trkpt>
<trkpt lon="-4.800741" lat="43.149994"><ele>1572.25</ele></trkpt>
<trkpt lon="-4.800783" lat="43.149972"><ele>1570.5</ele></trkpt>
<trkpt lon="-4.800812" lat="43.149972"><ele>1569.25</ele></trkpt>
<trkpt lon="-4.800847" lat="43.149955"><ele>1567.75</ele></trkpt>
<trkpt lon="-4.800863" lat="43.149955"><ele>1567.0</ele></trkpt>
<trkpt lon="-4.800941" lat="43.149999"><ele>1562.75</ele></trkpt>
<trkpt lon="-4.800972" lat="43.149997"><ele>1561.5</ele></trkpt>
<trkpt lon="-4.800986" lat="43.150012"><ele>1561.25</ele></trkpt>
<trkpt lon="-4.801014" lat="43.150020"><ele>1560.5</ele></trkpt>
<trkpt lon="-4.801115" lat="43.150084"><ele>1558.75</ele></trkpt>
<trkpt lon="-4.801331" lat="43.150045"><ele>1548.5</ele></trkpt>
<trkpt lon="-4.801604" lat="43.149923"><ele>1535.0</ele></trkpt>
<trkpt lon="-4.801795" lat="43.149858"><ele>1525.75</ele></trkpt>
<trkpt lon="-4.801966" lat="43.149718"><ele>1514.5</ele></trkpt>
<trkpt lon="-4.802009" lat="43.149668"><ele>1511.75</ele></trkpt>
<trkpt lon="-4.802023" lat="43.149615"><ele>1510.75</ele></trkpt>
<trkpt lon="-4.801991" lat="43.149540"><ele>1512.25</ele></trkpt>
<trkpt lon="-4.802014" lat="43.149502"><ele>1510.75</ele></trkpt>
<trkpt lon="-4.802026" lat="43.149327"><ele>1511.5</ele></trkpt>
<trkpt lon="-4.802078" lat="43.149309"><ele>1508.25</ele></trkpt>
<trkpt lon="-4.802129" lat="43.149249"><ele>1505.5</ele></trkpt>
<trkpt lon="-4.802175" lat="43.149164"><ele>1503.25</ele></trkpt>
<trkpt lon="-4.802196" lat="43.149151"><ele>1501.25</ele></trkpt>
<trkpt lon="-4.802209" lat="43.149112"><ele>1499.25</ele></trkpt>
<trkpt lon="-4.802203" lat="43.149045"><ele>1497.75</ele></trkpt>
<trkpt lon="-4.802127" lat="43.148935"><ele>1497.0</ele></trkpt>
<trkpt lon="-4.802022" lat="43.148868"><ele>1495.75</ele></trkpt>
<trkpt lon="-4.801916" lat="43.148766"><ele>1493.0</ele></trkpt>
<trkpt lon="-4.801920" lat="43.148712"><ele>1489.75</ele></trkpt>
<trkpt lon="-4.801841" lat="43.148613"><ele>1487.0</ele></trkpt>
<trkpt lon="-4.801751" lat="43.148439"><ele>1488.5</ele></trkpt>
<trkpt lon="-4.801748" lat="43.148378"><ele>1488.0</ele></trkpt>
<trkpt lon="-4.801766" lat="43.148302"><ele>1486.25</ele></trkpt>
<trkpt lon="-4.801834" lat="43.148256"><ele>1482.5</ele></trkpt>
<trkpt lon="-4.801845" lat="43.148234"><ele>1481.75</ele></trkpt>
<trkpt lon="-4.801811" lat="43.148144"><ele>1482.5</ele></trkpt>
<trkpt lon="-4.801817" lat="43.148110"><ele>1481.75</ele></trkpt>
<trkpt lon="-4.801793" lat="43.148056"><ele>1482.75</ele></trkpt>
<trkpt lon="-4.801746" lat="43.147995"><ele>1484.5</ele></trkpt>
<trkpt lon="-4.801813" lat="43.147925"><ele>1477.75</ele></trkpt>
<trkpt lon="-4.801856" lat="43.147933"><ele>1475.25</ele></trkpt>
<trkpt lon="-4.801879" lat="43.147907"><ele>1473.0</ele></trkpt>
<trkpt lon="-4.801888" lat="43.147888"><ele>1472.0</ele></trkpt>
<trkpt lon="-4.801884" lat="43.147856"><ele>1471.5</ele></trkpt>
<trkpt lon="-4.801921" lat="43.147795"><ele>1467.75</ele></trkpt>
<trkpt lon="-4.802056" lat="43.147726"><ele>1459.25</ele></trkpt>
<trkpt lon="-4.802278" lat="43.147695"><ele>1445.0</ele></trkpt>
<trkpt lon="-4.802438" lat="43.147615"><ele>1437.25</ele></trkpt>
<trkpt lon="-4.802572" lat="43.147471"><ele>1429.5</ele></trkpt>
<trkpt lon="-4.802696" lat="43.147353"><ele>1421.25</ele></trkpt>
<trkpt lon="-4.802755" lat="43.147225"><ele>1418.25</ele></trkpt>
<trkpt lon="-4.802809" lat="43.147140"><ele>1409.25</ele></trkpt>
<trkpt lon="-4.802774" lat="43.147041"><ele>1405.25</ele></trkpt>
<trkpt lon="-4.802622" lat="43.146965"><ele>1401.5</ele></trkpt>
<trkpt lon="-4.802595" lat="43.146849"><ele>1389.25</ele></trkpt>
<trkpt lon="-4.802550" lat="43.146825"><ele>1387.75</ele></trkpt>
<trkpt lon="-4.802523" lat="43.146793"><ele>1385.5</ele></trkpt>
<trkpt lon="-4.802544" lat="43.146741"><ele>1379.75</ele></trkpt>
<trkpt lon="-4.802546" lat="43.146698"><ele>1375.5</ele></trkpt>
<trkpt lon="-4.802622" lat="43.146716"><ele>1373.75</ele></trkpt>
<trkpt lon="-4.802633" lat="43.146688"><ele>1370.25</ele></trkpt>
<trkpt lon="-4.802607" lat="43.146668"><ele>1369.25</ele></trkpt>
<trkpt lon="-4.802614" lat="43.146609"><ele>1369.5</ele></trkpt>
<trkpt lon="-4.802651" lat="43.146593"><ele>1367.5</ele></trkpt>
<trkpt lon="-4.802703" lat="43.146626"><ele>1364.25</ele></trkpt>
<trkpt lon="-4.802859" lat="43.146645"><ele>1356.25</ele></trkpt>
<trkpt lon="-4.802956" lat="43.146624"><ele>1351.25</ele></trkpt>
<trkpt lon="-4.803000" lat="43.146625"><ele>1349.0</ele></trkpt>
<trkpt lon="-4.803010" lat="43.146542"><ele>1345.75</ele></trkpt>
<trkpt lon="-4.803021" lat="43.146536"><ele>1345.0</ele></trkpt>
<trkpt lon="-4.803042" lat="43.146547"><ele>1344.0</ele></trkpt>
<trkpt lon="-4.803067" lat="43.146491"><ele>1340.0</ele></trkpt>
<trkpt lon="-4.803083" lat="43.146424"><ele>1336.25</ele></trkpt>
<trkpt lon="-4.803222" lat="43.146362"><ele>1325.0</ele></trkpt>
<trkpt lon="-4.803242" lat="43.146282"><ele>1322.25</ele></trkpt>
<trkpt lon="-4.803207" lat="43.146232"><ele>1323.5</ele></trkpt>
<trkpt lon="-4.803275" lat="43.146071"><ele>1315.25</ele></trkpt>
<trkpt lon="-4.803128" lat="43.145767"><ele>1306.25</ele></trkpt>
<trkpt lon="-4.803399" lat="43.145662"><ele>1290.0</ele></trkpt>
<trkpt lon="-4.803788" lat="43.145708"><ele>1275.25</ele></trkpt>
<trkpt lon="-4.804066" lat="43.145596"><ele>1261.0</ele></trkpt>
<trkpt lon="-4.804311" lat="43.145556"><ele>1251.75</ele></trkpt>
<trkpt lon="-4.804560" lat="43.145524"><ele>1243.0</ele></trkpt>
<trkpt lon="-4.804988" lat="43.145418"><ele>1231.75</ele></trkpt>
<trkpt lon="-4.805289" lat="43.145401"><ele>1223.25</ele></trkpt>
<trkpt lon="-4.805518" lat="43.145250"><ele>1217.5</ele></trkpt>
<trkpt lon="-4.805779" lat="43.145278"><ele>1208.75</ele></trkpt>
<trkpt lon="-4.806142" lat="43.145064"><ele>1196.5</ele></trkpt>
<trkpt lon="-4.806288" lat="43.145235"><ele>1187.0</ele></trkpt>
<trkpt lon="-4.806545" lat="43.145124"><ele>1179.0</ele></trkpt>
<trkpt lon="-4.806688" lat="43.145211"><ele>1171.0</ele></trkpt>
<trkpt lon="-4.806769" lat="43.145271"><ele>1166.0</ele></trkpt>
<trkpt lon="-4.806829" lat="43.145360"><ele>1162.0</ele></trkpt>
<trkpt lon="-4.807015" lat="43.145309"><ele>1155.0</ele></trkpt>
<trkpt lon="-4.807192" lat="43.145507"><ele>1143.25</ele></trkpt>
<trkpt lon="-4.807440" lat="43.145716"><ele>1127.25</ele></trkpt>
<trkpt lon="-4.807591" lat="43.145699"><ele>1121.75</ele></trkpt>
<trkpt lon="-4.807772" lat="43.145605"><ele>1116.25</ele></trkpt>
<trkpt lon="-4.807958" lat="43.145738"><ele>1107.0</ele></trkpt>
<trkpt lon="-4.808036" lat="43.145850"><ele>1102.25</ele></trkpt>
<trkpt lon="-4.808484" lat="43.145890"><ele>1090.75</ele></trkpt>
<trkpt lon="-4.808804" lat="43.145902"><ele>1085.0</ele></trkpt>
<trkpt lon="-4.808899" lat="43.145891"><ele>1083.5</ele></trkpt>
<trkpt lon="-4.809333" lat="43.145843"><ele>1074.0</ele></trkpt>
<trkpt lon="-4.809691" lat="43.145725"><ele>1067.0</ele></trkpt>
<trkpt lon="-4.809993" lat="43.145672"><ele>1065.75</ele></trkpt>
<trkpt lon="-4.810231" lat="43.145843"><ele>1066.0</ele></trkpt>
<trkpt lon="-4.810385" lat="43.145912"><ele>1066.75</ele></trkpt>
<trkpt lon="-4.810559" lat="43.145860"><ele>1067.0</ele></trkpt>
<trkpt lon="-4.810852" lat="43.145693"><ele>1069.0</ele></trkpt>
<trkpt lon="-4.810995" lat="43.145536"><ele>1070.0</ele></trkpt>
<trkpt lon="-4.811166" lat="43.145387"><ele>1070.75</ele></trkpt>
<trkpt lon="-4.811410" lat="43.145256"><ele>1072.0</ele></trkpt>
<trkpt lon="-4.811572" lat="43.145133"><ele>1073.25</ele></trkpt>
<trkpt lon="-4.811688" lat="43.144975"><ele>1073.0</ele></trkpt>
<trkpt lon="-4.811772" lat="43.144883"><ele>1074.0</ele></trkpt>
<trkpt lon="-4.811798" lat="43.144804"><ele>1074.25</ele></trkpt>
<trkpt lon="-4.811793" lat="43.144699"><ele>1074.5</ele></trkpt>
<trkpt lon="-4.811777" lat="43.144582"><ele>1075.25</ele></trkpt>
<trkpt lon="-4.811761" lat="43.144537"><ele>1075.5</ele></trkpt>
<trkpt lon="-4.811627" lat="43.144388"><ele>1076.25</ele></trkpt>
<trkpt lon="-4.811595" lat="43.144292"><ele>1077.25</ele></trkpt>
<trkpt lon="-4.811505" lat="43.144280"><ele>1076.25</ele></trkpt>
<trkpt lon="-4.811518" lat="43.144251"><ele>1077.0</ele></trkpt>
<trkpt lon="-4.811535" lat="43.144239"><ele>1077.25</ele></trkpt>
<trkpt lon="-4.811649" lat="43.144235"><ele>1078.75</ele></trkpt>
<trkpt lon="-4.811735" lat="43.144221"><ele>1080.25</ele></trkpt>
<trkpt lon="-4.811763" lat="43.144207"><ele>1081.0</ele></trkpt>
<trkpt lon="-4.811780" lat="43.144174"><ele>1082.25</ele></trkpt>
  </trkseg></trk></gpx>
