<?xml version="1.0" encoding="UTF-8"?>
<gpx version="1.1" creator="compostel-brouter" xmlns="http://www.topografix.com/GPX/1/1">
  <metadata><name>PC-09-Ribadesella</name></metadata>
  <trk><name>PC-09-Ribadesella</name><trkseg>
<trkpt lon="-5.182801" lat="43.388090"><ele>29.0</ele></trkpt>
<trkpt lon="-5.182742" lat="43.388022"><ele>29.0</ele></trkpt>
<trkpt lon="-5.182649" lat="43.387949"><ele>29.0</ele></trkpt>
<trkpt lon="-5.182582" lat="43.387925"><ele>29.0</ele></trkpt>
<trkpt lon="-5.182457" lat="43.387951"><ele>29.0</ele></trkpt>
<trkpt lon="-5.182340" lat="43.387960"><ele>29.0</ele></trkpt>
<trkpt lon="-5.182004" lat="43.388089"><ele>29.25</ele></trkpt>
<trkpt lon="-5.181746" lat="43.388204"><ele>30.75</ele></trkpt>
<trkpt lon="-5.181676" lat="43.388243"><ele>31.25</ele></trkpt>
<trkpt lon="-5.182070" lat="43.388318"><ele>32.25</ele></trkpt>
<trkpt lon="-5.182154" lat="43.388349"><ele>32.5</ele></trkpt>
<trkpt lon="-5.182367" lat="43.388426"><ele>32.75</ele></trkpt>
<trkpt lon="-5.182624" lat="43.388613"><ele>33.0</ele></trkpt>
<trkpt lon="-5.182658" lat="43.388639"><ele>32.75</ele></trkpt>
<trkpt lon="-5.182908" lat="43.388909"><ele>31.75</ele></trkpt>
<trkpt lon="-5.182924" lat="43.389032"><ele>30.75</ele></trkpt>
<trkpt lon="-5.182957" lat="43.389065"><ele>30.75</ele></trkpt>
<trkpt lon="-5.183614" lat="43.389723"><ele>32.0</ele></trkpt>
<trkpt lon="-5.183649" lat="43.389758"><ele>32.0</ele></trkpt>
<trkpt lon="-5.183734" lat="43.389840"><ele>32.0</ele></trkpt>
<trkpt lon="-5.183685" lat="43.389868"><ele>32.0</ele></trkpt>
<trkpt lon="-5.183700" lat="43.389883"><ele>32.0</ele></trkpt>
<trkpt lon="-5.183513" lat="43.389975"><ele>31.0</ele></trkpt>
<trkpt lon="-5.183290" lat="43.390250"><ele>29.0</ele></trkpt>
<trkpt lon="-5.183307" lat="43.390262"><ele>29.0</ele></trkpt>
<trkpt lon="-5.183394" lat="43.390477"><ele>29.25</ele></trkpt>
<trkpt lon="-5.183514" lat="43.390637"><ele>30.0</ele></trkpt>
<trkpt lon="-5.183524" lat="43.390675"><ele>30.0</ele></trkpt>
<trkpt lon="-5.182896" lat="43.391010"><ele>28.0</ele></trkpt>
<trkpt lon="-5.182842" lat="43.391043"><ele>28.0</ele></trkpt>
<trkpt lon="-5.182649" lat="43.391281"><ele>28.0</ele></trkpt>
<trkpt lon="-5.182613" lat="43.391324"><ele>28.0</ele></trkpt>
<trkpt lon="-5.182572" lat="43.391374"><ele>28.0</ele></trkpt>
<trkpt lon="-5.182332" lat="43.391668"><ele>28.0</ele></trkpt>
<trkpt lon="-5.182043" lat="43.392011"><ele>28.0</ele></trkpt>
<trkpt lon="-5.181597" lat="43.392539"><ele>27.5</ele></trkpt>
<trkpt lon="-5.181547" lat="43.392631"><ele>26.75</ele></trkpt>
<trkpt lon="-5.181605" lat="43.392652"><ele>27.25</ele></trkpt>
<trkpt lon="-5.181915" lat="43.392810"><ele>28.0</ele></trkpt>
<trkpt lon="-5.182163" lat="43.392864"><ele>28.25</ele></trkpt>
<trkpt lon="-5.182261" lat="43.393107"><ele>28.25</ele></trkpt>
<trkpt lon="-5.182299" lat="43.393122"><ele>27.75</ele></trkpt>
<trkpt lon="-5.182333" lat="43.393136"><ele>27.75</ele></trkpt>
<trkpt lon="-5.182573" lat="43.393191"><ele>27.5</ele></trkpt>
<trkpt lon="-5.182620" lat="43.393204"><ele>27.5</ele></trkpt>
<trkpt lon="-5.182438" lat="43.393510"><ele>27.25</ele></trkpt>
<trkpt lon="-5.182403" lat="43.393622"><ele>26.5</ele></trkpt>
<trkpt lon="-5.182401" lat="43.393726"><ele>26.25</ele></trkpt>
<trkpt lon="-5.182416" lat="43.393814"><ele>26.5</ele></trkpt>
<trkpt lon="-5.182476" lat="43.393979"><ele>27.0</ele></trkpt>
<trkpt lon="-5.182627" lat="43.394303"><ele>25.75</ele></trkpt>
<trkpt lon="-5.182683" lat="43.394527"><ele>25.75</ele></trkpt>
<trkpt lon="-5.182812" lat="43.394830"><ele>27.0</ele></trkpt>
<trkpt lon="-5.182886" lat="43.395037"><ele>27.0</ele></trkpt>
<trkpt lon="-5.182887" lat="43.395150"><ele>27.5</ele></trkpt>
<trkpt lon="-5.182845" lat="43.395312"><ele>27.5</ele></trkpt>
<trkpt lon="-5.182729" lat="43.395471"><ele>27.5</ele></trkpt>
<trkpt lon="-5.182697" lat="43.395500"><ele>27.0</ele></trkpt>
<trkpt lon="-5.182794" lat="43.395544"><ele>30.0</ele></trkpt>
<trkpt lon="-5.182860" lat="43.395526"><ele>31.25</ele></trkpt>
<trkpt lon="-5.182918" lat="43.395510"><ele>32.25</ele></trkpt>
<trkpt lon="-5.183006" lat="43.395474"><ele>33.5</ele></trkpt>
<trkpt lon="-5.183380" lat="43.395266"><ele>37.75</ele></trkpt>
<trkpt lon="-5.183333" lat="43.395337"><ele>38.0</ele></trkpt>
<trkpt lon="-5.183177" lat="43.395509"><ele>39.0</ele></trkpt>
<trkpt lon="-5.183081" lat="43.395593"><ele>38.5</ele></trkpt>
<trkpt lon="-5.182349" lat="43.396054"><ele>37.0</ele></trkpt>
<trkpt lon="-5.182204" lat="43.396125"><ele>35.25</ele></trkpt>
<trkpt lon="-5.181894" lat="43.396237"><ele>35.25</ele></trkpt>
<trkpt lon="-5.180750" lat="43.396558"><ele>37.0</ele></trkpt>
<trkpt lon="-5.180317" lat="43.396691"><ele>35.0</ele></trkpt>
<trkpt lon="-5.180061" lat="43.396794"><ele>37.5</ele></trkpt>
<trkpt lon="-5.179282" lat="43.397127"><ele>37.75</ele></trkpt>
<trkpt lon="-5.179206" lat="43.397174"><ele>38.0</ele></trkpt>
<trkpt lon="-5.178983" lat="43.397408"><ele>42.0</ele></trkpt>
<trkpt lon="-5.178942" lat="43.397438"><ele>42.5</ele></trkpt>
<trkpt lon="-5.178891" lat="43.397460"><ele>42.25</ele></trkpt>
<trkpt lon="-5.178696" lat="43.397514"><ele>43.25</ele></trkpt>
<trkpt lon="-5.178484" lat="43.397550"><ele>42.25</ele></trkpt>
<trkpt lon="-5.178391" lat="43.397574"><ele>42.0</ele></trkpt>
<trkpt lon="-5.177935" lat="43.397766"><ele>46.5</ele></trkpt>
<trkpt lon="-5.177832" lat="43.397800"><ele>47.0</ele></trkpt>
<trkpt lon="-5.177719" lat="43.397828"><ele>46.5</ele></trkpt>
<trkpt lon="-5.177455" lat="43.397874"><ele>45.0</ele></trkpt>
<trkpt lon="-5.177150" lat="43.397910"><ele>44.25</ele></trkpt>
<trkpt lon="-5.176782" lat="43.397932"><ele>41.0</ele></trkpt>
<trkpt lon="-5.176200" lat="43.397942"><ele>42.25</ele></trkpt>
<trkpt lon="-5.175897" lat="43.397965"><ele>43.0</ele></trkpt>
<trkpt lon="-5.175286" lat="43.397991"><ele>43.5</ele></trkpt>
<trkpt lon="-5.174756" lat="43.397989"><ele>41.25</ele></trkpt>
<trkpt lon="-5.173987" lat="43.397977"><ele>36.5</ele></trkpt>
<trkpt lon="-5.173610" lat="43.397976"><ele>32.75</ele></trkpt>
<trkpt lon="-5.173550" lat="43.397983"><ele>32.25</ele></trkpt>
<trkpt lon="-5.173504" lat="43.398010"><ele>32.25</ele></trkpt>
<trkpt lon="-5.173422" lat="43.398307"><ele>29.25</ele></trkpt>
<trkpt lon="-5.173370" lat="43.398381"><ele>28.75</ele></trkpt>
<trkpt lon="-5.173329" lat="43.398423"><ele>28.75</ele></trkpt>
<trkpt lon="-5.173275" lat="43.398449"><ele>29.0</ele></trkpt>
<trkpt lon="-5.173185" lat="43.398470"><ele>29.5</ele></trkpt>
<trkpt lon="-5.173099" lat="43.398479"><ele>29.75</ele></trkpt>
<trkpt lon="-5.172999" lat="43.398480"><ele>30.5</ele></trkpt>
<trkpt lon="-5.172920" lat="43.398468"><ele>31.0</ele></trkpt>
<trkpt lon="-5.172706" lat="43.398397"><ele>30.75</ele></trkpt>
<trkpt lon="-5.172509" lat="43.398322"><ele>30.75</ele></trkpt>
<trkpt lon="-5.172437" lat="43.398285"><ele>31.25</ele></trkpt>
<trkpt lon="-5.172392" lat="43.398252"><ele>31.5</ele></trkpt>
<trkpt lon="-5.172293" lat="43.398134"><ele>31.75</ele></trkpt>
<trkpt lon="-5.172206" lat="43.397991"><ele>32.5</ele></trkpt>
<trkpt lon="-5.172188" lat="43.397953"><ele>33.0</ele></trkpt>
<trkpt lon="-5.172126" lat="43.397745"><ele>34.0</ele></trkpt>
<trkpt lon="-5.172098" lat="43.397694"><ele>33.75</ele></trkpt>
<trkpt lon="-5.172053" lat="43.397641"><ele>33.75</ele></trkpt>
<trkpt lon="-5.171968" lat="43.397599"><ele>34.0</ele></trkpt>
<trkpt lon="-5.171933" lat="43.397592"><ele>34.25</ele></trkpt>
<trkpt lon="-5.171667" lat="43.397536"><ele>35.75</ele></trkpt>
<trkpt lon="-5.171618" lat="43.397514"><ele>35.75</ele></trkpt>
<trkpt lon="-5.171491" lat="43.397429"><ele>36.25</ele></trkpt>
<trkpt lon="-5.171442" lat="43.397385"><ele>36.5</ele></trkpt>
<trkpt lon="-5.171374" lat="43.397309"><ele>36.75</ele></trkpt>
<trkpt lon="-5.171325" lat="43.397232"><ele>36.75</ele></trkpt>
<trkpt lon="-5.170993" lat="43.396476"><ele>41.75</ele></trkpt>
<trkpt lon="-5.170957" lat="43.396410"><ele>42.75</ele></trkpt>
<trkpt lon="-5.170916" lat="43.396355"><ele>43.25</ele></trkpt>
<trkpt lon="-5.170867" lat="43.396312"><ele>44.0</ele></trkpt>
<trkpt lon="-5.170791" lat="43.396278"><ele>45.0</ele></trkpt>
<trkpt lon="-5.170723" lat="43.396259"><ele>45.75</ele></trkpt>
<trkpt lon="-5.170625" lat="43.396253"><ele>46.75</ele></trkpt>
<trkpt lon="-5.170525" lat="43.396266"><ele>47.5</ele></trkpt>
<trkpt lon="-5.170450" lat="43.396286"><ele>47.75</ele></trkpt>
<trkpt lon="-5.170066" lat="43.396411"><ele>49.0</ele></trkpt>
<trkpt lon="-5.169975" lat="43.396451"><ele>49.25</ele></trkpt>
<trkpt lon="-5.169880" lat="43.396507"><ele>49.75</ele></trkpt>
<trkpt lon="-5.169609" lat="43.396690"><ele>51.0</ele></trkpt>
<trkpt lon="-5.169575" lat="43.396731"><ele>51.25</ele></trkpt>
<trkpt lon="-5.169549" lat="43.396777"><ele>51.75</ele></trkpt>
<trkpt lon="-5.169449" lat="43.397036"><ele>53.25</ele></trkpt>
<trkpt lon="-5.169404" lat="43.397097"><ele>53.25</ele></trkpt>
<trkpt lon="-5.169339" lat="43.397154"><ele>53.5</ele></trkpt>
<trkpt lon="-5.169256" lat="43.397200"><ele>53.75</ele></trkpt>
<trkpt lon="-5.168743" lat="43.397355"><ele>52.75</ele></trkpt>
<trkpt lon="-5.168639" lat="43.397377"><ele>53.0</ele></trkpt>
<trkpt lon="-5.168058" lat="43.397444"><ele>54.25</ele></trkpt>
<trkpt lon="-5.167924" lat="43.397466"><ele>54.0</ele></trkpt>
<trkpt lon="-5.167855" lat="43.397492"><ele>54.0</ele></trkpt>
<trkpt lon="-5.167794" lat="43.397531"><ele>54.25</ele></trkpt>
<trkpt lon="-5.167466" lat="43.397771"><ele>54.5</ele></trkpt>
<trkpt lon="-5.167335" lat="43.397852"><ele>54.25</ele></trkpt>
<trkpt lon="-5.167261" lat="43.398097"><ele>55.5</ele></trkpt>
<trkpt lon="-5.167250" lat="43.398370"><ele>57.5</ele></trkpt>
<trkpt lon="-5.167084" lat="43.398587"><ele>58.75</ele></trkpt>
<trkpt lon="-5.166968" lat="43.398919"><ele>61.25</ele></trkpt>
<trkpt lon="-5.167051" lat="43.399349"><ele>66.25</ele></trkpt>
<trkpt lon="-5.167079" lat="43.399385"><ele>66.75</ele></trkpt>
<trkpt lon="-5.167310" lat="43.399681"><ele>70.5</ele></trkpt>
<trkpt lon="-5.167342" lat="43.399745"><ele>71.0</ele></trkpt>
<trkpt lon="-5.167360" lat="43.399782"><ele>71.5</ele></trkpt>
<trkpt lon="-5.167321" lat="43.400123"><ele>74.0</ele></trkpt>
<trkpt lon="-5.167366" lat="43.400484"><ele>76.25</ele></trkpt>
<trkpt lon="-5.167348" lat="43.400508"><ele>76.0</ele></trkpt>
<trkpt lon="-5.167316" lat="43.400662"><ele>75.25</ele></trkpt>
<trkpt lon="-5.167324" lat="43.400798"><ele>75.25</ele></trkpt>
<trkpt lon="-5.167320" lat="43.401040"><ele>74.5</ele></trkpt>
<trkpt lon="-5.167397" lat="43.401176"><ele>75.75</ele></trkpt>
<trkpt lon="-5.167483" lat="43.401442"><ele>75.75</ele></trkpt>
<trkpt lon="-5.167502" lat="43.401646"><ele>76.75</ele></trkpt>
<trkpt lon="-5.167472" lat="43.401816"><ele>76.5</ele></trkpt>
<trkpt lon="-5.167504" lat="43.402032"><ele>77.25</ele></trkpt>
<trkpt lon="-5.167575" lat="43.402225"><ele>79.25</ele></trkpt>
<trkpt lon="-5.167702" lat="43.402495"><ele>81.25</ele></trkpt>
<trkpt lon="-5.167465" lat="43.402413"><ele>81.0</ele></trkpt>
<trkpt lon="-5.167295" lat="43.402384"><ele>82.0</ele></trkpt>
<trkpt lon="-5.166878" lat="43.402284"><ele>82.75</ele></trkpt>
<trkpt lon="-5.166725" lat="43.402258"><ele>83.0</ele></trkpt>
<trkpt lon="-5.166644" lat="43.402186"><ele>82.25</ele></trkpt>
<trkpt lon="-5.166552" lat="43.402166"><ele>81.75</ele></trkpt>
<trkpt lon="-5.166449" lat="43.402181"><ele>81.75</ele></trkpt>
<trkpt lon="-5.166375" lat="43.402245"><ele>83.25</ele></trkpt>
<trkpt lon="-5.166223" lat="43.402409"><ele>85.75</ele></trkpt>
<trkpt lon="-5.165982" lat="43.402667"><ele>90.25</ele></trkpt>
<trkpt lon="-5.165547" lat="43.403050"><ele>96.5</ele></trkpt>
<trkpt lon="-5.165278" lat="43.403254"><ele>97.0</ele></trkpt>
<trkpt lon="-5.165303" lat="43.403508"><ele>104.5</ele></trkpt>
<trkpt lon="-5.165285" lat="43.403680"><ele>108.5</ele></trkpt>
<trkpt lon="-5.165288" lat="43.403773"><ele>110.5</ele></trkpt>
<trkpt lon="-5.165090" lat="43.404015"><ele>111.5</ele></trkpt>
<trkpt lon="-5.164719" lat="43.404300"><ele>117.5</ele></trkpt>
<trkpt lon="-5.164658" lat="43.404426"><ele>120.5</ele></trkpt>
<trkpt lon="-5.164489" lat="43.404974"><ele>126.25</ele></trkpt>
<trkpt lon="-5.164519" lat="43.405194"><ele>132.25</ele></trkpt>
<trkpt lon="-5.164471" lat="43.405331"><ele>136.75</ele></trkpt>
<trkpt lon="-5.164353" lat="43.405404"><ele>137.5</ele></trkpt>
<trkpt lon="-5.164383" lat="43.405439"><ele>139.75</ele></trkpt>
<trkpt lon="-5.164550" lat="43.405467"><ele>145.25</ele></trkpt>
<trkpt lon="-5.164808" lat="43.405626"><ele>158.5</ele></trkpt>
<trkpt lon="-5.164812" lat="43.405680"><ele>161.0</ele></trkpt>
<trkpt lon="-5.164642" lat="43.405744"><ele>158.0</ele></trkpt>
<trkpt lon="-5.164611" lat="43.405808"><ele>158.5</ele></trkpt>
<trkpt lon="-5.164607" lat="43.406002"><ele>163.0</ele></trkpt>
<trkpt lon="-5.164537" lat="43.406068"><ele>162.0</ele></trkpt>
<trkpt lon="-5.164436" lat="43.406186"><ele>162.0</ele></trkpt>
<trkpt lon="-5.164388" lat="43.406342"><ele>164.75</ele></trkpt>
<trkpt lon="-5.164327" lat="43.406889"><ele>169.25</ele></trkpt>
<trkpt lon="-5.164400" lat="43.407035"><ele>169.75</ele></trkpt>
<trkpt lon="-5.164723" lat="43.407368"><ele>176.75</ele></trkpt>
<trkpt lon="-5.164765" lat="43.407433"><ele>177.25</ele></trkpt>
<trkpt lon="-5.164781" lat="43.407495"><ele>176.25</ele></trkpt>
<trkpt lon="-5.164755" lat="43.407570"><ele>174.25</ele></trkpt>
<trkpt lon="-5.164755" lat="43.407662"><ele>174.5</ele></trkpt>
<trkpt lon="-5.164835" lat="43.407785"><ele>179.25</ele></trkpt>
<trkpt lon="-5.164919" lat="43.407867"><ele>182.0</ele></trkpt>
<trkpt lon="-5.164972" lat="43.407964"><ele>182.5</ele></trkpt>
<trkpt lon="-5.164986" lat="43.408072"><ele>181.0</ele></trkpt>
<trkpt lon="-5.165056" lat="43.408257"><ele>184.25</ele></trkpt>
<trkpt lon="-5.165190" lat="43.408483"><ele>190.0</ele></trkpt>
<trkpt lon="-5.165246" lat="43.408530"><ele>190.0</ele></trkpt>
<trkpt lon="-5.165341" lat="43.408583"><ele>190.75</ele></trkpt>
<trkpt lon="-5.165383" lat="43.408632"><ele>192.5</ele></trkpt>
<trkpt lon="-5.165390" lat="43.408666"><ele>194.25</ele></trkpt>
<trkpt lon="-5.165351" lat="43.408680"><ele>194.0</ele></trkpt>
<trkpt lon="-5.165262" lat="43.408686"><ele>192.5</ele></trkpt>
<trkpt lon="-5.165162" lat="43.408683"><ele>193.0</ele></trkpt>
<trkpt lon="-5.165019" lat="43.408666"><ele>192.75</ele></trkpt>
<trkpt lon="-5.164776" lat="43.408571"><ele>194.5</ele></trkpt>
<trkpt lon="-5.164685" lat="43.408518"><ele>194.0</ele></trkpt>
<trkpt lon="-5.164639" lat="43.408478"><ele>193.0</ele></trkpt>
<trkpt lon="-5.164407" lat="43.408413"><ele>196.75</ele></trkpt>
<trkpt lon="-5.164291" lat="43.408388"><ele>199.5</ele></trkpt>
<trkpt lon="-5.164262" lat="43.408370"><ele>199.5</ele></trkpt>
<trkpt lon="-5.164225" lat="43.408347"><ele>199.5</ele></trkpt>
<trkpt lon="-5.164172" lat="43.408276"><ele>197.5</ele></trkpt>
<trkpt lon="-5.164076" lat="43.408208"><ele>198.0</ele></trkpt>
<trkpt lon="-5.164015" lat="43.408176"><ele>198.5</ele></trkpt>
<trkpt lon="-5.163903" lat="43.408127"><ele>200.5</ele></trkpt>
<trkpt lon="-5.163716" lat="43.408127"><ele>200.5</ele></trkpt>
<trkpt lon="-5.163539" lat="43.408154"><ele>200.5</ele></trkpt>
<trkpt lon="-5.162649" lat="43.408391"><ele>201.25</ele></trkpt>
<trkpt lon="-5.162054" lat="43.408540"><ele>201.5</ele></trkpt>
<trkpt lon="-5.161862" lat="43.408559"><ele>200.75</ele></trkpt>
<trkpt lon="-5.161580" lat="43.408659"><ele>203.25</ele></trkpt>
<trkpt lon="-5.161330" lat="43.408759"><ele>206.0</ele></trkpt>
<trkpt lon="-5.161255" lat="43.408769"><ele>207.0</ele></trkpt>
<trkpt lon="-5.161193" lat="43.408624"><ele>204.25</ele></trkpt>
<trkpt lon="-5.161206" lat="43.408539"><ele>205.0</ele></trkpt>
<trkpt lon="-5.161529" lat="43.408174"><ele>202.75</ele></trkpt>
<trkpt lon="-5.162038" lat="43.407769"><ele>201.25</ele></trkpt>
<trkpt lon="-5.162189" lat="43.407605"><ele>203.0</ele></trkpt>
<trkpt lon="-5.162395" lat="43.407415"><ele>199.5</ele></trkpt>
<trkpt lon="-5.162413" lat="43.407382"><ele>199.0</ele></trkpt>
<trkpt lon="-5.162383" lat="43.407241"><ele>201.5</ele></trkpt>
<trkpt lon="-5.162321" lat="43.407167"><ele>202.5</ele></trkpt>
<trkpt lon="-5.162256" lat="43.407108"><ele>203.0</ele></trkpt>
<trkpt lon="-5.162189" lat="43.407084"><ele>204.5</ele></trkpt>
<trkpt lon="-5.162121" lat="43.407003"><ele>202.75</ele></trkpt>
<trkpt lon="-5.161998" lat="43.406954"><ele>203.75</ele></trkpt>
<trkpt lon="-5.161843" lat="43.406882"><ele>200.75</ele></trkpt>
<trkpt lon="-5.161563" lat="43.406777"><ele>200.25</ele></trkpt>
<trkpt lon="-5.161535" lat="43.406533"><ele>199.25</ele></trkpt>
<trkpt lon="-5.161542" lat="43.406359"><ele>199.75</ele></trkpt>
<trkpt lon="-5.161569" lat="43.406124"><ele>199.75</ele></trkpt>
<trkpt lon="-5.161631" lat="43.405962"><ele>201.0</ele></trkpt>
<trkpt lon="-5.161702" lat="43.405810"><ele>201.25</ele></trkpt>
<trkpt lon="-5.161729" lat="43.405678"><ele>200.25</ele></trkpt>
<trkpt lon="-5.161696" lat="43.405517"><ele>200.75</ele></trkpt>
<trkpt lon="-5.161615" lat="43.405412"><ele>199.5</ele></trkpt>
<trkpt lon="-5.161366" lat="43.405298"><ele>201.5</ele></trkpt>
<trkpt lon="-5.161178" lat="43.405226"><ele>201.0</ele></trkpt>
<trkpt lon="-5.160965" lat="43.405172"><ele>202.5</ele></trkpt>
<trkpt lon="-5.160784" lat="43.405134"><ele>204.0</ele></trkpt>
<trkpt lon="-5.160639" lat="43.405121"><ele>205.75</ele></trkpt>
<trkpt lon="-5.160472" lat="43.405150"><ele>208.75</ele></trkpt>
<trkpt lon="-5.160198" lat="43.405228"><ele>211.0</ele></trkpt>
<trkpt lon="-5.160029" lat="43.405255"><ele>210.25</ele></trkpt>
<trkpt lon="-5.159677" lat="43.405327"><ele>215.0</ele></trkpt>
<trkpt lon="-5.159554" lat="43.405336"><ele>217.25</ele></trkpt>
<trkpt lon="-5.159468" lat="43.405311"><ele>217.5</ele></trkpt>
<trkpt lon="-5.159292" lat="43.405284"><ele>218.25</ele></trkpt>
<trkpt lon="-5.159181" lat="43.405329"><ele>220.75</ele></trkpt>
<trkpt lon="-5.159009" lat="43.405387"><ele>222.25</ele></trkpt>
<trkpt lon="-5.158784" lat="43.405521"><ele>226.75</ele></trkpt>
<trkpt lon="-5.158538" lat="43.405627"><ele>228.5</ele></trkpt>
<trkpt lon="-5.158356" lat="43.405766"><ele>231.25</ele></trkpt>
<trkpt lon="-5.157894" lat="43.406151"><ele>233.0</ele></trkpt>
<trkpt lon="-5.157647" lat="43.406341"><ele>233.25</ele></trkpt>
<trkpt lon="-5.157512" lat="43.406502"><ele>233.25</ele></trkpt>
<trkpt lon="-5.157385" lat="43.406697"><ele>234.75</ele></trkpt>
<trkpt lon="-5.157170" lat="43.406838"><ele>231.25</ele></trkpt>
<trkpt lon="-5.156957" lat="43.407442"><ele>229.75</ele></trkpt>
<trkpt lon="-5.156963" lat="43.407550"><ele>231.25</ele></trkpt>
<trkpt lon="-5.156892" lat="43.407767"><ele>230.0</ele></trkpt>
<trkpt lon="-5.156874" lat="43.407874"><ele>228.25</ele></trkpt>
<trkpt lon="-5.156938" lat="43.408044"><ele>229.75</ele></trkpt>
<trkpt lon="-5.156923" lat="43.408136"><ele>231.5</ele></trkpt>
<trkpt lon="-5.156658" lat="43.408295"><ele>224.25</ele></trkpt>
<trkpt lon="-5.156550" lat="43.408387"><ele>222.0</ele></trkpt>
<trkpt lon="-5.156495" lat="43.408487"><ele>221.0</ele></trkpt>
<trkpt lon="-5.156504" lat="43.408642"><ele>223.75</ele></trkpt>
<trkpt lon="-5.156498" lat="43.408745"><ele>225.5</ele></trkpt>
<trkpt lon="-5.156470" lat="43.408801"><ele>226.0</ele></trkpt>
<trkpt lon="-5.156396" lat="43.408828"><ele>224.75</ele></trkpt>
<trkpt lon="-5.156301" lat="43.408810"><ele>223.75</ele></trkpt>
<trkpt lon="-5.156211" lat="43.408776"><ele>222.0</ele></trkpt>
<trkpt lon="-5.156030" lat="43.408767"><ele>221.25</ele></trkpt>
<trkpt lon="-5.156002" lat="43.408756"><ele>220.75</ele></trkpt>
<trkpt lon="-5.155909" lat="43.408743"><ele>220.5</ele></trkpt>
<trkpt lon="-5.155691" lat="43.408686"><ele>218.25</ele></trkpt>
<trkpt lon="-5.155540" lat="43.408675"><ele>217.5</ele></trkpt>
<trkpt lon="-5.155324" lat="43.408709"><ele>216.0</ele></trkpt>
<trkpt lon="-5.155201" lat="43.408749"><ele>215.25</ele></trkpt>
<trkpt lon="-5.155127" lat="43.408807"><ele>216.0</ele></trkpt>
<trkpt lon="-5.155055" lat="43.408838"><ele>215.25</ele></trkpt>
<trkpt lon="-5.154951" lat="43.408830"><ele>214.0</ele></trkpt>
<trkpt lon="-5.154856" lat="43.408792"><ele>214.0</ele></trkpt>
<trkpt lon="-5.154578" lat="43.408566"><ele>211.25</ele></trkpt>
<trkpt lon="-5.154446" lat="43.408474"><ele>211.5</ele></trkpt>
<trkpt lon="-5.154253" lat="43.408358"><ele>208.25</ele></trkpt>
<trkpt lon="-5.154101" lat="43.408348"><ele>208.75</ele></trkpt>
<trkpt lon="-5.153897" lat="43.408322"><ele>207.25</ele></trkpt>
<trkpt lon="-5.153632" lat="43.408344"><ele>206.5</ele></trkpt>
<trkpt lon="-5.153380" lat="43.408407"><ele>204.5</ele></trkpt>
<trkpt lon="-5.152998" lat="43.408550"><ele>201.5</ele></trkpt>
<trkpt lon="-5.152754" lat="43.408628"><ele>200.0</ele></trkpt>
<trkpt lon="-5.152363" lat="43.408740"><ele>195.75</ele></trkpt>
<trkpt lon="-5.152163" lat="43.408787"><ele>193.5</ele></trkpt>
<trkpt lon="-5.152043" lat="43.408854"><ele>193.5</ele></trkpt>
<trkpt lon="-5.152003" lat="43.409013"><ele>196.75</ele></trkpt>
<trkpt lon="-5.152018" lat="43.409179"><ele>199.75</ele></trkpt>
<trkpt lon="-5.152437" lat="43.409445"><ele>198.75</ele></trkpt>
<trkpt lon="-5.152628" lat="43.409553"><ele>198.75</ele></trkpt>
<trkpt lon="-5.152745" lat="43.409642"><ele>197.5</ele></trkpt>
<trkpt lon="-5.152813" lat="43.409705"><ele>195.75</ele></trkpt>
<trkpt lon="-5.152884" lat="43.409743"><ele>195.25</ele></trkpt>
<trkpt lon="-5.152955" lat="43.409761"><ele>196.0</ele></trkpt>
<trkpt lon="-5.153069" lat="43.409828"><ele>195.75</ele></trkpt>
<trkpt lon="-5.153250" lat="43.410023"><ele>194.75</ele></trkpt>
<trkpt lon="-5.153321" lat="43.410114"><ele>195.0</ele></trkpt>
<trkpt lon="-5.153380" lat="43.410206"><ele>195.25</ele></trkpt>
<trkpt lon="-5.153380" lat="43.410334"><ele>193.0</ele></trkpt>
<trkpt lon="-5.153361" lat="43.410676"><ele>186.0</ele></trkpt>
<trkpt lon="-5.153482" lat="43.410929"><ele>189.5</ele></trkpt>
<trkpt lon="-5.153401" lat="43.411050"><ele>194.0</ele></trkpt>
<trkpt lon="-5.153309" lat="43.411039"><ele>195.25</ele></trkpt>
<trkpt lon="-5.153186" lat="43.410965"><ele>191.75</ele></trkpt>
<trkpt lon="-5.153016" lat="43.410824"><ele>182.75</ele></trkpt>
<trkpt lon="-5.152782" lat="43.410580"><ele>178.0</ele></trkpt>
<trkpt lon="-5.152591" lat="43.410531"><ele>177.25</ele></trkpt>
<trkpt lon="-5.152545" lat="43.410531"><ele>177.75</ele></trkpt>
<trkpt lon="-5.152406" lat="43.410461"><ele>173.75</ele></trkpt>
<trkpt lon="-5.152268" lat="43.410428"><ele>173.0</ele></trkpt>
<trkpt lon="-5.152082" lat="43.410407"><ele>172.75</ele></trkpt>
<trkpt lon="-5.151878" lat="43.410407"><ele>172.25</ele></trkpt>
<trkpt lon="-5.151237" lat="43.410483"><ele>166.5</ele></trkpt>
<trkpt lon="-5.150390" lat="43.410627"><ele>162.25</ele></trkpt>
<trkpt lon="-5.149845" lat="43.410680"><ele>155.5</ele></trkpt>
<trkpt lon="-5.149679" lat="43.410864"><ele>154.75</ele></trkpt>
<trkpt lon="-5.149726" lat="43.411094"><ele>154.25</ele></trkpt>
<trkpt lon="-5.149973" lat="43.411396"><ele>153.0</ele></trkpt>
<trkpt lon="-5.150003" lat="43.411663"><ele>147.25</ele></trkpt>
<trkpt lon="-5.150032" lat="43.411828"><ele>151.75</ele></trkpt>
<trkpt lon="-5.149951" lat="43.411911"><ele>153.75</ele></trkpt>
<trkpt lon="-5.149823" lat="43.411802"><ele>153.0</ele></trkpt>
<trkpt lon="-5.149603" lat="43.411663"><ele>148.5</ele></trkpt>
<trkpt lon="-5.149188" lat="43.411492"><ele>145.5</ele></trkpt>
<trkpt lon="-5.148923" lat="43.411340"><ele>141.5</ele></trkpt>
<trkpt lon="-5.148295" lat="43.411156"><ele>137.75</ele></trkpt>
<trkpt lon="-5.147763" lat="43.411071"><ele>133.0</ele></trkpt>
<trkpt lon="-5.147429" lat="43.411095"><ele>132.0</ele></trkpt>
<trkpt lon="-5.147308" lat="43.411226"><ele>130.75</ele></trkpt>
<trkpt lon="-5.147440" lat="43.411554"><ele>135.25</ele></trkpt>
<trkpt lon="-5.147183" lat="43.412069"><ele>123.5</ele></trkpt>
<trkpt lon="-5.147089" lat="43.412544"><ele>120.0</ele></trkpt>
<trkpt lon="-5.146956" lat="43.412807"><ele>116.0</ele></trkpt>
<trkpt lon="-5.146931" lat="43.413305"><ele>109.5</ele></trkpt>
<trkpt lon="-5.146893" lat="43.413300"><ele>107.75</ele></trkpt>
<trkpt lon="-5.147037" lat="43.413704"><ele>113.75</ele></trkpt>
<trkpt lon="-5.147034" lat="43.413805"><ele>112.5</ele></trkpt>
<trkpt lon="-5.147044" lat="43.413854"><ele>112.5</ele></trkpt>
<trkpt lon="-5.147084" lat="43.413866"><ele>114.0</ele></trkpt>
<trkpt lon="-5.147435" lat="43.414326"><ele>123.75</ele></trkpt>
<trkpt lon="-5.147618" lat="43.414579"><ele>132.25</ele></trkpt>
<trkpt lon="-5.147625" lat="43.414827"><ele>131.0</ele></trkpt>
<trkpt lon="-5.147697" lat="43.414976"><ele>133.25</ele></trkpt>
<trkpt lon="-5.147741" lat="43.415092"><ele>133.0</ele></trkpt>
<trkpt lon="-5.147784" lat="43.415159"><ele>133.0</ele></trkpt>
<trkpt lon="-5.147870" lat="43.415198"><ele>135.5</ele></trkpt>
<trkpt lon="-5.148092" lat="43.415215"><ele>143.0</ele></trkpt>
<trkpt lon="-5.148168" lat="43.415248"><ele>143.0</ele></trkpt>
<trkpt lon="-5.148338" lat="43.415383"><ele>145.0</ele></trkpt>
<trkpt lon="-5.148421" lat="43.415398"><ele>148.25</ele></trkpt>
<trkpt lon="-5.148490" lat="43.415465"><ele>150.25</ele></trkpt>
<trkpt lon="-5.148576" lat="43.415528"><ele>152.25</ele></trkpt>
<trkpt lon="-5.148732" lat="43.415576"><ele>157.5</ele></trkpt>
<trkpt lon="-5.148838" lat="43.415581"><ele>162.0</ele></trkpt>
<trkpt lon="-5.148931" lat="43.415615"><ele>164.25</ele></trkpt>
<trkpt lon="-5.149008" lat="43.415677"><ele>165.0</ele></trkpt>
<trkpt lon="-5.149054" lat="43.415795"><ele>162.25</ele></trkpt>
<trkpt lon="-5.149034" lat="43.415955"><ele>157.75</ele></trkpt>
<trkpt lon="-5.149071" lat="43.416020"><ele>158.25</ele></trkpt>
<trkpt lon="-5.149203" lat="43.416167"><ele>160.75</ele></trkpt>
<trkpt lon="-5.149250" lat="43.416232"><ele>164.5</ele></trkpt>
<trkpt lon="-5.149190" lat="43.416282"><ele>164.25</ele></trkpt>
<trkpt lon="-5.149154" lat="43.416287"><ele>163.75</ele></trkpt>
<trkpt lon="-5.148882" lat="43.416282"><ele>164.0</ele></trkpt>
<trkpt lon="-5.148693" lat="43.416186"><ele>162.25</ele></trkpt>
<trkpt lon="-5.148593" lat="43.416171"><ele>162.5</ele></trkpt>
<trkpt lon="-5.148477" lat="43.416174"><ele>163.75</ele></trkpt>
<trkpt lon="-5.148072" lat="43.416227"><ele>170.75</ele></trkpt>
<trkpt lon="-5.147900" lat="43.416313"><ele>171.25</ele></trkpt>
<trkpt lon="-5.147784" lat="43.416513"><ele>176.0</ele></trkpt>
<trkpt lon="-5.147701" lat="43.416800"><ele>183.0</ele></trkpt>
<trkpt lon="-5.147605" lat="43.417029"><ele>183.75</ele></trkpt>
<trkpt lon="-5.147591" lat="43.417137"><ele>184.75</ele></trkpt>
<trkpt lon="-5.147625" lat="43.417234"><ele>189.0</ele></trkpt>
<trkpt lon="-5.147605" lat="43.417296"><ele>190.5</ele></trkpt>
<trkpt lon="-5.147522" lat="43.417352"><ele>189.75</ele></trkpt>
<trkpt lon="-5.147124" lat="43.417547"><ele>192.0</ele></trkpt>
<trkpt lon="-5.146825" lat="43.417752"><ele>194.75</ele></trkpt>
<trkpt lon="-5.146696" lat="43.417882"><ele>198.5</ele></trkpt>
<trkpt lon="-5.146580" lat="43.417963"><ele>199.5</ele></trkpt>
<trkpt lon="-5.146540" lat="43.417946"><ele>196.75</ele></trkpt>
<trkpt lon="-5.146451" lat="43.417997"><ele>196.5</ele></trkpt>
<trkpt lon="-5.146253" lat="43.418082"><ele>193.5</ele></trkpt>
<trkpt lon="-5.146038" lat="43.418210"><ele>192.0</ele></trkpt>
<trkpt lon="-5.145730" lat="43.418369"><ele>190.25</ele></trkpt>
<trkpt lon="-5.145421" lat="43.418615"><ele>190.25</ele></trkpt>
<trkpt lon="-5.145221" lat="43.418787"><ele>188.75</ele></trkpt>
<trkpt lon="-5.145163" lat="43.419080"><ele>190.75</ele></trkpt>
<trkpt lon="-5.145141" lat="43.419407"><ele>192.25</ele></trkpt>
<trkpt lon="-5.145061" lat="43.419555"><ele>188.5</ele></trkpt>
<trkpt lon="-5.145036" lat="43.419810"><ele>188.75</ele></trkpt>
<trkpt lon="-5.145083" lat="43.420069"><ele>191.0</ele></trkpt>
<trkpt lon="-5.145351" lat="43.420490"><ele>194.5</ele></trkpt>
<trkpt lon="-5.145511" lat="43.420707"><ele>196.0</ele></trkpt>
<trkpt lon="-5.145985" lat="43.421090"><ele>202.75</ele></trkpt>
<trkpt lon="-5.146278" lat="43.421305"><ele>206.75</ele></trkpt>
<trkpt lon="-5.146583" lat="43.421468"><ele>210.75</ele></trkpt>
<trkpt lon="-5.146752" lat="43.421582"><ele>211.5</ele></trkpt>
<trkpt lon="-5.146802" lat="43.421754"><ele>207.25</ele></trkpt>
<trkpt lon="-5.147104" lat="43.421871"><ele>207.0</ele></trkpt>
<trkpt lon="-5.147184" lat="43.421931"><ele>204.5</ele></trkpt>
<trkpt lon="-5.147030" lat="43.422072"><ele>210.5</ele></trkpt>
<trkpt lon="-5.146740" lat="43.422090"><ele>210.25</ele></trkpt>
<trkpt lon="-5.146561" lat="43.422175"><ele>212.75</ele></trkpt>
<trkpt lon="-5.146503" lat="43.422332"><ele>217.25</ele></trkpt>
<trkpt lon="-5.146543" lat="43.422477"><ele>223.5</ele></trkpt>
<trkpt lon="-5.146632" lat="43.422652"><ele>228.25</ele></trkpt>
<trkpt lon="-5.146719" lat="43.422793"><ele>232.75</ele></trkpt>
<trkpt lon="-5.146808" lat="43.422864"><ele>238.25</ele></trkpt>
<trkpt lon="-5.146860" lat="43.422934"><ele>240.75</ele></trkpt>
<trkpt lon="-5.146882" lat="43.423019"><ele>242.0</ele></trkpt>
<trkpt lon="-5.146814" lat="43.423064"><ele>243.75</ele></trkpt>
<trkpt lon="-5.146722" lat="43.423046"><ele>243.75</ele></trkpt>
<trkpt lon="-5.146528" lat="43.422985"><ele>243.25</ele></trkpt>
<trkpt lon="-5.146296" lat="43.422954"><ele>242.75</ele></trkpt>
<trkpt lon="-5.146229" lat="43.422963"><ele>242.75</ele></trkpt>
<trkpt lon="-5.146133" lat="43.422961"><ele>242.0</ele></trkpt>
<trkpt lon="-5.145961" lat="43.422909"><ele>240.25</ele></trkpt>
<trkpt lon="-5.145767" lat="43.422755"><ele>238.75</ele></trkpt>
<trkpt lon="-5.145656" lat="43.422614"><ele>238.5</ele></trkpt>
<trkpt lon="-5.145301" lat="43.422471"><ele>247.5</ele></trkpt>
<trkpt lon="-5.144987" lat="43.422457"><ele>245.0</ele></trkpt>
<trkpt lon="-5.144867" lat="43.422585"><ele>248.25</ele></trkpt>
<trkpt lon="-5.144522" lat="43.422723"><ele>245.25</ele></trkpt>
<trkpt lon="-5.144186" lat="43.422833"><ele>245.75</ele></trkpt>
<trkpt lon="-5.143884" lat="43.422920"><ele>247.0</ele></trkpt>
<trkpt lon="-5.143551" lat="43.423064"><ele>244.75</ele></trkpt>
<trkpt lon="-5.143178" lat="43.423258"><ele>245.0</ele></trkpt>
<trkpt lon="-5.143043" lat="43.423267"><ele>241.75</ele></trkpt>
<trkpt lon="-5.142877" lat="43.423200"><ele>243.5</ele></trkpt>
<trkpt lon="-5.142960" lat="43.422701"><ele>243.0</ele></trkpt>
<trkpt lon="-5.143015" lat="43.422448"><ele>245.25</ele></trkpt>
<trkpt lon="-5.143006" lat="43.422245"><ele>247.25</ele></trkpt>
<trkpt lon="-5.142987" lat="43.422117"><ele>249.75</ele></trkpt>
<trkpt lon="-5.143058" lat="43.422030"><ele>247.5</ele></trkpt>
<trkpt lon="-5.143081" lat="43.421990"><ele>247.25</ele></trkpt>
<trkpt lon="-5.143145" lat="43.421882"><ele>246.75</ele></trkpt>
<trkpt lon="-5.143203" lat="43.421710"><ele>247.0</ele></trkpt>
<trkpt lon="-5.143178" lat="43.421482"><ele>245.75</ele></trkpt>
<trkpt lon="-5.143077" lat="43.421365"><ele>245.5</ele></trkpt>
<trkpt lon="-5.142827" lat="43.421157"><ele>244.75</ele></trkpt>
<trkpt lon="-5.142750" lat="43.421110"><ele>244.0</ele></trkpt>
<trkpt lon="-5.142652" lat="43.421103"><ele>244.75</ele></trkpt>
<trkpt lon="-5.142538" lat="43.421072"><ele>244.0</ele></trkpt>
<trkpt lon="-5.142313" lat="43.420938"><ele>241.0</ele></trkpt>
<trkpt lon="-5.142205" lat="43.420909"><ele>241.5</ele></trkpt>
<trkpt lon="-5.142063" lat="43.420929"><ele>241.75</ele></trkpt>
<trkpt lon="-5.141976" lat="43.420951"><ele>243.0</ele></trkpt>
<trkpt lon="-5.141906" lat="43.420953"><ele>243.25</ele></trkpt>
<trkpt lon="-5.141801" lat="43.420906"><ele>240.5</ele></trkpt>
<trkpt lon="-5.141663" lat="43.420902"><ele>241.25</ele></trkpt>
<trkpt lon="-5.141542" lat="43.420880"><ele>239.5</ele></trkpt>
<trkpt lon="-5.141336" lat="43.420918"><ele>240.75</ele></trkpt>
<trkpt lon="-5.141200" lat="43.420951"><ele>239.25</ele></trkpt>
<trkpt lon="-5.140994" lat="43.421021"><ele>238.0</ele></trkpt>
<trkpt lon="-5.140775" lat="43.421132"><ele>240.75</ele></trkpt>
<trkpt lon="-5.140553" lat="43.421289"><ele>248.5</ele></trkpt>
<trkpt lon="-5.140486" lat="43.421344"><ele>250.25</ele></trkpt>
<trkpt lon="-5.140793" lat="43.421345"><ele>258.25</ele></trkpt>
<trkpt lon="-5.140980" lat="43.421321"><ele>257.0</ele></trkpt>
<trkpt lon="-5.141022" lat="43.421302"><ele>255.75</ele></trkpt>
<trkpt lon="-5.141086" lat="43.421308"><ele>256.25</ele></trkpt>
<trkpt lon="-5.141165" lat="43.421315"><ele>257.75</ele></trkpt>
<trkpt lon="-5.141215" lat="43.421298"><ele>258.0</ele></trkpt>
<trkpt lon="-5.141261" lat="43.421261"><ele>257.5</ele></trkpt>
<trkpt lon="-5.141356" lat="43.421201"><ele>257.75</ele></trkpt>
<trkpt lon="-5.141499" lat="43.421204"><ele>259.5</ele></trkpt>
<trkpt lon="-5.141678" lat="43.421248"><ele>263.25</ele></trkpt>
<trkpt lon="-5.141787" lat="43.421266"><ele>265.0</ele></trkpt>
<trkpt lon="-5.141716" lat="43.421283"><ele>265.75</ele></trkpt>
<trkpt lon="-5.141539" lat="43.421340"><ele>266.25</ele></trkpt>
<trkpt lon="-5.141451" lat="43.421427"><ele>268.5</ele></trkpt>
<trkpt lon="-5.141441" lat="43.421488"><ele>271.75</ele></trkpt>
<trkpt lon="-5.141619" lat="43.421408"><ele>271.75</ele></trkpt>
<trkpt lon="-5.141681" lat="43.421408"><ele>273.25</ele></trkpt>
<trkpt lon="-5.142014" lat="43.421502"><ele>280.25</ele></trkpt>
<trkpt lon="-5.142116" lat="43.421573"><ele>282.0</ele></trkpt>
<trkpt lon="-5.142128" lat="43.421573"><ele>281.75</ele></trkpt>
<trkpt lon="-5.142220" lat="43.421656"><ele>283.5</ele></trkpt>
<trkpt lon="-5.142331" lat="43.421902"><ele>278.0</ele></trkpt>
<trkpt lon="-5.142350" lat="43.421974"><ele>277.25</ele></trkpt>
<trkpt lon="-5.142329" lat="43.422057"><ele>279.25</ele></trkpt>
<trkpt lon="-5.142307" lat="43.422151"><ele>281.5</ele></trkpt>
<trkpt lon="-5.142251" lat="43.422186"><ele>284.75</ele></trkpt>
<trkpt lon="-5.142149" lat="43.422204"><ele>289.5</ele></trkpt>
<trkpt lon="-5.142051" lat="43.422180"><ele>293.0</ele></trkpt>
<trkpt lon="-5.141958" lat="43.422122"><ele>296.25</ele></trkpt>
<trkpt lon="-5.141807" lat="43.422079"><ele>301.0</ele></trkpt>
<trkpt lon="-5.141623" lat="43.422048"><ele>305.0</ele></trkpt>
<trkpt lon="-5.141459" lat="43.422113"><ele>307.75</ele></trkpt>
<trkpt lon="-5.141327" lat="43.422195"><ele>313.25</ele></trkpt>
<trkpt lon="-5.141219" lat="43.422213"><ele>314.25</ele></trkpt>
<trkpt lon="-5.141065" lat="43.422220"><ele>315.0</ele></trkpt>
<trkpt lon="-5.140932" lat="43.422267"><ele>318.5</ele></trkpt>
<trkpt lon="-5.140847" lat="43.422312"><ele>321.5</ele></trkpt>
<trkpt lon="-5.140661" lat="43.422413"><ele>322.5</ele></trkpt>
<trkpt lon="-5.140393" lat="43.422562"><ele>325.5</ele></trkpt>
<trkpt lon="-5.139768" lat="43.422795"><ele>332.0</ele></trkpt>
<trkpt lon="-5.139450" lat="43.422907"><ele>331.75</ele></trkpt>
<trkpt lon="-5.139275" lat="43.423010"><ele>334.5</ele></trkpt>
<trkpt lon="-5.138979" lat="43.423144"><ele>335.75</ele></trkpt>
<trkpt lon="-5.138736" lat="43.423272"><ele>337.5</ele></trkpt>
<trkpt lon="-5.138492" lat="43.423355"><ele>338.5</ele></trkpt>
<trkpt lon="-5.138138" lat="43.423419"><ele>344.75</ele></trkpt>
<trkpt lon="-5.137978" lat="43.423128"><ele>343.75</ele></trkpt>
<trkpt lon="-5.137870" lat="43.423026"><ele>344.75</ele></trkpt>
<trkpt lon="-5.137454" lat="43.422771"><ele>347.0</ele></trkpt>
<trkpt lon="-5.137272" lat="43.422643"><ele>350.5</ele></trkpt>
<trkpt lon="-5.136915" lat="43.422515"><ele>354.25</ele></trkpt>
<trkpt lon="-5.136292" lat="43.422630"><ele>357.75</ele></trkpt>
<trkpt lon="-5.136007" lat="43.422710"><ele>358.0</ele></trkpt>
<trkpt lon="-5.135587" lat="43.422840"><ele>356.5</ele></trkpt>
<trkpt lon="-5.135423" lat="43.422907"><ele>355.5</ele></trkpt>
<trkpt lon="-5.135242" lat="43.423030"><ele>353.5</ele></trkpt>
<trkpt lon="-5.135155" lat="43.423167"><ele>354.75</ele></trkpt>
<trkpt lon="-5.134758" lat="43.423551"><ele>358.25</ele></trkpt>
<trkpt lon="-5.134690" lat="43.423639"><ele>358.75</ele></trkpt>
<trkpt lon="-5.134162" lat="43.423947"><ele>359.75</ele></trkpt>
<trkpt lon="-5.133929" lat="43.424048"><ele>359.75</ele></trkpt>
<trkpt lon="-5.133797" lat="43.424089"><ele>360.5</ele></trkpt>
<trkpt lon="-5.133643" lat="43.424106"><ele>360.75</ele></trkpt>
<trkpt lon="-5.133551" lat="43.424067"><ele>359.75</ele></trkpt>
<trkpt lon="-5.133455" lat="43.424035"><ele>360.25</ele></trkpt>
<trkpt lon="-5.132900" lat="43.423883"><ele>362.0</ele></trkpt>
<trkpt lon="-5.132829" lat="43.423849"><ele>362.0</ele></trkpt>
<trkpt lon="-5.132789" lat="43.423811"><ele>362.0</ele></trkpt>
<trkpt lon="-5.132746" lat="43.423782"><ele>362.0</ele></trkpt>
<trkpt lon="-5.132697" lat="43.423724"><ele>361.5</ele></trkpt>
<trkpt lon="-5.132623" lat="43.423686"><ele>361.5</ele></trkpt>
<trkpt lon="-5.132546" lat="43.423677"><ele>362.5</ele></trkpt>
<trkpt lon="-5.132423" lat="43.423675"><ele>363.0</ele></trkpt>
<trkpt lon="-5.132241" lat="43.423710"><ele>364.5</ele></trkpt>
<trkpt lon="-5.132044" lat="43.423739"><ele>363.0</ele></trkpt>
<trkpt lon="-5.131717" lat="43.423907"><ele>361.25</ele></trkpt>
<trkpt lon="-5.131631" lat="43.423992"><ele>361.0</ele></trkpt>
<trkpt lon="-5.131434" lat="43.424264"><ele>360.25</ele></trkpt>
<trkpt lon="-5.131156" lat="43.424555"><ele>357.75</ele></trkpt>
<trkpt lon="-5.130734" lat="43.424890"><ele>355.5</ele></trkpt>
<trkpt lon="-5.130568" lat="43.424952"><ele>355.0</ele></trkpt>
<trkpt lon="-5.130281" lat="43.425015"><ele>356.5</ele></trkpt>
<trkpt lon="-5.129839" lat="43.425162"><ele>359.5</ele></trkpt>
<trkpt lon="-5.129671" lat="43.425263"><ele>359.75</ele></trkpt>
<trkpt lon="-5.129526" lat="43.425315"><ele>360.5</ele></trkpt>
<trkpt lon="-5.129280" lat="43.425377"><ele>360.75</ele></trkpt>
<trkpt lon="-5.129129" lat="43.425422"><ele>360.5</ele></trkpt>
<trkpt lon="-5.128956" lat="43.425577"><ele>361.75</ele></trkpt>
<trkpt lon="-5.128812" lat="43.425650"><ele>361.0</ele></trkpt>
<trkpt lon="-5.128608" lat="43.425717"><ele>358.25</ele></trkpt>
<trkpt lon="-5.128405" lat="43.425706"><ele>362.25</ele></trkpt>
<trkpt lon="-5.128260" lat="43.425650"><ele>362.5</ele></trkpt>
<trkpt lon="-5.128032" lat="43.425597"><ele>364.0</ele></trkpt>
<trkpt lon="-5.127946" lat="43.425556"><ele>363.5</ele></trkpt>
<trkpt lon="-5.127182" lat="43.425438"><ele>366.75</ele></trkpt>
<trkpt lon="-5.126877" lat="43.425400"><ele>364.0</ele></trkpt>
<trkpt lon="-5.126636" lat="43.425384"><ele>362.5</ele></trkpt>
<trkpt lon="-5.126577" lat="43.425394"><ele>362.5</ele></trkpt>
<trkpt lon="-5.126538" lat="43.425400"><ele>362.5</ele></trkpt>
<trkpt lon="-5.126495" lat="43.425516"><ele>365.25</ele></trkpt>
<trkpt lon="-5.126443" lat="43.425596"><ele>367.0</ele></trkpt>
<trkpt lon="-5.126350" lat="43.425762"><ele>368.75</ele></trkpt>
<trkpt lon="-5.126264" lat="43.425897"><ele>368.5</ele></trkpt>
<trkpt lon="-5.126254" lat="43.425959"><ele>368.5</ele></trkpt>
<trkpt lon="-5.126267" lat="43.426172"><ele>369.0</ele></trkpt>
<trkpt lon="-5.126264" lat="43.426346"><ele>366.75</ele></trkpt>
<trkpt lon="-5.126587" lat="43.426691"><ele>366.25</ele></trkpt>
<trkpt lon="-5.126492" lat="43.426897"><ele>366.0</ele></trkpt>
<trkpt lon="-5.126282" lat="43.427396"><ele>366.5</ele></trkpt>
<trkpt lon="-5.126270" lat="43.427684"><ele>365.75</ele></trkpt>
<trkpt lon="-5.126304" lat="43.427821"><ele>366.75</ele></trkpt>
<trkpt lon="-5.126359" lat="43.427908"><ele>369.0</ele></trkpt>
<trkpt lon="-5.126371" lat="43.428040"><ele>368.5</ele></trkpt>
<trkpt lon="-5.126297" lat="43.428163"><ele>370.5</ele></trkpt>
<trkpt lon="-5.126190" lat="43.428244"><ele>371.75</ele></trkpt>
<trkpt lon="-5.126045" lat="43.428286"><ele>371.5</ele></trkpt>
<trkpt lon="-5.125894" lat="43.428320"><ele>372.25</ele></trkpt>
<trkpt lon="-5.125487" lat="43.428394"><ele>374.75</ele></trkpt>
<trkpt lon="-5.125250" lat="43.428403"><ele>377.25</ele></trkpt>
<trkpt lon="-5.124960" lat="43.428318"><ele>378.75</ele></trkpt>
<trkpt lon="-5.124806" lat="43.428280"><ele>379.25</ele></trkpt>
<trkpt lon="-5.124769" lat="43.428277"><ele>379.75</ele></trkpt>
<trkpt lon="-5.124671" lat="43.428244"><ele>378.25</ele></trkpt>
<trkpt lon="-5.124544" lat="43.428275"><ele>379.5</ele></trkpt>
<trkpt lon="-5.124486" lat="43.428327"><ele>382.0</ele></trkpt>
<trkpt lon="-5.124424" lat="43.428510"><ele>389.75</ele></trkpt>
<trkpt lon="-5.123959" lat="43.428665"><ele>382.25</ele></trkpt>
<trkpt lon="-5.123768" lat="43.428689"><ele>381.25</ele></trkpt>
<trkpt lon="-5.123524" lat="43.428752"><ele>382.0</ele></trkpt>
<trkpt lon="-5.123232" lat="43.428877"><ele>384.5</ele></trkpt>
<trkpt lon="-5.123075" lat="43.428922"><ele>385.75</ele></trkpt>
<trkpt lon="-5.122560" lat="43.428841"><ele>387.0</ele></trkpt>
<trkpt lon="-5.122400" lat="43.428805"><ele>387.25</ele></trkpt>
<trkpt lon="-5.122193" lat="43.428752"><ele>388.25</ele></trkpt>
<trkpt lon="-5.122079" lat="43.428687"><ele>387.5</ele></trkpt>
<trkpt lon="-5.121910" lat="43.428553"><ele>388.25</ele></trkpt>
<trkpt lon="-5.121824" lat="43.428166"><ele>388.75</ele></trkpt>
<trkpt lon="-5.121734" lat="43.428089"><ele>389.0</ele></trkpt>
<trkpt lon="-5.121423" lat="43.428101"><ele>391.25</ele></trkpt>
<trkpt lon="-5.121257" lat="43.428096"><ele>393.5</ele></trkpt>
<trkpt lon="-5.121050" lat="43.428016"><ele>393.75</ele></trkpt>
<trkpt lon="-5.120856" lat="43.427868"><ele>393.5</ele></trkpt>
<trkpt lon="-5.120727" lat="43.427758"><ele>392.25</ele></trkpt>
<trkpt lon="-5.120557" lat="43.427682"><ele>392.0</ele></trkpt>
<trkpt lon="-5.120332" lat="43.427680"><ele>392.25</ele></trkpt>
<trkpt lon="-5.119841" lat="43.427753"><ele>391.5</ele></trkpt>
<trkpt lon="-5.119996" lat="43.427763"><ele>394.25</ele></trkpt>
<trkpt lon="-5.120157" lat="43.427787"><ele>396.5</ele></trkpt>
<trkpt lon="-5.120341" lat="43.427835"><ele>399.5</ele></trkpt>
<trkpt lon="-5.120435" lat="43.427889"><ele>401.5</ele></trkpt>
<trkpt lon="-5.120518" lat="43.427977"><ele>404.5</ele></trkpt>
<trkpt lon="-5.120700" lat="43.428132"><ele>407.5</ele></trkpt>
<trkpt lon="-5.120929" lat="43.428275"><ele>410.5</ele></trkpt>
<trkpt lon="-5.121172" lat="43.428454"><ele>414.0</ele></trkpt>
<trkpt lon="-5.121293" lat="43.428619"><ele>417.25</ele></trkpt>
<trkpt lon="-5.121342" lat="43.428765"><ele>420.75</ele></trkpt>
<trkpt lon="-5.121413" lat="43.428900"><ele>422.5</ele></trkpt>
<trkpt lon="-5.121542" lat="43.429020"><ele>424.5</ele></trkpt>
<trkpt lon="-5.121801" lat="43.429141"><ele>424.0</ele></trkpt>
<trkpt lon="-5.121938" lat="43.429234"><ele>424.25</ele></trkpt>
<trkpt lon="-5.122140" lat="43.429302"><ele>424.0</ele></trkpt>
<trkpt lon="-5.122422" lat="43.429410"><ele>428.0</ele></trkpt>
<trkpt lon="-5.122801" lat="43.429539"><ele>428.0</ele></trkpt>
<trkpt lon="-5.122457" lat="43.429538"><ele>426.5</ele></trkpt>
<trkpt lon="-5.122037" lat="43.429577"><ele>421.5</ele></trkpt>
<trkpt lon="-5.121873" lat="43.429619"><ele>417.5</ele></trkpt>
<trkpt lon="-5.121405" lat="43.429783"><ele>405.75</ele></trkpt>
<trkpt lon="-5.121286" lat="43.429849"><ele>402.5</ele></trkpt>
<trkpt lon="-5.120996" lat="43.429978"><ele>397.5</ele></trkpt>
<trkpt lon="-5.120866" lat="43.430096"><ele>391.0</ele></trkpt>
<trkpt lon="-5.120345" lat="43.430177"><ele>389.25</ele></trkpt>
<trkpt lon="-5.120067" lat="43.430217"><ele>390.75</ele></trkpt>
<trkpt lon="-5.119883" lat="43.430315"><ele>388.25</ele></trkpt>
<trkpt lon="-5.119669" lat="43.430472"><ele>386.0</ele></trkpt>
<trkpt lon="-5.119452" lat="43.430615"><ele>387.75</ele></trkpt>
<trkpt lon="-5.119407" lat="43.430683"><ele>387.25</ele></trkpt>
<trkpt lon="-5.119308" lat="43.430831"><ele>387.25</ele></trkpt>
<trkpt lon="-5.119231" lat="43.431091"><ele>387.75</ele></trkpt>
<trkpt lon="-5.119101" lat="43.431396"><ele>392.0</ele></trkpt>
<trkpt lon="-5.119063" lat="43.431679"><ele>391.0</ele></trkpt>
<trkpt lon="-5.119024" lat="43.431798"><ele>388.5</ele></trkpt>
<trkpt lon="-5.118923" lat="43.431931"><ele>387.25</ele></trkpt>
<trkpt lon="-5.118828" lat="43.431964"><ele>386.0</ele></trkpt>
<trkpt lon="-5.118436" lat="43.431910"><ele>382.75</ele></trkpt>
<trkpt lon="-5.118215" lat="43.431831"><ele>381.75</ele></trkpt>
<trkpt lon="-5.118036" lat="43.431750"><ele>381.75</ele></trkpt>
<trkpt lon="-5.117654" lat="43.431623"><ele>380.0</ele></trkpt>
<trkpt lon="-5.117412" lat="43.431524"><ele>383.0</ele></trkpt>
<trkpt lon="-5.117339" lat="43.431511"><ele>383.5</ele></trkpt>
<trkpt lon="-5.117261" lat="43.431562"><ele>380.75</ele></trkpt>
<trkpt lon="-5.117107" lat="43.431712"><ele>377.0</ele></trkpt>
<trkpt lon="-5.116981" lat="43.431877"><ele>373.5</ele></trkpt>
<trkpt lon="-5.116921" lat="43.431976"><ele>372.25</ele></trkpt>
<trkpt lon="-5.116935" lat="43.432068"><ele>370.5</ele></trkpt>
<trkpt lon="-5.116981" lat="43.432145"><ele>367.5</ele></trkpt>
<trkpt lon="-5.116971" lat="43.432318"><ele>364.25</ele></trkpt>
<trkpt lon="-5.116844" lat="43.432674"><ele>359.75</ele></trkpt>
<trkpt lon="-5.116729" lat="43.432852"><ele>357.75</ele></trkpt>
<trkpt lon="-5.116631" lat="43.432962"><ele>357.0</ele></trkpt>
<trkpt lon="-5.116613" lat="43.433127"><ele>353.0</ele></trkpt>
<trkpt lon="-5.116627" lat="43.433389"><ele>349.25</ele></trkpt>
<trkpt lon="-5.116655" lat="43.433603"><ele>345.5</ele></trkpt>
<trkpt lon="-5.116694" lat="43.433745"><ele>341.75</ele></trkpt>
<trkpt lon="-5.116718" lat="43.433890"><ele>338.5</ele></trkpt>
<trkpt lon="-5.116662" lat="43.434061"><ele>335.5</ele></trkpt>
<trkpt lon="-5.116469" lat="43.434519"><ele>325.5</ele></trkpt>
<trkpt lon="-5.116301" lat="43.434725"><ele>323.0</ele></trkpt>
<trkpt lon="-5.116133" lat="43.434954"><ele>318.25</ele></trkpt>
<trkpt lon="-5.115940" lat="43.435143"><ele>315.25</ele></trkpt>
<trkpt lon="-5.115779" lat="43.435379"><ele>310.75</ele></trkpt>
<trkpt lon="-5.115505" lat="43.435629"><ele>305.25</ele></trkpt>
<trkpt lon="-5.115397" lat="43.435659"><ele>304.5</ele></trkpt>
<trkpt lon="-5.115134" lat="43.435662"><ele>305.0</ele></trkpt>
<trkpt lon="-5.114812" lat="43.435654"><ele>304.0</ele></trkpt>
<trkpt lon="-5.114577" lat="43.435634"><ele>303.5</ele></trkpt>
<trkpt lon="-5.114040" lat="43.435532"><ele>302.75</ele></trkpt>
<trkpt lon="-5.113914" lat="43.435471"><ele>303.0</ele></trkpt>
<trkpt lon="-5.113799" lat="43.435395"><ele>303.0</ele></trkpt>
<trkpt lon="-5.113662" lat="43.435334"><ele>302.0</ele></trkpt>
<trkpt lon="-5.113546" lat="43.435293"><ele>301.75</ele></trkpt>
<trkpt lon="-5.113410" lat="43.435278"><ele>300.25</ele></trkpt>
<trkpt lon="-5.113259" lat="43.435237"><ele>299.0</ele></trkpt>
<trkpt lon="-5.113084" lat="43.435173"><ele>296.75</ele></trkpt>
<trkpt lon="-5.112936" lat="43.435028"><ele>300.0</ele></trkpt>
<trkpt lon="-5.112800" lat="43.434870"><ele>304.5</ele></trkpt>
<trkpt lon="-5.112719" lat="43.434832"><ele>305.25</ele></trkpt>
<trkpt lon="-5.112603" lat="43.434847"><ele>302.5</ele></trkpt>
<trkpt lon="-5.112474" lat="43.434776"><ele>304.5</ele></trkpt>
<trkpt lon="-5.112299" lat="43.434702"><ele>302.25</ele></trkpt>
<trkpt lon="-5.112148" lat="43.434568"><ele>308.25</ele></trkpt>
<trkpt lon="-5.112050" lat="43.434540"><ele>308.75</ele></trkpt>
<trkpt lon="-5.111973" lat="43.434562"><ele>306.75</ele></trkpt>
<trkpt lon="-5.111874" lat="43.434659"><ele>304.75</ele></trkpt>
<trkpt lon="-5.111825" lat="43.434753"><ele>301.5</ele></trkpt>
<trkpt lon="-5.111741" lat="43.434786"><ele>302.25</ele></trkpt>
<trkpt lon="-5.111608" lat="43.434781"><ele>305.25</ele></trkpt>
<trkpt lon="-5.111335" lat="43.434735"><ele>307.25</ele></trkpt>
<trkpt lon="-5.111209" lat="43.434682"><ele>310.0</ele></trkpt>
<trkpt lon="-5.111159" lat="43.434680"><ele>309.75</ele></trkpt>
<trkpt lon="-5.111100" lat="43.434702"><ele>308.75</ele></trkpt>
<trkpt lon="-5.111107" lat="43.434756"><ele>307.25</ele></trkpt>
<trkpt lon="-5.111089" lat="43.434977"><ele>308.5</ele></trkpt>
<trkpt lon="-5.111103" lat="43.435008"><ele>308.5</ele></trkpt>
<trkpt lon="-5.111163" lat="43.435051"><ele>307.75</ele></trkpt>
<trkpt lon="-5.111247" lat="43.435097"><ele>305.5</ele></trkpt>
<trkpt lon="-5.111272" lat="43.435150"><ele>305.5</ele></trkpt>
<trkpt lon="-5.111272" lat="43.435288"><ele>308.25</ele></trkpt>
<trkpt lon="-5.111240" lat="43.435341"><ele>308.75</ele></trkpt>
<trkpt lon="-5.111086" lat="43.435542"><ele>309.5</ele></trkpt>
<trkpt lon="-5.111033" lat="43.435682"><ele>310.75</ele></trkpt>
<trkpt lon="-5.111012" lat="43.435810"><ele>311.25</ele></trkpt>
<trkpt lon="-5.110974" lat="43.435883"><ele>313.0</ele></trkpt>
<trkpt lon="-5.110963" lat="43.436016"><ele>314.0</ele></trkpt>
<trkpt lon="-5.110977" lat="43.436097"><ele>313.75</ele></trkpt>
<trkpt lon="-5.110949" lat="43.436163"><ele>313.25</ele></trkpt>
<trkpt lon="-5.110798" lat="43.436301"><ele>316.5</ele></trkpt>
<trkpt lon="-5.110749" lat="43.436392"><ele>316.75</ele></trkpt>
<trkpt lon="-5.110735" lat="43.436484"><ele>317.25</ele></trkpt>
<trkpt lon="-5.110746" lat="43.436578"><ele>316.25</ele></trkpt>
<trkpt lon="-5.110662" lat="43.436828"><ele>318.25</ele></trkpt>
<trkpt lon="-5.110579" lat="43.437125"><ele>319.0</ele></trkpt>
<trkpt lon="-5.110528" lat="43.437259"><ele>319.0</ele></trkpt>
<trkpt lon="-5.110479" lat="43.437323"><ele>319.0</ele></trkpt>
<trkpt lon="-5.110340" lat="43.437410"><ele>322.0</ele></trkpt>
<trkpt lon="-5.110296" lat="43.437540"><ele>321.0</ele></trkpt>
<trkpt lon="-5.110199" lat="43.437783"><ele>322.75</ele></trkpt>
<trkpt lon="-5.110155" lat="43.437875"><ele>322.0</ele></trkpt>
<trkpt lon="-5.109725" lat="43.438206"><ele>325.0</ele></trkpt>
<trkpt lon="-5.109642" lat="43.438366"><ele>323.75</ele></trkpt>
<trkpt lon="-5.109545" lat="43.438513"><ele>323.5</ele></trkpt>
<trkpt lon="-5.109310" lat="43.438623"><ele>322.5</ele></trkpt>
<trkpt lon="-5.109246" lat="43.438637"><ele>321.75</ele></trkpt>
<trkpt lon="-5.109171" lat="43.438621"><ele>322.5</ele></trkpt>
<trkpt lon="-5.109003" lat="43.438556"><ele>320.25</ele></trkpt>
<trkpt lon="-5.108932" lat="43.438535"><ele>319.25</ele></trkpt>
<trkpt lon="-5.108685" lat="43.438476"><ele>315.75</ele></trkpt>
<trkpt lon="-5.108582" lat="43.438460"><ele>314.0</ele></trkpt>
<trkpt lon="-5.108506" lat="43.438441"><ele>312.25</ele></trkpt>
<trkpt lon="-5.108460" lat="43.438414"><ele>311.5</ele></trkpt>
<trkpt lon="-5.108421" lat="43.438370"><ele>311.25</ele></trkpt>
<trkpt lon="-5.108418" lat="43.438295"><ele>310.75</ele></trkpt>
<trkpt lon="-5.108558" lat="43.438209"><ele>313.0</ele></trkpt>
<trkpt lon="-5.108599" lat="43.438175"><ele>313.25</ele></trkpt>
<trkpt lon="-5.108617" lat="43.438143"><ele>313.0</ele></trkpt>
<trkpt lon="-5.108630" lat="43.438060"><ele>310.75</ele></trkpt>
<trkpt lon="-5.108607" lat="43.438028"><ele>310.75</ele></trkpt>
<trkpt lon="-5.108550" lat="43.437976"><ele>311.0</ele></trkpt>
<trkpt lon="-5.108473" lat="43.437932"><ele>310.25</ele></trkpt>
<trkpt lon="-5.108332" lat="43.437870"><ele>308.75</ele></trkpt>
<trkpt lon="-5.107976" lat="43.437754"><ele>302.25</ele></trkpt>
<trkpt lon="-5.107797" lat="43.437675"><ele>302.25</ele></trkpt>
<trkpt lon="-5.107572" lat="43.437599"><ele>300.0</ele></trkpt>
<trkpt lon="-5.107455" lat="43.437585"><ele>297.5</ele></trkpt>
<trkpt lon="-5.107344" lat="43.437558"><ele>296.5</ele></trkpt>
<trkpt lon="-5.107270" lat="43.437533"><ele>296.0</ele></trkpt>
<trkpt lon="-5.106944" lat="43.437533"><ele>291.75</ele></trkpt>
<trkpt lon="-5.106883" lat="43.437522"><ele>291.25</ele></trkpt>
<trkpt lon="-5.106629" lat="43.437506"><ele>288.0</ele></trkpt>
<trkpt lon="-5.106402" lat="43.437501"><ele>286.0</ele></trkpt>
<trkpt lon="-5.106264" lat="43.437485"><ele>284.0</ele></trkpt>
<trkpt lon="-5.105733" lat="43.437374"><ele>278.75</ele></trkpt>
<trkpt lon="-5.105547" lat="43.437324"><ele>276.5</ele></trkpt>
<trkpt lon="-5.105375" lat="43.437259"><ele>275.5</ele></trkpt>
<trkpt lon="-5.105146" lat="43.437212"><ele>272.75</ele></trkpt>
<trkpt lon="-5.104986" lat="43.437195"><ele>270.75</ele></trkpt>
<trkpt lon="-5.104636" lat="43.437186"><ele>267.75</ele></trkpt>
<trkpt lon="-5.104391" lat="43.437154"><ele>267.0</ele></trkpt>
<trkpt lon="-5.104313" lat="43.437159"><ele>266.0</ele></trkpt>
<trkpt lon="-5.104171" lat="43.437185"><ele>263.25</ele></trkpt>
<trkpt lon="-5.104081" lat="43.437227"><ele>260.5</ele></trkpt>
<trkpt lon="-5.103958" lat="43.437267"><ele>258.5</ele></trkpt>
<trkpt lon="-5.103849" lat="43.437294"><ele>256.5</ele></trkpt>
<trkpt lon="-5.103487" lat="43.437281"><ele>252.5</ele></trkpt>
<trkpt lon="-5.103034" lat="43.437200"><ele>245.5</ele></trkpt>
<trkpt lon="-5.102965" lat="43.437230"><ele>242.5</ele></trkpt>
<trkpt lon="-5.102965" lat="43.437280"><ele>241.25</ele></trkpt>
<trkpt lon="-5.103154" lat="43.437421"><ele>241.0</ele></trkpt>
<trkpt lon="-5.103216" lat="43.437506"><ele>238.5</ele></trkpt>
<trkpt lon="-5.103170" lat="43.437546"><ele>236.5</ele></trkpt>
<trkpt lon="-5.103078" lat="43.437539"><ele>235.75</ele></trkpt>
<trkpt lon="-5.102716" lat="43.437414"><ele>233.5</ele></trkpt>
<trkpt lon="-5.102743" lat="43.437487"><ele>233.25</ele></trkpt>
<trkpt lon="-5.102829" lat="43.437904"><ele>227.25</ele></trkpt>
<trkpt lon="-5.102873" lat="43.438086"><ele>223.5</ele></trkpt>
<trkpt lon="-5.102863" lat="43.438225"><ele>221.0</ele></trkpt>
<trkpt lon="-5.102811" lat="43.438388"><ele>218.0</ele></trkpt>
<trkpt lon="-5.102745" lat="43.438525"><ele>214.75</ele></trkpt>
<trkpt lon="-5.102628" lat="43.438638"><ele>210.75</ele></trkpt>
<trkpt lon="-5.102480" lat="43.438764"><ele>206.5</ele></trkpt>
<trkpt lon="-5.102379" lat="43.438891"><ele>203.25</ele></trkpt>
<trkpt lon="-5.102287" lat="43.439053"><ele>199.25</ele></trkpt>
<trkpt lon="-5.102184" lat="43.439152"><ele>197.0</ele></trkpt>
<trkpt lon="-5.102070" lat="43.439231"><ele>194.75</ele></trkpt>
<trkpt lon="-5.102036" lat="43.439315"><ele>192.75</ele></trkpt>
<trkpt lon="-5.102026" lat="43.439465"><ele>189.0</ele></trkpt>
<trkpt lon="-5.101921" lat="43.439546"><ele>186.5</ele></trkpt>
<trkpt lon="-5.101747" lat="43.439630"><ele>183.75</ele></trkpt>
<trkpt lon="-5.101526" lat="43.439754"><ele>179.5</ele></trkpt>
<trkpt lon="-5.101304" lat="43.439806"><ele>176.25</ele></trkpt>
<trkpt lon="-5.100840" lat="43.439862"><ele>170.5</ele></trkpt>
<trkpt lon="-5.100525" lat="43.439919"><ele>167.25</ele></trkpt>
<trkpt lon="-5.100154" lat="43.440031"><ele>161.5</ele></trkpt>
<trkpt lon="-5.099804" lat="43.440159"><ele>155.0</ele></trkpt>
<trkpt lon="-5.099531" lat="43.440249"><ele>151.75</ele></trkpt>
<trkpt lon="-5.099171" lat="43.440332"><ele>148.5</ele></trkpt>
<trkpt lon="-5.098979" lat="43.440388"><ele>147.0</ele></trkpt>
<trkpt lon="-5.098727" lat="43.440397"><ele>145.5</ele></trkpt>
<trkpt lon="-5.098574" lat="43.440373"><ele>144.5</ele></trkpt>
<trkpt lon="-5.098488" lat="43.440310"><ele>144.0</ele></trkpt>
<trkpt lon="-5.098470" lat="43.440248"><ele>143.25</ele></trkpt>
<trkpt lon="-5.098577" lat="43.439882"><ele>140.0</ele></trkpt>
<trkpt lon="-5.098524" lat="43.439809"><ele>140.0</ele></trkpt>
<trkpt lon="-5.098438" lat="43.439950"><ele>137.5</ele></trkpt>
<trkpt lon="-5.098093" lat="43.440287"><ele>134.25</ele></trkpt>
<trkpt lon="-5.097936" lat="43.440766"><ele>134.5</ele></trkpt>
<trkpt lon="-5.097952" lat="43.441122"><ele>134.25</ele></trkpt>
<trkpt lon="-5.097950" lat="43.441322"><ele>134.75</ele></trkpt>
<trkpt lon="-5.097893" lat="43.441461"><ele>134.5</ele></trkpt>
<trkpt lon="-5.097405" lat="43.441552"><ele>133.5</ele></trkpt>
<trkpt lon="-5.097026" lat="43.441377"><ele>130.25</ele></trkpt>
<trkpt lon="-5.096855" lat="43.441408"><ele>128.5</ele></trkpt>
<trkpt lon="-5.096656" lat="43.441505"><ele>126.75</ele></trkpt>
<trkpt lon="-5.096484" lat="43.441638"><ele>127.25</ele></trkpt>
<trkpt lon="-5.096319" lat="43.441721"><ele>126.75</ele></trkpt>
<trkpt lon="-5.095934" lat="43.441760"><ele>126.25</ele></trkpt>
<trkpt lon="-5.095729" lat="43.441791"><ele>126.5</ele></trkpt>
<trkpt lon="-5.095412" lat="43.441907"><ele>130.25</ele></trkpt>
<trkpt lon="-5.095213" lat="43.442019"><ele>132.75</ele></trkpt>
<trkpt lon="-5.094879" lat="43.442221"><ele>136.25</ele></trkpt>
<trkpt lon="-5.094319" lat="43.442471"><ele>139.25</ele></trkpt>
<trkpt lon="-5.093724" lat="43.442772"><ele>142.0</ele></trkpt>
<trkpt lon="-5.093510" lat="43.442834"><ele>142.75</ele></trkpt>
<trkpt lon="-5.093162" lat="43.442870"><ele>144.0</ele></trkpt>
<trkpt lon="-5.092790" lat="43.442946"><ele>143.75</ele></trkpt>
<trkpt lon="-5.092616" lat="43.442999"><ele>143.5</ele></trkpt>
<trkpt lon="-5.092490" lat="43.443079"><ele>142.75</ele></trkpt>
<trkpt lon="-5.092407" lat="43.443200"><ele>142.25</ele></trkpt>
<trkpt lon="-5.092256" lat="43.443535"><ele>143.25</ele></trkpt>
<trkpt lon="-5.092208" lat="43.443715"><ele>144.75</ele></trkpt>
<trkpt lon="-5.092134" lat="43.443853"><ele>145.5</ele></trkpt>
<trkpt lon="-5.091757" lat="43.444162"><ele>146.0</ele></trkpt>
<trkpt lon="-5.091621" lat="43.444256"><ele>145.25</ele></trkpt>
<trkpt lon="-5.091042" lat="43.444513"><ele>147.0</ele></trkpt>
<trkpt lon="-5.090681" lat="43.444585"><ele>146.25</ele></trkpt>
<trkpt lon="-5.090289" lat="43.444641"><ele>145.5</ele></trkpt>
<trkpt lon="-5.090047" lat="43.444662"><ele>144.75</ele></trkpt>
<trkpt lon="-5.089315" lat="43.444641"><ele>144.5</ele></trkpt>
<trkpt lon="-5.089139" lat="43.444625"><ele>144.25</ele></trkpt>
<trkpt lon="-5.088976" lat="43.444590"><ele>142.5</ele></trkpt>
<trkpt lon="-5.088907" lat="43.444545"><ele>141.75</ele></trkpt>
<trkpt lon="-5.088858" lat="43.444447"><ele>141.75</ele></trkpt>
<trkpt lon="-5.088835" lat="43.444239"><ele>140.25</ele></trkpt>
<trkpt lon="-5.088792" lat="43.444179"><ele>139.5</ele></trkpt>
<trkpt lon="-5.088607" lat="43.444039"><ele>136.5</ele></trkpt>
<trkpt lon="-5.088548" lat="43.443944"><ele>134.25</ele></trkpt>
<trkpt lon="-5.088524" lat="43.443849"><ele>132.5</ele></trkpt>
<trkpt lon="-5.088535" lat="43.443724"><ele>129.75</ele></trkpt>
<trkpt lon="-5.088501" lat="43.443607"><ele>127.0</ele></trkpt>
<trkpt lon="-5.088416" lat="43.443516"><ele>124.5</ele></trkpt>
<trkpt lon="-5.088302" lat="43.443429"><ele>122.5</ele></trkpt>
<trkpt lon="-5.088179" lat="43.443312"><ele>121.5</ele></trkpt>
<trkpt lon="-5.088183" lat="43.443225"><ele>121.5</ele></trkpt>
<trkpt lon="-5.087978" lat="43.443137"><ele>122.25</ele></trkpt>
<trkpt lon="-5.087560" lat="43.443084"><ele>123.5</ele></trkpt>
<trkpt lon="-5.087310" lat="43.442989"><ele>124.0</ele></trkpt>
<trkpt lon="-5.086594" lat="43.442660"><ele>123.5</ele></trkpt>
<trkpt lon="-5.086204" lat="43.442544"><ele>123.0</ele></trkpt>
<trkpt lon="-5.085134" lat="43.442296"><ele>121.5</ele></trkpt>
<trkpt lon="-5.084688" lat="43.442156"><ele>122.0</ele></trkpt>
<trkpt lon="-5.084562" lat="43.442151"><ele>122.25</ele></trkpt>
<trkpt lon="-5.084484" lat="43.442114"><ele>122.5</ele></trkpt>
<trkpt lon="-5.084382" lat="43.442095"><ele>122.5</ele></trkpt>
<trkpt lon="-5.084196" lat="43.442107"><ele>123.0</ele></trkpt>
<trkpt lon="-5.083994" lat="43.442167"><ele>124.0</ele></trkpt>
<trkpt lon="-5.083526" lat="43.442259"><ele>125.5</ele></trkpt>
<trkpt lon="-5.083305" lat="43.442342"><ele>127.0</ele></trkpt>
<trkpt lon="-5.083158" lat="43.442455"><ele>128.5</ele></trkpt>
<trkpt lon="-5.082988" lat="43.442472"><ele>128.0</ele></trkpt>
<trkpt lon="-5.082748" lat="43.442484"><ele>127.25</ele></trkpt>
<trkpt lon="-5.082605" lat="43.442511"><ele>127.75</ele></trkpt>
<trkpt lon="-5.081730" lat="43.442850"><ele>140.75</ele></trkpt>
<trkpt lon="-5.081495" lat="43.442949"><ele>144.0</ele></trkpt>
<trkpt lon="-5.081327" lat="43.443041"><ele>145.25</ele></trkpt>
<trkpt lon="-5.081218" lat="43.443140"><ele>146.0</ele></trkpt>
<trkpt lon="-5.080715" lat="43.443143"><ele>145.5</ele></trkpt>
<trkpt lon="-5.080448" lat="43.443162"><ele>145.25</ele></trkpt>
<trkpt lon="-5.079944" lat="43.443252"><ele>143.5</ele></trkpt>
<trkpt lon="-5.079397" lat="43.443382"><ele>143.5</ele></trkpt>
<trkpt lon="-5.078753" lat="43.443489"><ele>142.75</ele></trkpt>
<trkpt lon="-5.078560" lat="43.443501"><ele>142.0</ele></trkpt>
<trkpt lon="-5.078477" lat="43.443470"><ele>141.5</ele></trkpt>
<trkpt lon="-5.078522" lat="43.443318"><ele>140.0</ele></trkpt>
<trkpt lon="-5.078506" lat="43.443195"><ele>138.75</ele></trkpt>
<trkpt lon="-5.078427" lat="43.442884"><ele>137.5</ele></trkpt>
<trkpt lon="-5.078269" lat="43.442675"><ele>137.0</ele></trkpt>
<trkpt lon="-5.078060" lat="43.442564"><ele>137.0</ele></trkpt>
<trkpt lon="-5.077721" lat="43.442491"><ele>136.5</ele></trkpt>
<trkpt lon="-5.077496" lat="43.442487"><ele>135.5</ele></trkpt>
<trkpt lon="-5.077368" lat="43.442458"><ele>134.75</ele></trkpt>
<trkpt lon="-5.077103" lat="43.442306"><ele>130.5</ele></trkpt>
<trkpt lon="-5.076374" lat="43.442189"><ele>128.0</ele></trkpt>
<trkpt lon="-5.075977" lat="43.442117"><ele>126.0</ele></trkpt>
<trkpt lon="-5.075701" lat="43.442077"><ele>123.0</ele></trkpt>
<trkpt lon="-5.075298" lat="43.441889"><ele>121.25</ele></trkpt>
<trkpt lon="-5.074548" lat="43.441408"><ele>124.25</ele></trkpt>
<trkpt lon="-5.073076" lat="43.440494"><ele>116.0</ele></trkpt>
<trkpt lon="-5.072820" lat="43.441038"><ele>113.75</ele></trkpt>
<trkpt lon="-5.072725" lat="43.441221"><ele>113.5</ele></trkpt>
<trkpt lon="-5.072575" lat="43.441356"><ele>112.75</ele></trkpt>
<trkpt lon="-5.072263" lat="43.441559"><ele>107.75</ele></trkpt>
<trkpt lon="-5.072230" lat="43.441689"><ele>106.75</ele></trkpt>
<trkpt lon="-5.072313" lat="43.441964"><ele>105.25</ele></trkpt>
<trkpt lon="-5.072326" lat="43.442106"><ele>104.5</ele></trkpt>
<trkpt lon="-5.072158" lat="43.442333"><ele>99.25</ele></trkpt>
<trkpt lon="-5.072106" lat="43.442466"><ele>98.75</ele></trkpt>
<trkpt lon="-5.072115" lat="43.442585"><ele>97.25</ele></trkpt>
<trkpt lon="-5.072140" lat="43.442711"><ele>95.0</ele></trkpt>
<trkpt lon="-5.072208" lat="43.442822"><ele>93.25</ele></trkpt>
<trkpt lon="-5.072361" lat="43.442930"><ele>91.75</ele></trkpt>
<trkpt lon="-5.072571" lat="43.442982"><ele>91.75</ele></trkpt>
<trkpt lon="-5.072882" lat="43.442984"><ele>94.25</ele></trkpt>
<trkpt lon="-5.072907" lat="43.443060"><ele>92.75</ele></trkpt>
<trkpt lon="-5.072814" lat="43.443298"><ele>92.5</ele></trkpt>
<trkpt lon="-5.072699" lat="43.443510"><ele>90.25</ele></trkpt>
<trkpt lon="-5.072493" lat="43.443632"><ele>86.75</ele></trkpt>
<trkpt lon="-5.072258" lat="43.443713"><ele>82.0</ele></trkpt>
<trkpt lon="-5.072014" lat="43.443784"><ele>77.75</ele></trkpt>
<trkpt lon="-5.071468" lat="43.443884"><ele>72.5</ele></trkpt>
<trkpt lon="-5.070873" lat="43.443948"><ele>66.25</ele></trkpt>
<trkpt lon="-5.070701" lat="43.443948"><ele>64.0</ele></trkpt>
<trkpt lon="-5.070374" lat="43.443921"><ele>60.0</ele></trkpt>
<trkpt lon="-5.070127" lat="43.443881"><ele>57.0</ele></trkpt>
<trkpt lon="-5.069974" lat="43.443872"><ele>55.0</ele></trkpt>
<trkpt lon="-5.069826" lat="43.443914"><ele>53.5</ele></trkpt>
<trkpt lon="-5.069568" lat="43.444008"><ele>51.25</ele></trkpt>
<trkpt lon="-5.069534" lat="43.444097"><ele>50.75</ele></trkpt>
<trkpt lon="-5.069510" lat="43.444226"><ele>49.0</ele></trkpt>
<trkpt lon="-5.069761" lat="43.444593"><ele>45.5</ele></trkpt>
<trkpt lon="-5.070215" lat="43.445101"><ele>38.75</ele></trkpt>
<trkpt lon="-5.070288" lat="43.445238"><ele>35.25</ele></trkpt>
<trkpt lon="-5.070251" lat="43.445322"><ele>33.0</ele></trkpt>
<trkpt lon="-5.070178" lat="43.445371"><ele>31.75</ele></trkpt>
<trkpt lon="-5.069917" lat="43.445459"><ele>28.5</ele></trkpt>
<trkpt lon="-5.069572" lat="43.445682"><ele>24.5</ele></trkpt>
<trkpt lon="-5.069325" lat="43.445832"><ele>23.25</ele></trkpt>
<trkpt lon="-5.068809" lat="43.445932"><ele>24.0</ele></trkpt>
<trkpt lon="-5.068690" lat="43.445989"><ele>23.5</ele></trkpt>
<trkpt lon="-5.068619" lat="43.446089"><ele>23.0</ele></trkpt>
<trkpt lon="-5.068599" lat="43.446179"><ele>22.75</ele></trkpt>
<trkpt lon="-5.069202" lat="43.446349"><ele>20.0</ele></trkpt>
<trkpt lon="-5.069621" lat="43.446492"><ele>16.75</ele></trkpt>
<trkpt lon="-5.069207" lat="43.446620"><ele>18.75</ele></trkpt>
<trkpt lon="-5.068895" lat="43.446734"><ele>18.75</ele></trkpt>
<trkpt lon="-5.068114" lat="43.446932"><ele>20.25</ele></trkpt>
<trkpt lon="-5.067803" lat="43.447060"><ele>20.5</ele></trkpt>
<trkpt lon="-5.067483" lat="43.447255"><ele>19.75</ele></trkpt>
<trkpt lon="-5.067115" lat="43.447395"><ele>15.25</ele></trkpt>
<trkpt lon="-5.066531" lat="43.447634"><ele>12.5</ele></trkpt>
<trkpt lon="-5.065855" lat="43.447893"><ele>9.25</ele></trkpt>
<trkpt lon="-5.065703" lat="43.447964"><ele>8.0</ele></trkpt>
<trkpt lon="-5.065662" lat="43.447983"><ele>7.5</ele></trkpt>
<trkpt lon="-5.065421" lat="43.448201"><ele>4.5</ele></trkpt>
<trkpt lon="-5.065096" lat="43.448359"><ele>3.0</ele></trkpt>
<trkpt lon="-5.064861" lat="43.448425"><ele>2.0</ele></trkpt>
<trkpt lon="-5.064337" lat="43.448524"><ele>2.5</ele></trkpt>
<trkpt lon="-5.064224" lat="43.448516"><ele>2.5</ele></trkpt>
<trkpt lon="-5.064167" lat="43.448473"><ele>2.5</ele></trkpt>
<trkpt lon="-5.063986" lat="43.448236"><ele>2.25</ele></trkpt>
<trkpt lon="-5.063708" lat="43.447985"><ele>2.25</ele></trkpt>
<trkpt lon="-5.063544" lat="43.448065"><ele>2.25</ele></trkpt>
<trkpt lon="-5.062318" lat="43.448734"><ele>2.5</ele></trkpt>
<trkpt lon="-5.062111" lat="43.448824"><ele>3.0</ele></trkpt>
<trkpt lon="-5.061953" lat="43.448947"><ele>3.0</ele></trkpt>
<trkpt lon="-5.061723" lat="43.449095"><ele>2.25</ele></trkpt>
<trkpt lon="-5.061429" lat="43.449134"><ele>2.0</ele></trkpt>
<trkpt lon="-5.061298" lat="43.449163"><ele>2.0</ele></trkpt>
<trkpt lon="-5.061473" lat="43.449623"><ele>2.25</ele></trkpt>
<trkpt lon="-5.061525" lat="43.449940"><ele>2.0</ele></trkpt>
<trkpt lon="-5.061548" lat="43.450217"><ele>2.0</ele></trkpt>
<trkpt lon="-5.061725" lat="43.450579"><ele>2.0</ele></trkpt>
<trkpt lon="-5.061844" lat="43.450954"><ele>2.0</ele></trkpt>
<trkpt lon="-5.061904" lat="43.451536"><ele>2.0</ele></trkpt>
<trkpt lon="-5.062024" lat="43.452022"><ele>2.0</ele></trkpt>
<trkpt lon="-5.062026" lat="43.452295"><ele>2.0</ele></trkpt>
<trkpt lon="-5.062088" lat="43.452358"><ele>2.0</ele></trkpt>
<trkpt lon="-5.061818" lat="43.452539"><ele>2.0</ele></trkpt>
<trkpt lon="-5.061725" lat="43.452676"><ele>2.5</ele></trkpt>
<trkpt lon="-5.061769" lat="43.452748"><ele>2.5</ele></trkpt>
<trkpt lon="-5.062055" lat="43.452961"><ele>2.25</ele></trkpt>
<trkpt lon="-5.062123" lat="43.453053"><ele>2.25</ele></trkpt>
<trkpt lon="-5.062353" lat="43.453236"><ele>1.25</ele></trkpt>
<trkpt lon="-5.062512" lat="43.453311"><ele>1.75</ele></trkpt>
<trkpt lon="-5.062994" lat="43.453606"><ele>1.75</ele></trkpt>
<trkpt lon="-5.063465" lat="43.453879"><ele>1.75</ele></trkpt>
<trkpt lon="-5.063726" lat="43.454044"><ele>1.75</ele></trkpt>
<trkpt lon="-5.063761" lat="43.454053"><ele>1.75</ele></trkpt>
<trkpt lon="-5.063823" lat="43.454099"><ele>1.75</ele></trkpt>
<trkpt lon="-5.063848" lat="43.454105"><ele>1.75</ele></trkpt>
<trkpt lon="-5.063986" lat="43.454170"><ele>1.75</ele></trkpt>
<trkpt lon="-5.064075" lat="43.454221"><ele>1.75</ele></trkpt>
<trkpt lon="-5.064145" lat="43.454219"><ele>1.75</ele></trkpt>
<trkpt lon="-5.064247" lat="43.454266"><ele>1.75</ele></trkpt>
<trkpt lon="-5.064395" lat="43.454374"><ele>1.75</ele></trkpt>
<trkpt lon="-5.064843" lat="43.454725"><ele>1.75</ele></trkpt>
<trkpt lon="-5.064894" lat="43.454779"><ele>1.75</ele></trkpt>
<trkpt lon="-5.065022" lat="43.454879"><ele>1.75</ele></trkpt>
<trkpt lon="-5.065087" lat="43.454923"><ele>1.75</ele></trkpt>
<trkpt lon="-5.065134" lat="43.454946"><ele>1.75</ele></trkpt>
<trkpt lon="-5.065232" lat="43.454952"><ele>1.75</ele></trkpt>
<trkpt lon="-5.065398" lat="43.454972"><ele>1.75</ele></trkpt>
<trkpt lon="-5.065962" lat="43.455006"><ele>2.5</ele></trkpt>
<trkpt lon="-5.066058" lat="43.454999"><ele>2.5</ele></trkpt>
<trkpt lon="-5.066506" lat="43.455022"><ele>2.5</ele></trkpt>
<trkpt lon="-5.066629" lat="43.455039"><ele>2.5</ele></trkpt>
<trkpt lon="-5.067105" lat="43.455066"><ele>2.5</ele></trkpt>
<trkpt lon="-5.067200" lat="43.455081"><ele>2.5</ele></trkpt>
<trkpt lon="-5.067252" lat="43.455110"><ele>2.5</ele></trkpt>
<trkpt lon="-5.067285" lat="43.455163"><ele>2.5</ele></trkpt>
<trkpt lon="-5.067731" lat="43.456183"><ele>2.5</ele></trkpt>
<trkpt lon="-5.067767" lat="43.456236"><ele>2.5</ele></trkpt>
<trkpt lon="-5.067865" lat="43.456313"><ele>2.75</ele></trkpt>
<trkpt lon="-5.067856" lat="43.456350"><ele>2.75</ele></trkpt>
<trkpt lon="-5.067845" lat="43.456398"><ele>3.0</ele></trkpt>
<trkpt lon="-5.067856" lat="43.456477"><ele>4.5</ele></trkpt>
<trkpt lon="-5.067787" lat="43.456496"><ele>4.5</ele></trkpt>
<trkpt lon="-5.067666" lat="43.456595"><ele>4.5</ele></trkpt>
<trkpt lon="-5.067587" lat="43.456711"><ele>4.5</ele></trkpt>
<trkpt lon="-5.067544" lat="43.456844"><ele>4.75</ele></trkpt>
<trkpt lon="-5.067366" lat="43.457735"><ele>4.0</ele></trkpt>
<trkpt lon="-5.067280" lat="43.458265"><ele>4.0</ele></trkpt>
<trkpt lon="-5.067276" lat="43.458294"><ele>4.0</ele></trkpt>
<trkpt lon="-5.067228" lat="43.458553"><ele>3.75</ele></trkpt>
<trkpt lon="-5.067215" lat="43.458713"><ele>3.75</ele></trkpt>
<trkpt lon="-5.067218" lat="43.458798"><ele>3.5</ele></trkpt>
<trkpt lon="-5.067335" lat="43.459205"><ele>3.5</ele></trkpt>
<trkpt lon="-5.067369" lat="43.459376"><ele>3.5</ele></trkpt>
<trkpt lon="-5.067349" lat="43.459526"><ele>3.5</ele></trkpt>
<trkpt lon="-5.067184" lat="43.459829"><ele>3.5</ele></trkpt>
<trkpt lon="-5.067138" lat="43.460015"><ele>3.5</ele></trkpt>
<trkpt lon="-5.067168" lat="43.460720"><ele>4.5</ele></trkpt>
<trkpt lon="-5.067206" lat="43.461335"><ele>5.0</ele></trkpt>
<trkpt lon="-5.067245" lat="43.461577"><ele>5.5</ele></trkpt>
<trkpt lon="-5.067266" lat="43.461798"><ele>5.0</ele></trkpt>
<trkpt lon="-5.067167" lat="43.462000"><ele>4.75</ele></trkpt>
<trkpt lon="-5.066976" lat="43.462160"><ele>4.25</ele></trkpt>
<trkpt lon="-5.066776" lat="43.462331"><ele>4.0</ele></trkpt>
<trkpt lon="-5.066424" lat="43.462504"><ele>4.25</ele></trkpt>
<trkpt lon="-5.065495" lat="43.462742"><ele>5.5</ele></trkpt>
<trkpt lon="-5.065458" lat="43.462751"><ele>5.5</ele></trkpt>
<trkpt lon="-5.065129" lat="43.462794"><ele>6.0</ele></trkpt>
<trkpt lon="-5.064972" lat="43.462809"><ele>6.0</ele></trkpt>
<trkpt lon="-5.064901" lat="43.462808"><ele>6.0</ele></trkpt>
<trkpt lon="-5.064848" lat="43.462806"><ele>6.0</ele></trkpt>
<trkpt lon="-5.064730" lat="43.462798"><ele>5.5</ele></trkpt>
<trkpt lon="-5.064534" lat="43.462736"><ele>5.0</ele></trkpt>
<trkpt lon="-5.064486" lat="43.462719"><ele>4.75</ele></trkpt>
<trkpt lon="-5.064475" lat="43.462741"><ele>4.75</ele></trkpt>
<trkpt lon="-5.064429" lat="43.462803"><ele>4.25</ele></trkpt>
<trkpt lon="-5.064363" lat="43.462843"><ele>4.5</ele></trkpt>
<trkpt lon="-5.064249" lat="43.462889"><ele>4.25</ele></trkpt>
<trkpt lon="-5.064123" lat="43.462920"><ele>3.5</ele></trkpt>
<trkpt lon="-5.064139" lat="43.462758"><ele>2.75</ele></trkpt>
<trkpt lon="-5.063526" lat="43.462553"><ele>2.75</ele></trkpt>
<trkpt lon="-5.063575" lat="43.462475"><ele>2.75</ele></trkpt>
<trkpt lon="-5.063487" lat="43.462447"><ele>2.75</ele></trkpt>
<trkpt lon="-5.063493" lat="43.462439"><ele>2.75</ele></trkpt>
<trkpt lon="-5.061054" lat="43.461652"><ele>2.75</ele></trkpt>
<trkpt lon="-5.061046" lat="43.461665"><ele>2.75</ele></trkpt>
<trkpt lon="-5.060983" lat="43.461646"><ele>2.75</ele></trkpt>
<trkpt lon="-5.060984" lat="43.461702"><ele>3.0</ele></trkpt>
<trkpt lon="-5.060969" lat="43.461726"><ele>3.0</ele></trkpt>
<trkpt lon="-5.060864" lat="43.461732"><ele>3.25</ele></trkpt>
<trkpt lon="-5.060757" lat="43.461885"><ele>3.5</ele></trkpt>
<trkpt lon="-5.060624" lat="43.461917"><ele>3.75</ele></trkpt>
<trkpt lon="-5.060518" lat="43.461935"><ele>3.75</ele></trkpt>
<trkpt lon="-5.060415" lat="43.461980"><ele>3.25</ele></trkpt>
<trkpt lon="-5.060367" lat="43.462028"><ele>3.0</ele></trkpt>
<trkpt lon="-5.060337" lat="43.462086"><ele>3.0</ele></trkpt>
<trkpt lon="-5.060241" lat="43.462066"><ele>3.0</ele></trkpt>
<trkpt lon="-5.060194" lat="43.462021"><ele>3.0</ele></trkpt>
<trkpt lon="-5.060141" lat="43.462079"><ele>3.0</ele></trkpt>
<trkpt lon="-5.060108" lat="43.462140"><ele>3.0</ele></trkpt>
<trkpt lon="-5.060032" lat="43.462108"><ele>3.0</ele></trkpt>
<trkpt lon="-5.059869" lat="43.461899"><ele>3.0</ele></trkpt>
<trkpt lon="-5.059646" lat="43.461618"><ele>3.0</ele></trkpt>
<trkpt lon="-5.059512" lat="43.461448"><ele>2.75</ele></trkpt>
<trkpt lon="-5.059149" lat="43.461586"><ele>3.25</ele></trkpt>
<trkpt lon="-5.059047" lat="43.461633"><ele>3.25</ele></trkpt>
<trkpt lon="-5.059035" lat="43.461624"><ele>3.5</ele></trkpt>
<trkpt lon="-5.058872" lat="43.461703"><ele>3.75</ele></trkpt>
<trkpt lon="-5.058867" lat="43.461718"><ele>3.75</ele></trkpt>
<trkpt lon="-5.058699" lat="43.461515"><ele>4.25</ele></trkpt>
<trkpt lon="-5.058452" lat="43.461252"><ele>10.75</ele></trkpt>
<trkpt lon="-5.058294" lat="43.461316"><ele>8.75</ele></trkpt>
<trkpt lon="-5.058180" lat="43.461314"><ele>9.75</ele></trkpt>
<trkpt lon="-5.058078" lat="43.461324"><ele>10.0</ele></trkpt>
<trkpt lon="-5.058040" lat="43.461344"><ele>10.25</ele></trkpt>
<trkpt lon="-5.057953" lat="43.461434"><ele>10.5</ele></trkpt>
<trkpt lon="-5.057889" lat="43.461512"><ele>11.25</ele></trkpt>
<trkpt lon="-5.057877" lat="43.461476"><ele>11.75</ele></trkpt>
<trkpt lon="-5.057823" lat="43.461280"><ele>16.5</ele></trkpt>
<trkpt lon="-5.057794" lat="43.461240"><ele>18.25</ele></trkpt>
<trkpt lon="-5.057758" lat="43.461218"><ele>19.5</ele></trkpt>
<trkpt lon="-5.057704" lat="43.461197"><ele>21.0</ele></trkpt>
<trkpt lon="-5.057273" lat="43.461125"><ele>27.75</ele></trkpt>
<trkpt lon="-5.056109" lat="43.461007"><ele>48.5</ele></trkpt>
<trkpt lon="-5.056168" lat="43.461031"><ele>47.5</ele></trkpt>
<trkpt lon="-5.056216" lat="43.461127"><ele>46.75</ele></trkpt>
<trkpt lon="-5.056222" lat="43.461188"><ele>47.5</ele></trkpt>
<trkpt lon="-5.056129" lat="43.461349"><ele>49.75</ele></trkpt>
<trkpt lon="-5.056076" lat="43.461407"><ele>50.0</ele></trkpt>
<trkpt lon="-5.055984" lat="43.461586"><ele>46.75</ele></trkpt>
<trkpt lon="-5.055911" lat="43.461650"><ele>46.25</ele></trkpt>
<trkpt lon="-5.055802" lat="43.461716"><ele>46.0</ele></trkpt>
<trkpt lon="-5.055733" lat="43.461799"><ele>44.5</ele></trkpt>
<trkpt lon="-5.055699" lat="43.461957"><ele>39.75</ele></trkpt>
  </trkseg></trk></gpx>
