<?xml version="1.0" encoding="UTF-8"?>
<gpx version="1.1" creator="compostel-brouter" xmlns="http://www.topografix.com/GPX/1/1">
  <metadata><name>PC-01-Cades</name></metadata>
  <trk><name>PC-01-Cades</name><trkseg>
<trkpt lon="-4.397331" lat="43.385194"><ele>2.0</ele></trkpt>
<trkpt lon="-4.397749" lat="43.385185"><ele>2.0</ele></trkpt>
<trkpt lon="-4.397756" lat="43.385291"><ele>2.0</ele></trkpt>
<trkpt lon="-4.397769" lat="43.385290"><ele>2.0</ele></trkpt>
<trkpt lon="-4.397761" lat="43.385145"><ele>2.0</ele></trkpt>
<trkpt lon="-4.397806" lat="43.385145"><ele>2.0</ele></trkpt>
<trkpt lon="-4.397918" lat="43.385144"><ele>2.5</ele></trkpt>
<trkpt lon="-4.397938" lat="43.385120"><ele>2.5</ele></trkpt>
<trkpt lon="-4.398043" lat="43.385041"><ele>2.25</ele></trkpt>
<trkpt lon="-4.398258" lat="43.384914"><ele>2.25</ele></trkpt>
<trkpt lon="-4.398246" lat="43.384904"><ele>2.25</ele></trkpt>
<trkpt lon="-4.398592" lat="43.384699"><ele>2.25</ele></trkpt>
<trkpt lon="-4.398832" lat="43.384553"><ele>2.25</ele></trkpt>
<trkpt lon="-4.398728" lat="43.384433"><ele>2.25</ele></trkpt>
<trkpt lon="-4.398715" lat="43.384439"><ele>2.25</ele></trkpt>
<trkpt lon="-4.396811" lat="43.382192"><ele>3.75</ele></trkpt>
<trkpt lon="-4.396799" lat="43.382153"><ele>3.75</ele></trkpt>
<trkpt lon="-4.396798" lat="43.382103"><ele>3.75</ele></trkpt>
<trkpt lon="-4.396801" lat="43.382078"><ele>3.75</ele></trkpt>
<trkpt lon="-4.396822" lat="43.382032"><ele>3.75</ele></trkpt>
<trkpt lon="-4.396868" lat="43.381984"><ele>3.75</ele></trkpt>
<trkpt lon="-4.397007" lat="43.381895"><ele>4.0</ele></trkpt>
<trkpt lon="-4.397139" lat="43.381814"><ele>4.0</ele></trkpt>
<trkpt lon="-4.397195" lat="43.381780"><ele>4.0</ele></trkpt>
<trkpt lon="-4.397224" lat="43.381759"><ele>4.0</ele></trkpt>
<trkpt lon="-4.397228" lat="43.381723"><ele>4.0</ele></trkpt>
<trkpt lon="-4.397064" lat="43.381545"><ele>4.25</ele></trkpt>
<trkpt lon="-4.397103" lat="43.381529"><ele>4.25</ele></trkpt>
<trkpt lon="-4.397130" lat="43.381518"><ele>4.5</ele></trkpt>
<trkpt lon="-4.397170" lat="43.381499"><ele>4.5</ele></trkpt>
<trkpt lon="-4.397222" lat="43.381492"><ele>4.5</ele></trkpt>
<trkpt lon="-4.397254" lat="43.381487"><ele>4.5</ele></trkpt>
<trkpt lon="-4.397257" lat="43.381467"><ele>4.5</ele></trkpt>
<trkpt lon="-4.397281" lat="43.381452"><ele>4.75</ele></trkpt>
<trkpt lon="-4.397273" lat="43.381406"><ele>4.75</ele></trkpt>
<trkpt lon="-4.397276" lat="43.381361"><ele>5.0</ele></trkpt>
<trkpt lon="-4.397290" lat="43.381293"><ele>5.5</ele></trkpt>
<trkpt lon="-4.397482" lat="43.381233"><ele>7.0</ele></trkpt>
<trkpt lon="-4.397481" lat="43.381177"><ele>7.75</ele></trkpt>
<trkpt lon="-4.397551" lat="43.381178"><ele>8.25</ele></trkpt>
<trkpt lon="-4.397598" lat="43.381195"><ele>8.75</ele></trkpt>
<trkpt lon="-4.397847" lat="43.381437"><ele>11.5</ele></trkpt>
<trkpt lon="-4.397904" lat="43.381477"><ele>11.5</ele></trkpt>
<trkpt lon="-4.397975" lat="43.381510"><ele>12.0</ele></trkpt>
<trkpt lon="-4.398042" lat="43.381531"><ele>13.0</ele></trkpt>
<trkpt lon="-4.398233" lat="43.381575"><ele>15.0</ele></trkpt>
<trkpt lon="-4.398819" lat="43.381673"><ele>23.25</ele></trkpt>
<trkpt lon="-4.399016" lat="43.381704"><ele>24.75</ele></trkpt>
<trkpt lon="-4.399085" lat="43.381672"><ele>26.0</ele></trkpt>
<trkpt lon="-4.399543" lat="43.381495"><ele>31.25</ele></trkpt>
<trkpt lon="-4.399663" lat="43.381446"><ele>32.5</ele></trkpt>
<trkpt lon="-4.399929" lat="43.381320"><ele>35.0</ele></trkpt>
<trkpt lon="-4.400258" lat="43.381141"><ele>39.5</ele></trkpt>
<trkpt lon="-4.400308" lat="43.381111"><ele>40.25</ele></trkpt>
<trkpt lon="-4.400345" lat="43.381085"><ele>40.75</ele></trkpt>
<trkpt lon="-4.400485" lat="43.380978"><ele>42.0</ele></trkpt>
<trkpt lon="-4.400579" lat="43.380897"><ele>42.5</ele></trkpt>
<trkpt lon="-4.400640" lat="43.380835"><ele>42.75</ele></trkpt>
<trkpt lon="-4.400791" lat="43.380647"><ele>44.25</ele></trkpt>
<trkpt lon="-4.400855" lat="43.380608"><ele>45.0</ele></trkpt>
<trkpt lon="-4.400918" lat="43.380589"><ele>45.25</ele></trkpt>
<trkpt lon="-4.400998" lat="43.380586"><ele>45.5</ele></trkpt>
<trkpt lon="-4.401448" lat="43.380627"><ele>45.75</ele></trkpt>
<trkpt lon="-4.401461" lat="43.380560"><ele>45.5</ele></trkpt>
<trkpt lon="-4.401487" lat="43.380485"><ele>45.5</ele></trkpt>
<trkpt lon="-4.401549" lat="43.380342"><ele>45.25</ele></trkpt>
<trkpt lon="-4.401627" lat="43.380221"><ele>45.25</ele></trkpt>
<trkpt lon="-4.401681" lat="43.380167"><ele>45.75</ele></trkpt>
<trkpt lon="-4.401751" lat="43.380111"><ele>46.0</ele></trkpt>
<trkpt lon="-4.401811" lat="43.380074"><ele>46.5</ele></trkpt>
<trkpt lon="-4.402646" lat="43.379592"><ele>53.75</ele></trkpt>
<trkpt lon="-4.402664" lat="43.379582"><ele>53.75</ele></trkpt>
<trkpt lon="-4.403243" lat="43.379222"><ele>54.5</ele></trkpt>
<trkpt lon="-4.403399" lat="43.379141"><ele>54.75</ele></trkpt>
<trkpt lon="-4.403639" lat="43.379059"><ele>54.5</ele></trkpt>
<trkpt lon="-4.403805" lat="43.378989"><ele>53.0</ele></trkpt>
<trkpt lon="-4.403908" lat="43.378917"><ele>51.75</ele></trkpt>
<trkpt lon="-4.404015" lat="43.378819"><ele>50.25</ele></trkpt>
<trkpt lon="-4.404093" lat="43.378722"><ele>49.5</ele></trkpt>
<trkpt lon="-4.404222" lat="43.378585"><ele>48.0</ele></trkpt>
<trkpt lon="-4.404371" lat="43.378439"><ele>46.5</ele></trkpt>
<trkpt lon="-4.404483" lat="43.378354"><ele>46.25</ele></trkpt>
<trkpt lon="-4.404613" lat="43.378295"><ele>45.75</ele></trkpt>
<trkpt lon="-4.404813" lat="43.378233"><ele>44.75</ele></trkpt>
<trkpt lon="-4.404970" lat="43.378204"><ele>44.5</ele></trkpt>
<trkpt lon="-4.405164" lat="43.378195"><ele>44.0</ele></trkpt>
<trkpt lon="-4.405448" lat="43.378205"><ele>43.75</ele></trkpt>
<trkpt lon="-4.406411" lat="43.378272"><ele>45.5</ele></trkpt>
<trkpt lon="-4.406534" lat="43.378260"><ele>46.0</ele></trkpt>
<trkpt lon="-4.406658" lat="43.378230"><ele>46.5</ele></trkpt>
<trkpt lon="-4.406757" lat="43.378179"><ele>46.75</ele></trkpt>
<trkpt lon="-4.406876" lat="43.378076"><ele>47.0</ele></trkpt>
<trkpt lon="-4.407113" lat="43.377778"><ele>44.5</ele></trkpt>
<trkpt lon="-4.407214" lat="43.377606"><ele>44.25</ele></trkpt>
<trkpt lon="-4.407344" lat="43.377412"><ele>44.5</ele></trkpt>
<trkpt lon="-4.407477" lat="43.377282"><ele>45.25</ele></trkpt>
<trkpt lon="-4.407640" lat="43.377137"><ele>47.0</ele></trkpt>
<trkpt lon="-4.407741" lat="43.377052"><ele>47.5</ele></trkpt>
<trkpt lon="-4.407804" lat="43.376979"><ele>47.25</ele></trkpt>
<trkpt lon="-4.407847" lat="43.376890"><ele>47.25</ele></trkpt>
<trkpt lon="-4.407913" lat="43.376714"><ele>46.5</ele></trkpt>
<trkpt lon="-4.407965" lat="43.376639"><ele>45.75</ele></trkpt>
<trkpt lon="-4.408045" lat="43.376545"><ele>45.5</ele></trkpt>
<trkpt lon="-4.408159" lat="43.376458"><ele>45.25</ele></trkpt>
<trkpt lon="-4.408322" lat="43.376382"><ele>46.0</ele></trkpt>
<trkpt lon="-4.408696" lat="43.376237"><ele>47.0</ele></trkpt>
<trkpt lon="-4.409056" lat="43.376078"><ele>47.75</ele></trkpt>
<trkpt lon="-4.409182" lat="43.376013"><ele>47.75</ele></trkpt>
<trkpt lon="-4.409347" lat="43.375902"><ele>47.75</ele></trkpt>
<trkpt lon="-4.409672" lat="43.375658"><ele>46.0</ele></trkpt>
<trkpt lon="-4.409794" lat="43.375529"><ele>44.5</ele></trkpt>
<trkpt lon="-4.409982" lat="43.375292"><ele>44.0</ele></trkpt>
<trkpt lon="-4.410195" lat="43.374937"><ele>43.25</ele></trkpt>
<trkpt lon="-4.410310" lat="43.374782"><ele>44.25</ele></trkpt>
<trkpt lon="-4.410381" lat="43.374703"><ele>45.25</ele></trkpt>
<trkpt lon="-4.410485" lat="43.374602"><ele>46.75</ele></trkpt>
<trkpt lon="-4.410573" lat="43.374503"><ele>48.75</ele></trkpt>
<trkpt lon="-4.410689" lat="43.374363"><ele>51.25</ele></trkpt>
<trkpt lon="-4.410722" lat="43.374303"><ele>52.25</ele></trkpt>
<trkpt lon="-4.410693" lat="43.374158"><ele>54.5</ele></trkpt>
<trkpt lon="-4.410602" lat="43.373910"><ele>57.75</ele></trkpt>
<trkpt lon="-4.410602" lat="43.373827"><ele>57.5</ele></trkpt>
<trkpt lon="-4.410617" lat="43.373765"><ele>56.75</ele></trkpt>
<trkpt lon="-4.410827" lat="43.373304"><ele>55.25</ele></trkpt>
<trkpt lon="-4.411063" lat="43.372881"><ele>54.25</ele></trkpt>
<trkpt lon="-4.411077" lat="43.372758"><ele>54.25</ele></trkpt>
<trkpt lon="-4.411062" lat="43.372630"><ele>55.0</ele></trkpt>
<trkpt lon="-4.411024" lat="43.372536"><ele>55.0</ele></trkpt>
<trkpt lon="-4.410976" lat="43.372472"><ele>55.0</ele></trkpt>
<trkpt lon="-4.410898" lat="43.372396"><ele>55.0</ele></trkpt>
<trkpt lon="-4.410731" lat="43.372274"><ele>56.5</ele></trkpt>
<trkpt lon="-4.410421" lat="43.372088"><ele>59.5</ele></trkpt>
<trkpt lon="-4.410138" lat="43.371847"><ele>56.25</ele></trkpt>
<trkpt lon="-4.410036" lat="43.371783"><ele>55.0</ele></trkpt>
<trkpt lon="-4.409605" lat="43.371620"><ele>55.0</ele></trkpt>
<trkpt lon="-4.409484" lat="43.371543"><ele>54.0</ele></trkpt>
<trkpt lon="-4.409426" lat="43.371459"><ele>52.5</ele></trkpt>
<trkpt lon="-4.409412" lat="43.371354"><ele>50.75</ele></trkpt>
<trkpt lon="-4.409418" lat="43.371265"><ele>50.25</ele></trkpt>
<trkpt lon="-4.409496" lat="43.371013"><ele>46.75</ele></trkpt>
<trkpt lon="-4.409697" lat="43.370465"><ele>46.25</ele></trkpt>
<trkpt lon="-4.409740" lat="43.370356"><ele>46.75</ele></trkpt>
<trkpt lon="-4.409772" lat="43.370249"><ele>46.0</ele></trkpt>
<trkpt lon="-4.409783" lat="43.370171"><ele>45.25</ele></trkpt>
<trkpt lon="-4.409705" lat="43.369657"><ele>42.5</ele></trkpt>
<trkpt lon="-4.409547" lat="43.369803"><ele>43.0</ele></trkpt>
<trkpt lon="-4.409007" lat="43.369884"><ele>36.5</ele></trkpt>
<trkpt lon="-4.407982" lat="43.369946"><ele>21.0</ele></trkpt>
<trkpt lon="-4.407574" lat="43.369882"><ele>19.0</ele></trkpt>
<trkpt lon="-4.407510" lat="43.369876"><ele>19.0</ele></trkpt>
<trkpt lon="-4.407381" lat="43.369872"><ele>23.25</ele></trkpt>
<trkpt lon="-4.407316" lat="43.369863"><ele>25.25</ele></trkpt>
<trkpt lon="-4.407255" lat="43.369648"><ele>20.25</ele></trkpt>
<trkpt lon="-4.407214" lat="43.369545"><ele>20.5</ele></trkpt>
<trkpt lon="-4.407166" lat="43.369475"><ele>21.25</ele></trkpt>
<trkpt lon="-4.407099" lat="43.369413"><ele>22.25</ele></trkpt>
<trkpt lon="-4.406847" lat="43.369237"><ele>23.75</ele></trkpt>
<trkpt lon="-4.406411" lat="43.369002"><ele>26.75</ele></trkpt>
<trkpt lon="-4.406342" lat="43.368958"><ele>27.25</ele></trkpt>
<trkpt lon="-4.406188" lat="43.368820"><ele>28.25</ele></trkpt>
<trkpt lon="-4.406052" lat="43.368692"><ele>29.25</ele></trkpt>
<trkpt lon="-4.405999" lat="43.368652"><ele>29.5</ele></trkpt>
<trkpt lon="-4.405881" lat="43.368603"><ele>29.75</ele></trkpt>
<trkpt lon="-4.405644" lat="43.368527"><ele>30.25</ele></trkpt>
<trkpt lon="-4.405017" lat="43.368299"><ele>29.5</ele></trkpt>
<trkpt lon="-4.404877" lat="43.368230"><ele>29.75</ele></trkpt>
<trkpt lon="-4.404739" lat="43.368148"><ele>29.75</ele></trkpt>
<trkpt lon="-4.404409" lat="43.367924"><ele>29.5</ele></trkpt>
<trkpt lon="-4.404196" lat="43.367794"><ele>29.0</ele></trkpt>
<trkpt lon="-4.404001" lat="43.367661"><ele>30.5</ele></trkpt>
<trkpt lon="-4.403807" lat="43.367497"><ele>30.75</ele></trkpt>
<trkpt lon="-4.403373" lat="43.367152"><ele>30.75</ele></trkpt>
<trkpt lon="-4.403196" lat="43.366990"><ele>31.0</ele></trkpt>
<trkpt lon="-4.402951" lat="43.366742"><ele>31.0</ele></trkpt>
<trkpt lon="-4.402784" lat="43.366537"><ele>30.5</ele></trkpt>
<trkpt lon="-4.402697" lat="43.366411"><ele>30.25</ele></trkpt>
<trkpt lon="-4.402027" lat="43.365492"><ele>30.0</ele></trkpt>
<trkpt lon="-4.401866" lat="43.365310"><ele>29.0</ele></trkpt>
<trkpt lon="-4.401807" lat="43.365266"><ele>28.5</ele></trkpt>
<trkpt lon="-4.401774" lat="43.365235"><ele>28.5</ele></trkpt>
<trkpt lon="-4.401679" lat="43.365170"><ele>28.75</ele></trkpt>
<trkpt lon="-4.401594" lat="43.365120"><ele>29.0</ele></trkpt>
<trkpt lon="-4.401528" lat="43.365083"><ele>29.25</ele></trkpt>
<trkpt lon="-4.401410" lat="43.365029"><ele>29.0</ele></trkpt>
<trkpt lon="-4.401233" lat="43.364957"><ele>29.75</ele></trkpt>
<trkpt lon="-4.400960" lat="43.364869"><ele>31.75</ele></trkpt>
<trkpt lon="-4.399535" lat="43.364442"><ele>30.25</ele></trkpt>
<trkpt lon="-4.398632" lat="43.364173"><ele>28.75</ele></trkpt>
<trkpt lon="-4.397336" lat="43.363786"><ele>23.25</ele></trkpt>
<trkpt lon="-4.392649" lat="43.362422"><ele>22.0</ele></trkpt>
<trkpt lon="-4.392500" lat="43.362379"><ele>22.75</ele></trkpt>
<trkpt lon="-4.392202" lat="43.362306"><ele>23.0</ele></trkpt>
<trkpt lon="-4.391984" lat="43.362211"><ele>23.75</ele></trkpt>
<trkpt lon="-4.391740" lat="43.362081"><ele>25.0</ele></trkpt>
<trkpt lon="-4.391547" lat="43.361961"><ele>25.75</ele></trkpt>
<trkpt lon="-4.391335" lat="43.361847"><ele>26.75</ele></trkpt>
<trkpt lon="-4.391145" lat="43.361790"><ele>27.0</ele></trkpt>
<trkpt lon="-4.390999" lat="43.361761"><ele>27.5</ele></trkpt>
<trkpt lon="-4.390872" lat="43.361777"><ele>28.25</ele></trkpt>
<trkpt lon="-4.390730" lat="43.361772"><ele>28.0</ele></trkpt>
<trkpt lon="-4.390422" lat="43.361613"><ele>26.5</ele></trkpt>
<trkpt lon="-4.390232" lat="43.361546"><ele>26.0</ele></trkpt>
<trkpt lon="-4.389880" lat="43.361498"><ele>24.0</ele></trkpt>
<trkpt lon="-4.389757" lat="43.361464"><ele>23.25</ele></trkpt>
<trkpt lon="-4.389510" lat="43.361372"><ele>22.25</ele></trkpt>
<trkpt lon="-4.389080" lat="43.361236"><ele>20.75</ele></trkpt>
<trkpt lon="-4.389583" lat="43.360460"><ele>20.5</ele></trkpt>
<trkpt lon="-4.389711" lat="43.360247"><ele>22.0</ele></trkpt>
<trkpt lon="-4.389778" lat="43.360040"><ele>23.25</ele></trkpt>
<trkpt lon="-4.389835" lat="43.359817"><ele>22.75</ele></trkpt>
<trkpt lon="-4.389868" lat="43.359685"><ele>22.25</ele></trkpt>
<trkpt lon="-4.389877" lat="43.359551"><ele>22.0</ele></trkpt>
<trkpt lon="-4.389858" lat="43.359408"><ele>21.75</ele></trkpt>
<trkpt lon="-4.389847" lat="43.359387"><ele>21.75</ele></trkpt>
<trkpt lon="-4.389685" lat="43.359091"><ele>20.75</ele></trkpt>
<trkpt lon="-4.389629" lat="43.358950"><ele>20.5</ele></trkpt>
<trkpt lon="-4.389483" lat="43.358729"><ele>20.0</ele></trkpt>
<trkpt lon="-4.389231" lat="43.358625"><ele>19.25</ele></trkpt>
<trkpt lon="-4.388844" lat="43.358486"><ele>18.75</ele></trkpt>
<trkpt lon="-4.388467" lat="43.358356"><ele>17.5</ele></trkpt>
<trkpt lon="-4.387864" lat="43.358166"><ele>13.25</ele></trkpt>
<trkpt lon="-4.387618" lat="43.358110"><ele>12.5</ele></trkpt>
<trkpt lon="-4.387374" lat="43.358077"><ele>10.75</ele></trkpt>
<trkpt lon="-4.386983" lat="43.357929"><ele>6.75</ele></trkpt>
<trkpt lon="-4.386823" lat="43.357836"><ele>5.75</ele></trkpt>
<trkpt lon="-4.386752" lat="43.357777"><ele>4.75</ele></trkpt>
<trkpt lon="-4.386674" lat="43.357650"><ele>4.0</ele></trkpt>
<trkpt lon="-4.386661" lat="43.357559"><ele>3.75</ele></trkpt>
<trkpt lon="-4.386539" lat="43.357274"><ele>1.5</ele></trkpt>
<trkpt lon="-4.386350" lat="43.356985"><ele>1.75</ele></trkpt>
<trkpt lon="-4.386242" lat="43.356763"><ele>1.0</ele></trkpt>
<trkpt lon="-4.386210" lat="43.356663"><ele>1.0</ele></trkpt>
<trkpt lon="-4.386185" lat="43.356584"><ele>2.25</ele></trkpt>
<trkpt lon="-4.386169" lat="43.356532"><ele>3.0</ele></trkpt>
<trkpt lon="-4.386115" lat="43.356479"><ele>3.5</ele></trkpt>
<trkpt lon="-4.385974" lat="43.356361"><ele>3.25</ele></trkpt>
<trkpt lon="-4.385931" lat="43.356265"><ele>3.25</ele></trkpt>
<trkpt lon="-4.385944" lat="43.356148"><ele>4.25</ele></trkpt>
<trkpt lon="-4.385890" lat="43.355835"><ele>4.5</ele></trkpt>
<trkpt lon="-4.385824" lat="43.355589"><ele>4.75</ele></trkpt>
<trkpt lon="-4.385620" lat="43.355112"><ele>3.75</ele></trkpt>
<trkpt lon="-4.385165" lat="43.355188"><ele>3.0</ele></trkpt>
<trkpt lon="-4.385117" lat="43.355056"><ele>2.75</ele></trkpt>
<trkpt lon="-4.385047" lat="43.354999"><ele>2.5</ele></trkpt>
<trkpt lon="-4.384607" lat="43.354763"><ele>1.75</ele></trkpt>
<trkpt lon="-4.384327" lat="43.354594"><ele>1.25</ele></trkpt>
<trkpt lon="-4.384159" lat="43.354534"><ele>1.5</ele></trkpt>
<trkpt lon="-4.383987" lat="43.354503"><ele>2.75</ele></trkpt>
<trkpt lon="-4.383774" lat="43.354489"><ele>4.25</ele></trkpt>
<trkpt lon="-4.383566" lat="43.354521"><ele>4.75</ele></trkpt>
<trkpt lon="-4.383219" lat="43.354592"><ele>4.75</ele></trkpt>
<trkpt lon="-4.382818" lat="43.354699"><ele>4.0</ele></trkpt>
<trkpt lon="-4.382702" lat="43.354708"><ele>5.0</ele></trkpt>
<trkpt lon="-4.382329" lat="43.354705"><ele>8.25</ele></trkpt>
<trkpt lon="-4.382244" lat="43.354679"><ele>9.0</ele></trkpt>
<trkpt lon="-4.382104" lat="43.354622"><ele>10.0</ele></trkpt>
<trkpt lon="-4.382013" lat="43.354553"><ele>10.75</ele></trkpt>
<trkpt lon="-4.381996" lat="43.354516"><ele>11.25</ele></trkpt>
<trkpt lon="-4.381992" lat="43.354449"><ele>11.75</ele></trkpt>
<trkpt lon="-4.382028" lat="43.354399"><ele>12.25</ele></trkpt>
<trkpt lon="-4.382086" lat="43.354354"><ele>12.75</ele></trkpt>
<trkpt lon="-4.382204" lat="43.354305"><ele>13.0</ele></trkpt>
<trkpt lon="-4.382330" lat="43.354286"><ele>13.25</ele></trkpt>
<trkpt lon="-4.382719" lat="43.354299"><ele>13.0</ele></trkpt>
<trkpt lon="-4.383067" lat="43.354304"><ele>13.5</ele></trkpt>
<trkpt lon="-4.383195" lat="43.354296"><ele>13.75</ele></trkpt>
<trkpt lon="-4.383353" lat="43.354248"><ele>15.25</ele></trkpt>
<trkpt lon="-4.383437" lat="43.354196"><ele>16.5</ele></trkpt>
<trkpt lon="-4.383489" lat="43.354141"><ele>18.0</ele></trkpt>
<trkpt lon="-4.383526" lat="43.354090"><ele>18.75</ele></trkpt>
<trkpt lon="-4.383591" lat="43.353970"><ele>20.75</ele></trkpt>
<trkpt lon="-4.383639" lat="43.353834"><ele>20.25</ele></trkpt>
<trkpt lon="-4.383640" lat="43.353763"><ele>18.5</ele></trkpt>
<trkpt lon="-4.383622" lat="43.353695"><ele>17.5</ele></trkpt>
<trkpt lon="-4.383595" lat="43.353639"><ele>16.5</ele></trkpt>
<trkpt lon="-4.383528" lat="43.353587"><ele>16.0</ele></trkpt>
<trkpt lon="-4.383408" lat="43.353544"><ele>16.25</ele></trkpt>
<trkpt lon="-4.383269" lat="43.353509"><ele>17.25</ele></trkpt>
<trkpt lon="-4.382932" lat="43.353487"><ele>21.5</ele></trkpt>
<trkpt lon="-4.382795" lat="43.353461"><ele>22.5</ele></trkpt>
<trkpt lon="-4.381834" lat="43.353198"><ele>29.25</ele></trkpt>
<trkpt lon="-4.381619" lat="43.353147"><ele>30.5</ele></trkpt>
<trkpt lon="-4.381347" lat="43.353128"><ele>33.5</ele></trkpt>
<trkpt lon="-4.381074" lat="43.353118"><ele>36.0</ele></trkpt>
<trkpt lon="-4.380846" lat="43.353019"><ele>37.75</ele></trkpt>
<trkpt lon="-4.379934" lat="43.352580"><ele>40.25</ele></trkpt>
<trkpt lon="-4.379570" lat="43.352356"><ele>42.5</ele></trkpt>
<trkpt lon="-4.379318" lat="43.352123"><ele>45.0</ele></trkpt>
<trkpt lon="-4.378701" lat="43.351827"><ele>51.75</ele></trkpt>
<trkpt lon="-4.374123" lat="43.350555"><ele>98.25</ele></trkpt>
<trkpt lon="-4.373568" lat="43.350456"><ele>100.75</ele></trkpt>
<trkpt lon="-4.373094" lat="43.350416"><ele>102.25</ele></trkpt>
<trkpt lon="-4.371960" lat="43.350205"><ele>108.5</ele></trkpt>
<trkpt lon="-4.371486" lat="43.350080"><ele>113.25</ele></trkpt>
<trkpt lon="-4.370647" lat="43.350008"><ele>116.25</ele></trkpt>
<trkpt lon="-4.369717" lat="43.349954"><ele>116.25</ele></trkpt>
<trkpt lon="-4.369243" lat="43.349954"><ele>116.0</ele></trkpt>
<trkpt lon="-4.368903" lat="43.349922"><ele>116.0</ele></trkpt>
<trkpt lon="-4.368470" lat="43.349850"><ele>118.25</ele></trkpt>
<trkpt lon="-4.368342" lat="43.349840"><ele>118.5</ele></trkpt>
<trkpt lon="-4.368215" lat="43.349840"><ele>118.75</ele></trkpt>
<trkpt lon="-4.368137" lat="43.349862"><ele>118.75</ele></trkpt>
<trkpt lon="-4.368032" lat="43.349891"><ele>118.75</ele></trkpt>
<trkpt lon="-4.367941" lat="43.349904"><ele>118.5</ele></trkpt>
<trkpt lon="-4.367869" lat="43.349880"><ele>118.5</ele></trkpt>
<trkpt lon="-4.367516" lat="43.349700"><ele>118.75</ele></trkpt>
<trkpt lon="-4.367043" lat="43.349551"><ele>115.75</ele></trkpt>
<trkpt lon="-4.366691" lat="43.349448"><ele>114.0</ele></trkpt>
<trkpt lon="-4.366402" lat="43.349339"><ele>113.25</ele></trkpt>
<trkpt lon="-4.366309" lat="43.349260"><ele>113.25</ele></trkpt>
<trkpt lon="-4.366173" lat="43.349099"><ele>113.5</ele></trkpt>
<trkpt lon="-4.366226" lat="43.348964"><ele>114.5</ele></trkpt>
<trkpt lon="-4.366250" lat="43.348798"><ele>115.5</ele></trkpt>
<trkpt lon="-4.366693" lat="43.348283"><ele>121.5</ele></trkpt>
<trkpt lon="-4.366800" lat="43.348192"><ele>123.0</ele></trkpt>
<trkpt lon="-4.366947" lat="43.348089"><ele>124.5</ele></trkpt>
<trkpt lon="-4.367010" lat="43.348018"><ele>125.5</ele></trkpt>
<trkpt lon="-4.367129" lat="43.347800"><ele>128.0</ele></trkpt>
<trkpt lon="-4.367256" lat="43.347650"><ele>129.75</ele></trkpt>
<trkpt lon="-4.367370" lat="43.347559"><ele>131.25</ele></trkpt>
<trkpt lon="-4.367446" lat="43.347428"><ele>132.75</ele></trkpt>
<trkpt lon="-4.367493" lat="43.347317"><ele>134.0</ele></trkpt>
<trkpt lon="-4.367560" lat="43.347191"><ele>135.25</ele></trkpt>
<trkpt lon="-4.367675" lat="43.347032"><ele>136.25</ele></trkpt>
<trkpt lon="-4.367806" lat="43.346925"><ele>136.75</ele></trkpt>
<trkpt lon="-4.367889" lat="43.346811"><ele>135.5</ele></trkpt>
<trkpt lon="-4.367873" lat="43.346506"><ele>132.25</ele></trkpt>
<trkpt lon="-4.367960" lat="43.346328"><ele>130.5</ele></trkpt>
<trkpt lon="-4.368012" lat="43.346181"><ele>129.5</ele></trkpt>
<trkpt lon="-4.368024" lat="43.346098"><ele>128.75</ele></trkpt>
<trkpt lon="-4.368000" lat="43.345908"><ele>126.75</ele></trkpt>
<trkpt lon="-4.367893" lat="43.345421"><ele>125.25</ele></trkpt>
<trkpt lon="-4.367845" lat="43.345338"><ele>125.5</ele></trkpt>
<trkpt lon="-4.367822" lat="43.345282"><ele>125.5</ele></trkpt>
<trkpt lon="-4.367770" lat="43.345223"><ele>126.0</ele></trkpt>
<trkpt lon="-4.367541" lat="43.344772"><ele>127.5</ele></trkpt>
<trkpt lon="-4.367477" lat="43.344681"><ele>127.5</ele></trkpt>
<trkpt lon="-4.367184" lat="43.344404"><ele>127.25</ele></trkpt>
<trkpt lon="-4.367066" lat="43.344269"><ele>128.0</ele></trkpt>
<trkpt lon="-4.366836" lat="43.344146"><ele>129.0</ele></trkpt>
<trkpt lon="-4.366737" lat="43.344107"><ele>129.0</ele></trkpt>
<trkpt lon="-4.366602" lat="43.344075"><ele>128.5</ele></trkpt>
<trkpt lon="-4.366353" lat="43.344067"><ele>127.25</ele></trkpt>
<trkpt lon="-4.366187" lat="43.344051"><ele>127.25</ele></trkpt>
<trkpt lon="-4.365937" lat="43.344063"><ele>127.5</ele></trkpt>
<trkpt lon="-4.365838" lat="43.344095"><ele>127.75</ele></trkpt>
<trkpt lon="-4.365296" lat="43.344087"><ele>128.75</ele></trkpt>
<trkpt lon="-4.365058" lat="43.344067"><ele>129.25</ele></trkpt>
<trkpt lon="-4.364492" lat="43.343948"><ele>129.5</ele></trkpt>
<trkpt lon="-4.364187" lat="43.343968"><ele>128.75</ele></trkpt>
<trkpt lon="-4.363534" lat="43.343814"><ele>133.5</ele></trkpt>
<trkpt lon="-4.363431" lat="43.343750"><ele>133.75</ele></trkpt>
<trkpt lon="-4.363312" lat="43.343695"><ele>134.25</ele></trkpt>
<trkpt lon="-4.363194" lat="43.343643"><ele>134.5</ele></trkpt>
<trkpt lon="-4.362960" lat="43.343576"><ele>135.75</ele></trkpt>
<trkpt lon="-4.362779" lat="43.343535"><ele>136.5</ele></trkpt>
<trkpt lon="-4.362608" lat="43.343504"><ele>137.25</ele></trkpt>
<trkpt lon="-4.362458" lat="43.343492"><ele>137.5</ele></trkpt>
<trkpt lon="-4.362238" lat="43.343486"><ele>137.25</ele></trkpt>
<trkpt lon="-4.361941" lat="43.343499"><ele>137.0</ele></trkpt>
<trkpt lon="-4.361722" lat="43.343527"><ele>138.5</ele></trkpt>
<trkpt lon="-4.361566" lat="43.343539"><ele>139.0</ele></trkpt>
<trkpt lon="-4.361428" lat="43.343531"><ele>139.25</ele></trkpt>
<trkpt lon="-4.361250" lat="43.343511"><ele>139.5</ele></trkpt>
<trkpt lon="-4.361141" lat="43.343510"><ele>139.25</ele></trkpt>
<trkpt lon="-4.360994" lat="43.343540"><ele>138.75</ele></trkpt>
<trkpt lon="-4.360855" lat="43.343590"><ele>138.0</ele></trkpt>
<trkpt lon="-4.360684" lat="43.343667"><ele>137.5</ele></trkpt>
<trkpt lon="-4.360592" lat="43.343624"><ele>137.75</ele></trkpt>
<trkpt lon="-4.360492" lat="43.343609"><ele>138.0</ele></trkpt>
<trkpt lon="-4.360275" lat="43.343610"><ele>139.0</ele></trkpt>
<trkpt lon="-4.360160" lat="43.343594"><ele>139.75</ele></trkpt>
<trkpt lon="-4.360061" lat="43.343549"><ele>140.5</ele></trkpt>
<trkpt lon="-4.359975" lat="43.343460"><ele>141.0</ele></trkpt>
<trkpt lon="-4.359973" lat="43.343389"><ele>141.0</ele></trkpt>
<trkpt lon="-4.360005" lat="43.343296"><ele>141.25</ele></trkpt>
<trkpt lon="-4.360050" lat="43.343202"><ele>142.0</ele></trkpt>
<trkpt lon="-4.360064" lat="43.343132"><ele>142.5</ele></trkpt>
<trkpt lon="-4.360063" lat="43.343031"><ele>143.0</ele></trkpt>
<trkpt lon="-4.360040" lat="43.342941"><ele>143.0</ele></trkpt>
<trkpt lon="-4.359986" lat="43.342851"><ele>142.75</ele></trkpt>
<trkpt lon="-4.359892" lat="43.342785"><ele>142.0</ele></trkpt>
<trkpt lon="-4.359624" lat="43.342716"><ele>139.75</ele></trkpt>
<trkpt lon="-4.358856" lat="43.342644"><ele>135.75</ele></trkpt>
<trkpt lon="-4.358599" lat="43.342578"><ele>134.0</ele></trkpt>
<trkpt lon="-4.358497" lat="43.342514"><ele>133.75</ele></trkpt>
<trkpt lon="-4.358364" lat="43.342517"><ele>133.75</ele></trkpt>
<trkpt lon="-4.358012" lat="43.342472"><ele>132.0</ele></trkpt>
<trkpt lon="-4.357543" lat="43.342394"><ele>127.5</ele></trkpt>
<trkpt lon="-4.357216" lat="43.342294"><ele>126.75</ele></trkpt>
<trkpt lon="-4.356972" lat="43.342201"><ele>126.0</ele></trkpt>
<trkpt lon="-4.356679" lat="43.342136"><ele>123.75</ele></trkpt>
<trkpt lon="-4.356430" lat="43.342039"><ele>123.0</ele></trkpt>
<trkpt lon="-4.355738" lat="43.341748"><ele>123.0</ele></trkpt>
<trkpt lon="-4.355446" lat="43.341635"><ele>123.25</ele></trkpt>
<trkpt lon="-4.355255" lat="43.341514"><ele>125.0</ele></trkpt>
<trkpt lon="-4.355032" lat="43.341397"><ele>126.75</ele></trkpt>
<trkpt lon="-4.354829" lat="43.341327"><ele>126.5</ele></trkpt>
<trkpt lon="-4.354228" lat="43.341155"><ele>130.0</ele></trkpt>
<trkpt lon="-4.353970" lat="43.341075"><ele>131.5</ele></trkpt>
<trkpt lon="-4.353809" lat="43.340972"><ele>131.0</ele></trkpt>
<trkpt lon="-4.353662" lat="43.340814"><ele>136.0</ele></trkpt>
<trkpt lon="-4.353353" lat="43.340381"><ele>137.0</ele></trkpt>
<trkpt lon="-4.353294" lat="43.340250"><ele>135.5</ele></trkpt>
<trkpt lon="-4.353192" lat="43.339969"><ele>130.5</ele></trkpt>
<trkpt lon="-4.353107" lat="43.339780"><ele>128.25</ele></trkpt>
<trkpt lon="-4.353040" lat="43.339684"><ele>127.25</ele></trkpt>
<trkpt lon="-4.352927" lat="43.339575"><ele>126.0</ele></trkpt>
<trkpt lon="-4.352737" lat="43.339487"><ele>125.75</ele></trkpt>
<trkpt lon="-4.352543" lat="43.339378"><ele>125.75</ele></trkpt>
<trkpt lon="-4.352377" lat="43.339255"><ele>125.0</ele></trkpt>
<trkpt lon="-4.352187" lat="43.339181"><ele>124.75</ele></trkpt>
<trkpt lon="-4.352004" lat="43.339056"><ele>125.0</ele></trkpt>
<trkpt lon="-4.351615" lat="43.338918"><ele>125.25</ele></trkpt>
<trkpt lon="-4.351379" lat="43.338820"><ele>126.0</ele></trkpt>
<trkpt lon="-4.351259" lat="43.338799"><ele>125.75</ele></trkpt>
<trkpt lon="-4.351049" lat="43.338775"><ele>125.5</ele></trkpt>
<trkpt lon="-4.350886" lat="43.338726"><ele>125.5</ele></trkpt>
<trkpt lon="-4.350639" lat="43.338619"><ele>125.25</ele></trkpt>
<trkpt lon="-4.350403" lat="43.338502"><ele>124.25</ele></trkpt>
<trkpt lon="-4.350226" lat="43.338393"><ele>125.0</ele></trkpt>
<trkpt lon="-4.350175" lat="43.338332"><ele>125.25</ele></trkpt>
<trkpt lon="-4.350180" lat="43.338266"><ele>125.75</ele></trkpt>
<trkpt lon="-4.350245" lat="43.338198"><ele>126.25</ele></trkpt>
<trkpt lon="-4.350414" lat="43.338088"><ele>127.75</ele></trkpt>
<trkpt lon="-4.350652" lat="43.337884"><ele>128.0</ele></trkpt>
<trkpt lon="-4.350749" lat="43.337757"><ele>128.0</ele></trkpt>
<trkpt lon="-4.350910" lat="43.337462"><ele>123.75</ele></trkpt>
<trkpt lon="-4.351001" lat="43.337347"><ele>123.75</ele></trkpt>
<trkpt lon="-4.351106" lat="43.337244"><ele>123.75</ele></trkpt>
<trkpt lon="-4.351524" lat="43.336868"><ele>125.25</ele></trkpt>
<trkpt lon="-4.351582" lat="43.336736"><ele>125.75</ele></trkpt>
<trkpt lon="-4.351965" lat="43.336712"><ele>127.75</ele></trkpt>
<trkpt lon="-4.352203" lat="43.336688"><ele>128.75</ele></trkpt>
<trkpt lon="-4.352319" lat="43.336668"><ele>129.5</ele></trkpt>
<trkpt lon="-4.352572" lat="43.336590"><ele>132.0</ele></trkpt>
<trkpt lon="-4.352805" lat="43.336488"><ele>134.0</ele></trkpt>
<trkpt lon="-4.353053" lat="43.336457"><ele>138.75</ele></trkpt>
<trkpt lon="-4.353202" lat="43.336468"><ele>139.5</ele></trkpt>
<trkpt lon="-4.353319" lat="43.336464"><ele>140.5</ele></trkpt>
<trkpt lon="-4.353457" lat="43.336429"><ele>141.0</ele></trkpt>
<trkpt lon="-4.353571" lat="43.336400"><ele>141.0</ele></trkpt>
<trkpt lon="-4.353973" lat="43.336254"><ele>144.75</ele></trkpt>
<trkpt lon="-4.354206" lat="43.336196"><ele>145.0</ele></trkpt>
<trkpt lon="-4.354370" lat="43.336169"><ele>146.25</ele></trkpt>
<trkpt lon="-4.354505" lat="43.336135"><ele>147.0</ele></trkpt>
<trkpt lon="-4.354678" lat="43.336074"><ele>147.25</ele></trkpt>
<trkpt lon="-4.354785" lat="43.336029"><ele>148.0</ele></trkpt>
<trkpt lon="-4.354837" lat="43.335989"><ele>148.5</ele></trkpt>
<trkpt lon="-4.354883" lat="43.335921"><ele>149.25</ele></trkpt>
<trkpt lon="-4.354972" lat="43.335856"><ele>148.25</ele></trkpt>
<trkpt lon="-4.355070" lat="43.335802"><ele>148.75</ele></trkpt>
<trkpt lon="-4.355196" lat="43.335765"><ele>149.25</ele></trkpt>
<trkpt lon="-4.355336" lat="43.335748"><ele>149.0</ele></trkpt>
<trkpt lon="-4.355509" lat="43.335768"><ele>149.0</ele></trkpt>
<trkpt lon="-4.355687" lat="43.335812"><ele>150.25</ele></trkpt>
<trkpt lon="-4.355832" lat="43.335890"><ele>151.75</ele></trkpt>
<trkpt lon="-4.355946" lat="43.335824"><ele>153.5</ele></trkpt>
<trkpt lon="-4.356181" lat="43.335591"><ele>154.5</ele></trkpt>
<trkpt lon="-4.356348" lat="43.335357"><ele>155.75</ele></trkpt>
<trkpt lon="-4.356401" lat="43.335254"><ele>158.25</ele></trkpt>
<trkpt lon="-4.356466" lat="43.335192"><ele>159.25</ele></trkpt>
<trkpt lon="-4.356585" lat="43.335037"><ele>160.5</ele></trkpt>
<trkpt lon="-4.356576" lat="43.334978"><ele>160.5</ele></trkpt>
<trkpt lon="-4.356507" lat="43.334930"><ele>160.25</ele></trkpt>
<trkpt lon="-4.356426" lat="43.334925"><ele>159.75</ele></trkpt>
<trkpt lon="-4.356316" lat="43.334927"><ele>159.75</ele></trkpt>
<trkpt lon="-4.356169" lat="43.334904"><ele>160.0</ele></trkpt>
<trkpt lon="-4.356019" lat="43.334862"><ele>162.25</ele></trkpt>
<trkpt lon="-4.355767" lat="43.334741"><ele>167.25</ele></trkpt>
<trkpt lon="-4.355633" lat="43.334623"><ele>167.75</ele></trkpt>
<trkpt lon="-4.355535" lat="43.334602"><ele>168.25</ele></trkpt>
<trkpt lon="-4.355080" lat="43.334599"><ele>169.0</ele></trkpt>
<trkpt lon="-4.354747" lat="43.334567"><ele>169.75</ele></trkpt>
<trkpt lon="-4.354604" lat="43.334564"><ele>171.5</ele></trkpt>
<trkpt lon="-4.354433" lat="43.334537"><ele>173.5</ele></trkpt>
<trkpt lon="-4.354129" lat="43.334466"><ele>174.0</ele></trkpt>
<trkpt lon="-4.353893" lat="43.334425"><ele>172.25</ele></trkpt>
<trkpt lon="-4.353714" lat="43.334422"><ele>169.25</ele></trkpt>
<trkpt lon="-4.353218" lat="43.334478"><ele>161.5</ele></trkpt>
<trkpt lon="-4.352966" lat="43.334514"><ele>156.5</ele></trkpt>
<trkpt lon="-4.352458" lat="43.334605"><ele>146.5</ele></trkpt>
<trkpt lon="-4.352307" lat="43.334617"><ele>144.25</ele></trkpt>
<trkpt lon="-4.352157" lat="43.334599"><ele>141.25</ele></trkpt>
<trkpt lon="-4.351913" lat="43.334543"><ele>137.0</ele></trkpt>
<trkpt lon="-4.351762" lat="43.334531"><ele>135.75</ele></trkpt>
<trkpt lon="-4.351620" lat="43.334543"><ele>134.5</ele></trkpt>
<trkpt lon="-4.350831" lat="43.334685"><ele>126.25</ele></trkpt>
<trkpt lon="-4.350665" lat="43.334726"><ele>123.5</ele></trkpt>
<trkpt lon="-4.350388" lat="43.334815"><ele>121.0</ele></trkpt>
<trkpt lon="-4.350136" lat="43.334913"><ele>115.75</ele></trkpt>
<trkpt lon="-4.350018" lat="43.334975"><ele>111.75</ele></trkpt>
<trkpt lon="-4.349844" lat="43.335025"><ele>108.25</ele></trkpt>
<trkpt lon="-4.349571" lat="43.335093"><ele>105.25</ele></trkpt>
<trkpt lon="-4.349307" lat="43.335152"><ele>101.0</ele></trkpt>
<trkpt lon="-4.348624" lat="43.335217"><ele>86.75</ele></trkpt>
<trkpt lon="-4.348502" lat="43.335209"><ele>84.0</ele></trkpt>
<trkpt lon="-4.348129" lat="43.335067"><ele>78.0</ele></trkpt>
<trkpt lon="-4.347982" lat="43.334923"><ele>77.25</ele></trkpt>
<trkpt lon="-4.347690" lat="43.334665"><ele>76.5</ele></trkpt>
<trkpt lon="-4.347639" lat="43.334550"><ele>76.0</ele></trkpt>
<trkpt lon="-4.347626" lat="43.334455"><ele>75.5</ele></trkpt>
<trkpt lon="-4.347643" lat="43.334395"><ele>75.75</ele></trkpt>
<trkpt lon="-4.347736" lat="43.334218"><ele>75.5</ele></trkpt>
<trkpt lon="-4.347751" lat="43.334136"><ele>75.0</ele></trkpt>
<trkpt lon="-4.347734" lat="43.334049"><ele>73.5</ele></trkpt>
<trkpt lon="-4.347675" lat="43.333944"><ele>72.5</ele></trkpt>
<trkpt lon="-4.347606" lat="43.333851"><ele>72.0</ele></trkpt>
<trkpt lon="-4.347505" lat="43.333734"><ele>71.5</ele></trkpt>
<trkpt lon="-4.347416" lat="43.333670"><ele>71.0</ele></trkpt>
<trkpt lon="-4.347272" lat="43.333543"><ele>70.5</ele></trkpt>
<trkpt lon="-4.347201" lat="43.333446"><ele>70.25</ele></trkpt>
<trkpt lon="-4.347199" lat="43.333303"><ele>69.75</ele></trkpt>
<trkpt lon="-4.347319" lat="43.333122"><ele>68.75</ele></trkpt>
<trkpt lon="-4.347335" lat="43.333003"><ele>68.0</ele></trkpt>
<trkpt lon="-4.347306" lat="43.332885"><ele>67.25</ele></trkpt>
<trkpt lon="-4.347194" lat="43.332598"><ele>66.25</ele></trkpt>
<trkpt lon="-4.347188" lat="43.332412"><ele>65.75</ele></trkpt>
<trkpt lon="-4.347209" lat="43.332315"><ele>65.25</ele></trkpt>
<trkpt lon="-4.347240" lat="43.332059"><ele>64.5</ele></trkpt>
<trkpt lon="-4.347191" lat="43.331755"><ele>62.5</ele></trkpt>
<trkpt lon="-4.347208" lat="43.331662"><ele>61.75</ele></trkpt>
<trkpt lon="-4.347242" lat="43.331578"><ele>61.25</ele></trkpt>
<trkpt lon="-4.347318" lat="43.331488"><ele>60.75</ele></trkpt>
<trkpt lon="-4.347572" lat="43.331241"><ele>60.25</ele></trkpt>
<trkpt lon="-4.347663" lat="43.331159"><ele>59.5</ele></trkpt>
<trkpt lon="-4.347778" lat="43.331078"><ele>58.0</ele></trkpt>
<trkpt lon="-4.347873" lat="43.331023"><ele>58.25</ele></trkpt>
<trkpt lon="-4.348021" lat="43.330956"><ele>58.25</ele></trkpt>
<trkpt lon="-4.348173" lat="43.330904"><ele>56.75</ele></trkpt>
<trkpt lon="-4.348389" lat="43.330867"><ele>53.5</ele></trkpt>
<trkpt lon="-4.348544" lat="43.330858"><ele>52.75</ele></trkpt>
<trkpt lon="-4.348780" lat="43.330831"><ele>52.0</ele></trkpt>
<trkpt lon="-4.348893" lat="43.330796"><ele>52.75</ele></trkpt>
<trkpt lon="-4.348979" lat="43.330748"><ele>53.75</ele></trkpt>
<trkpt lon="-4.349062" lat="43.330684"><ele>53.0</ele></trkpt>
<trkpt lon="-4.349244" lat="43.330527"><ele>47.75</ele></trkpt>
<trkpt lon="-4.349328" lat="43.330443"><ele>47.25</ele></trkpt>
<trkpt lon="-4.349409" lat="43.330346"><ele>46.0</ele></trkpt>
<trkpt lon="-4.349555" lat="43.330148"><ele>45.0</ele></trkpt>
<trkpt lon="-4.349636" lat="43.330031"><ele>43.25</ele></trkpt>
<trkpt lon="-4.349655" lat="43.329971"><ele>42.25</ele></trkpt>
<trkpt lon="-4.349395" lat="43.329613"><ele>43.25</ele></trkpt>
<trkpt lon="-4.349840" lat="43.329441"><ele>40.25</ele></trkpt>
<trkpt lon="-4.349936" lat="43.329498"><ele>40.25</ele></trkpt>
<trkpt lon="-4.350046" lat="43.329420"><ele>40.75</ele></trkpt>
<trkpt lon="-4.350177" lat="43.329366"><ele>40.5</ele></trkpt>
<trkpt lon="-4.350195" lat="43.329352"><ele>40.75</ele></trkpt>
<trkpt lon="-4.350330" lat="43.329304"><ele>41.0</ele></trkpt>
<trkpt lon="-4.350766" lat="43.329153"><ele>41.5</ele></trkpt>
<trkpt lon="-4.350835" lat="43.329135"><ele>41.0</ele></trkpt>
<trkpt lon="-4.350904" lat="43.329118"><ele>40.0</ele></trkpt>
<trkpt lon="-4.351079" lat="43.329092"><ele>37.5</ele></trkpt>
<trkpt lon="-4.351493" lat="43.329041"><ele>36.0</ele></trkpt>
<trkpt lon="-4.351683" lat="43.329013"><ele>39.5</ele></trkpt>
<trkpt lon="-4.351821" lat="43.328965"><ele>40.75</ele></trkpt>
<trkpt lon="-4.351898" lat="43.328903"><ele>40.75</ele></trkpt>
<trkpt lon="-4.351920" lat="43.328839"><ele>41.0</ele></trkpt>
<trkpt lon="-4.351922" lat="43.328758"><ele>41.25</ele></trkpt>
<trkpt lon="-4.351905" lat="43.328672"><ele>41.25</ele></trkpt>
<trkpt lon="-4.351853" lat="43.328210"><ele>41.25</ele></trkpt>
<trkpt lon="-4.351797" lat="43.327951"><ele>41.5</ele></trkpt>
<trkpt lon="-4.351691" lat="43.327647"><ele>41.75</ele></trkpt>
<trkpt lon="-4.351538" lat="43.327358"><ele>43.5</ele></trkpt>
<trkpt lon="-4.351290" lat="43.327117"><ele>43.75</ele></trkpt>
<trkpt lon="-4.350874" lat="43.326784"><ele>42.5</ele></trkpt>
<trkpt lon="-4.350807" lat="43.326685"><ele>42.5</ele></trkpt>
<trkpt lon="-4.350710" lat="43.326513"><ele>44.0</ele></trkpt>
<trkpt lon="-4.350492" lat="43.326030"><ele>46.75</ele></trkpt>
<trkpt lon="-4.350401" lat="43.325721"><ele>47.75</ele></trkpt>
<trkpt lon="-4.350367" lat="43.325415"><ele>48.75</ele></trkpt>
<trkpt lon="-4.350397" lat="43.325307"><ele>49.0</ele></trkpt>
<trkpt lon="-4.350445" lat="43.325203"><ele>49.75</ele></trkpt>
<trkpt lon="-4.350520" lat="43.325128"><ele>51.0</ele></trkpt>
<trkpt lon="-4.350611" lat="43.325055"><ele>52.0</ele></trkpt>
<trkpt lon="-4.350777" lat="43.324981"><ele>52.5</ele></trkpt>
<trkpt lon="-4.350999" lat="43.324936"><ele>53.25</ele></trkpt>
<trkpt lon="-4.351460" lat="43.324893"><ele>56.0</ele></trkpt>
<trkpt lon="-4.351875" lat="43.324847"><ele>59.25</ele></trkpt>
<trkpt lon="-4.352075" lat="43.324833"><ele>61.5</ele></trkpt>
<trkpt lon="-4.352249" lat="43.324785"><ele>63.0</ele></trkpt>
<trkpt lon="-4.352332" lat="43.324714"><ele>62.75</ele></trkpt>
<trkpt lon="-4.352441" lat="43.324574"><ele>64.75</ele></trkpt>
<trkpt lon="-4.352526" lat="43.324436"><ele>65.5</ele></trkpt>
<trkpt lon="-4.352381" lat="43.324406"><ele>63.75</ele></trkpt>
<trkpt lon="-4.352301" lat="43.324369"><ele>63.0</ele></trkpt>
<trkpt lon="-4.352219" lat="43.324296"><ele>62.0</ele></trkpt>
<trkpt lon="-4.352179" lat="43.324229"><ele>61.5</ele></trkpt>
<trkpt lon="-4.352146" lat="43.324140"><ele>61.25</ele></trkpt>
<trkpt lon="-4.352116" lat="43.323778"><ele>58.0</ele></trkpt>
<trkpt lon="-4.352120" lat="43.323522"><ele>57.75</ele></trkpt>
<trkpt lon="-4.352152" lat="43.323388"><ele>60.75</ele></trkpt>
<trkpt lon="-4.352149" lat="43.323321"><ele>61.25</ele></trkpt>
<trkpt lon="-4.352133" lat="43.323236"><ele>61.0</ele></trkpt>
<trkpt lon="-4.352090" lat="43.323132"><ele>59.5</ele></trkpt>
<trkpt lon="-4.351881" lat="43.322769"><ele>55.5</ele></trkpt>
<trkpt lon="-4.351815" lat="43.322678"><ele>53.0</ele></trkpt>
<trkpt lon="-4.351760" lat="43.322625"><ele>51.5</ele></trkpt>
<trkpt lon="-4.351697" lat="43.322583"><ele>50.5</ele></trkpt>
<trkpt lon="-4.351631" lat="43.322557"><ele>50.0</ele></trkpt>
<trkpt lon="-4.351529" lat="43.322531"><ele>49.75</ele></trkpt>
<trkpt lon="-4.351302" lat="43.322500"><ele>49.5</ele></trkpt>
<trkpt lon="-4.351162" lat="43.322460"><ele>48.25</ele></trkpt>
<trkpt lon="-4.351049" lat="43.322404"><ele>47.0</ele></trkpt>
<trkpt lon="-4.350981" lat="43.322345"><ele>46.0</ele></trkpt>
<trkpt lon="-4.350944" lat="43.322247"><ele>45.0</ele></trkpt>
<trkpt lon="-4.350932" lat="43.322148"><ele>45.0</ele></trkpt>
<trkpt lon="-4.350954" lat="43.322074"><ele>45.0</ele></trkpt>
<trkpt lon="-4.350997" lat="43.322016"><ele>45.0</ele></trkpt>
<trkpt lon="-4.351065" lat="43.321964"><ele>45.0</ele></trkpt>
<trkpt lon="-4.351207" lat="43.321903"><ele>45.0</ele></trkpt>
<trkpt lon="-4.351413" lat="43.321841"><ele>45.25</ele></trkpt>
<trkpt lon="-4.351481" lat="43.321797"><ele>45.5</ele></trkpt>
<trkpt lon="-4.351551" lat="43.321730"><ele>45.75</ele></trkpt>
<trkpt lon="-4.351613" lat="43.321637"><ele>46.0</ele></trkpt>
<trkpt lon="-4.351629" lat="43.321567"><ele>46.0</ele></trkpt>
<trkpt lon="-4.351612" lat="43.321397"><ele>46.0</ele></trkpt>
<trkpt lon="-4.351602" lat="43.320580"><ele>46.0</ele></trkpt>
<trkpt lon="-4.351574" lat="43.320440"><ele>46.0</ele></trkpt>
<trkpt lon="-4.351524" lat="43.320361"><ele>45.75</ele></trkpt>
<trkpt lon="-4.351458" lat="43.320318"><ele>46.0</ele></trkpt>
<trkpt lon="-4.351326" lat="43.320268"><ele>46.0</ele></trkpt>
<trkpt lon="-4.351084" lat="43.320203"><ele>44.75</ele></trkpt>
<trkpt lon="-4.350788" lat="43.320133"><ele>42.75</ele></trkpt>
<trkpt lon="-4.350592" lat="43.320111"><ele>44.75</ele></trkpt>
<trkpt lon="-4.350402" lat="43.320108"><ele>44.25</ele></trkpt>
<trkpt lon="-4.350183" lat="43.320137"><ele>45.0</ele></trkpt>
<trkpt lon="-4.350231" lat="43.319959"><ele>46.5</ele></trkpt>
<trkpt lon="-4.350372" lat="43.319573"><ele>47.25</ele></trkpt>
<trkpt lon="-4.350402" lat="43.319410"><ele>47.5</ele></trkpt>
<trkpt lon="-4.350455" lat="43.318975"><ele>48.25</ele></trkpt>
<trkpt lon="-4.350487" lat="43.318839"><ele>50.25</ele></trkpt>
<trkpt lon="-4.350612" lat="43.318468"><ele>55.75</ele></trkpt>
<trkpt lon="-4.350686" lat="43.318179"><ele>58.75</ele></trkpt>
<trkpt lon="-4.350748" lat="43.318004"><ele>59.5</ele></trkpt>
<trkpt lon="-4.350751" lat="43.317946"><ele>59.25</ele></trkpt>
<trkpt lon="-4.350738" lat="43.317885"><ele>59.25</ele></trkpt>
<trkpt lon="-4.350689" lat="43.317765"><ele>60.0</ele></trkpt>
<trkpt lon="-4.350667" lat="43.317710"><ele>60.75</ele></trkpt>
<trkpt lon="-4.350659" lat="43.317632"><ele>61.0</ele></trkpt>
<trkpt lon="-4.350676" lat="43.317516"><ele>61.0</ele></trkpt>
<trkpt lon="-4.350735" lat="43.317297"><ele>63.0</ele></trkpt>
<trkpt lon="-4.350741" lat="43.317210"><ele>64.75</ele></trkpt>
<trkpt lon="-4.350767" lat="43.317123"><ele>67.5</ele></trkpt>
<trkpt lon="-4.350866" lat="43.317050"><ele>68.25</ele></trkpt>
<trkpt lon="-4.351156" lat="43.316876"><ele>67.0</ele></trkpt>
<trkpt lon="-4.351355" lat="43.316793"><ele>64.5</ele></trkpt>
<trkpt lon="-4.351483" lat="43.316728"><ele>63.75</ele></trkpt>
<trkpt lon="-4.351592" lat="43.316664"><ele>62.25</ele></trkpt>
<trkpt lon="-4.351700" lat="43.316543"><ele>62.0</ele></trkpt>
<trkpt lon="-4.351741" lat="43.316470"><ele>62.75</ele></trkpt>
<trkpt lon="-4.351791" lat="43.316305"><ele>64.5</ele></trkpt>
<trkpt lon="-4.351802" lat="43.316188"><ele>66.25</ele></trkpt>
<trkpt lon="-4.351832" lat="43.316078"><ele>66.5</ele></trkpt>
<trkpt lon="-4.351885" lat="43.315963"><ele>66.25</ele></trkpt>
<trkpt lon="-4.351968" lat="43.315830"><ele>66.25</ele></trkpt>
<trkpt lon="-4.352217" lat="43.315522"><ele>67.25</ele></trkpt>
<trkpt lon="-4.352462" lat="43.315272"><ele>69.25</ele></trkpt>
<trkpt lon="-4.352661" lat="43.315080"><ele>70.25</ele></trkpt>
<trkpt lon="-4.352851" lat="43.314917"><ele>70.25</ele></trkpt>
<trkpt lon="-4.352979" lat="43.314823"><ele>71.0</ele></trkpt>
<trkpt lon="-4.353274" lat="43.314692"><ele>70.5</ele></trkpt>
<trkpt lon="-4.353607" lat="43.314580"><ele>68.0</ele></trkpt>
<trkpt lon="-4.353784" lat="43.314553"><ele>67.5</ele></trkpt>
<trkpt lon="-4.354262" lat="43.314524"><ele>63.5</ele></trkpt>
<trkpt lon="-4.354443" lat="43.314502"><ele>61.25</ele></trkpt>
<trkpt lon="-4.355200" lat="43.314498"><ele>57.25</ele></trkpt>
<trkpt lon="-4.355372" lat="43.314509"><ele>56.25</ele></trkpt>
<trkpt lon="-4.355445" lat="43.314486"><ele>55.75</ele></trkpt>
<trkpt lon="-4.355721" lat="43.314323"><ele>55.0</ele></trkpt>
<trkpt lon="-4.355902" lat="43.314166"><ele>55.0</ele></trkpt>
<trkpt lon="-4.355964" lat="43.314081"><ele>55.25</ele></trkpt>
<trkpt lon="-4.355993" lat="43.313988"><ele>55.5</ele></trkpt>
<trkpt lon="-4.356121" lat="43.313741"><ele>55.25</ele></trkpt>
<trkpt lon="-4.356173" lat="43.313664"><ele>55.25</ele></trkpt>
<trkpt lon="-4.356230" lat="43.313602"><ele>55.0</ele></trkpt>
<trkpt lon="-4.356292" lat="43.313560"><ele>54.5</ele></trkpt>
<trkpt lon="-4.356516" lat="43.313414"><ele>55.0</ele></trkpt>
<trkpt lon="-4.356542" lat="43.313376"><ele>55.25</ele></trkpt>
<trkpt lon="-4.356676" lat="43.313377"><ele>55.5</ele></trkpt>
<trkpt lon="-4.356950" lat="43.313365"><ele>55.0</ele></trkpt>
<trkpt lon="-4.357061" lat="43.313346"><ele>55.25</ele></trkpt>
<trkpt lon="-4.357355" lat="43.313338"><ele>55.75</ele></trkpt>
<trkpt lon="-4.357830" lat="43.313344"><ele>55.75</ele></trkpt>
<trkpt lon="-4.358253" lat="43.313344"><ele>56.5</ele></trkpt>
<trkpt lon="-4.358331" lat="43.313343"><ele>56.75</ele></trkpt>
<trkpt lon="-4.358587" lat="43.313343"><ele>57.75</ele></trkpt>
<trkpt lon="-4.358697" lat="43.313352"><ele>58.0</ele></trkpt>
<trkpt lon="-4.358863" lat="43.313372"><ele>58.5</ele></trkpt>
<trkpt lon="-4.359429" lat="43.313375"><ele>58.75</ele></trkpt>
<trkpt lon="-4.359551" lat="43.313263"><ele>60.25</ele></trkpt>
<trkpt lon="-4.359641" lat="43.313203"><ele>61.0</ele></trkpt>
<trkpt lon="-4.359741" lat="43.313153"><ele>61.5</ele></trkpt>
<trkpt lon="-4.359850" lat="43.313141"><ele>61.5</ele></trkpt>
<trkpt lon="-4.359964" lat="43.313142"><ele>61.25</ele></trkpt>
<trkpt lon="-4.360017" lat="43.313134"><ele>61.5</ele></trkpt>
<trkpt lon="-4.360079" lat="43.313086"><ele>62.5</ele></trkpt>
<trkpt lon="-4.360086" lat="43.313041"><ele>62.5</ele></trkpt>
<trkpt lon="-4.360087" lat="43.312891"><ele>63.0</ele></trkpt>
<trkpt lon="-4.360117" lat="43.312771"><ele>64.0</ele></trkpt>
<trkpt lon="-4.360202" lat="43.312726"><ele>65.25</ele></trkpt>
<trkpt lon="-4.360248" lat="43.312714"><ele>65.5</ele></trkpt>
<trkpt lon="-4.360362" lat="43.312705"><ele>66.5</ele></trkpt>
<trkpt lon="-4.360657" lat="43.312695"><ele>69.0</ele></trkpt>
<trkpt lon="-4.360742" lat="43.312719"><ele>68.75</ele></trkpt>
<trkpt lon="-4.360846" lat="43.312758"><ele>68.25</ele></trkpt>
<trkpt lon="-4.360969" lat="43.312790"><ele>68.25</ele></trkpt>
<trkpt lon="-4.361087" lat="43.312791"><ele>68.25</ele></trkpt>
<trkpt lon="-4.361516" lat="43.312689"><ele>72.5</ele></trkpt>
<trkpt lon="-4.361640" lat="43.312643"><ele>72.5</ele></trkpt>
<trkpt lon="-4.361830" lat="43.312540"><ele>74.25</ele></trkpt>
<trkpt lon="-4.361988" lat="43.312431"><ele>75.75</ele></trkpt>
<trkpt lon="-4.362256" lat="43.312229"><ele>74.0</ele></trkpt>
<trkpt lon="-4.362526" lat="43.312075"><ele>76.75</ele></trkpt>
<trkpt lon="-4.362629" lat="43.312028"><ele>77.5</ele></trkpt>
<trkpt lon="-4.362749" lat="43.311996"><ele>78.0</ele></trkpt>
<trkpt lon="-4.362975" lat="43.311956"><ele>78.75</ele></trkpt>
<trkpt lon="-4.363208" lat="43.311924"><ele>81.5</ele></trkpt>
<trkpt lon="-4.363467" lat="43.311860"><ele>84.25</ele></trkpt>
<trkpt lon="-4.363577" lat="43.311847"><ele>84.75</ele></trkpt>
<trkpt lon="-4.363897" lat="43.311857"><ele>85.25</ele></trkpt>
<trkpt lon="-4.364392" lat="43.311835"><ele>88.5</ele></trkpt>
<trkpt lon="-4.364579" lat="43.311811"><ele>91.0</ele></trkpt>
<trkpt lon="-4.364714" lat="43.311780"><ele>91.75</ele></trkpt>
<trkpt lon="-4.364849" lat="43.311768"><ele>92.75</ele></trkpt>
<trkpt lon="-4.365365" lat="43.311671"><ele>93.5</ele></trkpt>
<trkpt lon="-4.365635" lat="43.311664"><ele>96.25</ele></trkpt>
<trkpt lon="-4.365826" lat="43.311674"><ele>97.5</ele></trkpt>
<trkpt lon="-4.365923" lat="43.311664"><ele>98.25</ele></trkpt>
<trkpt lon="-4.366092" lat="43.311623"><ele>99.75</ele></trkpt>
<trkpt lon="-4.366216" lat="43.311581"><ele>101.25</ele></trkpt>
<trkpt lon="-4.366300" lat="43.311570"><ele>102.5</ele></trkpt>
<trkpt lon="-4.366932" lat="43.311517"><ele>106.75</ele></trkpt>
<trkpt lon="-4.367124" lat="43.311496"><ele>107.25</ele></trkpt>
<trkpt lon="-4.367376" lat="43.311492"><ele>110.5</ele></trkpt>
<trkpt lon="-4.367530" lat="43.311476"><ele>111.75</ele></trkpt>
<trkpt lon="-4.367859" lat="43.311430"><ele>114.0</ele></trkpt>
<trkpt lon="-4.368292" lat="43.311344"><ele>117.25</ele></trkpt>
<trkpt lon="-4.368472" lat="43.311315"><ele>118.5</ele></trkpt>
<trkpt lon="-4.368567" lat="43.311308"><ele>119.5</ele></trkpt>
<trkpt lon="-4.368714" lat="43.311317"><ele>120.5</ele></trkpt>
<trkpt lon="-4.368811" lat="43.311325"><ele>120.75</ele></trkpt>
<trkpt lon="-4.369116" lat="43.311368"><ele>121.75</ele></trkpt>
<trkpt lon="-4.369273" lat="43.311380"><ele>121.75</ele></trkpt>
<trkpt lon="-4.369412" lat="43.311372"><ele>121.75</ele></trkpt>
<trkpt lon="-4.369510" lat="43.311361"><ele>123.25</ele></trkpt>
<trkpt lon="-4.369589" lat="43.311344"><ele>124.75</ele></trkpt>
<trkpt lon="-4.369776" lat="43.311273"><ele>125.75</ele></trkpt>
<trkpt lon="-4.370068" lat="43.311221"><ele>124.75</ele></trkpt>
<trkpt lon="-4.370145" lat="43.311200"><ele>125.25</ele></trkpt>
<trkpt lon="-4.370387" lat="43.311141"><ele>127.25</ele></trkpt>
<trkpt lon="-4.370578" lat="43.311063"><ele>128.25</ele></trkpt>
<trkpt lon="-4.370785" lat="43.310991"><ele>130.5</ele></trkpt>
<trkpt lon="-4.371141" lat="43.310824"><ele>127.0</ele></trkpt>
<trkpt lon="-4.371299" lat="43.310788"><ele>127.75</ele></trkpt>
<trkpt lon="-4.371440" lat="43.310747"><ele>128.5</ele></trkpt>
<trkpt lon="-4.371566" lat="43.310699"><ele>129.25</ele></trkpt>
<trkpt lon="-4.371752" lat="43.310649"><ele>129.25</ele></trkpt>
<trkpt lon="-4.371947" lat="43.310606"><ele>128.75</ele></trkpt>
<trkpt lon="-4.372087" lat="43.310561"><ele>127.75</ele></trkpt>
<trkpt lon="-4.372190" lat="43.310516"><ele>128.75</ele></trkpt>
<trkpt lon="-4.372249" lat="43.310482"><ele>129.25</ele></trkpt>
<trkpt lon="-4.372348" lat="43.310401"><ele>130.25</ele></trkpt>
<trkpt lon="-4.372453" lat="43.310327"><ele>130.0</ele></trkpt>
<trkpt lon="-4.372488" lat="43.310282"><ele>129.0</ele></trkpt>
<trkpt lon="-4.372497" lat="43.310191"><ele>129.25</ele></trkpt>
<trkpt lon="-4.372517" lat="43.310108"><ele>129.75</ele></trkpt>
<trkpt lon="-4.372619" lat="43.309970"><ele>130.25</ele></trkpt>
<trkpt lon="-4.372646" lat="43.309919"><ele>130.5</ele></trkpt>
<trkpt lon="-4.372635" lat="43.309861"><ele>131.25</ele></trkpt>
<trkpt lon="-4.372643" lat="43.309808"><ele>131.5</ele></trkpt>
<trkpt lon="-4.372495" lat="43.309906"><ele>131.0</ele></trkpt>
<trkpt lon="-4.372322" lat="43.310049"><ele>136.0</ele></trkpt>
<trkpt lon="-4.372256" lat="43.310155"><ele>134.0</ele></trkpt>
<trkpt lon="-4.372167" lat="43.310258"><ele>131.75</ele></trkpt>
<trkpt lon="-4.372010" lat="43.310375"><ele>133.0</ele></trkpt>
<trkpt lon="-4.371871" lat="43.310453"><ele>130.75</ele></trkpt>
<trkpt lon="-4.371756" lat="43.310485"><ele>129.25</ele></trkpt>
<trkpt lon="-4.371607" lat="43.310494"><ele>128.75</ele></trkpt>
<trkpt lon="-4.371479" lat="43.310487"><ele>129.25</ele></trkpt>
<trkpt lon="-4.371306" lat="43.310462"><ele>131.75</ele></trkpt>
<trkpt lon="-4.371185" lat="43.310453"><ele>133.25</ele></trkpt>
<trkpt lon="-4.370800" lat="43.310456"><ele>136.0</ele></trkpt>
<trkpt lon="-4.370569" lat="43.310370"><ele>138.25</ele></trkpt>
<trkpt lon="-4.370456" lat="43.310343"><ele>140.0</ele></trkpt>
<trkpt lon="-4.370228" lat="43.310316"><ele>142.5</ele></trkpt>
<trkpt lon="-4.370084" lat="43.310305"><ele>143.5</ele></trkpt>
<trkpt lon="-4.369789" lat="43.310245"><ele>146.0</ele></trkpt>
<trkpt lon="-4.369632" lat="43.310209"><ele>147.25</ele></trkpt>
<trkpt lon="-4.369126" lat="43.310037"><ele>150.75</ele></trkpt>
<trkpt lon="-4.369057" lat="43.309996"><ele>151.75</ele></trkpt>
<trkpt lon="-4.369071" lat="43.309954"><ele>153.75</ele></trkpt>
<trkpt lon="-4.369334" lat="43.309968"><ele>157.5</ele></trkpt>
<trkpt lon="-4.369517" lat="43.309959"><ele>160.25</ele></trkpt>
<trkpt lon="-4.369946" lat="43.309843"><ele>165.75</ele></trkpt>
<trkpt lon="-4.370215" lat="43.309788"><ele>167.25</ele></trkpt>
<trkpt lon="-4.370439" lat="43.309752"><ele>169.5</ele></trkpt>
<trkpt lon="-4.370841" lat="43.309716"><ele>172.0</ele></trkpt>
<trkpt lon="-4.371179" lat="43.309671"><ele>174.0</ele></trkpt>
<trkpt lon="-4.371251" lat="43.309624"><ele>174.75</ele></trkpt>
<trkpt lon="-4.371280" lat="43.309548"><ele>175.75</ele></trkpt>
<trkpt lon="-4.371169" lat="43.309462"><ele>178.0</ele></trkpt>
<trkpt lon="-4.371104" lat="43.309380"><ele>180.25</ele></trkpt>
<trkpt lon="-4.370974" lat="43.309352"><ele>182.5</ele></trkpt>
<trkpt lon="-4.370933" lat="43.309315"><ele>184.0</ele></trkpt>
<trkpt lon="-4.370937" lat="43.309201"><ele>186.5</ele></trkpt>
<trkpt lon="-4.370900" lat="43.309079"><ele>189.5</ele></trkpt>
<trkpt lon="-4.370766" lat="43.308960"><ele>194.25</ele></trkpt>
<trkpt lon="-4.370615" lat="43.308809"><ele>198.0</ele></trkpt>
<trkpt lon="-4.370313" lat="43.308402"><ele>203.25</ele></trkpt>
<trkpt lon="-4.370150" lat="43.308194"><ele>205.5</ele></trkpt>
<trkpt lon="-4.370023" lat="43.308071"><ele>206.75</ele></trkpt>
<trkpt lon="-4.369905" lat="43.308014"><ele>208.0</ele></trkpt>
<trkpt lon="-4.369671" lat="43.307877"><ele>210.25</ele></trkpt>
<trkpt lon="-4.369704" lat="43.307832"><ele>210.75</ele></trkpt>
<trkpt lon="-4.369845" lat="43.307739"><ele>210.5</ele></trkpt>
<trkpt lon="-4.370043" lat="43.307558"><ele>213.0</ele></trkpt>
<trkpt lon="-4.370082" lat="43.307510"><ele>213.75</ele></trkpt>
<trkpt lon="-4.370170" lat="43.307429"><ele>215.0</ele></trkpt>
<trkpt lon="-4.370187" lat="43.307390"><ele>216.0</ele></trkpt>
<trkpt lon="-4.370179" lat="43.307347"><ele>217.25</ele></trkpt>
<trkpt lon="-4.370139" lat="43.307312"><ele>218.75</ele></trkpt>
<trkpt lon="-4.370069" lat="43.307285"><ele>220.75</ele></trkpt>
<trkpt lon="-4.369792" lat="43.307242"><ele>225.5</ele></trkpt>
<trkpt lon="-4.369707" lat="43.307177"><ele>227.0</ele></trkpt>
<trkpt lon="-4.369661" lat="43.307118"><ele>227.75</ele></trkpt>
<trkpt lon="-4.369604" lat="43.307067"><ele>228.75</ele></trkpt>
<trkpt lon="-4.369535" lat="43.307043"><ele>230.25</ele></trkpt>
<trkpt lon="-4.369441" lat="43.307037"><ele>232.0</ele></trkpt>
<trkpt lon="-4.369203" lat="43.307008"><ele>237.0</ele></trkpt>
<trkpt lon="-4.369078" lat="43.306964"><ele>239.5</ele></trkpt>
<trkpt lon="-4.368965" lat="43.306915"><ele>240.5</ele></trkpt>
<trkpt lon="-4.368836" lat="43.306807"><ele>240.5</ele></trkpt>
<trkpt lon="-4.368768" lat="43.306675"><ele>240.0</ele></trkpt>
<trkpt lon="-4.368718" lat="43.306387"><ele>238.75</ele></trkpt>
<trkpt lon="-4.368664" lat="43.306189"><ele>240.0</ele></trkpt>
<trkpt lon="-4.368626" lat="43.306108"><ele>240.5</ele></trkpt>
<trkpt lon="-4.368548" lat="43.305984"><ele>243.25</ele></trkpt>
<trkpt lon="-4.368537" lat="43.305911"><ele>244.25</ele></trkpt>
<trkpt lon="-4.368559" lat="43.305825"><ele>244.75</ele></trkpt>
<trkpt lon="-4.368511" lat="43.305772"><ele>246.75</ele></trkpt>
<trkpt lon="-4.368334" lat="43.305669"><ele>251.5</ele></trkpt>
<trkpt lon="-4.368240" lat="43.305637"><ele>252.75</ele></trkpt>
<trkpt lon="-4.368122" lat="43.305617"><ele>254.25</ele></trkpt>
<trkpt lon="-4.368030" lat="43.305609"><ele>255.25</ele></trkpt>
<trkpt lon="-4.367843" lat="43.305612"><ele>257.25</ele></trkpt>
<trkpt lon="-4.367659" lat="43.305598"><ele>259.25</ele></trkpt>
<trkpt lon="-4.367585" lat="43.305584"><ele>260.25</ele></trkpt>
<trkpt lon="-4.367524" lat="43.305596"><ele>260.25</ele></trkpt>
<trkpt lon="-4.367476" lat="43.305576"><ele>261.0</ele></trkpt>
<trkpt lon="-4.367465" lat="43.305545"><ele>262.25</ele></trkpt>
<trkpt lon="-4.367507" lat="43.305518"><ele>263.75</ele></trkpt>
<trkpt lon="-4.367583" lat="43.305488"><ele>264.75</ele></trkpt>
<trkpt lon="-4.367786" lat="43.305366"><ele>270.0</ele></trkpt>
<trkpt lon="-4.368006" lat="43.305258"><ele>274.25</ele></trkpt>
<trkpt lon="-4.368201" lat="43.305193"><ele>276.25</ele></trkpt>
<trkpt lon="-4.368406" lat="43.305136"><ele>277.5</ele></trkpt>
<trkpt lon="-4.368624" lat="43.305010"><ele>284.25</ele></trkpt>
<trkpt lon="-4.368843" lat="43.304915"><ele>288.5</ele></trkpt>
<trkpt lon="-4.369107" lat="43.304845"><ele>290.0</ele></trkpt>
<trkpt lon="-4.369270" lat="43.304797"><ele>291.25</ele></trkpt>
<trkpt lon="-4.369528" lat="43.304699"><ele>294.75</ele></trkpt>
<trkpt lon="-4.369744" lat="43.304675"><ele>295.25</ele></trkpt>
<trkpt lon="-4.369862" lat="43.304653"><ele>295.0</ele></trkpt>
<trkpt lon="-4.369954" lat="43.304624"><ele>295.5</ele></trkpt>
<trkpt lon="-4.370028" lat="43.304575"><ele>297.0</ele></trkpt>
<trkpt lon="-4.370122" lat="43.304486"><ele>299.75</ele></trkpt>
<trkpt lon="-4.370205" lat="43.304384"><ele>301.0</ele></trkpt>
<trkpt lon="-4.370242" lat="43.304324"><ele>301.5</ele></trkpt>
<trkpt lon="-4.370262" lat="43.304257"><ele>302.5</ele></trkpt>
<trkpt lon="-4.370301" lat="43.304171"><ele>303.75</ele></trkpt>
<trkpt lon="-4.370360" lat="43.304100"><ele>305.0</ele></trkpt>
<trkpt lon="-4.370436" lat="43.304033"><ele>305.5</ele></trkpt>
<trkpt lon="-4.370550" lat="43.303996"><ele>305.0</ele></trkpt>
<trkpt lon="-4.370737" lat="43.303946"><ele>304.0</ele></trkpt>
<trkpt lon="-4.370938" lat="43.303819"><ele>304.5</ele></trkpt>
<trkpt lon="-4.371004" lat="43.303745"><ele>305.75</ele></trkpt>
<trkpt lon="-4.371065" lat="43.303669"><ele>306.0</ele></trkpt>
<trkpt lon="-4.371135" lat="43.303506"><ele>307.25</ele></trkpt>
<trkpt lon="-4.371242" lat="43.303321"><ele>311.25</ele></trkpt>
<trkpt lon="-4.371301" lat="43.303156"><ele>314.0</ele></trkpt>
<trkpt lon="-4.371314" lat="43.303088"><ele>314.75</ele></trkpt>
<trkpt lon="-4.371316" lat="43.302937"><ele>315.75</ele></trkpt>
<trkpt lon="-4.371338" lat="43.302850"><ele>316.5</ele></trkpt>
<trkpt lon="-4.371412" lat="43.302726"><ele>318.5</ele></trkpt>
<trkpt lon="-4.371475" lat="43.302589"><ele>320.0</ele></trkpt>
<trkpt lon="-4.371556" lat="43.302363"><ele>322.25</ele></trkpt>
<trkpt lon="-4.371604" lat="43.302270"><ele>324.0</ele></trkpt>
<trkpt lon="-4.371652" lat="43.302209"><ele>325.25</ele></trkpt>
<trkpt lon="-4.371742" lat="43.302136"><ele>327.0</ele></trkpt>
<trkpt lon="-4.371870" lat="43.302050"><ele>329.0</ele></trkpt>
<trkpt lon="-4.371929" lat="43.301966"><ele>329.0</ele></trkpt>
<trkpt lon="-4.371966" lat="43.301873"><ele>328.25</ele></trkpt>
<trkpt lon="-4.372025" lat="43.301801"><ele>328.25</ele></trkpt>
<trkpt lon="-4.372117" lat="43.301725"><ele>328.5</ele></trkpt>
<trkpt lon="-4.372294" lat="43.301628"><ele>330.75</ele></trkpt>
<trkpt lon="-4.372468" lat="43.301553"><ele>333.25</ele></trkpt>
<trkpt lon="-4.372661" lat="43.301485"><ele>333.0</ele></trkpt>
<trkpt lon="-4.372704" lat="43.301442"><ele>332.5</ele></trkpt>
<trkpt lon="-4.372704" lat="43.301394"><ele>332.0</ele></trkpt>
<trkpt lon="-4.372654" lat="43.301355"><ele>332.25</ele></trkpt>
<trkpt lon="-4.372560" lat="43.301320"><ele>333.25</ele></trkpt>
<trkpt lon="-4.372468" lat="43.301301"><ele>334.0</ele></trkpt>
<trkpt lon="-4.372327" lat="43.301261"><ele>335.75</ele></trkpt>
<trkpt lon="-4.372314" lat="43.301231"><ele>336.75</ele></trkpt>
<trkpt lon="-4.372340" lat="43.301183"><ele>337.75</ele></trkpt>
<trkpt lon="-4.372565" lat="43.300853"><ele>345.0</ele></trkpt>
<trkpt lon="-4.372599" lat="43.300786"><ele>346.25</ele></trkpt>
<trkpt lon="-4.372650" lat="43.300657"><ele>348.5</ele></trkpt>
<trkpt lon="-4.372645" lat="43.300519"><ele>352.25</ele></trkpt>
<trkpt lon="-4.372781" lat="43.300297"><ele>356.25</ele></trkpt>
<trkpt lon="-4.372816" lat="43.300217"><ele>358.0</ele></trkpt>
<trkpt lon="-4.372827" lat="43.300160"><ele>359.5</ele></trkpt>
<trkpt lon="-4.372809" lat="43.300088"><ele>361.75</ele></trkpt>
<trkpt lon="-4.372785" lat="43.300034"><ele>363.75</ele></trkpt>
<trkpt lon="-4.372737" lat="43.300004"><ele>365.25</ele></trkpt>
<trkpt lon="-4.372623" lat="43.300006"><ele>366.5</ele></trkpt>
<trkpt lon="-4.372543" lat="43.300023"><ele>366.75</ele></trkpt>
<trkpt lon="-4.372732" lat="43.299577"><ele>371.5</ele></trkpt>
<trkpt lon="-4.373599" lat="43.299295"><ele>375.5</ele></trkpt>
<trkpt lon="-4.373921" lat="43.299156"><ele>381.5</ele></trkpt>
<trkpt lon="-4.374283" lat="43.299071"><ele>389.5</ele></trkpt>
<trkpt lon="-4.374571" lat="43.298903"><ele>394.25</ele></trkpt>
<trkpt lon="-4.375325" lat="43.298763"><ele>404.5</ele></trkpt>
<trkpt lon="-4.375814" lat="43.298535"><ele>415.0</ele></trkpt>
<trkpt lon="-4.376127" lat="43.298550"><ele>418.25</ele></trkpt>
<trkpt lon="-4.376468" lat="43.298464"><ele>421.0</ele></trkpt>
<trkpt lon="-4.377658" lat="43.298211"><ele>436.5</ele></trkpt>
<trkpt lon="-4.377949" lat="43.298122"><ele>438.5</ele></trkpt>
<trkpt lon="-4.378889" lat="43.297967"><ele>447.0</ele></trkpt>
<trkpt lon="-4.379218" lat="43.297935"><ele>452.5</ele></trkpt>
<trkpt lon="-4.379474" lat="43.297887"><ele>455.0</ele></trkpt>
<trkpt lon="-4.379707" lat="43.297923"><ele>458.75</ele></trkpt>
<trkpt lon="-4.380200" lat="43.297824"><ele>459.5</ele></trkpt>
<trkpt lon="-4.380748" lat="43.297639"><ele>459.75</ele></trkpt>
<trkpt lon="-4.381371" lat="43.297295"><ele>460.0</ele></trkpt>
<trkpt lon="-4.381518" lat="43.296834"><ele>465.75</ele></trkpt>
<trkpt lon="-4.381383" lat="43.296124"><ele>486.5</ele></trkpt>
<trkpt lon="-4.381023" lat="43.295948"><ele>487.25</ele></trkpt>
<trkpt lon="-4.381403" lat="43.295919"><ele>490.5</ele></trkpt>
<trkpt lon="-4.381721" lat="43.295913"><ele>493.0</ele></trkpt>
<trkpt lon="-4.381971" lat="43.295931"><ele>494.25</ele></trkpt>
<trkpt lon="-4.382089" lat="43.295949"><ele>494.5</ele></trkpt>
<trkpt lon="-4.382670" lat="43.296059"><ele>497.25</ele></trkpt>
<trkpt lon="-4.383036" lat="43.296149"><ele>497.5</ele></trkpt>
<trkpt lon="-4.383177" lat="43.296217"><ele>497.25</ele></trkpt>
<trkpt lon="-4.383353" lat="43.296326"><ele>496.25</ele></trkpt>
<trkpt lon="-4.383528" lat="43.296407"><ele>496.25</ele></trkpt>
<trkpt lon="-4.383689" lat="43.296455"><ele>496.75</ele></trkpt>
<trkpt lon="-4.383784" lat="43.296506"><ele>496.5</ele></trkpt>
<trkpt lon="-4.383839" lat="43.296538"><ele>496.5</ele></trkpt>
<trkpt lon="-4.383901" lat="43.296631"><ele>495.5</ele></trkpt>
<trkpt lon="-4.383969" lat="43.296669"><ele>495.25</ele></trkpt>
<trkpt lon="-4.384136" lat="43.296704"><ele>495.5</ele></trkpt>
<trkpt lon="-4.384221" lat="43.296694"><ele>495.75</ele></trkpt>
<trkpt lon="-4.384289" lat="43.296677"><ele>496.0</ele></trkpt>
<trkpt lon="-4.384492" lat="43.296602"><ele>497.5</ele></trkpt>
<trkpt lon="-4.384577" lat="43.296582"><ele>498.25</ele></trkpt>
<trkpt lon="-4.384875" lat="43.296556"><ele>500.0</ele></trkpt>
<trkpt lon="-4.385092" lat="43.296528"><ele>501.75</ele></trkpt>
<trkpt lon="-4.385587" lat="43.296488"><ele>504.25</ele></trkpt>
<trkpt lon="-4.385690" lat="43.296455"><ele>504.75</ele></trkpt>
<trkpt lon="-4.385814" lat="43.296428"><ele>505.5</ele></trkpt>
<trkpt lon="-4.385920" lat="43.296397"><ele>507.0</ele></trkpt>
<trkpt lon="-4.386039" lat="43.296391"><ele>508.75</ele></trkpt>
<trkpt lon="-4.386126" lat="43.296380"><ele>510.25</ele></trkpt>
<trkpt lon="-4.386225" lat="43.296356"><ele>512.75</ele></trkpt>
<trkpt lon="-4.386310" lat="43.296314"><ele>515.0</ele></trkpt>
<trkpt lon="-4.386481" lat="43.296118"><ele>521.5</ele></trkpt>
<trkpt lon="-4.386517" lat="43.296060"><ele>523.25</ele></trkpt>
<trkpt lon="-4.386578" lat="43.295861"><ele>529.25</ele></trkpt>
<trkpt lon="-4.386620" lat="43.295785"><ele>531.25</ele></trkpt>
<trkpt lon="-4.386726" lat="43.295704"><ele>534.0</ele></trkpt>
<trkpt lon="-4.386787" lat="43.295672"><ele>535.25</ele></trkpt>
<trkpt lon="-4.386851" lat="43.295651"><ele>536.5</ele></trkpt>
<trkpt lon="-4.387135" lat="43.295627"><ele>540.25</ele></trkpt>
<trkpt lon="-4.387263" lat="43.295630"><ele>541.75</ele></trkpt>
<trkpt lon="-4.387444" lat="43.295667"><ele>542.5</ele></trkpt>
<trkpt lon="-4.387532" lat="43.295671"><ele>543.5</ele></trkpt>
<trkpt lon="-4.387756" lat="43.295649"><ele>547.25</ele></trkpt>
<trkpt lon="-4.387990" lat="43.295612"><ele>551.75</ele></trkpt>
<trkpt lon="-4.388099" lat="43.295601"><ele>553.75</ele></trkpt>
<trkpt lon="-4.388315" lat="43.295589"><ele>558.75</ele></trkpt>
<trkpt lon="-4.388417" lat="43.295592"><ele>561.0</ele></trkpt>
<trkpt lon="-4.388473" lat="43.295607"><ele>561.75</ele></trkpt>
<trkpt lon="-4.388574" lat="43.295646"><ele>563.0</ele></trkpt>
<trkpt lon="-4.388737" lat="43.295726"><ele>565.75</ele></trkpt>
<trkpt lon="-4.388955" lat="43.295882"><ele>570.0</ele></trkpt>
<trkpt lon="-4.389021" lat="43.295956"><ele>572.0</ele></trkpt>
<trkpt lon="-4.389035" lat="43.296001"><ele>572.25</ele></trkpt>
<trkpt lon="-4.389017" lat="43.296163"><ele>570.5</ele></trkpt>
<trkpt lon="-4.389029" lat="43.296298"><ele>569.75</ele></trkpt>
<trkpt lon="-4.389050" lat="43.296343"><ele>569.75</ele></trkpt>
<trkpt lon="-4.389091" lat="43.296379"><ele>570.25</ele></trkpt>
<trkpt lon="-4.389174" lat="43.296387"><ele>572.0</ele></trkpt>
<trkpt lon="-4.389236" lat="43.296385"><ele>573.25</ele></trkpt>
<trkpt lon="-4.389414" lat="43.296321"><ele>577.75</ele></trkpt>
<trkpt lon="-4.389472" lat="43.296279"><ele>579.5</ele></trkpt>
<trkpt lon="-4.389832" lat="43.295955"><ele>592.0</ele></trkpt>
<trkpt lon="-4.389986" lat="43.295855"><ele>596.25</ele></trkpt>
<trkpt lon="-4.390067" lat="43.295813"><ele>598.0</ele></trkpt>
<trkpt lon="-4.390162" lat="43.295774"><ele>600.0</ele></trkpt>
<trkpt lon="-4.390817" lat="43.295715"><ele>607.25</ele></trkpt>
<trkpt lon="-4.390941" lat="43.295721"><ele>607.5</ele></trkpt>
<trkpt lon="-4.391224" lat="43.295719"><ele>608.25</ele></trkpt>
<trkpt lon="-4.391398" lat="43.295691"><ele>609.5</ele></trkpt>
<trkpt lon="-4.391665" lat="43.295679"><ele>610.25</ele></trkpt>
<trkpt lon="-4.391826" lat="43.295654"><ele>611.0</ele></trkpt>
<trkpt lon="-4.392160" lat="43.295651"><ele>614.0</ele></trkpt>
<trkpt lon="-4.392694" lat="43.295627"><ele>622.5</ele></trkpt>
<trkpt lon="-4.392861" lat="43.295605"><ele>624.5</ele></trkpt>
<trkpt lon="-4.393043" lat="43.295599"><ele>625.75</ele></trkpt>
<trkpt lon="-4.393223" lat="43.295609"><ele>629.25</ele></trkpt>
<trkpt lon="-4.393390" lat="43.295595"><ele>633.0</ele></trkpt>
<trkpt lon="-4.393669" lat="43.295556"><ele>638.75</ele></trkpt>
<trkpt lon="-4.393883" lat="43.295552"><ele>641.75</ele></trkpt>
<trkpt lon="-4.394028" lat="43.295556"><ele>642.75</ele></trkpt>
<trkpt lon="-4.394131" lat="43.295571"><ele>643.5</ele></trkpt>
<trkpt lon="-4.394298" lat="43.295581"><ele>644.0</ele></trkpt>
<trkpt lon="-4.394382" lat="43.295563"><ele>644.5</ele></trkpt>
<trkpt lon="-4.394478" lat="43.295482"><ele>645.5</ele></trkpt>
<trkpt lon="-4.394596" lat="43.295459"><ele>646.0</ele></trkpt>
<trkpt lon="-4.394815" lat="43.295468"><ele>646.75</ele></trkpt>
<trkpt lon="-4.395022" lat="43.295468"><ele>647.25</ele></trkpt>
<trkpt lon="-4.395112" lat="43.295498"><ele>647.25</ele></trkpt>
<trkpt lon="-4.395258" lat="43.295587"><ele>647.0</ele></trkpt>
<trkpt lon="-4.395426" lat="43.295566"><ele>648.0</ele></trkpt>
<trkpt lon="-4.395723" lat="43.295501"><ele>649.5</ele></trkpt>
<trkpt lon="-4.395909" lat="43.295450"><ele>650.0</ele></trkpt>
<trkpt lon="-4.396133" lat="43.295422"><ele>650.0</ele></trkpt>
<trkpt lon="-4.396356" lat="43.295403"><ele>650.75</ele></trkpt>
<trkpt lon="-4.396560" lat="43.295397"><ele>651.0</ele></trkpt>
<trkpt lon="-4.396785" lat="43.295404"><ele>651.0</ele></trkpt>
<trkpt lon="-4.396950" lat="43.295392"><ele>651.0</ele></trkpt>
<trkpt lon="-4.397246" lat="43.295341"><ele>650.75</ele></trkpt>
<trkpt lon="-4.397444" lat="43.295332"><ele>650.0</ele></trkpt>
<trkpt lon="-4.397550" lat="43.295336"><ele>649.5</ele></trkpt>
<trkpt lon="-4.397756" lat="43.295370"><ele>648.0</ele></trkpt>
<trkpt lon="-4.398019" lat="43.295431"><ele>650.0</ele></trkpt>
<trkpt lon="-4.398341" lat="43.295587"><ele>650.5</ele></trkpt>
<trkpt lon="-4.398433" lat="43.295615"><ele>650.75</ele></trkpt>
<trkpt lon="-4.398540" lat="43.295627"><ele>651.0</ele></trkpt>
<trkpt lon="-4.398853" lat="43.295633"><ele>652.25</ele></trkpt>
<trkpt lon="-4.399026" lat="43.295625"><ele>652.75</ele></trkpt>
<trkpt lon="-4.399170" lat="43.295603"><ele>653.5</ele></trkpt>
<trkpt lon="-4.399255" lat="43.295593"><ele>653.5</ele></trkpt>
<trkpt lon="-4.399448" lat="43.295552"><ele>654.0</ele></trkpt>
<trkpt lon="-4.399675" lat="43.295524"><ele>654.0</ele></trkpt>
<trkpt lon="-4.399903" lat="43.295524"><ele>654.75</ele></trkpt>
<trkpt lon="-4.399780" lat="43.295467"><ele>654.75</ele></trkpt>
<trkpt lon="-4.399504" lat="43.295392"><ele>655.0</ele></trkpt>
<trkpt lon="-4.398879" lat="43.295184"><ele>657.25</ele></trkpt>
<trkpt lon="-4.398718" lat="43.295136"><ele>658.0</ele></trkpt>
<trkpt lon="-4.398600" lat="43.295122"><ele>658.0</ele></trkpt>
<trkpt lon="-4.397958" lat="43.295092"><ele>655.5</ele></trkpt>
<trkpt lon="-4.397796" lat="43.295100"><ele>655.25</ele></trkpt>
<trkpt lon="-4.397655" lat="43.295096"><ele>656.25</ele></trkpt>
<trkpt lon="-4.397367" lat="43.295042"><ele>659.0</ele></trkpt>
<trkpt lon="-4.397127" lat="43.294973"><ele>660.75</ele></trkpt>
<trkpt lon="-4.397053" lat="43.294944"><ele>661.25</ele></trkpt>
<trkpt lon="-4.396993" lat="43.294883"><ele>662.5</ele></trkpt>
<trkpt lon="-4.396969" lat="43.294824"><ele>663.5</ele></trkpt>
<trkpt lon="-4.396964" lat="43.294735"><ele>664.75</ele></trkpt>
<trkpt lon="-4.396992" lat="43.294582"><ele>666.0</ele></trkpt>
<trkpt lon="-4.396997" lat="43.294522"><ele>666.25</ele></trkpt>
<trkpt lon="-4.396979" lat="43.294343"><ele>666.5</ele></trkpt>
<trkpt lon="-4.396951" lat="43.294295"><ele>666.25</ele></trkpt>
<trkpt lon="-4.396884" lat="43.294228"><ele>666.5</ele></trkpt>
<trkpt lon="-4.396739" lat="43.294156"><ele>667.5</ele></trkpt>
<trkpt lon="-4.396479" lat="43.294089"><ele>669.5</ele></trkpt>
<trkpt lon="-4.396376" lat="43.294046"><ele>669.75</ele></trkpt>
<trkpt lon="-4.396094" lat="43.293967"><ele>668.75</ele></trkpt>
<trkpt lon="-4.396002" lat="43.293957"><ele>668.25</ele></trkpt>
<trkpt lon="-4.395895" lat="43.293957"><ele>667.5</ele></trkpt>
<trkpt lon="-4.395802" lat="43.293934"><ele>666.75</ele></trkpt>
<trkpt lon="-4.395652" lat="43.293918"><ele>665.25</ele></trkpt>
<trkpt lon="-4.395607" lat="43.293901"><ele>664.5</ele></trkpt>
<trkpt lon="-4.395518" lat="43.293841"><ele>664.5</ele></trkpt>
<trkpt lon="-4.395411" lat="43.293758"><ele>663.75</ele></trkpt>
<trkpt lon="-4.395341" lat="43.293680"><ele>661.75</ele></trkpt>
<trkpt lon="-4.395251" lat="43.293501"><ele>658.5</ele></trkpt>
<trkpt lon="-4.395191" lat="43.293442"><ele>657.25</ele></trkpt>
<trkpt lon="-4.395057" lat="43.293336"><ele>654.25</ele></trkpt>
<trkpt lon="-4.395021" lat="43.293277"><ele>652.5</ele></trkpt>
<trkpt lon="-4.394918" lat="43.293160"><ele>649.25</ele></trkpt>
<trkpt lon="-4.394767" lat="43.293070"><ele>646.5</ele></trkpt>
<trkpt lon="-4.394598" lat="43.293001"><ele>642.25</ele></trkpt>
<trkpt lon="-4.394378" lat="43.292986"><ele>640.75</ele></trkpt>
<trkpt lon="-4.394331" lat="43.292980"><ele>640.75</ele></trkpt>
<trkpt lon="-4.394115" lat="43.292954"><ele>641.0</ele></trkpt>
<trkpt lon="-4.393999" lat="43.292940"><ele>641.5</ele></trkpt>
<trkpt lon="-4.393708" lat="43.292868"><ele>643.25</ele></trkpt>
<trkpt lon="-4.393545" lat="43.292804"><ele>644.0</ele></trkpt>
<trkpt lon="-4.393353" lat="43.292713"><ele>643.5</ele></trkpt>
<trkpt lon="-4.393134" lat="43.292649"><ele>643.5</ele></trkpt>
<trkpt lon="-4.392270" lat="43.292538"><ele>642.75</ele></trkpt>
<trkpt lon="-4.391918" lat="43.292515"><ele>638.5</ele></trkpt>
<trkpt lon="-4.391565" lat="43.292523"><ele>635.0</ele></trkpt>
<trkpt lon="-4.391281" lat="43.292560"><ele>632.5</ele></trkpt>
<trkpt lon="-4.391150" lat="43.292550"><ele>631.25</ele></trkpt>
<trkpt lon="-4.390985" lat="43.292506"><ele>629.25</ele></trkpt>
<trkpt lon="-4.390672" lat="43.292355"><ele>624.0</ele></trkpt>
<trkpt lon="-4.390473" lat="43.292296"><ele>621.25</ele></trkpt>
<trkpt lon="-4.390395" lat="43.292230"><ele>618.5</ele></trkpt>
<trkpt lon="-4.390347" lat="43.292143"><ele>617.0</ele></trkpt>
<trkpt lon="-4.390327" lat="43.292046"><ele>615.75</ele></trkpt>
<trkpt lon="-4.390313" lat="43.291896"><ele>614.75</ele></trkpt>
<trkpt lon="-4.390324" lat="43.291773"><ele>615.0</ele></trkpt>
<trkpt lon="-4.390315" lat="43.291698"><ele>615.25</ele></trkpt>
<trkpt lon="-4.390296" lat="43.291650"><ele>615.5</ele></trkpt>
<trkpt lon="-4.390220" lat="43.291573"><ele>616.5</ele></trkpt>
<trkpt lon="-4.389986" lat="43.291442"><ele>618.25</ele></trkpt>
<trkpt lon="-4.389926" lat="43.291359"><ele>619.5</ele></trkpt>
<trkpt lon="-4.389886" lat="43.291185"><ele>622.25</ele></trkpt>
<trkpt lon="-4.389872" lat="43.291079"><ele>623.75</ele></trkpt>
<trkpt lon="-4.389919" lat="43.290962"><ele>625.0</ele></trkpt>
<trkpt lon="-4.390019" lat="43.290857"><ele>624.5</ele></trkpt>
<trkpt lon="-4.390186" lat="43.290658"><ele>620.75</ele></trkpt>
<trkpt lon="-4.390221" lat="43.290530"><ele>618.75</ele></trkpt>
<trkpt lon="-4.390226" lat="43.290285"><ele>614.0</ele></trkpt>
<trkpt lon="-4.390217" lat="43.289989"><ele>609.25</ele></trkpt>
<trkpt lon="-4.390181" lat="43.289805"><ele>605.5</ele></trkpt>
<trkpt lon="-4.390138" lat="43.289662"><ele>602.25</ele></trkpt>
<trkpt lon="-4.390106" lat="43.289496"><ele>597.5</ele></trkpt>
<trkpt lon="-4.390110" lat="43.289377"><ele>594.0</ele></trkpt>
<trkpt lon="-4.390363" lat="43.288535"><ele>572.25</ele></trkpt>
<trkpt lon="-4.390484" lat="43.288207"><ele>568.75</ele></trkpt>
<trkpt lon="-4.390482" lat="43.288152"><ele>569.0</ele></trkpt>
<trkpt lon="-4.390460" lat="43.288077"><ele>568.75</ele></trkpt>
<trkpt lon="-4.390455" lat="43.288021"><ele>569.5</ele></trkpt>
<trkpt lon="-4.390408" lat="43.287818"><ele>572.5</ele></trkpt>
<trkpt lon="-4.390372" lat="43.287700"><ele>575.5</ele></trkpt>
<trkpt lon="-4.390320" lat="43.287572"><ele>579.0</ele></trkpt>
<trkpt lon="-4.390186" lat="43.287351"><ele>585.5</ele></trkpt>
<trkpt lon="-4.390046" lat="43.287143"><ele>592.25</ele></trkpt>
<trkpt lon="-4.389892" lat="43.286950"><ele>599.0</ele></trkpt>
<trkpt lon="-4.389900" lat="43.286913"><ele>600.5</ele></trkpt>
<trkpt lon="-4.389941" lat="43.286894"><ele>601.75</ele></trkpt>
<trkpt lon="-4.390130" lat="43.286855"><ele>604.75</ele></trkpt>
<trkpt lon="-4.390236" lat="43.286823"><ele>606.75</ele></trkpt>
<trkpt lon="-4.390581" lat="43.286757"><ele>611.0</ele></trkpt>
<trkpt lon="-4.390831" lat="43.286729"><ele>613.5</ele></trkpt>
<trkpt lon="-4.391029" lat="43.286697"><ele>614.75</ele></trkpt>
<trkpt lon="-4.391235" lat="43.286635"><ele>617.75</ele></trkpt>
<trkpt lon="-4.391363" lat="43.286615"><ele>619.25</ele></trkpt>
<trkpt lon="-4.391572" lat="43.286613"><ele>620.0</ele></trkpt>
<trkpt lon="-4.391930" lat="43.286543"><ele>624.0</ele></trkpt>
<trkpt lon="-4.392076" lat="43.286479"><ele>626.75</ele></trkpt>
<trkpt lon="-4.392166" lat="43.286408"><ele>630.0</ele></trkpt>
<trkpt lon="-4.392271" lat="43.286271"><ele>635.0</ele></trkpt>
<trkpt lon="-4.392385" lat="43.286213"><ele>636.5</ele></trkpt>
<trkpt lon="-4.392700" lat="43.286138"><ele>638.0</ele></trkpt>
<trkpt lon="-4.392846" lat="43.286074"><ele>639.75</ele></trkpt>
<trkpt lon="-4.392965" lat="43.286000"><ele>640.5</ele></trkpt>
<trkpt lon="-4.392991" lat="43.285938"><ele>641.75</ele></trkpt>
<trkpt lon="-4.392958" lat="43.285842"><ele>645.0</ele></trkpt>
<trkpt lon="-4.392914" lat="43.285792"><ele>647.0</ele></trkpt>
<trkpt lon="-4.392831" lat="43.285747"><ele>649.75</ele></trkpt>
<trkpt lon="-4.392722" lat="43.285733"><ele>652.25</ele></trkpt>
<trkpt lon="-4.392611" lat="43.285746"><ele>653.75</ele></trkpt>
<trkpt lon="-4.392404" lat="43.285754"><ele>656.25</ele></trkpt>
<trkpt lon="-4.392268" lat="43.285740"><ele>658.0</ele></trkpt>
<trkpt lon="-4.392126" lat="43.285707"><ele>660.5</ele></trkpt>
<trkpt lon="-4.392077" lat="43.285671"><ele>662.25</ele></trkpt>
<trkpt lon="-4.392066" lat="43.285640"><ele>663.5</ele></trkpt>
<trkpt lon="-4.392083" lat="43.285609"><ele>664.75</ele></trkpt>
<trkpt lon="-4.392137" lat="43.285576"><ele>665.75</ele></trkpt>
<trkpt lon="-4.392245" lat="43.285533"><ele>666.25</ele></trkpt>
<trkpt lon="-4.392323" lat="43.285470"><ele>666.75</ele></trkpt>
<trkpt lon="-4.392358" lat="43.285403"><ele>668.0</ele></trkpt>
<trkpt lon="-4.392335" lat="43.285349"><ele>670.25</ele></trkpt>
<trkpt lon="-4.392280" lat="43.285323"><ele>672.25</ele></trkpt>
<trkpt lon="-4.391978" lat="43.285262"><ele>679.0</ele></trkpt>
<trkpt lon="-4.391846" lat="43.285227"><ele>681.5</ele></trkpt>
<trkpt lon="-4.391748" lat="43.285215"><ele>682.5</ele></trkpt>
<trkpt lon="-4.391202" lat="43.284996"><ele>691.75</ele></trkpt>
<trkpt lon="-4.390992" lat="43.284930"><ele>694.75</ele></trkpt>
<trkpt lon="-4.390716" lat="43.284787"><ele>699.25</ele></trkpt>
<trkpt lon="-4.390575" lat="43.284677"><ele>702.25</ele></trkpt>
<trkpt lon="-4.390282" lat="43.284496"><ele>706.25</ele></trkpt>
<trkpt lon="-4.390049" lat="43.284391"><ele>708.5</ele></trkpt>
<trkpt lon="-4.389815" lat="43.284254"><ele>710.25</ele></trkpt>
<trkpt lon="-4.389596" lat="43.284115"><ele>712.25</ele></trkpt>
<trkpt lon="-4.389411" lat="43.283963"><ele>715.75</ele></trkpt>
<trkpt lon="-4.389350" lat="43.283893"><ele>717.25</ele></trkpt>
<trkpt lon="-4.389345" lat="43.283844"><ele>719.0</ele></trkpt>
<trkpt lon="-4.389373" lat="43.283815"><ele>720.25</ele></trkpt>
<trkpt lon="-4.389421" lat="43.283809"><ele>721.25</ele></trkpt>
<trkpt lon="-4.389559" lat="43.283845"><ele>721.5</ele></trkpt>
<trkpt lon="-4.389787" lat="43.283882"><ele>722.5</ele></trkpt>
<trkpt lon="-4.390039" lat="43.283896"><ele>724.0</ele></trkpt>
<trkpt lon="-4.390198" lat="43.283884"><ele>725.5</ele></trkpt>
<trkpt lon="-4.390342" lat="43.283859"><ele>727.0</ele></trkpt>
<trkpt lon="-4.390791" lat="43.283725"><ele>731.25</ele></trkpt>
<trkpt lon="-4.390988" lat="43.283639"><ele>733.5</ele></trkpt>
<trkpt lon="-4.391242" lat="43.283550"><ele>735.5</ele></trkpt>
<trkpt lon="-4.391427" lat="43.283469"><ele>737.0</ele></trkpt>
<trkpt lon="-4.391560" lat="43.283366"><ele>739.5</ele></trkpt>
<trkpt lon="-4.391709" lat="43.283302"><ele>740.5</ele></trkpt>
<trkpt lon="-4.392068" lat="43.283048"><ele>744.5</ele></trkpt>
<trkpt lon="-4.392766" lat="43.282726"><ele>750.75</ele></trkpt>
  </trkseg></trk></gpx>
