<?xml version="1.0" encoding="UTF-8"?>
<gpx version="1.1" creator="compostel-brouter" xmlns="http://www.topografix.com/GPX/1/1">
  <metadata><name>PC-05-Sotres</name></metadata>
  <trk><name>PC-05-Sotres</name><trkseg>
<trkpt lon="-4.811780" lat="43.144174"><ele>1082.25</ele></trkpt>
<trkpt lon="-4.811763" lat="43.144207"><ele>1081.0</ele></trkpt>
<trkpt lon="-4.811735" lat="43.144221"><ele>1080.25</ele></trkpt>
<trkpt lon="-4.811649" lat="43.144235"><ele>1078.75</ele></trkpt>
<trkpt lon="-4.811535" lat="43.144239"><ele>1077.25</ele></trkpt>
<trkpt lon="-4.811518" lat="43.144251"><ele>1077.0</ele></trkpt>
<trkpt lon="-4.811505" lat="43.144280"><ele>1076.25</ele></trkpt>
<trkpt lon="-4.811595" lat="43.144292"><ele>1077.25</ele></trkpt>
<trkpt lon="-4.811627" lat="43.144388"><ele>1076.25</ele></trkpt>
<trkpt lon="-4.811761" lat="43.144537"><ele>1075.5</ele></trkpt>
<trkpt lon="-4.811777" lat="43.144582"><ele>1075.25</ele></trkpt>
<trkpt lon="-4.811793" lat="43.144699"><ele>1074.5</ele></trkpt>
<trkpt lon="-4.811798" lat="43.144804"><ele>1074.25</ele></trkpt>
<trkpt lon="-4.811772" lat="43.144883"><ele>1074.0</ele></trkpt>
<trkpt lon="-4.811688" lat="43.144975"><ele>1073.0</ele></trkpt>
<trkpt lon="-4.811572" lat="43.145133"><ele>1073.25</ele></trkpt>
<trkpt lon="-4.811410" lat="43.145256"><ele>1072.0</ele></trkpt>
<trkpt lon="-4.811166" lat="43.145387"><ele>1070.75</ele></trkpt>
<trkpt lon="-4.810995" lat="43.145536"><ele>1070.0</ele></trkpt>
<trkpt lon="-4.810852" lat="43.145693"><ele>1069.0</ele></trkpt>
<trkpt lon="-4.810559" lat="43.145860"><ele>1067.0</ele></trkpt>
<trkpt lon="-4.810385" lat="43.145912"><ele>1066.75</ele></trkpt>
<trkpt lon="-4.810231" lat="43.145843"><ele>1066.0</ele></trkpt>
<trkpt lon="-4.809993" lat="43.145672"><ele>1065.75</ele></trkpt>
<trkpt lon="-4.809691" lat="43.145725"><ele>1067.0</ele></trkpt>
<trkpt lon="-4.809333" lat="43.145843"><ele>1074.0</ele></trkpt>
<trkpt lon="-4.808899" lat="43.145891"><ele>1083.5</ele></trkpt>
<trkpt lon="-4.808804" lat="43.145902"><ele>1085.0</ele></trkpt>
<trkpt lon="-4.808484" lat="43.145890"><ele>1090.75</ele></trkpt>
<trkpt lon="-4.808036" lat="43.145850"><ele>1102.25</ele></trkpt>
<trkpt lon="-4.807958" lat="43.145738"><ele>1107.0</ele></trkpt>
<trkpt lon="-4.807772" lat="43.145605"><ele>1116.25</ele></trkpt>
<trkpt lon="-4.807591" lat="43.145699"><ele>1121.75</ele></trkpt>
<trkpt lon="-4.807440" lat="43.145716"><ele>1127.25</ele></trkpt>
<trkpt lon="-4.807192" lat="43.145507"><ele>1143.25</ele></trkpt>
<trkpt lon="-4.807015" lat="43.145309"><ele>1155.0</ele></trkpt>
<trkpt lon="-4.806829" lat="43.145360"><ele>1162.0</ele></trkpt>
<trkpt lon="-4.806769" lat="43.145271"><ele>1166.0</ele></trkpt>
<trkpt lon="-4.806688" lat="43.145211"><ele>1171.0</ele></trkpt>
<trkpt lon="-4.806545" lat="43.145124"><ele>1179.0</ele></trkpt>
<trkpt lon="-4.806288" lat="43.145235"><ele>1187.0</ele></trkpt>
<trkpt lon="-4.806142" lat="43.145064"><ele>1196.5</ele></trkpt>
<trkpt lon="-4.805779" lat="43.145278"><ele>1208.75</ele></trkpt>
<trkpt lon="-4.805518" lat="43.145250"><ele>1217.5</ele></trkpt>
<trkpt lon="-4.805289" lat="43.145401"><ele>1223.25</ele></trkpt>
<trkpt lon="-4.804988" lat="43.145418"><ele>1231.75</ele></trkpt>
<trkpt lon="-4.804560" lat="43.145524"><ele>1243.0</ele></trkpt>
<trkpt lon="-4.804311" lat="43.145556"><ele>1251.75</ele></trkpt>
<trkpt lon="-4.804066" lat="43.145596"><ele>1261.0</ele></trkpt>
<trkpt lon="-4.803788" lat="43.145708"><ele>1275.25</ele></trkpt>
<trkpt lon="-4.803399" lat="43.145662"><ele>1290.0</ele></trkpt>
<trkpt lon="-4.803128" lat="43.145767"><ele>1306.25</ele></trkpt>
<trkpt lon="-4.803275" lat="43.146071"><ele>1315.25</ele></trkpt>
<trkpt lon="-4.803207" lat="43.146232"><ele>1323.5</ele></trkpt>
<trkpt lon="-4.803242" lat="43.146282"><ele>1322.25</ele></trkpt>
<trkpt lon="-4.803222" lat="43.146362"><ele>1325.0</ele></trkpt>
<trkpt lon="-4.803083" lat="43.146424"><ele>1336.25</ele></trkpt>
<trkpt lon="-4.803067" lat="43.146491"><ele>1340.0</ele></trkpt>
<trkpt lon="-4.803042" lat="43.146547"><ele>1344.0</ele></trkpt>
<trkpt lon="-4.803021" lat="43.146536"><ele>1345.0</ele></trkpt>
<trkpt lon="-4.803010" lat="43.146542"><ele>1345.75</ele></trkpt>
<trkpt lon="-4.803000" lat="43.146625"><ele>1349.0</ele></trkpt>
<trkpt lon="-4.802956" lat="43.146624"><ele>1351.25</ele></trkpt>
<trkpt lon="-4.802859" lat="43.146645"><ele>1356.25</ele></trkpt>
<trkpt lon="-4.802703" lat="43.146626"><ele>1364.25</ele></trkpt>
<trkpt lon="-4.802651" lat="43.146593"><ele>1367.5</ele></trkpt>
<trkpt lon="-4.802614" lat="43.146609"><ele>1369.5</ele></trkpt>
<trkpt lon="-4.802607" lat="43.146668"><ele>1369.25</ele></trkpt>
<trkpt lon="-4.802633" lat="43.146688"><ele>1370.25</ele></trkpt>
<trkpt lon="-4.802622" lat="43.146716"><ele>1373.75</ele></trkpt>
<trkpt lon="-4.802546" lat="43.146698"><ele>1375.5</ele></trkpt>
<trkpt lon="-4.802544" lat="43.146741"><ele>1379.75</ele></trkpt>
<trkpt lon="-4.802523" lat="43.146793"><ele>1385.5</ele></trkpt>
<trkpt lon="-4.802550" lat="43.146825"><ele>1387.75</ele></trkpt>
<trkpt lon="-4.802595" lat="43.146849"><ele>1389.25</ele></trkpt>
<trkpt lon="-4.802622" lat="43.146965"><ele>1401.5</ele></trkpt>
<trkpt lon="-4.802774" lat="43.147041"><ele>1405.25</ele></trkpt>
<trkpt lon="-4.802809" lat="43.147140"><ele>1409.25</ele></trkpt>
<trkpt lon="-4.802755" lat="43.147225"><ele>1418.25</ele></trkpt>
<trkpt lon="-4.802696" lat="43.147353"><ele>1421.25</ele></trkpt>
<trkpt lon="-4.802572" lat="43.147471"><ele>1429.5</ele></trkpt>
<trkpt lon="-4.802438" lat="43.147615"><ele>1437.25</ele></trkpt>
<trkpt lon="-4.802278" lat="43.147695"><ele>1445.0</ele></trkpt>
<trkpt lon="-4.802056" lat="43.147726"><ele>1459.25</ele></trkpt>
<trkpt lon="-4.801921" lat="43.147795"><ele>1467.75</ele></trkpt>
<trkpt lon="-4.801884" lat="43.147856"><ele>1471.5</ele></trkpt>
<trkpt lon="-4.801888" lat="43.147888"><ele>1472.0</ele></trkpt>
<trkpt lon="-4.801879" lat="43.147907"><ele>1473.0</ele></trkpt>
<trkpt lon="-4.801856" lat="43.147933"><ele>1475.25</ele></trkpt>
<trkpt lon="-4.801813" lat="43.147925"><ele>1477.75</ele></trkpt>
<trkpt lon="-4.801746" lat="43.147995"><ele>1484.5</ele></trkpt>
<trkpt lon="-4.801793" lat="43.148056"><ele>1482.75</ele></trkpt>
<trkpt lon="-4.801817" lat="43.148110"><ele>1481.75</ele></trkpt>
<trkpt lon="-4.801811" lat="43.148144"><ele>1482.5</ele></trkpt>
<trkpt lon="-4.801845" lat="43.148234"><ele>1481.75</ele></trkpt>
<trkpt lon="-4.801834" lat="43.148256"><ele>1482.5</ele></trkpt>
<trkpt lon="-4.801766" lat="43.148302"><ele>1486.25</ele></trkpt>
<trkpt lon="-4.801748" lat="43.148378"><ele>1488.0</ele></trkpt>
<trkpt lon="-4.801751" lat="43.148439"><ele>1488.5</ele></trkpt>
<trkpt lon="-4.801841" lat="43.148613"><ele>1487.0</ele></trkpt>
<trkpt lon="-4.801920" lat="43.148712"><ele>1489.75</ele></trkpt>
<trkpt lon="-4.801916" lat="43.148766"><ele>1493.0</ele></trkpt>
<trkpt lon="-4.802022" lat="43.148868"><ele>1495.75</ele></trkpt>
<trkpt lon="-4.802127" lat="43.148935"><ele>1497.0</ele></trkpt>
<trkpt lon="-4.802203" lat="43.149045"><ele>1497.75</ele></trkpt>
<trkpt lon="-4.802209" lat="43.149112"><ele>1499.25</ele></trkpt>
<trkpt lon="-4.802196" lat="43.149151"><ele>1501.25</ele></trkpt>
<trkpt lon="-4.802175" lat="43.149164"><ele>1503.25</ele></trkpt>
<trkpt lon="-4.802129" lat="43.149249"><ele>1505.5</ele></trkpt>
<trkpt lon="-4.802078" lat="43.149309"><ele>1508.25</ele></trkpt>
<trkpt lon="-4.802026" lat="43.149327"><ele>1511.5</ele></trkpt>
<trkpt lon="-4.802014" lat="43.149502"><ele>1510.75</ele></trkpt>
<trkpt lon="-4.801991" lat="43.149540"><ele>1512.25</ele></trkpt>
<trkpt lon="-4.802023" lat="43.149615"><ele>1510.75</ele></trkpt>
<trkpt lon="-4.802009" lat="43.149668"><ele>1511.75</ele></trkpt>
<trkpt lon="-4.801966" lat="43.149718"><ele>1514.5</ele></trkpt>
<trkpt lon="-4.801795" lat="43.149858"><ele>1525.75</ele></trkpt>
<trkpt lon="-4.801604" lat="43.149923"><ele>1535.0</ele></trkpt>
<trkpt lon="-4.801331" lat="43.150045"><ele>1548.5</ele></trkpt>
<trkpt lon="-4.801115" lat="43.150084"><ele>1558.75</ele></trkpt>
<trkpt lon="-4.801014" lat="43.150020"><ele>1560.5</ele></trkpt>
<trkpt lon="-4.800986" lat="43.150012"><ele>1561.25</ele></trkpt>
<trkpt lon="-4.800972" lat="43.149997"><ele>1561.5</ele></trkpt>
<trkpt lon="-4.800941" lat="43.149999"><ele>1562.75</ele></trkpt>
<trkpt lon="-4.800863" lat="43.149955"><ele>1567.0</ele></trkpt>
<trkpt lon="-4.800847" lat="43.149955"><ele>1567.75</ele></trkpt>
<trkpt lon="-4.800812" lat="43.149972"><ele>1569.25</ele></trkpt>
<trkpt lon="-4.800783" lat="43.149972"><ele>1570.5</ele></trkpt>
<trkpt lon="-4.800741" lat="43.149994"><ele>1572.25</ele></trkpt>
<trkpt lon="-4.800720" lat="43.149994"><ele>1573.25</ele></trkpt>
<trkpt lon="-4.800710" lat="43.150055"><ele>1576.0</ele></trkpt>
<trkpt lon="-4.800719" lat="43.150089"><ele>1577.25</ele></trkpt>
<trkpt lon="-4.800701" lat="43.150103"><ele>1578.5</ele></trkpt>
<trkpt lon="-4.800714" lat="43.150125"><ele>1579.0</ele></trkpt>
<trkpt lon="-4.800705" lat="43.150158"><ele>1580.75</ele></trkpt>
<trkpt lon="-4.800716" lat="43.150177"><ele>1581.25</ele></trkpt>
<trkpt lon="-4.800760" lat="43.150226"><ele>1581.75</ele></trkpt>
<trkpt lon="-4.800864" lat="43.150287"><ele>1580.75</ele></trkpt>
<trkpt lon="-4.800873" lat="43.150334"><ele>1583.0</ele></trkpt>
<trkpt lon="-4.800901" lat="43.150373"><ele>1584.0</ele></trkpt>
<trkpt lon="-4.800966" lat="43.150495"><ele>1588.75</ele></trkpt>
<trkpt lon="-4.800972" lat="43.150527"><ele>1590.5</ele></trkpt>
<trkpt lon="-4.801012" lat="43.150575"><ele>1592.25</ele></trkpt>
<trkpt lon="-4.801052" lat="43.150607"><ele>1593.25</ele></trkpt>
<trkpt lon="-4.801074" lat="43.150644"><ele>1595.0</ele></trkpt>
<trkpt lon="-4.801093" lat="43.150660"><ele>1595.5</ele></trkpt>
<trkpt lon="-4.801205" lat="43.150674"><ele>1595.75</ele></trkpt>
<trkpt lon="-4.801271" lat="43.150701"><ele>1597.5</ele></trkpt>
<trkpt lon="-4.801287" lat="43.150714"><ele>1598.5</ele></trkpt>
<trkpt lon="-4.801343" lat="43.150730"><ele>1599.75</ele></trkpt>
<trkpt lon="-4.801391" lat="43.150729"><ele>1599.75</ele></trkpt>
<trkpt lon="-4.801423" lat="43.150746"><ele>1601.5</ele></trkpt>
<trkpt lon="-4.801459" lat="43.150751"><ele>1602.5</ele></trkpt>
<trkpt lon="-4.801468" lat="43.150743"><ele>1602.0</ele></trkpt>
<trkpt lon="-4.801524" lat="43.150735"><ele>1602.25</ele></trkpt>
<trkpt lon="-4.801576" lat="43.150743"><ele>1603.75</ele></trkpt>
<trkpt lon="-4.801640" lat="43.150740"><ele>1604.5</ele></trkpt>
<trkpt lon="-4.801689" lat="43.150765"><ele>1606.0</ele></trkpt>
<trkpt lon="-4.801732" lat="43.150796"><ele>1606.75</ele></trkpt>
<trkpt lon="-4.801812" lat="43.150826"><ele>1606.25</ele></trkpt>
<trkpt lon="-4.801958" lat="43.150941"><ele>1608.0</ele></trkpt>
<trkpt lon="-4.802185" lat="43.151054"><ele>1608.5</ele></trkpt>
<trkpt lon="-4.802245" lat="43.151090"><ele>1609.75</ele></trkpt>
<trkpt lon="-4.802265" lat="43.151091"><ele>1609.5</ele></trkpt>
<trkpt lon="-4.802351" lat="43.151121"><ele>1610.25</ele></trkpt>
<trkpt lon="-4.802394" lat="43.151122"><ele>1609.5</ele></trkpt>
<trkpt lon="-4.802472" lat="43.151139"><ele>1609.5</ele></trkpt>
<trkpt lon="-4.802513" lat="43.151155"><ele>1610.0</ele></trkpt>
<trkpt lon="-4.802524" lat="43.151169"><ele>1611.0</ele></trkpt>
<trkpt lon="-4.802674" lat="43.151221"><ele>1613.5</ele></trkpt>
<trkpt lon="-4.802869" lat="43.151230"><ele>1612.0</ele></trkpt>
<trkpt lon="-4.802941" lat="43.151212"><ele>1610.0</ele></trkpt>
<trkpt lon="-4.803013" lat="43.151208"><ele>1609.0</ele></trkpt>
<trkpt lon="-4.803066" lat="43.151226"><ele>1609.25</ele></trkpt>
<trkpt lon="-4.803130" lat="43.151241"><ele>1608.0</ele></trkpt>
<trkpt lon="-4.803155" lat="43.151294"><ele>1611.0</ele></trkpt>
<trkpt lon="-4.803235" lat="43.151381"><ele>1615.75</ele></trkpt>
<trkpt lon="-4.803284" lat="43.151415"><ele>1615.0</ele></trkpt>
<trkpt lon="-4.803286" lat="43.151441"><ele>1614.75</ele></trkpt>
<trkpt lon="-4.803269" lat="43.151455"><ele>1615.25</ele></trkpt>
<trkpt lon="-4.803253" lat="43.151508"><ele>1615.5</ele></trkpt>
<trkpt lon="-4.803222" lat="43.151555"><ele>1616.5</ele></trkpt>
<trkpt lon="-4.803220" lat="43.151577"><ele>1616.75</ele></trkpt>
<trkpt lon="-4.803238" lat="43.151626"><ele>1615.75</ele></trkpt>
<trkpt lon="-4.803346" lat="43.151743"><ele>1609.5</ele></trkpt>
<trkpt lon="-4.803345" lat="43.151782"><ele>1610.0</ele></trkpt>
<trkpt lon="-4.803333" lat="43.151808"><ele>1611.5</ele></trkpt>
<trkpt lon="-4.803308" lat="43.151844"><ele>1613.25</ele></trkpt>
<trkpt lon="-4.803333" lat="43.151891"><ele>1611.75</ele></trkpt>
<trkpt lon="-4.803352" lat="43.151964"><ele>1616.0</ele></trkpt>
<trkpt lon="-4.803389" lat="43.151995"><ele>1621.0</ele></trkpt>
<trkpt lon="-4.803438" lat="43.152019"><ele>1622.25</ele></trkpt>
<trkpt lon="-4.803592" lat="43.152127"><ele>1620.75</ele></trkpt>
<trkpt lon="-4.803684" lat="43.152161"><ele>1618.25</ele></trkpt>
<trkpt lon="-4.803713" lat="43.152179"><ele>1618.75</ele></trkpt>
<trkpt lon="-4.803859" lat="43.152199"><ele>1614.0</ele></trkpt>
<trkpt lon="-4.803839" lat="43.152041"><ele>1599.25</ele></trkpt>
<trkpt lon="-4.803813" lat="43.151997"><ele>1596.0</ele></trkpt>
<trkpt lon="-4.803813" lat="43.151946"><ele>1591.0</ele></trkpt>
<trkpt lon="-4.803827" lat="43.151917"><ele>1584.25</ele></trkpt>
<trkpt lon="-4.803849" lat="43.151910"><ele>1581.5</ele></trkpt>
<trkpt lon="-4.803904" lat="43.151946"><ele>1586.0</ele></trkpt>
<trkpt lon="-4.803933" lat="43.151985"><ele>1586.75</ele></trkpt>
<trkpt lon="-4.804035" lat="43.152068"><ele>1590.0</ele></trkpt>
<trkpt lon="-4.804075" lat="43.152083"><ele>1590.25</ele></trkpt>
<trkpt lon="-4.804120" lat="43.152158"><ele>1604.5</ele></trkpt>
<trkpt lon="-4.804188" lat="43.152205"><ele>1616.0</ele></trkpt>
<trkpt lon="-4.804265" lat="43.152301"><ele>1628.0</ele></trkpt>
<trkpt lon="-4.804360" lat="43.152391"><ele>1636.5</ele></trkpt>
<trkpt lon="-4.804397" lat="43.152476"><ele>1643.25</ele></trkpt>
<trkpt lon="-4.804499" lat="43.152617"><ele>1659.25</ele></trkpt>
<trkpt lon="-4.804535" lat="43.152654"><ele>1663.0</ele></trkpt>
<trkpt lon="-4.804557" lat="43.152672"><ele>1664.5</ele></trkpt>
<trkpt lon="-4.804717" lat="43.152678"><ele>1663.5</ele></trkpt>
<trkpt lon="-4.804743" lat="43.152685"><ele>1663.5</ele></trkpt>
<trkpt lon="-4.804727" lat="43.152699"><ele>1664.75</ele></trkpt>
<trkpt lon="-4.804731" lat="43.152745"><ele>1668.25</ele></trkpt>
<trkpt lon="-4.804742" lat="43.152760"><ele>1669.0</ele></trkpt>
<trkpt lon="-4.804795" lat="43.152802"><ele>1671.25</ele></trkpt>
<trkpt lon="-4.804879" lat="43.152897"><ele>1677.0</ele></trkpt>
<trkpt lon="-4.804951" lat="43.152939"><ele>1678.25</ele></trkpt>
<trkpt lon="-4.804998" lat="43.152975"><ele>1679.5</ele></trkpt>
<trkpt lon="-4.805049" lat="43.153049"><ele>1685.25</ele></trkpt>
<trkpt lon="-4.805139" lat="43.153095"><ele>1690.0</ele></trkpt>
<trkpt lon="-4.805209" lat="43.153193"><ele>1702.75</ele></trkpt>
<trkpt lon="-4.805299" lat="43.153256"><ele>1713.0</ele></trkpt>
<trkpt lon="-4.805359" lat="43.153264"><ele>1716.25</ele></trkpt>
<trkpt lon="-4.805417" lat="43.153262"><ele>1718.0</ele></trkpt>
<trkpt lon="-4.805557" lat="43.153246"><ele>1721.0</ele></trkpt>
<trkpt lon="-4.805687" lat="43.153209"><ele>1734.75</ele></trkpt>
<trkpt lon="-4.805896" lat="43.153170"><ele>1749.25</ele></trkpt>
<trkpt lon="-4.805961" lat="43.153137"><ele>1745.0</ele></trkpt>
<trkpt lon="-4.806190" lat="43.153110"><ele>1751.0</ele></trkpt>
<trkpt lon="-4.806262" lat="43.153086"><ele>1749.5</ele></trkpt>
<trkpt lon="-4.806288" lat="43.153103"><ele>1754.0</ele></trkpt>
<trkpt lon="-4.806301" lat="43.153125"><ele>1758.5</ele></trkpt>
<trkpt lon="-4.806332" lat="43.153123"><ele>1759.25</ele></trkpt>
<trkpt lon="-4.806367" lat="43.153092"><ele>1755.5</ele></trkpt>
<trkpt lon="-4.806404" lat="43.153099"><ele>1758.25</ele></trkpt>
<trkpt lon="-4.806416" lat="43.153113"><ele>1760.5</ele></trkpt>
<trkpt lon="-4.806466" lat="43.153128"><ele>1763.75</ele></trkpt>
<trkpt lon="-4.806497" lat="43.153103"><ele>1761.0</ele></trkpt>
<trkpt lon="-4.806551" lat="43.153103"><ele>1762.25</ele></trkpt>
<trkpt lon="-4.806597" lat="43.153117"><ele>1765.0</ele></trkpt>
<trkpt lon="-4.806643" lat="43.153143"><ele>1768.5</ele></trkpt>
<trkpt lon="-4.806762" lat="43.153153"><ele>1768.75</ele></trkpt>
<trkpt lon="-4.806843" lat="43.153178"><ele>1769.5</ele></trkpt>
<trkpt lon="-4.806901" lat="43.153229"><ele>1771.0</ele></trkpt>
<trkpt lon="-4.806959" lat="43.153262"><ele>1771.0</ele></trkpt>
<trkpt lon="-4.807008" lat="43.153301"><ele>1770.75</ele></trkpt>
<trkpt lon="-4.807025" lat="43.153357"><ele>1773.25</ele></trkpt>
<trkpt lon="-4.807025" lat="43.153417"><ele>1778.75</ele></trkpt>
<trkpt lon="-4.807037" lat="43.153464"><ele>1782.5</ele></trkpt>
<trkpt lon="-4.807130" lat="43.153574"><ele>1789.75</ele></trkpt>
<trkpt lon="-4.807152" lat="43.153589"><ele>1790.5</ele></trkpt>
<trkpt lon="-4.807203" lat="43.153585"><ele>1789.0</ele></trkpt>
<trkpt lon="-4.807342" lat="43.153545"><ele>1783.75</ele></trkpt>
<trkpt lon="-4.807417" lat="43.153548"><ele>1783.5</ele></trkpt>
<trkpt lon="-4.807487" lat="43.153559"><ele>1784.25</ele></trkpt>
<trkpt lon="-4.807589" lat="43.153589"><ele>1781.25</ele></trkpt>
<trkpt lon="-4.807670" lat="43.153628"><ele>1779.5</ele></trkpt>
<trkpt lon="-4.807866" lat="43.153770"><ele>1789.0</ele></trkpt>
<trkpt lon="-4.807904" lat="43.153879"><ele>1805.0</ele></trkpt>
<trkpt lon="-4.807931" lat="43.153934"><ele>1811.25</ele></trkpt>
<trkpt lon="-4.807909" lat="43.153980"><ele>1815.0</ele></trkpt>
<trkpt lon="-4.807833" lat="43.154017"><ele>1817.25</ele></trkpt>
<trkpt lon="-4.807758" lat="43.154033"><ele>1818.25</ele></trkpt>
<trkpt lon="-4.807559" lat="43.153974"><ele>1819.25</ele></trkpt>
<trkpt lon="-4.807521" lat="43.154021"><ele>1823.0</ele></trkpt>
<trkpt lon="-4.807279" lat="43.154197"><ele>1836.25</ele></trkpt>
<trkpt lon="-4.807161" lat="43.154236"><ele>1838.75</ele></trkpt>
<trkpt lon="-4.806990" lat="43.154240"><ele>1839.5</ele></trkpt>
<trkpt lon="-4.806834" lat="43.154228"><ele>1839.5</ele></trkpt>
<trkpt lon="-4.806646" lat="43.154185"><ele>1838.25</ele></trkpt>
<trkpt lon="-4.806523" lat="43.154158"><ele>1839.25</ele></trkpt>
<trkpt lon="-4.806357" lat="43.154154"><ele>1842.75</ele></trkpt>
<trkpt lon="-4.806053" lat="43.154066"><ele>1848.25</ele></trkpt>
<trkpt lon="-4.806094" lat="43.154135"><ele>1850.0</ele></trkpt>
<trkpt lon="-4.806122" lat="43.154234"><ele>1850.5</ele></trkpt>
<trkpt lon="-4.806091" lat="43.154288"><ele>1851.0</ele></trkpt>
<trkpt lon="-4.805914" lat="43.154347"><ele>1851.0</ele></trkpt>
<trkpt lon="-4.805798" lat="43.154362"><ele>1851.5</ele></trkpt>
<trkpt lon="-4.805604" lat="43.154402"><ele>1852.75</ele></trkpt>
<trkpt lon="-4.805577" lat="43.154451"><ele>1852.75</ele></trkpt>
<trkpt lon="-4.805598" lat="43.154551"><ele>1853.5</ele></trkpt>
<trkpt lon="-4.805602" lat="43.154686"><ele>1854.5</ele></trkpt>
<trkpt lon="-4.805548" lat="43.154748"><ele>1854.75</ele></trkpt>
<trkpt lon="-4.805384" lat="43.154817"><ele>1856.25</ele></trkpt>
<trkpt lon="-4.805324" lat="43.154854"><ele>1857.25</ele></trkpt>
<trkpt lon="-4.805288" lat="43.154901"><ele>1858.0</ele></trkpt>
<trkpt lon="-4.805282" lat="43.154954"><ele>1858.5</ele></trkpt>
<trkpt lon="-4.805319" lat="43.155006"><ele>1858.25</ele></trkpt>
<trkpt lon="-4.805384" lat="43.155074"><ele>1859.5</ele></trkpt>
<trkpt lon="-4.805474" lat="43.155133"><ele>1859.75</ele></trkpt>
<trkpt lon="-4.805578" lat="43.155223"><ele>1860.25</ele></trkpt>
<trkpt lon="-4.805756" lat="43.155395"><ele>1862.0</ele></trkpt>
<trkpt lon="-4.805973" lat="43.155589"><ele>1866.0</ele></trkpt>
<trkpt lon="-4.806041" lat="43.155690"><ele>1865.75</ele></trkpt>
<trkpt lon="-4.806043" lat="43.155756"><ele>1866.0</ele></trkpt>
<trkpt lon="-4.806008" lat="43.155811"><ele>1866.75</ele></trkpt>
<trkpt lon="-4.805904" lat="43.155874"><ele>1868.0</ele></trkpt>
<trkpt lon="-4.805779" lat="43.155936"><ele>1869.75</ele></trkpt>
<trkpt lon="-4.805743" lat="43.155962"><ele>1870.25</ele></trkpt>
<trkpt lon="-4.805691" lat="43.156031"><ele>1871.0</ele></trkpt>
<trkpt lon="-4.805691" lat="43.156095"><ele>1870.5</ele></trkpt>
<trkpt lon="-4.805713" lat="43.156155"><ele>1871.75</ele></trkpt>
<trkpt lon="-4.805754" lat="43.156187"><ele>1872.0</ele></trkpt>
<trkpt lon="-4.805910" lat="43.156260"><ele>1871.0</ele></trkpt>
<trkpt lon="-4.806047" lat="43.156317"><ele>1869.75</ele></trkpt>
<trkpt lon="-4.806090" lat="43.156357"><ele>1870.25</ele></trkpt>
<trkpt lon="-4.806143" lat="43.156445"><ele>1873.5</ele></trkpt>
<trkpt lon="-4.806206" lat="43.156496"><ele>1875.0</ele></trkpt>
<trkpt lon="-4.806437" lat="43.156575"><ele>1872.25</ele></trkpt>
<trkpt lon="-4.806828" lat="43.156743"><ele>1872.0</ele></trkpt>
<trkpt lon="-4.806996" lat="43.156829"><ele>1872.75</ele></trkpt>
<trkpt lon="-4.807135" lat="43.156926"><ele>1874.25</ele></trkpt>
<trkpt lon="-4.807293" lat="43.157020"><ele>1874.0</ele></trkpt>
<trkpt lon="-4.807524" lat="43.157129"><ele>1873.75</ele></trkpt>
<trkpt lon="-4.807648" lat="43.157213"><ele>1874.5</ele></trkpt>
<trkpt lon="-4.807720" lat="43.157294"><ele>1874.0</ele></trkpt>
<trkpt lon="-4.807714" lat="43.157446"><ele>1876.75</ele></trkpt>
<trkpt lon="-4.807726" lat="43.157494"><ele>1877.25</ele></trkpt>
<trkpt lon="-4.807839" lat="43.157680"><ele>1878.5</ele></trkpt>
<trkpt lon="-4.807867" lat="43.157738"><ele>1878.75</ele></trkpt>
<trkpt lon="-4.807914" lat="43.157959"><ele>1881.5</ele></trkpt>
<trkpt lon="-4.807933" lat="43.158145"><ele>1883.75</ele></trkpt>
<trkpt lon="-4.807961" lat="43.158202"><ele>1883.5</ele></trkpt>
<trkpt lon="-4.808015" lat="43.158268"><ele>1882.25</ele></trkpt>
<trkpt lon="-4.808035" lat="43.158312"><ele>1882.25</ele></trkpt>
<trkpt lon="-4.808058" lat="43.158426"><ele>1885.75</ele></trkpt>
<trkpt lon="-4.808105" lat="43.158482"><ele>1887.0</ele></trkpt>
<trkpt lon="-4.808246" lat="43.158540"><ele>1885.75</ele></trkpt>
<trkpt lon="-4.808338" lat="43.158589"><ele>1885.0</ele></trkpt>
<trkpt lon="-4.808553" lat="43.158801"><ele>1886.75</ele></trkpt>
<trkpt lon="-4.808675" lat="43.158904"><ele>1886.5</ele></trkpt>
<trkpt lon="-4.808739" lat="43.158957"><ele>1886.75</ele></trkpt>
<trkpt lon="-4.808943" lat="43.159095"><ele>1887.25</ele></trkpt>
<trkpt lon="-4.809021" lat="43.159162"><ele>1887.75</ele></trkpt>
<trkpt lon="-4.809101" lat="43.159257"><ele>1887.75</ele></trkpt>
<trkpt lon="-4.809195" lat="43.159351"><ele>1887.25</ele></trkpt>
<trkpt lon="-4.809246" lat="43.159424"><ele>1887.75</ele></trkpt>
<trkpt lon="-4.809285" lat="43.159507"><ele>1889.0</ele></trkpt>
<trkpt lon="-4.809298" lat="43.159533"><ele>1889.5</ele></trkpt>
<trkpt lon="-4.809313" lat="43.159565"><ele>1890.0</ele></trkpt>
<trkpt lon="-4.809448" lat="43.159745"><ele>1891.25</ele></trkpt>
<trkpt lon="-4.809487" lat="43.159822"><ele>1891.5</ele></trkpt>
<trkpt lon="-4.809510" lat="43.159909"><ele>1892.5</ele></trkpt>
<trkpt lon="-4.809512" lat="43.159970"><ele>1893.5</ele></trkpt>
<trkpt lon="-4.809475" lat="43.160026"><ele>1894.5</ele></trkpt>
<trkpt lon="-4.809410" lat="43.160064"><ele>1895.0</ele></trkpt>
<trkpt lon="-4.809311" lat="43.160106"><ele>1895.5</ele></trkpt>
<trkpt lon="-4.809144" lat="43.160153"><ele>1896.25</ele></trkpt>
<trkpt lon="-4.808493" lat="43.160277"><ele>1903.5</ele></trkpt>
<trkpt lon="-4.808364" lat="43.160285"><ele>1905.0</ele></trkpt>
<trkpt lon="-4.808188" lat="43.160277"><ele>1907.5</ele></trkpt>
<trkpt lon="-4.808086" lat="43.160288"><ele>1908.0</ele></trkpt>
<trkpt lon="-4.807794" lat="43.160344"><ele>1912.25</ele></trkpt>
<trkpt lon="-4.807667" lat="43.160358"><ele>1913.75</ele></trkpt>
<trkpt lon="-4.807509" lat="43.160365"><ele>1916.0</ele></trkpt>
<trkpt lon="-4.807317" lat="43.160400"><ele>1917.75</ele></trkpt>
<trkpt lon="-4.807090" lat="43.160431"><ele>1920.5</ele></trkpt>
<trkpt lon="-4.806910" lat="43.160452"><ele>1922.5</ele></trkpt>
<trkpt lon="-4.806787" lat="43.160451"><ele>1923.75</ele></trkpt>
<trkpt lon="-4.806691" lat="43.160472"><ele>1924.0</ele></trkpt>
<trkpt lon="-4.806581" lat="43.160539"><ele>1923.25</ele></trkpt>
<trkpt lon="-4.806480" lat="43.160582"><ele>1924.5</ele></trkpt>
<trkpt lon="-4.806216" lat="43.160602"><ele>1927.0</ele></trkpt>
<trkpt lon="-4.806142" lat="43.160622"><ele>1928.0</ele></trkpt>
<trkpt lon="-4.806030" lat="43.160630"><ele>1927.75</ele></trkpt>
<trkpt lon="-4.805931" lat="43.160693"><ele>1927.0</ele></trkpt>
<trkpt lon="-4.805907" lat="43.160782"><ele>1926.25</ele></trkpt>
<trkpt lon="-4.805886" lat="43.160856"><ele>1926.0</ele></trkpt>
<trkpt lon="-4.805829" lat="43.160951"><ele>1926.25</ele></trkpt>
<trkpt lon="-4.805757" lat="43.161056"><ele>1925.5</ele></trkpt>
<trkpt lon="-4.805676" lat="43.161139"><ele>1924.25</ele></trkpt>
<trkpt lon="-4.805596" lat="43.161208"><ele>1923.5</ele></trkpt>
<trkpt lon="-4.805194" lat="43.161520"><ele>1918.75</ele></trkpt>
<trkpt lon="-4.805026" lat="43.161634"><ele>1916.5</ele></trkpt>
<trkpt lon="-4.804883" lat="43.161760"><ele>1915.0</ele></trkpt>
<trkpt lon="-4.804774" lat="43.161872"><ele>1913.25</ele></trkpt>
<trkpt lon="-4.804621" lat="43.162075"><ele>1909.75</ele></trkpt>
<trkpt lon="-4.804418" lat="43.162482"><ele>1903.5</ele></trkpt>
<trkpt lon="-4.804337" lat="43.162563"><ele>1902.75</ele></trkpt>
<trkpt lon="-4.804179" lat="43.162742"><ele>1901.25</ele></trkpt>
<trkpt lon="-4.803981" lat="43.162991"><ele>1898.75</ele></trkpt>
<trkpt lon="-4.803764" lat="43.163200"><ele>1894.25</ele></trkpt>
<trkpt lon="-4.803545" lat="43.163381"><ele>1891.0</ele></trkpt>
<trkpt lon="-4.803263" lat="43.163583"><ele>1887.75</ele></trkpt>
<trkpt lon="-4.803193" lat="43.163667"><ele>1886.75</ele></trkpt>
<trkpt lon="-4.803148" lat="43.163806"><ele>1886.0</ele></trkpt>
<trkpt lon="-4.803070" lat="43.163907"><ele>1885.0</ele></trkpt>
<trkpt lon="-4.802815" lat="43.163956"><ele>1883.75</ele></trkpt>
<trkpt lon="-4.802684" lat="43.164004"><ele>1882.75</ele></trkpt>
<trkpt lon="-4.802553" lat="43.164072"><ele>1882.0</ele></trkpt>
<trkpt lon="-4.802289" lat="43.164280"><ele>1879.75</ele></trkpt>
<trkpt lon="-4.802136" lat="43.164408"><ele>1877.25</ele></trkpt>
<trkpt lon="-4.801845" lat="43.164717"><ele>1873.25</ele></trkpt>
<trkpt lon="-4.801733" lat="43.164881"><ele>1872.25</ele></trkpt>
<trkpt lon="-4.801639" lat="43.164978"><ele>1870.75</ele></trkpt>
<trkpt lon="-4.801287" lat="43.165170"><ele>1864.25</ele></trkpt>
<trkpt lon="-4.801219" lat="43.165267"><ele>1864.5</ele></trkpt>
<trkpt lon="-4.801170" lat="43.165357"><ele>1862.25</ele></trkpt>
<trkpt lon="-4.801148" lat="43.165427"><ele>1860.75</ele></trkpt>
<trkpt lon="-4.801094" lat="43.165480"><ele>1858.5</ele></trkpt>
<trkpt lon="-4.800955" lat="43.165479"><ele>1855.5</ele></trkpt>
<trkpt lon="-4.800853" lat="43.165454"><ele>1853.75</ele></trkpt>
<trkpt lon="-4.800563" lat="43.165440"><ele>1849.75</ele></trkpt>
<trkpt lon="-4.800405" lat="43.165420"><ele>1847.75</ele></trkpt>
<trkpt lon="-4.800102" lat="43.165401"><ele>1843.0</ele></trkpt>
<trkpt lon="-4.799990" lat="43.165377"><ele>1841.25</ele></trkpt>
<trkpt lon="-4.799914" lat="43.165419"><ele>1840.75</ele></trkpt>
<trkpt lon="-4.799871" lat="43.165480"><ele>1840.5</ele></trkpt>
<trkpt lon="-4.799774" lat="43.165500"><ele>1840.25</ele></trkpt>
<trkpt lon="-4.799653" lat="43.165606"><ele>1838.75</ele></trkpt>
<trkpt lon="-4.799624" lat="43.165661"><ele>1836.75</ele></trkpt>
<trkpt lon="-4.799599" lat="43.165683"><ele>1836.25</ele></trkpt>
<trkpt lon="-4.799524" lat="43.165700"><ele>1836.25</ele></trkpt>
<trkpt lon="-4.799443" lat="43.165736"><ele>1835.5</ele></trkpt>
<trkpt lon="-4.799408" lat="43.165761"><ele>1834.5</ele></trkpt>
<trkpt lon="-4.799345" lat="43.165782"><ele>1833.75</ele></trkpt>
<trkpt lon="-4.799313" lat="43.165813"><ele>1832.5</ele></trkpt>
<trkpt lon="-4.799179" lat="43.165900"><ele>1828.75</ele></trkpt>
<trkpt lon="-4.799120" lat="43.165963"><ele>1826.25</ele></trkpt>
<trkpt lon="-4.799073" lat="43.166027"><ele>1823.5</ele></trkpt>
<trkpt lon="-4.798838" lat="43.166258"><ele>1815.5</ele></trkpt>
<trkpt lon="-4.798487" lat="43.166458"><ele>1809.0</ele></trkpt>
<trkpt lon="-4.798480" lat="43.166481"><ele>1808.25</ele></trkpt>
<trkpt lon="-4.798448" lat="43.166518"><ele>1807.25</ele></trkpt>
<trkpt lon="-4.798321" lat="43.166606"><ele>1806.25</ele></trkpt>
<trkpt lon="-4.798264" lat="43.166656"><ele>1805.25</ele></trkpt>
<trkpt lon="-4.798199" lat="43.166697"><ele>1804.25</ele></trkpt>
<trkpt lon="-4.798039" lat="43.166789"><ele>1801.5</ele></trkpt>
<trkpt lon="-4.797944" lat="43.166817"><ele>1800.25</ele></trkpt>
<trkpt lon="-4.797829" lat="43.166832"><ele>1799.5</ele></trkpt>
<trkpt lon="-4.797524" lat="43.166905"><ele>1795.5</ele></trkpt>
<trkpt lon="-4.797450" lat="43.166917"><ele>1794.5</ele></trkpt>
<trkpt lon="-4.797370" lat="43.166906"><ele>1794.0</ele></trkpt>
<trkpt lon="-4.797342" lat="43.166922"><ele>1793.25</ele></trkpt>
<trkpt lon="-4.797318" lat="43.166946"><ele>1792.5</ele></trkpt>
<trkpt lon="-4.797260" lat="43.166934"><ele>1792.5</ele></trkpt>
<trkpt lon="-4.797123" lat="43.166968"><ele>1790.0</ele></trkpt>
<trkpt lon="-4.797013" lat="43.166977"><ele>1788.25</ele></trkpt>
<trkpt lon="-4.796922" lat="43.166997"><ele>1786.25</ele></trkpt>
<trkpt lon="-4.796817" lat="43.167030"><ele>1783.75</ele></trkpt>
<trkpt lon="-4.796711" lat="43.167039"><ele>1782.25</ele></trkpt>
<trkpt lon="-4.796690" lat="43.167049"><ele>1781.5</ele></trkpt>
<trkpt lon="-4.796658" lat="43.167048"><ele>1781.25</ele></trkpt>
<trkpt lon="-4.796606" lat="43.167057"><ele>1780.0</ele></trkpt>
<trkpt lon="-4.796410" lat="43.167056"><ele>1777.0</ele></trkpt>
<trkpt lon="-4.796231" lat="43.167047"><ele>1774.5</ele></trkpt>
<trkpt lon="-4.796182" lat="43.167058"><ele>1773.25</ele></trkpt>
<trkpt lon="-4.796095" lat="43.167066"><ele>1771.5</ele></trkpt>
<trkpt lon="-4.796041" lat="43.167086"><ele>1769.25</ele></trkpt>
<trkpt lon="-4.795869" lat="43.167117"><ele>1764.75</ele></trkpt>
<trkpt lon="-4.795805" lat="43.167141"><ele>1762.75</ele></trkpt>
<trkpt lon="-4.795663" lat="43.167151"><ele>1760.5</ele></trkpt>
<trkpt lon="-4.795547" lat="43.167185"><ele>1758.0</ele></trkpt>
<trkpt lon="-4.795435" lat="43.167191"><ele>1756.5</ele></trkpt>
<trkpt lon="-4.795248" lat="43.167179"><ele>1754.75</ele></trkpt>
<trkpt lon="-4.795200" lat="43.167184"><ele>1753.75</ele></trkpt>
<trkpt lon="-4.795169" lat="43.167195"><ele>1753.0</ele></trkpt>
<trkpt lon="-4.795003" lat="43.167173"><ele>1751.25</ele></trkpt>
<trkpt lon="-4.794945" lat="43.167182"><ele>1749.75</ele></trkpt>
<trkpt lon="-4.794842" lat="43.167161"><ele>1748.75</ele></trkpt>
<trkpt lon="-4.794764" lat="43.167153"><ele>1747.5</ele></trkpt>
<trkpt lon="-4.794525" lat="43.167146"><ele>1742.25</ele></trkpt>
<trkpt lon="-4.794466" lat="43.167149"><ele>1740.5</ele></trkpt>
<trkpt lon="-4.794440" lat="43.167159"><ele>1739.75</ele></trkpt>
<trkpt lon="-4.794418" lat="43.167152"><ele>1740.0</ele></trkpt>
<trkpt lon="-4.794394" lat="43.167158"><ele>1740.0</ele></trkpt>
<trkpt lon="-4.794310" lat="43.167202"><ele>1738.75</ele></trkpt>
<trkpt lon="-4.794161" lat="43.167247"><ele>1737.5</ele></trkpt>
<trkpt lon="-4.794083" lat="43.167247"><ele>1738.0</ele></trkpt>
<trkpt lon="-4.793878" lat="43.167291"><ele>1737.0</ele></trkpt>
<trkpt lon="-4.793817" lat="43.167297"><ele>1736.5</ele></trkpt>
<trkpt lon="-4.793748" lat="43.167320"><ele>1735.0</ele></trkpt>
<trkpt lon="-4.793655" lat="43.167339"><ele>1734.0</ele></trkpt>
<trkpt lon="-4.793494" lat="43.167364"><ele>1730.75</ele></trkpt>
<trkpt lon="-4.793365" lat="43.167371"><ele>1728.5</ele></trkpt>
<trkpt lon="-4.793168" lat="43.167430"><ele>1723.75</ele></trkpt>
<trkpt lon="-4.792846" lat="43.167467"><ele>1717.75</ele></trkpt>
<trkpt lon="-4.792779" lat="43.167461"><ele>1717.0</ele></trkpt>
<trkpt lon="-4.792712" lat="43.167482"><ele>1717.0</ele></trkpt>
<trkpt lon="-4.792665" lat="43.167510"><ele>1716.5</ele></trkpt>
<trkpt lon="-4.792644" lat="43.167539"><ele>1715.75</ele></trkpt>
<trkpt lon="-4.792613" lat="43.167556"><ele>1715.25</ele></trkpt>
<trkpt lon="-4.792600" lat="43.167593"><ele>1714.25</ele></trkpt>
<trkpt lon="-4.792518" lat="43.167657"><ele>1712.25</ele></trkpt>
<trkpt lon="-4.792459" lat="43.167687"><ele>1711.0</ele></trkpt>
<trkpt lon="-4.792185" lat="43.167774"><ele>1706.5</ele></trkpt>
<trkpt lon="-4.792052" lat="43.167867"><ele>1705.0</ele></trkpt>
<trkpt lon="-4.791941" lat="43.167970"><ele>1702.75</ele></trkpt>
<trkpt lon="-4.791749" lat="43.168040"><ele>1699.25</ele></trkpt>
<trkpt lon="-4.791538" lat="43.168066"><ele>1696.75</ele></trkpt>
<trkpt lon="-4.791415" lat="43.168054"><ele>1696.25</ele></trkpt>
<trkpt lon="-4.791285" lat="43.168053"><ele>1694.5</ele></trkpt>
<trkpt lon="-4.791010" lat="43.168079"><ele>1690.25</ele></trkpt>
<trkpt lon="-4.790878" lat="43.168081"><ele>1689.0</ele></trkpt>
<trkpt lon="-4.790780" lat="43.168079"><ele>1688.0</ele></trkpt>
<trkpt lon="-4.790697" lat="43.168053"><ele>1687.5</ele></trkpt>
<trkpt lon="-4.790616" lat="43.168055"><ele>1686.5</ele></trkpt>
<trkpt lon="-4.790524" lat="43.168086"><ele>1685.0</ele></trkpt>
<trkpt lon="-4.790381" lat="43.168107"><ele>1683.5</ele></trkpt>
<trkpt lon="-4.790180" lat="43.168153"><ele>1681.25</ele></trkpt>
<trkpt lon="-4.789944" lat="43.168181"><ele>1679.25</ele></trkpt>
<trkpt lon="-4.789722" lat="43.168218"><ele>1676.75</ele></trkpt>
<trkpt lon="-4.789536" lat="43.168231"><ele>1675.25</ele></trkpt>
<trkpt lon="-4.789355" lat="43.168219"><ele>1673.5</ele></trkpt>
<trkpt lon="-4.789237" lat="43.168194"><ele>1672.0</ele></trkpt>
<trkpt lon="-4.789112" lat="43.168124"><ele>1670.25</ele></trkpt>
<trkpt lon="-4.788913" lat="43.168029"><ele>1669.0</ele></trkpt>
<trkpt lon="-4.788765" lat="43.167985"><ele>1668.25</ele></trkpt>
<trkpt lon="-4.788586" lat="43.167946"><ele>1667.5</ele></trkpt>
<trkpt lon="-4.788378" lat="43.167854"><ele>1666.25</ele></trkpt>
<trkpt lon="-4.788222" lat="43.167800"><ele>1666.5</ele></trkpt>
<trkpt lon="-4.788051" lat="43.167765"><ele>1666.5</ele></trkpt>
<trkpt lon="-4.787891" lat="43.167759"><ele>1667.5</ele></trkpt>
<trkpt lon="-4.787538" lat="43.167818"><ele>1666.5</ele></trkpt>
<trkpt lon="-4.787441" lat="43.167835"><ele>1666.5</ele></trkpt>
<trkpt lon="-4.787322" lat="43.167836"><ele>1667.75</ele></trkpt>
<trkpt lon="-4.787083" lat="43.167856"><ele>1667.75</ele></trkpt>
<trkpt lon="-4.786942" lat="43.167868"><ele>1667.25</ele></trkpt>
<trkpt lon="-4.786732" lat="43.167863"><ele>1666.25</ele></trkpt>
<trkpt lon="-4.786684" lat="43.167857"><ele>1666.25</ele></trkpt>
<trkpt lon="-4.786660" lat="43.167855"><ele>1666.25</ele></trkpt>
<trkpt lon="-4.786525" lat="43.167800"><ele>1665.5</ele></trkpt>
<trkpt lon="-4.786478" lat="43.167781"><ele>1665.25</ele></trkpt>
<trkpt lon="-4.786612" lat="43.167601"><ele>1662.25</ele></trkpt>
<trkpt lon="-4.786868" lat="43.167409"><ele>1660.0</ele></trkpt>
<trkpt lon="-4.786973" lat="43.167330"><ele>1658.5</ele></trkpt>
<trkpt lon="-4.787087" lat="43.167215"><ele>1656.75</ele></trkpt>
<trkpt lon="-4.787155" lat="43.167093"><ele>1655.5</ele></trkpt>
<trkpt lon="-4.787198" lat="43.166930"><ele>1652.75</ele></trkpt>
<trkpt lon="-4.787202" lat="43.166724"><ele>1649.0</ele></trkpt>
<trkpt lon="-4.787186" lat="43.166501"><ele>1645.75</ele></trkpt>
<trkpt lon="-4.787134" lat="43.166319"><ele>1643.0</ele></trkpt>
<trkpt lon="-4.786989" lat="43.166142"><ele>1639.0</ele></trkpt>
<trkpt lon="-4.786920" lat="43.166082"><ele>1638.0</ele></trkpt>
<trkpt lon="-4.786839" lat="43.166032"><ele>1637.5</ele></trkpt>
<trkpt lon="-4.786693" lat="43.165980"><ele>1635.75</ele></trkpt>
<trkpt lon="-4.786541" lat="43.165968"><ele>1633.25</ele></trkpt>
<trkpt lon="-4.786396" lat="43.165980"><ele>1630.5</ele></trkpt>
<trkpt lon="-4.786113" lat="43.166038"><ele>1630.25</ele></trkpt>
<trkpt lon="-4.785571" lat="43.166134"><ele>1630.5</ele></trkpt>
<trkpt lon="-4.785177" lat="43.166174"><ele>1628.0</ele></trkpt>
<trkpt lon="-4.784758" lat="43.166205"><ele>1626.75</ele></trkpt>
<trkpt lon="-4.784423" lat="43.166215"><ele>1625.25</ele></trkpt>
<trkpt lon="-4.783820" lat="43.166253"><ele>1620.25</ele></trkpt>
<trkpt lon="-4.783493" lat="43.166258"><ele>1617.25</ele></trkpt>
<trkpt lon="-4.783329" lat="43.166270"><ele>1615.25</ele></trkpt>
<trkpt lon="-4.783092" lat="43.166289"><ele>1615.25</ele></trkpt>
<trkpt lon="-4.782726" lat="43.166385"><ele>1613.0</ele></trkpt>
<trkpt lon="-4.782517" lat="43.166454"><ele>1609.25</ele></trkpt>
<trkpt lon="-4.782321" lat="43.166485"><ele>1607.25</ele></trkpt>
<trkpt lon="-4.782100" lat="43.166477"><ele>1605.5</ele></trkpt>
<trkpt lon="-4.781717" lat="43.166507"><ele>1602.75</ele></trkpt>
<trkpt lon="-4.781289" lat="43.166547"><ele>1601.75</ele></trkpt>
<trkpt lon="-4.780752" lat="43.166611"><ele>1599.75</ele></trkpt>
<trkpt lon="-4.780232" lat="43.166727"><ele>1595.0</ele></trkpt>
<trkpt lon="-4.779989" lat="43.166754"><ele>1592.75</ele></trkpt>
<trkpt lon="-4.779761" lat="43.166738"><ele>1591.25</ele></trkpt>
<trkpt lon="-4.779504" lat="43.166638"><ele>1590.0</ele></trkpt>
<trkpt lon="-4.779150" lat="43.166384"><ele>1588.0</ele></trkpt>
<trkpt lon="-4.778893" lat="43.166255"><ele>1587.0</ele></trkpt>
<trkpt lon="-4.778419" lat="43.165998"><ele>1584.25</ele></trkpt>
<trkpt lon="-4.778032" lat="43.165889"><ele>1583.25</ele></trkpt>
<trkpt lon="-4.777697" lat="43.165808"><ele>1581.75</ele></trkpt>
<trkpt lon="-4.777021" lat="43.165580"><ele>1576.75</ele></trkpt>
<trkpt lon="-4.776482" lat="43.165486"><ele>1573.5</ele></trkpt>
<trkpt lon="-4.776117" lat="43.165430"><ele>1571.0</ele></trkpt>
<trkpt lon="-4.775494" lat="43.165307"><ele>1566.75</ele></trkpt>
<trkpt lon="-4.775132" lat="43.165242"><ele>1566.25</ele></trkpt>
<trkpt lon="-4.774437" lat="43.165041"><ele>1560.75</ele></trkpt>
<trkpt lon="-4.774152" lat="43.165017"><ele>1559.0</ele></trkpt>
<trkpt lon="-4.773978" lat="43.165065"><ele>1558.0</ele></trkpt>
<trkpt lon="-4.773917" lat="43.165093"><ele>1557.5</ele></trkpt>
<trkpt lon="-4.773839" lat="43.165130"><ele>1556.75</ele></trkpt>
<trkpt lon="-4.773707" lat="43.165160"><ele>1555.75</ele></trkpt>
<trkpt lon="-4.773364" lat="43.165127"><ele>1553.5</ele></trkpt>
<trkpt lon="-4.773143" lat="43.165133"><ele>1552.0</ele></trkpt>
<trkpt lon="-4.772926" lat="43.165211"><ele>1549.25</ele></trkpt>
<trkpt lon="-4.772759" lat="43.165259"><ele>1546.0</ele></trkpt>
<trkpt lon="-4.772636" lat="43.165283"><ele>1544.75</ele></trkpt>
<trkpt lon="-4.772143" lat="43.165310"><ele>1542.0</ele></trkpt>
<trkpt lon="-4.771982" lat="43.165303"><ele>1541.5</ele></trkpt>
<trkpt lon="-4.771683" lat="43.165260"><ele>1539.5</ele></trkpt>
<trkpt lon="-4.771506" lat="43.165223"><ele>1540.25</ele></trkpt>
<trkpt lon="-4.771319" lat="43.165163"><ele>1539.25</ele></trkpt>
<trkpt lon="-4.771144" lat="43.165081"><ele>1535.0</ele></trkpt>
<trkpt lon="-4.770844" lat="43.164880"><ele>1528.75</ele></trkpt>
<trkpt lon="-4.770657" lat="43.164695"><ele>1525.0</ele></trkpt>
<trkpt lon="-4.769873" lat="43.164076"><ele>1514.75</ele></trkpt>
<trkpt lon="-4.769528" lat="43.163884"><ele>1511.5</ele></trkpt>
<trkpt lon="-4.769267" lat="43.163690"><ele>1507.5</ele></trkpt>
<trkpt lon="-4.768954" lat="43.163487"><ele>1502.25</ele></trkpt>
<trkpt lon="-4.768863" lat="43.163435"><ele>1500.75</ele></trkpt>
<trkpt lon="-4.768752" lat="43.163397"><ele>1499.5</ele></trkpt>
<trkpt lon="-4.768580" lat="43.163410"><ele>1496.75</ele></trkpt>
<trkpt lon="-4.768423" lat="43.163450"><ele>1494.25</ele></trkpt>
<trkpt lon="-4.767904" lat="43.163652"><ele>1485.75</ele></trkpt>
<trkpt lon="-4.767738" lat="43.163883"><ele>1482.0</ele></trkpt>
<trkpt lon="-4.767719" lat="43.164074"><ele>1478.75</ele></trkpt>
<trkpt lon="-4.767682" lat="43.164210"><ele>1476.5</ele></trkpt>
<trkpt lon="-4.767682" lat="43.164387"><ele>1473.0</ele></trkpt>
<trkpt lon="-4.767540" lat="43.164700"><ele>1463.25</ele></trkpt>
<trkpt lon="-4.767669" lat="43.164967"><ele>1460.5</ele></trkpt>
<trkpt lon="-4.767832" lat="43.165175"><ele>1459.25</ele></trkpt>
<trkpt lon="-4.767873" lat="43.165273"><ele>1457.75</ele></trkpt>
<trkpt lon="-4.767918" lat="43.165436"><ele>1456.75</ele></trkpt>
<trkpt lon="-4.768049" lat="43.165814"><ele>1455.0</ele></trkpt>
<trkpt lon="-4.768099" lat="43.166029"><ele>1454.25</ele></trkpt>
<trkpt lon="-4.768130" lat="43.166267"><ele>1454.0</ele></trkpt>
<trkpt lon="-4.768141" lat="43.166533"><ele>1453.25</ele></trkpt>
<trkpt lon="-4.768116" lat="43.166777"><ele>1453.0</ele></trkpt>
<trkpt lon="-4.768049" lat="43.167212"><ele>1453.0</ele></trkpt>
<trkpt lon="-4.768060" lat="43.167396"><ele>1452.25</ele></trkpt>
<trkpt lon="-4.768150" lat="43.167653"><ele>1452.75</ele></trkpt>
<trkpt lon="-4.768293" lat="43.167963"><ele>1452.75</ele></trkpt>
<trkpt lon="-4.768335" lat="43.168104"><ele>1453.0</ele></trkpt>
<trkpt lon="-4.768369" lat="43.168265"><ele>1454.25</ele></trkpt>
<trkpt lon="-4.768420" lat="43.168436"><ele>1455.75</ele></trkpt>
<trkpt lon="-4.768443" lat="43.168496"><ele>1456.25</ele></trkpt>
<trkpt lon="-4.768467" lat="43.168559"><ele>1456.75</ele></trkpt>
<trkpt lon="-4.768510" lat="43.168613"><ele>1457.0</ele></trkpt>
<trkpt lon="-4.768610" lat="43.168707"><ele>1457.5</ele></trkpt>
<trkpt lon="-4.768737" lat="43.168861"><ele>1459.0</ele></trkpt>
<trkpt lon="-4.768809" lat="43.168926"><ele>1459.0</ele></trkpt>
<trkpt lon="-4.768887" lat="43.168982"><ele>1458.5</ele></trkpt>
<trkpt lon="-4.768967" lat="43.169029"><ele>1458.0</ele></trkpt>
<trkpt lon="-4.769039" lat="43.169093"><ele>1456.5</ele></trkpt>
<trkpt lon="-4.769112" lat="43.169191"><ele>1453.75</ele></trkpt>
<trkpt lon="-4.769277" lat="43.169425"><ele>1449.5</ele></trkpt>
<trkpt lon="-4.769389" lat="43.169654"><ele>1446.5</ele></trkpt>
<trkpt lon="-4.769490" lat="43.169915"><ele>1441.5</ele></trkpt>
<trkpt lon="-4.769492" lat="43.170094"><ele>1438.75</ele></trkpt>
<trkpt lon="-4.769440" lat="43.170430"><ele>1433.75</ele></trkpt>
<trkpt lon="-4.769408" lat="43.170618"><ele>1431.0</ele></trkpt>
<trkpt lon="-4.769344" lat="43.170863"><ele>1428.75</ele></trkpt>
<trkpt lon="-4.769244" lat="43.171126"><ele>1426.25</ele></trkpt>
<trkpt lon="-4.769149" lat="43.171299"><ele>1424.75</ele></trkpt>
<trkpt lon="-4.768968" lat="43.171534"><ele>1423.5</ele></trkpt>
<trkpt lon="-4.768859" lat="43.171676"><ele>1422.0</ele></trkpt>
<trkpt lon="-4.768719" lat="43.171831"><ele>1421.5</ele></trkpt>
<trkpt lon="-4.768502" lat="43.172238"><ele>1420.75</ele></trkpt>
<trkpt lon="-4.768304" lat="43.172534"><ele>1420.0</ele></trkpt>
<trkpt lon="-4.768157" lat="43.172823"><ele>1420.0</ele></trkpt>
<trkpt lon="-4.767920" lat="43.173231"><ele>1419.0</ele></trkpt>
<trkpt lon="-4.767430" lat="43.173989"><ele>1418.75</ele></trkpt>
<trkpt lon="-4.767267" lat="43.174257"><ele>1418.0</ele></trkpt>
<trkpt lon="-4.767073" lat="43.174545"><ele>1418.0</ele></trkpt>
<trkpt lon="-4.766872" lat="43.174800"><ele>1418.0</ele></trkpt>
<trkpt lon="-4.766688" lat="43.175049"><ele>1418.0</ele></trkpt>
<trkpt lon="-4.766369" lat="43.175613"><ele>1417.5</ele></trkpt>
<trkpt lon="-4.766263" lat="43.175850"><ele>1417.0</ele></trkpt>
<trkpt lon="-4.766075" lat="43.176353"><ele>1417.0</ele></trkpt>
<trkpt lon="-4.766027" lat="43.176583"><ele>1417.0</ele></trkpt>
<trkpt lon="-4.765997" lat="43.176959"><ele>1417.0</ele></trkpt>
<trkpt lon="-4.765963" lat="43.177038"><ele>1417.5</ele></trkpt>
<trkpt lon="-4.765777" lat="43.177283"><ele>1417.0</ele></trkpt>
<trkpt lon="-4.765712" lat="43.177356"><ele>1417.0</ele></trkpt>
<trkpt lon="-4.765684" lat="43.177509"><ele>1417.0</ele></trkpt>
<trkpt lon="-4.765642" lat="43.177659"><ele>1417.5</ele></trkpt>
<trkpt lon="-4.765499" lat="43.178045"><ele>1418.0</ele></trkpt>
<trkpt lon="-4.765425" lat="43.178424"><ele>1419.75</ele></trkpt>
<trkpt lon="-4.765316" lat="43.178587"><ele>1419.0</ele></trkpt>
<trkpt lon="-4.765126" lat="43.178817"><ele>1420.25</ele></trkpt>
<trkpt lon="-4.765025" lat="43.178999"><ele>1421.0</ele></trkpt>
<trkpt lon="-4.764783" lat="43.179504"><ele>1426.5</ele></trkpt>
<trkpt lon="-4.764673" lat="43.179648"><ele>1426.25</ele></trkpt>
<trkpt lon="-4.764519" lat="43.179980"><ele>1429.0</ele></trkpt>
<trkpt lon="-4.764501" lat="43.180083"><ele>1429.75</ele></trkpt>
<trkpt lon="-4.764513" lat="43.180144"><ele>1430.5</ele></trkpt>
<trkpt lon="-4.764556" lat="43.180237"><ele>1431.25</ele></trkpt>
<trkpt lon="-4.764699" lat="43.180419"><ele>1430.0</ele></trkpt>
<trkpt lon="-4.764720" lat="43.180530"><ele>1429.0</ele></trkpt>
<trkpt lon="-4.764719" lat="43.180668"><ele>1429.25</ele></trkpt>
<trkpt lon="-4.764698" lat="43.180789"><ele>1429.5</ele></trkpt>
<trkpt lon="-4.764695" lat="43.180991"><ele>1430.5</ele></trkpt>
<trkpt lon="-4.764714" lat="43.181050"><ele>1431.25</ele></trkpt>
<trkpt lon="-4.764782" lat="43.181125"><ele>1431.75</ele></trkpt>
<trkpt lon="-4.764735" lat="43.181261"><ele>1431.25</ele></trkpt>
<trkpt lon="-4.764749" lat="43.181416"><ele>1430.75</ele></trkpt>
<trkpt lon="-4.764778" lat="43.181568"><ele>1430.25</ele></trkpt>
<trkpt lon="-4.764753" lat="43.181703"><ele>1429.5</ele></trkpt>
<trkpt lon="-4.764644" lat="43.182117"><ele>1424.5</ele></trkpt>
<trkpt lon="-4.764528" lat="43.182404"><ele>1421.25</ele></trkpt>
<trkpt lon="-4.764473" lat="43.182662"><ele>1418.25</ele></trkpt>
<trkpt lon="-4.764412" lat="43.182880"><ele>1415.0</ele></trkpt>
<trkpt lon="-4.764338" lat="43.183033"><ele>1412.5</ele></trkpt>
<trkpt lon="-4.764348" lat="43.183293"><ele>1408.75</ele></trkpt>
<trkpt lon="-4.764345" lat="43.183446"><ele>1406.25</ele></trkpt>
<trkpt lon="-4.764301" lat="43.183675"><ele>1403.25</ele></trkpt>
<trkpt lon="-4.764195" lat="43.184047"><ele>1398.0</ele></trkpt>
<trkpt lon="-4.763849" lat="43.185116"><ele>1380.5</ele></trkpt>
<trkpt lon="-4.763623" lat="43.185703"><ele>1371.75</ele></trkpt>
<trkpt lon="-4.763441" lat="43.186217"><ele>1363.75</ele></trkpt>
<trkpt lon="-4.763374" lat="43.186591"><ele>1356.75</ele></trkpt>
<trkpt lon="-4.763304" lat="43.187111"><ele>1347.25</ele></trkpt>
<trkpt lon="-4.763291" lat="43.187350"><ele>1342.5</ele></trkpt>
<trkpt lon="-4.763197" lat="43.187498"><ele>1340.5</ele></trkpt>
<trkpt lon="-4.763009" lat="43.187636"><ele>1339.0</ele></trkpt>
<trkpt lon="-4.762866" lat="43.187773"><ele>1337.75</ele></trkpt>
<trkpt lon="-4.762699" lat="43.188042"><ele>1333.25</ele></trkpt>
<trkpt lon="-4.762520" lat="43.188428"><ele>1327.0</ele></trkpt>
<trkpt lon="-4.762479" lat="43.188660"><ele>1323.5</ele></trkpt>
<trkpt lon="-4.762501" lat="43.188865"><ele>1320.25</ele></trkpt>
<trkpt lon="-4.762630" lat="43.189153"><ele>1315.25</ele></trkpt>
<trkpt lon="-4.762641" lat="43.189260"><ele>1313.25</ele></trkpt>
<trkpt lon="-4.762574" lat="43.189378"><ele>1312.0</ele></trkpt>
<trkpt lon="-4.762443" lat="43.189482"><ele>1311.25</ele></trkpt>
<trkpt lon="-4.762245" lat="43.189549"><ele>1310.5</ele></trkpt>
<trkpt lon="-4.762098" lat="43.189562"><ele>1310.5</ele></trkpt>
<trkpt lon="-4.761963" lat="43.189603"><ele>1309.25</ele></trkpt>
<trkpt lon="-4.761847" lat="43.189697"><ele>1307.0</ele></trkpt>
<trkpt lon="-4.761817" lat="43.189746"><ele>1306.0</ele></trkpt>
<trkpt lon="-4.761810" lat="43.189798"><ele>1305.25</ele></trkpt>
<trkpt lon="-4.761815" lat="43.189877"><ele>1303.75</ele></trkpt>
<trkpt lon="-4.761873" lat="43.189962"><ele>1302.0</ele></trkpt>
<trkpt lon="-4.761980" lat="43.190044"><ele>1299.75</ele></trkpt>
<trkpt lon="-4.762129" lat="43.190105"><ele>1298.0</ele></trkpt>
<trkpt lon="-4.762228" lat="43.190115"><ele>1297.25</ele></trkpt>
<trkpt lon="-4.762313" lat="43.190136"><ele>1297.25</ele></trkpt>
<trkpt lon="-4.762370" lat="43.190164"><ele>1297.0</ele></trkpt>
<trkpt lon="-4.762405" lat="43.190202"><ele>1296.25</ele></trkpt>
<trkpt lon="-4.762424" lat="43.190265"><ele>1295.25</ele></trkpt>
<trkpt lon="-4.762422" lat="43.190313"><ele>1294.25</ele></trkpt>
<trkpt lon="-4.762346" lat="43.190456"><ele>1291.5</ele></trkpt>
<trkpt lon="-4.762254" lat="43.190587"><ele>1289.5</ele></trkpt>
<trkpt lon="-4.762242" lat="43.190627"><ele>1289.25</ele></trkpt>
<trkpt lon="-4.762236" lat="43.190719"><ele>1288.5</ele></trkpt>
<trkpt lon="-4.762274" lat="43.190844"><ele>1286.75</ele></trkpt>
<trkpt lon="-4.762440" lat="43.191096"><ele>1282.5</ele></trkpt>
<trkpt lon="-4.762501" lat="43.191210"><ele>1280.75</ele></trkpt>
<trkpt lon="-4.762511" lat="43.191357"><ele>1279.0</ele></trkpt>
<trkpt lon="-4.762497" lat="43.191470"><ele>1277.75</ele></trkpt>
<trkpt lon="-4.762395" lat="43.191545"><ele>1276.5</ele></trkpt>
<trkpt lon="-4.762255" lat="43.191604"><ele>1275.0</ele></trkpt>
<trkpt lon="-4.762216" lat="43.191685"><ele>1273.75</ele></trkpt>
<trkpt lon="-4.762218" lat="43.191846"><ele>1272.5</ele></trkpt>
<trkpt lon="-4.762311" lat="43.192237"><ele>1270.5</ele></trkpt>
<trkpt lon="-4.762328" lat="43.192439"><ele>1268.25</ele></trkpt>
<trkpt lon="-4.762371" lat="43.192608"><ele>1267.5</ele></trkpt>
<trkpt lon="-4.762369" lat="43.192748"><ele>1267.75</ele></trkpt>
<trkpt lon="-4.762352" lat="43.192887"><ele>1267.0</ele></trkpt>
<trkpt lon="-4.762371" lat="43.193176"><ele>1263.75</ele></trkpt>
<trkpt lon="-4.762378" lat="43.193508"><ele>1256.75</ele></trkpt>
<trkpt lon="-4.762340" lat="43.193667"><ele>1253.25</ele></trkpt>
<trkpt lon="-4.762300" lat="43.193764"><ele>1251.75</ele></trkpt>
<trkpt lon="-4.762199" lat="43.193969"><ele>1249.5</ele></trkpt>
<trkpt lon="-4.762154" lat="43.194082"><ele>1248.75</ele></trkpt>
<trkpt lon="-4.762139" lat="43.194144"><ele>1248.25</ele></trkpt>
<trkpt lon="-4.762175" lat="43.194298"><ele>1246.25</ele></trkpt>
<trkpt lon="-4.762277" lat="43.194396"><ele>1244.0</ele></trkpt>
<trkpt lon="-4.762422" lat="43.194515"><ele>1242.5</ele></trkpt>
<trkpt lon="-4.762516" lat="43.194663"><ele>1242.25</ele></trkpt>
<trkpt lon="-4.762629" lat="43.194912"><ele>1240.25</ele></trkpt>
<trkpt lon="-4.762688" lat="43.195320"><ele>1232.75</ele></trkpt>
<trkpt lon="-4.762618" lat="43.195472"><ele>1230.25</ele></trkpt>
<trkpt lon="-4.762497" lat="43.195684"><ele>1230.0</ele></trkpt>
<trkpt lon="-4.762390" lat="43.195911"><ele>1226.5</ele></trkpt>
<trkpt lon="-4.762376" lat="43.196076"><ele>1224.5</ele></trkpt>
<trkpt lon="-4.762415" lat="43.196175"><ele>1223.25</ele></trkpt>
<trkpt lon="-4.762634" lat="43.196521"><ele>1218.25</ele></trkpt>
<trkpt lon="-4.762765" lat="43.196634"><ele>1215.0</ele></trkpt>
<trkpt lon="-4.762900" lat="43.196733"><ele>1211.25</ele></trkpt>
<trkpt lon="-4.763038" lat="43.196799"><ele>1208.25</ele></trkpt>
<trkpt lon="-4.763216" lat="43.196851"><ele>1205.75</ele></trkpt>
<trkpt lon="-4.763291" lat="43.196944"><ele>1205.75</ele></trkpt>
<trkpt lon="-4.763277" lat="43.197018"><ele>1204.5</ele></trkpt>
<trkpt lon="-4.763216" lat="43.197101"><ele>1204.25</ele></trkpt>
<trkpt lon="-4.763159" lat="43.197151"><ele>1205.0</ele></trkpt>
<trkpt lon="-4.763202" lat="43.197207"><ele>1203.0</ele></trkpt>
<trkpt lon="-4.763292" lat="43.197224"><ele>1200.0</ele></trkpt>
<trkpt lon="-4.763367" lat="43.197188"><ele>1199.25</ele></trkpt>
<trkpt lon="-4.763521" lat="43.197158"><ele>1197.25</ele></trkpt>
<trkpt lon="-4.763651" lat="43.197185"><ele>1194.75</ele></trkpt>
<trkpt lon="-4.763698" lat="43.197255"><ele>1192.5</ele></trkpt>
<trkpt lon="-4.763686" lat="43.197349"><ele>1190.75</ele></trkpt>
<trkpt lon="-4.763644" lat="43.197415"><ele>1190.25</ele></trkpt>
<trkpt lon="-4.763596" lat="43.197524"><ele>1189.0</ele></trkpt>
<trkpt lon="-4.763589" lat="43.197646"><ele>1187.5</ele></trkpt>
<trkpt lon="-4.763606" lat="43.197748"><ele>1185.5</ele></trkpt>
<trkpt lon="-4.763671" lat="43.197902"><ele>1183.75</ele></trkpt>
<trkpt lon="-4.763825" lat="43.198105"><ele>1179.25</ele></trkpt>
<trkpt lon="-4.764005" lat="43.198308"><ele>1176.5</ele></trkpt>
<trkpt lon="-4.764011" lat="43.198382"><ele>1175.0</ele></trkpt>
<trkpt lon="-4.763939" lat="43.198546"><ele>1172.0</ele></trkpt>
<trkpt lon="-4.763942" lat="43.198670"><ele>1169.0</ele></trkpt>
<trkpt lon="-4.763963" lat="43.198720"><ele>1168.0</ele></trkpt>
<trkpt lon="-4.763976" lat="43.198753"><ele>1167.25</ele></trkpt>
<trkpt lon="-4.764069" lat="43.198891"><ele>1163.5</ele></trkpt>
<trkpt lon="-4.764123" lat="43.198945"><ele>1161.5</ele></trkpt>
<trkpt lon="-4.764222" lat="43.199004"><ele>1160.5</ele></trkpt>
<trkpt lon="-4.764280" lat="43.199067"><ele>1160.25</ele></trkpt>
<trkpt lon="-4.764286" lat="43.199202"><ele>1158.25</ele></trkpt>
<trkpt lon="-4.764267" lat="43.199353"><ele>1156.5</ele></trkpt>
<trkpt lon="-4.764082" lat="43.199596"><ele>1152.0</ele></trkpt>
<trkpt lon="-4.764038" lat="43.199754"><ele>1149.75</ele></trkpt>
<trkpt lon="-4.764032" lat="43.199875"><ele>1145.5</ele></trkpt>
<trkpt lon="-4.764041" lat="43.200014"><ele>1141.5</ele></trkpt>
<trkpt lon="-4.764085" lat="43.200161"><ele>1138.25</ele></trkpt>
<trkpt lon="-4.764152" lat="43.200312"><ele>1135.0</ele></trkpt>
<trkpt lon="-4.764159" lat="43.200431"><ele>1133.0</ele></trkpt>
<trkpt lon="-4.764016" lat="43.200741"><ele>1125.25</ele></trkpt>
<trkpt lon="-4.764106" lat="43.201000"><ele>1120.5</ele></trkpt>
<trkpt lon="-4.764495" lat="43.201233"><ele>1114.75</ele></trkpt>
<trkpt lon="-4.764987" lat="43.201429"><ele>1105.25</ele></trkpt>
<trkpt lon="-4.765273" lat="43.201568"><ele>1101.5</ele></trkpt>
<trkpt lon="-4.765399" lat="43.201692"><ele>1099.75</ele></trkpt>
<trkpt lon="-4.765488" lat="43.201815"><ele>1097.5</ele></trkpt>
<trkpt lon="-4.765592" lat="43.201981"><ele>1095.0</ele></trkpt>
<trkpt lon="-4.766162" lat="43.202117"><ele>1089.75</ele></trkpt>
<trkpt lon="-4.766376" lat="43.202219"><ele>1087.0</ele></trkpt>
<trkpt lon="-4.766486" lat="43.202308"><ele>1085.75</ele></trkpt>
<trkpt lon="-4.766727" lat="43.202731"><ele>1080.75</ele></trkpt>
<trkpt lon="-4.766829" lat="43.202889"><ele>1079.25</ele></trkpt>
<trkpt lon="-4.766949" lat="43.203014"><ele>1078.0</ele></trkpt>
<trkpt lon="-4.766965" lat="43.203283"><ele>1075.5</ele></trkpt>
<trkpt lon="-4.766901" lat="43.203528"><ele>1073.0</ele></trkpt>
<trkpt lon="-4.766964" lat="43.203676"><ele>1072.0</ele></trkpt>
<trkpt lon="-4.767066" lat="43.203772"><ele>1070.5</ele></trkpt>
<trkpt lon="-4.767203" lat="43.204099"><ele>1067.75</ele></trkpt>
<trkpt lon="-4.767540" lat="43.204399"><ele>1063.25</ele></trkpt>
<trkpt lon="-4.767644" lat="43.204576"><ele>1061.5</ele></trkpt>
<trkpt lon="-4.767677" lat="43.204632"><ele>1061.0</ele></trkpt>
<trkpt lon="-4.767691" lat="43.204804"><ele>1059.5</ele></trkpt>
<trkpt lon="-4.767621" lat="43.204959"><ele>1058.25</ele></trkpt>
<trkpt lon="-4.767597" lat="43.205115"><ele>1056.75</ele></trkpt>
<trkpt lon="-4.767687" lat="43.205500"><ele>1053.5</ele></trkpt>
<trkpt lon="-4.767782" lat="43.205799"><ele>1051.0</ele></trkpt>
<trkpt lon="-4.767783" lat="43.205881"><ele>1050.25</ele></trkpt>
<trkpt lon="-4.767760" lat="43.205961"><ele>1049.5</ele></trkpt>
<trkpt lon="-4.767706" lat="43.206065"><ele>1048.5</ele></trkpt>
<trkpt lon="-4.767321" lat="43.206363"><ele>1047.0</ele></trkpt>
<trkpt lon="-4.766960" lat="43.206606"><ele>1044.25</ele></trkpt>
<trkpt lon="-4.766789" lat="43.206670"><ele>1043.75</ele></trkpt>
<trkpt lon="-4.766616" lat="43.206752"><ele>1043.5</ele></trkpt>
<trkpt lon="-4.766396" lat="43.206897"><ele>1042.5</ele></trkpt>
<trkpt lon="-4.766223" lat="43.206986"><ele>1042.0</ele></trkpt>
<trkpt lon="-4.765991" lat="43.207070"><ele>1041.75</ele></trkpt>
<trkpt lon="-4.765793" lat="43.207179"><ele>1041.25</ele></trkpt>
<trkpt lon="-4.765665" lat="43.207370"><ele>1040.0</ele></trkpt>
<trkpt lon="-4.765531" lat="43.207547"><ele>1038.5</ele></trkpt>
<trkpt lon="-4.765476" lat="43.207619"><ele>1038.25</ele></trkpt>
<trkpt lon="-4.765142" lat="43.208001"><ele>1034.25</ele></trkpt>
<trkpt lon="-4.764824" lat="43.208303"><ele>1032.75</ele></trkpt>
<trkpt lon="-4.764761" lat="43.208414"><ele>1031.75</ele></trkpt>
<trkpt lon="-4.764684" lat="43.208518"><ele>1031.5</ele></trkpt>
<trkpt lon="-4.764534" lat="43.208643"><ele>1030.25</ele></trkpt>
<trkpt lon="-4.764282" lat="43.208984"><ele>1027.0</ele></trkpt>
<trkpt lon="-4.763992" lat="43.209325"><ele>1025.25</ele></trkpt>
<trkpt lon="-4.763535" lat="43.209815"><ele>1020.5</ele></trkpt>
<trkpt lon="-4.763268" lat="43.210071"><ele>1018.5</ele></trkpt>
<trkpt lon="-4.763112" lat="43.210263"><ele>1017.25</ele></trkpt>
<trkpt lon="-4.763050" lat="43.210446"><ele>1015.75</ele></trkpt>
<trkpt lon="-4.763021" lat="43.210574"><ele>1015.0</ele></trkpt>
<trkpt lon="-4.762955" lat="43.210717"><ele>1014.25</ele></trkpt>
<trkpt lon="-4.762680" lat="43.211120"><ele>1012.5</ele></trkpt>
<trkpt lon="-4.762568" lat="43.211211"><ele>1012.5</ele></trkpt>
<trkpt lon="-4.762460" lat="43.211393"><ele>1011.75</ele></trkpt>
<trkpt lon="-4.762412" lat="43.211531"><ele>1011.5</ele></trkpt>
<trkpt lon="-4.762291" lat="43.211727"><ele>1010.75</ele></trkpt>
<trkpt lon="-4.762233" lat="43.211913"><ele>1009.25</ele></trkpt>
<trkpt lon="-4.762223" lat="43.212051"><ele>1009.25</ele></trkpt>
<trkpt lon="-4.762248" lat="43.212147"><ele>1009.5</ele></trkpt>
<trkpt lon="-4.762373" lat="43.212415"><ele>1009.5</ele></trkpt>
<trkpt lon="-4.762404" lat="43.212560"><ele>1009.0</ele></trkpt>
<trkpt lon="-4.762467" lat="43.212735"><ele>1006.75</ele></trkpt>
<trkpt lon="-4.762472" lat="43.212835"><ele>1005.75</ele></trkpt>
<trkpt lon="-4.762395" lat="43.212976"><ele>1004.75</ele></trkpt>
<trkpt lon="-4.762180" lat="43.213150"><ele>1003.5</ele></trkpt>
<trkpt lon="-4.761938" lat="43.213319"><ele>1000.25</ele></trkpt>
<trkpt lon="-4.761818" lat="43.213377"><ele>998.75</ele></trkpt>
<trkpt lon="-4.761637" lat="43.213415"><ele>998.5</ele></trkpt>
<trkpt lon="-4.761562" lat="43.213465"><ele>998.5</ele></trkpt>
<trkpt lon="-4.761281" lat="43.213827"><ele>994.75</ele></trkpt>
<trkpt lon="-4.761073" lat="43.214122"><ele>989.75</ele></trkpt>
<trkpt lon="-4.760766" lat="43.214331"><ele>988.25</ele></trkpt>
<trkpt lon="-4.760653" lat="43.214448"><ele>985.25</ele></trkpt>
<trkpt lon="-4.760583" lat="43.214535"><ele>984.0</ele></trkpt>
<trkpt lon="-4.760339" lat="43.214774"><ele>982.25</ele></trkpt>
<trkpt lon="-4.760184" lat="43.214977"><ele>979.5</ele></trkpt>
<trkpt lon="-4.760080" lat="43.215134"><ele>979.25</ele></trkpt>
<trkpt lon="-4.760013" lat="43.215291"><ele>978.0</ele></trkpt>
<trkpt lon="-4.759959" lat="43.215486"><ele>976.0</ele></trkpt>
<trkpt lon="-4.759850" lat="43.215772"><ele>974.0</ele></trkpt>
<trkpt lon="-4.759727" lat="43.216060"><ele>971.75</ele></trkpt>
<trkpt lon="-4.759629" lat="43.216338"><ele>969.5</ele></trkpt>
<trkpt lon="-4.759430" lat="43.216753"><ele>964.25</ele></trkpt>
<trkpt lon="-4.759258" lat="43.217076"><ele>959.25</ele></trkpt>
<trkpt lon="-4.758978" lat="43.217504"><ele>952.5</ele></trkpt>
<trkpt lon="-4.758736" lat="43.217845"><ele>948.5</ele></trkpt>
<trkpt lon="-4.758510" lat="43.218215"><ele>943.75</ele></trkpt>
<trkpt lon="-4.758391" lat="43.218445"><ele>942.5</ele></trkpt>
<trkpt lon="-4.758283" lat="43.218770"><ele>940.75</ele></trkpt>
<trkpt lon="-4.758132" lat="43.219215"><ele>936.75</ele></trkpt>
<trkpt lon="-4.758022" lat="43.219571"><ele>934.5</ele></trkpt>
<trkpt lon="-4.757975" lat="43.219665"><ele>933.75</ele></trkpt>
<trkpt lon="-4.757901" lat="43.219812"><ele>932.0</ele></trkpt>
<trkpt lon="-4.757756" lat="43.219994"><ele>929.5</ele></trkpt>
<trkpt lon="-4.757596" lat="43.220104"><ele>928.0</ele></trkpt>
<trkpt lon="-4.757364" lat="43.220204"><ele>926.5</ele></trkpt>
<trkpt lon="-4.757035" lat="43.220469"><ele>923.25</ele></trkpt>
<trkpt lon="-4.756818" lat="43.220635"><ele>922.0</ele></trkpt>
<trkpt lon="-4.756605" lat="43.220785"><ele>920.75</ele></trkpt>
<trkpt lon="-4.756278" lat="43.220944"><ele>920.0</ele></trkpt>
<trkpt lon="-4.755992" lat="43.221164"><ele>919.0</ele></trkpt>
<trkpt lon="-4.755844" lat="43.221318"><ele>918.75</ele></trkpt>
<trkpt lon="-4.755738" lat="43.221521"><ele>917.5</ele></trkpt>
<trkpt lon="-4.755691" lat="43.221716"><ele>916.5</ele></trkpt>
<trkpt lon="-4.755686" lat="43.221837"><ele>916.75</ele></trkpt>
<trkpt lon="-4.755769" lat="43.222122"><ele>915.25</ele></trkpt>
<trkpt lon="-4.755865" lat="43.222588"><ele>912.75</ele></trkpt>
<trkpt lon="-4.755852" lat="43.222759"><ele>913.25</ele></trkpt>
<trkpt lon="-4.755834" lat="43.223204"><ele>910.5</ele></trkpt>
<trkpt lon="-4.755801" lat="43.223273"><ele>911.25</ele></trkpt>
<trkpt lon="-4.755686" lat="43.223436"><ele>913.0</ele></trkpt>
<trkpt lon="-4.755548" lat="43.223653"><ele>910.5</ele></trkpt>
<trkpt lon="-4.755546" lat="43.223799"><ele>911.25</ele></trkpt>
<trkpt lon="-4.755603" lat="43.223929"><ele>909.75</ele></trkpt>
<trkpt lon="-4.755663" lat="43.224152"><ele>910.0</ele></trkpt>
<trkpt lon="-4.755674" lat="43.224295"><ele>907.25</ele></trkpt>
<trkpt lon="-4.755652" lat="43.224355"><ele>907.0</ele></trkpt>
<trkpt lon="-4.755605" lat="43.224421"><ele>907.0</ele></trkpt>
<trkpt lon="-4.755410" lat="43.224615"><ele>908.25</ele></trkpt>
<trkpt lon="-4.755385" lat="43.224649"><ele>907.75</ele></trkpt>
<trkpt lon="-4.755306" lat="43.224719"><ele>907.5</ele></trkpt>
<trkpt lon="-4.755270" lat="43.224785"><ele>907.25</ele></trkpt>
<trkpt lon="-4.755192" lat="43.224875"><ele>910.0</ele></trkpt>
<trkpt lon="-4.755165" lat="43.224922"><ele>910.75</ele></trkpt>
<trkpt lon="-4.755081" lat="43.225125"><ele>913.25</ele></trkpt>
<trkpt lon="-4.755070" lat="43.225175"><ele>913.5</ele></trkpt>
<trkpt lon="-4.755066" lat="43.225287"><ele>913.25</ele></trkpt>
<trkpt lon="-4.755078" lat="43.225358"><ele>913.0</ele></trkpt>
<trkpt lon="-4.755137" lat="43.225530"><ele>912.25</ele></trkpt>
<trkpt lon="-4.755138" lat="43.225579"><ele>912.5</ele></trkpt>
<trkpt lon="-4.755101" lat="43.225827"><ele>914.25</ele></trkpt>
<trkpt lon="-4.755033" lat="43.226168"><ele>914.75</ele></trkpt>
<trkpt lon="-4.754967" lat="43.226397"><ele>914.5</ele></trkpt>
<trkpt lon="-4.754881" lat="43.226631"><ele>914.25</ele></trkpt>
<trkpt lon="-4.754813" lat="43.226872"><ele>912.0</ele></trkpt>
<trkpt lon="-4.754784" lat="43.227124"><ele>908.0</ele></trkpt>
<trkpt lon="-4.754785" lat="43.227204"><ele>906.25</ele></trkpt>
<trkpt lon="-4.754752" lat="43.227291"><ele>904.25</ele></trkpt>
<trkpt lon="-4.754672" lat="43.227365"><ele>902.5</ele></trkpt>
<trkpt lon="-4.754566" lat="43.227394"><ele>901.75</ele></trkpt>
<trkpt lon="-4.754435" lat="43.227412"><ele>901.25</ele></trkpt>
<trkpt lon="-4.754302" lat="43.227417"><ele>900.0</ele></trkpt>
<trkpt lon="-4.754170" lat="43.227405"><ele>899.75</ele></trkpt>
<trkpt lon="-4.754077" lat="43.227387"><ele>899.5</ele></trkpt>
<trkpt lon="-4.753948" lat="43.227320"><ele>900.0</ele></trkpt>
<trkpt lon="-4.753875" lat="43.227296"><ele>899.5</ele></trkpt>
<trkpt lon="-4.753771" lat="43.227276"><ele>899.0</ele></trkpt>
<trkpt lon="-4.753703" lat="43.227287"><ele>898.5</ele></trkpt>
<trkpt lon="-4.753640" lat="43.227315"><ele>898.25</ele></trkpt>
<trkpt lon="-4.753608" lat="43.227357"><ele>899.0</ele></trkpt>
<trkpt lon="-4.753603" lat="43.227400"><ele>899.75</ele></trkpt>
<trkpt lon="-4.753615" lat="43.227445"><ele>900.0</ele></trkpt>
<trkpt lon="-4.753754" lat="43.227690"><ele>906.25</ele></trkpt>
<trkpt lon="-4.753816" lat="43.227773"><ele>906.75</ele></trkpt>
<trkpt lon="-4.753913" lat="43.227875"><ele>907.75</ele></trkpt>
<trkpt lon="-4.754012" lat="43.227960"><ele>909.0</ele></trkpt>
<trkpt lon="-4.754148" lat="43.228105"><ele>910.5</ele></trkpt>
<trkpt lon="-4.754208" lat="43.228189"><ele>911.25</ele></trkpt>
<trkpt lon="-4.754264" lat="43.228328"><ele>914.5</ele></trkpt>
<trkpt lon="-4.754214" lat="43.228404"><ele>918.25</ele></trkpt>
<trkpt lon="-4.754146" lat="43.228417"><ele>921.0</ele></trkpt>
<trkpt lon="-4.754091" lat="43.228530"><ele>926.25</ele></trkpt>
<trkpt lon="-4.753983" lat="43.228664"><ele>932.75</ele></trkpt>
<trkpt lon="-4.753854" lat="43.228713"><ele>938.5</ele></trkpt>
<trkpt lon="-4.753882" lat="43.228907"><ele>939.0</ele></trkpt>
<trkpt lon="-4.753763" lat="43.229121"><ele>942.0</ele></trkpt>
<trkpt lon="-4.753822" lat="43.229619"><ele>941.75</ele></trkpt>
<trkpt lon="-4.753725" lat="43.229899"><ele>946.0</ele></trkpt>
<trkpt lon="-4.753660" lat="43.230168"><ele>947.75</ele></trkpt>
<trkpt lon="-4.753499" lat="43.230287"><ele>952.25</ele></trkpt>
<trkpt lon="-4.753335" lat="43.230319"><ele>956.25</ele></trkpt>
<trkpt lon="-4.753164" lat="43.230337"><ele>959.75</ele></trkpt>
<trkpt lon="-4.752971" lat="43.230334"><ele>963.5</ele></trkpt>
<trkpt lon="-4.752921" lat="43.230114"><ele>976.0</ele></trkpt>
<trkpt lon="-4.752636" lat="43.230150"><ele>979.5</ele></trkpt>
<trkpt lon="-4.752127" lat="43.230114"><ele>989.25</ele></trkpt>
<trkpt lon="-4.751948" lat="43.230091"><ele>991.25</ele></trkpt>
<trkpt lon="-4.751725" lat="43.230124"><ele>992.75</ele></trkpt>
<trkpt lon="-4.751429" lat="43.230314"><ele>989.0</ele></trkpt>
<trkpt lon="-4.750653" lat="43.230627"><ele>993.75</ele></trkpt>
<trkpt lon="-4.750064" lat="43.230785"><ele>1007.5</ele></trkpt>
<trkpt lon="-4.749904" lat="43.230998"><ele>1010.25</ele></trkpt>
<trkpt lon="-4.749418" lat="43.231237"><ele>1015.25</ele></trkpt>
<trkpt lon="-4.749272" lat="43.231285"><ele>1017.0</ele></trkpt>
<trkpt lon="-4.749215" lat="43.231361"><ele>1015.5</ele></trkpt>
<trkpt lon="-4.749073" lat="43.231442"><ele>1018.25</ele></trkpt>
<trkpt lon="-4.748881" lat="43.231635"><ele>1020.5</ele></trkpt>
<trkpt lon="-4.748849" lat="43.231657"><ele>1020.75</ele></trkpt>
<trkpt lon="-4.748804" lat="43.231671"><ele>1021.5</ele></trkpt>
<trkpt lon="-4.748626" lat="43.231640"><ele>1025.0</ele></trkpt>
<trkpt lon="-4.748498" lat="43.231645"><ele>1026.5</ele></trkpt>
<trkpt lon="-4.748429" lat="43.231639"><ele>1027.5</ele></trkpt>
<trkpt lon="-4.748266" lat="43.231597"><ele>1030.0</ele></trkpt>
<trkpt lon="-4.748156" lat="43.231588"><ele>1031.25</ele></trkpt>
<trkpt lon="-4.748065" lat="43.231652"><ele>1031.0</ele></trkpt>
<trkpt lon="-4.747995" lat="43.231730"><ele>1033.0</ele></trkpt>
<trkpt lon="-4.747953" lat="43.231822"><ele>1034.5</ele></trkpt>
<trkpt lon="-4.747929" lat="43.231947"><ele>1035.75</ele></trkpt>
<trkpt lon="-4.747880" lat="43.232071"><ele>1034.75</ele></trkpt>
<trkpt lon="-4.747844" lat="43.232165"><ele>1033.25</ele></trkpt>
<trkpt lon="-4.747831" lat="43.232182"><ele>1033.0</ele></trkpt>
<trkpt lon="-4.747807" lat="43.232191"><ele>1032.75</ele></trkpt>
<trkpt lon="-4.747621" lat="43.232206"><ele>1031.75</ele></trkpt>
<trkpt lon="-4.747631" lat="43.232258"><ele>1030.25</ele></trkpt>
<trkpt lon="-4.747627" lat="43.232275"><ele>1029.75</ele></trkpt>
<trkpt lon="-4.747604" lat="43.232298"><ele>1029.25</ele></trkpt>
<trkpt lon="-4.747575" lat="43.232314"><ele>1028.75</ele></trkpt>
<trkpt lon="-4.747539" lat="43.232322"><ele>1028.5</ele></trkpt>
<trkpt lon="-4.747539" lat="43.232417"><ele>1026.0</ele></trkpt>
<trkpt lon="-4.747517" lat="43.232445"><ele>1025.25</ele></trkpt>
<trkpt lon="-4.747462" lat="43.232483"><ele>1024.5</ele></trkpt>
<trkpt lon="-4.747484" lat="43.232568"><ele>1024.5</ele></trkpt>
<trkpt lon="-4.747456" lat="43.232573"><ele>1024.5</ele></trkpt>
<trkpt lon="-4.747426" lat="43.232579"><ele>1024.75</ele></trkpt>
<trkpt lon="-4.747484" lat="43.232731"><ele>1025.5</ele></trkpt>
<trkpt lon="-4.747539" lat="43.232801"><ele>1026.75</ele></trkpt>
<trkpt lon="-4.747569" lat="43.232824"><ele>1027.25</ele></trkpt>
<trkpt lon="-4.747608" lat="43.232843"><ele>1028.0</ele></trkpt>
<trkpt lon="-4.747723" lat="43.232872"><ele>1028.75</ele></trkpt>
<trkpt lon="-4.747771" lat="43.232910"><ele>1029.75</ele></trkpt>
<trkpt lon="-4.747782" lat="43.232953"><ele>1030.75</ele></trkpt>
<trkpt lon="-4.747729" lat="43.233031"><ele>1032.5</ele></trkpt>
<trkpt lon="-4.747715" lat="43.233073"><ele>1033.5</ele></trkpt>
<trkpt lon="-4.747749" lat="43.233191"><ele>1036.0</ele></trkpt>
<trkpt lon="-4.747770" lat="43.233221"><ele>1036.5</ele></trkpt>
<trkpt lon="-4.747804" lat="43.233231"><ele>1037.0</ele></trkpt>
<trkpt lon="-4.748005" lat="43.233201"><ele>1038.5</ele></trkpt>
<trkpt lon="-4.748043" lat="43.233262"><ele>1039.75</ele></trkpt>
<trkpt lon="-4.748074" lat="43.233405"><ele>1042.25</ele></trkpt>
<trkpt lon="-4.748219" lat="43.233403"><ele>1043.75</ele></trkpt>
<trkpt lon="-4.748542" lat="43.233320"><ele>1043.5</ele></trkpt>
<trkpt lon="-4.748656" lat="43.233318"><ele>1044.0</ele></trkpt>
<trkpt lon="-4.748800" lat="43.233329"><ele>1045.75</ele></trkpt>
<trkpt lon="-4.748932" lat="43.233337"><ele>1047.5</ele></trkpt>
<trkpt lon="-4.749128" lat="43.233291"><ele>1048.75</ele></trkpt>
<trkpt lon="-4.749254" lat="43.233274"><ele>1049.25</ele></trkpt>
<trkpt lon="-4.749369" lat="43.233271"><ele>1049.75</ele></trkpt>
<trkpt lon="-4.749435" lat="43.233281"><ele>1050.0</ele></trkpt>
<trkpt lon="-4.749527" lat="43.233307"><ele>1050.75</ele></trkpt>
<trkpt lon="-4.749631" lat="43.233340"><ele>1051.75</ele></trkpt>
<trkpt lon="-4.749763" lat="43.233348"><ele>1052.0</ele></trkpt>
<trkpt lon="-4.749845" lat="43.233360"><ele>1052.0</ele></trkpt>
<trkpt lon="-4.749844" lat="43.233399"><ele>1053.0</ele></trkpt>
<trkpt lon="-4.749835" lat="43.233423"><ele>1053.75</ele></trkpt>
<trkpt lon="-4.749731" lat="43.233592"><ele>1058.25</ele></trkpt>
<trkpt lon="-4.749698" lat="43.233675"><ele>1060.75</ele></trkpt>
<trkpt lon="-4.749741" lat="43.233699"><ele>1061.25</ele></trkpt>
<trkpt lon="-4.749919" lat="43.233768"><ele>1062.75</ele></trkpt>
<trkpt lon="-4.749990" lat="43.233818"><ele>1063.75</ele></trkpt>
<trkpt lon="-4.750186" lat="43.234051"><ele>1065.25</ele></trkpt>
<trkpt lon="-4.750427" lat="43.234290"><ele>1066.75</ele></trkpt>
<trkpt lon="-4.750456" lat="43.234322"><ele>1067.0</ele></trkpt>
<trkpt lon="-4.750464" lat="43.234343"><ele>1067.5</ele></trkpt>
<trkpt lon="-4.750462" lat="43.234363"><ele>1068.0</ele></trkpt>
<trkpt lon="-4.750445" lat="43.234381"><ele>1068.5</ele></trkpt>
<trkpt lon="-4.750411" lat="43.234406"><ele>1069.25</ele></trkpt>
<trkpt lon="-4.750388" lat="43.234415"><ele>1069.5</ele></trkpt>
<trkpt lon="-4.750338" lat="43.234426"><ele>1070.0</ele></trkpt>
<trkpt lon="-4.750271" lat="43.234432"><ele>1070.75</ele></trkpt>
<trkpt lon="-4.750099" lat="43.234434"><ele>1074.0</ele></trkpt>
<trkpt lon="-4.749959" lat="43.234450"><ele>1077.25</ele></trkpt>
<trkpt lon="-4.749913" lat="43.234471"><ele>1078.75</ele></trkpt>
<trkpt lon="-4.749878" lat="43.234501"><ele>1080.25</ele></trkpt>
<trkpt lon="-4.749864" lat="43.234532"><ele>1081.0</ele></trkpt>
<trkpt lon="-4.749857" lat="43.234563"><ele>1081.5</ele></trkpt>
<trkpt lon="-4.749883" lat="43.234654"><ele>1082.25</ele></trkpt>
<trkpt lon="-4.749988" lat="43.234805"><ele>1084.0</ele></trkpt>
<trkpt lon="-4.750011" lat="43.234874"><ele>1085.5</ele></trkpt>
<trkpt lon="-4.750007" lat="43.234927"><ele>1087.0</ele></trkpt>
<trkpt lon="-4.749954" lat="43.234999"><ele>1089.0</ele></trkpt>
<trkpt lon="-4.749867" lat="43.235069"><ele>1091.25</ele></trkpt>
<trkpt lon="-4.749732" lat="43.235156"><ele>1094.25</ele></trkpt>
<trkpt lon="-4.749622" lat="43.235206"><ele>1096.0</ele></trkpt>
<trkpt lon="-4.749481" lat="43.235287"><ele>1098.0</ele></trkpt>
<trkpt lon="-4.749439" lat="43.235323"><ele>1098.5</ele></trkpt>
<trkpt lon="-4.749414" lat="43.235356"><ele>1098.5</ele></trkpt>
<trkpt lon="-4.749391" lat="43.235405"><ele>1098.75</ele></trkpt>
<trkpt lon="-4.749373" lat="43.235652"><ele>1101.5</ele></trkpt>
<trkpt lon="-4.749390" lat="43.235729"><ele>1102.5</ele></trkpt>
<trkpt lon="-4.749436" lat="43.235816"><ele>1103.75</ele></trkpt>
<trkpt lon="-4.749458" lat="43.235886"><ele>1105.0</ele></trkpt>
<trkpt lon="-4.749465" lat="43.235937"><ele>1105.75</ele></trkpt>
<trkpt lon="-4.749463" lat="43.236134"><ele>1108.75</ele></trkpt>
<trkpt lon="-4.749473" lat="43.236223"><ele>1110.5</ele></trkpt>
<trkpt lon="-4.749525" lat="43.236347"><ele>1114.0</ele></trkpt>
<trkpt lon="-4.749646" lat="43.236699"><ele>1122.0</ele></trkpt>
<trkpt lon="-4.749685" lat="43.236846"><ele>1124.5</ele></trkpt>
<trkpt lon="-4.749688" lat="43.236917"><ele>1125.25</ele></trkpt>
<trkpt lon="-4.749857" lat="43.236784"><ele>1129.25</ele></trkpt>
<trkpt lon="-4.749913" lat="43.236864"><ele>1132.0</ele></trkpt>
<trkpt lon="-4.749865" lat="43.236921"><ele>1130.75</ele></trkpt>
<trkpt lon="-4.749951" lat="43.236982"><ele>1134.25</ele></trkpt>
<trkpt lon="-4.750066" lat="43.237103"><ele>1137.0</ele></trkpt>
<trkpt lon="-4.750152" lat="43.237081"><ele>1138.0</ele></trkpt>
<trkpt lon="-4.750190" lat="43.237154"><ele>1139.75</ele></trkpt>
<trkpt lon="-4.750171" lat="43.237224"><ele>1140.25</ele></trkpt>
<trkpt lon="-4.750192" lat="43.237259"><ele>1141.0</ele></trkpt>
<trkpt lon="-4.750173" lat="43.237365"><ele>1141.75</ele></trkpt>
<trkpt lon="-4.750141" lat="43.237412"><ele>1141.75</ele></trkpt>
<trkpt lon="-4.750259" lat="43.237505"><ele>1144.75</ele></trkpt>
<trkpt lon="-4.750332" lat="43.237609"><ele>1149.25</ele></trkpt>
<trkpt lon="-4.750364" lat="43.237685"><ele>1152.0</ele></trkpt>
<trkpt lon="-4.750332" lat="43.237716"><ele>1152.0</ele></trkpt>
<trkpt lon="-4.750364" lat="43.237769"><ele>1154.25</ele></trkpt>
<trkpt lon="-4.750324" lat="43.237802"><ele>1153.75</ele></trkpt>
<trkpt lon="-4.750326" lat="43.237847"><ele>1155.0</ele></trkpt>
<trkpt lon="-4.750077" lat="43.238055"><ele>1159.5</ele></trkpt>
<trkpt lon="-4.750039" lat="43.238201"><ele>1164.0</ele></trkpt>
<trkpt lon="-4.749978" lat="43.238236"><ele>1165.0</ele></trkpt>
<trkpt lon="-4.749895" lat="43.238246"><ele>1165.5</ele></trkpt>
<trkpt lon="-4.749699" lat="43.238287"><ele>1167.25</ele></trkpt>
<trkpt lon="-4.749624" lat="43.238375"><ele>1170.25</ele></trkpt>
<trkpt lon="-4.749642" lat="43.238426"><ele>1171.75</ele></trkpt>
<trkpt lon="-4.749723" lat="43.238502"><ele>1173.75</ele></trkpt>
<trkpt lon="-4.749841" lat="43.238568"><ele>1175.5</ele></trkpt>
<trkpt lon="-4.749996" lat="43.238586"><ele>1176.0</ele></trkpt>
<trkpt lon="-4.750088" lat="43.238615"><ele>1178.0</ele></trkpt>
<trkpt lon="-4.750238" lat="43.238629"><ele>1180.25</ele></trkpt>
<trkpt lon="-4.750570" lat="43.238607"><ele>1182.75</ele></trkpt>
<trkpt lon="-4.750635" lat="43.238652"><ele>1184.0</ele></trkpt>
<trkpt lon="-4.750552" lat="43.238709"><ele>1185.25</ele></trkpt>
<trkpt lon="-4.750562" lat="43.238881"><ele>1189.5</ele></trkpt>
<trkpt lon="-4.750597" lat="43.238951"><ele>1191.0</ele></trkpt>
<trkpt lon="-4.750530" lat="43.239078"><ele>1195.0</ele></trkpt>
<trkpt lon="-4.750485" lat="43.239092"><ele>1195.75</ele></trkpt>
<trkpt lon="-4.750549" lat="43.239193"><ele>1197.5</ele></trkpt>
<trkpt lon="-4.750549" lat="43.239528"><ele>1203.25</ele></trkpt>
<trkpt lon="-4.750570" lat="43.239615"><ele>1204.0</ele></trkpt>
<trkpt lon="-4.750444" lat="43.239856"><ele>1209.5</ele></trkpt>
<trkpt lon="-4.750410" lat="43.239959"><ele>1210.75</ele></trkpt>
<trkpt lon="-4.750418" lat="43.240129"><ele>1213.75</ele></trkpt>
<trkpt lon="-4.750348" lat="43.240200"><ele>1216.75</ele></trkpt>
<trkpt lon="-4.750337" lat="43.240381"><ele>1222.0</ele></trkpt>
<trkpt lon="-4.750404" lat="43.240546"><ele>1225.75</ele></trkpt>
<trkpt lon="-4.750444" lat="43.240600"><ele>1227.0</ele></trkpt>
<trkpt lon="-4.750436" lat="43.240626"><ele>1228.0</ele></trkpt>
<trkpt lon="-4.750198" lat="43.240632"><ele>1234.25</ele></trkpt>
<trkpt lon="-4.750141" lat="43.240645"><ele>1236.25</ele></trkpt>
<trkpt lon="-4.750101" lat="43.240622"><ele>1236.5</ele></trkpt>
<trkpt lon="-4.750042" lat="43.240632"><ele>1238.75</ele></trkpt>
<trkpt lon="-4.749913" lat="43.240622"><ele>1241.25</ele></trkpt>
<trkpt lon="-4.750018" lat="43.240749"><ele>1244.0</ele></trkpt>
<trkpt lon="-4.750055" lat="43.240825"><ele>1246.0</ele></trkpt>
<trkpt lon="-4.750050" lat="43.240868"><ele>1247.5</ele></trkpt>
<trkpt lon="-4.750002" lat="43.240887"><ele>1249.5</ele></trkpt>
<trkpt lon="-4.749972" lat="43.240921"><ele>1251.5</ele></trkpt>
  </trkseg></trk></gpx>
