<?xml version="1.0" encoding="UTF-8"?>
<gpx version="1.1" creator="compostel-brouter" xmlns="http://www.topografix.com/GPX/1/1">
  <metadata><name>PC-08-Arriondas</name></metadata>
  <trk><name>PC-08-Arriondas</name><trkseg>
<trkpt lon="-5.055582" lat="43.308435"><ele>257.75</ele></trkpt>
<trkpt lon="-5.055610" lat="43.308427"><ele>257.75</ele></trkpt>
<trkpt lon="-5.055648" lat="43.308396"><ele>257.75</ele></trkpt>
<trkpt lon="-5.055655" lat="43.308375"><ele>257.75</ele></trkpt>
<trkpt lon="-5.055652" lat="43.308354"><ele>257.75</ele></trkpt>
<trkpt lon="-5.056186" lat="43.308211"><ele>261.25</ele></trkpt>
<trkpt lon="-5.056654" lat="43.308142"><ele>265.75</ele></trkpt>
<trkpt lon="-5.057383" lat="43.308104"><ele>256.0</ele></trkpt>
<trkpt lon="-5.057798" lat="43.308165"><ele>256.25</ele></trkpt>
<trkpt lon="-5.058060" lat="43.308219"><ele>258.0</ele></trkpt>
<trkpt lon="-5.058378" lat="43.308274"><ele>259.25</ele></trkpt>
<trkpt lon="-5.058689" lat="43.308428"><ele>251.5</ele></trkpt>
<trkpt lon="-5.058820" lat="43.308568"><ele>247.25</ele></trkpt>
<trkpt lon="-5.058848" lat="43.308659"><ele>245.75</ele></trkpt>
<trkpt lon="-5.058846" lat="43.308850"><ele>245.0</ele></trkpt>
<trkpt lon="-5.058769" lat="43.309034"><ele>244.75</ele></trkpt>
<trkpt lon="-5.058616" lat="43.309246"><ele>239.0</ele></trkpt>
<trkpt lon="-5.058563" lat="43.309514"><ele>236.25</ele></trkpt>
<trkpt lon="-5.058641" lat="43.309743"><ele>236.0</ele></trkpt>
<trkpt lon="-5.058682" lat="43.309900"><ele>233.5</ele></trkpt>
<trkpt lon="-5.058785" lat="43.309993"><ele>233.75</ele></trkpt>
<trkpt lon="-5.058922" lat="43.310142"><ele>233.25</ele></trkpt>
<trkpt lon="-5.059078" lat="43.310263"><ele>231.75</ele></trkpt>
<trkpt lon="-5.059396" lat="43.310352"><ele>228.75</ele></trkpt>
<trkpt lon="-5.059721" lat="43.310490"><ele>227.75</ele></trkpt>
<trkpt lon="-5.059952" lat="43.310517"><ele>227.75</ele></trkpt>
<trkpt lon="-5.060136" lat="43.310663"><ele>226.75</ele></trkpt>
<trkpt lon="-5.060239" lat="43.310842"><ele>225.75</ele></trkpt>
<trkpt lon="-5.060397" lat="43.311073"><ele>224.25</ele></trkpt>
<trkpt lon="-5.060531" lat="43.311207"><ele>220.75</ele></trkpt>
<trkpt lon="-5.060791" lat="43.311303"><ele>223.25</ele></trkpt>
<trkpt lon="-5.061218" lat="43.311390"><ele>219.5</ele></trkpt>
<trkpt lon="-5.061618" lat="43.311390"><ele>218.75</ele></trkpt>
<trkpt lon="-5.061870" lat="43.311475"><ele>211.5</ele></trkpt>
<trkpt lon="-5.062487" lat="43.311869"><ele>213.0</ele></trkpt>
<trkpt lon="-5.062931" lat="43.312149"><ele>215.5</ele></trkpt>
<trkpt lon="-5.063202" lat="43.312266"><ele>213.75</ele></trkpt>
<trkpt lon="-5.063557" lat="43.312407"><ele>211.0</ele></trkpt>
<trkpt lon="-5.063906" lat="43.312490"><ele>209.25</ele></trkpt>
<trkpt lon="-5.064351" lat="43.312556"><ele>206.5</ele></trkpt>
<trkpt lon="-5.064504" lat="43.312659"><ele>205.5</ele></trkpt>
<trkpt lon="-5.064638" lat="43.312821"><ele>204.25</ele></trkpt>
<trkpt lon="-5.064743" lat="43.312967"><ele>202.25</ele></trkpt>
<trkpt lon="-5.064890" lat="43.313074"><ele>203.0</ele></trkpt>
<trkpt lon="-5.065138" lat="43.313188"><ele>201.5</ele></trkpt>
<trkpt lon="-5.065442" lat="43.313268"><ele>198.0</ele></trkpt>
<trkpt lon="-5.065702" lat="43.313314"><ele>194.25</ele></trkpt>
<trkpt lon="-5.065961" lat="43.313299"><ele>193.5</ele></trkpt>
<trkpt lon="-5.066149" lat="43.313338"><ele>190.25</ele></trkpt>
<trkpt lon="-5.066940" lat="43.313537"><ele>189.5</ele></trkpt>
<trkpt lon="-5.067449" lat="43.313792"><ele>185.25</ele></trkpt>
<trkpt lon="-5.067666" lat="43.313864"><ele>184.25</ele></trkpt>
<trkpt lon="-5.067744" lat="43.313909"><ele>183.5</ele></trkpt>
<trkpt lon="-5.067814" lat="43.314037"><ele>180.75</ele></trkpt>
<trkpt lon="-5.067862" lat="43.314076"><ele>180.75</ele></trkpt>
<trkpt lon="-5.068267" lat="43.314234"><ele>179.25</ele></trkpt>
<trkpt lon="-5.068372" lat="43.314282"><ele>179.5</ele></trkpt>
<trkpt lon="-5.068483" lat="43.314394"><ele>178.25</ele></trkpt>
<trkpt lon="-5.068539" lat="43.314488"><ele>175.5</ele></trkpt>
<trkpt lon="-5.068612" lat="43.314581"><ele>172.5</ele></trkpt>
<trkpt lon="-5.068943" lat="43.314701"><ele>173.5</ele></trkpt>
<trkpt lon="-5.069028" lat="43.314763"><ele>171.25</ele></trkpt>
<trkpt lon="-5.069013" lat="43.314804"><ele>167.75</ele></trkpt>
<trkpt lon="-5.068907" lat="43.314794"><ele>165.5</ele></trkpt>
<trkpt lon="-5.068452" lat="43.314647"><ele>161.75</ele></trkpt>
<trkpt lon="-5.068332" lat="43.314525"><ele>163.5</ele></trkpt>
<trkpt lon="-5.067993" lat="43.314387"><ele>160.0</ele></trkpt>
<trkpt lon="-5.067749" lat="43.314315"><ele>160.5</ele></trkpt>
<trkpt lon="-5.067631" lat="43.314287"><ele>160.75</ele></trkpt>
<trkpt lon="-5.067584" lat="43.314302"><ele>158.75</ele></trkpt>
<trkpt lon="-5.067619" lat="43.314342"><ele>156.25</ele></trkpt>
<trkpt lon="-5.067933" lat="43.314438"><ele>154.0</ele></trkpt>
<trkpt lon="-5.068071" lat="43.314498"><ele>155.5</ele></trkpt>
<trkpt lon="-5.068071" lat="43.314501"><ele>155.5</ele></trkpt>
<trkpt lon="-5.068112" lat="43.314671"><ele>150.25</ele></trkpt>
<trkpt lon="-5.067992" lat="43.314856"><ele>145.5</ele></trkpt>
<trkpt lon="-5.068213" lat="43.315014"><ele>145.0</ele></trkpt>
<trkpt lon="-5.068401" lat="43.315165"><ele>144.0</ele></trkpt>
<trkpt lon="-5.068429" lat="43.315145"><ele>144.25</ele></trkpt>
<trkpt lon="-5.068173" lat="43.314933"><ele>145.75</ele></trkpt>
<trkpt lon="-5.068344" lat="43.315001"><ele>145.75</ele></trkpt>
<trkpt lon="-5.068471" lat="43.315017"><ele>145.75</ele></trkpt>
<trkpt lon="-5.068657" lat="43.315057"><ele>146.25</ele></trkpt>
<trkpt lon="-5.068790" lat="43.315092"><ele>147.75</ele></trkpt>
<trkpt lon="-5.068879" lat="43.315123"><ele>148.0</ele></trkpt>
<trkpt lon="-5.068933" lat="43.315176"><ele>147.25</ele></trkpt>
<trkpt lon="-5.068959" lat="43.315212"><ele>146.5</ele></trkpt>
<trkpt lon="-5.068968" lat="43.315252"><ele>145.5</ele></trkpt>
<trkpt lon="-5.068933" lat="43.315322"><ele>144.75</ele></trkpt>
<trkpt lon="-5.068980" lat="43.315342"><ele>144.5</ele></trkpt>
<trkpt lon="-5.069051" lat="43.315361"><ele>144.25</ele></trkpt>
<trkpt lon="-5.069073" lat="43.315325"><ele>144.5</ele></trkpt>
<trkpt lon="-5.069095" lat="43.315297"><ele>144.75</ele></trkpt>
<trkpt lon="-5.069156" lat="43.315257"><ele>145.75</ele></trkpt>
<trkpt lon="-5.069209" lat="43.315237"><ele>146.5</ele></trkpt>
<trkpt lon="-5.069343" lat="43.315231"><ele>147.25</ele></trkpt>
<trkpt lon="-5.069651" lat="43.315307"><ele>144.75</ele></trkpt>
<trkpt lon="-5.069777" lat="43.315344"><ele>145.25</ele></trkpt>
<trkpt lon="-5.070044" lat="43.315438"><ele>146.75</ele></trkpt>
<trkpt lon="-5.070329" lat="43.315603"><ele>145.0</ele></trkpt>
<trkpt lon="-5.070415" lat="43.315669"><ele>145.5</ele></trkpt>
<trkpt lon="-5.071092" lat="43.316310"><ele>139.75</ele></trkpt>
<trkpt lon="-5.071273" lat="43.316471"><ele>139.75</ele></trkpt>
<trkpt lon="-5.071403" lat="43.316561"><ele>140.5</ele></trkpt>
<trkpt lon="-5.071628" lat="43.316696"><ele>139.75</ele></trkpt>
<trkpt lon="-5.071911" lat="43.316816"><ele>141.25</ele></trkpt>
<trkpt lon="-5.073646" lat="43.317358"><ele>137.75</ele></trkpt>
<trkpt lon="-5.073722" lat="43.317395"><ele>138.75</ele></trkpt>
<trkpt lon="-5.073824" lat="43.317464"><ele>138.5</ele></trkpt>
<trkpt lon="-5.073865" lat="43.317508"><ele>137.5</ele></trkpt>
<trkpt lon="-5.073926" lat="43.317611"><ele>138.75</ele></trkpt>
<trkpt lon="-5.073950" lat="43.317682"><ele>139.75</ele></trkpt>
<trkpt lon="-5.073954" lat="43.317777"><ele>139.75</ele></trkpt>
<trkpt lon="-5.073924" lat="43.317889"><ele>139.25</ele></trkpt>
<trkpt lon="-5.073772" lat="43.318189"><ele>137.75</ele></trkpt>
<trkpt lon="-5.073760" lat="43.318380"><ele>138.5</ele></trkpt>
<trkpt lon="-5.073787" lat="43.318496"><ele>137.5</ele></trkpt>
<trkpt lon="-5.073825" lat="43.318587"><ele>137.0</ele></trkpt>
<trkpt lon="-5.073966" lat="43.318810"><ele>139.75</ele></trkpt>
<trkpt lon="-5.074036" lat="43.318963"><ele>139.5</ele></trkpt>
<trkpt lon="-5.074065" lat="43.319065"><ele>138.5</ele></trkpt>
<trkpt lon="-5.074119" lat="43.319368"><ele>136.25</ele></trkpt>
<trkpt lon="-5.074157" lat="43.319694"><ele>136.0</ele></trkpt>
<trkpt lon="-5.074200" lat="43.319821"><ele>135.75</ele></trkpt>
<trkpt lon="-5.074271" lat="43.319977"><ele>135.25</ele></trkpt>
<trkpt lon="-5.074406" lat="43.320131"><ele>135.75</ele></trkpt>
<trkpt lon="-5.074901" lat="43.320493"><ele>135.25</ele></trkpt>
<trkpt lon="-5.075012" lat="43.320592"><ele>134.0</ele></trkpt>
<trkpt lon="-5.077623" lat="43.323200"><ele>124.25</ele></trkpt>
<trkpt lon="-5.077815" lat="43.323391"><ele>122.75</ele></trkpt>
<trkpt lon="-5.077881" lat="43.323476"><ele>122.75</ele></trkpt>
<trkpt lon="-5.077919" lat="43.323552"><ele>122.75</ele></trkpt>
<trkpt lon="-5.077945" lat="43.323629"><ele>122.75</ele></trkpt>
<trkpt lon="-5.077952" lat="43.323691"><ele>122.5</ele></trkpt>
<trkpt lon="-5.077946" lat="43.323931"><ele>122.0</ele></trkpt>
<trkpt lon="-5.077956" lat="43.324016"><ele>122.25</ele></trkpt>
<trkpt lon="-5.077987" lat="43.324139"><ele>122.25</ele></trkpt>
<trkpt lon="-5.078038" lat="43.324244"><ele>121.75</ele></trkpt>
<trkpt lon="-5.078111" lat="43.324362"><ele>121.75</ele></trkpt>
<trkpt lon="-5.078281" lat="43.324539"><ele>122.0</ele></trkpt>
<trkpt lon="-5.078380" lat="43.324609"><ele>121.5</ele></trkpt>
<trkpt lon="-5.078715" lat="43.324823"><ele>121.5</ele></trkpt>
<trkpt lon="-5.078826" lat="43.324899"><ele>120.75</ele></trkpt>
<trkpt lon="-5.078921" lat="43.324974"><ele>120.25</ele></trkpt>
<trkpt lon="-5.079002" lat="43.325041"><ele>120.25</ele></trkpt>
<trkpt lon="-5.079076" lat="43.325117"><ele>120.75</ele></trkpt>
<trkpt lon="-5.079109" lat="43.325188"><ele>121.0</ele></trkpt>
<trkpt lon="-5.079121" lat="43.325227"><ele>121.25</ele></trkpt>
<trkpt lon="-5.079124" lat="43.325276"><ele>121.5</ele></trkpt>
<trkpt lon="-5.079068" lat="43.325497"><ele>123.75</ele></trkpt>
<trkpt lon="-5.079035" lat="43.325575"><ele>123.25</ele></trkpt>
<trkpt lon="-5.078938" lat="43.325700"><ele>120.25</ele></trkpt>
<trkpt lon="-5.078908" lat="43.325754"><ele>119.75</ele></trkpt>
<trkpt lon="-5.078904" lat="43.325801"><ele>120.0</ele></trkpt>
<trkpt lon="-5.078923" lat="43.325873"><ele>120.75</ele></trkpt>
<trkpt lon="-5.079046" lat="43.326095"><ele>121.25</ele></trkpt>
<trkpt lon="-5.079080" lat="43.326244"><ele>121.0</ele></trkpt>
<trkpt lon="-5.079119" lat="43.326410"><ele>120.5</ele></trkpt>
<trkpt lon="-5.079139" lat="43.326485"><ele>120.75</ele></trkpt>
<trkpt lon="-5.079241" lat="43.326858"><ele>122.25</ele></trkpt>
<trkpt lon="-5.079360" lat="43.327220"><ele>121.25</ele></trkpt>
<trkpt lon="-5.079472" lat="43.327497"><ele>120.5</ele></trkpt>
<trkpt lon="-5.079530" lat="43.327604"><ele>121.0</ele></trkpt>
<trkpt lon="-5.079601" lat="43.327702"><ele>120.5</ele></trkpt>
<trkpt lon="-5.079800" lat="43.327887"><ele>120.75</ele></trkpt>
<trkpt lon="-5.079875" lat="43.327936"><ele>121.25</ele></trkpt>
<trkpt lon="-5.080206" lat="43.328120"><ele>121.5</ele></trkpt>
<trkpt lon="-5.080696" lat="43.328368"><ele>118.0</ele></trkpt>
<trkpt lon="-5.080840" lat="43.328453"><ele>117.5</ele></trkpt>
<trkpt lon="-5.080915" lat="43.328517"><ele>117.25</ele></trkpt>
<trkpt lon="-5.080980" lat="43.328590"><ele>117.0</ele></trkpt>
<trkpt lon="-5.081079" lat="43.328738"><ele>117.25</ele></trkpt>
<trkpt lon="-5.081145" lat="43.328861"><ele>117.0</ele></trkpt>
<trkpt lon="-5.081227" lat="43.328985"><ele>117.5</ele></trkpt>
<trkpt lon="-5.081280" lat="43.329161"><ele>118.25</ele></trkpt>
<trkpt lon="-5.081319" lat="43.329498"><ele>116.0</ele></trkpt>
<trkpt lon="-5.081299" lat="43.329590"><ele>115.25</ele></trkpt>
<trkpt lon="-5.081261" lat="43.329679"><ele>114.25</ele></trkpt>
<trkpt lon="-5.081228" lat="43.329732"><ele>113.5</ele></trkpt>
<trkpt lon="-5.080790" lat="43.330281"><ele>112.0</ele></trkpt>
<trkpt lon="-5.080738" lat="43.330364"><ele>111.75</ele></trkpt>
<trkpt lon="-5.080660" lat="43.330526"><ele>111.0</ele></trkpt>
<trkpt lon="-5.080655" lat="43.330560"><ele>110.75</ele></trkpt>
<trkpt lon="-5.080644" lat="43.330646"><ele>110.5</ele></trkpt>
<trkpt lon="-5.080644" lat="43.330734"><ele>110.25</ele></trkpt>
<trkpt lon="-5.080667" lat="43.330827"><ele>110.0</ele></trkpt>
<trkpt lon="-5.080726" lat="43.330929"><ele>109.75</ele></trkpt>
<trkpt lon="-5.080791" lat="43.331027"><ele>109.75</ele></trkpt>
<trkpt lon="-5.080856" lat="43.331104"><ele>110.5</ele></trkpt>
<trkpt lon="-5.080953" lat="43.331193"><ele>112.0</ele></trkpt>
<trkpt lon="-5.081041" lat="43.331254"><ele>111.75</ele></trkpt>
<trkpt lon="-5.081147" lat="43.331312"><ele>111.0</ele></trkpt>
<trkpt lon="-5.081718" lat="43.331587"><ele>111.0</ele></trkpt>
<trkpt lon="-5.082481" lat="43.331976"><ele>109.0</ele></trkpt>
<trkpt lon="-5.082581" lat="43.332048"><ele>110.25</ele></trkpt>
<trkpt lon="-5.082711" lat="43.332154"><ele>110.0</ele></trkpt>
<trkpt lon="-5.082805" lat="43.332247"><ele>109.25</ele></trkpt>
<trkpt lon="-5.082922" lat="43.332397"><ele>110.5</ele></trkpt>
<trkpt lon="-5.083038" lat="43.332652"><ele>107.25</ele></trkpt>
<trkpt lon="-5.083362" lat="43.334151"><ele>105.0</ele></trkpt>
<trkpt lon="-5.083441" lat="43.334486"><ele>103.25</ele></trkpt>
<trkpt lon="-5.083916" lat="43.336739"><ele>101.0</ele></trkpt>
<trkpt lon="-5.083925" lat="43.336791"><ele>101.0</ele></trkpt>
<trkpt lon="-5.084004" lat="43.337145"><ele>100.25</ele></trkpt>
<trkpt lon="-5.084090" lat="43.337567"><ele>99.75</ele></trkpt>
<trkpt lon="-5.084491" lat="43.339422"><ele>97.0</ele></trkpt>
<trkpt lon="-5.084548" lat="43.339723"><ele>96.5</ele></trkpt>
<trkpt lon="-5.084571" lat="43.339895"><ele>96.5</ele></trkpt>
<trkpt lon="-5.084581" lat="43.340002"><ele>96.25</ele></trkpt>
<trkpt lon="-5.084576" lat="43.340137"><ele>96.0</ele></trkpt>
<trkpt lon="-5.084541" lat="43.340465"><ele>95.75</ele></trkpt>
<trkpt lon="-5.084517" lat="43.340685"><ele>95.5</ele></trkpt>
<trkpt lon="-5.084460" lat="43.340930"><ele>95.0</ele></trkpt>
<trkpt lon="-5.084426" lat="43.341046"><ele>94.5</ele></trkpt>
<trkpt lon="-5.084285" lat="43.341414"><ele>92.75</ele></trkpt>
<trkpt lon="-5.084175" lat="43.341726"><ele>92.75</ele></trkpt>
<trkpt lon="-5.084006" lat="43.342161"><ele>91.0</ele></trkpt>
<trkpt lon="-5.083909" lat="43.342485"><ele>91.0</ele></trkpt>
<trkpt lon="-5.083871" lat="43.342800"><ele>90.75</ele></trkpt>
<trkpt lon="-5.083821" lat="43.343083"><ele>89.25</ele></trkpt>
<trkpt lon="-5.083754" lat="43.343548"><ele>88.75</ele></trkpt>
<trkpt lon="-5.083730" lat="43.343856"><ele>87.75</ele></trkpt>
<trkpt lon="-5.083792" lat="43.344107"><ele>87.75</ele></trkpt>
<trkpt lon="-5.083583" lat="43.344147"><ele>86.75</ele></trkpt>
<trkpt lon="-5.083437" lat="43.344198"><ele>86.25</ele></trkpt>
<trkpt lon="-5.083288" lat="43.344252"><ele>86.75</ele></trkpt>
<trkpt lon="-5.083124" lat="43.344298"><ele>88.0</ele></trkpt>
<trkpt lon="-5.083074" lat="43.344362"><ele>88.0</ele></trkpt>
<trkpt lon="-5.083120" lat="43.344474"><ele>88.0</ele></trkpt>
<trkpt lon="-5.083255" lat="43.344621"><ele>88.25</ele></trkpt>
<trkpt lon="-5.083363" lat="43.344710"><ele>87.75</ele></trkpt>
<trkpt lon="-5.083248" lat="43.344774"><ele>88.5</ele></trkpt>
<trkpt lon="-5.083214" lat="43.344809"><ele>89.0</ele></trkpt>
<trkpt lon="-5.083216" lat="43.344945"><ele>89.5</ele></trkpt>
<trkpt lon="-5.083102" lat="43.345587"><ele>90.5</ele></trkpt>
<trkpt lon="-5.083140" lat="43.345730"><ele>90.5</ele></trkpt>
<trkpt lon="-5.083346" lat="43.345949"><ele>89.5</ele></trkpt>
<trkpt lon="-5.083531" lat="43.346029"><ele>88.0</ele></trkpt>
<trkpt lon="-5.083548" lat="43.346201"><ele>87.25</ele></trkpt>
<trkpt lon="-5.083546" lat="43.346411"><ele>86.0</ele></trkpt>
<trkpt lon="-5.083525" lat="43.346911"><ele>86.0</ele></trkpt>
<trkpt lon="-5.083581" lat="43.346943"><ele>86.0</ele></trkpt>
<trkpt lon="-5.083607" lat="43.347110"><ele>86.0</ele></trkpt>
<trkpt lon="-5.083741" lat="43.347723"><ele>84.5</ele></trkpt>
<trkpt lon="-5.084116" lat="43.347650"><ele>83.25</ele></trkpt>
<trkpt lon="-5.084177" lat="43.347713"><ele>83.5</ele></trkpt>
<trkpt lon="-5.084523" lat="43.347673"><ele>82.75</ele></trkpt>
<trkpt lon="-5.084590" lat="43.347687"><ele>82.5</ele></trkpt>
<trkpt lon="-5.084634" lat="43.347727"><ele>82.25</ele></trkpt>
<trkpt lon="-5.084685" lat="43.347836"><ele>81.25</ele></trkpt>
<trkpt lon="-5.084863" lat="43.348167"><ele>80.75</ele></trkpt>
<trkpt lon="-5.084914" lat="43.348234"><ele>81.75</ele></trkpt>
<trkpt lon="-5.084604" lat="43.348268"><ele>82.0</ele></trkpt>
<trkpt lon="-5.084242" lat="43.348367"><ele>83.0</ele></trkpt>
<trkpt lon="-5.084209" lat="43.348500"><ele>83.5</ele></trkpt>
<trkpt lon="-5.084004" lat="43.348547"><ele>84.0</ele></trkpt>
<trkpt lon="-5.083983" lat="43.348626"><ele>84.75</ele></trkpt>
<trkpt lon="-5.084046" lat="43.348742"><ele>85.25</ele></trkpt>
<trkpt lon="-5.084225" lat="43.348900"><ele>86.0</ele></trkpt>
<trkpt lon="-5.084388" lat="43.348984"><ele>86.25</ele></trkpt>
<trkpt lon="-5.084598" lat="43.349252"><ele>87.5</ele></trkpt>
<trkpt lon="-5.084746" lat="43.349557"><ele>88.75</ele></trkpt>
<trkpt lon="-5.084898" lat="43.349736"><ele>88.75</ele></trkpt>
<trkpt lon="-5.086240" lat="43.350673"><ele>92.25</ele></trkpt>
<trkpt lon="-5.086590" lat="43.350952"><ele>91.5</ele></trkpt>
<trkpt lon="-5.086677" lat="43.351011"><ele>90.5</ele></trkpt>
<trkpt lon="-5.086807" lat="43.351136"><ele>90.5</ele></trkpt>
<trkpt lon="-5.086957" lat="43.351229"><ele>90.75</ele></trkpt>
<trkpt lon="-5.087140" lat="43.351104"><ele>90.5</ele></trkpt>
<trkpt lon="-5.087334" lat="43.351025"><ele>90.75</ele></trkpt>
<trkpt lon="-5.087729" lat="43.350951"><ele>88.5</ele></trkpt>
<trkpt lon="-5.088176" lat="43.350904"><ele>85.75</ele></trkpt>
<trkpt lon="-5.088644" lat="43.350804"><ele>84.0</ele></trkpt>
<trkpt lon="-5.089244" lat="43.350773"><ele>82.5</ele></trkpt>
<trkpt lon="-5.089807" lat="43.350631"><ele>80.5</ele></trkpt>
<trkpt lon="-5.090780" lat="43.350289"><ele>79.0</ele></trkpt>
<trkpt lon="-5.090954" lat="43.350258"><ele>78.75</ele></trkpt>
<trkpt lon="-5.091017" lat="43.350246"><ele>78.75</ele></trkpt>
<trkpt lon="-5.091359" lat="43.350383"><ele>78.25</ele></trkpt>
<trkpt lon="-5.091613" lat="43.350530"><ele>78.5</ele></trkpt>
<trkpt lon="-5.091729" lat="43.350631"><ele>78.25</ele></trkpt>
<trkpt lon="-5.091785" lat="43.350720"><ele>78.0</ele></trkpt>
<trkpt lon="-5.092092" lat="43.350882"><ele>76.5</ele></trkpt>
<trkpt lon="-5.092304" lat="43.351080"><ele>76.75</ele></trkpt>
<trkpt lon="-5.092916" lat="43.351866"><ele>76.5</ele></trkpt>
<trkpt lon="-5.093059" lat="43.352032"><ele>76.75</ele></trkpt>
<trkpt lon="-5.093090" lat="43.352330"><ele>77.25</ele></trkpt>
<trkpt lon="-5.093140" lat="43.352413"><ele>77.25</ele></trkpt>
<trkpt lon="-5.093273" lat="43.352535"><ele>77.75</ele></trkpt>
<trkpt lon="-5.093590" lat="43.352756"><ele>77.25</ele></trkpt>
<trkpt lon="-5.093850" lat="43.352844"><ele>79.75</ele></trkpt>
<trkpt lon="-5.094173" lat="43.352930"><ele>81.5</ele></trkpt>
<trkpt lon="-5.094495" lat="43.352949"><ele>82.5</ele></trkpt>
<trkpt lon="-5.094887" lat="43.352913"><ele>81.5</ele></trkpt>
<trkpt lon="-5.095409" lat="43.352842"><ele>79.5</ele></trkpt>
<trkpt lon="-5.096115" lat="43.352679"><ele>81.75</ele></trkpt>
<trkpt lon="-5.096604" lat="43.352545"><ele>80.0</ele></trkpt>
<trkpt lon="-5.097208" lat="43.352339"><ele>81.75</ele></trkpt>
<trkpt lon="-5.097346" lat="43.352349"><ele>84.25</ele></trkpt>
<trkpt lon="-5.097507" lat="43.352312"><ele>84.0</ele></trkpt>
<trkpt lon="-5.097834" lat="43.352250"><ele>82.25</ele></trkpt>
<trkpt lon="-5.098454" lat="43.352205"><ele>86.0</ele></trkpt>
<trkpt lon="-5.098935" lat="43.352184"><ele>86.75</ele></trkpt>
<trkpt lon="-5.099407" lat="43.352194"><ele>83.5</ele></trkpt>
<trkpt lon="-5.099764" lat="43.352275"><ele>86.0</ele></trkpt>
<trkpt lon="-5.100080" lat="43.352312"><ele>87.0</ele></trkpt>
<trkpt lon="-5.100420" lat="43.352309"><ele>85.75</ele></trkpt>
<trkpt lon="-5.100740" lat="43.352326"><ele>87.5</ele></trkpt>
<trkpt lon="-5.101030" lat="43.352383"><ele>91.25</ele></trkpt>
<trkpt lon="-5.101309" lat="43.352363"><ele>90.5</ele></trkpt>
<trkpt lon="-5.101659" lat="43.352295"><ele>87.25</ele></trkpt>
<trkpt lon="-5.102713" lat="43.352053"><ele>81.5</ele></trkpt>
<trkpt lon="-5.103003" lat="43.352019"><ele>79.75</ele></trkpt>
<trkpt lon="-5.103602" lat="43.352046"><ele>77.75</ele></trkpt>
<trkpt lon="-5.103976" lat="43.352046"><ele>76.75</ele></trkpt>
<trkpt lon="-5.104279" lat="43.352117"><ele>79.75</ele></trkpt>
<trkpt lon="-5.104576" lat="43.352154"><ele>80.75</ele></trkpt>
<trkpt lon="-5.104912" lat="43.352123"><ele>78.0</ele></trkpt>
<trkpt lon="-5.105475" lat="43.352048"><ele>74.5</ele></trkpt>
<trkpt lon="-5.106187" lat="43.351941"><ele>71.0</ele></trkpt>
<trkpt lon="-5.106707" lat="43.351897"><ele>70.25</ele></trkpt>
<trkpt lon="-5.107367" lat="43.351989"><ele>72.5</ele></trkpt>
<trkpt lon="-5.107720" lat="43.352013"><ele>73.5</ele></trkpt>
<trkpt lon="-5.108074" lat="43.352046"><ele>75.0</ele></trkpt>
<trkpt lon="-5.108926" lat="43.352100"><ele>75.25</ele></trkpt>
<trkpt lon="-5.109387" lat="43.352056"><ele>73.25</ele></trkpt>
<trkpt lon="-5.109855" lat="43.352134"><ele>77.0</ele></trkpt>
<trkpt lon="-5.110394" lat="43.352157"><ele>79.75</ele></trkpt>
<trkpt lon="-5.110727" lat="43.352235"><ele>83.25</ele></trkpt>
<trkpt lon="-5.111222" lat="43.352137"><ele>84.5</ele></trkpt>
<trkpt lon="-5.111305" lat="43.352076"><ele>84.0</ele></trkpt>
<trkpt lon="-5.111670" lat="43.351811"><ele>81.5</ele></trkpt>
<trkpt lon="-5.111778" lat="43.351713"><ele>81.0</ele></trkpt>
<trkpt lon="-5.111832" lat="43.351561"><ele>78.5</ele></trkpt>
<trkpt lon="-5.111903" lat="43.351474"><ele>77.75</ele></trkpt>
<trkpt lon="-5.112051" lat="43.351349"><ele>75.25</ele></trkpt>
<trkpt lon="-5.112872" lat="43.351275"><ele>74.5</ele></trkpt>
<trkpt lon="-5.114226" lat="43.351134"><ele>70.25</ele></trkpt>
<trkpt lon="-5.115152" lat="43.350999"><ele>69.0</ele></trkpt>
<trkpt lon="-5.115681" lat="43.350962"><ele>69.0</ele></trkpt>
<trkpt lon="-5.116219" lat="43.350972"><ele>69.5</ele></trkpt>
<trkpt lon="-5.116487" lat="43.350987"><ele>69.75</ele></trkpt>
<trkpt lon="-5.116767" lat="43.351036"><ele>69.25</ele></trkpt>
<trkpt lon="-5.116998" lat="43.351076"><ele>68.5</ele></trkpt>
<trkpt lon="-5.117591" lat="43.351195"><ele>70.75</ele></trkpt>
<trkpt lon="-5.117617" lat="43.351120"><ele>72.0</ele></trkpt>
<trkpt lon="-5.117701" lat="43.350918"><ele>68.5</ele></trkpt>
<trkpt lon="-5.117747" lat="43.350831"><ele>66.0</ele></trkpt>
<trkpt lon="-5.117954" lat="43.350872"><ele>66.0</ele></trkpt>
<trkpt lon="-5.118155" lat="43.350927"><ele>67.0</ele></trkpt>
<trkpt lon="-5.119384" lat="43.351198"><ele>66.25</ele></trkpt>
<trkpt lon="-5.119580" lat="43.351223"><ele>66.75</ele></trkpt>
<trkpt lon="-5.120402" lat="43.351244"><ele>64.25</ele></trkpt>
<trkpt lon="-5.120868" lat="43.351229"><ele>64.5</ele></trkpt>
<trkpt lon="-5.121115" lat="43.351253"><ele>65.0</ele></trkpt>
<trkpt lon="-5.121665" lat="43.351345"><ele>66.0</ele></trkpt>
<trkpt lon="-5.122203" lat="43.351464"><ele>64.25</ele></trkpt>
<trkpt lon="-5.122442" lat="43.351544"><ele>64.75</ele></trkpt>
<trkpt lon="-5.122548" lat="43.351573"><ele>65.0</ele></trkpt>
<trkpt lon="-5.123108" lat="43.351591"><ele>62.5</ele></trkpt>
<trkpt lon="-5.124067" lat="43.351608"><ele>62.0</ele></trkpt>
<trkpt lon="-5.124160" lat="43.351580"><ele>62.25</ele></trkpt>
<trkpt lon="-5.124178" lat="43.351578"><ele>62.25</ele></trkpt>
<trkpt lon="-5.124161" lat="43.351478"><ele>62.5</ele></trkpt>
<trkpt lon="-5.124168" lat="43.351419"><ele>62.75</ele></trkpt>
<trkpt lon="-5.124192" lat="43.351356"><ele>62.75</ele></trkpt>
<trkpt lon="-5.124194" lat="43.351322"><ele>62.5</ele></trkpt>
<trkpt lon="-5.124924" lat="43.351526"><ele>60.25</ele></trkpt>
<trkpt lon="-5.125429" lat="43.351645"><ele>61.75</ele></trkpt>
<trkpt lon="-5.126033" lat="43.351773"><ele>59.75</ele></trkpt>
<trkpt lon="-5.126626" lat="43.351882"><ele>60.5</ele></trkpt>
<trkpt lon="-5.126729" lat="43.351896"><ele>60.5</ele></trkpt>
<trkpt lon="-5.126781" lat="43.351903"><ele>60.25</ele></trkpt>
<trkpt lon="-5.126786" lat="43.351895"><ele>60.25</ele></trkpt>
<trkpt lon="-5.126898" lat="43.351637"><ele>60.0</ele></trkpt>
<trkpt lon="-5.126905" lat="43.351620"><ele>60.0</ele></trkpt>
<trkpt lon="-5.126930" lat="43.351565"><ele>60.5</ele></trkpt>
<trkpt lon="-5.127353" lat="43.351638"><ele>61.0</ele></trkpt>
<trkpt lon="-5.128067" lat="43.351755"><ele>60.5</ele></trkpt>
<trkpt lon="-5.128287" lat="43.351780"><ele>60.25</ele></trkpt>
<trkpt lon="-5.128492" lat="43.351793"><ele>59.75</ele></trkpt>
<trkpt lon="-5.128627" lat="43.351794"><ele>59.5</ele></trkpt>
<trkpt lon="-5.128841" lat="43.351797"><ele>59.0</ele></trkpt>
<trkpt lon="-5.129040" lat="43.351783"><ele>59.0</ele></trkpt>
<trkpt lon="-5.129274" lat="43.351740"><ele>59.0</ele></trkpt>
<trkpt lon="-5.129537" lat="43.351665"><ele>60.0</ele></trkpt>
<trkpt lon="-5.129453" lat="43.351280"><ele>61.25</ele></trkpt>
<trkpt lon="-5.130206" lat="43.351218"><ele>64.0</ele></trkpt>
<trkpt lon="-5.130201" lat="43.350998"><ele>63.5</ele></trkpt>
<trkpt lon="-5.130206" lat="43.351218"><ele>64.0</ele></trkpt>
<trkpt lon="-5.130191" lat="43.351490"><ele>61.75</ele></trkpt>
<trkpt lon="-5.130198" lat="43.351552"><ele>60.5</ele></trkpt>
<trkpt lon="-5.130212" lat="43.351852"><ele>61.5</ele></trkpt>
<trkpt lon="-5.130214" lat="43.351875"><ele>62.0</ele></trkpt>
<trkpt lon="-5.130341" lat="43.351870"><ele>62.0</ele></trkpt>
<trkpt lon="-5.130350" lat="43.351983"><ele>63.0</ele></trkpt>
<trkpt lon="-5.130396" lat="43.351983"><ele>62.5</ele></trkpt>
<trkpt lon="-5.130402" lat="43.351870"><ele>61.25</ele></trkpt>
<trkpt lon="-5.130800" lat="43.351864"><ele>60.0</ele></trkpt>
<trkpt lon="-5.130904" lat="43.351870"><ele>60.0</ele></trkpt>
<trkpt lon="-5.131007" lat="43.351885"><ele>60.0</ele></trkpt>
<trkpt lon="-5.131109" lat="43.351910"><ele>60.25</ele></trkpt>
<trkpt lon="-5.131236" lat="43.351957"><ele>60.0</ele></trkpt>
<trkpt lon="-5.131336" lat="43.352013"><ele>60.0</ele></trkpt>
<trkpt lon="-5.131442" lat="43.352100"><ele>60.0</ele></trkpt>
<trkpt lon="-5.131549" lat="43.352207"><ele>60.0</ele></trkpt>
<trkpt lon="-5.131594" lat="43.352265"><ele>59.75</ele></trkpt>
<trkpt lon="-5.131634" lat="43.352335"><ele>59.5</ele></trkpt>
<trkpt lon="-5.131662" lat="43.352408"><ele>59.5</ele></trkpt>
<trkpt lon="-5.131699" lat="43.352574"><ele>59.5</ele></trkpt>
<trkpt lon="-5.131742" lat="43.352916"><ele>58.25</ele></trkpt>
<trkpt lon="-5.131737" lat="43.353046"><ele>58.25</ele></trkpt>
<trkpt lon="-5.131702" lat="43.353188"><ele>58.0</ele></trkpt>
<trkpt lon="-5.131671" lat="43.353256"><ele>58.0</ele></trkpt>
<trkpt lon="-5.131633" lat="43.353397"><ele>58.25</ele></trkpt>
<trkpt lon="-5.131628" lat="43.353477"><ele>58.25</ele></trkpt>
<trkpt lon="-5.131633" lat="43.353557"><ele>58.25</ele></trkpt>
<trkpt lon="-5.131654" lat="43.353671"><ele>58.5</ele></trkpt>
<trkpt lon="-5.131652" lat="43.353706"><ele>58.75</ele></trkpt>
<trkpt lon="-5.131627" lat="43.353771"><ele>59.25</ele></trkpt>
<trkpt lon="-5.131580" lat="43.353825"><ele>60.0</ele></trkpt>
<trkpt lon="-5.131611" lat="43.353984"><ele>60.5</ele></trkpt>
<trkpt lon="-5.131638" lat="43.354066"><ele>60.5</ele></trkpt>
<trkpt lon="-5.131675" lat="43.354192"><ele>60.75</ele></trkpt>
<trkpt lon="-5.131782" lat="43.354388"><ele>59.5</ele></trkpt>
<trkpt lon="-5.132653" lat="43.355532"><ele>58.0</ele></trkpt>
<trkpt lon="-5.132930" lat="43.355944"><ele>57.75</ele></trkpt>
<trkpt lon="-5.133281" lat="43.356571"><ele>56.75</ele></trkpt>
<trkpt lon="-5.133407" lat="43.356881"><ele>57.25</ele></trkpt>
<trkpt lon="-5.133486" lat="43.356879"><ele>55.75</ele></trkpt>
<trkpt lon="-5.133543" lat="43.356907"><ele>55.0</ele></trkpt>
<trkpt lon="-5.133633" lat="43.357213"><ele>54.5</ele></trkpt>
<trkpt lon="-5.133894" lat="43.357762"><ele>55.5</ele></trkpt>
<trkpt lon="-5.134183" lat="43.358122"><ele>54.75</ele></trkpt>
<trkpt lon="-5.134300" lat="43.358245"><ele>54.5</ele></trkpt>
<trkpt lon="-5.134660" lat="43.358666"><ele>53.5</ele></trkpt>
<trkpt lon="-5.134801" lat="43.358781"><ele>53.5</ele></trkpt>
<trkpt lon="-5.135092" lat="43.359107"><ele>53.0</ele></trkpt>
<trkpt lon="-5.135332" lat="43.359419"><ele>52.75</ele></trkpt>
<trkpt lon="-5.135402" lat="43.359483"><ele>55.25</ele></trkpt>
<trkpt lon="-5.135495" lat="43.359528"><ele>57.75</ele></trkpt>
<trkpt lon="-5.135971" lat="43.359645"><ele>55.75</ele></trkpt>
<trkpt lon="-5.136922" lat="43.359781"><ele>58.25</ele></trkpt>
<trkpt lon="-5.137874" lat="43.359950"><ele>56.25</ele></trkpt>
<trkpt lon="-5.138813" lat="43.360060"><ele>58.0</ele></trkpt>
<trkpt lon="-5.139827" lat="43.360121"><ele>53.0</ele></trkpt>
<trkpt lon="-5.140308" lat="43.360181"><ele>52.75</ele></trkpt>
<trkpt lon="-5.140564" lat="43.360228"><ele>53.75</ele></trkpt>
<trkpt lon="-5.140877" lat="43.360321"><ele>53.75</ele></trkpt>
<trkpt lon="-5.141636" lat="43.360611"><ele>52.25</ele></trkpt>
<trkpt lon="-5.142213" lat="43.360854"><ele>52.0</ele></trkpt>
<trkpt lon="-5.142806" lat="43.361121"><ele>50.75</ele></trkpt>
<trkpt lon="-5.142979" lat="43.361288"><ele>51.25</ele></trkpt>
<trkpt lon="-5.143711" lat="43.361714"><ele>50.5</ele></trkpt>
<trkpt lon="-5.143967" lat="43.361830"><ele>50.5</ele></trkpt>
<trkpt lon="-5.144307" lat="43.362109"><ele>50.75</ele></trkpt>
<trkpt lon="-5.144413" lat="43.362184"><ele>50.75</ele></trkpt>
<trkpt lon="-5.145374" lat="43.362809"><ele>49.75</ele></trkpt>
<trkpt lon="-5.145945" lat="43.363116"><ele>49.25</ele></trkpt>
<trkpt lon="-5.146645" lat="43.363534"><ele>49.75</ele></trkpt>
<trkpt lon="-5.147014" lat="43.363766"><ele>49.5</ele></trkpt>
<trkpt lon="-5.147417" lat="43.364038"><ele>48.75</ele></trkpt>
<trkpt lon="-5.147475" lat="43.364110"><ele>49.25</ele></trkpt>
<trkpt lon="-5.147545" lat="43.364318"><ele>54.25</ele></trkpt>
<trkpt lon="-5.147610" lat="43.364376"><ele>56.5</ele></trkpt>
<trkpt lon="-5.147754" lat="43.364420"><ele>58.75</ele></trkpt>
<trkpt lon="-5.148023" lat="43.364389"><ele>57.25</ele></trkpt>
<trkpt lon="-5.148138" lat="43.364385"><ele>56.0</ele></trkpt>
<trkpt lon="-5.148276" lat="43.364426"><ele>56.0</ele></trkpt>
<trkpt lon="-5.148728" lat="43.364657"><ele>57.5</ele></trkpt>
<trkpt lon="-5.149039" lat="43.364716"><ele>55.0</ele></trkpt>
<trkpt lon="-5.149233" lat="43.364743"><ele>53.25</ele></trkpt>
<trkpt lon="-5.149398" lat="43.364788"><ele>52.0</ele></trkpt>
<trkpt lon="-5.149484" lat="43.364819"><ele>51.75</ele></trkpt>
<trkpt lon="-5.149589" lat="43.364834"><ele>51.75</ele></trkpt>
<trkpt lon="-5.149710" lat="43.364823"><ele>51.0</ele></trkpt>
<trkpt lon="-5.149791" lat="43.364785"><ele>50.25</ele></trkpt>
<trkpt lon="-5.149834" lat="43.364793"><ele>50.25</ele></trkpt>
<trkpt lon="-5.150126" lat="43.364912"><ele>51.75</ele></trkpt>
<trkpt lon="-5.150183" lat="43.364954"><ele>52.75</ele></trkpt>
<trkpt lon="-5.150317" lat="43.365055"><ele>54.0</ele></trkpt>
<trkpt lon="-5.150415" lat="43.365164"><ele>54.25</ele></trkpt>
<trkpt lon="-5.150437" lat="43.365312"><ele>55.0</ele></trkpt>
<trkpt lon="-5.150515" lat="43.365323"><ele>55.0</ele></trkpt>
<trkpt lon="-5.150651" lat="43.365375"><ele>54.75</ele></trkpt>
<trkpt lon="-5.150912" lat="43.365476"><ele>54.5</ele></trkpt>
<trkpt lon="-5.151199" lat="43.365617"><ele>54.25</ele></trkpt>
<trkpt lon="-5.151460" lat="43.365283"><ele>49.75</ele></trkpt>
<trkpt lon="-5.151898" lat="43.364723"><ele>50.5</ele></trkpt>
<trkpt lon="-5.151927" lat="43.364686"><ele>51.0</ele></trkpt>
<trkpt lon="-5.152049" lat="43.364624"><ele>51.25</ele></trkpt>
<trkpt lon="-5.152146" lat="43.364582"><ele>51.5</ele></trkpt>
<trkpt lon="-5.152240" lat="43.364573"><ele>51.5</ele></trkpt>
<trkpt lon="-5.152327" lat="43.364530"><ele>51.5</ele></trkpt>
<trkpt lon="-5.152377" lat="43.364483"><ele>51.75</ele></trkpt>
<trkpt lon="-5.152395" lat="43.364420"><ele>52.0</ele></trkpt>
<trkpt lon="-5.152382" lat="43.364351"><ele>52.0</ele></trkpt>
<trkpt lon="-5.152385" lat="43.364245"><ele>52.25</ele></trkpt>
<trkpt lon="-5.152441" lat="43.364135"><ele>53.0</ele></trkpt>
<trkpt lon="-5.152623" lat="43.363956"><ele>55.5</ele></trkpt>
<trkpt lon="-5.152745" lat="43.363794"><ele>57.5</ele></trkpt>
<trkpt lon="-5.152776" lat="43.363695"><ele>58.25</ele></trkpt>
<trkpt lon="-5.152755" lat="43.363561"><ele>60.0</ele></trkpt>
<trkpt lon="-5.152953" lat="43.363657"><ele>60.25</ele></trkpt>
<trkpt lon="-5.153144" lat="43.363773"><ele>62.25</ele></trkpt>
<trkpt lon="-5.153392" lat="43.363997"><ele>64.75</ele></trkpt>
<trkpt lon="-5.154197" lat="43.364535"><ele>72.75</ele></trkpt>
<trkpt lon="-5.154513" lat="43.364772"><ele>76.75</ele></trkpt>
<trkpt lon="-5.154807" lat="43.364934"><ele>79.75</ele></trkpt>
<trkpt lon="-5.154968" lat="43.365052"><ele>81.5</ele></trkpt>
<trkpt lon="-5.154962" lat="43.365084"><ele>81.5</ele></trkpt>
<trkpt lon="-5.154912" lat="43.365125"><ele>81.0</ele></trkpt>
<trkpt lon="-5.154741" lat="43.365200"><ele>80.5</ele></trkpt>
<trkpt lon="-5.154580" lat="43.365226"><ele>81.0</ele></trkpt>
<trkpt lon="-5.154382" lat="43.365245"><ele>81.0</ele></trkpt>
<trkpt lon="-5.154240" lat="43.365267"><ele>81.0</ele></trkpt>
<trkpt lon="-5.154067" lat="43.365376"><ele>81.5</ele></trkpt>
<trkpt lon="-5.153983" lat="43.365469"><ele>82.5</ele></trkpt>
<trkpt lon="-5.153923" lat="43.365565"><ele>84.25</ele></trkpt>
<trkpt lon="-5.153893" lat="43.365694"><ele>83.5</ele></trkpt>
<trkpt lon="-5.153916" lat="43.365789"><ele>83.5</ele></trkpt>
<trkpt lon="-5.154099" lat="43.365921"><ele>82.25</ele></trkpt>
<trkpt lon="-5.155111" lat="43.366400"><ele>87.25</ele></trkpt>
<trkpt lon="-5.155587" lat="43.366531"><ele>93.75</ele></trkpt>
<trkpt lon="-5.155843" lat="43.366593"><ele>95.25</ele></trkpt>
<trkpt lon="-5.156055" lat="43.366612"><ele>96.5</ele></trkpt>
<trkpt lon="-5.156274" lat="43.366674"><ele>97.25</ele></trkpt>
<trkpt lon="-5.156399" lat="43.366784"><ele>98.25</ele></trkpt>
<trkpt lon="-5.156399" lat="43.366901"><ele>97.25</ele></trkpt>
<trkpt lon="-5.156326" lat="43.367036"><ele>97.25</ele></trkpt>
<trkpt lon="-5.156121" lat="43.367285"><ele>97.75</ele></trkpt>
<trkpt lon="-5.156113" lat="43.367431"><ele>99.25</ele></trkpt>
<trkpt lon="-5.156267" lat="43.367647"><ele>102.0</ele></trkpt>
<trkpt lon="-5.156541" lat="43.367899"><ele>105.0</ele></trkpt>
<trkpt lon="-5.157058" lat="43.368249"><ele>108.5</ele></trkpt>
<trkpt lon="-5.157188" lat="43.368375"><ele>109.0</ele></trkpt>
<trkpt lon="-5.156975" lat="43.368485"><ele>111.25</ele></trkpt>
<trkpt lon="-5.156817" lat="43.368542"><ele>112.5</ele></trkpt>
<trkpt lon="-5.156617" lat="43.368573"><ele>113.0</ele></trkpt>
<trkpt lon="-5.156206" lat="43.368581"><ele>116.0</ele></trkpt>
<trkpt lon="-5.155944" lat="43.368587"><ele>119.25</ele></trkpt>
<trkpt lon="-5.155866" lat="43.368631"><ele>120.5</ele></trkpt>
<trkpt lon="-5.155776" lat="43.368840"><ele>121.25</ele></trkpt>
<trkpt lon="-5.155625" lat="43.369035"><ele>119.5</ele></trkpt>
<trkpt lon="-5.155486" lat="43.369130"><ele>118.5</ele></trkpt>
<trkpt lon="-5.155158" lat="43.369300"><ele>117.75</ele></trkpt>
<trkpt lon="-5.155040" lat="43.369396"><ele>117.25</ele></trkpt>
<trkpt lon="-5.154955" lat="43.369502"><ele>116.75</ele></trkpt>
<trkpt lon="-5.154919" lat="43.369610"><ele>116.25</ele></trkpt>
<trkpt lon="-5.154947" lat="43.369733"><ele>114.5</ele></trkpt>
<trkpt lon="-5.155024" lat="43.369836"><ele>113.25</ele></trkpt>
<trkpt lon="-5.155198" lat="43.370018"><ele>109.5</ele></trkpt>
<trkpt lon="-5.155258" lat="43.370131"><ele>108.25</ele></trkpt>
<trkpt lon="-5.155281" lat="43.370213"><ele>107.75</ele></trkpt>
<trkpt lon="-5.155255" lat="43.370273"><ele>108.0</ele></trkpt>
<trkpt lon="-5.155184" lat="43.370329"><ele>107.0</ele></trkpt>
<trkpt lon="-5.154911" lat="43.370428"><ele>105.25</ele></trkpt>
<trkpt lon="-5.154750" lat="43.370474"><ele>104.5</ele></trkpt>
<trkpt lon="-5.154490" lat="43.370521"><ele>102.75</ele></trkpt>
<trkpt lon="-5.154010" lat="43.370573"><ele>100.5</ele></trkpt>
<trkpt lon="-5.152549" lat="43.370622"><ele>97.0</ele></trkpt>
<trkpt lon="-5.152128" lat="43.370792"><ele>92.75</ele></trkpt>
<trkpt lon="-5.151985" lat="43.370840"><ele>91.75</ele></trkpt>
<trkpt lon="-5.151676" lat="43.370892"><ele>89.5</ele></trkpt>
<trkpt lon="-5.151512" lat="43.370887"><ele>87.75</ele></trkpt>
<trkpt lon="-5.151153" lat="43.370816"><ele>85.75</ele></trkpt>
<trkpt lon="-5.151014" lat="43.370816"><ele>84.25</ele></trkpt>
<trkpt lon="-5.150909" lat="43.370848"><ele>84.0</ele></trkpt>
<trkpt lon="-5.150626" lat="43.370965"><ele>79.5</ele></trkpt>
<trkpt lon="-5.150560" lat="43.370984"><ele>78.75</ele></trkpt>
<trkpt lon="-5.150454" lat="43.370965"><ele>77.25</ele></trkpt>
<trkpt lon="-5.150868" lat="43.370745"><ele>76.5</ele></trkpt>
<trkpt lon="-5.150965" lat="43.370702"><ele>75.0</ele></trkpt>
<trkpt lon="-5.151212" lat="43.370687"><ele>78.75</ele></trkpt>
<trkpt lon="-5.151307" lat="43.370644"><ele>78.75</ele></trkpt>
<trkpt lon="-5.151389" lat="43.370579"><ele>78.75</ele></trkpt>
<trkpt lon="-5.151956" lat="43.369890"><ele>67.25</ele></trkpt>
<trkpt lon="-5.152131" lat="43.369715"><ele>63.5</ele></trkpt>
<trkpt lon="-5.152254" lat="43.369539"><ele>63.25</ele></trkpt>
<trkpt lon="-5.152406" lat="43.369274"><ele>62.5</ele></trkpt>
<trkpt lon="-5.152439" lat="43.369194"><ele>61.25</ele></trkpt>
<trkpt lon="-5.152429" lat="43.369127"><ele>59.5</ele></trkpt>
<trkpt lon="-5.152398" lat="43.369056"><ele>58.25</ele></trkpt>
<trkpt lon="-5.152357" lat="43.368996"><ele>56.75</ele></trkpt>
<trkpt lon="-5.151561" lat="43.368355"><ele>49.75</ele></trkpt>
<trkpt lon="-5.151520" lat="43.368389"><ele>49.75</ele></trkpt>
<trkpt lon="-5.151460" lat="43.368372"><ele>49.75</ele></trkpt>
<trkpt lon="-5.151368" lat="43.368372"><ele>49.75</ele></trkpt>
<trkpt lon="-5.151259" lat="43.368429"><ele>49.75</ele></trkpt>
<trkpt lon="-5.150348" lat="43.369126"><ele>49.25</ele></trkpt>
<trkpt lon="-5.149221" lat="43.370016"><ele>48.75</ele></trkpt>
<trkpt lon="-5.148488" lat="43.370586"><ele>49.25</ele></trkpt>
<trkpt lon="-5.148329" lat="43.370780"><ele>51.0</ele></trkpt>
<trkpt lon="-5.148090" lat="43.371112"><ele>50.25</ele></trkpt>
<trkpt lon="-5.147988" lat="43.371289"><ele>47.75</ele></trkpt>
<trkpt lon="-5.147842" lat="43.371964"><ele>48.0</ele></trkpt>
<trkpt lon="-5.147813" lat="43.372194"><ele>48.0</ele></trkpt>
<trkpt lon="-5.147842" lat="43.372497"><ele>48.25</ele></trkpt>
<trkpt lon="-5.147942" lat="43.372888"><ele>42.5</ele></trkpt>
<trkpt lon="-5.148052" lat="43.373320"><ele>44.5</ele></trkpt>
<trkpt lon="-5.148238" lat="43.373676"><ele>45.0</ele></trkpt>
<trkpt lon="-5.148393" lat="43.373873"><ele>45.25</ele></trkpt>
<trkpt lon="-5.148614" lat="43.374050"><ele>44.5</ele></trkpt>
<trkpt lon="-5.148820" lat="43.374167"><ele>44.25</ele></trkpt>
<trkpt lon="-5.149189" lat="43.374242"><ele>43.0</ele></trkpt>
<trkpt lon="-5.149503" lat="43.374286"><ele>43.25</ele></trkpt>
<trkpt lon="-5.149777" lat="43.374302"><ele>43.5</ele></trkpt>
<trkpt lon="-5.150164" lat="43.374311"><ele>44.0</ele></trkpt>
<trkpt lon="-5.150653" lat="43.374335"><ele>44.25</ele></trkpt>
<trkpt lon="-5.151213" lat="43.374381"><ele>45.0</ele></trkpt>
<trkpt lon="-5.152164" lat="43.374472"><ele>44.0</ele></trkpt>
<trkpt lon="-5.152266" lat="43.374476"><ele>44.25</ele></trkpt>
<trkpt lon="-5.152597" lat="43.374459"><ele>44.0</ele></trkpt>
<trkpt lon="-5.152925" lat="43.374434"><ele>43.75</ele></trkpt>
<trkpt lon="-5.153243" lat="43.374399"><ele>44.25</ele></trkpt>
<trkpt lon="-5.154236" lat="43.374202"><ele>45.0</ele></trkpt>
<trkpt lon="-5.155382" lat="43.374012"><ele>46.0</ele></trkpt>
<trkpt lon="-5.155796" lat="43.373968"><ele>45.25</ele></trkpt>
<trkpt lon="-5.156161" lat="43.373943"><ele>43.75</ele></trkpt>
<trkpt lon="-5.157536" lat="43.373910"><ele>44.5</ele></trkpt>
<trkpt lon="-5.158213" lat="43.373932"><ele>45.5</ele></trkpt>
<trkpt lon="-5.158967" lat="43.374041"><ele>47.25</ele></trkpt>
<trkpt lon="-5.159363" lat="43.374138"><ele>48.0</ele></trkpt>
<trkpt lon="-5.159912" lat="43.374370"><ele>50.0</ele></trkpt>
<trkpt lon="-5.160361" lat="43.374647"><ele>51.75</ele></trkpt>
<trkpt lon="-5.160870" lat="43.375018"><ele>52.75</ele></trkpt>
<trkpt lon="-5.161485" lat="43.375507"><ele>52.25</ele></trkpt>
<trkpt lon="-5.162022" lat="43.375919"><ele>51.75</ele></trkpt>
<trkpt lon="-5.162338" lat="43.376100"><ele>52.0</ele></trkpt>
<trkpt lon="-5.163064" lat="43.376376"><ele>52.75</ele></trkpt>
<trkpt lon="-5.164214" lat="43.376741"><ele>53.5</ele></trkpt>
<trkpt lon="-5.164758" lat="43.376940"><ele>53.75</ele></trkpt>
<trkpt lon="-5.165065" lat="43.377097"><ele>54.25</ele></trkpt>
<trkpt lon="-5.165324" lat="43.377299"><ele>55.0</ele></trkpt>
<trkpt lon="-5.165674" lat="43.377754"><ele>54.5</ele></trkpt>
<trkpt lon="-5.165979" lat="43.378298"><ele>53.25</ele></trkpt>
<trkpt lon="-5.166207" lat="43.378659"><ele>52.75</ele></trkpt>
<trkpt lon="-5.166452" lat="43.378882"><ele>51.25</ele></trkpt>
<trkpt lon="-5.166704" lat="43.379053"><ele>50.5</ele></trkpt>
<trkpt lon="-5.167618" lat="43.379419"><ele>48.75</ele></trkpt>
<trkpt lon="-5.168158" lat="43.379736"><ele>48.75</ele></trkpt>
<trkpt lon="-5.168527" lat="43.380097"><ele>47.25</ele></trkpt>
<trkpt lon="-5.169160" lat="43.380917"><ele>45.5</ele></trkpt>
<trkpt lon="-5.169467" lat="43.381251"><ele>46.25</ele></trkpt>
<trkpt lon="-5.169786" lat="43.381475"><ele>45.75</ele></trkpt>
<trkpt lon="-5.170713" lat="43.381969"><ele>44.25</ele></trkpt>
<trkpt lon="-5.171029" lat="43.382165"><ele>43.25</ele></trkpt>
<trkpt lon="-5.171302" lat="43.382348"><ele>41.25</ele></trkpt>
<trkpt lon="-5.171858" lat="43.382796"><ele>42.5</ele></trkpt>
<trkpt lon="-5.172035" lat="43.382897"><ele>40.75</ele></trkpt>
<trkpt lon="-5.172181" lat="43.383005"><ele>41.0</ele></trkpt>
<trkpt lon="-5.172456" lat="43.383246"><ele>42.0</ele></trkpt>
<trkpt lon="-5.173886" lat="43.384368"><ele>39.25</ele></trkpt>
<trkpt lon="-5.174361" lat="43.384712"><ele>38.5</ele></trkpt>
<trkpt lon="-5.174773" lat="43.385049"><ele>39.25</ele></trkpt>
<trkpt lon="-5.175095" lat="43.385295"><ele>38.5</ele></trkpt>
<trkpt lon="-5.175306" lat="43.385455"><ele>37.25</ele></trkpt>
<trkpt lon="-5.175553" lat="43.385646"><ele>36.5</ele></trkpt>
<trkpt lon="-5.175740" lat="43.385824"><ele>35.25</ele></trkpt>
<trkpt lon="-5.175873" lat="43.386000"><ele>35.0</ele></trkpt>
<trkpt lon="-5.176054" lat="43.386376"><ele>35.25</ele></trkpt>
<trkpt lon="-5.176235" lat="43.386723"><ele>34.0</ele></trkpt>
<trkpt lon="-5.176434" lat="43.386920"><ele>33.0</ele></trkpt>
<trkpt lon="-5.176669" lat="43.387073"><ele>36.5</ele></trkpt>
<trkpt lon="-5.177345" lat="43.387305"><ele>32.5</ele></trkpt>
<trkpt lon="-5.178107" lat="43.387597"><ele>34.25</ele></trkpt>
<trkpt lon="-5.178359" lat="43.387709"><ele>35.0</ele></trkpt>
<trkpt lon="-5.178531" lat="43.387692"><ele>33.5</ele></trkpt>
<trkpt lon="-5.178909" lat="43.387674"><ele>33.25</ele></trkpt>
<trkpt lon="-5.179113" lat="43.387732"><ele>35.25</ele></trkpt>
<trkpt lon="-5.179246" lat="43.387889"><ele>34.75</ele></trkpt>
<trkpt lon="-5.179299" lat="43.388141"><ele>34.5</ele></trkpt>
<trkpt lon="-5.179393" lat="43.388375"><ele>35.5</ele></trkpt>
<trkpt lon="-5.179543" lat="43.388556"><ele>35.75</ele></trkpt>
<trkpt lon="-5.179631" lat="43.388618"><ele>35.5</ele></trkpt>
<trkpt lon="-5.179742" lat="43.388664"><ele>35.0</ele></trkpt>
<trkpt lon="-5.179853" lat="43.388687"><ele>33.5</ele></trkpt>
<trkpt lon="-5.180167" lat="43.388660"><ele>32.5</ele></trkpt>
<trkpt lon="-5.180907" lat="43.388350"><ele>33.25</ele></trkpt>
<trkpt lon="-5.181428" lat="43.388256"><ele>31.0</ele></trkpt>
<trkpt lon="-5.181676" lat="43.388243"><ele>31.25</ele></trkpt>
<trkpt lon="-5.181746" lat="43.388204"><ele>30.75</ele></trkpt>
<trkpt lon="-5.182004" lat="43.388089"><ele>29.25</ele></trkpt>
<trkpt lon="-5.182340" lat="43.387960"><ele>29.0</ele></trkpt>
<trkpt lon="-5.182457" lat="43.387951"><ele>29.0</ele></trkpt>
<trkpt lon="-5.182582" lat="43.387925"><ele>29.0</ele></trkpt>
<trkpt lon="-5.182649" lat="43.387949"><ele>29.0</ele></trkpt>
<trkpt lon="-5.182742" lat="43.388022"><ele>29.0</ele></trkpt>
<trkpt lon="-5.182801" lat="43.388090"><ele>29.0</ele></trkpt>
  </trkseg></trk></gpx>
